{"type":"FeatureCollection","year":-13,"events":[{"id":"-00130318","year":-13,"month":3,"day":18,"time_tdt":"09:59:34","type":"금환일식","type_code":"A","saros":68,"gamma":0.02381,"magnitude":0.99592,"greatest":{"lat":-0.75254,"lng":76.5697},"path_width_km":14.3,"duration":"00m27s","delta_t_seconds":10663.8,"catalog_number":4739,"source":"NASA Five Millennium Canon of Solar Eclipses","source_url":"https://eclipse.gsfc.nasa.gov/SEsearch/SEsearchmap.php?Ecl=-00130318"},{"id":"-00130912","year":-13,"month":9,"day":12,"time_tdt":"01:01:55","type":"금환일식","type_code":"A","saros":73,"gamma":0.005,"magnitude":0.96848,"greatest":{"lat":5.8663,"lng":-151.7417},"path_width_km":113.4,"duration":"03m41s","delta_t_seconds":10658.9,"catalog_number":4740,"source":"NASA Five Millennium Canon of Solar Eclipses","source_url":"https://eclipse.gsfc.nasa.gov/SEsearch/SEsearchmap.php?Ecl=-00130912"}],"features":[{"type":"Feature","id":"-00130318:north:0","properties":{"id":"-00130318","year":-13,"month":3,"day":18,"time_tdt":"09:59:34","type":"금환일식","type_code":"A","saros":68,"gamma":0.02381,"magnitude":0.99592,"greatest":{"lat":-0.75254,"lng":76.5697},"path_width_km":14.3,"duration":"00m27s","delta_t_seconds":10663.8,"catalog_number":4739,"source":"NASA Five Millennium Canon of Solar Eclipses","source_url":"https://eclipse.gsfc.nasa.gov/SEsearch/SEsearchmap.php?Ecl=-00130318","boundary":"north","name":"-13-03-18 금환일식"},"geometry":{"type":"LineString","coordinates":[[14.11523,-16.32264],[14.5,-16.33803],[15,-16.35694],[15.5,-16.37459],[16,-16.39099],[16.5,-16.4061],[17,-16.41991],[17.5,-16.43242],[18,-16.44359],[18.5,-16.45342],[19,-16.46188],[19.5,-16.46896],[20,-16.47464],[20.5,-16.47891],[21,-16.48173],[21.5,-16.4831],[22,-16.483],[22.5,-16.48141],[23,-16.4783],[23.5,-16.47365],[24,-16.46745],[24.5,-16.45968],[25,-16.45031],[25.5,-16.43932],[26,-16.42669],[26.5,-16.4124],[27,-16.39642],[27.5,-16.37873],[28,-16.35931],[28.5,-16.33812],[29,-16.31516],[29.5,-16.29039],[30,-16.26378],[30.5,-16.23532],[31,-16.20496],[31.5,-16.17269],[32,-16.13848],[32.5,-16.1023],[33,-16.06412],[33.5,-16.02392],[34,-15.98165],[34.5,-15.93729],[35,-15.89081],[35.5,-15.84217],[36,-15.79136],[36.5,-15.73832],[37,-15.68302],[37.5,-15.62544],[38,-15.56554],[38.5,-15.50328],[39,-15.43862],[39.5,-15.37152],[40,-15.30196],[40.5,-15.22988],[41,-15.15526],[41.5,-15.07804],[42,-14.99819],[42.5,-14.91566],[43,-14.83042],[43.5,-14.74241],[44,-14.6516],[44.5,-14.55794],[45,-14.46138],[45.5,-14.36188],[46,-14.25939],[46.5,-14.15385],[47,-14.04523],[47.5,-13.93346],[48,-13.81851],[48.5,-13.70031],[49,-13.57882],[49.5,-13.45398],[50,-13.32574],[50.5,-13.19405],[51,-13.05885],[51.5,-12.92008],[52,-12.7777],[52.5,-12.63164],[53,-12.48185],[53.5,-12.32828],[54,-12.17087],[54.5,-12.00955],[55,-11.84429],[55.5,-11.67502],[56,-11.50168],[56.5,-11.32423],[57,-11.14261],[57.5,-10.95678],[58,-10.76668],[58.5,-10.57226],[59,-10.37348],[59.5,-10.17029],[60,-9.96266],[60.5,-9.75055],[61,-9.53392],[61.5,-9.31275],[62,-9.08701],[62.5,-8.85667],[63,-8.62173],[63.5,-8.38218],[64,-8.13801],[64.5,-7.88922],[65,-7.63584],[65.5,-7.37788],[66,-7.11537],[66.5,-6.84834],[67,-6.57686],[67.5,-6.30097],[68,-6.02075],[68.5,-5.73628],[69,-5.44765],[69.5,-5.15496],[70,-4.85835],[70.5,-4.55794],[71,-4.25386],[71.5,-3.94629],[72,-3.63539],[72.5,-3.32135],[73,-3.00435],[73.5,-2.68461],[74,-2.36235],[74.5,-2.03779],[75,-1.71118],[75.5,-1.38276],[76,-1.05278],[76.5,-0.72151],[77,-0.38921],[77.5,-0.05615],[78,0.27739],[78.5,0.61114],[79,0.94483],[79.5,1.27819],[80,1.61096],[80.5,1.94287],[81,2.27367],[81.5,2.6031],[82,2.93093],[82.5,3.25694],[83,3.58089],[83.5,3.90257],[84,4.2218],[84.5,4.53838],[85,4.85214],[85.5,5.16292],[86,5.47057],[86.5,5.77494],[87,6.07592],[87.5,6.3734],[88,6.66726],[88.5,6.95742],[89,7.24381],[89.5,7.52634],[90,7.80497],[90.5,8.07965],[91,8.35033],[91.5,8.61697],[92,8.87957],[92.5,9.1381],[93,9.39255],[93.5,9.64292],[94,9.8892],[94.5,10.13141],[95,10.36957],[95.5,10.60367],[96,10.83376],[96.5,11.05984],[97,11.28196],[97.5,11.50013],[98,11.71439],[98.5,11.92479],[99,12.13134],[99.5,12.3341],[100,12.53311],[100.5,12.7284],[101,12.92002],[101.5,13.10801],[102,13.29241],[102.5,13.47328],[103,13.65066],[103.5,13.82459],[104,13.99511],[104.5,14.16228],[105,14.32614],[105.5,14.48674],[106,14.64412],[106.5,14.79832],[107,14.94939],[107.5,15.09738],[108,15.24233],[108.5,15.38428],[109,15.52328],[109.5,15.65937],[110,15.79258],[110.5,15.92298],[111,16.05058],[111.5,16.17544],[112,16.29759],[112.5,16.41708],[113,16.53394],[113.5,16.6482],[114,16.75992],[114.5,16.86911],[115,16.97583],[115.5,17.0801],[116,17.18196],[116.5,17.28144],[117,17.37858],[117.5,17.47341],[118,17.56596],[118.5,17.65627],[119,17.74436],[119.5,17.83027],[120,17.91402],[120.5,17.99564],[121,18.07517],[121.5,18.15263],[122,18.22805],[122.5,18.30146],[123,18.37288],[123.5,18.44234],[124,18.50986],[124.5,18.57547],[125,18.6392],[125.5,18.70107],[126,18.7611],[126.5,18.81932],[127,18.87575],[127.5,18.9304],[128,18.98331],[128.5,19.0345],[129,19.08398],[129.5,19.13178],[130,19.17792],[130.5,19.22242],[131,19.26529],[131.5,19.30656],[132,19.34625],[132.5,19.38437],[133,19.42094],[133.5,19.45598],[134,19.48951],[134.5,19.52155],[135,19.55211],[135.5,19.58121],[136,19.60887],[136.5,19.6351],[137,19.65991],[137.5,19.68333],[138,19.70537],[138.5,19.72604]]}},{"type":"Feature","id":"-00130318:center:0","properties":{"id":"-00130318","year":-13,"month":3,"day":18,"time_tdt":"09:59:34","type":"금환일식","type_code":"A","saros":68,"gamma":0.02381,"magnitude":0.99592,"greatest":{"lat":-0.75254,"lng":76.5697},"path_width_km":14.3,"duration":"00m27s","delta_t_seconds":10663.8,"catalog_number":4739,"source":"NASA Five Millennium Canon of Solar Eclipses","source_url":"https://eclipse.gsfc.nasa.gov/SEsearch/SEsearchmap.php?Ecl=-00130318","boundary":"center","name":"-13-03-18 금환일식"},"geometry":{"type":"LineString","coordinates":[[14.10933,-16.6434],[14.5,-16.65324],[15,-16.66988],[15.5,-16.68525],[16,-16.69937],[16.5,-16.71219],[17,-16.72372],[17.5,-16.73392],[18,-16.7428],[18.5,-16.75032],[19,-16.75648],[19.5,-16.76125],[20,-16.76462],[20.5,-16.76657],[21,-16.76707],[21.5,-16.76612],[22,-16.76369],[22.5,-16.75977],[23,-16.75433],[23.5,-16.74735],[24,-16.73882],[24.5,-16.7287],[25,-16.71699],[25.5,-16.70366],[26,-16.68868],[26.5,-16.67204],[27,-16.65371],[27.5,-16.63367],[28,-16.6119],[28.5,-16.58836],[29,-16.56304],[29.5,-16.53592],[30,-16.50695],[30.5,-16.47613],[31,-16.44342],[31.5,-16.40879],[32,-16.37222],[32.5,-16.33368],[33,-16.29314],[33.5,-16.25057],[34,-16.20594],[34.5,-16.15923],[35,-16.11039],[35.5,-16.0594],[36,-16.00622],[36.5,-15.95083],[37,-15.89318],[37.5,-15.83325],[38,-15.77099],[38.5,-15.70638],[39,-15.63938],[39.5,-15.56994],[40,-15.49803],[40.5,-15.42362],[41,-15.34666],[41.5,-15.26711],[42,-15.18493],[42.5,-15.10008],[43,-15.01252],[43.5,-14.9222],[44,-14.82907],[44.5,-14.73311],[45,-14.63425],[45.5,-14.53245],[46,-14.42767],[46.5,-14.31985],[47,-14.20895],[47.5,-14.09492],[48,-13.97771],[48.5,-13.85726],[49,-13.73352],[49.5,-13.60645],[50,-13.47599],[50.5,-13.34209],[51,-13.20469],[51.5,-13.06373],[52,-12.91917],[52.5,-12.77095],[53,-12.61901],[53.5,-12.4633],[54,-12.30376],[54.5,-12.14034],[55,-11.97299],[55.5,-11.80164],[56,-11.62626],[56.5,-11.44677],[57,-11.26314],[57.5,-11.07532],[58,-10.88325],[58.5,-10.68689],[59,-10.48619],[59.5,-10.28111],[60,-10.07162],[60.5,-9.85768],[61,-9.63925],[61.5,-9.41632],[62,-9.18884],[62.5,-8.95681],[63,-8.72022],[63.5,-8.47905],[64,-8.23331],[64.5,-7.98301],[65,-7.72815],[65.5,-7.46876],[66,-7.20488],[66.5,-6.93654],[67,-6.66379],[67.5,-6.3867],[68,-6.10534],[68.5,-5.8198],[69,-5.53016],[69.5,-5.23655],[70,-4.93908],[70.5,-4.63788],[71,-4.3331],[71.5,-4.0249],[72,-3.71346],[72.5,-3.39896],[73,-3.08159],[73.5,-2.76157],[74,-2.43912],[74.5,-2.11446],[75,-1.78784],[75.5,-1.4595],[76,-1.1297],[76.5,-0.7987],[77,-0.46677],[77.5,-0.13418],[78,0.1988],[78.5,0.53191],[79,0.86486],[79.5,1.1974],[80,1.52925],[80.5,1.86015],[81,2.18986],[81.5,2.51813],[82,2.84472],[82.5,3.1694],[83,3.49195],[83.5,3.81217],[84,4.12987],[84.5,4.44485],[85,4.75695],[85.5,5.06601],[86,5.37188],[86.5,5.67444],[87,5.97354],[87.5,6.2691],[88,6.561],[88.5,6.84915],[89,7.1335],[89.5,7.41396],[90,7.69047],[90.5,7.96301],[91,8.23151],[91.5,8.49597],[92,8.75634],[92.5,9.01263],[93,9.26481],[93.5,9.51289],[94,9.75687],[94.5,9.99677],[95,10.23259],[95.5,10.46435],[96,10.69207],[96.5,10.91579],[97,11.13552],[97.5,11.3513],[98,11.56317],[98.5,11.77116],[99,11.9753],[99.5,12.17565],[100,12.37223],[100.5,12.56509],[101,12.75428],[101.5,12.93984],[102,13.12181],[102.5,13.30024],[103,13.47518],[103.5,13.64666],[104,13.81475],[104.5,13.97948],[105,14.14089],[105.5,14.29905],[106,14.45398],[106.5,14.60574],[107,14.75438],[107.5,14.89993],[108,15.04244],[108.5,15.18195],[109,15.31852],[109.5,15.45217],[110,15.58296],[110.5,15.71092],[111,15.8361],[111.5,15.95854],[112,16.07827],[112.5,16.19534],[113,16.30979],[113.5,16.42165],[114,16.53095],[114.5,16.63775],[115,16.74206],[115.5,16.84394],[116,16.9434],[116.5,17.0405],[117,17.13526],[117.5,17.2277],[118,17.31788],[118.5,17.40581],[119,17.49154],[119.5,17.57508],[120,17.65647],[120.5,17.73574],[121,17.81292],[121.5,17.88803],[122,17.96111],[122.5,18.03218],[123,18.10126],[123.5,18.16839],[124,18.23359],[124.5,18.29689],[125,18.3583],[125.5,18.41786],[126,18.47559],[126.5,18.53151],[127,18.58564],[127.5,18.63801],[128,18.68864],[128.5,18.73754],[129,18.78475],[129.5,18.83028],[130,18.87416],[130.5,18.9164],[131,18.95702],[131.5,18.99604],[132,19.03348],[132.5,19.06937],[133,19.10371],[133.5,19.13653],[134,19.16784],[134.5,19.19767],[135,19.22602],[135.5,19.25292],[136,19.27837],[136.5,19.30241],[137,19.32504],[137.5,19.34628],[138,19.36615],[138.5,19.38466],[138.53903,19.38974]]}},{"type":"Feature","id":"-00130318:south:0","properties":{"id":"-00130318","year":-13,"month":3,"day":18,"time_tdt":"09:59:34","type":"금환일식","type_code":"A","saros":68,"gamma":0.02381,"magnitude":0.99592,"greatest":{"lat":-0.75254,"lng":76.5697},"path_width_km":14.3,"duration":"00m27s","delta_t_seconds":10663.8,"catalog_number":4739,"source":"NASA Five Millennium Canon of Solar Eclipses","source_url":"https://eclipse.gsfc.nasa.gov/SEsearch/SEsearchmap.php?Ecl=-00130318","boundary":"south","name":"-13-03-18 금환일식"},"geometry":{"type":"LineString","coordinates":[[14.0918,-16.95569],[14.5,-16.96834],[15,-16.98271],[15.5,-16.99581],[16,-17.00765],[16.5,-17.01819],[17,-17.02744],[17.5,-17.03536],[18,-17.04194],[18.5,-17.04717],[19,-17.05103],[19.5,-17.0535],[20,-17.05456],[20.5,-17.0542],[21,-17.05239],[21.5,-17.04913],[22,-17.04438],[22.5,-17.03813],[23,-17.03037],[23.5,-17.02106],[24,-17.0102],[24.5,-16.99776],[25,-16.98371],[25.5,-16.96804],[26,-16.95073],[26.5,-16.93175],[27,-16.91108],[27.5,-16.88869],[28,-16.86457],[28.5,-16.83869],[29,-16.81102],[29.5,-16.78154],[30,-16.75023],[30.5,-16.71706],[31,-16.68199],[31.5,-16.64501],[32,-16.60609],[32.5,-16.5652],[33,-16.5223],[33.5,-16.47738],[34,-16.4304],[34.5,-16.38133],[35,-16.33014],[35.5,-16.2768],[36,-16.22127],[36.5,-16.16353],[37,-16.10353],[37.5,-16.04125],[38,-15.97665],[38.5,-15.9097],[39,-15.84035],[39.5,-15.76857],[40,-15.69433],[40.5,-15.61758],[41,-15.53829],[41.5,-15.45641],[42,-15.37191],[42.5,-15.28474],[43,-15.19486],[43.5,-15.10222],[44,-15.00679],[44.5,-14.90853],[45,-14.80737],[45.5,-14.70328],[46,-14.59621],[46.5,-14.48611],[47,-14.37294],[47.5,-14.25665],[48,-14.13717],[48.5,-14.01448],[49,-13.8885],[49.5,-13.7592],[50,-13.62651],[50.5,-13.4904],[51,-13.35079],[51.5,-13.20765],[52,-13.06091],[52.5,-12.91052],[53,-12.75643],[53.5,-12.59858],[54,-12.43692],[54.5,-12.27139],[55,-12.10194],[55.5,-11.92853],[56,-11.75108],[56.5,-11.56956],[57,-11.38392],[57.5,-11.1941],[58,-11.00006],[58.5,-10.80175],[59,-10.59913],[59.5,-10.39216],[60,-10.1808],[60.5,-9.96502],[61,-9.74479],[61.5,-9.52008],[62,-9.29087],[62.5,-9.05715],[63,-8.81889],[63.5,-8.57611],[64,-8.32879],[64.5,-8.07695],[65,-7.82061],[65.5,-7.55979],[66,-7.29453],[66.5,-7.02486],[67,-6.75085],[67.5,-6.47255],[68,-6.19004],[68.5,-5.90342],[69,-5.61277],[69.5,-5.31822],[70,-5.01987],[70.5,-4.71788],[71,-4.41239],[71.5,-4.10356],[72,-3.79156],[72.5,-3.47659],[73,-3.15885],[73.5,-2.83853],[74,-2.51588],[74.5,-2.19111],[75,-1.86447],[75.5,-1.53621],[76,-1.20658],[76.5,-0.87584],[77,-0.54427],[77.5,-0.21213],[78,0.12031],[78.5,0.45278],[79,0.785],[79.5,1.11672],[80,1.44767],[80.5,1.77758],[81,2.10622],[81.5,2.43333],[82,2.75868],[82.5,3.08205],[83,3.40322],[83.5,3.72199],[84,4.03817],[84.5,4.35156],[85,4.66202],[85.5,4.96937],[86,5.27349],[86.5,5.57423],[87,5.87147],[87.5,6.16512],[88,6.45506],[88.5,6.74123],[89,7.02354],[89.5,7.30193],[90,7.57635],[90.5,7.84675],[91,8.1131],[91.5,8.37536],[92,8.63352],[92.5,8.88757],[93,9.1375],[93.5,9.3833],[94,9.62499],[94.5,9.86258],[95,10.09607],[95.5,10.32549],[96,10.55086],[96.5,10.77221],[97,10.98957],[97.5,11.20297],[98,11.41244],[98.5,11.61803],[99,11.81977],[99.5,12.0177],[100,12.21186],[100.5,12.4023],[101,12.58906],[101.5,12.77219],[102,12.95172],[102.5,13.12772],[103,13.30022],[103.5,13.46926],[104,13.63491],[104.5,13.79719],[105,13.95617],[105.5,14.11187],[106,14.26437],[106.5,14.41368],[107,14.55988],[107.5,14.70299],[108,14.84306],[108.5,14.98013],[109,15.11426],[109.5,15.24548],[110,15.37384],[110.5,15.49937],[111,15.62212],[111.5,15.74213],[112,15.85945],[112.5,15.97409],[113,16.08612],[113.5,16.19556],[114,16.30246],[114.5,16.40685],[115,16.50876],[115.5,16.60823],[116,16.7053],[116.5,16.8],[117,16.89237],[117.5,16.98243],[118,17.07022],[118.5,17.15578],[119,17.23912],[119.5,17.32029],[120,17.39932],[120.5,17.47623],[121,17.55105],[121.5,17.62381],[122,17.69454],[122.5,17.76326],[123,17.83001],[123.5,17.8948],[124,17.95767],[124.5,18.01864],[125,18.07773],[125.5,18.13498],[126,18.19039],[126.5,18.244],[127,18.29583],[127.5,18.3459],[128,18.39424],[128.5,18.44086],[129,18.48579],[129.5,18.52904],[130,18.57065],[130.5,18.61062],[131,18.64898],[131.5,18.68575],[132,18.72094],[132.5,18.75458],[133,18.78668],[133.5,18.81727],[134,18.84635],[134.5,18.87396],[135,18.90009],[135.5,18.92478],[136,18.94803],[136.5,18.96987],[137,18.99031],[137.5,19.00936],[138,19.02705],[138.5,19.04338],[138.55664,19.04514]]}},{"type":"Feature","id":"-00130912:north:0","properties":{"id":"-00130912","year":-13,"month":9,"day":12,"time_tdt":"01:01:55","type":"금환일식","type_code":"A","saros":73,"gamma":0.005,"magnitude":0.96848,"greatest":{"lat":5.8663,"lng":-151.7417},"path_width_km":113.4,"duration":"03m41s","delta_t_seconds":10658.9,"catalog_number":4740,"source":"NASA Five Millennium Canon of Solar Eclipses","source_url":"https://eclipse.gsfc.nasa.gov/SEsearch/SEsearchmap.php?Ecl=-00130912","boundary":"north","name":"-13-09-12 금환일식"},"geometry":{"type":"LineString","coordinates":[[144.70508,18.43031],[145,18.45782],[145.5,18.50359],[146,18.54826],[146.5,18.59183],[147,18.63426],[147.5,18.67556],[148,18.71569],[148.5,18.75465],[149,18.79242],[149.5,18.82898],[150,18.86431],[150.5,18.89841],[151,18.93125],[151.5,18.9628],[152,18.99307],[152.5,19.02202],[153,19.04964],[153.5,19.07591],[154,19.10081],[154.5,19.12432],[155,19.14643],[155.5,19.1671],[156,19.18633],[156.5,19.20408],[157,19.22034],[157.5,19.23509],[158,19.24831],[158.5,19.25997],[159,19.27004],[159.5,19.27851],[160,19.28536],[160.5,19.29055],[161,19.29407],[161.5,19.29589],[162,19.29597],[162.5,19.29431],[163,19.29087],[163.5,19.28562],[164,19.27853],[164.5,19.26959],[165,19.25875],[165.5,19.24599],[166,19.23129],[166.5,19.2146],[167,19.19591],[167.5,19.17516],[168,19.15235],[168.5,19.12742],[169,19.10036],[169.5,19.07112],[170,19.03966],[170.5,19.00596],[171,18.96998],[171.5,18.93168],[172,18.89102],[172.5,18.84796],[173,18.80246],[173.5,18.75448],[174,18.70399],[174.5,18.65094],[175,18.59528],[175.5,18.53698],[176,18.47598],[176.5,18.41224],[177,18.34572],[177.5,18.27637],[178,18.20414],[178.5,18.12897],[179,18.05083],[179.5,17.96966],[180,17.8854]]}},{"type":"Feature","id":"-00130912:north:1","properties":{"id":"-00130912","year":-13,"month":9,"day":12,"time_tdt":"01:01:55","type":"금환일식","type_code":"A","saros":73,"gamma":0.005,"magnitude":0.96848,"greatest":{"lat":5.8663,"lng":-151.7417},"path_width_km":113.4,"duration":"03m41s","delta_t_seconds":10658.9,"catalog_number":4740,"source":"NASA Five Millennium Canon of Solar Eclipses","source_url":"https://eclipse.gsfc.nasa.gov/SEsearch/SEsearchmap.php?Ecl=-00130912","boundary":"north","name":"-13-09-12 금환일식"},"geometry":{"type":"LineString","coordinates":[[-179.5,17.798],[-179,17.70742],[-178.5,17.61358],[-178,17.51645],[-177.5,17.41596],[-177,17.31205],[-176.5,17.20466],[-176,17.09375],[-175.5,16.97923],[-175,16.86106],[-174.5,16.73918],[-174,16.61351],[-173.5,16.48401],[-173,16.3506],[-172.5,16.21322],[-172,16.07181],[-171.5,15.9263],[-171,15.77663],[-170.5,15.62275],[-170,15.46457],[-169.5,15.30205],[-169,15.13512],[-168.5,14.96371],[-168,14.78778],[-167.5,14.60726],[-167,14.4221],[-166.5,14.23224],[-166,14.03764],[-165.5,13.83824],[-165,13.634],[-164.5,13.42489],[-164,13.21086],[-163.5,12.99188],[-163,12.76794],[-162.5,12.53901],[-162,12.30507],[-161.5,12.06613],[-161,11.82219],[-160.5,11.57326],[-160,11.31936],[-159.5,11.06052],[-159,10.79678],[-158.5,10.52821],[-158,10.25485],[-157.5,9.9768],[-157,9.69414],[-156.5,9.40697],[-156,9.11542],[-155.5,8.81961],[-155,8.5197],[-154.5,8.21583],[-154,7.9082],[-153.5,7.59698],[-153,7.28237],[-152.5,6.9646],[-152,6.64389],[-151.5,6.32048],[-151,5.99461],[-150.5,5.66655],[-150,5.33657],[-149.5,5.00493],[-149,4.67191],[-148.5,4.33781],[-148,4.0029],[-147.5,3.66747],[-147,3.3318],[-146.5,2.99618],[-146,2.66089],[-145.5,2.32619],[-145,1.99236],[-144.5,1.65965],[-144,1.32831],[-143.5,0.99858],[-143,0.67069],[-142.5,0.34486],[-142,0.02128],[-141.5,-0.29984],[-141,-0.61832],[-140.5,-0.93401],[-140,-1.24675],[-139.5,-1.55639],[-139,-1.86282],[-138.5,-2.1659],[-138,-2.46555],[-137.5,-2.76166],[-137,-3.05415],[-136.5,-3.34297],[-136,-3.62803],[-135.5,-3.90931],[-135,-4.18674],[-134.5,-4.46031],[-134,-4.72997],[-133.5,-4.99573],[-133,-5.25756],[-132.5,-5.51546],[-132,-5.76942],[-131.5,-6.01947],[-131,-6.2656],[-130.5,-6.50784],[-130,-6.74619],[-129.5,-6.98069],[-129,-7.21137],[-128.5,-7.43824],[-128,-7.66133],[-127.5,-7.8807],[-127,-8.09636],[-126.5,-8.30836],[-126,-8.51673],[-125.5,-8.72151],[-125,-8.92275],[-124.5,-9.12049],[-124,-9.31476],[-123.5,-9.50561],[-123,-9.69309],[-122.5,-9.87724],[-122,-10.0581],[-121.5,-10.23571],[-121,-10.41012],[-120.5,-10.58137],[-120,-10.74951],[-119.5,-10.91457],[-119,-11.07661],[-118.5,-11.23566],[-118,-11.39177],[-117.5,-11.54498],[-117,-11.69532],[-116.5,-11.84284],[-116,-11.98758],[-115.5,-12.12959],[-115,-12.26889],[-114.5,-12.40552],[-114,-12.53954],[-113.5,-12.67096],[-113,-12.79983],[-112.5,-12.92619],[-112,-13.05007],[-111.5,-13.1715],[-111,-13.29053],[-110.5,-13.40717],[-110,-13.52148],[-109.5,-13.63347],[-109,-13.74319],[-108.5,-13.85066],[-108,-13.95591],[-107.5,-14.05897],[-107,-14.15988],[-106.5,-14.25866],[-106,-14.35535],[-105.5,-14.44996],[-105,-14.54253],[-104.5,-14.63308],[-104,-14.72164],[-103.5,-14.80824],[-103,-14.8929],[-102.5,-14.97564],[-102,-15.0565],[-101.5,-15.13549],[-101,-15.21265],[-100.5,-15.28798],[-100,-15.36152],[-99.5,-15.43328],[-99,-15.50329],[-98.5,-15.57158],[-98,-15.63815],[-97.5,-15.70303],[-97,-15.76625],[-96.5,-15.82782],[-96,-15.88776],[-95.5,-15.94609],[-95,-16.00283],[-94.5,-16.058],[-94,-16.11161],[-93.5,-16.16369],[-93,-16.21425],[-92.5,-16.2633],[-92,-16.31087],[-91.85156,-16.32471]]}},{"type":"Feature","id":"-00130912:center:0","properties":{"id":"-00130912","year":-13,"month":9,"day":12,"time_tdt":"01:01:55","type":"금환일식","type_code":"A","saros":73,"gamma":0.005,"magnitude":0.96848,"greatest":{"lat":5.8663,"lng":-151.7417},"path_width_km":113.4,"duration":"03m41s","delta_t_seconds":10658.9,"catalog_number":4740,"source":"NASA Five Millennium Canon of Solar Eclipses","source_url":"https://eclipse.gsfc.nasa.gov/SEsearch/SEsearchmap.php?Ecl=-00130912","boundary":"center","name":"-13-09-12 금환일식"},"geometry":{"type":"LineString","coordinates":[[144.81509,17.64551],[145,17.66312],[145.5,17.71139],[146,17.75856],[146.5,17.80462],[147,17.84957],[147.5,17.89337],[148,17.93602],[148.5,17.9775],[149,18.01779],[149.5,18.05688],[150,18.09475],[150.5,18.13138],[151,18.16675],[151.5,18.20085],[152,18.23365],[152.5,18.26515],[153,18.29531],[153.5,18.32413],[154,18.35158],[154.5,18.37764],[155,18.40229],[155.5,18.42551],[156,18.44728],[156.5,18.46758],[157,18.48639],[157.5,18.50368],[158,18.51943],[158.5,18.53363],[159,18.54624],[159.5,18.55724],[160,18.56662],[160.5,18.57433],[161,18.58037],[161.5,18.5847],[162,18.5873],[162.5,18.58813],[163,18.58719],[163.5,18.58443],[164,18.57982],[164.5,18.57335],[165,18.56498],[165.5,18.55468],[166,18.54242],[166.5,18.52816],[167,18.51189],[167.5,18.49356],[168,18.47314],[168.5,18.45061],[169,18.42591],[169.5,18.39903],[170,18.36992],[170.5,18.33855],[171,18.30488],[171.5,18.26887],[172,18.23048],[172.5,18.18968],[173,18.14642],[173.5,18.10066],[174,18.05236],[174.5,18.00148],[175,17.94797],[175.5,17.89179],[176,17.83289],[176.5,17.77123],[177,17.70676],[177.5,17.63942],[178,17.56918],[178.5,17.49597],[179,17.41975],[179.5,17.34047],[180,17.25807]]}},{"type":"Feature","id":"-00130912:center:1","properties":{"id":"-00130912","year":-13,"month":9,"day":12,"time_tdt":"01:01:55","type":"금환일식","type_code":"A","saros":73,"gamma":0.005,"magnitude":0.96848,"greatest":{"lat":5.8663,"lng":-151.7417},"path_width_km":113.4,"duration":"03m41s","delta_t_seconds":10658.9,"catalog_number":4740,"source":"NASA Five Millennium Canon of Solar Eclipses","source_url":"https://eclipse.gsfc.nasa.gov/SEsearch/SEsearchmap.php?Ecl=-00130912","boundary":"center","name":"-13-09-12 금환일식"},"geometry":{"type":"LineString","coordinates":[[-179.5,17.1725],[-179,17.0837],[-178.5,16.99162],[-178,16.8962],[-177.5,16.79737],[-177,16.69509],[-176.5,16.58929],[-176,16.47992],[-175.5,16.3669],[-175,16.25018],[-174.5,16.12969],[-174,16.00538],[-173.5,15.87717],[-173,15.745],[-172.5,15.60881],[-172,15.46854],[-171.5,15.32411],[-171,15.17546],[-170.5,15.02253],[-170,14.86525],[-169.5,14.70356],[-169,14.5374],[-168.5,14.3667],[-168,14.1914],[-167.5,14.01145],[-167,13.82678],[-166.5,13.63735],[-166,13.44311],[-165.5,13.24399],[-165,13.03997],[-164.5,12.83099],[-164,12.61703],[-163.5,12.39805],[-163,12.17403],[-162.5,11.94495],[-162,11.71079],[-161.5,11.47156],[-161,11.22726],[-160.5,10.97789],[-160,10.7235],[-159.5,10.4641],[-159,10.19974],[-158.5,9.93048],[-158,9.65639],[-157.5,9.37755],[-157,9.09405],[-156.5,8.806],[-156,8.51353],[-155.5,8.21676],[-155,7.91586],[-154.5,7.61098],[-154,7.3023],[-153.5,6.99002],[-153,6.67435],[-152.5,6.35551],[-152,6.03372],[-151.5,5.70923],[-151,5.38229],[-150.5,5.05318],[-150,4.72215],[-149.5,4.38949],[-149,4.05547],[-148.5,3.72039],[-148,3.38453],[-147.5,3.04817],[-147,2.71161],[-146.5,2.37513],[-146,2.03899],[-145.5,1.70349],[-145,1.36888],[-144.5,1.03541],[-144,0.70335],[-143.5,0.37292],[-143,0.04435],[-142.5,-0.28215],[-142,-0.60637],[-141.5,-0.92812],[-141,-1.24723],[-140.5,-1.56353],[-140,-1.87687],[-139.5,-2.18712],[-139,-2.49415],[-138.5,-2.79785],[-138,-3.09811],[-137.5,-3.39484],[-137,-3.68797],[-136.5,-3.97743],[-136,-4.26316],[-135.5,-4.54512],[-135,-4.82325],[-134.5,-5.09753],[-134,-5.36794],[-133.5,-5.63446],[-133,-5.89708],[-132.5,-6.15579],[-132,-6.4106],[-131.5,-6.66151],[-131,-6.90854],[-130.5,-7.15169],[-130,-7.391],[-129.5,-7.62648],[-129,-7.85815],[-128.5,-8.08606],[-128,-8.31022],[-127.5,-8.53067],[-127,-8.74745],[-126.5,-8.9606],[-126,-9.17014],[-125.5,-9.37613],[-125,-9.5786],[-124.5,-9.77759],[-124,-9.97314],[-123.5,-10.1653],[-123,-10.35411],[-122.5,-10.53961],[-122,-10.72185],[-121.5,-10.90086],[-121,-11.0767],[-120.5,-11.2494],[-120,-11.41901],[-119.5,-11.58557],[-119,-11.74912],[-118.5,-11.9097],[-118,-12.06736],[-117.5,-12.22213],[-117,-12.37407],[-116.5,-12.5232],[-116,-12.66956],[-115.5,-12.81321],[-115,-12.95416],[-114.5,-13.09247],[-114,-13.22817],[-113.5,-13.3613],[-113,-13.49189],[-112.5,-13.61998],[-112,-13.7456],[-111.5,-13.86879],[-111,-13.98958],[-110.5,-14.10801],[-110,-14.22411],[-109.5,-14.3379],[-109,-14.44943],[-108.5,-14.55872],[-108,-14.66581],[-107.5,-14.77072],[-107,-14.87348],[-106.5,-14.97412],[-106,-15.07267],[-105.5,-15.16916],[-105,-15.26361],[-104.5,-15.35605],[-104,-15.44651],[-103.5,-15.53502],[-103,-15.62159],[-102.5,-15.70625],[-102,-15.78903],[-101.5,-15.86995],[-101,-15.94903],[-100.5,-16.0263],[-100,-16.10178],[-99.5,-16.17549],[-99,-16.24746],[-98.5,-16.31769],[-98,-16.38622],[-97.5,-16.45307],[-97,-16.51825],[-96.5,-16.58178],[-96,-16.64369],[-95.5,-16.70399],[-95,-16.7627],[-94.5,-16.81985],[-94,-16.87543],[-93.5,-16.92949],[-93,-16.98202],[-92.5,-17.03306],[-92,-17.08261],[-91.95606,-17.0898]]}},{"type":"Feature","id":"-00130912:south:0","properties":{"id":"-00130912","year":-13,"month":9,"day":12,"time_tdt":"01:01:55","type":"금환일식","type_code":"A","saros":73,"gamma":0.005,"magnitude":0.96848,"greatest":{"lat":5.8663,"lng":-151.7417},"path_width_km":113.4,"duration":"03m41s","delta_t_seconds":10658.9,"catalog_number":4740,"source":"NASA Five Millennium Canon of Solar Eclipses","source_url":"https://eclipse.gsfc.nasa.gov/SEsearch/SEsearchmap.php?Ecl=-00130912","boundary":"south","name":"-13-09-12 금환일식"},"geometry":{"type":"LineString","coordinates":[[144.91797,16.85956],[145,16.86799],[145.5,16.91876],[146,16.96844],[146.5,17.01701],[147,17.06447],[147.5,17.1108],[148,17.15597],[148.5,17.19998],[149,17.24281],[149.5,17.28443],[150,17.32484],[150.5,17.36402],[151,17.40194],[151.5,17.43858],[152,17.47394],[152.5,17.50799],[153,17.54071],[153.5,17.57209],[154,17.60209],[154.5,17.63071],[155,17.65792],[155.5,17.6837],[156,17.70803],[156.5,17.73089],[157,17.75226],[157.5,17.77211],[158,17.79042],[158.5,17.80716],[159,17.82232],[159.5,17.83588],[160,17.84779],[160.5,17.85805],[161,17.86662],[161.5,17.87348],[162,17.8786],[162.5,17.88196],[163,17.88352],[163.5,17.88326],[164,17.88116],[164.5,17.87718],[165,17.87128],[165.5,17.86345],[166,17.85365],[166.5,17.84186],[167,17.82802],[167.5,17.81212],[168,17.79412],[168.5,17.77399],[169,17.75169],[169.5,17.72718],[170,17.70043],[170.5,17.6714],[171,17.64006],[171.5,17.60636],[172,17.57026],[172.5,17.53173],[173,17.49073],[173.5,17.4472],[174,17.40111],[174.5,17.35242],[175,17.30108],[175.5,17.24704],[176,17.19025],[176.5,17.13068],[177,17.06826],[177.5,17.00296],[178,16.93472],[178.5,16.86348],[179,16.7892],[179.5,16.71183],[180,16.6313]]}},{"type":"Feature","id":"-00130912:south:1","properties":{"id":"-00130912","year":-13,"month":9,"day":12,"time_tdt":"01:01:55","type":"금환일식","type_code":"A","saros":73,"gamma":0.005,"magnitude":0.96848,"greatest":{"lat":5.8663,"lng":-151.7417},"path_width_km":113.4,"duration":"03m41s","delta_t_seconds":10658.9,"catalog_number":4740,"source":"NASA Five Millennium Canon of Solar Eclipses","source_url":"https://eclipse.gsfc.nasa.gov/SEsearch/SEsearchmap.php?Ecl=-00130912","boundary":"south","name":"-13-09-12 금환일식"},"geometry":{"type":"LineString","coordinates":[[-179.5,16.54756],[-179,16.46056],[-178.5,16.37024],[-178,16.27653],[-177.5,16.17939],[-177,16.07875],[-176.5,15.97454],[-176,15.86671],[-175.5,15.7552],[-175,15.63993],[-174.5,15.52085],[-174,15.39788],[-173.5,15.27097],[-173,15.14005],[-172.5,15.00505],[-172,14.86591],[-171.5,14.72255],[-171,14.57492],[-170.5,14.42294],[-170,14.26655],[-169.5,14.10569],[-169,13.94029],[-168.5,13.77028],[-168,13.59561],[-167.5,13.41621],[-167,13.23203],[-166.5,13.04301],[-166,12.84911],[-165.5,12.65026],[-165,12.44643],[-164.5,12.23758],[-164,12.02366],[-163.5,11.80465],[-163,11.58053],[-162.5,11.35127],[-162,11.11687],[-161.5,10.87732],[-161,10.63262],[-160.5,10.3828],[-160,10.12788],[-159.5,9.86789],[-159,9.60288],[-158.5,9.33291],[-158,9.05806],[-157.5,8.7784],[-157,8.49403],[-156.5,8.20507],[-156,7.91164],[-155.5,7.61388],[-155,7.31196],[-154.5,7.00603],[-154,6.69629],[-153.5,6.38293],[-153,6.06617],[-152.5,5.74622],[-152,5.42333],[-151.5,5.09775],[-151,4.76973],[-150.5,4.43954],[-150,4.10745],[-149.5,3.77375],[-149,3.43872],[-148.5,3.10264],[-148,2.76582],[-147.5,2.42853],[-147,2.09106],[-146.5,1.75369],[-146,1.41671],[-145.5,1.08039],[-145,0.74499],[-144.5,0.41077],[-144,0.07797],[-143.5,-0.25318],[-143,-0.58244],[-142.5,-0.90961],[-142,-1.23448],[-141.5,-1.55688],[-141,-1.87662],[-140.5,-2.19354],[-140,-2.50751],[-139.5,-2.81837],[-139,-3.12602],[-138.5,-3.43033],[-138,-3.73122],[-137.5,-4.02859],[-137,-4.32237],[-136.5,-4.61249],[-136,-4.89889],[-135.5,-5.18154],[-135,-5.46038],[-134.5,-5.73539],[-134,-6.00655],[-133.5,-6.27385],[-133,-6.53726],[-132.5,-6.7968],[-132,-7.05246],[-131.5,-7.30424],[-131,-7.55217],[-130.5,-7.79626],[-130,-8.03652],[-129.5,-8.27299],[-129,-8.50568],[-128.5,-8.73462],[-128,-8.95985],[-127.5,-9.1814],[-127,-9.3993],[-126.5,-9.6136],[-126,-9.82432],[-125.5,-10.03151],[-125,-10.23521],[-124.5,-10.43546],[-124,-10.63229],[-123.5,-10.82576],[-123,-11.0159],[-122.5,-11.20276],[-122,-11.38637],[-121.5,-11.56679],[-121,-11.74405],[-120.5,-11.9182],[-120,-12.08927],[-119.5,-12.25732],[-119,-12.42238],[-118.5,-12.58449],[-118,-12.7437],[-117.5,-12.90004],[-117,-13.05355],[-116.5,-13.20429],[-116,-13.35227],[-115.5,-13.49755],[-115,-13.64016],[-114.5,-13.78013],[-114,-13.91751],[-113.5,-14.05234],[-113,-14.18463],[-112.5,-14.31445],[-112,-14.4418],[-111.5,-14.56674],[-111,-14.6893],[-110.5,-14.8095],[-110,-14.92738],[-109.5,-15.04297],[-109,-15.1563],[-108.5,-15.26741],[-108,-15.37632],[-107.5,-15.48306],[-107,-15.58766],[-106.5,-15.69015],[-106,-15.79056],[-105.5,-15.88892],[-105,-15.98525],[-104.5,-16.07957],[-104,-16.17192],[-103.5,-16.26232],[-103,-16.35079],[-102.5,-16.43736],[-102,-16.52205],[-101.5,-16.60488],[-101,-16.68589],[-100.5,-16.76509],[-100,-16.8425],[-99.5,-16.91814],[-99,-16.99204],[-98.5,-17.06422],[-98,-17.1347],[-97.5,-17.20349],[-97,-17.27062],[-96.5,-17.33611],[-96,-17.39998],[-95.5,-17.46224],[-95,-17.52291],[-94.5,-17.58202],[-94,-17.63957],[-93.5,-17.69559],[-93,-17.75009],[-92.5,-17.8031],[-92.05078,-17.84945]]}}],"attribution":"Eclipse Predictions by Fred Espenak and Jean Meeus (NASA's GSFC)","generated_at":"2026-09-23T01:44:41.172Z"}
