{"type":"FeatureCollection","year":-17,"events":[{"id":"-00170530","year":-17,"month":5,"day":30,"time_tdt":"23:25:29","type":"개기일식","type_code":"T","saros":66,"gamma":0.2855,"magnitude":1.06486,"greatest":{"lat":38.19415,"lng":-130.21814},"path_width_km":221.6,"duration":"05m23s","delta_t_seconds":10702.6,"catalog_number":4729,"source":"NASA Five Millennium Canon of Solar Eclipses","source_url":"https://eclipse.gsfc.nasa.gov/SEsearch/SEsearchmap.php?Ecl=-00170530"},{"id":"-00171123","year":-17,"month":11,"day":23,"time_tdt":"11:44:10","type":"금환일식","type_code":"A","saros":71,"gamma":-0.03839,"magnitude":0.95331,"greatest":{"lat":-22.49338,"lng":45.74493},"path_width_km":170.8,"duration":"05m35s","delta_t_seconds":10697.6,"catalog_number":4730,"source":"NASA Five Millennium Canon of Solar Eclipses","source_url":"https://eclipse.gsfc.nasa.gov/SEsearch/SEsearchmap.php?Ecl=-00171123"}],"features":[{"type":"Feature","id":"-00170530:north:0","properties":{"id":"-00170530","year":-17,"month":5,"day":30,"time_tdt":"23:25:29","type":"개기일식","type_code":"T","saros":66,"gamma":0.2855,"magnitude":1.06486,"greatest":{"lat":38.19415,"lng":-130.21814},"path_width_km":221.6,"duration":"05m23s","delta_t_seconds":10702.6,"catalog_number":4729,"source":"NASA Five Millennium Canon of Solar Eclipses","source_url":"https://eclipse.gsfc.nasa.gov/SEsearch/SEsearchmap.php?Ecl=-00170530","boundary":"north","name":"-17-05-30 개기일식"},"geometry":{"type":"LineString","coordinates":[[161.60547,11.822],[162,11.98128],[162.5,12.18443],[163,12.38899],[163.5,12.59499],[164,12.8024],[164.5,13.01122],[165,13.22146],[165.5,13.4331],[166,13.64614],[166.5,13.86058],[167,14.0764],[167.5,14.2936],[168,14.51218],[168.5,14.73211],[169,14.9534],[169.5,15.17603],[170,15.39999],[170.5,15.62527],[171,15.85184],[171.5,16.07971],[172,16.30885],[172.5,16.53925],[173,16.77089],[173.5,17.00375],[174,17.23781],[174.5,17.47305],[175,17.70944],[175.5,17.94697],[176,18.18561],[176.5,18.42534],[177,18.66612],[177.5,18.90792],[178,19.15073],[178.5,19.3945],[179,19.6392],[179.5,19.8848],[180,20.13126]]}},{"type":"Feature","id":"-00170530:north:1","properties":{"id":"-00170530","year":-17,"month":5,"day":30,"time_tdt":"23:25:29","type":"개기일식","type_code":"T","saros":66,"gamma":0.2855,"magnitude":1.06486,"greatest":{"lat":38.19415,"lng":-130.21814},"path_width_km":221.6,"duration":"05m23s","delta_t_seconds":10702.6,"catalog_number":4729,"source":"NASA Five Millennium Canon of Solar Eclipses","source_url":"https://eclipse.gsfc.nasa.gov/SEsearch/SEsearchmap.php?Ecl=-00170530","boundary":"north","name":"-17-05-30 개기일식"},"geometry":{"type":"LineString","coordinates":[[-179.5,20.37854],[-179,20.62661],[-178.5,20.87543],[-178,21.12494],[-177.5,21.37512],[-177,21.6259],[-176.5,21.87725],[-176,22.12912],[-175.5,22.38145],[-175,22.63419],[-174.5,22.8873],[-174,23.1407],[-173.5,23.39436],[-173,23.6482],[-172.5,23.90218],[-172,24.15622],[-171.5,24.41027],[-171,24.66426],[-170.5,24.91812],[-170,25.17179],[-169.5,25.4252],[-169,25.67829],[-168.5,25.93097],[-168,26.18318],[-167.5,26.43486],[-167,26.68591],[-166.5,26.93628],[-166,27.18588],[-165.5,27.43464],[-165,27.68249],[-164.5,27.92935],[-164,28.17514],[-163.5,28.41979],[-163,28.66323],[-162.5,28.90536],[-162,29.14613],[-161.5,29.38545],[-161,29.62325],[-160.5,29.85946],[-160,30.094],[-159.5,30.3268],[-159,30.55778],[-158.5,30.78688],[-158,31.01402],[-157.5,31.23914],[-157,31.46218],[-156.5,31.68305],[-156,31.90171],[-155.5,32.11808],[-155,32.33211],[-154.5,32.54373],[-154,32.75289],[-153.5,32.95953],[-153,33.1636],[-152.5,33.36505],[-152,33.56382],[-151.5,33.75987],[-151,33.95316],[-150.5,34.14362],[-150,34.33124],[-149.5,34.51595],[-149,34.69774],[-148.5,34.87655],[-148,35.05236],[-147.5,35.22513],[-147,35.39483],[-146.5,35.56144],[-146,35.72493],[-145.5,35.88526],[-145,36.04243],[-144.5,36.19641],[-144,36.34718],[-143.5,36.49471],[-143,36.63901],[-142.5,36.78004],[-142,36.9178],[-141.5,37.05228],[-141,37.18347],[-140.5,37.31135],[-140,37.43592],[-139.5,37.55717],[-139,37.6751],[-138.5,37.7897],[-138,37.90098],[-137.5,38.00892],[-137,38.11353],[-136.5,38.21481],[-136,38.31275],[-135.5,38.40737],[-135,38.49866],[-134.5,38.58662],[-134,38.67126],[-133.5,38.75258],[-133,38.83059],[-132.5,38.9053],[-132,38.9767],[-131.5,39.0448],[-131,39.10962],[-130.5,39.17116],[-130,39.22942],[-129.5,39.28442],[-129,39.33616],[-128.5,39.38465],[-128,39.4299],[-127.5,39.47192],[-127,39.51071],[-126.5,39.54629],[-126,39.57867],[-125.5,39.60785],[-125,39.63384],[-124.5,39.65666],[-124,39.67632],[-123.5,39.69282],[-123,39.70617],[-122.5,39.71639],[-122,39.72348],[-121.5,39.72746],[-121,39.72833],[-120.5,39.72612],[-120,39.72081],[-119.5,39.71244],[-119,39.701],[-118.5,39.68652],[-118,39.66899],[-117.5,39.64844],[-117,39.62487],[-116.5,39.59829],[-116,39.56872],[-115.5,39.53616],[-115,39.50063],[-114.5,39.46214],[-114,39.42071],[-113.5,39.37634],[-113,39.32904],[-112.5,39.27884],[-112,39.22573],[-111.5,39.16974],[-111,39.11088],[-110.5,39.04916],[-110,38.9846],[-109.5,38.9172],[-109,38.84699],[-108.5,38.77398],[-108,38.69818],[-107.5,38.61961],[-107,38.53828],[-106.5,38.45422],[-106,38.36743],[-105.5,38.27794],[-105,38.18576],[-104.5,38.09091],[-104,37.9934],[-103.5,37.89327],[-103,37.79052],[-102.5,37.68518],[-102,37.57726],[-101.5,37.4668],[-101,37.3538],[-100.5,37.23829],[-100,37.1203],[-99.5,36.99985],[-99,36.87696],[-98.5,36.75166],[-98,36.62396],[-97.5,36.49391],[-97,36.36152],[-96.5,36.22682],[-96,36.08984],[-95.5,35.9506],[-95,35.80914],[-94.5,35.66549],[-94,35.51967],[-93.5,35.37171],[-93,35.22166],[-92.5,35.06953],[-92,34.91537],[-91.5,34.7592],[-91,34.60106],[-90.5,34.44144],[-90,34.279],[-89.5,34.11515],[-89,33.94947],[-88.5,33.782],[-88,33.61277],[-87.5,33.44181],[-87,33.26918],[-86.5,33.09489],[-86,32.91901],[-85.5,32.74155],[-85,32.56256],[-84.5,32.38209],[-84,32.20016],[-83.5,32.01682],[-83,31.83212],[-82.5,31.64608],[-82,31.45875],[-81.5,31.27017],[-81,31.08039],[-80.5,30.88943],[-80,30.69735],[-79.5,30.50418],[-79,30.30997],[-78.5,30.11475],[-78,29.91856],[-77.5,29.72145],[-77,29.52345],[-76.5,29.32461],[-76,29.12497],[-75.5,28.92455],[-75,28.72342],[-74.5,28.52159],[-74,28.31912],[-73.5,28.11603],[-73,27.91237],[-72.5,27.70818],[-72,27.5035],[-71.5,27.29835],[-71,27.09278],[-70.5,26.88681],[-70,26.6805],[-69.5,26.47387],[-69,26.26696],[-68.5,26.05979],[-68,25.85242],[-67.5,25.64485],[-67,25.43714],[-66.5,25.22931],[-66,25.02139],[-65.5,24.81342],[-65,24.60542],[-64.5,24.39742],[-64,24.18945],[-63.5,23.98155],[-63,23.77373],[-62.5,23.56603],[-62,23.35847],[-61.5,23.15107],[-61,22.94387],[-60.5,22.73689],[-60,22.53014],[-59.5,22.32367],[-59,22.11748],[-58.5,21.9116],[-58,21.70606],[-57.5,21.50087],[-57,21.29605],[-56.5,21.09163],[-56,20.88762],[-55.5,20.68405],[-55,20.48092],[-54.94336,20.45794]]}},{"type":"Feature","id":"-00170530:center:0","properties":{"id":"-00170530","year":-17,"month":5,"day":30,"time_tdt":"23:25:29","type":"개기일식","type_code":"T","saros":66,"gamma":0.2855,"magnitude":1.06486,"greatest":{"lat":38.19415,"lng":-130.21814},"path_width_km":221.6,"duration":"05m23s","delta_t_seconds":10702.6,"catalog_number":4729,"source":"NASA Five Millennium Canon of Solar Eclipses","source_url":"https://eclipse.gsfc.nasa.gov/SEsearch/SEsearchmap.php?Ecl=-00170530","boundary":"center","name":"-17-05-30 개기일식"},"geometry":{"type":"LineString","coordinates":[[162.02031,11.14985],[162.5,11.33903],[163,11.53938],[163.5,11.74112],[164,11.94426],[164.5,12.14879],[165,12.35472],[165.5,12.56203],[166,12.77072],[166.5,12.98079],[167,13.19223],[167.5,13.40503],[168,13.61919],[168.5,13.8347],[169,14.05154],[169.5,14.26972],[170,14.48922],[170.5,14.71003],[171,14.93214],[171.5,15.15553],[172,15.38019],[172.5,15.60611],[173,15.83327],[173.5,16.06166],[174,16.29125],[174.5,16.52202],[175,16.75397],[175.5,16.98706],[176,17.22127],[176.5,17.45659],[177,17.69298],[177.5,17.93042],[178,18.16888],[178.5,18.40833],[179,18.64875],[179.5,18.8901],[180,19.13234]]}},{"type":"Feature","id":"-00170530:center:1","properties":{"id":"-00170530","year":-17,"month":5,"day":30,"time_tdt":"23:25:29","type":"개기일식","type_code":"T","saros":66,"gamma":0.2855,"magnitude":1.06486,"greatest":{"lat":38.19415,"lng":-130.21814},"path_width_km":221.6,"duration":"05m23s","delta_t_seconds":10702.6,"catalog_number":4729,"source":"NASA Five Millennium Canon of Solar Eclipses","source_url":"https://eclipse.gsfc.nasa.gov/SEsearch/SEsearchmap.php?Ecl=-00170530","boundary":"center","name":"-17-05-30 개기일식"},"geometry":{"type":"LineString","coordinates":[[-179.5,19.37545],[-179,19.61939],[-178.5,19.86411],[-178,20.10959],[-177.5,20.35577],[-177,20.60263],[-176.5,20.85011],[-176,21.09816],[-175.5,21.34675],[-175,21.59582],[-174.5,21.84532],[-174,22.0952],[-173.5,22.34541],[-173,22.59589],[-172.5,22.84659],[-172,23.09744],[-171.5,23.34839],[-171,23.59938],[-170.5,23.85035],[-170,24.10122],[-169.5,24.35194],[-169,24.60244],[-168.5,24.85266],[-168,25.10251],[-167.5,25.35194],[-167,25.60087],[-166.5,25.84923],[-166,26.09695],[-165.5,26.34396],[-165,26.59017],[-164.5,26.83553],[-164,27.07994],[-163.5,27.32334],[-163,27.56565],[-162.5,27.8068],[-162,28.0467],[-161.5,28.28529],[-161,28.52249],[-160.5,28.75822],[-160,28.99241],[-159.5,29.22498],[-159,29.45587],[-158.5,29.68499],[-158,29.91229],[-157.5,30.13767],[-157,30.36109],[-156.5,30.58246],[-156,30.80173],[-155.5,31.01881],[-155,31.23366],[-154.5,31.44621],[-154,31.6564],[-153.5,31.86416],[-153,32.06944],[-152.5,32.27218],[-152,32.47233],[-151.5,32.66984],[-151,32.86465],[-150.5,33.05672],[-150,33.246],[-149.5,33.43245],[-149,33.61602],[-148.5,33.79667],[-148,33.97436],[-147.5,34.14907],[-147,34.32074],[-146.5,34.48935],[-146,34.65488],[-145.5,34.81728],[-145,34.97653],[-144.5,35.13261],[-144,35.2855],[-143.5,35.43516],[-143,35.58159],[-142.5,35.72476],[-142,35.86466],[-141.5,36.00126],[-141,36.13457],[-140.5,36.26456],[-140,36.39123],[-139.5,36.51456],[-139,36.63454],[-138.5,36.75118],[-138,36.86446],[-137.5,36.97438],[-137,37.08094],[-136.5,37.18413],[-136,37.28395],[-135.5,37.38041],[-135,37.47349],[-134.5,37.56321],[-134,37.64957],[-133.5,37.73256],[-133,37.81219],[-132.5,37.88847],[-132,37.9614],[-131.5,38.03098],[-131,38.09723],[-130.5,38.16013],[-130,38.21972],[-129.5,38.27598],[-129,38.32893],[-128.5,38.37858],[-128,38.42493],[-127.5,38.46799],[-127,38.50777],[-126.5,38.54429],[-126,38.57754],[-125.5,38.60754],[-125,38.6343],[-124.5,38.65783],[-124,38.67814],[-123.5,38.69524],[-123,38.70914],[-122.5,38.71984],[-122,38.72737],[-121.5,38.73174],[-121,38.73294],[-120.5,38.731],[-120,38.72593],[-119.5,38.71773],[-119,38.70643],[-118.5,38.69202],[-118,38.67453],[-117.5,38.65396],[-117,38.63033],[-116.5,38.60366],[-116,38.57394],[-115.5,38.5412],[-115,38.50545],[-114.5,38.4667],[-114,38.42496],[-113.5,38.38026],[-113,38.33259],[-112.5,38.28199],[-112,38.22845],[-111.5,38.17201],[-111,38.11266],[-110.5,38.05043],[-110,37.98533],[-109.5,37.91738],[-109,37.84659],[-108.5,37.77299],[-108,37.69658],[-107.5,37.61738],[-107,37.53542],[-106.5,37.45071],[-106,37.36328],[-105.5,37.27313],[-105,37.18028],[-104.5,37.08477],[-104,36.98661],[-103.5,36.88582],[-103,36.78242],[-102.5,36.67643],[-102,36.56788],[-101.5,36.45679],[-101,36.34318],[-100.5,36.22709],[-100,36.10852],[-99.5,35.98752],[-99,35.8641],[-98.5,35.73829],[-98,35.61011],[-97.5,35.47961],[-97,35.3468],[-96.5,35.21172],[-96,35.07438],[-95.5,34.93484],[-95,34.7931],[-94.5,34.64922],[-94,34.50321],[-93.5,34.35511],[-93,34.20496],[-92.5,34.05278],[-92,33.89862],[-91.5,33.7425],[-91,33.58447],[-90.5,33.42455],[-90,33.26278],[-89.5,33.09921],[-89,32.93386],[-88.5,32.76677],[-88,32.59799],[-87.5,32.42755],[-87,32.25549],[-86.5,32.08184],[-86,31.90665],[-85.5,31.72996],[-85,31.5518],[-84.5,31.37222],[-84,31.19126],[-83.5,31.00895],[-83,30.82533],[-82.5,30.64045],[-82,30.45435],[-81.5,30.26707],[-81,30.07864],[-80.5,29.88911],[-80,29.69852],[-79.5,29.50691],[-79,29.31431],[-78.5,29.12077],[-78,28.92634],[-77.5,28.73104],[-77,28.53492],[-76.5,28.33801],[-76,28.14036],[-75.5,27.94201],[-75,27.74298],[-74.5,27.54333],[-74,27.34309],[-73.5,27.14229],[-73,26.94098],[-72.5,26.73918],[-72,26.53694],[-71.5,26.33429],[-71,26.13127],[-70.5,25.92791],[-70,25.72424],[-69.5,25.5203],[-69,25.31612],[-68.5,25.11173],[-68,24.90717],[-67.5,24.70247],[-67,24.49765],[-66.5,24.29275],[-66,24.08781],[-65.5,23.88284],[-65,23.67787],[-64.5,23.47294],[-64,23.26807],[-63.5,23.0633],[-63,22.85863],[-62.5,22.65411],[-62,22.44975],[-61.5,22.24558],[-61,22.04163],[-60.5,21.83791],[-60,21.63446],[-59.5,21.43129],[-59,21.22842],[-58.5,21.02588],[-58,20.82368],[-57.5,20.62185],[-57,20.42041],[-56.5,20.21937],[-56,20.01876],[-55.5,19.81858],[-55.39329,19.77663]]}},{"type":"Feature","id":"-00170530:south:0","properties":{"id":"-00170530","year":-17,"month":5,"day":30,"time_tdt":"23:25:29","type":"개기일식","type_code":"T","saros":66,"gamma":0.2855,"magnitude":1.06486,"greatest":{"lat":38.19415,"lng":-130.21814},"path_width_km":221.6,"duration":"05m23s","delta_t_seconds":10702.6,"catalog_number":4729,"source":"NASA Five Millennium Canon of Solar Eclipses","source_url":"https://eclipse.gsfc.nasa.gov/SEsearch/SEsearchmap.php?Ecl=-00170530","boundary":"south","name":"-17-05-30 개기일식"},"geometry":{"type":"LineString","coordinates":[[162.5,10.50456],[163,10.70079],[163.5,10.89839],[164,11.09736],[164.5,11.29771],[165,11.49943],[165.5,11.70251],[166,11.90695],[166.5,12.11276],[167,12.31991],[167.5,12.52842],[168,12.73826],[168.5,12.94944],[169,13.16195],[169.5,13.37577],[170,13.59091],[170.5,13.80734],[171,14.02507],[171.5,14.24407],[172,14.46434],[172.5,14.68587],[173,14.90863],[173.5,15.13262],[174,15.35781],[174.5,15.5842],[175,15.81176],[175.5,16.04047],[176,16.27032],[176.5,16.50129],[177,16.73334],[177.5,16.96646],[178,17.20062],[178.5,17.4358],[179,17.67196],[179.5,17.90909],[180,18.14714]]}},{"type":"Feature","id":"-00170530:south:1","properties":{"id":"-00170530","year":-17,"month":5,"day":30,"time_tdt":"23:25:29","type":"개기일식","type_code":"T","saros":66,"gamma":0.2855,"magnitude":1.06486,"greatest":{"lat":38.19415,"lng":-130.21814},"path_width_km":221.6,"duration":"05m23s","delta_t_seconds":10702.6,"catalog_number":4729,"source":"NASA Five Millennium Canon of Solar Eclipses","source_url":"https://eclipse.gsfc.nasa.gov/SEsearch/SEsearchmap.php?Ecl=-00170530","boundary":"south","name":"-17-05-30 개기일식"},"geometry":{"type":"LineString","coordinates":[[-179.5,18.38609],[-179,18.6259],[-178.5,18.86654],[-178,19.10798],[-177.5,19.35017],[-177,19.59308],[-176.5,19.83666],[-176,20.08088],[-175.5,20.32568],[-175,20.57104],[-174.5,20.81689],[-174,21.06318],[-173.5,21.30988],[-173,21.55692],[-172.5,21.80426],[-172,22.05184],[-171.5,22.2996],[-171,22.54749],[-170.5,22.79544],[-170,23.0434],[-169.5,23.2913],[-169,23.53909],[-168.5,23.78668],[-168,24.03403],[-167.5,24.28106],[-167,24.5277],[-166.5,24.77389],[-166,25.01955],[-165.5,25.26462],[-165,25.50901],[-164.5,25.75266],[-164,25.9955],[-163.5,26.23744],[-163,26.47842],[-162.5,26.71836],[-162,26.95719],[-161.5,27.19483],[-161,27.4312],[-160.5,27.66623],[-160,27.89985],[-159.5,28.13197],[-159,28.36253],[-158.5,28.59145],[-158,28.81866],[-157.5,29.04409],[-157,29.26766],[-156.5,29.48931],[-156,29.70896],[-155.5,29.92654],[-155,30.142],[-154.5,30.35525],[-154,30.56625],[-153.5,30.77492],[-153,30.9812],[-152.5,31.18504],[-152,31.38637],[-151.5,31.58515],[-151,31.78131],[-150.5,31.9748],[-150,32.16558],[-149.5,32.35358],[-149,32.53878],[-148.5,32.72111],[-148,32.90054],[-147.5,33.07703],[-147,33.25054],[-146.5,33.42103],[-146,33.58846],[-145.5,33.75281],[-145,33.91403],[-144.5,34.07211],[-144,34.22701],[-143.5,34.3787],[-143,34.52717],[-142.5,34.6724],[-142,34.81435],[-141.5,34.95301],[-141,35.08837],[-140.5,35.22041],[-140,35.34911],[-139.5,35.47446],[-139,35.59646],[-138.5,35.71508],[-138,35.83033],[-137.5,35.94219],[-137,36.05066],[-136.5,36.15573],[-136,36.25741],[-135.5,36.35568],[-135,36.45054],[-134.5,36.542],[-134,36.63005],[-133.5,36.7147],[-133,36.79595],[-132.5,36.87379],[-132,36.94824],[-131.5,37.01929],[-131,37.08696],[-130.5,37.15124],[-130,37.21214],[-129.5,37.26967],[-129,37.32384],[-128.5,37.37465],[-128,37.42211],[-127.5,37.46622],[-127,37.50701],[-126.5,37.54447],[-126,37.57861],[-125.5,37.60945],[-125,37.63699],[-124.5,37.66124],[-124,37.68222],[-123.5,37.69994],[-123,37.7144],[-122.5,37.72562],[-122,37.7336],[-121.5,37.73837],[-121,37.73993],[-120.5,37.73829],[-120,37.73347],[-119.5,37.72548],[-119,37.71433],[-118.5,37.70003],[-118,37.6826],[-117.5,37.66206],[-117,37.6384],[-116.5,37.61166],[-116,37.58183],[-115.5,37.54894],[-115,37.51301],[-114.5,37.47403],[-114,37.43204],[-113.5,37.38705],[-113,37.33906],[-112.5,37.2881],[-112,37.23418],[-111.5,37.17733],[-111,37.11755],[-110.5,37.05486],[-110,36.98929],[-109.5,36.92084],[-109,36.84954],[-108.5,36.7754],[-108,36.69845],[-107.5,36.6187],[-107,36.53618],[-106.5,36.4509],[-106,36.36288],[-105.5,36.27216],[-105,36.17874],[-104.5,36.08265],[-104,35.98391],[-103.5,35.88255],[-103,35.77859],[-102.5,35.67205],[-102,35.56296],[-101.5,35.45135],[-101,35.33723],[-100.5,35.22065],[-100,35.10162],[-99.5,34.98017],[-99,34.85633],[-98.5,34.73013],[-98,34.60159],[-97.5,34.47076],[-97,34.33765],[-96.5,34.2023],[-96,34.06474],[-95.5,33.92501],[-95,33.78313],[-94.5,33.63914],[-94,33.49308],[-93.5,33.34497],[-93,33.19485],[-92.5,33.04276],[-92,32.88873],[-91.5,32.7328],[-91,32.575],[-90.5,32.41538],[-90,32.25396],[-89.5,32.0908],[-89,31.92591],[-88.5,31.75935],[-88,31.59116],[-87.5,31.42136],[-87,31.25001],[-86.5,31.07713],[-86,30.90277],[-85.5,30.72698],[-85,30.54978],[-84.5,30.37122],[-84,30.19134],[-83.5,30.01018],[-83,29.82778],[-82.5,29.64418],[-82,29.45942],[-81.5,29.27354],[-81,29.08659],[-80.5,28.89859],[-80,28.7096],[-79.5,28.51964],[-79,28.32877],[-78.5,28.13701],[-78,27.94442],[-77.5,27.75102],[-77,27.55686],[-76.5,27.36198],[-76,27.16641],[-75.5,26.97019],[-75,26.77335],[-74.5,26.57595],[-74,26.378],[-73.5,26.17955],[-73,25.98063],[-72.5,25.78129],[-72,25.58155],[-71.5,25.38144],[-71,25.18101],[-70.5,24.98028],[-70,24.77929],[-69.5,24.57807],[-69,24.37665],[-68.5,24.17506],[-68,23.97334],[-67.5,23.77151],[-67,23.56961],[-66.5,23.36765],[-66,23.16568],[-65.5,22.96371],[-65,22.76179],[-64.5,22.55992],[-64,22.35814],[-63.5,22.15648],[-63,21.95495],[-62.5,21.75359],[-62,21.55242],[-61.5,21.35145],[-61,21.15072],[-60.5,20.95025],[-60,20.75005],[-59.5,20.55015],[-59,20.35057],[-58.5,20.15133],[-58,19.95244],[-57.5,19.75393],[-57,19.55582],[-56.5,19.35811],[-56,19.16084]]}},{"type":"Feature","id":"-00171123:north:0","properties":{"id":"-00171123","year":-17,"month":11,"day":23,"time_tdt":"11:44:10","type":"금환일식","type_code":"A","saros":71,"gamma":-0.03839,"magnitude":0.95331,"greatest":{"lat":-22.49338,"lng":45.74493},"path_width_km":170.8,"duration":"05m35s","delta_t_seconds":10697.6,"catalog_number":4730,"source":"NASA Five Millennium Canon of Solar Eclipses","source_url":"https://eclipse.gsfc.nasa.gov/SEsearch/SEsearchmap.php?Ecl=-00171123","boundary":"north","name":"-17-11-23 금환일식"},"geometry":{"type":"LineString","coordinates":[[-13.36133,5.46749],[-13,5.3315],[-12.5,5.14196],[-12,4.95084],[-11.5,4.75814],[-11,4.56385],[-10.5,4.36796],[-10,4.17046],[-9.5,3.97135],[-9,3.77061],[-8.5,3.56825],[-8,3.36426],[-7.5,3.15862],[-7,2.95134],[-6.5,2.74241],[-6,2.53183],[-5.5,2.31959],[-5,2.10568],[-4.5,1.89011],[-4,1.67287],[-3.5,1.45396],[-3,1.23337],[-2.5,1.01111],[-2,0.78717],[-1.5,0.56156],[-1,0.33428],[-0.5,0.10532],[0,-0.12531],[0.5,-0.35761],[1,-0.59156],[1.5,-0.82718],[2,-1.06444],[2.5,-1.30335],[3,-1.54389],[3.5,-1.78605],[4,-2.02982],[4.5,-2.27519],[5,-2.52215],[5.5,-2.77067],[6,-3.02074],[6.5,-3.27235],[7,-3.52546],[7.5,-3.78005],[8,-4.03611],[8.5,-4.2936],[9,-4.55248],[9.5,-4.81274],[10,-5.07434],[10.5,-5.33723],[11,-5.60138],[11.5,-5.86675],[12,-6.13328],[12.5,-6.40094],[13,-6.66967],[13.5,-6.93941],[14,-7.21012],[14.5,-7.48172],[15,-7.75415],[15.5,-8.02735],[16,-8.30125],[16.5,-8.57576],[17,-8.85081],[17.5,-9.12632],[18,-9.40221],[18.5,-9.67837],[19,-9.95473],[19.5,-10.23117],[20,-10.50761],[20.5,-10.78392],[21,-11.06002],[21.5,-11.33578],[22,-11.61109],[22.5,-11.88583],[23,-12.15988],[23.5,-12.43311],[24,-12.70539],[24.5,-12.9766],[25,-13.24659],[25.5,-13.51524],[26,-13.78241],[26.5,-14.04795],[27,-14.31172],[27.5,-14.57359],[28,-14.83341],[28.5,-15.09103],[29,-15.34631],[29.5,-15.59911],[30,-15.84929],[30.5,-16.09669],[31,-16.34119],[31.5,-16.58264],[32,-16.8209],[32.5,-17.05584],[33,-17.28732],[33.5,-17.51522],[34,-17.73941],[34.5,-17.95977],[35,-18.17617],[35.5,-18.38851],[36,-18.59667],[36.5,-18.80054],[37,-19.00004],[37.5,-19.19505],[38,-19.38549],[38.5,-19.57127],[39,-19.75232],[39.5,-19.92855],[40,-20.09991],[40.5,-20.26631],[41,-20.42771],[41.5,-20.58405],[42,-20.73529],[42.5,-20.88137],[43,-21.02227],[43.5,-21.15795],[44,-21.28838],[44.5,-21.41353],[45,-21.5334],[45.5,-21.64797],[46,-21.75723],[46.5,-21.86117],[47,-21.95979],[47.5,-22.05311],[48,-22.14111],[48.5,-22.22382],[49,-22.30125],[49.5,-22.37342],[50,-22.44035],[50.5,-22.50205],[51,-22.55857],[51.5,-22.60992],[52,-22.65614],[52.5,-22.69727],[53,-22.73334],[53.5,-22.76438],[54,-22.79045],[54.5,-22.81157],[55,-22.82781],[55.5,-22.83919],[56,-22.84578],[56.5,-22.84762],[57,-22.84475],[57.5,-22.83724],[58,-22.82513],[58.5,-22.80848],[59,-22.78734],[59.5,-22.76177],[60,-22.73182],[60.5,-22.69756],[61,-22.65905],[61.5,-22.61633],[62,-22.56948],[62.5,-22.51854],[63,-22.46359],[63.5,-22.40469],[64,-22.34189],[64.5,-22.27526],[65,-22.20486],[65.5,-22.13075],[66,-22.053],[66.5,-21.97168],[67,-21.88684],[67.5,-21.79854],[68,-21.70686],[68.5,-21.61186],[69,-21.5136],[69.5,-21.41215],[70,-21.30757],[70.5,-21.19992],[71,-21.08928],[71.5,-20.97569],[72,-20.85923],[72.5,-20.73997],[73,-20.61796],[73.5,-20.49327],[74,-20.36596],[74.5,-20.23609],[75,-20.10373],[75.5,-19.96895],[76,-19.83179],[76.5,-19.69233],[77,-19.55062],[77.5,-19.40672],[78,-19.2607],[78.5,-19.11262],[79,-18.96253],[79.5,-18.8105],[80,-18.65657],[80.5,-18.50082],[81,-18.34329],[81.5,-18.18404],[82,-18.02313],[82.5,-17.86061],[83,-17.69654],[83.5,-17.53097],[84,-17.36395],[84.5,-17.19554],[85,-17.02579],[85.5,-16.85475],[86,-16.68246],[86.5,-16.50899],[87,-16.33436],[87.5,-16.15865],[88,-15.98188],[88.5,-15.80411],[89,-15.62538],[89.5,-15.44574],[90,-15.26523],[90.5,-15.08389],[91,-14.90177],[91.5,-14.7189],[92,-14.53533],[92.5,-14.3511],[93,-14.16624],[93.5,-13.98079],[94,-13.7948],[94.5,-13.60829],[95,-13.42131],[95.5,-13.23388],[96,-13.04604],[96.5,-12.85783],[97,-12.66928],[97.5,-12.48041],[98,-12.29127],[98.5,-12.10188],[99,-11.91226],[99.5,-11.72246],[100,-11.53249],[100.5,-11.34238],[101,-11.15217],[101.5,-10.96187],[102,-10.77152],[102.5,-10.58113],[103,-10.39073],[103.5,-10.20035],[104,-10.01],[104.5,-9.81971],[105,-9.6295],[105.5,-9.4394],[106,-9.24941],[106.5,-9.05957],[107,-8.86989],[107.5,-8.68038],[108,-8.49108],[108.5,-8.30199],[109,-8.11313],[109.5,-7.92452],[110,-7.73617],[110.26367,-7.63696]]}},{"type":"Feature","id":"-00171123:center:0","properties":{"id":"-00171123","year":-17,"month":11,"day":23,"time_tdt":"11:44:10","type":"금환일식","type_code":"A","saros":71,"gamma":-0.03839,"magnitude":0.95331,"greatest":{"lat":-22.49338,"lng":45.74493},"path_width_km":170.8,"duration":"05m35s","delta_t_seconds":10697.6,"catalog_number":4730,"source":"NASA Five Millennium Canon of Solar Eclipses","source_url":"https://eclipse.gsfc.nasa.gov/SEsearch/SEsearchmap.php?Ecl=-00171123","boundary":"center","name":"-17-11-23 금환일식"},"geometry":{"type":"LineString","coordinates":[[-13.81501,4.51645],[-13.5,4.39914],[-13,4.21254],[-12.5,4.02439],[-12,3.83467],[-11.5,3.64336],[-11,3.45048],[-10.5,3.256],[-10,3.05992],[-9.5,2.86224],[-9,2.66295],[-8.5,2.46204],[-8,2.25951],[-7.5,2.05535],[-7,1.84955],[-6.5,1.64212],[-6,1.43304],[-5.5,1.22232],[-5,1.00994],[-4.5,0.79592],[-4,0.58023],[-3.5,0.36289],[-3,0.1439],[-2.5,-0.07676],[-2,-0.29908],[-1.5,-0.52305],[-1,-0.74868],[-0.5,-0.97597],[0,-1.2049],[0.5,-1.43548],[1,-1.66771],[1.5,-1.90157],[2,-2.13705],[2.5,-2.37415],[3,-2.61287],[3.5,-2.85317],[4,-3.09507],[4.5,-3.33853],[5,-3.58355],[5.5,-3.8301],[6,-4.07818],[6.5,-4.32775],[7,-4.57879],[7.5,-4.83129],[8,-5.08521],[8.5,-5.34052],[9,-5.59719],[9.5,-5.8552],[10,-6.11449],[10.5,-6.37504],[11,-6.63681],[11.5,-6.89974],[12,-7.16379],[12.5,-7.42892],[13,-7.69507],[13.5,-7.96218],[14,-8.23019],[14.5,-8.49905],[15,-8.76869],[15.5,-9.03903],[16,-9.31001],[16.5,-9.58154],[17,-9.85356],[17.5,-10.12597],[18,-10.39869],[18.5,-10.67162],[19,-10.94469],[19.5,-11.21778],[20,-11.49079],[20.5,-11.76362],[21,-12.03617],[21.5,-12.30831],[22,-12.57995],[22.5,-12.85094],[23,-13.12119],[23.5,-13.39056],[24,-13.65892],[24.5,-13.92614],[25,-14.19211],[25.5,-14.45667],[26,-14.7197],[26.5,-14.98106],[27,-15.24061],[27.5,-15.49822],[28,-15.75374],[28.5,-16.00703],[29,-16.25796],[29.5,-16.50639],[30,-16.75217],[30.5,-16.99518],[31,-17.23527],[31.5,-17.47231],[32,-17.70618],[32.5,-17.93674],[33,-18.16386],[33.5,-18.38742],[34,-18.60731],[34.5,-18.8234],[35,-19.03559],[35.5,-19.24377],[36,-19.44782],[36.5,-19.64766],[37,-19.84319],[37.5,-20.03431],[38,-20.22095],[38.5,-20.40302],[39,-20.58046],[39.5,-20.75318],[40,-20.92113],[40.5,-21.08424],[41,-21.24247],[41.5,-21.39576],[42,-21.54407],[42.5,-21.68735],[43,-21.82559],[43.5,-21.95874],[44,-22.08679],[44.5,-22.20971],[45,-22.32748],[45.5,-22.44011],[46,-22.54757],[46.5,-22.64986],[47,-22.74699],[47.5,-22.83896],[48,-22.92578],[48.5,-23.00746],[49,-23.08402],[49.5,-23.15546],[50,-23.22182],[50.5,-23.28312],[51,-23.33937],[51.5,-23.39062],[52,-23.43688],[52.5,-23.4782],[53,-23.5146],[53.5,-23.54613],[54,-23.57283],[54.5,-23.59472],[55,-23.61187],[55.5,-23.6243],[56,-23.63208],[56.5,-23.63523],[57,-23.63381],[57.5,-23.62787],[58,-23.61746],[58.5,-23.60263],[59,-23.58344],[59.5,-23.55992],[60,-23.53215],[60.5,-23.50017],[61,-23.46404],[61.5,-23.42381],[62,-23.37955],[62.5,-23.3313],[63,-23.27913],[63.5,-23.2231],[64,-23.16326],[64.5,-23.09967],[65,-23.03239],[65.5,-22.96149],[66,-22.88701],[66.5,-22.80903],[67,-22.7276],[67.5,-22.64279],[68,-22.55464],[68.5,-22.46324],[69,-22.36863],[69.5,-22.27088],[70,-22.17004],[70.5,-22.06619],[71,-21.95938],[71.5,-21.84967],[72,-21.73712],[72.5,-21.6218],[73,-21.50377],[73.5,-21.38308],[74,-21.25979],[74.5,-21.13398],[75,-21.00569],[75.5,-20.87499],[76,-20.74193],[76.5,-20.60658],[77,-20.46899],[77.5,-20.32923],[78,-20.18734],[78.5,-20.0434],[79,-19.89745],[79.5,-19.74955],[80,-19.59975],[80.5,-19.44813],[81,-19.29472],[81.5,-19.13958],[82,-18.98277],[82.5,-18.82435],[83,-18.66435],[83.5,-18.50284],[84,-18.33987],[84.5,-18.17549],[85,-18.00975],[85.5,-17.84269],[86,-17.67437],[86.5,-17.50483],[87,-17.33413],[87.5,-17.16231],[88,-16.98941],[88.5,-16.81548],[89,-16.64056],[89.5,-16.46471],[90,-16.28795],[90.5,-16.11034],[91,-15.93192],[91.5,-15.75272],[92,-15.57278],[92.5,-15.39216],[93,-15.21087],[93.5,-15.02897],[94,-14.84648],[94.5,-14.66345],[95,-14.4799],[95.5,-14.29589],[96,-14.11143],[96.5,-13.92656],[97,-13.74131],[97.5,-13.55572],[98,-13.36981],[98.5,-13.18363],[99,-12.99718],[99.5,-12.81052],[100,-12.62365],[100.5,-12.43662],[101,-12.24944],[101.5,-12.06215],[102,-11.87476],[102.5,-11.68731],[103,-11.49982],[103.5,-11.31231],[104,-11.1248],[104.5,-10.93732],[105,-10.74988],[105.5,-10.56252],[106,-10.37525],[106.5,-10.18808],[107,-10.00105],[107.5,-9.81416],[108,-9.62745],[108.5,-9.44091],[109,-9.25458],[109.5,-9.06847],[110,-8.88259],[110.5,-8.69696],[110.73427,-8.61018]]}},{"type":"Feature","id":"-00171123:south:0","properties":{"id":"-00171123","year":-17,"month":11,"day":23,"time_tdt":"11:44:10","type":"금환일식","type_code":"A","saros":71,"gamma":-0.03839,"magnitude":0.95331,"greatest":{"lat":-22.49338,"lng":45.74493},"path_width_km":170.8,"duration":"05m35s","delta_t_seconds":10697.6,"catalog_number":4730,"source":"NASA Five Millennium Canon of Solar Eclipses","source_url":"https://eclipse.gsfc.nasa.gov/SEsearch/SEsearchmap.php?Ecl=-00171123","boundary":"south","name":"-17-11-23 금환일식"},"geometry":{"type":"LineString","coordinates":[[-14.27539,3.56273],[-14,3.46223],[-13.5,3.27857],[-13,3.09336],[-12.5,2.9066],[-12,2.71827],[-11.5,2.52838],[-11,2.33691],[-10.5,2.14385],[-10,1.94921],[-9.5,1.75297],[-9,1.55513],[-8.5,1.35568],[-8,1.15462],[-7.5,0.95195],[-7,0.74765],[-6.5,0.54172],[-6,0.33416],[-5.5,0.12497],[-5,-0.08586],[-4.5,-0.29832],[-4,-0.51243],[-3.5,-0.72818],[-3,-0.94558],[-2.5,-1.16461],[-2,-1.38529],[-1.5,-1.60761],[-1,-1.83157],[-0.5,-2.05716],[0,-2.28438],[0.5,-2.51323],[1,-2.74369],[1.5,-2.97577],[2,-3.20945],[2.5,-3.44473],[3,-3.68159],[3.5,-3.92002],[4,-4.16001],[4.5,-4.40153],[5,-4.64459],[5.5,-4.88914],[6,-5.13519],[6.5,-5.3827],[7,-5.63164],[7.5,-5.88201],[8,-6.13375],[8.5,-6.38685],[9,-6.64128],[9.5,-6.89699],[10,-7.15395],[10.5,-7.41212],[11,-7.67146],[11.5,-7.93191],[12,-8.19345],[12.5,-8.456],[13,-8.71952],[13.5,-8.98396],[14,-9.24924],[14.5,-9.51531],[15,-9.7821],[15.5,-10.04954],[16,-10.31756],[16.5,-10.58607],[17,-10.85501],[17.5,-11.12427],[18,-11.39379],[18.5,-11.66346],[19,-11.93319],[19.5,-12.20288],[20,-12.47243],[20.5,-12.74174],[21,-13.0107],[21.5,-13.2792],[22,-13.54712],[22.5,-13.81435],[23,-14.08076],[23.5,-14.34624],[24,-14.61066],[24.5,-14.87389],[25,-15.1358],[25.5,-15.39626],[26,-15.65515],[26.5,-15.91232],[27,-16.16765],[27.5,-16.421],[28,-16.67222],[28.5,-16.9212],[29,-17.16779],[29.5,-17.41186],[30,-17.65328],[30.5,-17.89192],[31,-18.12764],[31.5,-18.36032],[32,-18.58983],[32.5,-18.81605],[33,-19.03886],[33.5,-19.25814],[34,-19.47378],[34.5,-19.68568],[35,-19.89371],[35.5,-20.09779],[36,-20.29781],[36.5,-20.49368],[37,-20.68532],[37.5,-20.87263],[38,-21.05555],[38.5,-21.23399],[39,-21.40789],[39.5,-21.57718],[40,-21.7418],[40.5,-21.9017],[41,-22.05683],[41.5,-22.20715],[42,-22.35261],[42.5,-22.49318],[43,-22.62883],[43.5,-22.75953],[44,-22.88526],[44.5,-23.00601],[45,-23.12175],[45.5,-23.23249],[46,-23.33821],[46.5,-23.43892],[47,-23.5346],[47.5,-23.62528],[48,-23.71096],[48.5,-23.79165],[49,-23.86736],[49.5,-23.93812],[50,-24.00394],[50.5,-24.06484],[51,-24.12085],[51.5,-24.172],[52,-24.21832],[52.5,-24.25983],[53,-24.29658],[53.5,-24.32859],[54,-24.35591],[54.5,-24.37857],[55,-24.39662],[55.5,-24.41008],[56,-24.41902],[56.5,-24.42347],[57,-24.42347],[57.5,-24.41908],[58,-24.41034],[58.5,-24.3973],[59,-24.38],[59.5,-24.35851],[60,-24.33286],[60.5,-24.30312],[61,-24.26933],[61.5,-24.23155],[62,-24.18983],[62.5,-24.14422],[63,-24.09478],[63.5,-24.04156],[64,-23.98463],[64.5,-23.92403],[65,-23.85982],[65.5,-23.79206],[66,-23.72081],[66.5,-23.64612],[67,-23.56804],[67.5,-23.48665],[68,-23.40199],[68.5,-23.31413],[69,-23.22311],[69.5,-23.12901],[70,-23.03188],[70.5,-22.93177],[71,-22.82874],[71.5,-22.72286],[72,-22.61418],[72.5,-22.50276],[73,-22.38865],[73.5,-22.27192],[74,-22.15263],[74.5,-22.03082],[75,-21.90656],[75.5,-21.77991],[76,-21.65092],[76.5,-21.51965],[77,-21.38615],[77.5,-21.25049],[78,-21.11271],[78.5,-20.97288],[79,-20.83104],[79.5,-20.68726],[80,-20.54158],[80.5,-20.39406],[81,-20.24476],[81.5,-20.09372],[82,-19.94101],[82.5,-19.78666],[83,-19.63073],[83.5,-19.47328],[84,-19.31435],[84.5,-19.15399],[85,-18.99225],[85.5,-18.82918],[86,-18.66483],[86.5,-18.49924],[87,-18.33246],[87.5,-18.16453],[88,-17.99551],[88.5,-17.82543],[89,-17.65434],[89.5,-17.48229],[90,-17.3093],[90.5,-17.13544],[91,-16.96072],[91.5,-16.78521],[92,-16.60893],[92.5,-16.43192],[93,-16.25423],[93.5,-16.07589],[94,-15.89693],[94.5,-15.71739],[95,-15.53731],[95.5,-15.35673],[96,-15.17567],[96.5,-14.99416],[97,-14.81225],[97.5,-14.62996],[98,-14.44732],[98.5,-14.26436],[99,-14.08112],[99.5,-13.89762],[100,-13.71389],[100.5,-13.52995],[101,-13.34584],[101.5,-13.16158],[102,-12.97719],[102.5,-12.79271],[103,-12.60814],[103.5,-12.42353],[104,-12.23889],[104.5,-12.05425],[105,-11.86962],[105.5,-11.68502],[106,-11.50049],[106.5,-11.31603],[107,-11.13168],[107.5,-10.94743],[108,-10.76333],[108.5,-10.57938],[109,-10.3956],[109.5,-10.21201],[110,-10.02863],[110.5,-9.84547],[111,-9.66254],[111.21289,-9.58473]]}}],"attribution":"Eclipse Predictions by Fred Espenak and Jean Meeus (NASA's GSFC)","generated_at":"2026-09-23T01:44:40.901Z"}
