{"type":"FeatureCollection","year":-39,"events":[{"id":"-00390204","year":-39,"month":2,"day":4,"time_tdt":"05:08:41","type":"개기일식","type_code":"T","saros":59,"gamma":-0.57392,"magnitude":1.04041,"greatest":{"lat":-48.52198,"lng":172.07526},"path_width_km":164.4,"duration":"02m54s","delta_t_seconds":10932.3,"catalog_number":4673,"source":"NASA Five Millennium Canon of Solar Eclipses","source_url":"https://eclipse.gsfc.nasa.gov/SEsearch/SEsearchmap.php?Ecl=-00390204"},{"id":"-00390731","year":-39,"month":7,"day":31,"time_tdt":"08:52:03","type":"금환일식","type_code":"A","saros":64,"gamma":0.63118,"magnitude":0.93898,"greatest":{"lat":55.08248,"lng":115.12262},"path_width_km":290.3,"duration":"05m31s","delta_t_seconds":10927.3,"catalog_number":4674,"source":"NASA Five Millennium Canon of Solar Eclipses","source_url":"https://eclipse.gsfc.nasa.gov/SEsearch/SEsearchmap.php?Ecl=-00390731"}],"features":[{"type":"Feature","id":"-00390204:north:0","properties":{"id":"-00390204","year":-39,"month":2,"day":4,"time_tdt":"05:08:41","type":"개기일식","type_code":"T","saros":59,"gamma":-0.57392,"magnitude":1.04041,"greatest":{"lat":-48.52198,"lng":172.07526},"path_width_km":164.4,"duration":"02m54s","delta_t_seconds":10932.3,"catalog_number":4673,"source":"NASA Five Millennium Canon of Solar Eclipses","source_url":"https://eclipse.gsfc.nasa.gov/SEsearch/SEsearchmap.php?Ecl=-00390204","boundary":"north","name":"-39-02-04 개기일식"},"geometry":{"type":"LineString","coordinates":[[60,-53.55645],[60.5,-53.72084],[61,-53.88381],[61.5,-54.04536],[62,-54.20546],[62.5,-54.36412],[63,-54.52132],[63.5,-54.67705],[64,-54.8313],[64.5,-54.98407],[65,-55.13534],[65.5,-55.2851],[66,-55.43336],[66.5,-55.5801],[67,-55.72531],[67.5,-55.86899],[68,-56.01114],[68.5,-56.15174],[69,-56.2908],[69.5,-56.4283],[70,-56.56425],[70.5,-56.69864],[71,-56.83146],[71.5,-56.96272],[72,-57.0924],[72.5,-57.22051],[73,-57.34705],[73.5,-57.47201],[74,-57.59539],[74.5,-57.71719],[75,-57.83741],[75.5,-57.95605],[76,-58.07311],[76.5,-58.18858],[77,-58.30247],[77.5,-58.41478],[78,-58.52551],[78.5,-58.63466],[79,-58.74222],[79.5,-58.84821],[80,-58.95262],[80.5,-59.05545],[81,-59.15672],[81.5,-59.2564],[82,-59.35452],[82.5,-59.45107],[83,-59.54605],[83.5,-59.63947],[84,-59.73133],[84.5,-59.82163],[85,-59.91037],[85.5,-59.99756],[86,-60.0832],[86.5,-60.16729],[87,-60.24984],[87.5,-60.33085],[88,-60.41032],[88.5,-60.48825],[89,-60.56465],[89.5,-60.63952],[90,-60.71287],[90.5,-60.78469],[91,-60.85499],[91.5,-60.92378],[92,-60.99105],[92.5,-61.05681],[93,-61.12107],[93.5,-61.18382],[94,-61.24506],[94.5,-61.30481],[95,-61.36306],[95.5,-61.41982],[96,-61.47509],[96.5,-61.52887],[97,-61.58116],[97.5,-61.63197],[98,-61.68129],[98.5,-61.72914],[99,-61.77551],[99.5,-61.8204],[100,-61.86382],[100.5,-61.90576],[101,-61.94623],[101.5,-61.98524],[102,-62.02277],[102.5,-62.05884],[103,-62.09343],[103.5,-62.12657],[104,-62.15823],[104.5,-62.18843],[105,-62.21716],[105.5,-62.24443],[106,-62.27023],[106.5,-62.29456],[107,-62.31742],[107.5,-62.33881],[108,-62.35874],[108.5,-62.37719],[109,-62.39417],[109.5,-62.40968],[110,-62.4237],[110.5,-62.43625],[111,-62.44731],[111.5,-62.45689],[112,-62.46499],[112.5,-62.47159],[113,-62.47669],[113.5,-62.4803],[114,-62.4824],[114.5,-62.483],[115,-62.48208],[115.5,-62.47965],[116,-62.47569],[116.5,-62.4702],[117,-62.46318],[117.5,-62.45462],[118,-62.44451],[118.5,-62.43284],[119,-62.41962],[119.5,-62.40482],[120,-62.38844],[120.5,-62.37048],[121,-62.35093],[121.5,-62.32977],[122,-62.307],[122.5,-62.2826],[123,-62.25657],[123.5,-62.2289],[124,-62.19957],[124.5,-62.16857],[125,-62.1359],[125.5,-62.10153],[126,-62.06546],[126.5,-62.02767],[127,-61.98815],[127.5,-61.94688],[128,-61.90385],[128.5,-61.85905],[129,-61.81245],[129.5,-61.76405],[130,-61.71382],[130.5,-61.66175],[131,-61.60782],[131.5,-61.55201],[132,-61.4943],[132.5,-61.43468],[133,-61.37311],[133.5,-61.30959],[134,-61.24409],[134.5,-61.17658],[135,-61.10705],[135.5,-61.03547],[136,-60.96181],[136.5,-60.88606],[137,-60.80819],[137.5,-60.72816],[138,-60.64595],[138.5,-60.56154],[139,-60.4749],[139.5,-60.38599],[140,-60.29478],[140.5,-60.20125],[141,-60.10537],[141.5,-60.00709],[142,-59.90638],[142.5,-59.80322],[143,-59.69756],[143.5,-59.58937],[144,-59.47861],[144.5,-59.36523],[145,-59.24921],[145.5,-59.13051],[146,-59.00906],[146.5,-58.88485],[147,-58.75782],[147.5,-58.62792],[148,-58.49511],[148.5,-58.35934],[149,-58.22057],[149.5,-58.07874],[150,-57.93381],[150.5,-57.78571],[151,-57.6344],[151.5,-57.47982],[152,-57.32192],[152.5,-57.16063],[153,-56.99591],[153.5,-56.82769],[154,-56.6559],[154.5,-56.48049],[155,-56.30139],[155.5,-56.11854],[156,-55.93187],[156.5,-55.74132],[157,-55.54681],[157.5,-55.34827],[158,-55.14564],[158.5,-54.93885],[159,-54.72782],[159.5,-54.51247],[160,-54.29274],[160.5,-54.06854],[161,-53.83981],[161.5,-53.60646],[162,-53.36842],[162.5,-53.12562],[163,-52.87798],[163.5,-52.62541],[164,-52.36786],[164.5,-52.10523],[165,-51.83746],[165.5,-51.56448],[166,-51.28621],[166.5,-51.00259],[167,-50.71355],[167.5,-50.41902],[168,-50.11895],[168.5,-49.81328],[169,-49.50196],[169.5,-49.18495],[170,-48.8622],[170.5,-48.53367],[171,-48.19935],[171.5,-47.8592],[172,-47.51323],[172.5,-47.16142],[173,-46.80379],[173.5,-46.44035],[174,-46.07114],[174.5,-45.6962],[175,-45.31558],[175.5,-44.92936],[176,-44.53761],[176.5,-44.14045],[177,-43.73798],[177.5,-43.33034],[178,-42.91769],[178.5,-42.50018],[179,-42.078],[179.5,-41.65135],[180,-41.22046]]}},{"type":"Feature","id":"-00390204:north:1","properties":{"id":"-00390204","year":-39,"month":2,"day":4,"time_tdt":"05:08:41","type":"개기일식","type_code":"T","saros":59,"gamma":-0.57392,"magnitude":1.04041,"greatest":{"lat":-48.52198,"lng":172.07526},"path_width_km":164.4,"duration":"02m54s","delta_t_seconds":10932.3,"catalog_number":4673,"source":"NASA Five Millennium Canon of Solar Eclipses","source_url":"https://eclipse.gsfc.nasa.gov/SEsearch/SEsearchmap.php?Ecl=-00390204","boundary":"north","name":"-39-02-04 개기일식"},"geometry":{"type":"LineString","coordinates":[[-179.5,-40.78557],[-179,-40.34691],[-178.5,-39.90477],[-178,-39.45943],[-177.5,-39.01118],[-177,-38.56034],[-176.5,-38.10723],[-176,-37.65217],[-175.5,-37.19552],[-175,-36.73762],[-174.5,-36.27882],[-174,-35.81947],[-173.5,-35.35993],[-173,-34.90055],[-172.5,-34.44168],[-172,-33.98367],[-171.5,-33.52685],[-171,-33.07156],[-170.5,-32.61811],[-170,-32.16682],[-169.5,-31.71797],[-169,-31.27186],[-168.5,-30.82875],[-168,-30.38889],[-167.5,-29.95253],[-167,-29.51987],[-166.5,-29.09113],[-166,-28.6665],[-165.5,-28.24615],[-165,-27.83024],[-164.5,-27.41891],[-164,-27.01228],[-163.5,-26.61047],[-163,-26.21357],[-162.5,-25.82168],[-162,-25.43486],[-161.5,-25.05318],[-161,-24.67668],[-160.5,-24.3054],[-160,-23.93936],[-159.5,-23.5786],[-159,-23.22311],[-158.5,-22.87291],[-158,-22.52798],[-157.5,-22.18832],[-157,-21.8539],[-156.5,-21.52471],[-156,-21.20072],[-155.5,-20.8819],[-155,-20.5682],[-154.5,-20.25959],[-154,-19.95604],[-153.5,-19.65748],[-153,-19.36388],[-152.5,-19.07518],[-152,-18.79133],[-151.5,-18.51228],[-151,-18.23798],[-150.5,-17.96837],[-150,-17.70339],[-149.5,-17.44299],[-149,-17.1871],[-148.5,-16.93568],[-148,-16.68866],[-147.5,-16.44599],[-147,-16.2076],[-146.5,-15.97345],[-146,-15.74346],[-145.5,-15.5176],[-145,-15.2958],[-144.5,-15.078],[-144,-14.86415],[-143.5,-14.6542],[-143,-14.44808],[-142.5,-14.24576],[-142,-14.04717],[-141.5,-13.85226],[-141,-13.66098],[-140.5,-13.47329],[-140,-13.28913],[-139.5,-13.10845],[-139,-12.93121],[-138.5,-12.75736],[-138,-12.58685],[-137.5,-12.41963],[-137,-12.25567],[-136.5,-12.09492],[-136,-11.93733],[-135.5,-11.78287],[-135.09375,-11.65964]]}},{"type":"Feature","id":"-00390204:center:0","properties":{"id":"-00390204","year":-39,"month":2,"day":4,"time_tdt":"05:08:41","type":"개기일식","type_code":"T","saros":59,"gamma":-0.57392,"magnitude":1.04041,"greatest":{"lat":-48.52198,"lng":172.07526},"path_width_km":164.4,"duration":"02m54s","delta_t_seconds":10932.3,"catalog_number":4673,"source":"NASA Five Millennium Canon of Solar Eclipses","source_url":"https://eclipse.gsfc.nasa.gov/SEsearch/SEsearchmap.php?Ecl=-00390204","boundary":"center","name":"-39-02-04 개기일식"},"geometry":{"type":"LineString","coordinates":[[59.29286,-54.00362],[59.5,-53.9892],[60,-54.15639],[60.5,-54.32213],[61,-54.48642],[61.5,-54.64924],[62,-54.81059],[62.5,-54.97045],[63,-55.12882],[63.5,-55.28568],[64,-55.44102],[64.5,-55.59484],[65,-55.74714],[65.5,-55.89789],[66,-56.0471],[66.5,-56.19475],[67,-56.34085],[67.5,-56.48538],[68,-56.62835],[68.5,-56.76973],[69,-56.90955],[69.5,-57.04777],[70,-57.18441],[70.5,-57.31947],[71,-57.45292],[71.5,-57.58479],[72,-57.71505],[72.5,-57.84372],[73,-57.97078],[73.5,-58.09625],[74,-58.22011],[74.5,-58.34236],[75,-58.46302],[75.5,-58.58206],[76,-58.69951],[76.5,-58.81535],[77,-58.92959],[77.5,-59.04223],[78,-59.15326],[78.5,-59.2627],[79,-59.37055],[79.5,-59.47679],[80,-59.58145],[80.5,-59.68451],[81,-59.78599],[81.5,-59.88588],[82,-59.98419],[82.5,-60.08092],[83,-60.17607],[83.5,-60.26965],[84,-60.36165],[84.5,-60.4521],[85,-60.54097],[85.5,-60.62829],[86,-60.71405],[86.5,-60.79826],[87,-60.88092],[87.5,-60.96203],[88,-61.0416],[88.5,-61.11963],[89,-61.19613],[89.5,-61.2711],[90,-61.34454],[90.5,-61.41645],[91,-61.48685],[91.5,-61.55574],[92,-61.62311],[92.5,-61.68897],[93,-61.75333],[93.5,-61.81618],[94,-61.87754],[94.5,-61.93741],[95,-61.99578],[95.5,-62.05267],[96,-62.10807],[96.5,-62.16199],[97,-62.21443],[97.5,-62.2654],[98,-62.31489],[98.5,-62.36291],[99,-62.40946],[99.5,-62.45455],[100,-62.49818],[100.5,-62.54034],[101,-62.58104],[101.5,-62.62029],[102,-62.65808],[102.5,-62.69441],[103,-62.72929],[103.5,-62.76272],[104,-62.7947],[104.5,-62.82522],[105,-62.8543],[105.5,-62.88192],[106,-62.90809],[106.5,-62.93282],[107,-62.95609],[107.5,-62.97792],[108,-62.99829],[108.5,-63.01721],[109,-63.03467],[109.5,-63.05068],[110,-63.06524],[110.5,-63.07833],[111,-63.08997],[111.5,-63.10014],[112,-63.10884],[112.5,-63.11608],[113,-63.12184],[113.5,-63.12613],[114,-63.12894],[114.5,-63.13026],[115,-63.1301],[115.5,-63.12845],[116,-63.12529],[116.5,-63.12064],[117,-63.11448],[117.5,-63.1068],[118,-63.09761],[118.5,-63.08688],[119,-63.07463],[119.5,-63.06083],[120,-63.04549],[120.5,-63.02859],[121,-63.01012],[121.5,-62.99009],[122,-62.96847],[122.5,-62.94526],[123,-62.92044],[123.5,-62.89402],[124,-62.86598],[124.5,-62.8363],[125,-62.80498],[125.5,-62.772],[126,-62.73735],[126.5,-62.70103],[127,-62.663],[127.5,-62.62327],[128,-62.58182],[128.5,-62.53863],[129,-62.49369],[129.5,-62.44698],[130,-62.39849],[130.5,-62.34819],[131,-62.29608],[131.5,-62.24213],[132,-62.18633],[132.5,-62.12865],[133,-62.06909],[133.5,-62.0076],[134,-61.94419],[134.5,-61.87882],[135,-61.81147],[135.5,-61.74212],[136,-61.67075],[136.5,-61.59733],[137,-61.52184],[137.5,-61.44425],[138,-61.36453],[138.5,-61.28267],[139,-61.19862],[139.5,-61.11237],[140,-61.02388],[140.5,-60.93312],[141,-60.84006],[141.5,-60.74467],[142,-60.64692],[142.5,-60.54677],[143,-60.44419],[143.5,-60.33914],[144,-60.23158],[144.5,-60.12148],[145,-60.0088],[145.5,-59.8935],[146,-59.77554],[146.5,-59.65488],[147,-59.53146],[147.5,-59.40526],[148,-59.27622],[148.5,-59.1443],[149,-59.00946],[149.5,-58.87163],[150,-58.73078],[150.5,-58.58684],[151,-58.43978],[151.5,-58.28953],[152,-58.13604],[152.5,-57.97925],[153,-57.81911],[153.5,-57.65555],[154,-57.48853],[154.5,-57.31797],[155,-57.14381],[155.5,-56.966],[156,-56.78445],[156.5,-56.59912],[157,-56.40992],[157.5,-56.2168],[158,-56.01967],[158.5,-55.81847],[159,-55.61314],[159.5,-55.40358],[160,-55.18973],[160.5,-54.97151],[161,-54.74886],[161.5,-54.52168],[162,-54.2899],[162.5,-54.05345],[163,-53.81225],[163.5,-53.56621],[164,-53.31527],[164.5,-53.05933],[165,-52.79833],[165.5,-52.53219],[166,-52.26084],[166.5,-51.98419],[167,-51.70218],[167.5,-51.41474],[168,-51.1218],[168.5,-50.8233],[169,-50.51917],[169.5,-50.20936],[170,-49.89382],[170.5,-49.5725],[171,-49.24536],[171.5,-48.91237],[172,-48.5735],[172.5,-48.22874],[173,-47.87806],[173.5,-47.52148],[174,-47.15901],[174.5,-46.79066],[175,-46.41647],[175.5,-46.03649],[176,-45.65079],[176.5,-45.25942],[177,-44.8625],[177.5,-44.46012],[178,-44.05242],[178.5,-43.63952],[179,-43.22159],[179.5,-42.79881],[180,-42.37137]]}},{"type":"Feature","id":"-00390204:center:1","properties":{"id":"-00390204","year":-39,"month":2,"day":4,"time_tdt":"05:08:41","type":"개기일식","type_code":"T","saros":59,"gamma":-0.57392,"magnitude":1.04041,"greatest":{"lat":-48.52198,"lng":172.07526},"path_width_km":164.4,"duration":"02m54s","delta_t_seconds":10932.3,"catalog_number":4673,"source":"NASA Five Millennium Canon of Solar Eclipses","source_url":"https://eclipse.gsfc.nasa.gov/SEsearch/SEsearchmap.php?Ecl=-00390204","boundary":"center","name":"-39-02-04 개기일식"},"geometry":{"type":"LineString","coordinates":[[-179.5,-41.93949],[-179,-41.50339],[-178.5,-41.06332],[-178,-40.61955],[-177.5,-40.17236],[-177,-39.72205],[-176.5,-39.26891],[-176,-38.81328],[-175.5,-38.35549],[-175,-37.89588],[-174.5,-37.43481],[-174,-36.97261],[-173.5,-36.50967],[-173,-36.04634],[-172.5,-35.58298],[-172,-35.11995],[-171.5,-34.6576],[-171,-34.19629],[-170.5,-33.73635],[-170,-33.27812],[-169.5,-32.82192],[-169,-32.36806],[-168.5,-31.91683],[-168,-31.46851],[-167.5,-31.02337],[-167,-30.58166],[-166.5,-30.14361],[-166,-29.70944],[-165.5,-29.27935],[-165,-28.85352],[-164.5,-28.43212],[-164,-28.01531],[-163.5,-27.60321],[-163,-27.19595],[-162.5,-26.79364],[-162,-26.39636],[-161.5,-26.00419],[-161,-25.61721],[-160.5,-25.23546],[-160,-24.85898],[-159.5,-24.48782],[-159,-24.12199],[-158.5,-23.7615],[-158,-23.40637],[-157.5,-23.05658],[-157,-22.71214],[-156.5,-22.37301],[-156,-22.03919],[-155.5,-21.71065],[-155,-21.38735],[-154.5,-21.06925],[-154,-20.75633],[-153.5,-20.44853],[-153,-20.14581],[-152.5,-19.84812],[-152,-19.55542],[-151.5,-19.26764],[-151,-18.98474],[-150.5,-18.70665],[-150,-18.43333],[-149.5,-18.16472],[-149,-17.90075],[-148.5,-17.64138],[-148,-17.38653],[-147.5,-17.13616],[-147,-16.89019],[-146.5,-16.64859],[-146,-16.41127],[-145.5,-16.1782],[-145,-15.9493],[-144.5,-15.72453],[-144,-15.50381],[-143.5,-15.28711],[-143,-15.07436],[-142.5,-14.8655],[-142,-14.66049],[-141.5,-14.45926],[-141,-14.26177],[-140.5,-14.06796],[-140,-13.87779],[-139.5,-13.69119],[-139,-13.50813],[-138.5,-13.32855],[-138,-13.1524],[-137.5,-12.97964],[-137,-12.81023],[-136.5,-12.6441],[-136,-12.48123],[-135.5,-12.32156],[-135,-12.16506],[-134.7787,-12.10161]]}},{"type":"Feature","id":"-00390204:south:0","properties":{"id":"-00390204","year":-39,"month":2,"day":4,"time_tdt":"05:08:41","type":"개기일식","type_code":"T","saros":59,"gamma":-0.57392,"magnitude":1.04041,"greatest":{"lat":-48.52198,"lng":172.07526},"path_width_km":164.4,"duration":"02m54s","delta_t_seconds":10932.3,"catalog_number":4673,"source":"NASA Five Millennium Canon of Solar Eclipses","source_url":"https://eclipse.gsfc.nasa.gov/SEsearch/SEsearchmap.php?Ecl=-00390204","boundary":"south","name":"-39-02-04 개기일식"},"geometry":{"type":"LineString","coordinates":[[58.75586,-54.3442],[59,-54.42774],[59.5,-54.59774],[60,-54.76627],[60.5,-54.93332],[61,-55.09887],[61.5,-55.26292],[62,-55.42545],[62.5,-55.58646],[63,-55.74593],[63.5,-55.90386],[64,-56.06024],[64.5,-56.21505],[65,-56.3683],[65.5,-56.51997],[66,-56.67006],[66.5,-56.81856],[67,-56.96547],[67.5,-57.11078],[68,-57.25449],[68.5,-57.39659],[69,-57.53708],[69.5,-57.67596],[70,-57.81322],[70.5,-57.94885],[71,-58.08287],[71.5,-58.21526],[72,-58.34603],[72.5,-58.47517],[73,-58.60268],[73.5,-58.72856],[74,-58.85282],[74.5,-58.97545],[75,-59.09645],[75.5,-59.21583],[76,-59.33358],[76.5,-59.4497],[77,-59.56421],[77.5,-59.67709],[78,-59.78836],[78.5,-59.89801],[79,-60.00604],[79.5,-60.11247],[80,-60.21729],[80.5,-60.3205],[81,-60.42211],[81.5,-60.52213],[82,-60.62054],[82.5,-60.71737],[83,-60.81261],[83.5,-60.90627],[84,-60.99835],[84.5,-61.08886],[85,-61.17779],[85.5,-61.26516],[86,-61.35096],[86.5,-61.43521],[87,-61.5179],[87.5,-61.59904],[88,-61.67864],[88.5,-61.7567],[89,-61.83322],[89.5,-61.90821],[90,-61.98168],[90.5,-62.05362],[91,-62.12405],[91.5,-62.19296],[92,-62.26036],[92.5,-62.32625],[93,-62.39065],[93.5,-62.45355],[94,-62.51495],[94.5,-62.57487],[95,-62.6333],[95.5,-62.69025],[96,-62.74572],[96.5,-62.79972],[97,-62.85225],[97.5,-62.90331],[98,-62.95291],[98.5,-63.00105],[99,-63.04773],[99.5,-63.09296],[100,-63.13673],[100.5,-63.17906],[101,-63.21994],[101.5,-63.25937],[102,-63.29736],[102.5,-63.33391],[103,-63.36902],[103.5,-63.40269],[104,-63.43493],[104.5,-63.46573],[105,-63.4951],[105.5,-63.52304],[106,-63.54954],[106.5,-63.57461],[107,-63.59825],[107.5,-63.62045],[108,-63.64123],[108.5,-63.66057],[109,-63.67848],[109.5,-63.69495],[110,-63.70998],[110.5,-63.72358],[111,-63.73574],[111.5,-63.74646],[112,-63.75574],[112.5,-63.76357],[113,-63.76995],[113.5,-63.77488],[114,-63.77835],[114.5,-63.78037],[115,-63.78092],[115.5,-63.78001],[116,-63.77763],[116.5,-63.77377],[117,-63.76843],[117.5,-63.7616],[118,-63.75329],[118.5,-63.74347],[119,-63.73215],[119.5,-63.71932],[120,-63.70497],[120.5,-63.68909],[121,-63.67168],[121.5,-63.65273],[122,-63.63223],[122.5,-63.61018],[123,-63.58655],[123.5,-63.56134],[124,-63.53455],[124.5,-63.50616],[125,-63.47616],[125.5,-63.44454],[126,-63.41128],[126.5,-63.37639],[127,-63.33983],[127.5,-63.3016],[128,-63.26169],[128.5,-63.22009],[129,-63.17677],[129.5,-63.13172],[130,-63.08493],[130.5,-63.03638],[131,-62.98605],[131.5,-62.93393],[132,-62.88],[132.5,-62.82425],[133,-62.76664],[133.5,-62.70717],[134,-62.64581],[134.5,-62.58254],[135,-62.51734],[135.5,-62.45019],[136,-62.38107],[136.5,-62.30995],[137,-62.2368],[137.5,-62.16162],[138,-62.08436],[138.5,-62.005],[139,-61.92352],[139.5,-61.83988],[140,-61.75407],[140.5,-61.66604],[141,-61.57578],[141.5,-61.48324],[142,-61.3884],[142.5,-61.29122],[143,-61.19168],[143.5,-61.08973],[144,-60.98534],[144.5,-60.87847],[145,-60.76909],[145.5,-60.65716],[146,-60.54263],[146.5,-60.42547],[147,-60.30564],[147.5,-60.18309],[148,-60.05778],[148.5,-59.92966],[149,-59.79869],[149.5,-59.66482],[150,-59.528],[150.5,-59.38818],[151,-59.24531],[151.5,-59.09934],[152,-58.95021],[152.5,-58.79787],[153,-58.64227],[153.5,-58.48334],[154,-58.32102],[154.5,-58.15527],[155,-57.986],[155.5,-57.81317],[156,-57.6367],[156.5,-57.45654],[157,-57.27261],[157.5,-57.08484],[158,-56.89317],[158.5,-56.69753],[159,-56.49784],[159.5,-56.29403],[160,-56.08603],[160.5,-55.87376],[161,-55.65714],[161.5,-55.4361],[162,-55.21055],[162.5,-54.98043],[163,-54.74565],[163.5,-54.50612],[164,-54.26178],[164.5,-54.01254],[165,-53.75831],[165.5,-53.49903],[166,-53.23461],[166.5,-52.96497],[167,-52.69003],[167.5,-52.40973],[168,-52.12398],[168.5,-51.83272],[169,-51.53588],[169.5,-51.23339],[170,-50.92519],[170.5,-50.61122],[171,-50.29143],[171.5,-49.96578],[172,-49.63422],[172.5,-49.29673],[173,-48.95327],[173.5,-48.60383],[174,-48.24841],[174.5,-47.887],[175,-47.51961],[175.5,-47.14628],[176,-46.76705],[176.5,-46.38196],[177,-45.99108],[177.5,-45.5945],[178,-45.1923],[178.5,-44.78462],[179,-44.37157],[179.5,-43.95332],[180,-43.53002]]}},{"type":"Feature","id":"-00390204:south:1","properties":{"id":"-00390204","year":-39,"month":2,"day":4,"time_tdt":"05:08:41","type":"개기일식","type_code":"T","saros":59,"gamma":-0.57392,"magnitude":1.04041,"greatest":{"lat":-48.52198,"lng":172.07526},"path_width_km":164.4,"duration":"02m54s","delta_t_seconds":10932.3,"catalog_number":4673,"source":"NASA Five Millennium Canon of Solar Eclipses","source_url":"https://eclipse.gsfc.nasa.gov/SEsearch/SEsearchmap.php?Ecl=-00390204","boundary":"south","name":"-39-02-04 개기일식"},"geometry":{"type":"LineString","coordinates":[[-179.5,-43.10186],[-179,-42.66906],[-178.5,-42.23183],[-178,-41.79041],[-177.5,-41.34506],[-177,-40.89607],[-176.5,-40.44372],[-176,-39.98832],[-175.5,-39.53019],[-175,-39.06967],[-174.5,-38.6071],[-174,-38.14283],[-173.5,-37.67723],[-173,-37.21065],[-172.5,-36.74348],[-172,-36.27607],[-171.5,-35.8088],[-171,-35.34203],[-170.5,-34.87613],[-170,-34.41144],[-169.5,-33.94831],[-169,-33.48707],[-168.5,-33.02805],[-168,-32.57155],[-167.5,-32.11787],[-167,-31.66729],[-166.5,-31.22006],[-166,-30.77644],[-165.5,-30.33666],[-165,-29.90092],[-164.5,-29.46943],[-164,-29.04235],[-163.5,-28.61986],[-163,-28.2021],[-162.5,-27.78919],[-162,-27.38126],[-161.5,-26.97839],[-161,-26.58068],[-160.5,-26.1882],[-160,-25.80101],[-159.5,-25.41915],[-159,-25.04267],[-158.5,-24.67159],[-158,-24.30592],[-157.5,-23.94568],[-157,-23.59086],[-156.5,-23.24145],[-156,-22.89745],[-155.5,-22.55884],[-155,-22.22558],[-154.5,-21.89764],[-154,-21.575],[-153.5,-21.2576],[-153,-20.94542],[-152.5,-20.6384],[-152,-20.33649],[-151.5,-20.03964],[-151,-19.7478],[-150.5,-19.46092],[-150,-19.17893],[-149.5,-18.90178],[-149,-18.62942],[-148.5,-18.36178],[-148,-18.0988],[-147.5,-17.84043],[-147,-17.5866],[-146.5,-17.33725],[-146,-17.09233],[-145.5,-16.85176],[-145,-16.6155],[-144.5,-16.38349],[-144,-16.15566],[-143.5,-15.93195],[-143,-15.71231],[-142.5,-15.49669],[-142,-15.28502],[-141.5,-15.07724],[-141,-14.87332],[-140.5,-14.67318],[-140,-14.47678],[-139.5,-14.28406],[-139,-14.09497],[-138.5,-13.90946],[-138,-13.72749],[-137.5,-13.549],[-137,-13.37394],[-136.5,-13.20227],[-136,-13.03393],[-135.5,-12.86889],[-135,-12.7071],[-134.5,-12.54852]]}},{"type":"Feature","id":"-00390731:north:0","properties":{"id":"-00390731","year":-39,"month":7,"day":31,"time_tdt":"08:52:03","type":"금환일식","type_code":"A","saros":64,"gamma":0.63118,"magnitude":0.93898,"greatest":{"lat":55.08248,"lng":115.12262},"path_width_km":290.3,"duration":"05m31s","delta_t_seconds":10927.3,"catalog_number":4674,"source":"NASA Five Millennium Canon of Solar Eclipses","source_url":"https://eclipse.gsfc.nasa.gov/SEsearch/SEsearchmap.php?Ecl=-00390731","boundary":"north","name":"-39-07-31 금환일식"},"geometry":{"type":"LineString","coordinates":[[-4.5,55.50811],[-4,55.70772],[-3.5,55.90604],[-3,56.10303],[-2.5,56.29869],[-2,56.49298],[-1.5,56.68588],[-1,56.87736],[-0.5,57.06741],[0,57.25601],[0.5,57.44313],[1,57.62875],[1.5,57.81286],[1.5,57.81285],[2,57.99543],[2.5,58.17644],[3,58.35589],[3.5,58.53376],[4,58.71002],[4.5,58.88466],[5,59.05768],[5.5,59.22905],[6,59.39877],[6.5,59.56681],[6.5,59.56682],[7,59.73319],[7.5,59.89787],[8,60.06085],[8.5,60.22213],[9,60.3817],[9.5,60.53954],[10,60.69565],[10,60.69566],[10.5,60.85004],[11,61.00268],[11.5,61.15358],[12,61.30273],[12.5,61.45013],[13,61.59578],[13.5,61.73967],[13.5,61.73968],[14,61.88181],[14.5,62.02219],[14.5,62.0222],[15,62.16082],[15.5,62.29769],[16,62.4328],[16.5,62.56616],[17,62.69777],[17.5,62.82763],[18,62.95574],[18.5,63.0821],[19,63.20673],[19.5,63.32962],[20,63.45078],[20.5,63.57021],[21,63.68792],[21.5,63.80392],[22,63.9182],[22.5,64.03078],[23,64.14166],[23.5,64.25085],[24,64.35835],[24.5,64.46417],[25,64.56833],[25.5,64.67082],[26,64.77165],[26.5,64.87084],[27,64.96838],[27.5,65.06429],[28,65.15858],[28.5,65.25125],[29,65.3423],[29,65.34231],[29.5,65.43176],[30,65.51963],[30.5,65.60591],[31,65.69062],[31.5,65.77376],[32,65.85534],[32.5,65.93537],[33,66.01385],[33.5,66.0908],[34,66.16623],[34.5,66.24014],[35,66.31253],[35.5,66.38343],[36,66.45283],[36.5,66.52074],[37,66.58718],[37.5,66.65215],[38,66.71565],[38.5,66.7777],[39,66.8383],[39.5,66.89746],[39.5,66.89745],[40,66.95518],[40.5,67.01148],[41,67.06635],[41.5,67.11982],[42,67.17187],[42.5,67.22253],[43,67.27179],[43.5,67.31966],[44,67.36615],[44.5,67.41126],[45,67.455],[45.5,67.49737],[46,67.53838],[46.5,67.57804],[47,67.61634],[47.5,67.65329],[48,67.6889],[48.5,67.72318],[48.5,67.72317],[49,67.75611],[49.5,67.78771],[50,67.81799],[50.5,67.84694],[51,67.87457],[51.5,67.90087],[52,67.92586],[52.5,67.94953],[53,67.97189],[53.5,67.99294],[54,68.01268],[54.5,68.0311],[55,68.04822],[55.5,68.06403],[56,68.07854],[56.5,68.09174],[56.5,68.09173],[57,68.10362],[57.5,68.11421],[58,68.12348],[58.5,68.13144],[59,68.13809],[59.5,68.14343],[60,68.14746],[60.5,68.15017],[61,68.15156],[61.5,68.15162],[62,68.15037],[62.5,68.14778],[63,68.14386],[63.5,68.13861],[64,68.13202],[64.5,68.12408],[65,68.11479],[65.5,68.10415],[66,68.09214],[66.5,68.07877],[67,68.06402],[67.5,68.04789],[68,68.03038],[68.5,68.01147],[68.5,68.01146],[69,67.99115],[69.5,67.96942],[70,67.94628],[70.5,67.9217],[71,67.89568],[71.5,67.86821],[71.5,67.86822],[72,67.83929],[72.5,67.80889],[73,67.77701],[73.5,67.74364],[74,67.70876],[74.5,67.67236],[75,67.63442],[75.5,67.59494],[76,67.5539],[76.5,67.51129],[77,67.46708],[77.5,67.42127],[78,67.37384],[78.5,67.32476],[79,67.27403],[79.5,67.22162],[80,67.16751],[80.5,67.1117],[81,67.05414],[81.5,66.99484],[82,66.93375],[82.5,66.87087],[83,66.80617],[83.5,66.73962],[84,66.6712],[84.5,66.60089],[85,66.52865],[85.5,66.45447],[86,66.37832],[86.5,66.30017],[87,66.21998],[87.5,66.13773],[88,66.05339],[88.5,65.96692],[89,65.8783],[89.5,65.78748],[90,65.69444],[90.5,65.59914],[91,65.50153],[91.5,65.40159],[92,65.29928],[92.5,65.19455],[93,65.08736],[93.5,64.97767],[94,64.86543],[94.5,64.75061],[95,64.63315],[95.5,64.513],[96,64.39012],[96.5,64.26446],[97,64.13596],[97.5,64.00457],[98,63.87024],[98.5,63.73291],[99,63.59252],[99.5,63.44901],[100,63.30232],[100.5,63.15239],[101,62.99915],[101.5,62.84254],[102,62.68249],[102.5,62.51892],[103,62.35178],[103.5,62.18098],[104,62.00645],[104.5,61.82811],[105,61.64589],[105.5,61.4597],[106,61.26947],[106.5,61.07511],[107,60.87653],[107.5,60.67364],[108,60.46637],[108.5,60.25462],[109,60.03829],[109.5,59.8173],[110,59.59154],[110.5,59.36094],[111,59.12539],[111.5,58.88479],[112,58.63904],[112.5,58.38806],[113,58.13174],[113.5,57.86999],[114,57.60271],[114.5,57.3298],[115,57.05118],[115.5,56.76676],[116,56.47643],[116.5,56.18013],[117,55.87776],[117.5,55.56926],[118,55.25455],[118.5,54.93357],[119,54.60625],[119,54.60626],[119.5,54.27256],[120,53.93246],[120,53.93245],[120.5,53.58589],[120.5,53.5859],[121,53.23287],[121.5,52.87337],[122,52.50741],[122.5,52.135],[123,51.7562],[123.5,51.37105],[123.5,51.37104],[124,50.97962],[124.5,50.58202],[125,50.17837],[125.5,49.76879],[126,49.35344],[126.5,48.93252],[127,48.50622],[127.5,48.07477],[128,47.63844],[128.5,47.19748],[129,46.75222],[129.5,46.30295],[130,45.85003],[130.5,45.39381],[131,44.93468],[131.5,44.47301],[132,44.00923],[132.5,43.54373],[133,43.07696],[133.5,42.60932],[134,42.14125],[134.5,41.67318],[135,41.20552],[135.5,40.73871],[136,40.27313],[136.5,39.8092],[137,39.34728],[137.5,38.88775],[138,38.43095],[138.5,37.97722],[139,37.52686],[139.5,37.08016],[140,36.63739],[140.5,36.19879],[141,35.7646],[141.5,35.33502],[142,34.91022],[142.5,34.49037],[143,34.07562],[143.5,33.66608],[143.5,33.66609],[144,33.26188],[144.5,32.86308],[145,32.46978],[145.5,32.08202],[146,31.69985],[146.5,31.32331],[147,30.9524],[147.5,30.58715],[148,30.22756],[148.5,29.8736],[149,29.52526],[149.5,29.18252],[150,28.84535],[150.5,28.5137],[151,28.18754],[151.5,27.86681],[152,27.55147],[152.5,27.24146],[153,26.93671],[153.5,26.63718],[154,26.3428],[154.5,26.0535],[155,25.76922],[155.5,25.48989],[156,25.21544],[156.5,24.94581],[157,24.68092],[157.5,24.42072],[158,24.16512],[158.5,23.91407],[159,23.66749],[159.5,23.42531],[160,23.18748],[160.5,22.95392],[161,22.72456],[161.5,22.49935],[162,22.27821],[162.5,22.06109],[163,21.84792],[163.5,21.63865],[164,21.43321],[164.5,21.23154],[165,21.03358],[165.5,20.83928],[166,20.64859],[166.5,20.46144],[167,20.27779],[167.5,20.09757],[168,19.92074],[168.17773,19.85869]]}},{"type":"Feature","id":"-00390731:center:0","properties":{"id":"-00390731","year":-39,"month":7,"day":31,"time_tdt":"08:52:03","type":"금환일식","type_code":"A","saros":64,"gamma":0.63118,"magnitude":0.93898,"greatest":{"lat":55.08248,"lng":115.12262},"path_width_km":290.3,"duration":"05m31s","delta_t_seconds":10927.3,"catalog_number":4674,"source":"NASA Five Millennium Canon of Solar Eclipses","source_url":"https://eclipse.gsfc.nasa.gov/SEsearch/SEsearchmap.php?Ecl=-00390731","boundary":"center","name":"-39-07-31 금환일식"},"geometry":{"type":"LineString","coordinates":[[-2.68648,54.05883],[-2.5,54.13516],[-2,54.33503],[-1.5,54.53363],[-1,54.73094],[-0.5,54.92694],[0,55.12159],[0,55.1216],[0.5,55.31489],[1,55.5068],[1.5,55.69731],[2,55.88639],[2.5,56.07401],[3,56.26017],[3.5,56.44483],[4,56.62799],[4.5,56.80961],[5,56.9897],[5.5,57.16821],[6,57.34516],[6.5,57.5205],[7,57.69424],[7.5,57.86636],[8,58.03684],[8.5,58.20567],[9,58.37284],[9.5,58.53834],[10,58.70215],[10.5,58.86428],[11,59.02471],[11.5,59.18342],[12,59.34042],[12.5,59.4957],[13,59.64925],[13.5,59.80106],[14,59.95113],[14.5,60.09946],[15,60.24604],[15.5,60.39087],[16,60.53394],[16.5,60.67526],[17,60.81482],[17.5,60.95263],[18,61.08867],[18.5,61.22296],[19,61.35549],[19.5,61.48626],[20,61.61528],[20.5,61.74255],[21,61.86807],[21.5,61.99183],[22,62.11386],[22.5,62.23414],[23,62.35269],[23.5,62.4695],[24,62.58458],[24.5,62.69795],[25,62.80959],[25.5,62.91952],[26,63.02774],[26.5,63.13426],[27,63.23909],[27.5,63.34222],[28,63.44367],[28.5,63.54345],[29,63.64156],[29.5,63.738],[30,63.83278],[30.5,63.92592],[31,64.01741],[31.5,64.10727],[32,64.1955],[32.5,64.28212],[33,64.36711],[33.5,64.4505],[34,64.5323],[34.5,64.6125],[35,64.69112],[35.5,64.76816],[36,64.84363],[36.5,64.91754],[37,64.98989],[37.5,65.0607],[38,65.12996],[38.5,65.19769],[39,65.2639],[39.5,65.32858],[40,65.39175],[40.5,65.45342],[41,65.51358],[41.5,65.57225],[42,65.62943],[42.5,65.68513],[43,65.73936],[43.5,65.79211],[44,65.8434],[44.5,65.89323],[45,65.94161],[45.5,65.98853],[46,66.03402],[46.5,66.07806],[47,66.12067],[47.5,66.16185],[48,66.20161],[48.5,66.23994],[49,66.27685],[49.5,66.31235],[50,66.34644],[50.5,66.37912],[51,66.41039],[51.5,66.44026],[52,66.46873],[52.5,66.4958],[53,66.52147],[53.5,66.54575],[54,66.56864],[54.5,66.59013],[55,66.61023],[55.5,66.62894],[56,66.64626],[56.5,66.66219],[57,66.67673],[57.5,66.68988],[58,66.70163],[58.5,66.71199],[59,66.72096],[59.5,66.72853],[60,66.73471],[60.5,66.73948],[61,66.74285],[61.5,66.74481],[62,66.74537],[62.5,66.74451],[63,66.74224],[63.5,66.73854],[64,66.73342],[64.5,66.72687],[65,66.71888],[65.5,66.70945],[66,66.69858],[66.5,66.68625],[66.5,66.68624],[67,66.67245],[67.5,66.6572],[67.5,66.65719],[68,66.64046],[68.5,66.62224],[69,66.60253],[69.5,66.58132],[70,66.5586],[70.5,66.53436],[71,66.50859],[71.5,66.48128],[72,66.45242],[72.5,66.422],[73,66.39],[73.5,66.35641],[74,66.32123],[74.5,66.28443],[75,66.246],[75.5,66.20593],[76,66.1642],[76.5,66.1208],[77,66.07571],[77.5,66.02891],[78,65.98039],[78.5,65.93013],[79,65.87811],[79.5,65.82431],[80,65.76871],[80.5,65.71129],[81,65.65203],[81.5,65.5909],[82,65.52789],[82.5,65.46297],[83,65.39612],[83.5,65.32731],[84,65.25651],[84.5,65.1837],[85,65.10885],[85.5,65.03194],[86,64.95293],[86.5,64.87179],[87,64.7885],[87.5,64.70302],[88,64.61531],[88.5,64.52535],[89,64.4331],[89.5,64.33852],[90,64.24157],[90,64.24158],[90.5,64.14223],[91,64.04044],[91.5,63.93617],[92,63.82937],[92,63.82938],[92.5,63.72001],[93,63.60804],[93.5,63.49341],[94,63.37607],[94.5,63.25599],[95,63.1331],[95.5,63.00736],[96,62.87871],[96.5,62.7471],[97,62.61248],[97.5,62.47479],[98,62.33397],[98.5,62.18996],[99,62.0427],[99.5,61.89212],[100,61.73815],[100.5,61.58075],[101,61.41982],[101.5,61.25531],[102,61.08714],[102.5,60.91524],[103,60.73953],[103.5,60.55993],[104,60.37637],[104.5,60.18876],[105,59.99702],[105.5,59.80107],[106,59.60082],[106.5,59.39618],[107,59.18707],[107.5,58.97339],[108,58.75505],[108.5,58.53195],[109,58.30401],[109.5,58.07113],[110,57.8332],[110.5,57.59014],[111,57.34185],[111.5,57.08822],[112,56.82917],[112.5,56.56459],[113,56.29438],[113.5,56.01847],[114,55.73674],[114.5,55.44911],[115,55.1555],[115.5,54.85582],[116,54.54999],[116.5,54.23794],[117,53.91959],[117.5,53.59488],[118,53.26377],[118.5,52.9262],[119,52.58214],[119.5,52.23157],[120,51.87446],[120.5,51.51083],[121,51.14068],[121.5,50.76404],[122,50.38096],[122.5,49.99151],[123,49.59576],[123.5,49.19383],[124,48.78584],[124.5,48.37193],[125,47.95228],[125.5,47.52708],[126,47.09654],[126.5,46.66091],[127,46.22045],[127.5,45.77545],[128,45.32621],[128.5,44.87308],[129,44.4164],[129.5,43.95654],[130,43.49388],[130.5,43.02882],[131,42.56179],[131.5,42.09318],[132,41.62344],[132.5,41.15299],[133,40.68226],[133.5,40.21167],[134,39.74166],[134.5,39.27262],[135,38.80497],[135.5,38.3391],[136,37.87539],[136.5,37.41418],[137,36.95583],[137.5,36.50065],[138,36.04895],[138.5,35.601],[139,35.15707],[139.5,34.71739],[140,34.28218],[140.5,33.85164],[141,33.42594],[141.5,33.00522],[142,32.58964],[142.5,32.17931],[143,31.77432],[143.5,31.37475],[144,30.98068],[144.5,30.59216],[145,30.20923],[145.5,29.83191],[146,29.46022],[146.5,29.09416],[147,28.73374],[147.5,28.37893],[148,28.02972],[148,28.02971],[148.5,27.68607],[149,27.34796],[149.5,27.01534],[150,26.68817],[150.5,26.36639],[151,26.04997],[151.5,25.73884],[152,25.43293],[152.5,25.1322],[153,24.83658],[153.5,24.546],[154,24.2604],[154.5,23.97971],[155,23.70387],[155.5,23.4328],[156,23.16644],[156.5,22.90471],[157,22.64756],[157.5,22.39492],[158,22.14671],[158.5,21.90286],[159,21.66333],[159.5,21.42802],[160,21.19689],[160.5,20.96987],[161,20.7469],[161,20.74689],[161.5,20.5279],[162,20.31283],[162.5,20.10161],[163,19.8942],[163.5,19.69053],[164,19.49055],[164.5,19.2942],[165,19.10142],[165.5,18.91215],[166,18.72636],[166.5,18.54398],[166.99662,18.3726]]}},{"type":"Feature","id":"-00390731:south:0","properties":{"id":"-00390731","year":-39,"month":7,"day":31,"time_tdt":"08:52:03","type":"금환일식","type_code":"A","saros":64,"gamma":0.63118,"magnitude":0.93898,"greatest":{"lat":55.08248,"lng":115.12262},"path_width_km":290.3,"duration":"05m31s","delta_t_seconds":10927.3,"catalog_number":4674,"source":"NASA Five Millennium Canon of Solar Eclipses","source_url":"https://eclipse.gsfc.nasa.gov/SEsearch/SEsearchmap.php?Ecl=-00390731","boundary":"south","name":"-39-07-31 금환일식"},"geometry":{"type":"LineString","coordinates":[[-0.66016,52.77095],[-0.5,52.8353],[0,53.03541],[0.5,53.23426],[1,53.43185],[1.5,53.62814],[2,53.8231],[2,53.82311],[2.5,54.01673],[3,54.20899],[3.5,54.39986],[4,54.58932],[4.5,54.77734],[5,54.96392],[5.5,55.14901],[6,55.33262],[6.5,55.51471],[7,55.69527],[7.5,55.87428],[8,56.05173],[8.5,56.2276],[9,56.40187],[9.5,56.57453],[10,56.74557],[10.5,56.91497],[11,57.08272],[11.5,57.2488],[12,57.41321],[12.5,57.57594],[13,57.73697],[13.5,57.8963],[14,58.05392],[14.5,58.20982],[15,58.36399],[15.5,58.51643],[16,58.66713],[16.5,58.81608],[17,58.96329],[17.5,59.10874],[18,59.25244],[18,59.25243],[18.5,59.39437],[19,59.53454],[19.5,59.67295],[20,59.80959],[20.5,59.94446],[21,60.07757],[21.5,60.20891],[22,60.33848],[22.5,60.46629],[23,60.59233],[23.5,60.71661],[24,60.83913],[24.5,60.95989],[25,61.07889],[25.5,61.19615],[25.5,61.19614],[26,61.31165],[26.5,61.42541],[27,61.53742],[27.5,61.6477],[28,61.75625],[28.5,61.86307],[29,61.96817],[29,61.96816],[29.5,62.07154],[30,62.17321],[30.5,62.27317],[31,62.37143],[31.5,62.46799],[32,62.56286],[32.5,62.65605],[33,62.74757],[33.5,62.83741],[34,62.92558],[34.5,63.0121],[35,63.09697],[35.5,63.18019],[36,63.26177],[36.5,63.34172],[37,63.42004],[37.5,63.49674],[38,63.57182],[38.5,63.6453],[39,63.71718],[39.5,63.78746],[40,63.85615],[40.5,63.92326],[41,63.9888],[41.5,64.05276],[42,64.11515],[42.5,64.17599],[43,64.23527],[43.5,64.29301],[44,64.3492],[44.5,64.40385],[45,64.45697],[45.5,64.50856],[46,64.55863],[46.5,64.60718],[47,64.65421],[47.5,64.69973],[48,64.74375],[48.5,64.78626],[49,64.82728],[49.5,64.86679],[50,64.90482],[50.5,64.94135],[51,64.9764],[51.5,65.00997],[52,65.04205],[52.5,65.07265],[53,65.10177],[53.5,65.12942],[54,65.15559],[54.5,65.18028],[55,65.20351],[55.5,65.22525],[56,65.24553],[56.5,65.26433],[57,65.28166],[57.5,65.29752],[58,65.3119],[58.5,65.3248],[59,65.33623],[59.5,65.34618],[60,65.35464],[60.5,65.36163],[61,65.36712],[61.5,65.37113],[62,65.37364],[62.5,65.37465],[63,65.37417],[63.5,65.37218],[64,65.36867],[64.5,65.36366],[65,65.35712],[65.5,65.34905],[66,65.33945],[66.5,65.32831],[67,65.31562],[67.5,65.30138],[68,65.28557],[68.5,65.26819],[69,65.24923],[69.5,65.22868],[70,65.20654],[70.5,65.18278],[71,65.1574],[71.5,65.13039],[72,65.10174],[72.5,65.07144],[73,65.03946],[73.5,65.00581],[73.5,65.0058],[74,64.97045],[74.5,64.9334],[74.5,64.93339],[75,64.89461],[75.5,64.85409],[76,64.81181],[76.5,64.76776],[77,64.72193],[77.5,64.67428],[78,64.62481],[78.5,64.5735],[79,64.52032],[79.5,64.46526],[80,64.4083],[80.5,64.3494],[81,64.28856],[81.5,64.22574],[82,64.16093],[82.5,64.09409],[83,64.02521],[83.5,63.95425],[84,63.88119],[84.5,63.806],[85,63.72865],[85.5,63.64912],[86,63.56736],[86.5,63.48335],[87,63.39705],[87.5,63.30843],[88,63.21746],[88.5,63.1241],[89,63.02831],[89.5,62.93006],[90,62.8293],[90.5,62.72599],[91,62.62009],[91.5,62.51156],[92,62.40036],[92.5,62.28643],[93,62.16974],[93,62.16973],[93.5,62.05022],[94,61.92784],[94.5,61.80254],[95,61.67426],[95.5,61.54296],[96,61.40858],[96.5,61.27105],[97,61.13033],[97.5,60.98635],[98,60.83904],[98.5,60.68835],[99,60.5342],[99.5,60.37654],[100,60.21528],[100.5,60.05037],[101,59.88172],[101.5,59.70926],[102,59.53292],[102.5,59.35262],[103,59.16827],[103.5,58.97979],[104,58.78711],[104.5,58.59014],[105,58.38878],[105.5,58.18295],[106,57.97256],[106.5,57.75752],[107,57.53773],[107.5,57.3131],[108,57.08354],[108.5,56.84894],[109,56.60922],[109.5,56.36426],[110,56.11398],[110.5,55.85828],[111,55.59705],[111.5,55.3302],[112,55.05764],[112.5,54.77926],[113,54.49499],[113.5,54.20471],[114,53.90836],[114.5,53.60584],[115,53.29707],[115.5,52.98199],[116,52.66052],[116.5,52.33261],[117,51.99819],[117.5,51.65724],[118,51.30971],[118.5,50.95558],[119,50.59485],[119,50.59484],[119.5,50.22751],[120,49.85358],[120.5,49.47311],[121,49.08614],[121.5,48.69275],[122,48.29302],[122.5,47.88707],[123,47.47503],[123.5,47.05705],[124,46.63332],[124.5,46.20404],[125,45.76943],[125.5,45.32976],[126,44.88528],[126.5,44.4363],[127,43.98313],[127.5,43.52613],[128,43.06565],[128.5,42.60206],[129,42.13576],[129.5,41.66716],[130,41.19668],[130.5,40.72473],[131,40.25176],[131,40.25175],[131.5,39.77818],[132,39.30444],[132.5,38.83097],[133,38.35818],[133.5,37.88649],[134,37.41629],[134.5,36.94799],[135,36.48194],[135.5,36.01851],[136,35.55803],[136.5,35.10081],[137,34.64716],[137.5,34.19734],[138,33.7516],[138.5,33.31019],[139,32.8733],[139,32.87331],[139.5,32.44114],[140,32.01385],[140.5,31.5916],[141,31.17451],[141.5,30.7627],[142,30.35624],[142.5,29.95524],[143,29.55974],[143.5,29.16979],[144,28.78543],[144.5,28.40669],[145,28.03356],[145.5,27.66607],[146,27.30419],[146.5,26.94791],[147,26.59722],[147.5,26.25207],[148,25.91243],[148.5,25.57826],[149,25.24952],[149.5,24.92615],[150,24.60811],[150.5,24.29533],[151,23.98775],[151.5,23.68531],[152,23.38796],[152.5,23.09562],[153,22.80823],[153.5,22.52572],[154,22.24803],[154.5,21.97508],[155,21.70682],[155.5,21.44316],[156,21.18405],[156.5,20.92941],[157,20.67918],[157.5,20.4333],[158,20.19169],[158.5,19.95429],[159,19.72104],[159.5,19.49187],[160,19.26672],[160.5,19.04553],[161,18.82823],[161.5,18.61478],[162,18.4051],[162.5,18.19914],[163,17.99684],[163.5,17.79816],[163.5,17.79815],[164,17.60302],[164.5,17.41139],[165,17.2232],[165.5,17.0384],[165.84766,16.91189]]}}],"attribution":"Eclipse Predictions by Fred Espenak and Jean Meeus (NASA's GSFC)","generated_at":"2026-09-23T01:44:42.789Z"}
