{"type":"FeatureCollection","year":-43,"events":[{"id":"-00430418","year":-43,"month":4,"day":18,"time_tdt":"20:59:08","type":"금환일식","type_code":"A","saros":57,"gamma":-0.74603,"magnitude":0.99473,"greatest":{"lat":-32.73021,"lng":-65.57611},"path_width_km":27,"duration":"00m29s","delta_t_seconds":10971.8,"catalog_number":4663,"source":"NASA Five Millennium Canon of Solar Eclipses","source_url":"https://eclipse.gsfc.nasa.gov/SEsearch/SEsearchmap.php?Ecl=-00430418"},{"id":"-00431012","year":-43,"month":10,"day":12,"time_tdt":"01:34:43","type":"개기일식","type_code":"T","saros":62,"gamma":0.72175,"magnitude":1.01887,"greatest":{"lat":33.75134,"lng":-136.37946},"path_width_km":91.1,"duration":"01m32s","delta_t_seconds":10966.8,"catalog_number":4664,"source":"NASA Five Millennium Canon of Solar Eclipses","source_url":"https://eclipse.gsfc.nasa.gov/SEsearch/SEsearchmap.php?Ecl=-00431012"}],"features":[{"type":"Feature","id":"-00430418:north:0","properties":{"id":"-00430418","year":-43,"month":4,"day":18,"time_tdt":"20:59:08","type":"금환일식","type_code":"A","saros":57,"gamma":-0.74603,"magnitude":0.99473,"greatest":{"lat":-32.73021,"lng":-65.57611},"path_width_km":27,"duration":"00m29s","delta_t_seconds":10971.8,"catalog_number":4663,"source":"NASA Five Millennium Canon of Solar Eclipses","source_url":"https://eclipse.gsfc.nasa.gov/SEsearch/SEsearchmap.php?Ecl=-00430418","boundary":"north","name":"-43-04-18 금환일식"},"geometry":{"type":"LineString","coordinates":[[-127.30078,-72.37515],[-127,-72.312],[-126.5,-72.2056],[-126,-72.09741],[-125.5,-71.9874],[-125,-71.87554],[-124.5,-71.76179],[-124,-71.64613],[-123.5,-71.52854],[-123,-71.40896],[-122.5,-71.28739],[-122,-71.16378],[-121.5,-71.03809],[-121,-70.91031],[-120.5,-70.78038],[-120,-70.64828],[-119.5,-70.51398],[-119,-70.37742],[-118.5,-70.23859],[-118,-70.09743],[-117.5,-69.95392],[-117,-69.80801],[-116.5,-69.65965],[-116,-69.50882],[-115.5,-69.35547],[-115,-69.19955],[-114.5,-69.04103],[-114,-68.87985],[-113.5,-68.71598],[-113,-68.54936],[-112.5,-68.37995],[-112,-68.20771],[-111.5,-68.03258],[-111,-67.85451],[-110.5,-67.67346],[-110,-67.48936],[-109.5,-67.30218],[-109,-67.11185],[-108.5,-66.91832],[-108,-66.72154],[-107.5,-66.52144],[-107,-66.31798],[-106.5,-66.11108],[-106,-65.9007],[-105.5,-65.68676],[-105,-65.46922],[-104.5,-65.248],[-104,-65.02304],[-103.5,-64.79427],[-103,-64.56163],[-102.5,-64.32505],[-102,-64.08446],[-101.5,-63.83979],[-101,-63.59096],[-100.5,-63.33791],[-100,-63.08056],[-99.5,-62.81884],[-99,-62.55267],[-98.5,-62.28196],[-98,-62.00665],[-97.5,-61.72665],[-97,-61.44188],[-96.5,-61.15226],[-96,-60.85771],[-95.5,-60.55814],[-95,-60.25346],[-94.5,-59.94359],[-94,-59.62845],[-93.5,-59.30794],[-93,-58.98198],[-92.5,-58.65047],[-92,-58.31334],[-91.5,-57.97049],[-91,-57.62183],[-90.5,-57.26727],[-90,-56.90673],[-89.5,-56.54012],[-89,-56.16736],[-88.5,-55.78835],[-88,-55.40302],[-87.5,-55.01128],[-87,-54.61307],[-86.5,-54.2083],[-86,-53.79691],[-85.5,-53.37884],[-85,-52.95402],[-84.5,-52.5224],[-84,-52.08395],[-83.5,-51.63863],[-83,-51.1864],[-82.5,-50.72726],[-82,-50.26121],[-81.5,-49.78825],[-81,-49.30842],[-80.5,-48.82177],[-80,-48.32835],[-79.5,-47.82826],[-79,-47.3216],[-78.5,-46.80852],[-78,-46.28917],[-77.5,-45.76375],[-77,-45.23248],[-76.5,-44.69562],[-76,-44.15346],[-75.5,-43.60634],[-75,-43.05462],[-74.5,-42.49873],[-74,-41.9391],[-73.5,-41.37623],[-73,-40.81066],[-72.5,-40.24296],[-72,-39.67374],[-71.5,-39.10364],[-71,-38.53335],[-70.5,-37.96358],[-70,-37.39505],[-69.5,-36.82852],[-69,-36.26474],[-68.5,-35.70449],[-68,-35.14853],[-67.5,-34.59763],[-67,-34.05252],[-66.5,-33.51392],[-66,-32.98253],[-65.5,-32.459],[-65,-31.94396],[-64.5,-31.43797],[-64,-30.94155],[-63.5,-30.45519],[-63,-29.97929],[-62.5,-29.51424],[-62,-29.06034],[-61.5,-28.61785],[-61,-28.18699],[-60.5,-27.7679],[-60,-27.36072],[-59.5,-26.9655],[-59,-26.58229],[-58.5,-26.21106],[-58,-25.85178],[-57.5,-25.50437],[-57,-25.16875],[-56.5,-24.84478],[-56,-24.53233],[-55.5,-24.23123],[-55,-23.94131],[-54.5,-23.66238],[-54,-23.39424],[-53.5,-23.13669],[-53,-22.88951],[-52.5,-22.65249],[-52,-22.42541],[-51.5,-22.20804],[-51,-22.00017],[-50.5,-21.80158],[-50,-21.61203],[-49.5,-21.43133],[-49,-21.25924],[-48.5,-21.09556],[-48,-20.94008],[-47.5,-20.7926],[-47,-20.65291],[-46.5,-20.52081],[-46,-20.39613],[-45.5,-20.27866],[-45,-20.16823],[-44.5,-20.06466],[-44,-19.96778],[-43.5,-19.87742],[-43,-19.79341],[-42.5,-19.71561],[-42,-19.64385],[-41.5,-19.57798],[-41,-19.51786],[-40.5,-19.46336],[-40,-19.41433],[-39.5,-19.37064],[-39,-19.33217],[-38.5,-19.29878],[-38,-19.27037],[-37.5,-19.24681],[-37,-19.22798],[-36.5,-19.21379],[-36,-19.20413],[-35.5,-19.19888],[-35,-19.19796],[-34.5,-19.20126],[-34,-19.20869],[-33.5,-19.22016],[-33,-19.23558],[-32.5,-19.25486],[-32,-19.27793],[-31.5,-19.3047],[-31,-19.33509],[-30.5,-19.36903],[-30,-19.40644],[-29.5,-19.44725],[-29,-19.49139],[-28.5,-19.53879],[-28,-19.58939],[-27.5,-19.64313],[-27,-19.69993],[-26.5,-19.75975],[-26,-19.82251],[-25.5,-19.88817],[-25,-19.95667],[-24.5,-20.02795],[-24,-20.10196],[-23.5,-20.17865],[-23,-20.25796],[-22.5,-20.33986],[-22,-20.42429],[-21.94531,-20.43368]]}},{"type":"Feature","id":"-00430418:center:0","properties":{"id":"-00430418","year":-43,"month":4,"day":18,"time_tdt":"20:59:08","type":"금환일식","type_code":"A","saros":57,"gamma":-0.74603,"magnitude":0.99473,"greatest":{"lat":-32.73021,"lng":-65.57611},"path_width_km":27,"duration":"00m29s","delta_t_seconds":10971.8,"catalog_number":4663,"source":"NASA Five Millennium Canon of Solar Eclipses","source_url":"https://eclipse.gsfc.nasa.gov/SEsearch/SEsearchmap.php?Ecl=-00430418","boundary":"center","name":"-43-04-18 금환일식"},"geometry":{"type":"LineString","coordinates":[[-126.36069,-72.81256],[-126.5,-72.66187],[-126,-72.55348],[-125.5,-72.44325],[-125,-72.33117],[-124.5,-72.21719],[-124,-72.10128],[-123.5,-71.98342],[-123,-71.86357],[-122.5,-71.7417],[-122,-71.61778],[-121.5,-71.49177],[-121,-71.36364],[-120.5,-71.23335],[-120,-71.10087],[-119.5,-70.96616],[-119,-70.82919],[-118.5,-70.68991],[-118,-70.54829],[-117.5,-70.40429],[-117,-70.25787],[-116.5,-70.10898],[-116,-69.95759],[-115.5,-69.80365],[-115,-69.64712],[-114.5,-69.48796],[-114,-69.32612],[-113.5,-69.16155],[-113,-68.9942],[-112.5,-68.82404],[-112,-68.65101],[-111.5,-68.47506],[-111,-68.29614],[-110.5,-68.1142],[-110,-67.92918],[-109.5,-67.74104],[-109,-67.54972],[-108.5,-67.35516],[-108,-67.15731],[-107.5,-66.9561],[-107,-66.75149],[-106.5,-66.54341],[-106,-66.33179],[-105.5,-66.11659],[-105,-65.89773],[-104.5,-65.67515],[-104,-65.44878],[-103.5,-65.21857],[-103,-64.98443],[-102.5,-64.74631],[-102,-64.50412],[-101.5,-64.25781],[-101,-64.0073],[-100.5,-63.75251],[-100,-63.49337],[-99.5,-63.22981],[-99,-62.96174],[-98.5,-62.68909],[-98,-62.41177],[-97.5,-62.12972],[-97,-61.84284],[-96.5,-61.55105],[-96,-61.25428],[-95.5,-60.95243],[-95,-60.64541],[-94.5,-60.33315],[-94,-60.01556],[-93.5,-59.69254],[-93,-59.36401],[-92.5,-59.02988],[-92,-58.69006],[-91.5,-58.34446],[-91,-57.99299],[-90.5,-57.63557],[-90,-57.27211],[-89.5,-56.90251],[-89,-56.5267],[-88.5,-56.14458],[-88,-55.75608],[-87.5,-55.36112],[-87,-54.95962],[-86.5,-54.55151],[-86,-54.13672],[-85.5,-53.71518],[-85,-53.28685],[-84.5,-52.85166],[-84,-52.40958],[-83.5,-51.96057],[-83,-51.50461],[-82.5,-51.04169],[-82,-50.5718],[-81.5,-50.09497],[-81,-49.61122],[-80.5,-49.1206],[-80,-48.62318],[-79.5,-48.11905],[-79,-47.60833],[-78.5,-47.09115],[-78,-46.56768],[-77.5,-46.03812],[-77,-45.5027],[-76.5,-44.96169],[-76,-44.41539],[-75.5,-43.86413],[-75,-43.30829],[-74.5,-42.7483],[-74,-42.1846],[-73.5,-41.61772],[-73,-41.04819],[-72.5,-40.47658],[-72,-39.90354],[-71.5,-39.32971],[-71,-38.75578],[-70.5,-38.18247],[-70,-37.61053],[-69.5,-37.04072],[-69,-36.47381],[-68.5,-35.91057],[-68,-35.35178],[-67.5,-34.79822],[-67,-34.25062],[-66.5,-33.70972],[-66,-33.17621],[-65.5,-32.65075],[-65,-32.13397],[-64.5,-31.62643],[-64,-31.12866],[-63.5,-30.64113],[-63,-30.16426],[-62.5,-29.69842],[-62,-29.24392],[-61.5,-28.801],[-61,-28.36988],[-60.5,-27.95071],[-60,-27.5436],[-59.5,-27.1486],[-59,-26.76576],[-58.5,-26.39504],[-58,-26.03641],[-57.5,-25.68978],[-57,-25.35505],[-56.5,-25.03209],[-56,-24.72076],[-55.5,-24.42088],[-55,-24.13227],[-54.5,-23.85475],[-54,-23.5881],[-53.5,-23.33212],[-53,-23.08659],[-52.5,-22.85129],[-52,-22.626],[-51.5,-22.41048],[-51,-22.20452],[-50.5,-22.00789],[-50,-21.82037],[-49.5,-21.64173],[-49,-21.47176],[-48.5,-21.31024],[-48,-21.15697],[-47.5,-21.01172],[-47,-20.87431],[-46.5,-20.74453],[-46,-20.62219],[-45.5,-20.50711],[-45,-20.39909],[-44.5,-20.29795],[-44,-20.20353],[-43.5,-20.11566],[-43,-20.03416],[-42.5,-19.95889],[-42,-19.88968],[-41.5,-19.82639],[-41,-19.76887],[-40.5,-19.71698],[-40,-19.67057],[-39.5,-19.62953],[-39,-19.59372],[-38.5,-19.56301],[-38,-19.53728],[-37.5,-19.51642],[-37,-19.50031],[-36.5,-19.48885],[-36,-19.48192],[-35.5,-19.47942],[-35,-19.48125],[-34.5,-19.48732],[-34,-19.49753],[-33.5,-19.51178],[-33,-19.53],[-32.5,-19.55208],[-32,-19.57796],[-31.5,-19.60754],[-31,-19.64076],[-30.5,-19.67752],[-30,-19.71776],[-29.5,-19.76141],[-29,-19.8084],[-28.5,-19.85865],[-28,-19.91211],[-27.5,-19.9687],[-27,-20.02836],[-26.5,-20.09104],[-26,-20.15668],[-25.5,-20.22521],[-25,-20.29658],[-24.5,-20.37073],[-24,-20.44762],[-23.5,-20.5272],[-23,-20.6094],[-22.5,-20.69418],[-22,-20.7815],[-21.89617,-20.7943]]}},{"type":"Feature","id":"-00430418:south:0","properties":{"id":"-00430418","year":-43,"month":4,"day":18,"time_tdt":"20:59:08","type":"금환일식","type_code":"A","saros":57,"gamma":-0.74603,"magnitude":0.99473,"greatest":{"lat":-32.73021,"lng":-65.57611},"path_width_km":27,"duration":"00m29s","delta_t_seconds":10971.8,"catalog_number":4663,"source":"NASA Five Millennium Canon of Solar Eclipses","source_url":"https://eclipse.gsfc.nasa.gov/SEsearch/SEsearchmap.php?Ecl=-00430418","boundary":"south","name":"-43-04-18 금환일식"},"geometry":{"type":"LineString","coordinates":[[-125.5,-72.90892],[-125,-72.79668],[-126,-73.01928],[-124.5,-72.68254],[-124,-72.56645],[-123.5,-72.4484],[-123,-72.32834],[-122.5,-72.20624],[-122,-72.08208],[-121.5,-71.95581],[-121,-71.8274],[-120.5,-71.69681],[-120,-71.56402],[-119.5,-71.42897],[-119,-71.29163],[-118.5,-71.15197],[-118,-71.00995],[-117.5,-70.86551],[-117,-70.71864],[-116.5,-70.56927],[-116,-70.41737],[-115.5,-70.2629],[-115,-70.1058],[-114.5,-69.94605],[-114,-69.78358],[-113.5,-69.61836],[-113,-69.45033],[-112.5,-69.27945],[-112,-69.10567],[-111.5,-68.92893],[-111,-68.74919],[-110.5,-68.56639],[-110,-68.38048],[-109.5,-68.19141],[-109,-67.99911],[-108.5,-67.80354],[-108,-67.60463],[-107.5,-67.40234],[-107,-67.19659],[-106.5,-66.98732],[-106,-66.77449],[-105.5,-66.55801],[-105,-66.33783],[-104.5,-66.11389],[-104,-65.88611],[-103.5,-65.65444],[-103,-65.41879],[-102.5,-65.17911],[-102,-64.93532],[-101.5,-64.68734],[-101,-64.43511],[-100.5,-64.17856],[-100,-63.91759],[-99.5,-63.65215],[-99,-63.38215],[-98.5,-63.10751],[-98,-62.82814],[-97.5,-62.54398],[-97,-62.25494],[-96.5,-61.96093],[-96,-61.66187],[-95.5,-61.35768],[-95,-61.04826],[-94.5,-60.73354],[-94,-60.41342],[-93.5,-60.08781],[-93,-59.75663],[-92.5,-59.41979],[-92,-59.0772],[-91.5,-58.72876],[-91,-58.37439],[-90.5,-58.01401],[-90,-57.64751],[-89.5,-57.27482],[-89,-56.89586],[-88.5,-56.51052],[-88,-56.11874],[-87.5,-55.72044],[-87,-55.31554],[-86.5,-54.90396],[-86,-54.48564],[-85.5,-54.06051],[-85,-53.62853],[-84.5,-53.18963],[-84,-52.74379],[-83.5,-52.29096],[-83,-51.83112],[-82.5,-51.36427],[-82,-50.89041],[-81.5,-50.40954],[-81,-49.92172],[-80.5,-49.42698],[-80,-48.9254],[-79.5,-48.41708],[-79,-47.90213],[-78.5,-47.38069],[-78,-46.85295],[-77.5,-46.31909],[-77,-45.77937],[-76.5,-45.23404],[-76,-44.68342],[-75.5,-44.12785],[-75,-43.56772],[-74.5,-43.00347],[-74,-42.43555],[-73.5,-41.86448],[-73,-41.29082],[-72.5,-40.71515],[-72,-40.13812],[-71.5,-39.56039],[-71,-38.98266],[-70.5,-38.40567],[-70,-37.83017],[-69.5,-37.25693],[-69,-36.68673],[-68.5,-36.12036],[-68,-35.55861],[-67.5,-35.00225],[-67,-34.45203],[-66.5,-33.9087],[-66,-33.37295],[-65.5,-32.84545],[-65,-32.32681],[-64.5,-31.81762],[-64,-31.3184],[-63.5,-30.82961],[-63,-30.35169],[-62.5,-29.88497],[-62,-29.42978],[-61.5,-28.98636],[-61,-28.55491],[-60.5,-28.13559],[-60,-27.72848],[-59.5,-27.33366],[-59,-26.95113],[-58.5,-26.58088],[-58,-26.22284],[-57.5,-25.87694],[-57,-25.54307],[-56.5,-25.22108],[-56,-24.91083],[-55.5,-24.61214],[-55,-24.32482],[-54.5,-24.04867],[-54,-23.78349],[-53.5,-23.52907],[-53,-23.28516],[-52.5,-23.05157],[-52,-22.82804],[-51.5,-22.61437],[-51,-22.41031],[-50.5,-22.21563],[-50,-22.03012],[-49.5,-21.85354],[-49,-21.68568],[-48.5,-21.52632],[-48,-21.37524],[-47.5,-21.23224],[-47,-21.0971],[-46.5,-20.96964],[-46,-20.84964],[-45.5,-20.73694],[-45,-20.63132],[-44.5,-20.53263],[-44,-20.44068],[-43.5,-20.35529],[-43,-20.27631],[-42.5,-20.20358],[-42,-20.13693],[-41.5,-20.07622],[-41,-20.0213],[-40.5,-19.97203],[-40,-19.92826],[-39.5,-19.88988],[-39,-19.85673],[-38.5,-19.82871],[-38,-19.80568],[-37.5,-19.78753],[-37,-19.77415],[-36.5,-19.76543],[-36,-19.76125],[-35.5,-19.76151],[-35,-19.76612],[-34.5,-19.77497],[-34,-19.78797],[-33.5,-19.80502],[-33,-19.82605],[-32.5,-19.85095],[-32,-19.87965],[-31.5,-19.91206],[-31,-19.94812],[-30.5,-19.98773],[-30,-20.03082],[-29.5,-20.07733],[-29,-20.12717],[-28.5,-20.1803],[-28,-20.23662],[-27.5,-20.29609],[-27,-20.35864],[-26.5,-20.4242],[-26,-20.49272],[-25.5,-20.56415],[-25,-20.63841],[-24.5,-20.71547],[-24,-20.79526],[-23.5,-20.87774],[-23,-20.96284],[-22.5,-21.05054],[-22,-21.14077]]}},{"type":"Feature","id":"-00431012:north:0","properties":{"id":"-00431012","year":-43,"month":10,"day":12,"time_tdt":"01:34:43","type":"개기일식","type_code":"T","saros":62,"gamma":0.72175,"magnitude":1.01887,"greatest":{"lat":33.75134,"lng":-136.37946},"path_width_km":91.1,"duration":"01m32s","delta_t_seconds":10966.8,"catalog_number":4664,"source":"NASA Five Millennium Canon of Solar Eclipses","source_url":"https://eclipse.gsfc.nasa.gov/SEsearch/SEsearchmap.php?Ecl=-00431012","boundary":"north","name":"-43-10-12 개기일식"},"geometry":{"type":"LineString","coordinates":[[150.35156,73.76575],[150.5,73.74771],[151,73.6862],[151.5,73.62348],[152,73.55955],[152.5,73.49439],[153,73.42799],[153.5,73.36032],[154,73.29138],[154.5,73.22114],[155,73.14959],[155.5,73.07671],[156,73.00249],[156.5,72.9269],[157,72.84992],[157.5,72.77154],[158,72.69173],[158.5,72.61048],[159,72.52776],[159.5,72.44355],[160,72.35784],[160.5,72.2706],[161,72.1818],[161.5,72.09143],[162,71.99946],[162.5,71.90586],[163,71.81062],[163.5,71.7137],[164,71.61508],[164.5,71.51474],[165,71.41264],[165.5,71.30876],[166,71.20308],[166.5,71.09556],[167,70.98617],[167.5,70.87489],[168,70.76169],[168.5,70.64652],[169,70.52936],[169.5,70.41019],[170,70.28896],[170.5,70.16564],[171,70.04019],[171.5,69.91259],[172,69.78279],[172.5,69.65075],[173,69.51645],[173.5,69.37984],[174,69.24088],[174.5,69.09953],[175,68.95575],[175.5,68.8095],[176,68.66074],[176.5,68.50941],[177,68.35549],[177.5,68.19891],[178,68.03964],[178.5,67.87762],[179,67.71281],[179.5,67.54516],[180,67.37462]]}},{"type":"Feature","id":"-00431012:north:1","properties":{"id":"-00431012","year":-43,"month":10,"day":12,"time_tdt":"01:34:43","type":"개기일식","type_code":"T","saros":62,"gamma":0.72175,"magnitude":1.01887,"greatest":{"lat":33.75134,"lng":-136.37946},"path_width_km":91.1,"duration":"01m32s","delta_t_seconds":10966.8,"catalog_number":4664,"source":"NASA Five Millennium Canon of Solar Eclipses","source_url":"https://eclipse.gsfc.nasa.gov/SEsearch/SEsearchmap.php?Ecl=-00431012","boundary":"north","name":"-43-10-12 개기일식"},"geometry":{"type":"LineString","coordinates":[[-179.5,67.20113],[-179,67.02465],[-178.5,66.84511],[-178,66.66246],[-177.5,66.47666],[-177,66.28763],[-176.5,66.09532],[-176,65.89967],[-175.5,65.70062],[-175,65.4981],[-174.5,65.29206],[-174,65.08243],[-173.5,64.86914],[-173,64.65212],[-172.5,64.43131],[-172,64.20663],[-171.5,63.97801],[-171,63.74538],[-170.5,63.50867],[-170,63.2678],[-169.5,63.02268],[-169,62.77326],[-168.5,62.51943],[-168,62.26113],[-167.5,61.99826],[-167,61.73075],[-166.5,61.45851],[-166,61.18146],[-165.5,60.89949],[-165,60.61254],[-164.5,60.3205],[-164,60.02328],[-163.5,59.7208],[-163,59.41295],[-162.5,59.09965],[-162,58.7808],[-161.5,58.4563],[-161,58.12606],[-160.5,57.78999],[-160,57.44799],[-159.5,57.09996],[-159,56.74581],[-158.5,56.38545],[-158,56.01879],[-157.5,55.64573],[-157,55.26618],[-156.5,54.88007],[-156,54.48731],[-155.5,54.08783],[-155,53.68155],[-154.5,53.2684],[-154,52.84832],[-153.5,52.42127],[-153,51.98719],[-152.5,51.54605],[-152,51.09782],[-151.5,50.6425],[-151,50.18008],[-150.5,49.71059],[-150,49.23405],[-149.5,48.75051],[-149,48.26005],[-148.5,47.76276],[-148,47.25876],[-147.5,46.7482],[-147,46.23125],[-146.5,45.7081],[-146,45.17899],[-145.5,44.64419],[-145,44.104],[-144.5,43.55876],[-144,43.00885],[-143.5,42.45468],[-143,41.89669],[-142.5,41.33539],[-142,40.77129],[-141.5,40.20495],[-141,39.63697],[-140.5,39.06798],[-140,38.49861],[-139.5,37.92956],[-139,37.3615],[-138.5,36.79515],[-138,36.23121],[-137.5,35.6704],[-137,35.11342],[-136.5,34.56098],[-136,34.01374],[-135.5,33.47238],[-135,32.93752],[-134.5,32.40975],[-134,31.88963],[-133.5,31.37769],[-133,30.8744],[-132.5,30.3802],[-132,29.89545],[-131.5,29.42052],[-131,28.95567],[-130.5,28.50118],[-130,28.05722],[-129.5,27.62397],[-129,27.20154],[-128.5,26.79002],[-128,26.38945],[-127.5,25.99984],[-127,25.62118],[-126.5,25.25342],[-126,24.8965],[-125.5,24.55034],[-125,24.21481],[-124.5,23.88981],[-124,23.57518],[-123.5,23.27079],[-123,22.97647],[-122.5,22.69206],[-122,22.41738],[-121.5,22.15225],[-121,21.8965],[-120.5,21.64992],[-120,21.41235],[-119.5,21.18358],[-119,20.96344],[-118.5,20.75174],[-118,20.54828],[-117.5,20.35289],[-117,20.16538],[-116.5,19.98558],[-116,19.81332],[-115.5,19.64841],[-115,19.49069],[-114.5,19.34],[-114,19.19617],[-113.5,19.05904],[-113,18.92847],[-112.5,18.8043],[-112,18.68638],[-111.5,18.57457],[-111,18.46873],[-110.5,18.36873],[-110,18.27444],[-109.5,18.18572],[-109,18.10246],[-108.5,18.02453],[-108,17.95182],[-107.5,17.88421],[-107,17.82159],[-106.5,17.76385],[-106,17.71089],[-105.5,17.66261],[-105,17.61891],[-104.5,17.57969],[-104,17.54486],[-103.5,17.51433],[-103,17.48801],[-102.5,17.46582],[-102,17.44767],[-101.5,17.43348],[-101,17.42318],[-100.5,17.41669],[-100,17.41394],[-99.5,17.41484],[-99,17.41934],[-98.5,17.42737],[-98,17.43886],[-97.5,17.45374],[-97,17.47195],[-96.5,17.49344],[-96,17.51813],[-95.5,17.54598],[-95,17.57693],[-94.5,17.61093],[-94,17.64791],[-93.5,17.68783],[-93,17.73064],[-92.5,17.77629],[-92,17.82473],[-91.5,17.87591],[-91.17578,17.91055]]}},{"type":"Feature","id":"-00431012:center:0","properties":{"id":"-00431012","year":-43,"month":10,"day":12,"time_tdt":"01:34:43","type":"개기일식","type_code":"T","saros":62,"gamma":0.72175,"magnitude":1.01887,"greatest":{"lat":33.75134,"lng":-136.37946},"path_width_km":91.1,"duration":"01m32s","delta_t_seconds":10966.8,"catalog_number":4664,"source":"NASA Five Millennium Canon of Solar Eclipses","source_url":"https://eclipse.gsfc.nasa.gov/SEsearch/SEsearchmap.php?Ecl=-00431012","boundary":"center","name":"-43-10-12 개기일식"},"geometry":{"type":"LineString","coordinates":[[150.20425,73.63609],[150.5,73.57663],[151,73.51367],[151.5,73.4495],[152,73.3841],[152.5,73.31745],[153,73.24953],[153.5,73.18034],[154,73.10985],[154.5,73.03805],[155,72.96491],[155.5,72.89043],[156,72.81457],[156.5,72.73733],[157,72.65868],[157.5,72.57861],[158,72.49709],[158.5,72.4141],[159,72.32962],[159.5,72.24363],[160,72.15611],[160.5,72.06704],[161,71.97638],[161.5,71.88413],[162,71.79025],[162.5,71.69472],[163,71.59752],[163.5,71.49862],[164,71.39799],[164.5,71.2956],[165,71.19144],[165.5,71.08547],[166,70.97766],[166.5,70.86798],[167,70.75641],[167.5,70.64291],[168,70.52745],[168.5,70.41001],[169,70.29054],[169.5,70.16902],[170,70.04541],[170.5,69.91967],[171,69.79178],[171.5,69.66169],[172,69.52938],[172.5,69.39479],[173,69.2579],[173.5,69.11865],[174,68.97703],[174.5,68.83297],[175,68.68645],[175.5,68.53741],[176,68.38582],[176.5,68.23163],[177,68.07479],[177.5,67.91526],[178,67.75299],[178.5,67.58793],[179,67.42003],[179.5,67.24925],[180,67.07552]]}},{"type":"Feature","id":"-00431012:center:1","properties":{"id":"-00431012","year":-43,"month":10,"day":12,"time_tdt":"01:34:43","type":"개기일식","type_code":"T","saros":62,"gamma":0.72175,"magnitude":1.01887,"greatest":{"lat":33.75134,"lng":-136.37946},"path_width_km":91.1,"duration":"01m32s","delta_t_seconds":10966.8,"catalog_number":4664,"source":"NASA Five Millennium Canon of Solar Eclipses","source_url":"https://eclipse.gsfc.nasa.gov/SEsearch/SEsearchmap.php?Ecl=-00431012","boundary":"center","name":"-43-10-12 개기일식"},"geometry":{"type":"LineString","coordinates":[[-179.5,66.89881],[-179,66.71904],[-178.5,66.53618],[-178,66.35016],[-177.5,66.16092],[-177,65.96841],[-176.5,65.77257],[-176,65.57333],[-175.5,65.37064],[-175,65.16443],[-174.5,64.95464],[-174,64.74119],[-173.5,64.52403],[-173,64.30309],[-172.5,64.07829],[-172,63.84956],[-171.5,63.61683],[-171,63.38003],[-170.5,63.13908],[-170,62.89391],[-169.5,62.64443],[-169,62.39056],[-168.5,62.13224],[-168,61.86936],[-167.5,61.60186],[-167,61.32963],[-166.5,61.05261],[-166,60.7707],[-165.5,60.48381],[-165,60.19185],[-164.5,59.89473],[-164,59.59236],[-163.5,59.28465],[-163,58.9715],[-162.5,58.65282],[-162,58.32851],[-161.5,57.99847],[-161,57.66263],[-160.5,57.32087],[-160,56.9731],[-159.5,56.61923],[-159,56.25916],[-158.5,55.89281],[-158,55.52008],[-157.5,55.14089],[-157,54.75515],[-156.5,54.36277],[-156,53.96368],[-155.5,53.55781],[-155,53.14509],[-154.5,52.72545],[-154,52.29884],[-153.5,51.86521],[-153,51.42453],[-152.5,50.97677],[-152,50.52191],[-151.5,50.05996],[-151,49.59092],[-150.5,49.11483],[-150,48.63174],[-149.5,48.1417],[-149,47.64482],[-148.5,47.1412],[-148,46.63098],[-147.5,46.11433],[-147,45.59145],[-146.5,45.06257],[-146,44.52793],[-145.5,43.98785],[-145,43.44266],[-144.5,42.89271],[-144,42.33842],[-143.5,41.78023],[-143,41.21863],[-142.5,40.65414],[-142,40.0873],[-141.5,39.51871],[-141,38.949],[-140.5,38.3788],[-140,37.80879],[-139.5,37.23966],[-139,36.67212],[-138.5,36.10687],[-138,35.54463],[-137.5,34.98611],[-137,34.43202],[-136.5,33.88305],[-136,33.33984],[-135.5,32.80305],[-135,32.27327],[-134.5,31.75108],[-134,31.237],[-133.5,30.73153],[-133,30.23509],[-132.5,29.74809],[-132,29.27087],[-131.5,28.80374],[-131,28.34694],[-130.5,27.9007],[-130,27.46517],[-129.5,27.04049],[-129,26.62674],[-128.5,26.22397],[-128,25.83221],[-127.5,25.45144],[-127,25.08162],[-126.5,24.72269],[-126,24.37457],[-125.5,24.03715],[-125,23.71031],[-124.5,23.39391],[-124,23.08781],[-123.5,22.79184],[-123,22.50584],[-122.5,22.22965],[-122,21.96307],[-121.5,21.70592],[-121,21.45802],[-120.5,21.21919],[-120,20.98922],[-119.5,20.76794],[-119,20.55516],[-118.5,20.35069],[-118,20.15434],[-117.5,19.96594],[-117,19.7853],[-116.5,19.61224],[-116,19.4466],[-115.5,19.28821],[-115,19.13689],[-114.5,18.99248],[-114,18.85482],[-113.5,18.72377],[-113,18.59916],[-112.5,18.48085],[-112,18.3687],[-111.5,18.26256],[-111,18.1623],[-110.5,18.06778],[-110,17.97889],[-109.5,17.89548],[-109,17.81745],[-108.5,17.74466],[-108,17.67701],[-107.5,17.61439],[-107,17.55669],[-106.5,17.50379],[-106,17.4556],[-105.5,17.41202],[-105,17.37296],[-104.5,17.33831],[-104,17.30799],[-103.5,17.28191],[-103,17.25998],[-102.5,17.24212],[-102,17.22824],[-101.5,17.21828],[-101,17.21215],[-100.5,17.20977],[-100,17.21109],[-99.5,17.21601],[-99,17.22448],[-98.5,17.23643],[-98,17.2518],[-97.5,17.27051],[-97,17.29252],[-96.5,17.31775],[-96,17.34616],[-95.5,17.37768],[-95,17.41226],[-94.5,17.44985],[-94,17.49039],[-93.5,17.53383],[-93,17.58012],[-92.5,17.62922],[-92,17.68107],[-91.5,17.73564],[-91.20214,17.76952]]}},{"type":"Feature","id":"-00431012:south:0","properties":{"id":"-00431012","year":-43,"month":10,"day":12,"time_tdt":"01:34:43","type":"개기일식","type_code":"T","saros":62,"gamma":0.72175,"magnitude":1.01887,"greatest":{"lat":33.75134,"lng":-136.37946},"path_width_km":91.1,"duration":"01m32s","delta_t_seconds":10966.8,"catalog_number":4664,"source":"NASA Five Millennium Canon of Solar Eclipses","source_url":"https://eclipse.gsfc.nasa.gov/SEsearch/SEsearchmap.php?Ecl=-00431012","boundary":"south","name":"-43-10-12 개기일식"},"geometry":{"type":"LineString","coordinates":[[150.5,73.40532],[151,73.34091],[150,73.46851],[151.5,73.27527],[152,73.20838],[152.5,73.14023],[153,73.07079],[153.5,73.00005],[154,72.928],[154.5,72.85461],[155,72.77987],[155.5,72.70376],[156,72.62627],[156.5,72.54736],[157,72.46702],[157.5,72.38523],[158,72.30198],[158.5,72.21724],[159,72.13098],[159.5,72.04319],[160,71.95384],[160.5,71.86292],[161,71.77039],[161.5,71.67623],[162,71.58043],[162.5,71.48295],[163,71.38376],[163.5,71.28285],[164,71.18019],[164.5,71.07574],[165,70.96949],[165.5,70.86139],[166,70.75143],[166.5,70.63958],[167,70.52579],[167.5,70.41005],[168,70.29233],[168.5,70.17258],[169,70.05077],[169.5,69.92688],[170,69.80086],[170.5,69.67269],[171,69.54232],[171.5,69.40973],[172,69.27487],[172.5,69.1377],[173,68.99818],[173.5,68.85628],[174,68.71196],[174.5,68.56517],[175,68.41587],[175.5,68.26401],[176,68.10956],[176.5,67.95247],[177,67.79269],[177.5,67.63017],[178,67.46487],[178.5,67.29673],[179,67.12572],[179.5,66.95176],[180,66.77482]]}},{"type":"Feature","id":"-00431012:south:1","properties":{"id":"-00431012","year":-43,"month":10,"day":12,"time_tdt":"01:34:43","type":"개기일식","type_code":"T","saros":62,"gamma":0.72175,"magnitude":1.01887,"greatest":{"lat":33.75134,"lng":-136.37946},"path_width_km":91.1,"duration":"01m32s","delta_t_seconds":10966.8,"catalog_number":4664,"source":"NASA Five Millennium Canon of Solar Eclipses","source_url":"https://eclipse.gsfc.nasa.gov/SEsearch/SEsearchmap.php?Ecl=-00431012","boundary":"south","name":"-43-10-12 개기일식"},"geometry":{"type":"LineString","coordinates":[[-179.5,66.59484],[-179,66.41176],[-178.5,66.22553],[-178,66.0361],[-177.5,65.8434],[-177,65.64737],[-176.5,65.44795],[-176,65.24509],[-175.5,65.03872],[-175,64.82877],[-174.5,64.61518],[-174,64.39789],[-173.5,64.17682],[-173,63.9519],[-172.5,63.72307],[-172,63.49025],[-171.5,63.25336],[-171,63.01234],[-170.5,62.7671],[-170,62.51758],[-169.5,62.26368],[-169,62.00533],[-168.5,61.74245],[-168,61.47495],[-167.5,61.20275],[-167,60.92577],[-166.5,60.6439],[-166,60.35708],[-165.5,60.0652],[-165,59.76819],[-164.5,59.46593],[-164,59.15835],[-163.5,58.84535],[-163,58.52684],[-162.5,58.20271],[-162,57.87288],[-161.5,57.53726],[-161,57.19573],[-160.5,56.84822],[-160,56.49462],[-159.5,56.13485],[-159,55.76881],[-158.5,55.39641],[-158,55.01755],[-157.5,54.63217],[-157,54.24017],[-156.5,53.84147],[-156,53.43599],[-155.5,53.02368],[-155,52.60446],[-154.5,52.17829],[-154,51.7451],[-153.5,51.30487],[-153,50.85756],[-152.5,50.40315],[-152,49.94164],[-151.5,49.47305],[-151,48.99739],[-150.5,48.51471],[-150,48.02507],[-149.5,47.52857],[-149,47.0253],[-148.5,46.51541],[-148,45.99905],[-147.5,45.47641],[-147,44.94771],[-146.5,44.41322],[-146,43.87322],[-145.5,43.32803],[-145,42.77801],[-144.5,42.22357],[-144,41.66515],[-143.5,41.10322],[-143,40.53829],[-142.5,39.97092],[-142,39.40168],[-141.5,38.8312],[-141,38.26012],[-140.5,37.68911],[-140,37.11886],[-139.5,36.55007],[-139,35.98346],[-138.5,35.41974],[-138,34.85963],[-137.5,34.30383],[-137,33.75304],[-136.5,33.20793],[-136,32.66914],[-135.5,32.13729],[-135,31.61295],[-134.5,31.09666],[-134,30.58892],[-133.5,30.09018],[-133,29.60084],[-132.5,29.12126],[-132,28.65176],[-131.5,28.19259],[-131,27.74397],[-130.5,27.30609],[-130,26.87907],[-129.5,26.46301],[-129,26.05797],[-128.5,25.66397],[-128,25.28101],[-127.5,24.90905],[-127,24.54804],[-126.5,24.19789],[-126,23.85849],[-125.5,23.52974],[-125,23.21149],[-124.5,22.90361],[-124,22.60593],[-123.5,22.31828],[-123,22.0405],[-122.5,21.7724],[-122,21.5138],[-121.5,21.26451],[-121,21.02435],[-120.5,20.79313],[-120,20.57066],[-119.5,20.35675],[-119,20.1512],[-118.5,19.95385],[-118,19.76449],[-117.5,19.58296],[-117,19.40907],[-116.5,19.24265],[-116,19.08353],[-115.5,18.93153],[-115,18.7865],[-114.5,18.64828],[-114,18.5167],[-113.5,18.39162],[-113,18.27288],[-112.5,18.16034],[-112,18.05386],[-111.5,17.95331],[-111,17.85854],[-110.5,17.76942],[-110,17.68584],[-109.5,17.60767],[-109,17.53479],[-108.5,17.46707],[-108,17.40442],[-107.5,17.34672],[-107,17.29386],[-106.5,17.24574],[-106,17.20226],[-105.5,17.16333],[-105,17.12884],[-104.5,17.0987],[-104,17.07284],[-103.5,17.05115],[-103,17.03356],[-102.5,17.01998],[-102,17.01033],[-101.5,17.00454],[-101,17.00253],[-100.5,17.00423],[-100,17.00956],[-99.5,17.01846],[-99,17.03086],[-98.5,17.0467],[-98,17.0659],[-97.5,17.08842],[-97,17.11418],[-96.5,17.14313],[-96,17.17521],[-95.5,17.21037],[-95,17.24855],[-94.5,17.2897],[-94,17.33376],[-93.5,17.38069],[-93,17.43044],[-92.5,17.48296],[-92,17.5382],[-91.5,17.59612]]}}],"attribution":"Eclipse Predictions by Fred Espenak and Jean Meeus (NASA's GSFC)","generated_at":"2026-09-23T01:44:43.648Z"}
