{"type":"FeatureCollection","year":-44,"events":[{"id":"-00440429","year":-44,"month":4,"day":29,"time_tdt":"08:38:41","type":"부분일식","type_code":"P","saros":47,"gamma":-1.44451,"magnitude":0.16903,"greatest":{"lat":-61.69523,"lng":158.06067},"path_width_km":0,"duration":"00m00s","delta_t_seconds":10981.9,"catalog_number":4659,"source":"NASA Five Millennium Canon of Solar Eclipses","source_url":"https://eclipse.gsfc.nasa.gov/SEsearch/SEsearchmap.php?Ecl=-00440429"},{"id":"-00440528","year":-44,"month":5,"day":28,"time_tdt":"15:49:54","type":"부분일식","type_code":"P","saros":85,"gamma":1.07929,"magnitude":0.87011,"greatest":{"lat":63.4459,"lng":-154.20581},"path_width_km":0,"duration":"00m00s","delta_t_seconds":10981.1,"catalog_number":4660,"source":"NASA Five Millennium Canon of Solar Eclipses","source_url":"https://eclipse.gsfc.nasa.gov/SEsearch/SEsearchmap.php?Ecl=-00440528"},{"id":"-00441022","year":-44,"month":10,"day":22,"time_tdt":"15:24:22","type":"부분일식","type_code":"P","saros":52,"gamma":1.48152,"magnitude":0.13252,"greatest":{"lat":61.36127,"lng":61.28815},"path_width_km":0,"duration":"00m00s","delta_t_seconds":10976.9,"catalog_number":4661,"source":"NASA Five Millennium Canon of Solar Eclipses","source_url":"https://eclipse.gsfc.nasa.gov/SEsearch/SEsearchmap.php?Ecl=-00441022"},{"id":"-00441121","year":-44,"month":11,"day":21,"time_tdt":"07:49:10","type":"부분일식","type_code":"P","saros":90,"gamma":-1.4592,"magnitude":0.18119,"greatest":{"lat":-62.89832,"lng":-28.83167},"path_width_km":0,"duration":"00m00s","delta_t_seconds":10976,"catalog_number":4662,"source":"NASA Five Millennium Canon of Solar Eclipses","source_url":"https://eclipse.gsfc.nasa.gov/SEsearch/SEsearchmap.php?Ecl=-00441121"}],"features":[],"attribution":"Eclipse Predictions by Fred Espenak and Jean Meeus (NASA's GSFC)","generated_at":"2026-09-23T01:44:37.868Z"}
