{"type":"FeatureCollection","year":-51,"events":[{"id":"-00510318","year":-51,"month":3,"day":18,"time_tdt":"14:48:25","type":"부분일식","type_code":"P","saros":48,"gamma":1.40917,"magnitude":0.26396,"greatest":{"lat":71.87616,"lng":-77.77551},"path_width_km":0,"duration":"00m00s","delta_t_seconds":11056.3,"catalog_number":4641,"source":"NASA Five Millennium Canon of Solar Eclipses","source_url":"https://eclipse.gsfc.nasa.gov/SEsearch/SEsearchmap.php?Ecl=-00510318"},{"id":"-00510417","year":-51,"month":4,"day":17,"time_tdt":"05:51:00","type":"부분일식","type_code":"P","saros":86,"gamma":-1.45737,"magnitude":0.17462,"greatest":{"lat":-71.18603,"lng":-161.14899},"path_width_km":0,"duration":"00m00s","delta_t_seconds":11055.4,"catalog_number":4642,"source":"NASA Five Millennium Canon of Solar Eclipses","source_url":"https://eclipse.gsfc.nasa.gov/SEsearch/SEsearchmap.php?Ecl=-00510417"},{"id":"-00510911","year":-51,"month":9,"day":11,"time_tdt":"08:03:38","type":"부분일식","type_code":"P","saros":53,"gamma":-1.31173,"magnitude":0.42038,"greatest":{"lat":-71.55219,"lng":32.04022},"path_width_km":0,"duration":"00m00s","delta_t_seconds":11051.2,"catalog_number":4643,"source":"NASA Five Millennium Canon of Solar Eclipses","source_url":"https://eclipse.gsfc.nasa.gov/SEsearch/SEsearchmap.php?Ecl=-00510911"},{"id":"-00511010","year":-51,"month":10,"day":10,"time_tdt":"17:24:36","type":"부분일식","type_code":"P","saros":91,"gamma":1.31054,"magnitude":0.42348,"greatest":{"lat":71.5563,"lng":33.93091},"path_width_km":0,"duration":"00m00s","delta_t_seconds":11050.4,"catalog_number":4644,"source":"NASA Five Millennium Canon of Solar Eclipses","source_url":"https://eclipse.gsfc.nasa.gov/SEsearch/SEsearchmap.php?Ecl=-00511010"}],"features":[],"attribution":"Eclipse Predictions by Fred Espenak and Jean Meeus (NASA's GSFC)","generated_at":"2026-09-23T01:44:37.865Z"}
