{"type":"FeatureCollection","year":-8,"events":[{"id":"-00080619","year":-8,"month":6,"day":19,"time_tdt":"06:36:42","type":"개기일식","type_code":"T","saros":85,"gamma":0.93517,"magnitude":1.06025,"greatest":{"lat":82.0457,"lng":10.86993},"path_width_km":573.2,"duration":"03m08s","delta_t_seconds":10610.4,"catalog_number":4752,"source":"NASA Five Millennium Canon of Solar Eclipses","source_url":"https://eclipse.gsfc.nasa.gov/SEsearch/SEsearchmap.php?Ecl=-00080619"},{"id":"-00081113","year":-8,"month":11,"day":13,"time_tdt":"08:03:40","type":"부분일식","type_code":"P","saros":52,"gamma":1.48744,"magnitude":0.12109,"greatest":{"lat":62.48656,"lng":152.04773},"path_width_km":0,"duration":"00m00s","delta_t_seconds":10606.3,"catalog_number":4753,"source":"NASA Five Millennium Canon of Solar Eclipses","source_url":"https://eclipse.gsfc.nasa.gov/SEsearch/SEsearchmap.php?Ecl=-00081113"},{"id":"-00081213","year":-8,"month":12,"day":13,"time_tdt":"00:16:16","type":"부분일식","type_code":"P","saros":90,"gamma":-1.44599,"magnitude":0.20195,"greatest":{"lat":-64.74651,"lng":63.78363},"path_width_km":0,"duration":"00m00s","delta_t_seconds":10605.5,"catalog_number":4754,"source":"NASA Five Millennium Canon of Solar Eclipses","source_url":"https://eclipse.gsfc.nasa.gov/SEsearch/SEsearchmap.php?Ecl=-00081213"}],"features":[{"type":"Feature","id":"-00080619:north:0","properties":{"id":"-00080619","year":-8,"month":6,"day":19,"time_tdt":"06:36:42","type":"개기일식","type_code":"T","saros":85,"gamma":0.93517,"magnitude":1.06025,"greatest":{"lat":82.0457,"lng":10.86993},"path_width_km":573.2,"duration":"03m08s","delta_t_seconds":10610.4,"catalog_number":4752,"source":"NASA Five Millennium Canon of Solar Eclipses","source_url":"https://eclipse.gsfc.nasa.gov/SEsearch/SEsearchmap.php?Ecl=-00080619","boundary":"north","name":"-8-06-19 개기일식"},"geometry":{"type":"LineString","coordinates":[[2.5,55.79956],[3,56.103],[3.5,56.41632],[4,56.74009],[4.5,57.07497],[5,57.4217],[5.5,57.78112],[6,58.15421],[6.5,58.54208],[7,58.94605],[7.5,59.36768],[8,59.80886],[8.5,60.27186],[9,60.75954],[9.5,61.27551],[10,61.82454],[10.5,62.41303],[11,63.05007],[11.5,63.74934],[12,64.5332],[12.5,65.44345],[13,66.57919],[13.5,68.40452],[13.5,70.87874],[13,72.46277],[12.5,73.36186],[12,74.04],[11.5,74.59621],[11,75.07219],[10.5,75.49021],[10,75.86387],[9.5,76.20217],[9,76.51146],[8.5,76.7964],[8,77.06054],[7.5,77.30667],[7,77.537],[6.5,77.75334],[6,77.9572],[5.5,78.14982],[5,78.33227],[4.5,78.50547],[4,78.67019],[3.5,78.82714],[3,78.9769],[2.5,79.12002],[2,79.25696],[1.5,79.38815],[1,79.51396],[0.5,79.63473],[0,79.75077],[-0.5,79.86236],[-1,79.96976],[-1.5,80.07318],[-2,80.17286],[-2.5,80.26898],[-3,80.36172],[-3.5,80.45125],[-4,80.53772],[-4.5,80.62127],[-5,80.70204],[-5.5,80.78015],[-6,80.85571],[-6.5,80.92882],[-7,80.99959],[-7.5,81.06812],[-8,81.13448],[-8.5,81.19877],[-9,81.26105],[-9.5,81.3214],[-10,81.3799],[-10.5,81.43659],[-11,81.49155],[-11.5,81.54483],[-12,81.59649],[-12.5,81.64657],[-13,81.69513],[-13.5,81.74221],[-14,81.78785],[-14.5,81.8321],[-15,81.875],[-15.5,81.91658],[-16,81.95688],[-16.5,81.99593],[-17,82.03376],[-17.5,82.07041],[-18,82.1059],[-18.5,82.14027],[-19,82.17353],[-19.5,82.20571],[-20,82.23684],[-20.5,82.26694],[-21,82.29603],[-21.5,82.32413],[-22,82.35127],[-22.5,82.37745],[-23,82.4027],[-23.5,82.42704],[-24,82.45047],[-24.5,82.47302],[-25,82.49471],[-25.5,82.51554],[-26,82.53552],[-26.5,82.55468],[-27,82.57302],[-27.5,82.59055],[-28,82.60729],[-28.5,82.62324],[-29,82.63842],[-29.5,82.65282],[-30,82.66648],[-30.5,82.67938],[-31,82.69154],[-31.5,82.70296],[-32,82.71366],[-32.5,82.72363],[-33,82.73288],[-33.5,82.74143],[-34,82.74926],[-34.5,82.75639],[-35,82.76283],[-35.5,82.76857],[-36,82.77362],[-36.5,82.77797],[-37,82.78164],[-37.5,82.78463],[-38,82.78693],[-38.5,82.78855],[-39,82.78949],[-39.5,82.78975],[-40,82.78932],[-40.5,82.78822],[-41,82.78643],[-41.5,82.78396],[-42,82.78081],[-42.5,82.77696],[-43,82.77243],[-43.5,82.76721],[-44,82.76129],[-44.5,82.75468],[-45,82.74736],[-45.5,82.73934],[-46,82.7306],[-46.5,82.72115],[-47,82.71098],[-47.5,82.70008],[-48,82.68844],[-48.5,82.67606],[-49,82.66294],[-49.5,82.64905],[-50,82.63441],[-50.5,82.61898],[-51,82.60277],[-51.5,82.58577],[-52,82.56796],[-52.5,82.54934],[-53,82.52988],[-53.5,82.50959],[-54,82.48844],[-54.5,82.46642],[-55,82.44352],[-55.5,82.41972],[-56,82.395],[-56.5,82.36935],[-57,82.34275],[-57.5,82.31518],[-58,82.28662],[-58.5,82.25705],[-59,82.22645],[-59.5,82.19479],[-60,82.16206],[-60.5,82.12821],[-61,82.09324],[-61.5,82.0571],[-62,82.01977],[-62.5,81.98122],[-63,81.94141],[-63.5,81.90032],[-64,81.8579],[-64.5,81.81411],[-65,81.76892],[-65.5,81.72228],[-66,81.67415],[-66.5,81.62447],[-67,81.57321],[-67.5,81.52029],[-68,81.46567],[-68.5,81.40929],[-69,81.35109],[-69.5,81.29098],[-70,81.22891],[-70.5,81.16479],[-71,81.09855],[-71.5,81.03009],[-72,80.95932],[-72.5,80.88614],[-73,80.81044],[-73.5,80.73211],[-74,80.65102],[-74.5,80.56703],[-75,80.48001],[-75.5,80.38978],[-76,80.29619],[-76.5,80.19904],[-77,80.09813],[-77.5,79.99324],[-78,79.88412],[-78.5,79.7705],[-79,79.65209],[-79.5,79.52856],[-80,79.39953],[-80.5,79.26459],[-81,79.12328],[-81.5,78.97508],[-82,78.81938],[-82.5,78.65549],[-83,78.48263],[-83.5,78.29985],[-84,78.10608],[-84.5,77.90001],[-85,77.68007],[-85.5,77.44432],[-86,77.19038],[-86.5,76.91517],[-87,76.61466],[-87.5,76.28342],[-88,75.91374],[-88.5,75.49408],[-89,75.00568],[-89.5,74.41403],[-90,73.6398],[-90.5,72.3592],[-90.5,69.65379],[-90,68.14237],[-89.5,67.14032],[-89,66.32381],[-88.5,65.61347],[-88,64.97473],[-87.625,64.53106]]}},{"type":"Feature","id":"-00080619:center:0","properties":{"id":"-00080619","year":-8,"month":6,"day":19,"time_tdt":"06:36:42","type":"개기일식","type_code":"T","saros":85,"gamma":0.93517,"magnitude":1.06025,"greatest":{"lat":82.0457,"lng":10.86993},"path_width_km":573.2,"duration":"03m08s","delta_t_seconds":10610.4,"catalog_number":4752,"source":"NASA Five Millennium Canon of Solar Eclipses","source_url":"https://eclipse.gsfc.nasa.gov/SEsearch/SEsearchmap.php?Ecl=-00080619","boundary":"center","name":"-8-06-19 개기일식"},"geometry":{"type":"LineString","coordinates":[[6.53116,53.85154],[6.5,54.04204],[7,54.32184],[7.5,54.60876],[8,54.90306],[8.5,55.20503],[9,55.51497],[9.5,55.83323],[10,56.16018],[10.5,56.49621],[11,56.84176],[11.5,57.19731],[12,57.56341],[12.5,57.94065],[13,58.32968],[13.5,58.73127],[14,59.14624],[14.5,59.57558],[15,60.0204],[15.5,60.48198],[16,60.96184],[16.5,61.46181],[17,61.98407],[17.5,62.5313],[18,63.1069],[18.5,63.71521],[19,64.36202],[19.5,65.05531],[20,65.80672],[20.5,66.63441],[21,67.56989],[21.5,68.67817],[22,70.15194],[22,74.91418],[21.5,76.04275],[21,76.81285],[20.5,77.41698],[20,77.91996],[19.5,78.35315],[19,78.73455],[18.5,79.07562],[18,79.38422],[17.5,79.66597],[17,79.9251],[16.5,80.16485],[16,80.38779],[15.5,80.59598],[15,80.79111],[14.5,80.97459],[14,81.1476],[13.5,81.31116],[13,81.46611],[12.5,81.61321],[12,81.75312],[11.5,81.8864],[11,82.01356],[10.5,82.13505],[10,82.25126],[9.5,82.36257],[9,82.46929],[8.5,82.57171],[8,82.6701],[7.5,82.7647],[7,82.85574],[6.5,82.9434],[6,83.02788],[5.5,83.10934],[5,83.18795],[4.5,83.26385],[4,83.33716],[3.5,83.40802],[3,83.47655],[2.5,83.54284],[2,83.607],[1.5,83.66912],[1,83.7293],[0.5,83.7876],[0,83.84412],[-0.5,83.89892],[-1,83.95206],[-1.5,84.00362],[-2,84.05365],[-2.5,84.10222],[-3,84.14936],[-3.5,84.19514],[-4,84.23961],[-4.5,84.2828],[-5,84.32476],[-5.5,84.36553],[-6,84.40516],[-6.5,84.44367],[-7,84.4811],[-7.5,84.51749],[-8,84.55286],[-8.5,84.58725],[-9,84.62069],[-9.5,84.6532],[-10,84.6848],[-10.5,84.71553],[-11,84.74541],[-11.5,84.77446],[-12,84.8027],[-12.5,84.83014],[-13,84.85683],[-13.5,84.88276],[-14,84.90796],[-14.5,84.93244],[-15,84.95623],[-15.5,84.97934],[-16,85.00178],[-16.5,85.02357],[-17,85.04471],[-17.5,85.06524],[-18,85.08515],[-18.5,85.10446],[-19,85.12318],[-19.5,85.14133],[-20,85.15891],[-20.5,85.17593],[-21,85.19241],[-21.5,85.20835],[-22,85.22376],[-22.5,85.23865],[-23,85.25303],[-23.5,85.26691],[-24,85.28029],[-24.5,85.29318],[-25,85.30559],[-25.5,85.31753],[-26,85.329],[-26.5,85.34],[-27,85.35055],[-27.5,85.36065],[-28,85.3703],[-28.5,85.3795],[-29,85.38828],[-29.5,85.39662],[-30,85.40453],[-30.5,85.41201],[-31,85.41908],[-31.5,85.42573],[-32,85.43196],[-32.5,85.43779],[-33,85.4432],[-33.5,85.44821],[-34,85.45282],[-34.5,85.45703],[-35,85.46084],[-35.5,85.46425],[-36,85.46726],[-36.5,85.46988],[-37,85.47211],[-37.5,85.47395],[-38,85.47539],[-38.5,85.47645],[-39,85.47711],[-39.5,85.47739],[-40,85.47727],[-40.5,85.47677],[-41,85.47588],[-41.5,85.4746],[-42,85.47292],[-42.5,85.47086],[-43,85.4684],[-43.5,85.46555],[-44,85.4623],[-44.5,85.45866],[-45,85.45461],[-45.5,85.45017],[-46,85.44532],[-46.5,85.44007],[-47,85.43441],[-47.5,85.42835],[-48,85.42186],[-48.5,85.41496],[-49,85.40764],[-49.5,85.3999],[-50,85.39173],[-50.5,85.38313],[-51,85.37409],[-51.5,85.36461],[-52,85.35468],[-52.5,85.3443],[-53,85.33347],[-53.5,85.32218],[-54,85.31041],[-54.5,85.29818],[-55,85.28546],[-55.5,85.27225],[-56,85.25855],[-56.5,85.24435],[-57,85.22964],[-57.5,85.2144],[-58,85.19864],[-58.5,85.18235],[-59,85.1655],[-59.5,85.14811],[-60,85.13014],[-60.5,85.1116],[-61,85.09247],[-61.5,85.07275],[-62,85.05241],[-62.5,85.03144],[-63,85.00984],[-63.5,84.98758],[-64,84.96466],[-64.5,84.94106],[-65,84.91675],[-65.5,84.89174],[-66,84.86599],[-66.5,84.83949],[-67,84.81222],[-67.5,84.78416],[-68,84.75529],[-68.5,84.72559],[-69,84.69504],[-69.5,84.6636],[-70,84.63126],[-70.5,84.59799],[-71,84.56376],[-71.5,84.52855],[-72,84.49231],[-72.5,84.45503],[-73,84.41666],[-73.5,84.37717],[-74,84.33652],[-74.5,84.29467],[-75,84.25159],[-75.5,84.20722],[-76,84.16152],[-76.5,84.11444],[-77,84.06593],[-77.5,84.01593],[-78,83.96439],[-78.5,83.91123],[-79,83.8564],[-79.5,83.79982],[-80,83.74142],[-80.5,83.68112],[-81,83.61883],[-81.5,83.55445],[-82,83.4879],[-82.5,83.41905],[-83,83.34781],[-83.5,83.27403],[-84,83.1976],[-84.5,83.11837],[-85,83.03617],[-85.5,82.95085],[-86,82.8622],[-86.5,82.77004],[-87,82.67413],[-87.5,82.57424],[-88,82.47009],[-88.5,82.36138],[-89,82.24778],[-89.5,82.12891],[-90,82.00437],[-90.5,81.87367],[-91,81.73628],[-91.5,81.5916],[-92,81.43892],[-92.5,81.27743],[-93,81.10617],[-93.5,80.92403],[-94,80.72967],[-94.5,80.52145],[-95,80.29739],[-95.5,80.05498],[-96,79.79103],[-96.5,79.50133],[-97,79.18016],[-97.5,78.81938],[-98,78.40673],[-98.5,77.92211],[-99,77.32806],[-99.5,76.53631],[-100,75.151],[-100,72.6968],[-99.5,71.00725],[-99,69.91543],[-98.5,69.02542],[-98,68.24887],[-97.5,67.54825],[-97,66.90339],[-96.5,66.30196],[-96,65.73576],[-95.5,65.19901],[-95,64.68745],[-94.5,64.19781],[-94,63.72754],[-93.38824,63.62308]]}},{"type":"Feature","id":"-00080619:south:0","properties":{"id":"-00080619","year":-8,"month":6,"day":19,"time_tdt":"06:36:42","type":"개기일식","type_code":"T","saros":85,"gamma":0.93517,"magnitude":1.06025,"greatest":{"lat":82.0457,"lng":10.86993},"path_width_km":573.2,"duration":"03m08s","delta_t_seconds":10610.4,"catalog_number":4752,"source":"NASA Five Millennium Canon of Solar Eclipses","source_url":"https://eclipse.gsfc.nasa.gov/SEsearch/SEsearchmap.php?Ecl=-00080619","boundary":"south","name":"-8-06-19 개기일식"},"geometry":{"type":"LineString","coordinates":[[10,52.48118],[10.5,52.74567],[11,53.0158],[11.5,53.29172],[12,53.57358],[12.5,53.86154],[13,54.15576],[13.5,54.45644],[14,54.76375],[14.5,55.0779],[15,55.39909],[15.5,55.72754],[16,56.06351],[16.5,56.40723],[17,56.75897],[17.5,57.11902],[18,57.48769],[18.5,57.86531],[19,58.25223],[19.5,58.64883],[20,59.05553],[20.5,59.47278],[21,59.90107],[21.5,60.34095],[22,60.79299],[22.5,61.25788],[23,61.73633],[23.5,62.22918],[24,62.73736],[24.5,63.26193],[25,63.80414],[25.5,64.3654],[26,64.94742],[26.5,65.55223],[27,66.18231],[27.5,66.84074],[28,67.53147],[28.5,68.25971],[29,69.03256],[29.5,69.86023],[30,70.75841],[30.5,71.75362],[31,72.89804],[31.5,74.32958],[31.5,79.73698],[31,80.65256],[30.5,81.29182],[30,81.79242],[29.5,82.20631],[29,82.55978],[28.5,82.86828],[28,83.14178],[27.5,83.38718],[27,83.60944],[26.5,83.81229],[26,83.9986],[25.5,84.17064],[25,84.33022],[24.5,84.47885],[24,84.61776],[23.5,84.74799],[23,84.87041],[22.5,84.98578],[22,85.09476],[21.5,85.1979],[21,85.2957],[20.5,85.38859],[20,85.47697],[19.5,85.56117],[19,85.64149],[18.5,85.71822],[18,85.79159],[17.5,85.86184],[17,85.92916],[16.5,85.99373],[16,86.05574],[15.5,86.11531],[15,86.17261],[14.5,86.22776],[14,86.28087],[13.5,86.33205],[13,86.38141],[12.5,86.42905],[12,86.47504],[11.5,86.51947],[11,86.56241],[10.5,86.60394],[10,86.64411],[9.5,86.683],[9,86.72066],[8.5,86.75714],[8,86.79249],[7.5,86.82676],[7,86.85999],[6.5,86.89224],[6,86.92353],[5.5,86.9539],[5,86.98339],[4.5,87.01204],[4,87.03986],[3.5,87.06691],[3,87.09319],[2.5,87.11874],[2,87.14359],[1.5,87.16776],[1,87.19127],[0.5,87.21414],[0,87.23639],[-0.5,87.25805],[-1,87.27914],[-1.5,87.29966],[-2,87.31965],[-2.5,87.3391],[-3,87.35805],[-3.5,87.37651],[-4,87.39448],[-4.5,87.41199],[-5,87.42904],[-5.5,87.44565],[-6,87.46184],[-6.5,87.4776],[-7,87.49296],[-7.5,87.50792],[-8,87.5225],[-8.5,87.5367],[-9,87.55053],[-9.5,87.56401],[-10,87.57713],[-10.5,87.58992],[-11,87.60237],[-11.5,87.61449],[-12,87.6263],[-12.5,87.63779],[-13,87.64898],[-13.5,87.65988],[-14,87.67048],[-14.5,87.68079],[-15,87.69082],[-15.5,87.70058],[-16,87.71007],[-16.5,87.71929],[-17,87.72825],[-17.5,87.73696],[-18,87.74542],[-18.5,87.75364],[-19,87.76161],[-19.5,87.76934],[-20,87.77684],[-20.5,87.78411],[-21,87.79115],[-21.5,87.79797],[-22,87.80457],[-22.5,87.81095],[-23,87.81712],[-23.5,87.82308],[-24,87.82883],[-24.5,87.83438],[-25,87.83972],[-25.5,87.84487],[-26,87.84981],[-26.5,87.85456],[-27,87.85912],[-27.5,87.86349],[-28,87.86766],[-28.5,87.87165],[-29,87.87545],[-29.5,87.87907],[-30,87.88251],[-30.5,87.88576],[-31,87.88884],[-31.5,87.89174],[-32,87.89446],[-32.5,87.897],[-33,87.89937],[-33.5,87.90157],[-34,87.90359],[-34.5,87.90544],[-35,87.90712],[-35.5,87.90863],[-36,87.90997],[-36.5,87.91114],[-37,87.91214],[-37.5,87.91298],[-38,87.91364],[-38.5,87.91414],[-39,87.91447],[-39.5,87.91463],[-40,87.91463],[-40.5,87.91445],[-41,87.91411],[-41.5,87.91361],[-42,87.91293],[-42.5,87.91209],[-43,87.91108],[-43.5,87.9099],[-44,87.90855],[-44.5,87.90703],[-45,87.90534],[-45.5,87.90348],[-46,87.90144],[-46.5,87.89924],[-47,87.89686],[-47.5,87.8943],[-48,87.89157],[-48.5,87.88866],[-49,87.88558],[-49.5,87.88231],[-50,87.87886],[-50.5,87.87523],[-51,87.87142],[-51.5,87.86742],[-52,87.86323],[-52.5,87.85885],[-53,87.85428],[-53.5,87.84952],[-54,87.84456],[-54.5,87.8394],[-55,87.83405],[-55.5,87.82849],[-56,87.82272],[-56.5,87.81675],[-57,87.81056],[-57.5,87.80416],[-58,87.79755],[-58.5,87.79071],[-59,87.78365],[-59.5,87.77637],[-60,87.76885],[-60.5,87.7611],[-61,87.75311],[-61.5,87.74487],[-62,87.7364],[-62.5,87.72767],[-63,87.71868],[-63.5,87.70943],[-64,87.69992],[-64.5,87.69014],[-65,87.68008],[-65.5,87.66975],[-66,87.65912],[-66.5,87.6482],[-67,87.63698],[-67.5,87.62546],[-68,87.61362],[-68.5,87.60147],[-69,87.58898],[-69.5,87.57616],[-70,87.563],[-70.5,87.54949],[-71,87.53562],[-71.5,87.52138],[-72,87.50676],[-72.5,87.49175],[-73,87.47635],[-73.5,87.46053],[-74,87.4443],[-74.5,87.42764],[-75,87.41053],[-75.5,87.39296],[-76,87.37493],[-76.5,87.35641],[-77,87.3374],[-77.5,87.31787],[-78,87.29781],[-78.5,87.27721],[-79,87.25605],[-79.5,87.2343],[-80,87.21195],[-80.5,87.18899],[-81,87.16538],[-81.5,87.1411],[-82,87.11614],[-82.5,87.09047],[-83,87.06406],[-83.5,87.03689],[-84,87.00892],[-84.5,86.98012],[-85,86.95047],[-85.5,86.91993],[-86,86.88846],[-86.5,86.85603],[-87,86.82258],[-87.5,86.78809],[-88,86.75251],[-88.5,86.71578],[-89,86.67785],[-89.5,86.63868],[-90,86.59819],[-90.5,86.55632],[-91,86.51302],[-91.5,86.4682],[-92,86.42179],[-92.5,86.3737],[-93,86.32384],[-93.5,86.27212],[-94,86.21842],[-94.5,86.16264],[-95,86.10465],[-95.5,86.0443],[-96,85.98146],[-96.5,85.91597],[-97,85.84763],[-97.5,85.77626],[-98,85.70164],[-98.5,85.62352],[-99,85.54165],[-99.5,85.45572],[-100,85.36539],[-100.5,85.27029],[-101,85.17],[-101.5,85.06402],[-102,84.9518],[-102.5,84.83268],[-103,84.70592],[-103.5,84.57065],[-104,84.4258],[-104.5,84.27012],[-105,84.1021],[-105.5,83.91984],[-106,83.72098],[-106.5,83.50246],[-107,83.26027],[-107.5,82.9889],[-108,82.6805],[-108.5,82.32317],[-109,81.8973],[-109.5,81.3661],[-110,80.64204],[-110.5,79.31914],[-110.5,77.02946],[-110,75.28333],[-109.5,74.14257],[-109,73.20106],[-108.5,72.37115],[-108,71.61589],[-107.5,70.91555],[-107,70.25811],[-106.5,69.63558],[-106,69.04234],[-105.5,68.47427],[-105,67.92819],[-104.5,67.40163],[-104,66.89259],[-103.5,66.39946],[-103,65.92087],[-102.5,65.45569],[-102,65.00293],[-101.5,64.56176],[-101,64.13144],[-100.5,63.71134],[-100,63.30086],[-99.5,62.89953],[-99,62.50686]]}}],"attribution":"Eclipse Predictions by Fred Espenak and Jean Meeus (NASA's GSFC)","generated_at":"2026-09-23T01:44:41.801Z"}
