{"type":"FeatureCollection","year":1010,"events":[{"id":"+10100318","year":1010,"month":3,"day":18,"time_tdt":"16:00:00","type":"금환일식","type_code":"A","saros":94,"gamma":0.47162,"magnitude":0.95806,"greatest":{"lat":28.12445,"lng":-61.42792},"path_width_km":171.9,"duration":"04m36s","delta_t_seconds":1506.6,"catalog_number":7148,"source":"NASA Five Millennium Canon of Solar Eclipses","source_url":"https://eclipse.gsfc.nasa.gov/SEsearch/SEsearchmap.php?Ecl=%2B10100318"},{"id":"+10100910","year":1010,"month":9,"day":10,"time_tdt":"23:51:11","type":"개기일식","type_code":"T","saros":99,"gamma":-0.5251,"magnitude":1.05567,"greatest":{"lat":-27.46843,"lng":176.68896},"path_width_km":214.6,"duration":"04m42s","delta_t_seconds":1504,"catalog_number":7149,"source":"NASA Five Millennium Canon of Solar Eclipses","source_url":"https://eclipse.gsfc.nasa.gov/SEsearch/SEsearchmap.php?Ecl=%2B10100910"}],"features":[{"type":"Feature","id":"+10100318:north:0","properties":{"id":"+10100318","year":1010,"month":3,"day":18,"time_tdt":"16:00:00","type":"금환일식","type_code":"A","saros":94,"gamma":0.47162,"magnitude":0.95806,"greatest":{"lat":28.12445,"lng":-61.42792},"path_width_km":171.9,"duration":"04m36s","delta_t_seconds":1506.6,"catalog_number":7148,"source":"NASA Five Millennium Canon of Solar Eclipses","source_url":"https://eclipse.gsfc.nasa.gov/SEsearch/SEsearchmap.php?Ecl=%2B10100318","boundary":"north","name":"1010-03-18 금환일식"},"geometry":{"type":"LineString","coordinates":[[-117.10547,11.4706],[-117,11.4724],[-116.5,11.48185],[-116,11.49288],[-115.5,11.5055],[-115,11.51975],[-114.5,11.53564],[-114,11.55319],[-113.5,11.57244],[-113,11.59341],[-112.5,11.61612],[-112,11.6406],[-111.5,11.66688],[-111,11.69497],[-110.5,11.72492],[-110,11.75675],[-109.5,11.79049],[-109,11.82617],[-108.5,11.86381],[-108,11.90346],[-107.5,11.94513],[-107,11.98887],[-106.5,12.0347],[-106,12.08266],[-105.5,12.13278],[-105,12.18509],[-104.5,12.23964],[-104,12.29646],[-103.5,12.35559],[-103,12.41705],[-102.5,12.4809],[-102,12.54717],[-101.5,12.61589],[-101,12.68712],[-100.5,12.76088],[-100,12.83723],[-99.5,12.91621],[-99,12.99786],[-98.5,13.08221],[-98,13.16933],[-97.5,13.25925],[-97,13.35202],[-96.5,13.44769],[-96,13.54631],[-95.5,13.64792],[-95,13.75257],[-94.5,13.86032],[-94,13.9712],[-93.5,14.08529],[-93,14.20261],[-92.5,14.32324],[-92,14.44721],[-91.5,14.57459],[-91,14.70542],[-90.5,14.83975],[-90,14.97765],[-89.5,15.11916],[-89,15.26433],[-88.5,15.41322],[-88,15.56588],[-87.5,15.72235],[-87,15.8827],[-86.5,16.04696],[-86,16.21519],[-85.5,16.38743],[-85,16.56373],[-84.5,16.74413],[-84,16.92866],[-83.5,17.11738],[-83,17.3103],[-82.5,17.50747],[-82,17.70891],[-81.5,17.91464],[-81,18.12469],[-80.5,18.33906],[-80,18.55778],[-79.5,18.78083],[-79,19.00822],[-78.5,19.23993],[-78,19.47596],[-77.5,19.71628],[-77,19.96085],[-76.5,20.20963],[-76,20.46257],[-75.5,20.71962],[-75,20.9807],[-74.5,21.24574],[-74,21.51464],[-73.5,21.78731],[-73,22.06364],[-72.5,22.34349],[-72,22.62675],[-71.5,22.91327],[-71,23.20289],[-70.5,23.49545],[-70,23.79077],[-69.5,24.08869],[-69,24.38899],[-68.5,24.69148],[-68,24.99596],[-67.5,25.30221],[-67,25.61001],[-66.5,25.91914],[-66,26.22937],[-65.5,26.54047],[-65,26.85221],[-64.5,27.16435],[-64,27.47668],[-63.5,27.78895],[-63,28.10094],[-62.5,28.41244],[-62,28.72321],[-61.5,29.03306],[-61,29.34178],[-60.5,29.64917],[-60,29.95504],[-59.5,30.25922],[-59,30.56152],[-58.5,30.86179],[-58,31.15987],[-57.5,31.45562],[-57,31.7489],[-56.5,32.03959],[-56,32.32758],[-55.5,32.61276],[-55,32.89504],[-54.5,33.17432],[-54,33.45053],[-53.5,33.7236],[-53,33.99346],[-52.5,34.26007],[-52,34.52337],[-51.5,34.78334],[-51,35.03992],[-50.5,35.29311],[-50,35.54287],[-49.5,35.78919],[-49,36.03207],[-48.5,36.27149],[-48,36.50746],[-47.5,36.73998],[-47,36.96905],[-46.5,37.19468],[-46,37.4169],[-45.5,37.63571],[-45,37.85113],[-44.5,38.06319],[-44,38.2719],[-43.5,38.47729],[-43,38.67939],[-42.5,38.87823],[-42,39.07383],[-41.5,39.26623],[-41,39.45545],[-40.5,39.64154],[-40,39.82451],[-39.5,40.00441],[-39,40.18126],[-38.5,40.35511],[-38,40.52598],[-37.5,40.69392],[-37,40.85895],[-36.5,41.02111],[-36,41.18043],[-35.5,41.33695],[-35,41.49071],[-34.5,41.64174],[-34,41.79006],[-33.5,41.93573],[-33,42.07876],[-32.5,42.21919],[-32,42.35706],[-31.5,42.4924],[-31,42.62524],[-30.5,42.7556],[-30,42.88354],[-29.5,43.00906],[-29,43.13221],[-28.5,43.25301],[-28,43.3715],[-27.5,43.4877],[-27,43.60165],[-26.5,43.71336],[-26,43.82287],[-25.5,43.9302],[-25,44.03539],[-24.5,44.13845],[-24,44.23942],[-23.5,44.33832],[-23,44.43517],[-22.5,44.53001],[-22,44.62284],[-21.5,44.7137],[-21,44.80262],[-20.5,44.8896],[-20,44.97469],[-19.5,45.05789],[-19,45.13923],[-18.5,45.21873],[-18,45.29641],[-17.5,45.3723],[-17,45.4464],[-16.5,45.51875],[-16,45.58936],[-15.5,45.65825],[-15,45.72544],[-14.5,45.79095],[-14,45.85479],[-13.5,45.91699],[-13,45.97756],[-12.5,46.03651],[-12,46.09387],[-11.5,46.14964],[-11,46.20386],[-10.5,46.25652],[-10,46.30765],[-9.5,46.35727],[-9,46.40538],[-8.5,46.45201],[-8,46.49716],[-7.5,46.54085],[-7,46.5831],[-6.5,46.62392],[-6,46.66331],[-5.5,46.70131],[-5,46.73791],[-4.5,46.77313],[-4,46.80698],[-3.5,46.83948],[-3,46.87063],[-2.5,46.90046],[-2,46.92896],[-1.5,46.95616],[-1,46.98206],[-0.5,47.00668],[0,47.03002],[0.5,47.05209],[1,47.07292],[1.5,47.0925],[2,47.11084],[2.5,47.12797],[3,47.14388],[3.5,47.15858],[4,47.1721],[4.5,47.18442],[5,47.19558],[5.5,47.20557],[6,47.2144],[6.5,47.22208],[7,47.22862],[7.5,47.23403],[8,47.23832],[8.5,47.24149],[9,47.24356],[9.5,47.24453],[10,47.24442],[10.5,47.24322],[11,47.24094],[11.5,47.2376],[12,47.2332],[12.5,47.22775],[13,47.22126],[13.5,47.21373],[14,47.20517]]}},{"type":"Feature","id":"+10100318:center:0","properties":{"id":"+10100318","year":1010,"month":3,"day":18,"time_tdt":"16:00:00","type":"금환일식","type_code":"A","saros":94,"gamma":0.47162,"magnitude":0.95806,"greatest":{"lat":28.12445,"lng":-61.42792},"path_width_km":171.9,"duration":"04m36s","delta_t_seconds":1506.6,"catalog_number":7148,"source":"NASA Five Millennium Canon of Solar Eclipses","source_url":"https://eclipse.gsfc.nasa.gov/SEsearch/SEsearchmap.php?Ecl=%2B10100318","boundary":"center","name":"1010-03-18 금환일식"},"geometry":{"type":"LineString","coordinates":[[-116.82066,10.40636],[-116.5,10.41372],[-116,10.42649],[-115.5,10.44086],[-115,10.45683],[-114.5,10.47445],[-114,10.49372],[-113.5,10.51467],[-113,10.53734],[-112.5,10.56174],[-112,10.5879],[-111.5,10.61584],[-111,10.64559],[-110.5,10.67719],[-110,10.71065],[-109.5,10.74601],[-109,10.7833],[-108.5,10.82254],[-108,10.86376],[-107.5,10.907],[-107,10.95229],[-106.5,10.99966],[-106,11.04914],[-105.5,11.10076],[-105,11.15457],[-104.5,11.21059],[-104,11.26885],[-103.5,11.32941],[-103,11.39229],[-102.5,11.45752],[-102,11.52516],[-101.5,11.59524],[-101,11.66779],[-100.5,11.74286],[-100,11.82049],[-99.5,11.90072],[-99,11.9836],[-98.5,12.06916],[-98,12.15746],[-97.5,12.24854],[-97,12.34243],[-96.5,12.4392],[-96,12.53888],[-95.5,12.64153],[-95,12.74719],[-94.5,12.85592],[-94,12.96775],[-93.5,13.08275],[-93,13.20096],[-92.5,13.32243],[-92,13.44722],[-91.5,13.57538],[-91,13.70696],[-90.5,13.84201],[-90,13.98058],[-89.5,14.12273],[-89,14.26852],[-88.5,14.41798],[-88,14.57118],[-87.5,14.72816],[-87,14.88898],[-86.5,15.05368],[-86,15.22232],[-85.5,15.39493],[-85,15.57157],[-84.5,15.75228],[-84,15.9371],[-83.5,16.12607],[-83,16.31922],[-82.5,16.51659],[-82,16.71822],[-81.5,16.92411],[-81,17.13431],[-80.5,17.34882],[-80,17.56765],[-79.5,17.79082],[-79,18.01833],[-78.5,18.25016],[-78,18.48631],[-77.5,18.72675],[-77,18.97146],[-76.5,19.2204],[-76,19.47354],[-75.5,19.7308],[-75,19.99213],[-74.5,20.25746],[-74,20.5267],[-73.5,20.79976],[-73,21.07653],[-72.5,21.3569],[-72,21.64074],[-71.5,21.9279],[-71,22.21825],[-70.5,22.51163],[-70,22.80785],[-69.5,23.10675],[-69,23.40814],[-68.5,23.71181],[-68,24.01756],[-67.5,24.32519],[-67,24.63446],[-66.5,24.94516],[-66,25.25706],[-65.5,25.56992],[-65,25.88352],[-64.5,26.19761],[-64,26.51196],[-63.5,26.82634],[-63,27.14053],[-62.5,27.45428],[-62,27.76738],[-61.5,28.07961],[-61,28.39075],[-60.5,28.70062],[-60,29.009],[-59.5,29.31571],[-59,29.62056],[-58.5,29.9234],[-58,30.22406],[-57.5,30.52239],[-57,30.81824],[-56.5,31.11149],[-56,31.40201],[-55.5,31.6897],[-55,31.97445],[-54.5,32.25616],[-54,32.53477],[-53.5,32.81018],[-53,33.08234],[-52.5,33.35118],[-52,33.61667],[-51.5,33.87874],[-51,34.13738],[-50.5,34.39255],[-50,34.64422],[-49.5,34.89239],[-49,35.13703],[-48.5,35.37815],[-48,35.61574],[-47.5,35.8498],[-47,36.08034],[-46.5,36.30736],[-46,36.53089],[-45.5,36.75094],[-45,36.96752],[-44.5,37.18066],[-44,37.39038],[-43.5,37.5967],[-43,37.79966],[-42.5,37.99929],[-42,38.1956],[-41.5,38.38864],[-41,38.57843],[-40.5,38.76501],[-40,38.94842],[-39.5,39.12868],[-39,39.30583],[-38.5,39.47991],[-38,39.65095],[-37.5,39.81898],[-37,39.98406],[-36.5,40.1462],[-36,40.30544],[-35.5,40.46183],[-35,40.6154],[-34.5,40.76617],[-34,40.91419],[-33.5,41.0595],[-33,41.20212],[-32.5,41.34209],[-32,41.47945],[-31.5,41.61423],[-31,41.74646],[-30.5,41.87617],[-30,42.0034],[-29.5,42.12818],[-29,42.25054],[-28.5,42.37051],[-28,42.48812],[-27.5,42.60341],[-27,42.71639],[-26.5,42.82711],[-26,42.93559],[-25.5,43.04185],[-25,43.14593],[-24.5,43.24785],[-24,43.34763],[-23.5,43.44532],[-23,43.54092],[-22.5,43.63447],[-22,43.726],[-21.5,43.81551],[-21,43.90305],[-20.5,43.98863],[-20,44.07228],[-19.5,44.15402],[-19,44.23386],[-18.5,44.31185],[-18,44.38798],[-17.5,44.46229],[-17,44.5348],[-16.5,44.60552],[-16,44.67448],[-15.5,44.7417],[-15,44.80719],[-14.5,44.87098],[-14,44.93307],[-13.5,44.9935],[-13,45.05228],[-12.5,45.10942],[-12,45.16495],[-11.5,45.21887],[-11,45.27121],[-10.5,45.32199],[-10,45.37121],[-9.5,45.41889],[-9,45.46506],[-8.5,45.50972],[-8,45.55288],[-7.5,45.59457],[-7,45.6348],[-6.5,45.67358],[-6,45.71093],[-5.5,45.74685],[-5,45.78137],[-4.5,45.81449],[-4,45.84623],[-3.5,45.8766],[-3,45.90561],[-2.5,45.93328],[-2,45.95962],[-1.5,45.98463],[-1,46.00834],[-0.5,46.03074],[0,46.05186],[0.5,46.0717],[1,46.09028],[1.5,46.1076],[2,46.12368],[2.5,46.13853],[3,46.15215],[3.5,46.16456],[4,46.17576],[4.5,46.18577],[5,46.19459],[5.5,46.20224],[6,46.20872],[6.5,46.21405],[7,46.21823],[7.5,46.22126],[8,46.22317],[8.5,46.22396],[9,46.22363],[9.5,46.2222],[10,46.21967],[10.5,46.21606],[11,46.21136],[11.5,46.20559],[12,46.19876],[12.5,46.19087],[13,46.18193],[13.5,46.17195],[13.90077,46.20713]]}},{"type":"Feature","id":"+10100318:south:0","properties":{"id":"+10100318","year":1010,"month":3,"day":18,"time_tdt":"16:00:00","type":"금환일식","type_code":"A","saros":94,"gamma":0.47162,"magnitude":0.95806,"greatest":{"lat":28.12445,"lng":-61.42792},"path_width_km":171.9,"duration":"04m36s","delta_t_seconds":1506.6,"catalog_number":7148,"source":"NASA Five Millennium Canon of Solar Eclipses","source_url":"https://eclipse.gsfc.nasa.gov/SEsearch/SEsearchmap.php?Ecl=%2B10100318","boundary":"south","name":"1010-03-18 금환일식"},"geometry":{"type":"LineString","coordinates":[[-116.54688,9.35241],[-116.5,9.35369],[-116,9.36821],[-115.5,9.38432],[-115,9.40203],[-114.5,9.42137],[-114,9.44236],[-113.5,9.46503],[-113,9.48939],[-112.5,9.51549],[-112,9.54333],[-111.5,9.57295],[-111,9.60437],[-110.5,9.63761],[-110,9.67272],[-109.5,9.70971],[-109,9.74861],[-108.5,9.78946],[-108,9.83227],[-107.5,9.87709],[-107,9.92394],[-106.5,9.97286],[-106,10.02387],[-105.5,10.07701],[-105,10.13232],[-104.5,10.18982],[-104,10.24956],[-103.5,10.31156],[-103,10.37587],[-102.5,10.44252],[-102,10.51155],[-101.5,10.58299],[-101,10.65689],[-100.5,10.73329],[-100,10.81222],[-99.5,10.89373],[-99,10.97787],[-98.5,11.06466],[-98,11.15417],[-97.5,11.24642],[-97,11.34147],[-96.5,11.43937],[-96,11.54015],[-95.5,11.64387],[-95,11.75057],[-94.5,11.8603],[-94,11.97312],[-93.5,12.08906],[-93,12.20819],[-92.5,12.33055],[-92,12.4562],[-91.5,12.58518],[-91,12.71754],[-90.5,12.85335],[-90,12.99264],[-89.5,13.13548],[-89,13.28191],[-88.5,13.432],[-88,13.58578],[-87.5,13.74331],[-87,13.90464],[-86.5,14.06982],[-86,14.23891],[-85.5,14.41194],[-85,14.58897],[-84.5,14.77003],[-84,14.95517],[-83.5,15.14444],[-83,15.33787],[-82.5,15.53549],[-82,15.73734],[-81.5,15.94344],[-81,16.15382],[-80.5,16.3685],[-80,16.58749],[-79.5,16.81081],[-79,17.03846],[-78.5,17.27043],[-78,17.50673],[-77.5,17.74732],[-77,17.9922],[-76.5,18.24132],[-76,18.49465],[-75.5,18.75214],[-75,19.01373],[-74.5,19.27936],[-74,19.54894],[-73.5,19.82238],[-73,20.09959],[-72.5,20.38046],[-72,20.66486],[-71.5,20.95267],[-71,21.24373],[-70.5,21.53789],[-70,21.83499],[-69.5,22.13486],[-69,22.4373],[-68.5,22.74212],[-68,23.04912],[-67.5,23.35809],[-67,23.6688],[-66.5,23.98105],[-66,24.29458],[-65.5,24.60919],[-65,24.92461],[-64.5,25.24063],[-64,25.557],[-63.5,25.87348],[-63,26.18983],[-62.5,26.50584],[-62,26.82125],[-61.5,27.13586],[-61,27.44944],[-60.5,27.76178],[-60,28.07268],[-59.5,28.38194],[-59,28.68937],[-58.5,28.9948],[-58,29.29806],[-57.5,29.59899],[-57,29.89744],[-56.5,30.19328],[-56,30.48637],[-55.5,30.7766],[-55,31.06386],[-54.5,31.34805],[-54,31.62909],[-53.5,31.90689],[-53,32.18138],[-52.5,32.45251],[-52,32.72021],[-51.5,32.98445],[-51,33.24518],[-50.5,33.50237],[-50,33.756],[-49.5,34.00604],[-49,34.25249],[-48.5,34.49534],[-48,34.73458],[-47.5,34.97022],[-47,35.20226],[-46.5,35.4307],[-46,35.65557],[-45.5,35.87688],[-45,36.09465],[-44.5,36.3089],[-44,36.51964],[-43.5,36.72692],[-43,36.93076],[-42.5,37.13118],[-42,37.32822],[-41.5,37.52189],[-41,37.71228],[-40.5,37.89937],[-40,38.08321],[-39.5,38.26384],[-39,38.44129],[-38.5,38.6156],[-38,38.78681],[-37.5,38.95495],[-37,39.12005],[-36.5,39.28217],[-36,39.44133],[-35.5,39.59758],[-35,39.75094],[-34.5,39.90145],[-34,40.04916],[-33.5,40.19409],[-33,40.33629],[-32.5,40.47579],[-32,40.61261],[-31.5,40.74681],[-31,40.87841],[-30.5,41.00745],[-30,41.13396],[-29.5,41.25797],[-29,41.37951],[-28.5,41.49862],[-28,41.61534],[-27.5,41.72968],[-27,41.84168],[-26.5,41.95137],[-26,42.05878],[-25.5,42.16395],[-25,42.26688],[-24.5,42.36763],[-24,42.46621],[-23.5,42.56264],[-23,42.65697],[-22.5,42.74921],[-22,42.83938],[-21.5,42.92752],[-21,43.01365],[-20.5,43.09779],[-20,43.17997],[-19.5,43.26021],[-19,43.33852],[-18.5,43.41495],[-18,43.4895],[-17.5,43.5622],[-17,43.63307],[-16.5,43.70213],[-16,43.76941],[-15.5,43.83491],[-15,43.89867],[-14.5,43.96069],[-14,44.02101],[-13.5,44.07963],[-13,44.13658],[-12.5,44.19188],[-12,44.24553],[-11.5,44.29757],[-11,44.348],[-10.5,44.39684],[-10,44.44412],[-9.5,44.48983],[-9,44.53401],[-8.5,44.57667],[-8,44.61781],[-7.5,44.65746],[-7,44.69564],[-6.5,44.73234],[-6,44.7676],[-5.5,44.80142],[-5,44.83382],[-4.5,44.8648],[-4,44.89439],[-3.5,44.9226],[-3,44.94944],[-2.5,44.97491],[-2,44.99904],[-1.5,45.02184],[-1,45.04331],[-0.5,45.06347],[0,45.08234],[0.5,45.09991],[1,45.11621],[1.5,45.13125],[2,45.14502],[2.5,45.15756],[3,45.16886],[3.5,45.17893],[4,45.1878],[4.5,45.19546],[5,45.20192],[5.5,45.2072],[6,45.21131],[6.5,45.21425],[7,45.21603],[7.5,45.21667],[8,45.21617],[8.5,45.21455],[9,45.2118],[9.5,45.20794],[10,45.20298],[10.5,45.19692],[11,45.18978],[11.5,45.18156],[12,45.17227],[12.5,45.16191],[13,45.15051],[13.5,45.13806],[13.6543,45.134]]}},{"type":"Feature","id":"+10100910:north:0","properties":{"id":"+10100910","year":1010,"month":9,"day":10,"time_tdt":"23:51:11","type":"개기일식","type_code":"T","saros":99,"gamma":-0.5251,"magnitude":1.05567,"greatest":{"lat":-27.46843,"lng":176.68896},"path_width_km":214.6,"duration":"04m42s","delta_t_seconds":1504,"catalog_number":7149,"source":"NASA Five Millennium Canon of Solar Eclipses","source_url":"https://eclipse.gsfc.nasa.gov/SEsearch/SEsearchmap.php?Ecl=%2B10100910","boundary":"north","name":"1010-09-10 개기일식"},"geometry":{"type":"LineString","coordinates":[[120,-13.24991],[120.5,-13.22373],[121,-13.19898],[121.5,-13.17569],[122,-13.15387],[122.5,-13.13355],[123,-13.11474],[123.5,-13.09748],[124,-13.08178],[124.5,-13.06767],[125,-13.05517],[125.5,-13.0443],[126,-13.0351],[126.5,-13.02757],[127,-13.02176],[127.5,-13.01768],[128,-13.01537],[128.5,-13.01484],[129,-13.01612],[129.5,-13.01925],[130,-13.02426],[130.5,-13.03116],[131,-13.03999],[131.5,-13.05078],[132,-13.06355],[132.5,-13.07835],[133,-13.0952],[133.5,-13.11413],[134,-13.13518],[134.5,-13.15837],[135,-13.18375],[135.5,-13.21134],[136,-13.24119],[136.5,-13.27332],[137,-13.30777],[137.5,-13.34457],[138,-13.38377],[138.5,-13.42541],[139,-13.46951],[139.5,-13.51613],[140,-13.56529],[140.5,-13.61703],[141,-13.67141],[141.5,-13.72845],[142,-13.78821],[142.5,-13.85071],[143,-13.91601],[143.5,-13.98414],[144,-14.05516],[144.5,-14.1291],[145,-14.206],[145.5,-14.28591],[146,-14.36888],[146.5,-14.45496],[147,-14.54417],[147.5,-14.63658],[148,-14.73222],[148.5,-14.83114],[149,-14.93339],[149.5,-15.03901],[150,-15.14804],[150.5,-15.26054],[151,-15.37654],[151.5,-15.49608],[152,-15.61922],[152.5,-15.74598],[153,-15.87643],[153.5,-16.01058],[154,-16.14849],[154.5,-16.29018],[155,-16.4357],[155.5,-16.58508],[156,-16.73835],[156.5,-16.89554],[157,-17.05668],[157.5,-17.2218],[158,-17.3909],[158.5,-17.56402],[159,-17.74118],[159.5,-17.92237],[160,-18.10761],[160.5,-18.2969],[161,-18.49024],[161.5,-18.68763],[162,-18.88905],[162.5,-19.09449],[163,-19.30393],[163.5,-19.51734],[164,-19.73469],[164.5,-19.95593],[165,-20.18103],[165.5,-20.40992],[166,-20.64255],[166.5,-20.87885],[167,-21.11874],[167.5,-21.36216],[168,-21.609],[168.5,-21.85917],[169,-22.11257],[169.5,-22.3691],[170,-22.62863],[170.5,-22.89104],[171,-23.1562],[171.5,-23.42398],[172,-23.69423],[172.5,-23.96681],[173,-24.24157],[173.5,-24.51835],[174,-24.797],[174.5,-25.07734],[175,-25.35922],[175.5,-25.64246],[176,-25.92689],[176.5,-26.21236],[177,-26.49867],[177.5,-26.78567],[178,-27.07318],[178.5,-27.36104],[179,-27.64908],[179.5,-27.93713],[180,-28.22503]]}},{"type":"Feature","id":"+10100910:north:1","properties":{"id":"+10100910","year":1010,"month":9,"day":10,"time_tdt":"23:51:11","type":"개기일식","type_code":"T","saros":99,"gamma":-0.5251,"magnitude":1.05567,"greatest":{"lat":-27.46843,"lng":176.68896},"path_width_km":214.6,"duration":"04m42s","delta_t_seconds":1504,"catalog_number":7149,"source":"NASA Five Millennium Canon of Solar Eclipses","source_url":"https://eclipse.gsfc.nasa.gov/SEsearch/SEsearchmap.php?Ecl=%2B10100910","boundary":"north","name":"1010-09-10 개기일식"},"geometry":{"type":"LineString","coordinates":[[-179.5,-28.51263],[-179,-28.79978],[-178.5,-29.08631],[-178,-29.37209],[-177.5,-29.65699],[-177,-29.94085],[-176.5,-30.22356],[-176,-30.50499],[-175.5,-30.78503],[-175,-31.06356],[-174.5,-31.34047],[-174,-31.61567],[-173.5,-31.88906],[-173,-32.16055],[-172.5,-32.43006],[-172,-32.69752],[-171.5,-32.96284],[-171,-33.22598],[-170.5,-33.48686],[-170,-33.74543],[-169.5,-34.00164],[-169,-34.25544],[-168.5,-34.5068],[-168,-34.75567],[-167.5,-35.00203],[-167,-35.24584],[-166.5,-35.48709],[-166,-35.72574],[-165.5,-35.96179],[-165,-36.19522],[-164.5,-36.42601],[-164,-36.65416],[-163.5,-36.87966],[-163,-37.10251],[-162.5,-37.32271],[-162,-37.54026],[-161.5,-37.75516],[-161,-37.96742],[-160.5,-38.17704],[-160,-38.38403],[-159.5,-38.5884],[-159,-38.79016],[-158.5,-38.98933],[-158,-39.18592],[-157.5,-39.37994],[-157,-39.57141],[-156.5,-39.76034],[-156,-39.94676],[-155.5,-40.13067],[-155,-40.3121],[-154.5,-40.49107],[-154,-40.66759],[-153.5,-40.84168],[-153,-41.01337],[-152.5,-41.18268],[-152,-41.34962],[-151.5,-41.51421],[-151,-41.67649],[-150.5,-41.83646],[-150,-41.99415],[-149.5,-42.14959],[-149,-42.30278],[-148.5,-42.45376],[-148,-42.60254],[-147.5,-42.74915],[-147,-42.89361],[-146.5,-43.03593],[-146,-43.17614],[-145.5,-43.31426],[-145,-43.45032],[-144.5,-43.58432],[-144,-43.71629],[-143.5,-43.84626],[-143,-43.97424],[-142.5,-44.10025],[-142,-44.22431],[-141.5,-44.34644],[-141,-44.46666],[-140.5,-44.58499],[-140,-44.70145],[-139.5,-44.81605],[-139,-44.92882],[-138.5,-45.03978],[-138,-45.14893],[-137.5,-45.2563],[-137,-45.36191],[-136.5,-45.46577],[-136,-45.5679],[-135.5,-45.66832],[-135,-45.76704],[-134.5,-45.86408],[-134,-45.95946],[-133.5,-46.05319],[-133,-46.14529],[-132.5,-46.23577],[-132,-46.32465],[-131.5,-46.41194],[-131,-46.49765],[-130.5,-46.58181],[-130,-46.66443],[-129.5,-46.74552],[-129,-46.82509],[-128.5,-46.90316],[-128,-46.97974],[-127.5,-47.05484],[-127,-47.12849],[-126.5,-47.20068],[-126,-47.27144],[-125.5,-47.34077],[-125,-47.40869],[-124.5,-47.4752],[-124,-47.54033],[-123.5,-47.60409],[-123,-47.66647],[-122.5,-47.72751],[-122,-47.7872],[-121.5,-47.84555],[-121,-47.90259],[-120.5,-47.95831],[-120,-48.01274],[-119.5,-48.06587],[-119,-48.11773],[-118.5,-48.16831],[-118,-48.21763],[-117.5,-48.26571],[-117,-48.31254],[-116.5,-48.35814],[-116,-48.40252],[-115.5,-48.44568],[-115,-48.48764],[-114.5,-48.5284],[-114,-48.56797],[-113.5,-48.60637],[-113,-48.64359],[-112.5,-48.67966],[-112,-48.71456],[-111.5,-48.74833],[-111,-48.78095],[-110.5,-48.81244],[-110,-48.84281],[-109.5,-48.87207],[-109,-48.90021],[-108.5,-48.92726],[-108.17188,-48.94441]]}},{"type":"Feature","id":"+10100910:center:0","properties":{"id":"+10100910","year":1010,"month":9,"day":10,"time_tdt":"23:51:11","type":"개기일식","type_code":"T","saros":99,"gamma":-0.5251,"magnitude":1.05567,"greatest":{"lat":-27.46843,"lng":176.68896},"path_width_km":214.6,"duration":"04m42s","delta_t_seconds":1504,"catalog_number":7149,"source":"NASA Five Millennium Canon of Solar Eclipses","source_url":"https://eclipse.gsfc.nasa.gov/SEsearch/SEsearchmap.php?Ecl=%2B10100910","boundary":"center","name":"1010-09-10 개기일식"},"geometry":{"type":"LineString","coordinates":[[119.80483,-13.96554],[120,-13.95613],[120.5,-13.93296],[121,-13.91125],[121.5,-13.89101],[122,-13.87228],[122.5,-13.85508],[123,-13.83942],[123.5,-13.82533],[124,-13.81283],[124.5,-13.80194],[125,-13.7927],[125.5,-13.78512],[126,-13.77923],[126.5,-13.77505],[127,-13.77261],[127.5,-13.77194],[128,-13.77306],[128.5,-13.77601],[129,-13.7808],[129.5,-13.78746],[130,-13.79603],[130.5,-13.80653],[131,-13.81899],[131.5,-13.83345],[132,-13.84993],[132.5,-13.86847],[133,-13.88909],[133.5,-13.91183],[134,-13.93672],[134.5,-13.9638],[135,-13.9931],[135.5,-14.02465],[136,-14.05849],[136.5,-14.09465],[137,-14.13317],[137.5,-14.17409],[138,-14.21744],[138.5,-14.26326],[139,-14.3116],[139.5,-14.36248],[140,-14.41595],[140.5,-14.47205],[141,-14.53082],[141.5,-14.5923],[142,-14.65653],[142.5,-14.72355],[143,-14.79341],[143.5,-14.86615],[144,-14.9418],[144.5,-15.02043],[145,-15.10206],[145.5,-15.18674],[146,-15.27452],[146.5,-15.36544],[147,-15.45954],[147.5,-15.55688],[148,-15.65749],[148.5,-15.76142],[149,-15.86871],[149.5,-15.97941],[150,-16.09356],[150.5,-16.2112],[151,-16.33238],[151.5,-16.45713],[152,-16.58551],[152.5,-16.71754],[153,-16.85327],[153.5,-16.99273],[154,-17.13596],[154.5,-17.283],[155,-17.43388],[155.5,-17.58862],[156,-17.74725],[156.5,-17.90981],[157,-18.07631],[157.5,-18.24678],[158,-18.42122],[158.5,-18.59966],[159,-18.7821],[159.5,-18.96855],[160,-19.15901],[160.5,-19.35348],[161,-19.55194],[161.5,-19.75439],[162,-19.9608],[162.5,-20.17116],[163,-20.38543],[163.5,-20.60357],[164,-20.82555],[164.5,-21.05131],[165,-21.2808],[165.5,-21.51396],[166,-21.75072],[166.5,-21.991],[167,-22.23471],[167.5,-22.48177],[168,-22.73209],[168.5,-22.98555],[169,-23.24204],[169.5,-23.50145],[170,-23.76366],[170.5,-24.02853],[171,-24.29592],[171.5,-24.5657],[172,-24.83772],[172.5,-25.11183],[173,-25.38787],[173.5,-25.66569],[174,-25.94511],[174.5,-26.22598],[175,-26.50814],[175.5,-26.79141],[176,-27.07562],[176.5,-27.36061],[177,-27.64621],[177.5,-27.93225],[178,-28.21856],[178.5,-28.50499],[179,-28.79137],[179.5,-29.07755],[180,-29.36336]]}},{"type":"Feature","id":"+10100910:center:1","properties":{"id":"+10100910","year":1010,"month":9,"day":10,"time_tdt":"23:51:11","type":"개기일식","type_code":"T","saros":99,"gamma":-0.5251,"magnitude":1.05567,"greatest":{"lat":-27.46843,"lng":176.68896},"path_width_km":214.6,"duration":"04m42s","delta_t_seconds":1504,"catalog_number":7149,"source":"NASA Five Millennium Canon of Solar Eclipses","source_url":"https://eclipse.gsfc.nasa.gov/SEsearch/SEsearchmap.php?Ecl=%2B10100910","boundary":"center","name":"1010-09-10 개기일식"},"geometry":{"type":"LineString","coordinates":[[-179.5,-29.64867],[-179,-29.93332],[-178.5,-30.21718],[-178,-30.50011],[-177.5,-30.78197],[-177,-31.06265],[-176.5,-31.34201],[-176,-31.61996],[-175.5,-31.89637],[-175,-32.17116],[-174.5,-32.44421],[-174,-32.71544],[-173.5,-32.98477],[-173,-33.25211],[-172.5,-33.51738],[-172,-33.78053],[-171.5,-34.04149],[-171,-34.3002],[-170.5,-34.5566],[-170,-34.81065],[-169.5,-35.0623],[-169,-35.31151],[-168.5,-35.55826],[-168,-35.8025],[-167.5,-36.04422],[-167,-36.28338],[-166.5,-36.51997],[-166,-36.75397],[-165.5,-36.98537],[-165,-37.21415],[-164.5,-37.44032],[-164,-37.66385],[-163.5,-37.88476],[-163,-38.10303],[-162.5,-38.31868],[-162,-38.5317],[-161.5,-38.7421],[-161,-38.94989],[-160.5,-39.15507],[-160,-39.35766],[-159.5,-39.55766],[-159,-39.75509],[-158.5,-39.94996],[-158,-40.14229],[-157.5,-40.33209],[-157,-40.51937],[-156.5,-40.70416],[-156,-40.88647],[-155.5,-41.06632],[-155,-41.24373],[-154.5,-41.41871],[-154,-41.59129],[-153.5,-41.76148],[-153,-41.92931],[-152.5,-42.0948],[-152,-42.25796],[-151.5,-42.41882],[-151,-42.5774],[-150.5,-42.73372],[-150,-42.8878],[-149.5,-43.03966],[-149,-43.18932],[-148.5,-43.3368],[-148,-43.48213],[-147.5,-43.62532],[-147,-43.7664],[-146.5,-43.90538],[-146,-44.04229],[-145.5,-44.17715],[-145,-44.30997],[-144.5,-44.44078],[-144,-44.5696],[-143.5,-44.69645],[-143,-44.82134],[-142.5,-44.9443],[-142,-45.06535],[-141.5,-45.18449],[-141,-45.30177],[-140.5,-45.41718],[-140,-45.53075],[-139.5,-45.6425],[-139,-45.75245],[-138.5,-45.86061],[-138,-45.967],[-137.5,-46.07164],[-137,-46.17455],[-136.5,-46.27574],[-136,-46.37523],[-135.5,-46.47303],[-135,-46.56916],[-134.5,-46.66364],[-134,-46.75649],[-133.5,-46.84771],[-133,-46.93733],[-132.5,-47.02535],[-132,-47.1118],[-131.5,-47.19668],[-131,-47.28002],[-130.5,-47.36182],[-130,-47.4421],[-129.5,-47.52088],[-129,-47.59816],[-128.5,-47.67397],[-128,-47.7483],[-127.5,-47.82119],[-127,-47.89263],[-126.5,-47.96264],[-126,-48.03124],[-125.5,-48.09843],[-125,-48.16423],[-124.5,-48.22865],[-124,-48.2917],[-123.5,-48.3534],[-123,-48.41374],[-122.5,-48.47275],[-122,-48.53044],[-121.5,-48.58681],[-121,-48.64187],[-120.5,-48.69564],[-120,-48.74813],[-119.5,-48.79935],[-119,-48.8493],[-118.5,-48.898],[-118,-48.94545],[-117.5,-48.99167],[-117,-49.03666],[-116.5,-49.08044],[-116,-49.123],[-115.5,-49.16437],[-115,-49.20455],[-114.5,-49.24354],[-114,-49.28136],[-113.5,-49.31802],[-113,-49.35352],[-112.5,-49.38787],[-112,-49.42107],[-111.5,-49.45315],[-111,-49.4841],[-110.5,-49.51393],[-110,-49.54264],[-109.5,-49.57026],[-109,-49.59678],[-108.5,-49.62221],[-108.09609,-49.6494]]}},{"type":"Feature","id":"+10100910:south:0","properties":{"id":"+10100910","year":1010,"month":9,"day":10,"time_tdt":"23:51:11","type":"개기일식","type_code":"T","saros":99,"gamma":-0.5251,"magnitude":1.05567,"greatest":{"lat":-27.46843,"lng":176.68896},"path_width_km":214.6,"duration":"04m42s","delta_t_seconds":1504,"catalog_number":7149,"source":"NASA Five Millennium Canon of Solar Eclipses","source_url":"https://eclipse.gsfc.nasa.gov/SEsearch/SEsearchmap.php?Ecl=%2B10100910","boundary":"south","name":"1010-09-10 개기일식"},"geometry":{"type":"LineString","coordinates":[[119.67578,-14.68278],[120,-14.66896],[120.5,-14.64885],[121,-14.63023],[121.5,-14.61312],[122,-14.59753],[122.5,-14.5835],[123,-14.57105],[123.5,-14.56019],[124,-14.55095],[124.5,-14.54336],[125,-14.53744],[125.5,-14.53321],[126,-14.53071],[126.5,-14.52994],[127,-14.53095],[127.5,-14.53376],[128,-14.5384],[128.5,-14.54488],[129,-14.55325],[129.5,-14.56352],[130,-14.57574],[130.5,-14.58992],[131,-14.6061],[131.5,-14.62431],[132,-14.64457],[132.5,-14.66693],[133,-14.69141],[133.5,-14.71805],[134,-14.74687],[134.5,-14.77792],[135,-14.81123],[135.5,-14.84683],[136,-14.88475],[136.5,-14.92504],[137,-14.96773],[137.5,-15.01285],[138,-15.06045],[138.5,-15.11056],[139,-15.16323],[139.5,-15.21848],[140,-15.27636],[140.5,-15.33692],[141,-15.40018],[141.5,-15.4662],[142,-15.53501],[142.5,-15.60666],[143,-15.68118],[143.5,-15.75863],[144,-15.83903],[144.5,-15.92245],[145,-16.00891],[145.5,-16.09847],[146,-16.19116],[146.5,-16.28704],[147,-16.38614],[147.5,-16.48851],[148,-16.59419],[148.5,-16.70323],[149,-16.81567],[149.5,-16.93154],[150,-17.0509],[150.5,-17.17379],[151,-17.30024],[151.5,-17.43029],[152,-17.56399],[152.5,-17.70137],[153,-17.84246],[153.5,-17.98731],[154,-18.13594],[154.5,-18.28838],[155,-18.44467],[155.5,-18.60483],[156,-18.76888],[156.5,-18.93684],[157,-19.10873],[157.5,-19.28457],[158,-19.46437],[158.5,-19.64813],[159,-19.83586],[159.5,-20.02755],[160,-20.2232],[160.5,-20.4228],[161,-20.62634],[161.5,-20.83379],[162,-21.04512],[162.5,-21.26031],[163,-21.4793],[163.5,-21.70207],[164,-21.92855],[164.5,-22.1587],[165,-22.39243],[165.5,-22.62969],[166,-22.87039],[166.5,-23.11445],[167,-23.36178],[167.5,-23.61227],[168,-23.86582],[168.5,-24.12232],[169,-24.38165],[169.5,-24.64368],[170,-24.90828],[170.5,-25.17532],[171,-25.44465],[171.5,-25.71613],[172,-25.98961],[172.5,-26.26493],[173,-26.54193],[173.5,-26.82045],[174,-27.10034],[174.5,-27.38142],[175,-27.66353],[175.5,-27.9465],[176,-28.23018],[176.5,-28.51438],[177,-28.79896],[177.5,-29.08374],[178,-29.36857],[178.5,-29.65329],[179,-29.93774],[179.5,-30.22178],[180,-30.50526]]}},{"type":"Feature","id":"+10100910:south:1","properties":{"id":"+10100910","year":1010,"month":9,"day":10,"time_tdt":"23:51:11","type":"개기일식","type_code":"T","saros":99,"gamma":-0.5251,"magnitude":1.05567,"greatest":{"lat":-27.46843,"lng":176.68896},"path_width_km":214.6,"duration":"04m42s","delta_t_seconds":1504,"catalog_number":7149,"source":"NASA Five Millennium Canon of Solar Eclipses","source_url":"https://eclipse.gsfc.nasa.gov/SEsearch/SEsearchmap.php?Ecl=%2B10100910","boundary":"south","name":"1010-09-10 개기일식"},"geometry":{"type":"LineString","coordinates":[[-179.5,-30.78804],[-179,-31.06997],[-178.5,-31.35094],[-178,-31.63081],[-177.5,-31.90945],[-177,-32.18676],[-176.5,-32.46262],[-176,-32.73693],[-175.5,-33.00959],[-175,-33.28049],[-174.5,-33.54957],[-174,-33.81673],[-173.5,-34.0819],[-173,-34.345],[-172.5,-34.60598],[-172,-34.86476],[-171.5,-35.12129],[-171,-35.37552],[-170.5,-35.62741],[-170,-35.87691],[-169.5,-36.12399],[-169,-36.36861],[-168.5,-36.61073],[-168,-36.85035],[-167.5,-37.08743],[-167,-37.32195],[-166.5,-37.5539],[-166,-37.78327],[-165.5,-38.01004],[-165,-38.23421],[-164.5,-38.45578],[-164,-38.67474],[-163.5,-38.89109],[-163,-39.10483],[-162.5,-39.31597],[-162,-39.52451],[-161.5,-39.73046],[-161,-39.93383],[-160.5,-40.13463],[-160,-40.33286],[-159.5,-40.52855],[-159,-40.7217],[-158.5,-40.91232],[-158,-41.10044],[-157.5,-41.28607],[-157,-41.46923],[-156.5,-41.64993],[-156,-41.82819],[-155.5,-42.00404],[-155,-42.17748],[-154.5,-42.34853],[-154,-42.51723],[-153.5,-42.68358],[-153,-42.84761],[-152.5,-43.00933],[-152,-43.16877],[-151.5,-43.32595],[-151,-43.48089],[-150.5,-43.63361],[-150,-43.78413],[-149.5,-43.93247],[-149,-44.07865],[-148.5,-44.22269],[-148,-44.36462],[-147.5,-44.50444],[-147,-44.64219],[-146.5,-44.77789],[-146,-44.91154],[-145.5,-45.04319],[-145,-45.17283],[-144.5,-45.3005],[-144,-45.42621],[-143.5,-45.54998],[-143,-45.67184],[-142.5,-45.79179],[-142,-45.90986],[-141.5,-46.02607],[-141,-46.14044],[-140.5,-46.25298],[-140,-46.36371],[-139.5,-46.47265],[-139,-46.57982],[-138.5,-46.68523],[-138,-46.7889],[-137.5,-46.89086],[-137,-46.9911],[-136.5,-47.08966],[-136,-47.18654],[-135.5,-47.28177],[-135,-47.37535],[-134.5,-47.46731],[-134,-47.55766],[-133.5,-47.64641],[-133,-47.73358],[-132.5,-47.81919],[-132,-47.90324],[-131.5,-47.98576],[-131,-48.06675],[-130.5,-48.14623],[-130,-48.22421],[-129.5,-48.30071],[-129,-48.37574],[-128.5,-48.44931],[-128,-48.52144],[-127.5,-48.59214],[-127,-48.66141],[-126.5,-48.72928],[-126,-48.79575],[-125.5,-48.86084],[-125,-48.92455],[-124.5,-48.9869],[-124,-49.0479],[-123.5,-49.10757],[-123,-49.1659],[-122.5,-49.22292],[-122,-49.27863],[-121.5,-49.33304],[-121,-49.38617],[-120.5,-49.43802],[-120,-49.4886],[-119.5,-49.53793],[-119,-49.586],[-118.5,-49.63284],[-118,-49.67845],[-117.5,-49.72285],[-117,-49.76603],[-116.5,-49.808],[-116,-49.84879],[-115.5,-49.88839],[-115,-49.92681],[-114.5,-49.96407],[-114,-50.00016],[-113.5,-50.0351],[-113,-50.0689],[-112.5,-50.10156],[-112,-50.1331],[-111.5,-50.16351],[-111,-50.19281],[-110.5,-50.221],[-110,-50.24809],[-109.5,-50.27409],[-109,-50.29901],[-108.5,-50.32285],[-108.00586,-50.34535]]}}],"attribution":"Eclipse Predictions by Fred Espenak and Jean Meeus (NASA's GSFC)","generated_at":"2026-09-23T03:35:40.607Z"}
