{"type":"FeatureCollection","year":1014,"events":[{"id":"+10140104","year":1014,"month":1,"day":4,"time_tdt":"02:45:41","type":"개기일식","type_code":"T","saros":96,"gamma":0.45648,"magnitude":1.04618,"greatest":{"lat":5.03495,"lng":145.96576},"path_width_km":172.8,"duration":"04m29s","delta_t_seconds":1486.2,"catalog_number":7156,"source":"NASA Five Millennium Canon of Solar Eclipses","source_url":"https://eclipse.gsfc.nasa.gov/SEsearch/SEsearchmap.php?Ecl=%2B10140104"},{"id":"+10140630","year":1014,"month":6,"day":30,"time_tdt":"01:27:23","type":"금환일식","type_code":"A","saros":101,"gamma":-0.30133,"magnitude":0.95152,"greatest":{"lat":5.46261,"lng":164.98096},"path_width_km":186.2,"duration":"06m45s","delta_t_seconds":1483.7,"catalog_number":7157,"source":"NASA Five Millennium Canon of Solar Eclipses","source_url":"https://eclipse.gsfc.nasa.gov/SEsearch/SEsearchmap.php?Ecl=%2B10140630"},{"id":"+10141224","year":1014,"month":12,"day":24,"time_tdt":"18:08:45","type":"개기일식","type_code":"T","saros":106,"gamma":-0.21528,"magnitude":1.02723,"greatest":{"lat":-35.8967,"lng":-85.29303},"path_width_km":94.7,"duration":"02m25s","delta_t_seconds":1481.1,"catalog_number":7158,"source":"NASA Five Millennium Canon of Solar Eclipses","source_url":"https://eclipse.gsfc.nasa.gov/SEsearch/SEsearchmap.php?Ecl=%2B10141224"}],"features":[{"type":"Feature","id":"+10140104:north:0","properties":{"id":"+10140104","year":1014,"month":1,"day":4,"time_tdt":"02:45:41","type":"개기일식","type_code":"T","saros":96,"gamma":0.45648,"magnitude":1.04618,"greatest":{"lat":5.03495,"lng":145.96576},"path_width_km":172.8,"duration":"04m29s","delta_t_seconds":1486.2,"catalog_number":7156,"source":"NASA Five Millennium Canon of Solar Eclipses","source_url":"https://eclipse.gsfc.nasa.gov/SEsearch/SEsearchmap.php?Ecl=%2B10140104","boundary":"north","name":"1014-01-04 개기일식"},"geometry":{"type":"LineString","coordinates":[[90.03711,23.20348],[90.5,23.01341],[91,22.80755],[91.5,22.60113],[92,22.39417],[92.5,22.18668],[93,21.97868],[93.5,21.77018],[94,21.56119],[94.5,21.35174],[95,21.14183],[95.5,20.9315],[96,20.72075],[96.5,20.5096],[97,20.29808],[97.5,20.08621],[98,19.874],[98.5,19.66147],[99,19.44867],[99.5,19.23559],[100,19.02228],[100.5,18.80875],[101,18.59503],[101.5,18.38115],[102,18.16714],[102.5,17.95302],[103,17.73883],[103.5,17.5246],[104,17.31036],[104.5,17.09615],[105,16.88199],[105.5,16.66794],[106,16.45401],[106.5,16.24026],[107,16.02672],[107.5,15.81343],[108,15.60044],[108.5,15.38779],[109,15.17553],[109.5,14.9637],[110,14.75235],[110.5,14.54153],[111,14.3313],[111.5,14.1217],[112,13.91279],[112.5,13.70463],[113,13.49728],[113.5,13.29079],[114,13.08523],[114.5,12.88067],[115,12.67716],[115.5,12.47477],[116,12.27358],[116.5,12.07365],[117,11.87506],[117.5,11.67788],[118,11.48219],[118.5,11.28807],[119,11.09559],[119.5,10.90484],[120,10.71591],[120.5,10.52887],[121,10.34382],[121.5,10.16085],[122,9.98005],[122.5,9.8015],[123,9.62532],[123.5,9.45158],[124,9.28039],[124.5,9.11186],[125,8.94607],[125.5,8.78314],[126,8.62316],[126.5,8.46625],[127,8.3125],[127.5,8.16202],[128,8.01493],[128.5,7.87133],[129,7.73132],[129.5,7.59502],[130,7.46254],[130.5,7.33398],[131,7.20946],[131.5,7.08909],[132,6.97296],[132.5,6.8612],[133,6.7539],[133.5,6.65117],[134,6.55312],[134.5,6.45985],[135,6.37146],[135.5,6.28804],[136,6.20969],[136.5,6.13651],[137,6.06858],[137.5,6.00599],[138,5.94882],[138.5,5.89716],[139,5.85108],[139.5,5.81065],[140,5.77594],[140.5,5.747],[141,5.7239],[141.5,5.70669],[142,5.69541],[142.5,5.6901],[143,5.6908],[143.5,5.69754],[144,5.71034],[144.5,5.72921],[145,5.75417],[145.5,5.78522],[146,5.82236],[146.5,5.86557],[147,5.91484],[147.5,5.97016],[148,6.03148],[148.5,6.09877],[149,6.17199],[149.5,6.25109],[150,6.33602],[150.5,6.42672],[151,6.52311],[151.5,6.62512],[152,6.73268],[152.5,6.84571],[153,6.96411],[153.5,7.08778],[154,7.21664],[154.5,7.35058],[155,7.48949],[155.5,7.63326],[156,7.78178],[156.5,7.93493],[157,8.09259],[157.5,8.25465],[158,8.42097],[158.5,8.59143],[159,8.7659],[159.5,8.94426],[160,9.12638],[160.5,9.31212],[161,9.50136],[161.5,9.69396],[162,9.8898],[162.5,10.08875],[163,10.29067],[163.5,10.49545],[164,10.70295],[164.5,10.91304],[165,11.12562],[165.5,11.34055],[166,11.55771],[166.5,11.77698],[167,11.99826],[167.5,12.22142],[168,12.44635],[168.5,12.67295],[169,12.90111],[169.5,13.13072],[170,13.36168],[170.5,13.5939],[171,13.82728],[171.5,14.06172],[172,14.29714],[172.5,14.53344],[173,14.77054],[173.5,15.00835],[174,15.24681],[174.5,15.48582],[175,15.72532],[175.5,15.96523],[176,16.20548],[176.5,16.446],[177,16.68674],[177.5,16.92762],[178,17.16859],[178.5,17.40959],[179,17.65056],[179.5,17.89145],[180,18.13221]]}},{"type":"Feature","id":"+10140104:north:1","properties":{"id":"+10140104","year":1014,"month":1,"day":4,"time_tdt":"02:45:41","type":"개기일식","type_code":"T","saros":96,"gamma":0.45648,"magnitude":1.04618,"greatest":{"lat":5.03495,"lng":145.96576},"path_width_km":172.8,"duration":"04m29s","delta_t_seconds":1486.2,"catalog_number":7156,"source":"NASA Five Millennium Canon of Solar Eclipses","source_url":"https://eclipse.gsfc.nasa.gov/SEsearch/SEsearchmap.php?Ecl=%2B10140104","boundary":"north","name":"1014-01-04 개기일식"},"geometry":{"type":"LineString","coordinates":[[-179.5,18.37279],[-179,18.61314],[-178.5,18.85322],[-178,19.09298],[-177.5,19.33238],[-177,19.57138],[-176.5,19.80994],[-176,20.04803],[-175.5,20.28562],[-175,20.52266],[-174.5,20.75912],[-174,20.99498],[-173.5,21.23021],[-173,21.46478],[-172.5,21.69866],[-172,21.93183],[-171.5,22.16427],[-171,22.39594],[-170.5,22.62684],[-170,22.85693],[-169.5,23.0862],[-169,23.31464],[-168.5,23.54221],[-168,23.76892],[-167.5,23.99473],[-167,24.21964],[-166.5,24.44364],[-166,24.6667],[-165.5,24.88882],[-165,25.10998],[-164.5,25.33018],[-164,25.54939],[-163.5,25.76762],[-163,25.98486],[-162.5,26.20109],[-162,26.4163],[-161.5,26.63049],[-161,26.84365],[-160.5,27.05578],[-160,27.26687],[-159.5,27.47691],[-159,27.68589],[-158.5,27.89382],[-158.13281,28.04584]]}},{"type":"Feature","id":"+10140104:center:0","properties":{"id":"+10140104","year":1014,"month":1,"day":4,"time_tdt":"02:45:41","type":"개기일식","type_code":"T","saros":96,"gamma":0.45648,"magnitude":1.04618,"greatest":{"lat":5.03495,"lng":145.96576},"path_width_km":172.8,"duration":"04m29s","delta_t_seconds":1486.2,"catalog_number":7156,"source":"NASA Five Millennium Canon of Solar Eclipses","source_url":"https://eclipse.gsfc.nasa.gov/SEsearch/SEsearchmap.php?Ecl=%2B10140104","boundary":"center","name":"1014-01-04 개기일식"},"geometry":{"type":"LineString","coordinates":[[89.88637,22.7419],[90,22.6938],[90.5,22.48569],[91,22.27699],[91.5,22.06773],[92,21.85791],[92.5,21.64754],[93,21.43665],[93.5,21.22524],[94,21.01334],[94.5,20.80096],[95,20.58811],[95.5,20.37482],[96,20.16111],[96.5,19.94699],[97,19.73248],[97.5,19.5176],[98,19.30239],[98.5,19.08685],[99,18.87101],[99.5,18.6549],[100,18.43854],[100.5,18.22196],[101,18.00519],[101.5,17.78824],[102,17.57116],[102.5,17.35397],[103,17.1367],[103.5,16.91938],[104,16.70206],[104.5,16.48475],[105,16.26751],[105.5,16.05036],[106,15.83334],[106.5,15.61649],[107,15.39986],[107.5,15.18349],[108,14.96741],[108.5,14.75168],[109,14.53635],[109.5,14.32145],[110,14.10703],[110.5,13.89316],[111,13.67988],[111.5,13.46725],[112,13.25533],[112.5,13.04416],[113,12.83381],[113.5,12.62435],[114,12.41582],[114.5,12.20831],[115,12.00188],[115.5,11.79659],[116,11.59251],[116.5,11.38972],[117,11.18829],[117.5,10.9883],[118,10.78982],[118.5,10.59294],[119,10.39773],[119.5,10.20428],[120,10.01267],[120.5,9.823],[121,9.63535],[121.5,9.4498],[122,9.26647],[122.5,9.08543],[123,8.90678],[123.5,8.73062],[124,8.55706],[124.5,8.38618],[125,8.2181],[125.5,8.05291],[126,7.89072],[126.5,7.73163],[127,7.57576],[127.5,7.42321],[128,7.27408],[128.5,7.12849],[129,6.98654],[129.5,6.84834],[130,6.71401],[130.5,6.58365],[131,6.45738],[131.5,6.33529],[132,6.2175],[132.5,6.10412],[133,5.99525],[133.5,5.89099],[134,5.79146],[134.5,5.69675],[135,5.60696],[135.5,5.52219],[136,5.44254],[136.5,5.36809],[137,5.29894],[137.5,5.23518],[138,5.17688],[138.5,5.12412],[139,5.07698],[139.5,5.03553],[140,4.99984],[140.5,4.96997],[141,4.94597],[141.5,4.9279],[142,4.9158],[142.5,4.90971],[143,4.90967],[143.5,4.91571],[144,4.92785],[144.5,4.94611],[145,4.9705],[145.5,5.00102],[146,5.03767],[146.5,5.08044],[147,5.12932],[147.5,5.18429],[148,5.24532],[148.5,5.31237],[149,5.3854],[149.5,5.46437],[150,5.54922],[150.5,5.6399],[151,5.73633],[151.5,5.83845],[152,5.94618],[152.5,6.05944],[153,6.17815],[153.5,6.3022],[154,6.4315],[154.5,6.56596],[155,6.70546],[155.5,6.84991],[156,6.99917],[156.5,7.15315],[157,7.31172],[157.5,7.47476],[158,7.64215],[158.5,7.81375],[159,7.98946],[159.5,8.16913],[160,8.35264],[160.5,8.53985],[161,8.73064],[161.5,8.92488],[162,9.12243],[162.5,9.32317],[163,9.52697],[163.5,9.73369],[164,9.94321],[164.5,10.1554],[165,10.37014],[165.5,10.5873],[166,10.80677],[166.5,11.02841],[167,11.25212],[167.5,11.47778],[168,11.70527],[168.5,11.93448],[169,12.16531],[169.5,12.39764],[170,12.63138],[170.5,12.86643],[171,13.10267],[171.5,13.34003],[172,13.5784],[172.5,13.8177],[173,14.05783],[173.5,14.29872],[174,14.54027],[174.5,14.78242],[175,15.02508],[175.5,15.26818],[176,15.51165],[176.5,15.75541],[177,15.9994],[177.5,16.24356],[178,16.48782],[178.5,16.73213],[179,16.97642],[179.5,17.22065],[180,17.46475]]}},{"type":"Feature","id":"+10140104:center:1","properties":{"id":"+10140104","year":1014,"month":1,"day":4,"time_tdt":"02:45:41","type":"개기일식","type_code":"T","saros":96,"gamma":0.45648,"magnitude":1.04618,"greatest":{"lat":5.03495,"lng":145.96576},"path_width_km":172.8,"duration":"04m29s","delta_t_seconds":1486.2,"catalog_number":7156,"source":"NASA Five Millennium Canon of Solar Eclipses","source_url":"https://eclipse.gsfc.nasa.gov/SEsearch/SEsearchmap.php?Ecl=%2B10140104","boundary":"center","name":"1014-01-04 개기일식"},"geometry":{"type":"LineString","coordinates":[[-179.5,17.70868],[-179,17.95239],[-178.5,18.19583],[-178,18.43896],[-177.5,18.68173],[-177,18.9241],[-176.5,19.16604],[-176,19.4075],[-175.5,19.64845],[-175,19.88886],[-174.5,20.12869],[-174,20.36791],[-173.5,20.60649],[-173,20.8444],[-172.5,21.08162],[-172,21.31811],[-171.5,21.55386],[-171,21.78885],[-170.5,22.02304],[-170,22.25641],[-169.5,22.48896],[-169,22.72065],[-168.5,22.95148],[-168,23.18142],[-167.5,23.41045],[-167,23.63856],[-166.5,23.86575],[-166,24.09198],[-165.5,24.31726],[-165,24.54156],[-164.5,24.76488],[-164,24.9872],[-163.5,25.20852],[-163,25.42883],[-162.5,25.64811],[-162,25.86636],[-161.5,26.08357],[-161,26.29974],[-160.5,26.51485],[-160,26.72889],[-159.5,26.94188],[-159,27.15379],[-158.5,27.36462],[-158,27.57438],[-157.96035,27.59054]]}},{"type":"Feature","id":"+10140104:south:0","properties":{"id":"+10140104","year":1014,"month":1,"day":4,"time_tdt":"02:45:41","type":"개기일식","type_code":"T","saros":96,"gamma":0.45648,"magnitude":1.04618,"greatest":{"lat":5.03495,"lng":145.96576},"path_width_km":172.8,"duration":"04m29s","delta_t_seconds":1486.2,"catalog_number":7156,"source":"NASA Five Millennium Canon of Solar Eclipses","source_url":"https://eclipse.gsfc.nasa.gov/SEsearch/SEsearchmap.php?Ecl=%2B10140104","boundary":"south","name":"1014-01-04 개기일식"},"geometry":{"type":"LineString","coordinates":[[89.73242,22.28171],[90,22.16907],[90.5,21.95812],[91,21.74658],[91.5,21.53445],[92,21.32174],[92.5,21.10848],[93,20.89468],[93.5,20.68035],[94,20.46551],[94.5,20.25018],[95,20.03438],[95.5,19.81812],[96,19.60142],[96.5,19.3843],[97,19.16679],[97.5,18.9489],[98,18.73065],[98.5,18.51208],[99,18.2932],[99.5,18.07404],[100,17.85462],[100.5,17.63497],[101,17.41512],[101.5,17.1951],[102,16.97493],[102.5,16.75465],[103,16.53428],[103.5,16.31387],[104,16.09344],[104.5,15.87304],[105,15.65269],[105.5,15.43244],[106,15.21232],[106.5,14.99237],[107,14.77265],[107.5,14.55318],[108,14.33401],[108.5,14.1152],[109,13.89678],[109.5,13.67881],[110,13.46133],[110.5,13.24441],[111,13.02809],[111.5,12.81243],[112,12.59748],[112.5,12.38331],[113,12.16998],[113.5,11.95754],[114,11.74607],[114.5,11.53562],[115,11.32627],[115.5,11.11809],[116,10.91114],[116.5,10.7055],[117,10.50125],[117.5,10.29847],[118,10.09722],[118.5,9.8976],[119,9.69969],[119.5,9.50356],[120,9.30932],[120.5,9.11703],[121,8.92681],[121.5,8.73873],[122,8.55289],[122.5,8.36939],[123,8.18832],[123.5,8.00979],[124,7.83388],[124.5,7.66071],[125,7.49037],[125.5,7.32297],[126,7.15861],[126.5,6.99741],[127,6.83946],[127.5,6.68487],[128,6.53376],[128.5,6.38623],[129,6.24239],[129.5,6.10235],[130,5.96622],[130.5,5.83411],[131,5.70613],[131.5,5.58238],[132,5.46298],[132.5,5.34803],[133,5.23764],[133.5,5.13191],[134,5.03094],[134.5,4.93484],[135,4.84371],[135.5,4.75764],[136,4.67672],[136.5,4.60106],[137,4.53073],[137.5,4.46582],[138,4.40642],[138.5,4.3526],[139,4.30444],[139.5,4.262],[140,4.22536],[140.5,4.19457],[141,4.1697],[141.5,4.15079],[142,4.13788],[142.5,4.13103],[143,4.13026],[143.5,4.13561],[144,4.14709],[144.5,4.16473],[145,4.18854],[145.5,4.21852],[146,4.25468],[146.5,4.297],[147,4.34546],[147.5,4.40006],[148,4.46077],[148.5,4.52755],[149,4.60036],[149.5,4.67916],[150,4.76389],[150.5,4.85451],[151,4.95094],[151.5,5.05311],[152,5.16096],[152.5,5.27441],[153,5.39336],[153.5,5.51772],[154,5.64741],[154.5,5.78232],[155,5.92236],[155.5,6.0674],[156,6.21735],[156.5,6.37208],[157,6.53149],[157.5,6.69544],[158,6.86382],[158.5,7.03651],[159,7.21337],[159.5,7.39428],[160,7.57911],[160.5,7.76773],[161,7.96001],[161.5,8.15581],[162,8.35501],[162.5,8.55748],[163,8.76308],[163.5,8.97168],[164,9.18316],[164.5,9.39739],[165,9.61424],[165.5,9.83359],[166,10.0553],[166.5,10.27927],[167,10.50537],[167.5,10.73348],[168,10.96348],[168.5,11.19527],[169,11.42874],[169.5,11.66376],[170,11.90025],[170.5,12.13808],[171,12.37718],[171.5,12.61742],[172,12.85873],[172.5,13.10101],[173,13.34416],[173.5,13.5881],[174,13.83275],[174.5,14.07802],[175,14.32384],[175.5,14.57012],[176,14.8168],[176.5,15.0638],[177,15.31105],[177.5,15.55849],[178,15.80605],[178.5,16.05367],[179,16.30129],[179.5,16.54886],[180,16.79632]]}},{"type":"Feature","id":"+10140104:south:1","properties":{"id":"+10140104","year":1014,"month":1,"day":4,"time_tdt":"02:45:41","type":"개기일식","type_code":"T","saros":96,"gamma":0.45648,"magnitude":1.04618,"greatest":{"lat":5.03495,"lng":145.96576},"path_width_km":172.8,"duration":"04m29s","delta_t_seconds":1486.2,"catalog_number":7156,"source":"NASA Five Millennium Canon of Solar Eclipses","source_url":"https://eclipse.gsfc.nasa.gov/SEsearch/SEsearchmap.php?Ecl=%2B10140104","boundary":"south","name":"1014-01-04 개기일식"},"geometry":{"type":"LineString","coordinates":[[-179.5,17.04362],[-179,17.2907],[-178.5,17.53752],[-178,17.78403],[-177.5,18.03019],[-177,18.27595],[-176.5,18.52128],[-176,18.76614],[-175.5,19.01048],[-175,19.25427],[-174.5,19.49749],[-174,19.74009],[-173.5,19.98204],[-173,20.22332],[-172.5,20.4639],[-172,20.70375],[-171.5,20.94284],[-171,21.18116],[-170.5,21.41867],[-170,21.65536],[-169.5,21.89121],[-169,22.12619],[-168.5,22.36029],[-168,22.59348],[-167.5,22.82576],[-167,23.05711],[-166.5,23.28751],[-166,23.51694],[-165.5,23.7454],[-165,23.97288],[-164.5,24.19935],[-164,24.42481],[-163.5,24.64924],[-163,24.87265],[-162.5,25.09501],[-162,25.31633],[-161.5,25.53658],[-161,25.75578],[-160.5,25.9739],[-160,26.19093],[-159.5,26.40689],[-159,26.62175],[-158.5,26.83552],[-158,27.04819],[-157.79297,27.13592]]}},{"type":"Feature","id":"+10140630:north:0","properties":{"id":"+10140630","year":1014,"month":6,"day":30,"time_tdt":"01:27:23","type":"금환일식","type_code":"A","saros":101,"gamma":-0.30133,"magnitude":0.95152,"greatest":{"lat":5.46261,"lng":164.98096},"path_width_km":186.2,"duration":"06m45s","delta_t_seconds":1483.7,"catalog_number":7157,"source":"NASA Five Millennium Canon of Solar Eclipses","source_url":"https://eclipse.gsfc.nasa.gov/SEsearch/SEsearchmap.php?Ecl=%2B10140630","boundary":"north","name":"1014-06-30 금환일식"},"geometry":{"type":"LineString","coordinates":[[109.84961,-15.51433],[110,-15.45048],[110.5,-15.2375],[111,-15.02343],[111.5,-14.80826],[112,-14.59201],[112.5,-14.37467],[113,-14.15626],[113.5,-13.93678],[114,-13.71623],[114.5,-13.49461],[115,-13.27195],[115.5,-13.04824],[116,-12.82348],[116.5,-12.5977],[117,-12.3709],[117.5,-12.14309],[118,-11.91428],[118.5,-11.68449],[119,-11.45371],[119.5,-11.22198],[120,-10.9893],[120.5,-10.75569],[121,-10.52116],[121.5,-10.28573],[122,-10.04943],[122.5,-9.81226],[123,-9.57426],[123.5,-9.33544],[124,-9.09583],[124.5,-8.85545],[125,-8.61433],[125.5,-8.37249],[126,-8.12997],[126.5,-7.8868],[127,-7.64301],[127.5,-7.39863],[128,-7.15371],[128.5,-6.90827],[129,-6.66237],[129.5,-6.41604],[130,-6.16933],[130.5,-5.92229],[131,-5.67496],[131.5,-5.4274],[132,-5.17966],[132.5,-4.93181],[133,-4.68389],[133.5,-4.43597],[134,-4.18813],[134.5,-3.94042],[135,-3.69292],[135.5,-3.4457],[136,-3.19884],[136.5,-2.95243],[137,-2.70654],[137.5,-2.46127],[138,-2.2167],[138.5,-1.97294],[139,-1.73008],[139.5,-1.48821],[140,-1.24746],[140.5,-1.00792],[141,-0.76972],[141.5,-0.53296],[142,-0.29777],[142.5,-0.06427],[143,0.16741],[143.5,0.39714],[144,0.62478],[144.5,0.8502],[145,1.07325],[145.5,1.2938],[146,1.51168],[146.5,1.72676],[147,1.93888],[147.5,2.14788],[148,2.35361],[148.5,2.5559],[149,2.7546],[149.5,2.94954],[150,3.14056],[150.5,3.3275],[151,3.51018],[151.5,3.68845],[152,3.86214],[152.5,4.03108],[153,4.19512],[153.5,4.3541],[154,4.50784],[154.5,4.65621],[155,4.79904],[155.5,4.93618],[156,5.06749],[156.5,5.19283],[157,5.31205],[157.5,5.42504],[158,5.53165],[158.5,5.63177],[159,5.72529],[159.5,5.8121],[160,5.8921],[160.5,5.9652],[161,6.0313],[161.5,6.09035],[162,6.14226],[162.5,6.18698],[163,6.22445],[163.5,6.25464],[164,6.27751],[164.5,6.29304],[165,6.30122],[165.5,6.30203],[166,6.29549],[166.5,6.2816],[167,6.2604],[167.5,6.23191],[168,6.19616],[168.5,6.15323],[169,6.10315],[169.5,6.046],[170,5.98185],[170.5,5.91079],[171,5.83291],[171.5,5.7483],[172,5.65707],[172.5,5.55933],[173,5.45519],[173.5,5.34479],[174,5.22826],[174.5,5.10571],[175,4.9773],[175.5,4.84317],[176,4.70345],[176.5,4.55831],[177,4.4079],[177.5,4.25236],[178,4.09186],[178.5,3.92655],[179,3.7566],[179.5,3.58217],[180,3.40341]]}},{"type":"Feature","id":"+10140630:north:1","properties":{"id":"+10140630","year":1014,"month":6,"day":30,"time_tdt":"01:27:23","type":"금환일식","type_code":"A","saros":101,"gamma":-0.30133,"magnitude":0.95152,"greatest":{"lat":5.46261,"lng":164.98096},"path_width_km":186.2,"duration":"06m45s","delta_t_seconds":1483.7,"catalog_number":7157,"source":"NASA Five Millennium Canon of Solar Eclipses","source_url":"https://eclipse.gsfc.nasa.gov/SEsearch/SEsearchmap.php?Ecl=%2B10140630","boundary":"north","name":"1014-06-30 금환일식"},"geometry":{"type":"LineString","coordinates":[[-179.5,3.22048],[-179,3.03356],[-178.5,2.84279],[-178,2.64834],[-177.5,2.45036],[-177,2.24901],[-176.5,2.04445],[-176,1.83682],[-175.5,1.62628],[-175,1.41298],[-174.5,1.19705],[-174,0.97865],[-173.5,0.75791],[-173,0.53496],[-172.5,0.30995],[-172,0.08299],[-171.5,-0.14578],[-171,-0.37624],[-170.5,-0.60828],[-170,-0.84177],[-169.5,-1.0766],[-169,-1.31267],[-168.5,-1.54987],[-168,-1.7881],[-167.5,-2.02725],[-167,-2.26724],[-166.5,-2.50797],[-166,-2.74935],[-165.5,-2.99131],[-165,-3.23375],[-164.5,-3.47659],[-164,-3.71977],[-163.5,-3.96321],[-163,-4.20685],[-162.5,-4.4506],[-162,-4.69441],[-161.5,-4.93823],[-161,-5.18198],[-160.5,-5.42562],[-160,-5.66909],[-159.5,-5.91233],[-159,-6.15531],[-158.5,-6.39797],[-158,-6.64028],[-157.5,-6.88218],[-157,-7.12364],[-156.5,-7.36461],[-156,-7.60507],[-155.5,-7.84498],[-155,-8.08431],[-154.5,-8.32302],[-154,-8.56108],[-153.5,-8.79847],[-153,-9.03516],[-152.5,-9.27112],[-152,-9.50634],[-151.5,-9.74078],[-151,-9.97444],[-150.5,-10.20728],[-150,-10.43928],[-149.5,-10.67044],[-149,-10.90073],[-148.5,-11.13014],[-148,-11.35865],[-147.5,-11.58625],[-147,-11.81293],[-146.5,-12.03867],[-146,-12.26346],[-145.5,-12.48729],[-145,-12.71015],[-144.5,-12.93204],[-144,-13.15294],[-143.5,-13.37284],[-143,-13.59174],[-142.5,-13.80963],[-142,-14.02651],[-141.5,-14.24236],[-141,-14.45718],[-140.5,-14.67098],[-140,-14.88374],[-139.81055,-14.96408]]}},{"type":"Feature","id":"+10140630:center:0","properties":{"id":"+10140630","year":1014,"month":6,"day":30,"time_tdt":"01:27:23","type":"금환일식","type_code":"A","saros":101,"gamma":-0.30133,"magnitude":0.95152,"greatest":{"lat":5.46261,"lng":164.98096},"path_width_km":186.2,"duration":"06m45s","delta_t_seconds":1483.7,"catalog_number":7157,"source":"NASA Five Millennium Canon of Solar Eclipses","source_url":"https://eclipse.gsfc.nasa.gov/SEsearch/SEsearchmap.php?Ecl=%2B10140630","boundary":"center","name":"1014-06-30 금환일식"},"geometry":{"type":"LineString","coordinates":[[110.25375,-16.49462],[110.5,-16.38545],[111,-16.16937],[111.5,-15.95219],[112,-15.73391],[112.5,-15.51453],[113,-15.29406],[113.5,-15.0725],[114,-14.84985],[114.5,-14.62612],[115,-14.40133],[115.5,-14.17547],[116,-13.94855],[116.5,-13.72058],[117,-13.49157],[117.5,-13.26154],[118,-13.03048],[118.5,-12.79842],[119,-12.56536],[119.5,-12.33132],[120,-12.09631],[120.5,-11.86034],[121,-11.62344],[121.5,-11.38561],[122,-11.14688],[122.5,-10.90727],[123,-10.66679],[123.5,-10.42547],[124,-10.18334],[124.5,-9.9404],[125,-9.6967],[125.5,-9.45226],[126,-9.2071],[126.5,-8.96126],[127,-8.71478],[127.5,-8.46767],[128,-8.21999],[128.5,-7.97177],[129,-7.72304],[129.5,-7.47386],[130,-7.22426],[130.5,-6.9743],[131,-6.72401],[131.5,-6.47346],[132,-6.22269],[132.5,-5.97177],[133,-5.72075],[133.5,-5.46969],[134,-5.21867],[134.5,-4.96774],[135,-4.71698],[135.5,-4.46647],[136,-4.21628],[136.5,-3.96649],[137,-3.71719],[137.5,-3.46847],[138,-3.22041],[138.5,-2.97312],[139,-2.72669],[139.5,-2.48122],[140,-2.23682],[140.5,-1.9936],[141,-1.75168],[141.5,-1.51118],[142,-1.2722],[142.5,-1.03489],[143,-0.79937],[143.5,-0.56577],[144,-0.33423],[144.5,-0.1049],[145,0.1221],[145.5,0.3466],[146,0.56845],[146.5,0.78751],[147,1.00361],[147.5,1.2166],[148,1.42632],[148.5,1.63259],[149,1.83526],[149.5,2.03415],[150,2.2291],[150.5,2.41993],[151,2.60648],[151.5,2.78857],[152,2.96604],[152.5,3.1387],[153,3.3064],[153.5,3.46896],[154,3.62622],[154.5,3.77801],[155,3.92418],[155.5,4.06456],[156,4.19899],[156.5,4.32734],[157,4.44946],[157.5,4.5652],[158,4.67443],[158.5,4.77703],[159,4.87288],[159.5,4.96185],[160,5.04385],[160.5,5.11877],[161,5.18653],[161.5,5.24704],[162,5.30024],[162.5,5.34605],[163,5.38442],[163.5,5.41531],[164,5.43869],[164.5,5.45452],[165,5.46279],[165.5,5.4635],[166,5.45665],[166.5,5.44226],[167,5.42034],[167.5,5.39094],[168,5.3541],[168.5,5.30987],[169,5.25831],[169.5,5.19949],[170,5.1335],[170.5,5.06042],[171,4.98035],[171.5,4.89339],[172,4.79966],[172.5,4.69927],[173,4.59234],[173.5,4.47901],[174,4.35942],[174.5,4.2337],[175,4.10201],[175.5,3.96449],[176,3.82129],[176.5,3.67257],[177,3.5185],[177.5,3.35924],[178,3.19494],[178.5,3.02579],[179,2.85193],[179.5,2.67354],[180,2.49079]]}},{"type":"Feature","id":"+10140630:center:1","properties":{"id":"+10140630","year":1014,"month":6,"day":30,"time_tdt":"01:27:23","type":"금환일식","type_code":"A","saros":101,"gamma":-0.30133,"magnitude":0.95152,"greatest":{"lat":5.46261,"lng":164.98096},"path_width_km":186.2,"duration":"06m45s","delta_t_seconds":1483.7,"catalog_number":7157,"source":"NASA Five Millennium Canon of Solar Eclipses","source_url":"https://eclipse.gsfc.nasa.gov/SEsearch/SEsearchmap.php?Ecl=%2B10140630","boundary":"center","name":"1014-06-30 금환일식"},"geometry":{"type":"LineString","coordinates":[[-179.5,2.30385],[-179,2.11287],[-178.5,1.91803],[-178,1.7195],[-177.5,1.51742],[-177,1.31197],[-176.5,1.10331],[-176,0.89158],[-175.5,0.67695],[-175,0.45957],[-174.5,0.23958],[-174,0.01713],[-173.5,-0.20764],[-173,-0.43459],[-172.5,-0.66358],[-172,-0.89449],[-171.5,-1.12718],[-171,-1.36153],[-170.5,-1.59741],[-170,-1.83472],[-169.5,-2.07334],[-169,-2.31316],[-168.5,-2.55406],[-168,-2.79596],[-167.5,-3.03874],[-167,-3.28232],[-166.5,-3.5266],[-166,-3.7715],[-165.5,-4.01692],[-165,-4.26279],[-164.5,-4.50903],[-164,-4.75556],[-163.5,-5.00231],[-163,-5.24922],[-162.5,-5.4962],[-162,-5.74321],[-161.5,-5.99018],[-161,-6.23705],[-160.5,-6.48377],[-160,-6.73028],[-159.5,-6.97653],[-159,-7.22248],[-158.5,-7.46808],[-158,-7.71329],[-157.5,-7.95806],[-157,-8.20235],[-156.5,-8.44613],[-156,-8.68936],[-155.5,-8.93201],[-155,-9.17404],[-154.5,-9.41543],[-154,-9.65614],[-153.5,-9.89615],[-153,-10.13543],[-152.5,-10.37395],[-152,-10.61171],[-151.5,-10.84866],[-151,-11.08479],[-150.5,-11.32009],[-150,-11.55453],[-149.5,-11.78809],[-149,-12.02076],[-148.5,-12.25253],[-148,-12.48338],[-147.5,-12.71329],[-147,-12.94226],[-146.5,-13.17027],[-146,-13.39731],[-145.5,-13.62337],[-145,-13.84844],[-144.5,-14.07251],[-144,-14.29558],[-143.5,-14.51763],[-143,-14.73866],[-142.5,-14.95866],[-142,-15.17763],[-141.5,-15.39556],[-141,-15.61244],[-140.5,-15.82828],[-140.21927,-15.95308]]}},{"type":"Feature","id":"+10140630:south:0","properties":{"id":"+10140630","year":1014,"month":6,"day":30,"time_tdt":"01:27:23","type":"금환일식","type_code":"A","saros":101,"gamma":-0.30133,"magnitude":0.95152,"greatest":{"lat":5.46261,"lng":164.98096},"path_width_km":186.2,"duration":"06m45s","delta_t_seconds":1483.7,"catalog_number":7157,"source":"NASA Five Millennium Canon of Solar Eclipses","source_url":"https://eclipse.gsfc.nasa.gov/SEsearch/SEsearchmap.php?Ecl=%2B10140630","boundary":"south","name":"1014-06-30 금환일식"},"geometry":{"type":"LineString","coordinates":[[110.64258,-17.47842],[111,-17.32242],[111.5,-17.10323],[112,-16.88291],[112.5,-16.66149],[113,-16.43895],[113.5,-16.21531],[114,-15.99056],[114.5,-15.76472],[115,-15.5378],[115.5,-15.30979],[116,-15.0807],[116.5,-14.85055],[117,-14.61934],[117.5,-14.38708],[118,-14.15378],[118.5,-13.91945],[119,-13.68411],[119.5,-13.44776],[120,-13.21042],[120.5,-12.97211],[121,-12.73284],[121.5,-12.49262],[122,-12.25147],[122.5,-12.00941],[123,-11.76647],[123.5,-11.52266],[124,-11.27801],[124.5,-11.03253],[125,-10.78626],[125.5,-10.53921],[126,-10.29143],[126.5,-10.04294],[127,-9.79377],[127.5,-9.54395],[128,-9.29352],[128.5,-9.04252],[129,-8.79099],[129.5,-8.53896],[130,-8.28649],[130.5,-8.03361],[131,-7.78038],[131.5,-7.52685],[132,-7.27307],[132.5,-7.0191],[133,-6.76499],[133.5,-6.51081],[134,-6.25662],[134.5,-6.00249],[135,-5.7485],[135.5,-5.49471],[136,-5.2412],[136.5,-4.98805],[137,-4.73536],[137.5,-4.48319],[138,-4.23166],[138.5,-3.98085],[139,-3.73087],[139.5,-3.4818],[140,-3.23378],[140.5,-2.98689],[141,-2.74126],[141.5,-2.49702],[142,-2.25427],[142.5,-2.01315],[143,-1.77379],[143.5,-1.53632],[144,-1.30089],[144.5,-1.06763],[145,-0.8367],[145.5,-0.60824],[146,-0.3824],[146.5,-0.15935],[147,0.06075],[147.5,0.27774],[148,0.49146],[148.5,0.70174],[149,0.90839],[149.5,1.11126],[150,1.31017],[150.5,1.50493],[151,1.69538],[151.5,1.88133],[152,2.06261],[152.5,2.23904],[153,2.41044],[153.5,2.57663],[154,2.73745],[154.5,2.89271],[155,3.04226],[155.5,3.18592],[156,3.32354],[156.5,3.45495],[157,3.58001],[157.5,3.69856],[158,3.81046],[158.5,3.91559],[159,4.0138],[159.5,4.10498],[160,4.18902],[160.5,4.26581],[161,4.33526],[161.5,4.39728],[162,4.45178],[162.5,4.49871],[163,4.538],[163.5,4.56961],[164,4.5935],[164.5,4.60964],[165,4.61801],[165.5,4.61861],[166,4.61145],[166.5,4.59654],[167,4.5739],[167.5,4.54357],[168,4.5056],[168.5,4.46004],[169,4.40697],[169.5,4.34645],[170,4.27857],[170.5,4.20343],[171,4.12113],[171.5,4.03177],[172,3.93548],[172.5,3.83239],[173,3.72262],[173.5,3.60631],[174,3.48361],[174.5,3.35467],[175,3.21964],[175.5,3.07867],[176,2.93194],[176.5,2.7796],[177,2.62183],[177.5,2.45879],[178,2.29066],[178.5,2.1176],[179,1.9398],[179.5,1.75743],[180,1.57065]]}},{"type":"Feature","id":"+10140630:south:1","properties":{"id":"+10140630","year":1014,"month":6,"day":30,"time_tdt":"01:27:23","type":"금환일식","type_code":"A","saros":101,"gamma":-0.30133,"magnitude":0.95152,"greatest":{"lat":5.46261,"lng":164.98096},"path_width_km":186.2,"duration":"06m45s","delta_t_seconds":1483.7,"catalog_number":7157,"source":"NASA Five Millennium Canon of Solar Eclipses","source_url":"https://eclipse.gsfc.nasa.gov/SEsearch/SEsearchmap.php?Ecl=%2B10140630","boundary":"south","name":"1014-06-30 금환일식"},"geometry":{"type":"LineString","coordinates":[[-179.5,1.37965],[-179,1.1846],[-178.5,0.98566],[-178,0.78302],[-177.5,0.57683],[-177,0.36726],[-176.5,0.15447],[-176,-0.06136],[-175.5,-0.2801],[-175,-0.50157],[-174.5,-0.72563],[-174,-0.95213],[-173.5,-1.18093],[-173,-1.41188],[-172.5,-1.64485],[-172,-1.8797],[-171.5,-2.1163],[-171,-2.35453],[-170.5,-2.59427],[-170,-2.83539],[-169.5,-3.07777],[-169,-3.32132],[-168.5,-3.56592],[-168,-3.81148],[-167.5,-4.05788],[-167,-4.30503],[-166.5,-4.55285],[-166,-4.80124],[-165.5,-5.05012],[-165,-5.2994],[-164.5,-5.54901],[-164,-5.79888],[-163.5,-6.04892],[-163,-6.29908],[-162.5,-6.54928],[-162,-6.79947],[-161.5,-7.04958],[-161,-7.29955],[-160.5,-7.54933],[-160,-7.79887],[-159.5,-8.04812],[-159,-8.29702],[-158.5,-8.54554],[-158,-8.79363],[-157.5,-9.04126],[-157,-9.28837],[-156.5,-9.53494],[-156,-9.78093],[-155.5,-10.0263],[-155,-10.27103],[-154.5,-10.51508],[-154,-10.75843],[-153.5,-11.00104],[-153,-11.2429],[-152.5,-11.48398],[-152,-11.72426],[-151.5,-11.96372],[-151,-12.20232],[-150.5,-12.44007],[-150,-12.67693],[-149.5,-12.9129],[-149,-13.14795],[-148.5,-13.38207],[-148,-13.61525],[-147.5,-13.84747],[-147,-14.07873],[-146.5,-14.309],[-146,-14.53829],[-145.5,-14.76657],[-145,-14.99385],[-144.5,-15.22011],[-144,-15.44534],[-143.5,-15.66954],[-143,-15.8927],[-142.5,-16.11481],[-142,-16.33587],[-141.5,-16.55588],[-141,-16.77482],[-140.60547,-16.94683]]}},{"type":"Feature","id":"+10141224:north:0","properties":{"id":"+10141224","year":1014,"month":12,"day":24,"time_tdt":"18:08:45","type":"개기일식","type_code":"T","saros":106,"gamma":-0.21528,"magnitude":1.02723,"greatest":{"lat":-35.8967,"lng":-85.29303},"path_width_km":94.7,"duration":"02m25s","delta_t_seconds":1481.1,"catalog_number":7158,"source":"NASA Five Millennium Canon of Solar Eclipses","source_url":"https://eclipse.gsfc.nasa.gov/SEsearch/SEsearchmap.php?Ecl=%2B10141224","boundary":"north","name":"1014-12-24 개기일식"},"geometry":{"type":"LineString","coordinates":[[-153.29492,-9.58169],[-153,-9.70819],[-152.5,-9.92362],[-152,-10.14028],[-151.5,-10.35815],[-151,-10.57722],[-150.5,-10.79748],[-150,-11.01893],[-149.5,-11.24156],[-149,-11.46535],[-148.5,-11.69029],[-148,-11.91637],[-147.5,-12.14359],[-147,-12.37191],[-146.5,-12.60134],[-146,-12.83185],[-145.5,-13.06342],[-145,-13.29605],[-144.5,-13.52971],[-144,-13.76438],[-143.5,-14.00005],[-143,-14.23668],[-142.5,-14.47427],[-142,-14.71278],[-141.5,-14.95219],[-141,-15.19248],[-140.5,-15.43362],[-140,-15.67558],[-139.5,-15.91833],[-139,-16.16185],[-138.5,-16.40609],[-138,-16.65103],[-137.5,-16.89664],[-137,-17.14287],[-136.5,-17.38969],[-136,-17.63707],[-135.5,-17.88496],[-135,-18.13331],[-134.5,-18.3821],[-134,-18.63128],[-133.5,-18.88079],[-133,-19.1306],[-132.5,-19.38066],[-132,-19.63091],[-131.5,-19.8813],[-131,-20.13179],[-130.5,-20.38232],[-130,-20.63284],[-129.5,-20.88328],[-129,-21.13359],[-128.5,-21.38372],[-128,-21.6336],[-127.5,-21.88317],[-127,-22.13236],[-126.5,-22.38113],[-126,-22.62939],[-125.5,-22.87709],[-125,-23.12415],[-124.5,-23.37052],[-124,-23.61612],[-123.5,-23.86088],[-123,-24.10473],[-122.5,-24.34761],[-122,-24.58944],[-121.5,-24.83015],[-121,-25.06967],[-120.5,-25.30793],[-120,-25.54486],[-119.5,-25.78037],[-119,-26.01441],[-118.5,-26.2469],[-118,-26.47777],[-117.5,-26.70694],[-117,-26.93435],[-116.5,-27.15992],[-116,-27.38359],[-115.5,-27.60528],[-115,-27.82493],[-114.5,-28.04246],[-114,-28.25782],[-113.5,-28.47094],[-113,-28.68174],[-112.5,-28.89018],[-112,-29.09618],[-111.5,-29.29968],[-111,-29.50063],[-110.5,-29.69896],[-110,-29.89463],[-109.5,-30.08757],[-109,-30.27773],[-108.5,-30.46506],[-108,-30.6495],[-107.5,-30.83102],[-107,-31.00956],[-106.5,-31.18508],[-106,-31.35753],[-105.5,-31.52687],[-105,-31.69306],[-104.5,-31.85607],[-104,-32.01585],[-103.5,-32.17237],[-103,-32.3256],[-102.5,-32.47551],[-102,-32.62206],[-101.5,-32.76522],[-101,-32.90498],[-100.5,-33.0413],[-100,-33.17416],[-99.5,-33.30353],[-99,-33.42941],[-98.5,-33.55176],[-98,-33.67057],[-97.5,-33.78582],[-97,-33.89749],[-96.5,-34.00558],[-96,-34.11007],[-95.5,-34.21094],[-95,-34.30819],[-94.5,-34.4018],[-94,-34.49177],[-93.5,-34.57809],[-93,-34.66075],[-92.5,-34.73975],[-92,-34.81507],[-91.5,-34.88672],[-91,-34.9547],[-90.5,-35.01899],[-90,-35.07959],[-89.5,-35.13652],[-89,-35.18975],[-88.5,-35.2393],[-88,-35.28516],[-87.5,-35.32733],[-87,-35.36582],[-86.5,-35.40063],[-86,-35.43175],[-85.5,-35.45919],[-85,-35.48296],[-84.5,-35.50306],[-84,-35.51949],[-83.5,-35.53225],[-83,-35.54135],[-82.5,-35.5468],[-82,-35.54859],[-81.5,-35.54674],[-81,-35.54126],[-80.5,-35.53214],[-80,-35.51939],[-79.5,-35.50303],[-79,-35.48305],[-78.5,-35.45948],[-78,-35.4323],[-77.5,-35.40154],[-77,-35.3672],[-76.5,-35.3293],[-76,-35.28783],[-75.5,-35.24282],[-75,-35.19427],[-74.5,-35.14219],[-74,-35.08659],[-73.5,-35.02749],[-73,-34.96491],[-72.5,-34.89884],[-72,-34.82931],[-71.5,-34.75634],[-71,-34.67993],[-70.5,-34.6001],[-70,-34.51687],[-69.5,-34.43025],[-69,-34.34027],[-68.5,-34.24694],[-68,-34.15028],[-67.5,-34.05031],[-67,-33.94705],[-66.5,-33.84051],[-66,-33.73076],[-65.5,-33.61777],[-65,-33.50159],[-64.5,-33.38224],[-64,-33.25974],[-63.5,-33.13413],[-63,-33.00543],[-62.5,-32.87367],[-62,-32.73889],[-61.5,-32.60111],[-61,-32.46036],[-60.5,-32.31669],[-60,-32.17012],[-59.5,-32.02069],[-59,-31.86844],[-58.5,-31.7134],[-58,-31.55561],[-57.5,-31.39512],[-57,-31.23197],[-56.5,-31.06619],[-56,-30.89783],[-55.5,-30.72694],[-55,-30.55355],[-54.5,-30.37772],[-54,-30.19949],[-53.5,-30.01891],[-53,-29.83603],[-52.5,-29.6509],[-52,-29.46356],[-51.5,-29.27408],[-51,-29.08249],[-50.5,-28.88886],[-50,-28.69323],[-49.5,-28.49567],[-49,-28.29622],[-48.5,-28.09493],[-48,-27.89187],[-47.5,-27.68709],[-47,-27.48065],[-46.5,-27.27259],[-46,-27.06298],[-45.5,-26.85188],[-45,-26.63933],[-44.5,-26.4254],[-44,-26.21015],[-43.5,-25.99362],[-43,-25.77588],[-42.5,-25.55698],[-42,-25.33698],[-41.5,-25.11593],[-41,-24.89389],[-40.5,-24.67092],[-40,-24.44706],[-39.5,-24.22238],[-39,-23.99692],[-38.5,-23.77074],[-38,-23.54389],[-37.5,-23.31643],[-37,-23.0884],[-36.5,-22.85985],[-36,-22.63084],[-35.5,-22.40141],[-35,-22.17161],[-34.5,-21.9415],[-34,-21.7111],[-33.5,-21.48048],[-33,-21.24968],[-32.5,-21.01873],[-32,-20.78769],[-31.5,-20.5566],[-31,-20.32549],[-30.5,-20.0944],[-30,-19.86338],[-29.5,-19.63247],[-29,-19.40169],[-28.5,-19.1711],[-28,-18.94071],[-27.5,-18.71058],[-27,-18.48073],[-26.5,-18.25119],[-26,-18.02199],[-25.5,-17.79318],[-25,-17.56477],[-24.5,-17.33679],[-24,-17.10928],[-23.5,-16.88226],[-23,-16.65575],[-22.5,-16.42979],[-22,-16.20439],[-21.5,-15.97959],[-21,-15.75539],[-20.5,-15.53184],[-20,-15.30894],[-19.5,-15.08672],[-19,-14.86519],[-18.5,-14.64438],[-18,-14.4243],[-17.5,-14.20498],[-17,-13.98643],[-16.5,-13.76866],[-16,-13.55169],[-15.5,-13.33553],[-15,-13.12021],[-14.75586,-13.01538]]}},{"type":"Feature","id":"+10141224:center:0","properties":{"id":"+10141224","year":1014,"month":12,"day":24,"time_tdt":"18:08:45","type":"개기일식","type_code":"T","saros":106,"gamma":-0.21528,"magnitude":1.02723,"greatest":{"lat":-35.8967,"lng":-85.29303},"path_width_km":94.7,"duration":"02m25s","delta_t_seconds":1481.1,"catalog_number":7158,"source":"NASA Five Millennium Canon of Solar Eclipses","source_url":"https://eclipse.gsfc.nasa.gov/SEsearch/SEsearchmap.php?Ecl=%2B10141224","boundary":"center","name":"1014-12-24 개기일식"},"geometry":{"type":"LineString","coordinates":[[-153.3828,-9.71533],[-153,-9.8807],[-152.5,-10.0994],[-152,-10.31933],[-151.5,-10.5405],[-151,-10.76289],[-150.5,-10.98649],[-150,-11.2113],[-149.5,-11.4373],[-149,-11.66448],[-148.5,-11.89284],[-148,-12.12235],[-147.5,-12.35301],[-147,-12.58479],[-146.5,-12.8177],[-146,-13.05169],[-145.5,-13.28677],[-145,-13.52292],[-144.5,-13.7601],[-144,-13.99832],[-143.5,-14.23753],[-143,-14.47773],[-142.5,-14.71888],[-142,-14.96096],[-141.5,-15.20396],[-141,-15.44783],[-140.5,-15.69256],[-140,-15.93811],[-139.5,-16.18446],[-139,-16.43157],[-138.5,-16.6794],[-138,-16.92793],[-137.5,-17.17712],[-137,-17.42693],[-136.5,-17.67733],[-136,-17.92827],[-135.5,-18.17971],[-135,-18.43161],[-134.5,-18.68392],[-134,-18.93661],[-133.5,-19.18962],[-133,-19.4429],[-132.5,-19.69641],[-132,-19.95009],[-131.5,-20.20389],[-131,-20.45776],[-130.5,-20.71164],[-130,-20.96547],[-129.5,-21.2192],[-129,-21.47277],[-128.5,-21.72611],[-128,-21.97917],[-127.5,-22.23187],[-127,-22.48417],[-126.5,-22.73598],[-126,-22.98725],[-125.5,-23.2379],[-125,-23.48787],[-124.5,-23.73709],[-124,-23.98549],[-123.5,-24.233],[-123,-24.47955],[-122.5,-24.72506],[-122,-24.96947],[-121.5,-25.21269],[-121,-25.45467],[-120.5,-25.69531],[-120,-25.93456],[-119.5,-26.17234],[-119,-26.40857],[-118.5,-26.64319],[-118,-26.87611],[-117.5,-27.10728],[-117,-27.33661],[-116.5,-27.56403],[-116,-27.78949],[-115.5,-28.01289],[-115,-28.23419],[-114.5,-28.4533],[-114,-28.67017],[-113.5,-28.88473],[-113,-29.09691],[-112.5,-29.30665],[-112,-29.51389],[-111.5,-29.71857],[-111,-29.92063],[-110.5,-30.12001],[-110,-30.31666],[-109.5,-30.51052],[-109,-30.70154],[-108.5,-30.88968],[-108,-31.07487],[-107.5,-31.25708],[-107,-31.43626],[-106.5,-31.61236],[-106,-31.78535],[-105.5,-31.95518],[-105,-32.12181],[-104.5,-32.28521],[-104,-32.44534],[-103.5,-32.60217],[-103,-32.75567],[-102.5,-32.9058],[-102,-33.05254],[-101.5,-33.19587],[-101,-33.33575],[-100.5,-33.47217],[-100,-33.6051],[-99.5,-33.73451],[-99,-33.8604],[-98.5,-33.98274],[-98,-34.10152],[-97.5,-34.21673],[-97,-34.32834],[-96.5,-34.43634],[-96,-34.54073],[-95.5,-34.64149],[-95,-34.73861],[-94.5,-34.83209],[-94,-34.92191],[-93.5,-35.00808],[-93,-35.09058],[-92.5,-35.16941],[-92,-35.24456],[-91.5,-35.31604],[-91,-35.38384],[-90.5,-35.44795],[-90,-35.50838],[-89.5,-35.56512],[-89,-35.61818],[-88.5,-35.66755],[-88,-35.71324],[-87.5,-35.75525],[-87,-35.79357],[-86.5,-35.82821],[-86,-35.85918],[-85.5,-35.88647],[-85,-35.91009],[-84.5,-35.93005],[-84,-35.94634],[-83.5,-35.95897],[-83,-35.96795],[-82.5,-35.97328],[-82,-35.97496],[-81.5,-35.973],[-81,-35.96741],[-80.5,-35.9582],[-80,-35.94536],[-79.5,-35.92891],[-79,-35.90885],[-78.5,-35.88519],[-78,-35.85794],[-77.5,-35.82711],[-77,-35.7927],[-76.5,-35.75472],[-76,-35.71318],[-75.5,-35.6681],[-75,-35.61947],[-74.5,-35.56732],[-74,-35.51165],[-73.5,-35.45247],[-73,-35.3898],[-72.5,-35.32365],[-72,-35.25402],[-71.5,-35.18094],[-71,-35.10442],[-70.5,-35.02446],[-70,-34.9411],[-69.5,-34.85433],[-69,-34.76419],[-68.5,-34.67068],[-68,-34.57383],[-67.5,-34.47365],[-67,-34.37016],[-66.5,-34.26339],[-66,-34.15335],[-65.5,-34.04007],[-65,-33.92357],[-64.5,-33.80387],[-64,-33.681],[-63.5,-33.55499],[-63,-33.42585],[-62.5,-33.29363],[-62,-33.15835],[-61.5,-33.02004],[-61,-32.87872],[-60.5,-32.73444],[-60,-32.58723],[-59.5,-32.43711],[-59,-32.28413],[-58.5,-32.12833],[-58,-31.96973],[-57.5,-31.80839],[-57,-31.64433],[-56.5,-31.4776],[-56,-31.30825],[-55.5,-31.13631],[-55,-30.96183],[-54.5,-30.78485],[-54,-30.60542],[-53.5,-30.42359],[-53,-30.23941],[-52.5,-30.05292],[-52,-29.86418],[-51.5,-29.67323],[-51,-29.48013],[-50.5,-29.28492],[-50,-29.08767],[-49.5,-28.88842],[-49,-28.68723],[-48.5,-28.48415],[-48,-28.27925],[-47.5,-28.07257],[-47,-27.86416],[-46.5,-27.6541],[-46,-27.44243],[-45.5,-27.22921],[-45,-27.01449],[-44.5,-26.79834],[-44,-26.58082],[-43.5,-26.36197],[-43,-26.14186],[-42.5,-25.92054],[-42,-25.69807],[-41.5,-25.47451],[-41,-25.24991],[-40.5,-25.02434],[-40,-24.79783],[-39.5,-24.57046],[-39,-24.34228],[-38.5,-24.11333],[-38,-23.88368],[-37.5,-23.65337],[-37,-23.42246],[-36.5,-23.191],[-36,-22.95905],[-35.5,-22.72664],[-35,-22.49384],[-34.5,-22.26069],[-34,-22.02724],[-33.5,-21.79354],[-33,-21.55962],[-32.5,-21.32554],[-32,-21.09135],[-31.5,-20.85708],[-31,-20.62278],[-30.5,-20.38848],[-30,-20.15424],[-29.5,-19.92009],[-29,-19.68606],[-28.5,-19.4522],[-28,-19.21854],[-27.5,-18.98512],[-27,-18.75198],[-26.5,-18.51914],[-26,-18.28664],[-25.5,-18.05452],[-25,-17.82279],[-24.5,-17.5915],[-24,-17.36068],[-23.5,-17.13034],[-23,-16.90052],[-22.5,-16.67124],[-22,-16.44254],[-21.5,-16.21443],[-21,-15.98693],[-20.5,-15.76008],[-20,-15.53389],[-19.5,-15.30838],[-19,-15.08358],[-18.5,-14.8595],[-18,-14.63617],[-17.5,-14.4136],[-17,-14.19181],[-16.5,-13.97081],[-16,-13.75062],[-15.5,-13.53127],[-15,-13.31275],[-14.65886,-13.164]]}},{"type":"Feature","id":"+10141224:south:0","properties":{"id":"+10141224","year":1014,"month":12,"day":24,"time_tdt":"18:08:45","type":"개기일식","type_code":"T","saros":106,"gamma":-0.21528,"magnitude":1.02723,"greatest":{"lat":-35.8967,"lng":-85.29303},"path_width_km":94.7,"duration":"02m25s","delta_t_seconds":1481.1,"catalog_number":7158,"source":"NASA Five Millennium Canon of Solar Eclipses","source_url":"https://eclipse.gsfc.nasa.gov/SEsearch/SEsearchmap.php?Ecl=%2B10141224","boundary":"south","name":"1014-12-24 개기일식"},"geometry":{"type":"LineString","coordinates":[[-153.46484,-9.84925],[-153,-10.05449],[-152.5,-10.27647],[-152,-10.49972],[-151.5,-10.72422],[-151,-10.94996],[-150.5,-11.17693],[-150,-11.40513],[-149.5,-11.63454],[-149,-11.86516],[-148.5,-12.09696],[-148,-12.32993],[-147.5,-12.56407],[-147,-12.79935],[-146.5,-13.03576],[-146,-13.27328],[-145.5,-13.5119],[-145,-13.75159],[-144.5,-13.99234],[-144,-14.23412],[-143.5,-14.47692],[-143,-14.72071],[-142.5,-14.96546],[-142,-15.21115],[-141.5,-15.45776],[-141,-15.70525],[-140.5,-15.9536],[-140,-16.20278],[-139.5,-16.45275],[-139,-16.70348],[-138.5,-16.95493],[-138,-17.20708],[-137.5,-17.45988],[-137,-17.7133],[-136.5,-17.96729],[-136,-18.22182],[-135.5,-18.47683],[-135,-18.7323],[-134.5,-18.98816],[-134,-19.24438],[-133.5,-19.5009],[-133,-19.75767],[-132.5,-20.01465],[-132,-20.27177],[-131.5,-20.52899],[-131,-20.78625],[-130.5,-21.04349],[-130,-21.30065],[-129.5,-21.55767],[-129,-21.81449],[-128.5,-22.07105],[-128,-22.32728],[-127.5,-22.58312],[-127,-22.8385],[-126.5,-23.09336],[-126,-23.34762],[-125.5,-23.60122],[-125,-23.85408],[-124.5,-24.10614],[-124,-24.35733],[-123.5,-24.60757],[-123,-24.85678],[-122.5,-25.1049],[-122,-25.35185],[-121.5,-25.59756],[-121,-25.84196],[-120.5,-26.08496],[-120,-26.3265],[-119.5,-26.5665],[-119,-26.80489],[-118.5,-27.04159],[-118,-27.27654],[-117.5,-27.50965],[-117,-27.74086],[-116.5,-27.97009],[-116,-28.19728],[-115.5,-28.42236],[-115,-28.64525],[-114.5,-28.86589],[-114,-29.08422],[-113.5,-29.30017],[-113,-29.51367],[-112.5,-29.72466],[-112,-29.93309],[-111.5,-30.13889],[-111,-30.34201],[-110.5,-30.54238],[-110,-30.73996],[-109.5,-30.93469],[-109,-31.12653],[-108.5,-31.31541],[-108,-31.5013],[-107.5,-31.68415],[-107,-31.86392],[-106.5,-32.04055],[-106,-32.21403],[-105.5,-32.38429],[-105,-32.55131],[-104.5,-32.71506],[-104,-32.87549],[-103.5,-33.03258],[-103,-33.1863],[-102.5,-33.33663],[-102,-33.48352],[-101.5,-33.62696],[-101,-33.76693],[-100.5,-33.90341],[-100,-34.03637],[-99.5,-34.16579],[-99,-34.29166],[-98.5,-34.41396],[-98,-34.53268],[-97.5,-34.6478],[-97,-34.75931],[-96.5,-34.8672],[-96,-34.97147],[-95.5,-35.07209],[-95,-35.16906],[-94.5,-35.26238],[-94,-35.35204],[-93.5,-35.43803],[-93,-35.52035],[-92.5,-35.59899],[-92,-35.67396],[-91.5,-35.74525],[-91,-35.81285],[-90.5,-35.87677],[-90,-35.93701],[-89.5,-35.99357],[-89,-36.04644],[-88.5,-36.09563],[-88,-36.14113],[-87.5,-36.18296],[-87,-36.22111],[-86.5,-36.25559],[-86,-36.28639],[-85.5,-36.31353],[-85,-36.337],[-84.5,-36.35681],[-84,-36.37297],[-83.5,-36.38547],[-83,-36.39432],[-82.5,-36.39953],[-82,-36.4011],[-81.5,-36.39904],[-81,-36.39336],[-80.5,-36.38405],[-80,-36.37112],[-79.5,-36.35459],[-79,-36.33446],[-78.5,-36.31073],[-78,-36.28341],[-77.5,-36.25251],[-77,-36.21804],[-76.5,-36.18],[-76,-36.13841],[-75.5,-36.09327],[-75,-36.04459],[-74.5,-35.99238],[-74,-35.93665],[-73.5,-35.87741],[-73,-35.81467],[-72.5,-35.74845],[-72,-35.67874],[-71.5,-35.60558],[-71,-35.52896],[-70.5,-35.44891],[-70,-35.36544],[-69.5,-35.27855],[-69,-35.18827],[-68.5,-35.09462],[-68,-34.9976],[-67.5,-34.89724],[-67,-34.79355],[-66.5,-34.68656],[-66,-34.57629],[-65.5,-34.46274],[-65,-34.34595],[-64.5,-34.22595],[-64,-34.10274],[-63.5,-33.97636],[-63,-33.84683],[-62.5,-33.71419],[-62,-33.57845],[-61.5,-33.43964],[-61,-33.2978],[-60.5,-33.15296],[-60,-33.00514],[-59.5,-32.85438],[-59,-32.70072],[-58.5,-32.54419],[-58,-32.38483],[-57.5,-32.22267],[-57,-32.05776],[-56.5,-31.89013],[-56,-31.71982],[-55.5,-31.54688],[-55,-31.37135],[-54.5,-31.19327],[-54,-31.01269],[-53.5,-30.82965],[-53,-30.64421],[-52.5,-30.45641],[-52,-30.2663],[-51.5,-30.07393],[-51,-29.87935],[-50.5,-29.68262],[-50,-29.48378],[-49.5,-29.28289],[-49,-29.08],[-48.5,-28.87517],[-48,-28.66845],[-47.5,-28.4599],[-47,-28.24958],[-46.5,-28.03754],[-46,-27.82383],[-45.5,-27.60853],[-45,-27.39167],[-44.5,-27.17333],[-44,-26.95356],[-43.5,-26.73242],[-43,-26.50996],[-42.5,-26.28624],[-42,-26.06133],[-41.5,-25.83527],[-41,-25.60813],[-40.5,-25.37997],[-40,-25.15083],[-39.5,-24.92079],[-39,-24.68988],[-38.5,-24.45818],[-38,-24.22572],[-37.5,-23.99258],[-37,-23.7588],[-36.5,-23.52443],[-36,-23.28953],[-35.5,-23.05415],[-35,-22.81834],[-34.5,-22.58216],[-34,-22.34564],[-33.5,-22.10884],[-33,-21.87181],[-32.5,-21.63459],[-32,-21.39723],[-31.5,-21.15977],[-31,-20.92226],[-30.5,-20.68475],[-30,-20.44726],[-29.5,-20.20985],[-29,-19.97256],[-28.5,-19.73541],[-28,-19.49846],[-27.5,-19.26174],[-27,-19.02528],[-26.5,-18.78912],[-26,-18.5533],[-25.5,-18.31784],[-25,-18.08278],[-24.5,-17.84815],[-24,-17.61398],[-23.5,-17.38031],[-23,-17.14715],[-22.5,-16.91453],[-22,-16.68249],[-21.5,-16.45104],[-21,-16.22022],[-20.5,-15.99004],[-20,-15.76053],[-19.5,-15.53171],[-19,-15.3036],[-18.5,-15.07623],[-18,-14.84961],[-17.5,-14.62376],[-17,-14.3987],[-16.5,-14.17445],[-16,-13.95102],[-15.5,-13.72843],[-15,-13.5067],[-14.5625,-13.3134]]}}],"attribution":"Eclipse Predictions by Fred Espenak and Jean Meeus (NASA's GSFC)","generated_at":"2026-09-23T03:35:40.962Z"}
