{"type":"FeatureCollection","year":1029,"events":[{"id":"+10290318","year":1029,"month":3,"day":18,"time_tdt":"00:14:06","type":"금환일식","type_code":"A","saros":104,"gamma":-0.20641,"magnitude":0.93418,"greatest":{"lat":-10.23172,"lng":-172.28168},"path_width_km":250.4,"duration":"08m32s","delta_t_seconds":1406.8,"catalog_number":7192,"source":"NASA Five Millennium Canon of Solar Eclipses","source_url":"https://eclipse.gsfc.nasa.gov/SEsearch/SEsearchmap.php?Ecl=%2B10290318"},{"id":"+10290911","year":1029,"month":9,"day":11,"time_tdt":"00:29:28","type":"개기일식","type_code":"T","saros":109,"gamma":0.14221,"magnitude":1.05665,"greatest":{"lat":10.43969,"lng":179.60767},"path_width_km":188.6,"duration":"05m07s","delta_t_seconds":1404.3,"catalog_number":7193,"source":"NASA Five Millennium Canon of Solar Eclipses","source_url":"https://eclipse.gsfc.nasa.gov/SEsearch/SEsearchmap.php?Ecl=%2B10290911"}],"features":[{"type":"Feature","id":"+10290318:north:0","properties":{"id":"+10290318","year":1029,"month":3,"day":18,"time_tdt":"00:14:06","type":"금환일식","type_code":"A","saros":104,"gamma":-0.20641,"magnitude":0.93418,"greatest":{"lat":-10.23172,"lng":-172.28168},"path_width_km":250.4,"duration":"08m32s","delta_t_seconds":1406.8,"catalog_number":7192,"source":"NASA Five Millennium Canon of Solar Eclipses","source_url":"https://eclipse.gsfc.nasa.gov/SEsearch/SEsearchmap.php?Ecl=%2B10290318","boundary":"north","name":"1029-03-18 금환일식"},"geometry":{"type":"LineString","coordinates":[[123.89062,-28.44623],[124,-28.44446],[124.5,-28.43562],[125,-28.42553],[125.5,-28.41419],[126,-28.40157],[126.5,-28.38766],[127,-28.37246],[127.5,-28.35594],[128,-28.33809],[128.5,-28.31889],[129,-28.29834],[129.5,-28.27641],[130,-28.25308],[130.5,-28.22835],[131,-28.2022],[131.5,-28.1746],[132,-28.14555],[132.5,-28.11503],[133,-28.08301],[133.5,-28.04948],[134,-28.01442],[134.5,-27.97781],[135,-27.93964],[135.5,-27.89989],[136,-27.85852],[136.5,-27.81553],[137,-27.7709],[137.5,-27.7246],[138,-27.67661],[138.5,-27.6269],[139,-27.57547],[139.5,-27.52228],[140,-27.46731],[140.5,-27.41054],[141,-27.35194],[141.5,-27.29149],[142,-27.22916],[142.5,-27.16493],[143,-27.09877],[143.5,-27.03065],[144,-26.96055],[144.5,-26.88844],[145,-26.81429],[145.5,-26.73806],[146,-26.65974],[146.5,-26.57929],[147,-26.49667],[147.5,-26.41186],[148,-26.32483],[148.5,-26.23553],[149,-26.14394],[149.5,-26.05002],[150,-25.95374],[150.5,-25.85505],[151,-25.75392],[151.5,-25.65032],[152,-25.5442],[152.5,-25.43553],[153,-25.32426],[153.5,-25.21035],[154,-25.09377],[154.5,-24.97445],[155,-24.85238],[155.5,-24.72749],[156,-24.59974],[156.5,-24.46908],[157,-24.33547],[157.5,-24.19886],[158,-24.0592],[158.5,-23.91644],[159,-23.77052],[159.5,-23.6214],[160,-23.46902],[160.5,-23.31333],[161,-23.15427],[161.5,-22.99178],[162,-22.82582],[162.5,-22.65633],[163,-22.48324],[163.5,-22.3065],[164,-22.12606],[164.5,-21.94185],[165,-21.75381],[165.5,-21.56189],[166,-21.36603],[166.5,-21.16618],[167,-20.96226],[167.5,-20.75424],[168,-20.54205],[168.5,-20.32563],[169,-20.10494],[169.5,-19.87992],[170,-19.65054],[170.5,-19.41673],[171,-19.17846],[171.5,-18.93569],[172,-18.68839],[172.5,-18.43652],[173,-18.18006],[173.5,-17.91899],[174,-17.65331],[174.5,-17.38299],[175,-17.10806],[175.5,-16.82853],[176,-16.5444],[176.5,-16.25572],[177,-15.96254],[177.5,-15.66491],[178,-15.36289],[178.5,-15.05658],[179,-14.74607],[179.5,-14.43148],[180,-14.11294]]}},{"type":"Feature","id":"+10290318:north:1","properties":{"id":"+10290318","year":1029,"month":3,"day":18,"time_tdt":"00:14:06","type":"금환일식","type_code":"A","saros":104,"gamma":-0.20641,"magnitude":0.93418,"greatest":{"lat":-10.23172,"lng":-172.28168},"path_width_km":250.4,"duration":"08m32s","delta_t_seconds":1406.8,"catalog_number":7192,"source":"NASA Five Millennium Canon of Solar Eclipses","source_url":"https://eclipse.gsfc.nasa.gov/SEsearch/SEsearchmap.php?Ecl=%2B10290318","boundary":"north","name":"1029-03-18 금환일식"},"geometry":{"type":"LineString","coordinates":[[-179.5,-13.7906],[-179,-13.46462],[-178.5,-13.13519],[-178,-12.8025],[-177.5,-12.46677],[-177,-12.12825],[-176.5,-11.78719],[-176,-11.44384],[-175.5,-11.0985],[-175,-10.75148],[-174.5,-10.40307],[-174,-10.05361],[-173.5,-9.70343],[-173,-9.35287],[-172.5,-9.00227],[-172,-8.65198],[-171.5,-8.30237],[-171,-7.95376],[-170.5,-7.60652],[-170,-7.26097],[-169.5,-6.91745],[-169,-6.57628],[-168.5,-6.23777],[-168,-5.90221],[-167.5,-5.56987],[-167,-5.24103],[-166.5,-4.91592],[-166,-4.59478],[-165.5,-4.2778],[-165,-3.96518],[-164.5,-3.65709],[-164,-3.35368],[-163.5,-3.05508],[-163,-2.76141],[-162.5,-2.47276],[-162,-2.18922],[-161.5,-1.91086],[-161,-1.63771],[-160.5,-1.36982],[-160,-1.10722],[-159.5,-0.84992],[-159,-0.59791],[-158.5,-0.35119],[-158,-0.10974],[-157.5,0.12646],[-157,0.35745],[-156.5,0.58327],[-156,0.80396],[-155.5,1.01958],[-155,1.23018],[-154.5,1.43581],[-154,1.63655],[-153.5,1.83246],[-153,2.02361],[-152.5,2.21006],[-152,2.39188],[-151.5,2.56916],[-151,2.74195],[-150.5,2.91034],[-150,3.0744],[-149.5,3.2342],[-149,3.38982],[-148.5,3.54133],[-148,3.68881],[-147.5,3.83232],[-147,3.97193],[-146.5,4.10773],[-146,4.23977],[-145.5,4.36813],[-145,4.49288],[-144.5,4.61408],[-144,4.7318],[-143.5,4.8461],[-143,4.95705],[-142.5,5.06471],[-142,5.16913],[-141.5,5.27039],[-141,5.36854],[-140.5,5.46363],[-140,5.55572],[-139.5,5.64487],[-139,5.73113],[-138.5,5.81456],[-138,5.8952],[-137.5,5.9731],[-137,6.04832],[-136.5,6.1209],[-136,6.1909],[-135.5,6.25834],[-135,6.32329],[-134.5,6.38578],[-134,6.44586],[-133.5,6.50357],[-133,6.55895],[-132.5,6.61204],[-132,6.66288],[-131.5,6.7115],[-131,6.75795],[-130.5,6.80226],[-130,6.84446],[-129.5,6.8846],[-129,6.9227],[-128.5,6.9588],[-128,6.99293],[-127.5,7.02513],[-127,7.05542],[-126.5,7.08383],[-126,7.1104],[-125.5,7.13515],[-125,7.15811],[-124.5,7.17931],[-124,7.19877],[-123.5,7.21653],[-123,7.23261],[-122.5,7.24704],[-122,7.25983],[-121.5,7.27102],[-121,7.28062],[-120.5,7.28867],[-120,7.29518],[-119.5,7.30018],[-119,7.30368],[-118.5,7.30572],[-118,7.30631],[-117.5,7.30547],[-117,7.30322],[-116.5,7.29959],[-116,7.29459],[-115.5,7.28824],[-115.03516,7.28114]]}},{"type":"Feature","id":"+10290318:center:0","properties":{"id":"+10290318","year":1029,"month":3,"day":18,"time_tdt":"00:14:06","type":"금환일식","type_code":"A","saros":104,"gamma":-0.20641,"magnitude":0.93418,"greatest":{"lat":-10.23172,"lng":-172.28168},"path_width_km":250.4,"duration":"08m32s","delta_t_seconds":1406.8,"catalog_number":7192,"source":"NASA Five Millennium Canon of Solar Eclipses","source_url":"https://eclipse.gsfc.nasa.gov/SEsearch/SEsearchmap.php?Ecl=%2B10290318","boundary":"center","name":"1029-03-18 금환일식"},"geometry":{"type":"LineString","coordinates":[[123.81114,-29.85423],[124,-29.83628],[124.5,-29.82511],[125,-29.8127],[125.5,-29.79903],[126,-29.7841],[126.5,-29.76789],[127,-29.75038],[127.5,-29.73156],[128,-29.71143],[128.5,-29.68995],[129,-29.66712],[129.5,-29.64293],[130,-29.61735],[130.5,-29.59037],[131,-29.56198],[131.5,-29.53216],[132,-29.5009],[132.5,-29.46817],[133,-29.43396],[133.5,-29.39825],[134,-29.36102],[134.5,-29.32227],[135,-29.28196],[135.5,-29.24008],[136,-29.19661],[136.5,-29.15153],[137,-29.10482],[137.5,-29.05646],[138,-29.00643],[138.5,-28.95471],[139,-28.90128],[139.5,-28.84611],[140,-28.78918],[140.5,-28.73048],[141,-28.66997],[141.5,-28.60763],[142,-28.54344],[142.5,-28.47737],[143,-28.4094],[143.5,-28.3395],[144,-28.26764],[144.5,-28.1938],[145,-28.11795],[145.5,-28.04007],[146,-27.96011],[146.5,-27.87806],[147,-27.79389],[147.5,-27.70755],[148,-27.61902],[148.5,-27.52828],[149,-27.43528],[149.5,-27.33999],[150,-27.24238],[150.5,-27.14241],[151,-27.04004],[151.5,-26.93525],[152,-26.82799],[152.5,-26.71822],[153,-26.60591],[153.5,-26.49102],[154,-26.3735],[154.5,-26.25331],[155,-26.13041],[155.5,-26.00476],[156,-25.87632],[156.5,-25.74503],[157,-25.61086],[157.5,-25.47375],[158,-25.33366],[158.5,-25.19054],[159,-25.04434],[159.5,-24.89501],[160,-24.7425],[160.5,-24.58676],[161,-24.42774],[161.5,-24.26538],[162,-24.09962],[162.5,-23.93042],[163,-23.75772],[163.5,-23.58147],[164,-23.4016],[164.5,-23.21807],[165,-23.03081],[165.5,-22.83977],[166,-22.64489],[166.5,-22.44612],[167,-22.2434],[167.5,-22.03668],[168,-21.8259],[168.5,-21.61101],[169,-21.39196],[169.5,-21.16869],[170,-20.94117],[170.5,-20.70933],[171,-20.47315],[171.5,-20.23258],[172,-19.98759],[172.5,-19.73814],[173,-19.4842],[173.5,-19.22576],[174,-18.9628],[174.5,-18.6953],[175,-18.42328],[175.5,-18.14673],[176,-17.86566],[176.5,-17.58012],[177,-17.29012],[177.5,-16.99571],[178,-16.69696],[178.5,-16.39394],[179,-16.08673],[179.5,-15.77543],[180,-15.46017]]}},{"type":"Feature","id":"+10290318:center:1","properties":{"id":"+10290318","year":1029,"month":3,"day":18,"time_tdt":"00:14:06","type":"금환일식","type_code":"A","saros":104,"gamma":-0.20641,"magnitude":0.93418,"greatest":{"lat":-10.23172,"lng":-172.28168},"path_width_km":250.4,"duration":"08m32s","delta_t_seconds":1406.8,"catalog_number":7192,"source":"NASA Five Millennium Canon of Solar Eclipses","source_url":"https://eclipse.gsfc.nasa.gov/SEsearch/SEsearchmap.php?Ecl=%2B10290318","boundary":"center","name":"1029-03-18 금환일식"},"geometry":{"type":"LineString","coordinates":[[-179.5,-15.14106],[-179,-14.81826],[-178.5,-14.49194],[-178,-14.16227],[-177.5,-13.82947],[-177,-13.49373],[-176.5,-13.15531],[-176,-12.81445],[-175.5,-12.47142],[-175,-12.12651],[-174.5,-11.78],[-174,-11.43222],[-173.5,-11.08348],[-173,-10.73412],[-172.5,-10.38447],[-172,-10.03487],[-171.5,-9.68568],[-171,-9.33724],[-170.5,-8.9899],[-170,-8.64401],[-169.5,-8.29989],[-169,-7.95787],[-168.5,-7.61829],[-168,-7.28143],[-167.5,-6.9476],[-167,-6.61708],[-166.5,-6.29011],[-166,-5.96696],[-165.5,-5.64783],[-165,-5.33294],[-164.5,-5.02248],[-164,-4.71661],[-163.5,-4.41549],[-163,-4.11925],[-162.5,-3.828],[-162,-3.54183],[-161.5,-3.26084],[-161,-2.98508],[-160.5,-2.71459],[-160,-2.44943],[-159.5,-2.18961],[-159,-1.93514],[-158.5,-1.68602],[-158,-1.44224],[-157.5,-1.20379],[-157,-0.97063],[-156.5,-0.74272],[-156,-0.52004],[-155.5,-0.30252],[-155,-0.09012],[-154.5,0.11721],[-154,0.31955],[-153.5,0.51696],[-153,0.7095],[-152.5,0.89724],[-152,1.08025],[-151.5,1.25861],[-151,1.43239],[-150.5,1.60166],[-150,1.7665],[-149.5,1.92699],[-149,2.0832],[-148.5,2.23521],[-148,2.38308],[-147.5,2.5269],[-147,2.66674],[-146.5,2.80267],[-146,2.93477],[-145.5,3.0631],[-145,3.18773],[-144.5,3.30874],[-144,3.42619],[-143.5,3.54015],[-143,3.65069],[-142.5,3.75787],[-142,3.86175],[-141.5,3.96239],[-141,4.05986],[-140.5,4.15421],[-140,4.2455],[-139.5,4.3338],[-139,4.41915],[-138.5,4.50161],[-138,4.58124],[-137.5,4.65807],[-137,4.73218],[-136.5,4.8036],[-136,4.87239],[-135.5,4.93859],[-135,5.00225],[-134.5,5.06341],[-134,5.12212],[-133.5,5.17842],[-133,5.23236],[-132.5,5.28397],[-132,5.33329],[-131.5,5.38037],[-131,5.42525],[-130.5,5.46796],[-130,5.50853],[-129.5,5.54701],[-129,5.58343],[-128.5,5.61782],[-128,5.65022],[-127.5,5.68066],[-127,5.70917],[-126.5,5.73578],[-126,5.76053],[-125.5,5.78344],[-125,5.80454],[-124.5,5.82387],[-124,5.84144],[-123.5,5.85729],[-123,5.87145],[-122.5,5.88393],[-122,5.89478],[-121.5,5.904],[-121,5.91163],[-120.5,5.91769],[-120,5.9222],[-119.5,5.92518],[-119,5.92667],[-118.5,5.92668],[-118,5.92523],[-117.5,5.92234],[-117,5.91804],[-116.5,5.91235],[-116,5.90528],[-115.5,5.89686],[-115,5.88709],[-114.932,5.88554]]}},{"type":"Feature","id":"+10290318:south:0","properties":{"id":"+10290318","year":1029,"month":3,"day":18,"time_tdt":"00:14:06","type":"금환일식","type_code":"A","saros":104,"gamma":-0.20641,"magnitude":0.93418,"greatest":{"lat":-10.23172,"lng":-172.28168},"path_width_km":250.4,"duration":"08m32s","delta_t_seconds":1406.8,"catalog_number":7192,"source":"NASA Five Millennium Canon of Solar Eclipses","source_url":"https://eclipse.gsfc.nasa.gov/SEsearch/SEsearchmap.php?Ecl=%2B10290318","boundary":"south","name":"1029-03-18 금환일식"},"geometry":{"type":"LineString","coordinates":[[124,-31.23386],[124.5,-31.22037],[125,-31.20564],[125.5,-31.18966],[126,-31.17243],[126.5,-31.15392],[127,-31.13412],[127.5,-31.11302],[128,-31.0906],[128.5,-31.06685],[129,-31.04176],[129.5,-31.01531],[130,-30.98749],[130.5,-30.95828],[131,-30.92767],[131.5,-30.89564],[132,-30.86217],[132.5,-30.82725],[133,-30.79086],[133.5,-30.75299],[134,-30.71361],[134.5,-30.67272],[135,-30.63029],[135.5,-30.5863],[136,-30.54074],[136.5,-30.49358],[137,-30.44482],[137.5,-30.39442],[138,-30.34236],[138.5,-30.28864],[139,-30.23322],[139.5,-30.17609],[140,-30.11722],[140.5,-30.0566],[141,-29.99419],[141.5,-29.92998],[142,-29.86394],[142.5,-29.79605],[143,-29.72628],[143.5,-29.65461],[144,-29.58102],[144.5,-29.50547],[145,-29.42794],[145.5,-29.3484],[146,-29.26683],[146.5,-29.18319],[147,-29.09746],[147.5,-29.00961],[148,-28.91961],[148.5,-28.82742],[149,-28.73302],[149.5,-28.63637],[150,-28.53744],[150.5,-28.43619],[151,-28.3326],[151.5,-28.22662],[152,-28.11822],[152.5,-28.00737],[153,-27.89402],[153.5,-27.77814],[154,-27.65968],[154.5,-27.53862],[155,-27.4149],[155.5,-27.28849],[156,-27.15934],[156.5,-27.02741],[157,-26.89266],[157.5,-26.75505],[158,-26.61452],[158.5,-26.47103],[159,-26.32453],[159.5,-26.17497],[160,-26.02232],[160.5,-25.8665],[161,-25.70749],[161.5,-25.54522],[162,-25.37964],[162.5,-25.21071],[163,-25.03836],[163.5,-24.86255],[164,-24.68321],[164.5,-24.50031],[165,-24.31378],[165.5,-24.12357],[166,-23.92962],[166.5,-23.73188],[167,-23.5303],[167.5,-23.32482],[168,-23.11539],[168.5,-22.90196],[169,-22.68448],[169.5,-22.46289],[170,-22.23716],[170.5,-22.00723],[171,-21.77306],[171.5,-21.53462],[172,-21.29185],[172.5,-21.04474],[173,-20.79326],[173.5,-20.53737],[174,-20.27706],[174.5,-20.01231],[175,-19.74313],[175.5,-19.4695],[176,-19.19144],[176.5,-18.90897],[177,-18.62212],[177.5,-18.33091],[178,-18.0354],[178.5,-17.73565],[179,-17.43174],[179.5,-17.12375],[180,-16.81178]]}},{"type":"Feature","id":"+10290318:south:1","properties":{"id":"+10290318","year":1029,"month":3,"day":18,"time_tdt":"00:14:06","type":"금환일식","type_code":"A","saros":104,"gamma":-0.20641,"magnitude":0.93418,"greatest":{"lat":-10.23172,"lng":-172.28168},"path_width_km":250.4,"duration":"08m32s","delta_t_seconds":1406.8,"catalog_number":7192,"source":"NASA Five Millennium Canon of Solar Eclipses","source_url":"https://eclipse.gsfc.nasa.gov/SEsearch/SEsearchmap.php?Ecl=%2B10290318","boundary":"south","name":"1029-03-18 금환일식"},"geometry":{"type":"LineString","coordinates":[[-179.5,-16.49595],[-179,-16.17639],[-178.5,-15.85326],[-178,-15.52671],[-177.5,-15.19692],[-177,-14.86411],[-176.5,-14.52848],[-176,-14.19028],[-175.5,-13.84974],[-175,-13.50714],[-174.5,-13.16275],[-174,-12.81688],[-173.5,-12.46983],[-173,-12.12192],[-172.5,-11.77348],[-172,-11.42484],[-171.5,-11.07635],[-171,-10.72836],[-170.5,-10.3812],[-170,-10.03522],[-169.5,-9.69076],[-169,-9.34816],[-168.5,-9.00775],[-168,-8.66984],[-167.5,-8.33473],[-167,-8.00272],[-166.5,-7.67408],[-166,-7.34907],[-165.5,-7.02794],[-165,-6.71091],[-164.5,-6.39818],[-164,-6.08995],[-163.5,-5.78637],[-163,-5.48761],[-162.5,-5.19378],[-162,-4.90501],[-161.5,-4.62139],[-161,-4.34299],[-160.5,-4.06989],[-160,-3.80212],[-159.5,-3.53973],[-159,-3.28274],[-158.5,-3.03115],[-158,-2.78497],[-157.5,-2.54418],[-157,-2.30875],[-156.5,-2.07867],[-156,-1.8539],[-155.5,-1.63438],[-155,-1.42008],[-154.5,-1.21094],[-154,-1.00689],[-153.5,-0.80788],[-153,-0.61384],[-152.5,-0.42471],[-152,-0.2404],[-151.5,-0.06085],[-151,0.11402],[-150.5,0.28428],[-150,0.45],[-149.5,0.61128],[-149,0.76817],[-148.5,0.92076],[-148,1.06913],[-147.5,1.21335],[-147,1.3535],[-146.5,1.48965],[-146,1.62188],[-145.5,1.75026],[-145,1.87486],[-144.5,1.99575],[-144,2.11301],[-143.5,2.2267],[-143,2.33689],[-142.5,2.44365],[-142,2.54704],[-141.5,2.64713],[-141,2.74398],[-140.5,2.83765],[-140,2.92821],[-139.5,3.0157],[-139,3.10019],[-138.5,3.18173],[-138,3.26039],[-137.5,3.33621],[-137,3.40924],[-136.5,3.47954],[-136,3.54716],[-135.5,3.61215],[-135,3.67456],[-134.5,3.73442],[-134,3.7918],[-133.5,3.84672],[-133,3.89925],[-132.5,3.94941],[-132,3.99726],[-131.5,4.04283],[-131,4.08615],[-130.5,4.12728],[-130,4.16625],[-129.5,4.2031],[-129,4.23785],[-128.5,4.27056],[-128,4.30124],[-127.5,4.32994],[-127,4.35669],[-126.5,4.38153],[-126,4.40447],[-125.5,4.42556],[-125,4.44482],[-124.5,4.46229],[-124,4.47799],[-123.5,4.49195],[-123,4.50419],[-122.5,4.51475],[-122,4.52366],[-121.5,4.53093],[-121,4.53659],[-120.5,4.54067],[-120,4.5432],[-119.5,4.54418],[-119,4.54366],[-118.5,4.54165],[-118,4.53817],[-117.5,4.53325],[-117,4.5269],[-116.5,4.51916],[-116,4.51003],[-115.5,4.49954],[-115,4.4877],[-114.8125,4.48292]]}},{"type":"Feature","id":"+10290911:north:0","properties":{"id":"+10290911","year":1029,"month":9,"day":11,"time_tdt":"00:29:28","type":"개기일식","type_code":"T","saros":109,"gamma":0.14221,"magnitude":1.05665,"greatest":{"lat":10.43969,"lng":179.60767},"path_width_km":188.6,"duration":"05m07s","delta_t_seconds":1404.3,"catalog_number":7193,"source":"NASA Five Millennium Canon of Solar Eclipses","source_url":"https://eclipse.gsfc.nasa.gov/SEsearch/SEsearchmap.php?Ecl=%2B10290911","boundary":"north","name":"1029-09-11 개기일식"},"geometry":{"type":"LineString","coordinates":[[111.35742,26.64512],[111.5,26.65223],[112,26.67644],[112.5,26.6995],[113,26.72139],[113.5,26.74211],[114,26.76164],[114.5,26.77997],[115,26.79709],[115.5,26.81298],[116,26.82764],[116.5,26.84104],[117,26.85318],[117.5,26.86405],[118,26.87362],[118.5,26.88189],[119,26.88884],[119.5,26.89445],[120,26.89872],[120.5,26.90163],[121,26.90316],[121.5,26.90331],[122,26.90204],[122.5,26.89936],[123,26.89524],[123.5,26.88966],[124,26.88262],[124.5,26.8741],[125,26.86407],[125.5,26.85252],[126,26.83944],[126.5,26.82481],[127,26.80861],[127.5,26.79082],[128,26.77143],[128.5,26.75041],[129,26.72775],[129.5,26.70343],[130,26.67743],[130.5,26.64973],[131,26.62031],[131.5,26.58915],[132,26.55623],[132.5,26.52153],[133,26.48502],[133.5,26.4467],[134,26.40652],[134.5,26.36448],[135,26.32055],[135.5,26.2747],[136,26.22692],[136.5,26.17717],[137,26.12545],[137.5,26.07171],[138,26.01594],[138.5,25.9581],[139,25.89819],[139.5,25.83616],[140,25.77199],[140.5,25.70566],[141,25.63714],[141.5,25.56639],[142,25.4934],[142.5,25.41813],[143,25.34055],[143.5,25.26064],[144,25.17836],[144.5,25.09368],[145,25.00657],[145.5,24.91701],[146,24.82495],[146.5,24.73037],[147,24.63324],[147.5,24.53351],[148,24.43117],[148.5,24.32616],[149,24.21847],[149.5,24.10805],[150,23.99486],[150.5,23.87889],[151,23.76008],[151.5,23.6384],[152,23.51382],[152.5,23.3863],[153,23.25581],[153.5,23.1223],[154,22.98574],[154.5,22.8461],[155,22.70333],[155.5,22.55741],[156,22.40829],[156.5,22.25593],[157,22.10031],[157.5,21.94139],[158,21.77913],[158.5,21.6135],[159,21.44446],[159.5,21.27198],[160,21.09604],[160.5,20.91659],[161,20.73362],[161.5,20.54709],[162,20.35698],[162.5,20.16326],[163,19.96591],[163.5,19.76492],[164,19.56025],[164.5,19.35191],[165,19.13988],[165.5,18.92415],[166,18.70471],[166.5,18.48156],[167,18.25471],[167.5,18.02416],[168,17.78993],[168.5,17.55203],[169,17.31049],[169.5,17.06533],[170,16.81658],[170.5,16.56428],[171,16.30849],[171.5,16.04925],[172,15.78663],[172.5,15.52068],[173,15.25149],[173.5,14.97913],[174,14.7037],[174.5,14.4253],[175,14.14403],[175.5,13.85999],[176,13.57333],[176.5,13.28415],[177,12.99261],[177.5,12.69884],[178,12.403],[178.5,12.10524],[179,11.80574],[179.5,11.50465],[180,11.20217]]}},{"type":"Feature","id":"+10290911:north:1","properties":{"id":"+10290911","year":1029,"month":9,"day":11,"time_tdt":"00:29:28","type":"개기일식","type_code":"T","saros":109,"gamma":0.14221,"magnitude":1.05665,"greatest":{"lat":10.43969,"lng":179.60767},"path_width_km":188.6,"duration":"05m07s","delta_t_seconds":1404.3,"catalog_number":7193,"source":"NASA Five Millennium Canon of Solar Eclipses","source_url":"https://eclipse.gsfc.nasa.gov/SEsearch/SEsearchmap.php?Ecl=%2B10290911","boundary":"north","name":"1029-09-11 개기일식"},"geometry":{"type":"LineString","coordinates":[[-179.5,10.89846],[-179,10.59372],[-178.5,10.28814],[-178,9.9819],[-177.5,9.67521],[-177,9.36825],[-176.5,9.06124],[-176,8.75435],[-175.5,8.44779],[-175,8.14176],[-174.5,7.83644],[-174,7.53202],[-173.5,7.22869],[-173,6.92663],[-172.5,6.62601],[-172,6.32701],[-171.5,6.02978],[-171,5.73449],[-170.5,5.44128],[-170,5.15029],[-169.5,4.86167],[-169,4.57554],[-168.5,4.29201],[-168,4.0112],[-167.5,3.73322],[-167,3.45816],[-166.5,3.18611],[-166,2.91714],[-165.5,2.65134],[-165,2.38876],[-164.5,2.12948],[-164,1.87353],[-163.5,1.62097],[-163,1.37183],[-162.5,1.12614],[-162,0.88395],[-161.5,0.64525],[-161,0.41008],[-160.5,0.17845],[-160,-0.04964],[-159.5,-0.27419],[-159,-0.49518],[-158.5,-0.71264],[-158,-0.92657],[-157.5,-1.13697],[-157,-1.34387],[-156.5,-1.54727],[-156,-1.74719],[-155.5,-1.94367],[-155,-2.13671],[-154.5,-2.32635],[-154,-2.51261],[-153.5,-2.69551],[-153,-2.8751],[-152.5,-3.05139],[-152,-3.22442],[-151.5,-3.39423],[-151,-3.56083],[-150.5,-3.72427],[-150,-3.88459],[-149.5,-4.04181],[-149,-4.19596],[-148.5,-4.3471],[-148,-4.49524],[-147.5,-4.64043],[-147,-4.78269],[-146.5,-4.92208],[-146,-5.05861],[-145.5,-5.19233],[-145,-5.32327],[-144.5,-5.45146],[-144,-5.57695],[-143.5,-5.69976],[-143,-5.81993],[-142.5,-5.93749],[-142,-6.05247],[-141.5,-6.16491],[-141,-6.27485],[-140.5,-6.3823],[-140,-6.48732],[-139.5,-6.58992],[-139,-6.69013],[-138.5,-6.788],[-138,-6.88355],[-137.5,-6.9768],[-137,-7.06779],[-136.5,-7.15655],[-136,-7.24311],[-135.5,-7.32749],[-135,-7.40972],[-134.5,-7.48983],[-134,-7.56785],[-133.5,-7.6438],[-133,-7.71771],[-132.5,-7.78961],[-132,-7.85951],[-131.5,-7.92745],[-131,-7.99344],[-130.5,-8.05753],[-130,-8.11971],[-129.5,-8.18003],[-129,-8.2385],[-128.5,-8.29515],[-128,-8.34999],[-127.5,-8.40305],[-127,-8.45435],[-126.5,-8.50392],[-126,-8.55176],[-125.5,-8.59791],[-125,-8.64239],[-124.5,-8.6852],[-124,-8.72638],[-123.5,-8.76593],[-123,-8.80389],[-122.5,-8.84026],[-122,-8.87507],[-121.5,-8.90834],[-121,-8.94007],[-120.5,-8.9703],[-120,-8.99903],[-119.5,-9.02628],[-119,-9.05207],[-118.93555,-9.05529]]}},{"type":"Feature","id":"+10290911:center:0","properties":{"id":"+10290911","year":1029,"month":9,"day":11,"time_tdt":"00:29:28","type":"개기일식","type_code":"T","saros":109,"gamma":0.14221,"magnitude":1.05665,"greatest":{"lat":10.43969,"lng":179.60767},"path_width_km":188.6,"duration":"05m07s","delta_t_seconds":1404.3,"catalog_number":7193,"source":"NASA Five Millennium Canon of Solar Eclipses","source_url":"https://eclipse.gsfc.nasa.gov/SEsearch/SEsearchmap.php?Ecl=%2B10290911","boundary":"center","name":"1029-09-11 개기일식"},"geometry":{"type":"LineString","coordinates":[[111.43759,26.06706],[111.5,26.06775],[112,26.09],[112.5,26.1111],[113,26.13102],[113.5,26.14977],[114,26.16731],[114.5,26.18365],[115,26.19877],[115.5,26.21266],[116,26.22529],[116.5,26.23667],[117,26.24678],[117.5,26.2556],[118,26.26312],[118.5,26.26933],[119,26.27421],[119.5,26.27775],[120,26.27993],[120.5,26.28074],[121,26.28016],[121.5,26.27818],[122,26.27479],[122.5,26.26997],[123,26.26369],[123.5,26.25595],[124,26.24674],[124.5,26.23602],[125,26.2238],[125.5,26.21004],[126,26.19474],[126.5,26.17787],[127,26.15941],[127.5,26.13936],[128,26.11769],[128.5,26.09438],[129,26.06941],[129.5,26.04277],[130,26.01443],[130.5,25.98437],[131,25.95258],[131.5,25.91903],[132,25.8837],[132.5,25.84658],[133,25.80763],[133.5,25.76685],[134,25.72419],[134.5,25.67965],[135,25.6332],[135.5,25.58482],[136,25.53448],[136.5,25.48216],[137,25.42783],[137.5,25.37146],[138,25.31305],[138.5,25.25254],[139,25.18993],[139.5,25.12518],[140,25.05827],[140.5,24.98917],[141,24.91785],[141.5,24.84429],[142,24.76844],[142.5,24.69029],[143,24.60981],[143.5,24.52696],[144,24.44171],[144.5,24.35404],[145,24.2639],[145.5,24.17128],[146,24.07613],[146.5,23.97842],[147,23.87813],[147.5,23.77521],[148,23.66963],[148.5,23.56136],[149,23.45036],[149.5,23.3366],[150,23.22004],[150.5,23.10065],[151,22.97839],[151.5,22.85322],[152,22.72511],[152.5,22.59402],[153,22.45991],[153.5,22.32275],[154,22.1825],[154.5,22.03912],[155,21.89258],[155.5,21.74284],[156,21.58986],[156.5,21.43361],[157,21.27405],[157.5,21.11114],[158,20.94486],[158.5,20.77517],[159,20.60203],[159.5,20.42541],[160,20.24529],[160.5,20.06164],[161,19.87442],[161.5,19.68361],[162,19.48919],[162.5,19.29114],[163,19.08943],[163.5,18.88404],[164,18.67498],[164.5,18.46221],[165,18.24574],[165.5,18.02556],[166,17.80166],[166.5,17.57406],[167,17.34276],[167.5,17.10778],[168,16.86912],[168.5,16.62682],[169,16.3809],[169.5,16.1314],[170,15.87836],[170.5,15.62182],[171,15.36184],[171.5,15.09848],[172,14.83181],[172.5,14.56191],[173,14.28886],[173.5,14.01275],[174,13.73369],[174.5,13.45177],[175,13.16711],[175.5,12.87985],[176,12.5901],[176.5,12.29802],[177,12.00374],[177.5,11.70742],[178,11.40922],[178.5,11.10931],[179,10.80786],[179.5,10.50505],[180,10.20107]]}},{"type":"Feature","id":"+10290911:center:1","properties":{"id":"+10290911","year":1029,"month":9,"day":11,"time_tdt":"00:29:28","type":"개기일식","type_code":"T","saros":109,"gamma":0.14221,"magnitude":1.05665,"greatest":{"lat":10.43969,"lng":179.60767},"path_width_km":188.6,"duration":"05m07s","delta_t_seconds":1404.3,"catalog_number":7193,"source":"NASA Five Millennium Canon of Solar Eclipses","source_url":"https://eclipse.gsfc.nasa.gov/SEsearch/SEsearchmap.php?Ecl=%2B10290911","boundary":"center","name":"1029-09-11 개기일식"},"geometry":{"type":"LineString","coordinates":[[-179.5,9.8961],[-179,9.59033],[-178.5,9.28395],[-178,8.97717],[-177.5,8.67018],[-177,8.36318],[-176.5,8.05636],[-176,7.74992],[-175.5,7.44406],[-175,7.13897],[-174.5,6.83483],[-174,6.53183],[-173.5,6.23016],[-173,5.92997],[-172.5,5.63146],[-172,5.33476],[-171.5,5.04005],[-171,4.74747],[-170.5,4.45716],[-170,4.16926],[-169.5,3.88388],[-169,3.60115],[-168.5,3.32119],[-168,3.04408],[-167.5,2.76992],[-167,2.49881],[-166.5,2.23082],[-166,1.96602],[-165.5,1.70448],[-165,1.44624],[-164.5,1.19138],[-164,0.93991],[-163.5,0.6919],[-163,0.44736],[-162.5,0.20632],[-162,-0.0312],[-161.5,-0.26518],[-161,-0.49561],[-160.5,-0.72249],[-160,-0.94581],[-159.5,-1.16557],[-159,-1.38178],[-158.5,-1.59445],[-158,-1.8036],[-157.5,-2.00922],[-157,-2.21135],[-156.5,-2.41],[-156,-2.60519],[-155.5,-2.79695],[-155,-2.9853],[-154.5,-3.17027],[-154,-3.35189],[-153.5,-3.53018],[-153,-3.70518],[-152.5,-3.87692],[-152,-4.04543],[-151.5,-4.21074],[-151,-4.37289],[-150.5,-4.53191],[-150,-4.68784],[-149.5,-4.84071],[-149,-4.99055],[-148.5,-5.13741],[-148,-5.28131],[-147.5,-5.4223],[-147,-5.5604],[-146.5,-5.69565],[-146,-5.8281],[-145.5,-5.95776],[-145,-6.08469],[-144.5,-6.2089],[-144,-6.33045],[-143.5,-6.44935],[-143,-6.56565],[-142.5,-6.67938],[-142,-6.79057],[-141.5,-6.89925],[-141,-7.00546],[-140.5,-7.10923],[-140,-7.21058],[-139.5,-7.30956],[-139,-7.40619],[-138.5,-7.5005],[-138,-7.59252],[-137.5,-7.68229],[-137,-7.76982],[-136.5,-7.85516],[-136,-7.93832],[-135.5,-8.01934],[-135,-8.09823],[-134.5,-8.17504],[-134,-8.24979],[-133.5,-8.32249],[-133,-8.39318],[-132.5,-8.46189],[-132,-8.52863],[-131.5,-8.59343],[-131,-8.65632],[-130.5,-8.71732],[-130,-8.77646],[-129.5,-8.83375],[-129,-8.88921],[-128.5,-8.94288],[-128,-8.99477],[-127.5,-9.0449],[-127,-9.0933],[-126.5,-9.13998],[-126,-9.18497],[-125.5,-9.22828],[-125,-9.26994],[-124.5,-9.30996],[-124,-9.34836],[-123.5,-9.38517],[-123,-9.4204],[-122.5,-9.45407],[-122,-9.48619],[-121.5,-9.51679],[-121,-9.54588],[-120.5,-9.57347],[-120,-9.5996],[-119.5,-9.62426],[-119.00678,-9.64741]]}},{"type":"Feature","id":"+10290911:south:0","properties":{"id":"+10290911","year":1029,"month":9,"day":11,"time_tdt":"00:29:28","type":"개기일식","type_code":"T","saros":109,"gamma":0.14221,"magnitude":1.05665,"greatest":{"lat":10.43969,"lng":179.60767},"path_width_km":188.6,"duration":"05m07s","delta_t_seconds":1404.3,"catalog_number":7193,"source":"NASA Five Millennium Canon of Solar Eclipses","source_url":"https://eclipse.gsfc.nasa.gov/SEsearch/SEsearchmap.php?Ecl=%2B10290911","boundary":"south","name":"1029-09-11 개기일식"},"geometry":{"type":"LineString","coordinates":[[111.50977,25.48524],[112,25.50511],[112.5,25.52423],[113,25.54217],[113.5,25.55891],[114,25.57445],[114.5,25.58878],[115,25.60188],[115.5,25.61373],[116,25.62433],[116.5,25.63367],[117,25.64172],[117.5,25.64847],[118,25.65392],[118.5,25.65804],[119,25.66082],[119.5,25.66225],[120,25.66232],[120.5,25.661],[121,25.65829],[121.5,25.65417],[122,25.64861],[122.5,25.64162],[123,25.63316],[123.5,25.62323],[124,25.61181],[124.5,25.59888],[125,25.58442],[125.5,25.56842],[126,25.55085],[126.5,25.53171],[127,25.51097],[127.5,25.48862],[128,25.46463],[128.5,25.43899],[129,25.41168],[129.5,25.38267],[130,25.35195],[130.5,25.31951],[131,25.2853],[131.5,25.24933],[132,25.21155],[132.5,25.17196],[133,25.13054],[133.5,25.08725],[134,25.04207],[134.5,24.99499],[135,24.94598],[135.5,24.89501],[136,24.84207],[136.5,24.78712],[137,24.73014],[137.5,24.6711],[138,24.60999],[138.5,24.54677],[139,24.48141],[139.5,24.41389],[140,24.34419],[140.5,24.27226],[141,24.19809],[141.5,24.12165],[142,24.0429],[142.5,23.96181],[143,23.87836],[143.5,23.79252],[144,23.70425],[144.5,23.61352],[145,23.52029],[145.5,23.42455],[146,23.32624],[146.5,23.22535],[147,23.12183],[147.5,23.01565],[148,22.90678],[148.5,22.79518],[149,22.68081],[149.5,22.56365],[150,22.44365],[150.5,22.32077],[151,22.19499],[151.5,22.06626],[152,21.93455],[152.5,21.79982],[153,21.66203],[153.5,21.52114],[154,21.37713],[154.5,21.22994],[155,21.07956],[155.5,20.92593],[156,20.76902],[156.5,20.60879],[157,20.44522],[157.5,20.27827],[158,20.1079],[158.5,19.93407],[159,19.75677],[159.5,19.57595],[160,19.39159],[160.5,19.20367],[161,19.01214],[161.5,18.817],[162,18.61822],[162.5,18.41577],[163,18.20965],[163.5,17.99984],[164,17.78632],[164.5,17.5691],[165,17.34815],[165.5,17.1235],[166,16.89513],[166.5,16.66307],[167,16.42731],[167.5,16.18788],[168,15.94481],[168.5,15.69812],[169,15.44785],[169.5,15.19405],[170,14.93675],[170.5,14.67602],[171,14.41192],[171.5,14.14452],[172,13.8739],[172.5,13.60015],[173,13.32335],[173.5,13.04361],[174,12.76104],[174.5,12.47575],[175,12.18788],[175.5,11.89756],[176,11.60492],[176.5,11.31013],[177,11.01332],[177.5,10.71468],[178,10.41436],[178.5,10.11254],[179,9.8094],[179.5,9.50513],[180,9.19992]]}},{"type":"Feature","id":"+10290911:south:1","properties":{"id":"+10290911","year":1029,"month":9,"day":11,"time_tdt":"00:29:28","type":"개기일식","type_code":"T","saros":109,"gamma":0.14221,"magnitude":1.05665,"greatest":{"lat":10.43969,"lng":179.60767},"path_width_km":188.6,"duration":"05m07s","delta_t_seconds":1404.3,"catalog_number":7193,"source":"NASA Five Millennium Canon of Solar Eclipses","source_url":"https://eclipse.gsfc.nasa.gov/SEsearch/SEsearchmap.php?Ecl=%2B10290911","boundary":"south","name":"1029-09-11 개기일식"},"geometry":{"type":"LineString","coordinates":[[-179.5,8.89396],[-179,8.58744],[-178.5,8.28056],[-178,7.97353],[-177.5,7.66653],[-177,7.35977],[-176.5,7.05344],[-176,6.74774],[-175.5,6.44286],[-175,6.13899],[-174.5,5.83631],[-174,5.53501],[-173.5,5.23525],[-173,4.9372],[-172.5,4.64102],[-172,4.34687],[-171.5,4.0549],[-171,3.76524],[-170.5,3.47803],[-170,3.19339],[-169.5,2.91144],[-169,2.63228],[-168.5,2.35602],[-168,2.08275],[-167.5,1.81254],[-167,1.54549],[-166.5,1.28166],[-166,1.02112],[-165.5,0.76391],[-165,0.51008],[-164.5,0.25968],[-164,0.01275],[-163.5,-0.23069],[-163,-0.47061],[-162.5,-0.70699],[-162,-0.93982],[-161.5,-1.16908],[-161,-1.39478],[-160.5,-1.61692],[-160,-1.83549],[-159.5,-2.05049],[-159,-2.26195],[-158.5,-2.46988],[-158,-2.67428],[-157.5,-2.87518],[-157,-3.07259],[-156.5,-3.26655],[-156,-3.45706],[-155.5,-3.64417],[-155,-3.82789],[-154.5,-4.00826],[-154,-4.1853],[-153.5,-4.35905],[-153,-4.52954],[-152.5,-4.69679],[-152,-4.86085],[-151.5,-5.02175],[-151,-5.17952],[-150.5,-5.3342],[-150,-5.48582],[-149.5,-5.63441],[-149,-5.78002],[-148.5,-5.92268],[-148,-6.06242],[-147.5,-6.19928],[-147,-6.3333],[-146.5,-6.4645],[-146,-6.59293],[-145.5,-6.71862],[-145,-6.84161],[-144.5,-6.96192],[-144,-7.0796],[-143.5,-7.19467],[-143,-7.30718],[-142.5,-7.41715],[-142,-7.52461],[-141.5,-7.6296],[-141,-7.73216],[-140.5,-7.8323],[-140,-7.93007],[-139.5,-8.0255],[-139,-8.11861],[-138.5,-8.20943],[-138,-8.298],[-137.5,-8.38434],[-137,-8.46848],[-136.5,-8.55045],[-136,-8.63027],[-135.5,-8.70799],[-135,-8.78361],[-134.5,-8.85717],[-134,-8.9287],[-133.5,-8.99822],[-133,-9.06575],[-132.5,-9.13132],[-132,-9.19496],[-131.5,-9.25668],[-131,-9.31652],[-130.5,-9.37449],[-130,-9.43062],[-129.5,-9.48492],[-129,-9.53744],[-128.5,-9.58817],[-128,-9.63716],[-127.5,-9.6844],[-127,-9.72994],[-126.5,-9.77378],[-126,-9.81596],[-125.5,-9.85648],[-125,-9.89536],[-124.5,-9.93263],[-124,-9.96831],[-123.5,-10.00241],[-123,-10.03495],[-122.5,-10.06595],[-122,-10.09542],[-121.5,-10.12339],[-121,-10.14987],[-120.5,-10.17488],[-120,-10.19843],[-119.5,-10.22054],[-119.07617,-10.23817]]}}],"attribution":"Eclipse Predictions by Fred Espenak and Jean Meeus (NASA's GSFC)","generated_at":"2026-09-23T03:35:41.206Z"}
