{"type":"FeatureCollection","year":1031,"events":[{"id":"+10310125","year":1031,"month":1,"day":25,"time_tdt":"20:26:16","type":"부분일식","type_code":"P","saros":86,"gamma":1.16064,"magnitude":0.70182,"greatest":{"lat":69.67214,"lng":-148.88531},"path_width_km":0,"duration":"00m00s","delta_t_seconds":1397.3,"catalog_number":7196,"source":"NASA Five Millennium Canon of Solar Eclipses","source_url":"https://eclipse.gsfc.nasa.gov/SEsearch/SEsearchmap.php?Ecl=%2B10310125"},{"id":"+10310722","year":1031,"month":7,"day":22,"time_tdt":"07:27:48","type":"부분일식","type_code":"P","saros":91,"gamma":-1.13689,"magnitude":0.72872,"greatest":{"lat":-69.07543,"lng":52.14722},"path_width_km":0,"duration":"00m00s","delta_t_seconds":1394.8,"catalog_number":7197,"source":"NASA Five Millennium Canon of Solar Eclipses","source_url":"https://eclipse.gsfc.nasa.gov/SEsearch/SEsearchmap.php?Ecl=%2B10310722"}],"features":[],"attribution":"Eclipse Predictions by Fred Espenak and Jean Meeus (NASA's GSFC)","generated_at":"2026-09-23T03:35:41.024Z"}
