{"type":"FeatureCollection","year":1033,"events":[{"id":"+10330104","year":1033,"month":1,"day":4,"time_tdt":"02:54:50","type":"개기일식","type_code":"T","saros":106,"gamma":-0.21217,"magnitude":1.02603,"greatest":{"lat":-34.49652,"lng":145.23401},"path_width_km":90.5,"duration":"02m21s","delta_t_seconds":1387.4,"catalog_number":7200,"source":"NASA Five Millennium Canon of Solar Eclipses","source_url":"https://eclipse.gsfc.nasa.gov/SEsearch/SEsearchmap.php?Ecl=%2B10330104"},{"id":"+10330629","year":1033,"month":6,"day":29,"time_tdt":"11:57:10","type":"금환일식","type_code":"A","saros":111,"gamma":0.39116,"magnitude":0.99283,"greatest":{"lat":46.23605,"lng":6.84882},"path_width_km":27.4,"duration":"00m40s","delta_t_seconds":1385,"catalog_number":7201,"source":"NASA Five Millennium Canon of Solar Eclipses","source_url":"https://eclipse.gsfc.nasa.gov/SEsearch/SEsearchmap.php?Ecl=%2B10330629"},{"id":"+10331224","year":1033,"month":12,"day":24,"time_tdt":"13:51:14","type":"금환일식","type_code":"A","saros":116,"gamma":-0.94181,"magnitude":0.96092,"greatest":{"lat":-85.58012,"lng":-179.64313},"path_width_km":434.5,"duration":"02m24s","delta_t_seconds":1382.5,"catalog_number":7202,"source":"NASA Five Millennium Canon of Solar Eclipses","source_url":"https://eclipse.gsfc.nasa.gov/SEsearch/SEsearchmap.php?Ecl=%2B10331224"}],"features":[{"type":"Feature","id":"+10330104:north:0","properties":{"id":"+10330104","year":1033,"month":1,"day":4,"time_tdt":"02:54:50","type":"개기일식","type_code":"T","saros":106,"gamma":-0.21217,"magnitude":1.02603,"greatest":{"lat":-34.49652,"lng":145.23401},"path_width_km":90.5,"duration":"02m21s","delta_t_seconds":1387.4,"catalog_number":7200,"source":"NASA Five Millennium Canon of Solar Eclipses","source_url":"https://eclipse.gsfc.nasa.gov/SEsearch/SEsearchmap.php?Ecl=%2B10330104","boundary":"north","name":"1033-01-04 개기일식"},"geometry":{"type":"LineString","coordinates":[[74.51172,-13.85052],[75,-14.04835],[75.5,-14.25158],[76,-14.45547],[76.5,-14.66],[77,-14.86515],[77.5,-15.07091],[78,-15.27726],[78.5,-15.48419],[79,-15.69167],[79.5,-15.89968],[80,-16.10822],[80.5,-16.31725],[81,-16.52676],[81.5,-16.73673],[82,-16.94714],[82.5,-17.15796],[83,-17.36916],[83.5,-17.58074],[84,-17.79265],[84.5,-18.00489],[85,-18.21741],[85.5,-18.4302],[86,-18.64322],[86.5,-18.85645],[87,-19.06986],[87.5,-19.28342],[88,-19.4971],[88.5,-19.71086],[89,-19.92469],[89.5,-20.13853],[90,-20.35236],[90.5,-20.56614],[91,-20.77985],[91.5,-20.99343],[92,-21.20687],[92.5,-21.42011],[93,-21.63312],[93.5,-21.84586],[94,-22.05829],[94.5,-22.27037],[95,-22.48207],[95.5,-22.69333],[96,-22.90411],[96.5,-23.11438],[97,-23.32408],[97.5,-23.53318],[98,-23.74162],[98.5,-23.94937],[99,-24.15637],[99.5,-24.36258],[100,-24.56796],[100.5,-24.77245],[101,-24.976],[101.5,-25.17858],[102,-25.38012],[102.5,-25.58058],[103,-25.77991],[103.5,-25.97807],[104,-26.17499],[104.5,-26.37064],[105,-26.56496],[105.5,-26.75789],[106,-26.9494],[106.5,-27.13943],[107,-27.32793],[107.5,-27.51485],[108,-27.70013],[108.5,-27.88374],[109,-28.06562],[109.5,-28.24572],[110,-28.42398],[110.5,-28.60038],[111,-28.77484],[111.5,-28.94733],[112,-29.1178],[112.5,-29.2862],[113,-29.45249],[113.5,-29.61661],[114,-29.77853],[114.5,-29.93819],[115,-30.09556],[115.5,-30.25059],[116,-30.40323],[116.5,-30.55345],[117,-30.70121],[117.5,-30.84645],[118,-30.98914],[118.5,-31.12925],[119,-31.26674],[119.5,-31.40155],[120,-31.53367],[120.5,-31.66305],[121,-31.78966],[121.5,-31.91347],[122,-32.03443],[122.5,-32.15252],[123,-32.2677],[123.5,-32.37995],[124,-32.48923],[124.5,-32.59551],[125,-32.69877],[125.5,-32.79898],[126,-32.8961],[126.5,-32.99012],[127,-33.081],[127.5,-33.16873],[128,-33.25328],[128.5,-33.33462],[129,-33.41273],[129.5,-33.48759],[130,-33.55919],[130.5,-33.62748],[131,-33.69247],[131.5,-33.75413],[132,-33.81243],[132.5,-33.86737],[133,-33.91892],[133.5,-33.96706],[134,-34.01179],[134.5,-34.05308],[135,-34.09092],[135.5,-34.12529],[136,-34.15618],[136.5,-34.18358],[137,-34.20748],[137.5,-34.22785],[138,-34.24469],[138.5,-34.25799],[139,-34.26773],[139.5,-34.2739],[140,-34.2765],[140.5,-34.27551],[141,-34.27093],[141.5,-34.26274],[142,-34.25094],[142.5,-34.23552],[143,-34.21647],[143.5,-34.19379],[144,-34.16747],[144.5,-34.1375],[145,-34.10388],[145.5,-34.0666],[146,-34.02567],[146.5,-33.98107],[147,-33.93281],[147.5,-33.88088],[148,-33.82529],[148.5,-33.76602],[149,-33.70309],[149.5,-33.6365],[150,-33.56624],[150.5,-33.49232],[151,-33.41474],[151.5,-33.33352],[152,-33.24864],[152.5,-33.16014],[153,-33.068],[153.5,-32.97224],[154,-32.87287],[154.5,-32.76991],[155,-32.66336],[155.5,-32.55324],[156,-32.43956],[156.5,-32.32235],[157,-32.20162],[157.5,-32.07739],[158,-31.94968],[158.5,-31.81853],[159,-31.68394],[159.5,-31.54595],[160,-31.40458],[160.5,-31.25987],[161,-31.11185],[161.5,-30.96054],[162,-30.80599],[162.5,-30.64823],[163,-30.48731],[163.5,-30.32325],[164,-30.1561],[164.5,-29.98591],[165,-29.81272],[165.5,-29.63657],[166,-29.45753],[166.5,-29.27563],[167,-29.09093],[167.5,-28.90349],[168,-28.71335],[168.5,-28.52059],[169,-28.32525],[169.5,-28.12739],[170,-27.92708],[170.5,-27.72439],[171,-27.51937],[171.5,-27.31208],[172,-27.10261],[172.5,-26.89101],[173,-26.67735],[173.5,-26.4617],[174,-26.24414],[174.5,-26.02472],[175,-25.80354],[175.5,-25.58064],[176,-25.35612],[176.5,-25.13004],[177,-24.90247],[177.5,-24.67348],[178,-24.44316],[178.5,-24.21157],[179,-23.97878],[179.5,-23.74487],[180,-23.50991]]}},{"type":"Feature","id":"+10330104:north:1","properties":{"id":"+10330104","year":1033,"month":1,"day":4,"time_tdt":"02:54:50","type":"개기일식","type_code":"T","saros":106,"gamma":-0.21217,"magnitude":1.02603,"greatest":{"lat":-34.49652,"lng":145.23401},"path_width_km":90.5,"duration":"02m21s","delta_t_seconds":1387.4,"catalog_number":7200,"source":"NASA Five Millennium Canon of Solar Eclipses","source_url":"https://eclipse.gsfc.nasa.gov/SEsearch/SEsearchmap.php?Ecl=%2B10330104","boundary":"north","name":"1033-01-04 개기일식"},"geometry":{"type":"LineString","coordinates":[[-179.5,-23.27397],[-179,-23.03712],[-178.5,-22.79943],[-178,-22.56098],[-177.5,-22.32182],[-177,-22.08203],[-176.5,-21.84167],[-176,-21.60082],[-175.5,-21.35953],[-175,-21.11787],[-174.5,-20.87591],[-174,-20.6337],[-173.5,-20.3913],[-173,-20.14877],[-172.5,-19.90618],[-172,-19.66357],[-171.5,-19.42101],[-171,-19.17854],[-170.5,-18.93622],[-170,-18.6941],[-169.5,-18.45222],[-169,-18.21065],[-168.5,-17.96941],[-168,-17.72856],[-167.5,-17.48815],[-167,-17.2482],[-166.5,-17.00878],[-166,-16.7699],[-165.5,-16.53162],[-165,-16.29396],[-164.5,-16.05697],[-164,-15.82067],[-163.5,-15.58511],[-163,-15.3503],[-162.5,-15.11629],[-162,-14.88309],[-161.5,-14.65075],[-161,-14.41927],[-160.5,-14.1887],[-160,-13.95905],[-159.5,-13.73034],[-159,-13.5026],[-158.5,-13.27585],[-158,-13.0501],[-157.5,-12.82539],[-157,-12.60171],[-156.5,-12.3791],[-156,-12.15756],[-155.5,-11.93712],[-155,-11.71778],[-154.5,-11.49957],[-154,-11.28248],[-153.5,-11.06654],[-153,-10.85175],[-152.5,-10.63813],[-152,-10.42568],[-151.5,-10.21441],[-151,-10.00434],[-150.5,-9.79547],[-150,-9.5878],[-149.5,-9.38135],[-149,-9.17611],[-148.5,-8.9721],[-148,-8.76932],[-147.69141,-8.64478]]}},{"type":"Feature","id":"+10330104:center:0","properties":{"id":"+10330104","year":1033,"month":1,"day":4,"time_tdt":"02:54:50","type":"개기일식","type_code":"T","saros":106,"gamma":-0.21217,"magnitude":1.02603,"greatest":{"lat":-34.49652,"lng":145.23401},"path_width_km":90.5,"duration":"02m21s","delta_t_seconds":1387.4,"catalog_number":7200,"source":"NASA Five Millennium Canon of Solar Eclipses","source_url":"https://eclipse.gsfc.nasa.gov/SEsearch/SEsearchmap.php?Ecl=%2B10330104","boundary":"center","name":"1033-01-04 개기일식"},"geometry":{"type":"LineString","coordinates":[[74.43157,-13.96695],[74.5,-13.99314],[75,-14.19874],[75.5,-14.40503],[76,-14.61198],[76.5,-14.81958],[77,-15.02782],[77.5,-15.23668],[78,-15.44613],[78.5,-15.65617],[79,-15.86678],[79.5,-16.07793],[80,-16.28961],[80.5,-16.5018],[81,-16.71447],[81.5,-16.9276],[82,-17.14118],[82.5,-17.35517],[83,-17.56956],[83.5,-17.78432],[84,-17.99942],[84.5,-18.21484],[85,-18.43056],[85.5,-18.64653],[86,-18.86274],[86.5,-19.07916],[87,-19.29575],[87.5,-19.51249],[88,-19.72935],[88.5,-19.94628],[89,-20.16326],[89.5,-20.38026],[90,-20.59724],[90.5,-20.81415],[91,-21.03098],[91.5,-21.24768],[92,-21.46421],[92.5,-21.68053],[93,-21.89661],[93.5,-22.1124],[94,-22.32787],[94.5,-22.54296],[95,-22.75765],[95.5,-22.97188],[96,-23.18561],[96.5,-23.3988],[97,-23.6114],[97.5,-23.82337],[98,-24.03466],[98.5,-24.24522],[99,-24.45501],[99.5,-24.66398],[100,-24.87208],[100.5,-25.07926],[101,-25.28548],[101.5,-25.49067],[102,-25.6948],[102.5,-25.89781],[103,-26.09966],[103.5,-26.30029],[104,-26.49965],[104.5,-26.69769],[105,-26.89436],[105.5,-27.08961],[106,-27.28339],[106.5,-27.47565],[107,-27.66633],[107.5,-27.85539],[108,-28.04277],[108.5,-28.22843],[109,-28.41232],[109.5,-28.59438],[110,-28.77456],[110.5,-28.95283],[111,-29.12912],[111.5,-29.3034],[112,-29.4756],[112.5,-29.6457],[113,-29.81363],[113.5,-29.97936],[114,-30.14283],[114.5,-30.30401],[115,-30.46285],[115.5,-30.61931],[116,-30.77334],[116.5,-30.9249],[117,-31.07396],[117.5,-31.22046],[118,-31.36438],[118.5,-31.50568],[119,-31.6443],[119.5,-31.78023],[120,-31.91342],[120.5,-32.04384],[121,-32.17145],[121.5,-32.29623],[122,-32.41813],[122.5,-32.53712],[123,-32.65318],[123.5,-32.76627],[124,-32.87637],[124.5,-32.98345],[125,-33.08747],[125.5,-33.18841],[126,-33.28626],[126.5,-33.38097],[127,-33.47253],[127.5,-33.56091],[128,-33.64608],[128.5,-33.72804],[129,-33.80675],[129.5,-33.8822],[130,-33.95436],[130.5,-34.02321],[131,-34.08874],[131.5,-34.15092],[132,-34.20974],[132.5,-34.26519],[133,-34.31724],[133.5,-34.36587],[134,-34.41109],[134.5,-34.45286],[135,-34.49117],[135.5,-34.52601],[136,-34.55737],[136.5,-34.58523],[137,-34.60958],[137.5,-34.63041],[138,-34.6477],[138.5,-34.66145],[139,-34.67165],[139.5,-34.67828],[140,-34.68133],[140.5,-34.68079],[141,-34.67666],[141.5,-34.66893],[142,-34.65759],[142.5,-34.64263],[143,-34.62404],[143.5,-34.60181],[144,-34.57595],[144.5,-34.54644],[145,-34.51328],[145.5,-34.47647],[146,-34.436],[146.5,-34.39186],[147,-34.34406],[147.5,-34.29259],[148,-34.23745],[148.5,-34.17864],[149,-34.11616],[149.5,-34.05001],[150,-33.98019],[150.5,-33.90671],[151,-33.82956],[151.5,-33.74875],[152,-33.66429],[152.5,-33.57618],[153,-33.48443],[153.5,-33.38905],[154,-33.29004],[154.5,-33.18742],[155,-33.08119],[155.5,-32.97138],[156,-32.858],[156.5,-32.74105],[157,-32.62056],[157.5,-32.49655],[158,-32.36903],[158.5,-32.23804],[159,-32.10358],[159.5,-31.96568],[160,-31.82438],[160.5,-31.6797],[161,-31.53166],[161.5,-31.38031],[162,-31.22567],[162.5,-31.06777],[163,-30.90666],[163.5,-30.74237],[164,-30.57494],[164.5,-30.40442],[165,-30.23085],[165.5,-30.05427],[166,-29.87473],[166.5,-29.69229],[167,-29.50698],[167.5,-29.31887],[168,-29.128],[168.5,-28.93444],[169,-28.73824],[169.5,-28.53947],[170,-28.33817],[170.5,-28.13442],[171,-27.92827],[171.5,-27.71979],[172,-27.50906],[172.5,-27.29612],[173,-27.08106],[173.5,-26.86394],[174,-26.64483],[174.5,-26.42381],[175,-26.20093],[175.5,-25.97629],[176,-25.74994],[176.5,-25.52197],[177,-25.29243],[177.5,-25.06142],[178,-24.829],[178.5,-24.59525],[179,-24.36023],[179.5,-24.12403],[180,-23.88671]]}},{"type":"Feature","id":"+10330104:center:1","properties":{"id":"+10330104","year":1033,"month":1,"day":4,"time_tdt":"02:54:50","type":"개기일식","type_code":"T","saros":106,"gamma":-0.21217,"magnitude":1.02603,"greatest":{"lat":-34.49652,"lng":145.23401},"path_width_km":90.5,"duration":"02m21s","delta_t_seconds":1387.4,"catalog_number":7200,"source":"NASA Five Millennium Canon of Solar Eclipses","source_url":"https://eclipse.gsfc.nasa.gov/SEsearch/SEsearchmap.php?Ecl=%2B10330104","boundary":"center","name":"1033-01-04 개기일식"},"geometry":{"type":"LineString","coordinates":[[-179.5,-23.64835],[-179,-23.40903],[-178.5,-23.1688],[-178,-22.92775],[-177.5,-22.68595],[-177,-22.44345],[-176.5,-22.20034],[-176,-21.95668],[-175.5,-21.71254],[-175,-21.46798],[-174.5,-21.22307],[-174,-20.97787],[-173.5,-20.73244],[-173,-20.48684],[-172.5,-20.24114],[-172,-19.99538],[-171.5,-19.74964],[-171,-19.50396],[-170.5,-19.2584],[-170,-19.01301],[-169.5,-18.76784],[-169,-18.52295],[-168.5,-18.27837],[-168,-18.03416],[-167.5,-17.79036],[-167,-17.54702],[-166.5,-17.30418],[-166,-17.06187],[-165.5,-16.82015],[-165,-16.57904],[-164.5,-16.33859],[-164,-16.09882],[-163.5,-15.85978],[-163,-15.6215],[-162.5,-15.384],[-162,-15.14732],[-161.5,-14.91149],[-161,-14.67653],[-160.5,-14.44247],[-160,-14.20934],[-159.5,-13.97715],[-159,-13.74594],[-158.5,-13.51572],[-158,-13.28652],[-157.5,-13.05835],[-157,-12.83123],[-156.5,-12.60518],[-156,-12.38022],[-155.5,-12.15637],[-155,-11.93363],[-154.5,-11.71202],[-154,-11.49156],[-153.5,-11.27225],[-153,-11.05412],[-152.5,-10.83716],[-152,-10.62139],[-151.5,-10.40683],[-151,-10.19347],[-150.5,-9.98133],[-150,-9.77041],[-149.5,-9.56072],[-149,-9.35227],[-148.5,-9.14506],[-148,-8.9391],[-147.60702,-8.77983]]}},{"type":"Feature","id":"+10330104:south:0","properties":{"id":"+10330104","year":1033,"month":1,"day":4,"time_tdt":"02:54:50","type":"개기일식","type_code":"T","saros":106,"gamma":-0.21217,"magnitude":1.02603,"greatest":{"lat":-34.49652,"lng":145.23401},"path_width_km":90.5,"duration":"02m21s","delta_t_seconds":1387.4,"catalog_number":7200,"source":"NASA Five Millennium Canon of Solar Eclipses","source_url":"https://eclipse.gsfc.nasa.gov/SEsearch/SEsearchmap.php?Ecl=%2B10330104","boundary":"south","name":"1033-01-04 개기일식"},"geometry":{"type":"LineString","coordinates":[[74.36523,-14.08539],[74.5,-14.14151],[75,-14.35018],[75.5,-14.55953],[76,-14.76957],[76.5,-14.98027],[77,-15.19162],[77.5,-15.4036],[78,-15.61619],[78.5,-15.82937],[79,-16.04313],[79.5,-16.25744],[80,-16.47229],[80.5,-16.68766],[81,-16.90351],[81.5,-17.11984],[82,-17.33661],[82.5,-17.5538],[83,-17.7714],[83.5,-17.98936],[84,-18.20767],[84.5,-18.42631],[85,-18.64523],[85.5,-18.86442],[86,-19.08384],[86.5,-19.30346],[87,-19.52326],[87.5,-19.7432],[88,-19.96324],[88.5,-20.18337],[89,-20.40353],[89.5,-20.6237],[90,-20.84383],[90.5,-21.06391],[91,-21.28387],[91.5,-21.50369],[92,-21.72334],[92.5,-21.94275],[93,-22.16191],[93.5,-22.38076],[94,-22.59927],[94.5,-22.81739],[95,-23.03507],[95.5,-23.25228],[96,-23.46896],[96.5,-23.68508],[97,-23.90059],[97.5,-24.11543],[98,-24.32956],[98.5,-24.54294],[99,-24.75552],[99.5,-24.96724],[100,-25.17806],[100.5,-25.38792],[101,-25.59679],[101.5,-25.8046],[102,-26.0113],[102.5,-26.21685],[103,-26.4212],[103.5,-26.62429],[104,-26.82606],[104.5,-27.02648],[105,-27.22549],[105.5,-27.42303],[106,-27.61906],[106.5,-27.81352],[107,-28.00637],[107.5,-28.19754],[108,-28.387],[108.5,-28.57469],[109,-28.76055],[109.5,-28.94455],[110,-29.12662],[110.5,-29.30673],[111,-29.48482],[111.5,-29.66085],[112,-29.83476],[112.5,-30.00651],[113,-30.17606],[113.5,-30.34335],[114,-30.50835],[114.5,-30.67101],[115,-30.83129],[115.5,-30.98914],[116,-31.14452],[116.5,-31.29739],[117,-31.44771],[117.5,-31.59545],[118,-31.74055],[118.5,-31.88299],[119,-32.02273],[119.5,-32.15973],[120,-32.29396],[120.5,-32.42538],[121,-32.55396],[121.5,-32.67966],[122,-32.80246],[122.5,-32.92233],[123,-33.03923],[123.5,-33.15313],[124,-33.26402],[124.5,-33.37185],[125,-33.4766],[125.5,-33.57826],[126,-33.67678],[126.5,-33.77216],[127,-33.86436],[127.5,-33.95336],[128,-34.03914],[128.5,-34.12169],[129,-34.20097],[129.5,-34.27697],[130,-34.34967],[130.5,-34.41905],[131,-34.48509],[131.5,-34.54778],[132,-34.6071],[132.5,-34.66303],[133,-34.71556],[133.5,-34.76467],[134,-34.81034],[134.5,-34.85257],[135,-34.89134],[135.5,-34.92663],[136,-34.95844],[136.5,-34.98674],[137,-35.01154],[137.5,-35.03281],[138,-35.05055],[138.5,-35.06474],[139,-35.07537],[139.5,-35.08244],[140,-35.08594],[140.5,-35.08585],[141,-35.08216],[141.5,-35.07488],[142,-35.06398],[142.5,-35.04947],[143,-35.03134],[143.5,-35.00957],[144,-34.98416],[144.5,-34.95511],[145,-34.92241],[145.5,-34.88606],[146,-34.84605],[146.5,-34.80238],[147,-34.75504],[147.5,-34.70403],[148,-34.64936],[148.5,-34.59101],[149,-34.52898],[149.5,-34.46329],[150,-34.39392],[150.5,-34.32088],[151,-34.24417],[151.5,-34.16379],[152,-34.07975],[152.5,-33.99206],[153,-33.90071],[153.5,-33.80572],[154,-33.70709],[154.5,-33.60483],[155,-33.49896],[155.5,-33.38948],[156,-33.2764],[156.5,-33.15975],[157,-33.03953],[157.5,-32.91577],[158,-32.78847],[158.5,-32.65766],[159,-32.52337],[159.5,-32.3856],[160,-32.2444],[160.5,-32.09978],[161,-31.95177],[161.5,-31.80041],[162,-31.64571],[162.5,-31.48772],[163,-31.32647],[163.5,-31.162],[164,-30.99434],[164.5,-30.82354],[165,-30.64963],[165.5,-30.47266],[166,-30.29268],[166.5,-30.10973],[167,-29.92387],[167.5,-29.73514],[168,-29.54359],[168.5,-29.34929],[169,-29.15229],[169.5,-28.95264],[170,-28.7504],[170.5,-28.54565],[171,-28.33843],[171.5,-28.12881],[172,-27.91686],[172.5,-27.70264],[173,-27.48623],[173.5,-27.26769],[174,-27.04708],[174.5,-26.82449],[175,-26.59998],[175.5,-26.37362],[176,-26.1455],[176.5,-25.91567],[177,-25.68422],[177.5,-25.45122],[178,-25.21674],[178.5,-24.98086],[179,-24.74365],[179.5,-24.50519],[180,-24.26554]]}},{"type":"Feature","id":"+10330104:south:1","properties":{"id":"+10330104","year":1033,"month":1,"day":4,"time_tdt":"02:54:50","type":"개기일식","type_code":"T","saros":106,"gamma":-0.21217,"magnitude":1.02603,"greatest":{"lat":-34.49652,"lng":145.23401},"path_width_km":90.5,"duration":"02m21s","delta_t_seconds":1387.4,"catalog_number":7200,"source":"NASA Five Millennium Canon of Solar Eclipses","source_url":"https://eclipse.gsfc.nasa.gov/SEsearch/SEsearchmap.php?Ecl=%2B10330104","boundary":"south","name":"1033-01-04 개기일식"},"geometry":{"type":"LineString","coordinates":[[-179.5,-24.0248],[-179,-23.78302],[-178.5,-23.54029],[-178,-23.29667],[-177.5,-23.05223],[-177,-22.80706],[-176.5,-22.56121],[-176,-22.31476],[-175.5,-22.06778],[-175,-21.82032],[-174.5,-21.57247],[-174,-21.32429],[-173.5,-21.07583],[-173,-20.82717],[-172.5,-20.57836],[-172,-20.32946],[-171.5,-20.08054],[-171,-19.83164],[-170.5,-19.58284],[-170,-19.33417],[-169.5,-19.0857],[-169,-18.83747],[-168.5,-18.58954],[-168,-18.34196],[-167.5,-18.09476],[-167,-17.848],[-166.5,-17.60173],[-166,-17.35598],[-165.5,-17.11079],[-165,-16.86622],[-164.5,-16.62228],[-164,-16.37903],[-163.5,-16.13649],[-163,-15.8947],[-162.5,-15.65369],[-162,-15.4135],[-161.5,-15.17416],[-161,-14.93569],[-160.5,-14.69812],[-160,-14.46147],[-159.5,-14.22578],[-159,-13.99107],[-158.5,-13.75736],[-158,-13.52466],[-157.5,-13.29301],[-157,-13.06242],[-156.5,-12.83291],[-156,-12.6045],[-155.5,-12.3772],[-155,-12.15103],[-154.5,-11.926],[-154,-11.70213],[-153.5,-11.47944],[-153,-11.25792],[-152.5,-11.0376],[-152,-10.81849],[-151.5,-10.60059],[-151,-10.38392],[-150.5,-10.16848],[-150,-9.95428],[-149.5,-9.74133],[-149,-9.52963],[-148.5,-9.3192],[-148,-9.11003],[-147.53125,-8.91509]]}},{"type":"Feature","id":"+10330629:north:0","properties":{"id":"+10330629","year":1033,"month":6,"day":29,"time_tdt":"11:57:10","type":"금환일식","type_code":"A","saros":111,"gamma":0.39116,"magnitude":0.99283,"greatest":{"lat":46.23605,"lng":6.84882},"path_width_km":27.4,"duration":"00m40s","delta_t_seconds":1385,"catalog_number":7201,"source":"NASA Five Millennium Canon of Solar Eclipses","source_url":"https://eclipse.gsfc.nasa.gov/SEsearch/SEsearchmap.php?Ecl=%2B10330629","boundary":"north","name":"1033-06-29 금환일식"},"geometry":{"type":"LineString","coordinates":[[-66.625,21.26687],[-66.5,21.32024],[-66,21.53442],[-65.5,21.74973],[-65,21.96617],[-64.5,22.18372],[-64,22.40237],[-63.5,22.6221],[-63,22.84291],[-62.5,23.06477],[-62,23.28767],[-61.5,23.5116],[-61,23.73653],[-60.5,23.96246],[-60,24.18934],[-59.5,24.41718],[-59,24.64594],[-58.5,24.8756],[-58,25.10614],[-57.5,25.33754],[-57,25.56976],[-56.5,25.80279],[-56,26.03659],[-55.5,26.27114],[-55,26.5064],[-54.5,26.74234],[-54,26.97894],[-53.5,27.21615],[-53,27.45394],[-52.5,27.69228],[-52,27.93113],[-51.5,28.17044],[-51,28.41019],[-50.5,28.65032],[-50,28.8908],[-49.5,29.13159],[-49,29.37263],[-48.5,29.61389],[-48,29.85531],[-47.5,30.09685],[-47,30.33845],[-46.5,30.58007],[-46,30.82166],[-45.5,31.06317],[-45,31.30453],[-44.5,31.5457],[-44,31.78661],[-43.5,32.02722],[-43,32.26747],[-42.5,32.5073],[-42,32.74664],[-41.5,32.98545],[-41,33.22366],[-40.5,33.46121],[-40,33.69803],[-39.5,33.93408],[-39,34.16928],[-38.5,34.40357],[-38,34.63691],[-37.5,34.86921],[-37,35.10042],[-36.5,35.33048],[-36,35.55933],[-35.5,35.78689],[-35,36.01312],[-34.5,36.23796],[-34,36.46133],[-33.5,36.68319],[-33,36.90347],[-32.5,37.12212],[-32,37.33907],[-31.5,37.55427],[-31,37.76767],[-30.5,37.97922],[-30,38.18884],[-29.5,38.39651],[-29,38.60215],[-28.5,38.80573],[-28,39.0072],[-27.5,39.2065],[-27,39.40359],[-26.5,39.59843],[-26,39.79097],[-25.5,39.98118],[-25,40.169],[-24.5,40.35441],[-24,40.53737],[-23.5,40.71783],[-23,40.89577],[-22.5,41.07115],[-22,41.24394],[-21.5,41.41411],[-21,41.58164],[-20.5,41.74649],[-20,41.90864],[-19.5,42.06807],[-19,42.22476],[-18.5,42.37867],[-18,42.5298],[-17.5,42.67812],[-17,42.82362],[-16.5,42.96628],[-16,43.10609],[-15.5,43.24303],[-15,43.37709],[-14.5,43.50826],[-14,43.63652],[-13.5,43.76187],[-13,43.8843],[-12.5,44.00381],[-12,44.12038],[-11.5,44.234],[-11,44.34468],[-10.5,44.45241],[-10,44.55719],[-9.5,44.65901],[-9,44.75787],[-8.5,44.85376],[-8,44.94669],[-7.5,45.03666],[-7,45.12366],[-6.5,45.20769],[-6,45.28876],[-5.5,45.36686],[-5,45.442],[-4.5,45.51418],[-4,45.58339],[-3.5,45.64964],[-3,45.71294],[-2.5,45.77327],[-2,45.83066],[-1.5,45.88509],[-1,45.93656],[-0.5,45.98509],[0,46.03067],[0.5,46.07331],[1,46.11301],[1.5,46.14976],[2,46.18358],[2.5,46.21446],[3,46.24241],[3.5,46.26742],[4,46.2895],[4.5,46.30866],[5,46.32488],[5.5,46.33819],[6,46.34856],[6.5,46.35601],[7,46.36054],[7.5,46.36215],[8,46.36084],[8.5,46.35661],[9,46.34945],[9.5,46.33938],[10,46.32639],[10.5,46.31048],[11,46.29164],[11.5,46.26989],[12,46.24522],[12.5,46.21762],[13,46.18711],[13.5,46.15367],[14,46.11731],[14.5,46.07803],[15,46.03582],[15.5,45.99069],[16,45.94263],[16.5,45.89164],[17,45.83773],[17.5,45.78088],[18,45.72111],[18.5,45.65841],[19,45.59278],[19.5,45.52422],[20,45.45272],[20.5,45.3783],[21,45.30094],[21.5,45.22066],[22,45.13745],[22.5,45.0513],[23,44.96224],[23.5,44.87024],[24,44.77533],[24.5,44.6775],[25,44.57675],[25.5,44.47309],[26,44.36652],[26.5,44.25705],[27,44.14469],[27.5,44.02943],[28,43.91129],[28.5,43.79028],[29,43.6664],[29.5,43.53966],[30,43.41008],[30.5,43.27767],[31,43.14243],[31.5,43.00438],[32,42.86354],[32.5,42.71993],[33,42.57355],[33.5,42.42443],[34,42.27258],[34.5,42.11803],[35,41.9608],[35.5,41.80091],[36,41.63838],[36.5,41.47325],[37,41.30553],[37.5,41.13526],[38,40.96246],[38.5,40.78718],[39,40.60943],[39.5,40.42925],[40,40.24668],[40.5,40.06175],[41,39.87451],[41.5,39.68499],[42,39.49324],[42.5,39.29928],[43,39.10318],[43.5,38.90497],[44,38.7047],[44.5,38.50241],[45,38.29816],[45.5,38.09199],[46,37.88395],[46.5,37.6741],[47,37.46249],[47.5,37.24916],[48,37.03419],[48.5,36.81761],[49,36.59949],[49.5,36.37988],[50,36.15885],[50.5,35.93643],[51,35.71271],[51.5,35.48773],[52,35.26155],[52.5,35.03423],[53,34.80583],[53.5,34.57641],[54,34.34602],[54.5,34.11474],[55,33.88261],[55.5,33.6497],[56,33.41605],[56.5,33.18174],[57,32.94682],[57.5,32.71135],[58,32.47537],[58.5,32.23896],[59,32.00216],[59.5,31.76502],[60,31.52761],[60.5,31.28998],[61,31.05217],[61.5,30.81424],[62,30.57624],[62.5,30.33821],[63,30.10022],[63.5,29.8623],[64,29.6245],[64.5,29.38686],[65,29.14944],[65.5,28.91227],[66,28.6754],[66.5,28.43886],[67,28.2027],[67.5,27.96695],[68,27.73166],[68.5,27.49685],[69,27.26257],[69.5,27.02885],[70,26.79572],[70.5,26.56321],[71,26.33135],[71.5,26.10018],[72,25.86972],[72.5,25.64],[73,25.41105],[73.5,25.18289],[74,24.95555],[74.5,24.72904],[75,24.5034],[75.5,24.27864],[76,24.05479],[76.5,23.83186],[77,23.60987],[77.5,23.38884],[78,23.1688],[78.5,22.94974],[79,22.7317],[79.5,22.51468],[80,22.29869],[80.5,22.08376],[81,21.8699]]}},{"type":"Feature","id":"+10330629:center:0","properties":{"id":"+10330629","year":1033,"month":6,"day":29,"time_tdt":"11:57:10","type":"금환일식","type_code":"A","saros":111,"gamma":0.39116,"magnitude":0.99283,"greatest":{"lat":46.23605,"lng":6.84882},"path_width_km":27.4,"duration":"00m40s","delta_t_seconds":1385,"catalog_number":7201,"source":"NASA Five Millennium Canon of Solar Eclipses","source_url":"https://eclipse.gsfc.nasa.gov/SEsearch/SEsearchmap.php?Ecl=%2B10330629","boundary":"center","name":"1033-06-29 금환일식"},"geometry":{"type":"LineString","coordinates":[[-66.42858,20.90284],[-66,21.08967],[-65.5,21.3074],[-65,21.52627],[-64.5,21.74629],[-64,21.96743],[-63.5,22.18967],[-63,22.41302],[-62.5,22.63744],[-62,22.86293],[-61.5,23.08947],[-61,23.31704],[-60.5,23.54562],[-60,23.77519],[-59.5,24.00573],[-59,24.23723],[-58.5,24.46965],[-58,24.70297],[-57.5,24.93717],[-57,25.17223],[-56.5,25.40811],[-56,25.64479],[-55.5,25.88224],[-55,26.12042],[-54.5,26.35931],[-54,26.59888],[-53.5,26.83908],[-53,27.07989],[-52.5,27.32126],[-52,27.56317],[-51.5,27.80556],[-51,28.0484],[-50.5,28.29166],[-50,28.53527],[-49.5,28.77921],[-49,29.02343],[-48.5,29.26787],[-48,29.51249],[-47.5,29.75725],[-47,30.00209],[-46.5,30.24696],[-46,30.49181],[-45.5,30.73658],[-45,30.98122],[-44.5,31.22568],[-44,31.46989],[-43.5,31.71381],[-43,31.95737],[-42.5,32.20051],[-42,32.44317],[-41.5,32.6853],[-41,32.92683],[-40.5,33.1677],[-40,33.40784],[-39.5,33.6472],[-39,33.88571],[-38.5,34.12331],[-38,34.35994],[-37.5,34.59552],[-37,34.83001],[-36.5,35.06333],[-36,35.29542],[-35.5,35.52622],[-35,35.75567],[-34.5,35.9837],[-34,36.21025],[-33.5,36.43526],[-33,36.65868],[-32.5,36.88043],[-32,37.10047],[-31.5,37.31873],[-31,37.53516],[-30.5,37.7497],[-30,37.9623],[-29.5,38.1729],[-29,38.38145],[-28.5,38.5879],[-28,38.79219],[-27.5,38.99429],[-27,39.19415],[-26.5,39.39171],[-26,39.58694],[-25.5,39.77979],[-25,39.97021],[-24.5,40.15818],[-24,40.34366],[-23.5,40.5266],[-23,40.70697],[-22.5,40.88474],[-22,41.05988],[-21.5,41.23235],[-21,41.40213],[-20.5,41.56919],[-20,41.73351],[-19.5,41.89505],[-19,42.05381],[-18.5,42.20975],[-18,42.36286],[-17.5,42.51311],[-17,42.6605],[-16.5,42.805],[-16,42.9466],[-15.5,43.08529],[-15,43.22104],[-14.5,43.35387],[-14,43.48374],[-13.5,43.61065],[-13,43.7346],[-12.5,43.85557],[-12,43.97357],[-11.5,44.08858],[-11,44.20059],[-10.5,44.30962],[-10,44.41564],[-9.5,44.51866],[-9,44.61868],[-8.5,44.71569],[-8,44.80969],[-7.5,44.90069],[-7,44.98868],[-6.5,45.07366],[-6,45.15563],[-5.5,45.2346],[-5,45.31056],[-4.5,45.38351],[-4,45.45347],[-3.5,45.52042],[-3,45.58437],[-2.5,45.64533],[-2,45.70329],[-1.5,45.75826],[-1,45.81024],[-0.5,45.85923],[0,45.90524],[0.5,45.94826],[1,45.9883],[1.5,46.02537],[2,46.05946],[2.5,46.09057],[3,46.11871],[3.5,46.14388],[4,46.16609],[4.5,46.18533],[5,46.2016],[5.5,46.21491],[6,46.22526],[6.5,46.23264],[7,46.23707],[7.5,46.23854],[8,46.23705],[8.5,46.2326],[9,46.2252],[9.5,46.21483],[10,46.20151],[10.5,46.18524],[11,46.166],[11.5,46.14381],[12,46.11866],[12.5,46.09055],[13,46.05948],[13.5,46.02545],[14,45.98846],[14.5,45.94851],[15,45.90559],[15.5,45.85971],[16,45.81086],[16.5,45.75905],[17,45.70427],[17.5,45.64651],[18,45.58579],[18.5,45.5221],[19,45.45544],[19.5,45.3858],[20,45.31319],[20.5,45.23761],[21,45.15906],[21.5,45.07754],[22,44.99304],[22.5,44.90557],[23,44.81513],[23.5,44.72172],[24,44.62535],[24.5,44.52601],[25,44.42372],[25.5,44.31846],[26,44.21026],[26.5,44.09911],[27,43.98501],[27.5,43.86798],[28,43.74802],[28.5,43.62514],[29,43.49934],[29.5,43.37065],[30,43.23906],[30.5,43.10459],[31,42.96725],[31.5,42.82706],[32,42.68402],[32.5,42.53816],[33,42.3895],[33.5,42.23804],[34,42.08382],[34.5,41.92685],[35,41.76714],[35.5,41.60474],[36,41.43965],[36.5,41.27191],[37,41.10155],[37.5,40.92859],[38,40.75306],[38.5,40.57499],[39,40.39442],[39.5,40.21139],[40,40.02592],[40.5,39.83806],[41,39.64784],[41.5,39.45531],[42,39.2605],[42.5,39.06347],[43,38.86424],[43.5,38.66288],[44,38.45943],[44.5,38.25393],[45,38.04643],[45.5,37.83699],[46,37.62566],[46.5,37.41249],[47,37.19753],[47.5,36.98084],[48,36.76247],[48.5,36.54249],[49,36.32095],[49.5,36.0979],[50,35.87341],[50.5,35.64753],[51,35.42032],[51.5,35.19185],[52,34.96217],[52.5,34.73135],[53,34.49944],[53.5,34.26651],[54,34.03261],[54.5,33.79781],[55,33.56217],[55.5,33.32574],[56,33.08859],[56.5,32.85078],[57,32.61236],[57.5,32.37339],[58,32.13394],[58.5,31.89405],[59,31.6538],[59.5,31.41322],[60,31.17238],[60.5,30.93132],[61,30.69012],[61.5,30.4488],[62,30.20744],[62.5,29.96607],[63,29.72475],[63.5,29.48353],[64,29.24244],[64.5,29.00155],[65,28.76089],[65.5,28.52051],[66,28.28044],[66.5,28.04074],[67,27.80144],[67.5,27.56258],[68,27.32419],[68.5,27.08633],[69,26.84901],[69.5,26.61228],[70,26.37617],[70.5,26.14071],[71,25.90593],[71.5,25.67186],[72,25.43853],[72.5,25.20597],[73,24.97421],[73.5,24.74326],[74,24.51316],[74.5,24.28393],[75,24.05559],[75.5,23.82816],[76,23.60167],[76.5,23.37612],[77,23.15155],[77.5,22.92797],[78,22.70539],[78.5,22.48383],[79,22.26332],[79.5,22.04385],[80,21.82545],[80.5,21.60813],[80.77217,21.48996]]}},{"type":"Feature","id":"+10330629:south:0","properties":{"id":"+10330629","year":1033,"month":6,"day":29,"time_tdt":"11:57:10","type":"금환일식","type_code":"A","saros":111,"gamma":0.39116,"magnitude":0.99283,"greatest":{"lat":46.23605,"lng":6.84882},"path_width_km":27.4,"duration":"00m40s","delta_t_seconds":1385,"catalog_number":7201,"source":"NASA Five Millennium Canon of Solar Eclipses","source_url":"https://eclipse.gsfc.nasa.gov/SEsearch/SEsearchmap.php?Ecl=%2B10330629","boundary":"south","name":"1033-06-29 금환일식"},"geometry":{"type":"LineString","coordinates":[[-66.16992,20.5695],[-66,20.64405],[-65.5,20.86419],[-65,21.0855],[-64.5,21.30797],[-64,21.53159],[-63.5,21.75634],[-63,21.98222],[-62.5,22.2092],[-62,22.43727],[-61.5,22.66641],[-61,22.89661],[-60.5,23.12784],[-60,23.3601],[-59.5,23.59335],[-59,23.82757],[-58.5,24.06274],[-58,24.29885],[-57.5,24.53585],[-57,24.77374],[-56.5,25.01247],[-56,25.25203],[-55.5,25.49238],[-55,25.73349],[-54.5,25.97533],[-54,26.21787],[-53.5,26.46107],[-53,26.70489],[-52.5,26.9493],[-52,27.19427],[-51.5,27.43975],[-51,27.68569],[-50.5,27.93207],[-50,28.17883],[-49.5,28.42593],[-49,28.67332],[-48.5,28.92097],[-48,29.1688],[-47.5,29.41679],[-47,29.66487],[-46.5,29.913],[-46,30.16112],[-45.5,30.40918],[-45,30.65712],[-44.5,30.90488],[-44,31.15241],[-43.5,31.39964],[-43,31.64653],[-42.5,31.893],[-42,32.139],[-41.5,32.38447],[-41,32.62933],[-40.5,32.87354],[-40,33.11702],[-39.5,33.35972],[-39,33.60156],[-38.5,33.84248],[-38,34.08243],[-37.5,34.32132],[-37,34.5591],[-36.5,34.79571],[-36,35.03107],[-35.5,35.26513],[-35,35.49781],[-34.5,35.72906],[-34,35.95882],[-33.5,36.18701],[-33,36.41358],[-32.5,36.63847],[-32,36.86162],[-31.5,37.08296],[-31,37.30244],[-30.5,37.52001],[-30,37.7356],[-29.5,37.94916],[-29,38.16063],[-28.5,38.36998],[-28,38.57713],[-27.5,38.78205],[-27,38.98469],[-26.5,39.185],[-26,39.38293],[-25.5,39.57844],[-25,39.7715],[-24.5,39.96205],[-24,40.15006],[-23.5,40.3355],[-23,40.51832],[-22.5,40.6985],[-22,40.876],[-21.5,41.05079],[-21,41.22285],[-20.5,41.39213],[-20,41.55863],[-19.5,41.72231],[-19,41.88315],[-18.5,42.04113],[-18,42.19624],[-17.5,42.34844],[-17,42.49772],[-16.5,42.64408],[-16,42.78748],[-15.5,42.92793],[-15,43.0654],[-14.5,43.19988],[-14,43.33138],[-13.5,43.45986],[-13,43.58534],[-12.5,43.70779],[-12,43.82722],[-11.5,43.94362],[-11,44.05698],[-10.5,44.1673],[-10,44.27458],[-9.5,44.37881],[-9,44.48],[-8.5,44.57813],[-8,44.67321],[-7.5,44.76525],[-7,44.85423],[-6.5,44.94016],[-6,45.02304],[-5.5,45.10288],[-5,45.17966],[-4.5,45.25341],[-4,45.3241],[-3.5,45.39176],[-3,45.45637],[-2.5,45.51795],[-2,45.5765],[-1.5,45.63201],[-1,45.6845],[-0.5,45.73395],[0,45.78039],[0.5,45.8238],[1,45.86419],[1.5,45.90156],[2,45.93592],[2.5,45.96727],[3,45.99561],[3.5,46.02094],[4,46.04327],[4.5,46.06259],[5,46.07891],[5.5,46.09223],[6,46.10255],[6.5,46.10987],[7,46.11419],[7.5,46.11552],[8,46.11385],[8.5,46.10919],[9,46.10153],[9.5,46.09088],[10,46.07723],[10.5,46.06059],[11,46.04095],[11.5,46.01832],[12,45.99269],[12.5,45.96406],[13,45.93244],[13.5,45.89781],[14,45.86019],[14.5,45.81956],[15,45.77593],[15.5,45.7293],[16,45.67966],[16.5,45.62701],[17,45.57135],[17.5,45.51269],[18,45.45102],[18.5,45.38633],[19,45.31863],[19.5,45.24792],[20,45.17419],[20.5,45.09745],[21,45.01769],[21.5,44.93491],[22,44.84912],[22.5,44.76032],[23,44.6685],[23.5,44.57367],[24,44.47583],[24.5,44.37498],[25,44.27112],[25.5,44.16427],[26,44.05441],[26.5,43.94156],[27,43.82572],[27.5,43.7069],[28,43.58511],[28.5,43.46035],[29,43.33262],[29.5,43.20195],[30,43.06834],[30.5,42.9318],[31,42.79235],[31.5,42.64999],[32,42.50474],[32.5,42.35663],[33,42.20566],[33.5,42.05185],[34,41.89523],[34.5,41.73581],[35,41.57362],[35.5,41.40867],[36,41.24101],[36.5,41.07064],[37,40.8976],[37.5,40.72193],[38,40.54364],[38.5,40.36277],[39,40.17936],[39.5,39.99344],[40,39.80505],[40.5,39.61422],[41,39.421],[41.5,39.22543],[42,39.02755],[42.5,38.8274],[43,38.62503],[43.5,38.42049],[44,38.21383],[44.5,38.00509],[45,37.79432],[45.5,37.58158],[46,37.36693],[46.5,37.1504],[47,36.93207],[47.5,36.71199],[48,36.49021],[48.5,36.26679],[49,36.0418],[49.5,35.81528],[50,35.58731],[50.5,35.35793],[51,35.12722],[51.5,34.89524],[52,34.66204],[52.5,34.42768],[53,34.19224],[53.5,33.95577],[54,33.71834],[54.5,33.48],[55,33.24082],[55.5,33.00086],[56,32.76018],[56.5,32.51884],[57,32.27691],[57.5,32.03444],[58,31.79149],[58.5,31.54812],[59,31.30438],[59.5,31.06035],[60,30.81606],[60.5,30.57158],[61,30.32696],[61.5,30.08226],[62,29.83752],[62.5,29.5928],[63,29.34814],[63.5,29.1036],[64,28.85923],[64.5,28.61507],[65,28.37117],[65.5,28.12756],[66,27.88431],[66.5,27.64143],[67,27.39899],[67.5,27.15701],[68,26.91554],[68.5,26.67461],[69,26.43426],[69.5,26.19453],[70,25.95544],[70.5,25.71702],[71,25.47932],[71.5,25.24236],[72,25.00617],[72.5,24.77077],[73,24.5362],[73.5,24.30248],[74,24.06963],[74.5,23.83768],[75,23.60665],[75.5,23.37656],[76,23.14743],[76.5,22.91928],[77,22.69214],[77.5,22.466],[78,22.24091],[78.5,22.01686],[79,21.79388],[79.5,21.57198],[80,21.35117],[80.49219,21.13489]]}},{"type":"Feature","id":"+10331224:north:0","properties":{"id":"+10331224","year":1033,"month":12,"day":24,"time_tdt":"13:51:14","type":"금환일식","type_code":"A","saros":116,"gamma":-0.94181,"magnitude":0.96092,"greatest":{"lat":-85.58012,"lng":-179.64313},"path_width_km":434.5,"duration":"02m24s","delta_t_seconds":1382.5,"catalog_number":7202,"source":"NASA Five Millennium Canon of Solar Eclipses","source_url":"https://eclipse.gsfc.nasa.gov/SEsearch/SEsearchmap.php?Ecl=%2B10331224","boundary":"north","name":"1033-12-24 금환일식"},"geometry":{"type":"LineString","coordinates":[[-143.5,-57.8605],[-143,-58.16922],[-142.5,-58.48461],[-142,-58.8069],[-141.5,-59.13635],[-141,-59.47323],[-140.5,-59.81784],[-140,-60.17048],[-139.5,-60.53152],[-139,-60.90131],[-138.5,-61.28029],[-138,-61.6689],[-137.5,-62.06764],[-137,-62.47707],[-136.5,-62.8978],[-136,-63.33055],[-135.5,-63.77609],[-135,-64.23532],[-134.5,-64.70929],[-134,-65.19919],[-133.5,-65.70646],[-133,-66.23277],[-132.5,-66.78019],[-132,-67.35124],[-131.5,-67.94912],[-131,-68.57794],[-130.5,-69.24325],[-130,-69.95274],[-129.5,-70.71775],[-129,-71.55635],[-128.5,-72.50065],[-128,-73.62016],[-127.5,-75.14774],[-127.5,-78.91722],[-128,-80.01667],[-128.5,-80.71628],[-129,-81.24871],[-129.5,-81.68326],[-130,-82.05186],[-130.5,-82.37237],[-131,-82.65594],[-131.5,-82.9101],[-132,-83.1402],[-132.5,-83.3502],[-133,-83.54313],[-133.5,-83.72137],[-134,-83.8868],[-134.5,-84.04097],[-135,-84.18517],[-135.5,-84.32046],[-136,-84.44774],[-136.5,-84.56779],[-137,-84.68128],[-137.5,-84.78877],[-138,-84.89078],[-138.5,-84.98775],[-139,-85.08008],[-139.5,-85.1681],[-140,-85.25214],[-140.5,-85.33247],[-141,-85.40935],[-141.5,-85.48299],[-142,-85.55362],[-142.5,-85.62141],[-143,-85.68654],[-143.5,-85.74917],[-144,-85.80943],[-144.5,-85.86746],[-145,-85.92338],[-145.5,-85.9773],[-146,-86.02932],[-146.5,-86.07955],[-147,-86.12807],[-147.5,-86.17497],[-148,-86.22031],[-148.5,-86.26418],[-149,-86.30664],[-149.5,-86.34776],[-150,-86.38758],[-150.5,-86.42617],[-151,-86.46359],[-151.5,-86.49987],[-152,-86.53506],[-152.5,-86.56922],[-153,-86.60237],[-153.5,-86.63456],[-154,-86.66582],[-154.5,-86.69619],[-155,-86.7257],[-155.5,-86.75439],[-156,-86.78227],[-156.5,-86.80938],[-157,-86.83575],[-157.5,-86.8614],[-158,-86.88635],[-158.5,-86.91062],[-159,-86.93425],[-159.5,-86.95724],[-160,-86.97962],[-160.5,-87.00141],[-161,-87.02262],[-161.5,-87.04327],[-162,-87.06339],[-162.5,-87.08297],[-163,-87.10204],[-163.5,-87.12062],[-164,-87.13871],[-164.5,-87.15633],[-165,-87.17349],[-165.5,-87.19021],[-166,-87.20649],[-166.5,-87.22235],[-167,-87.23779],[-167.5,-87.25283],[-168,-87.26747],[-168.5,-87.28173],[-169,-87.29562],[-169.5,-87.30913],[-170,-87.32229],[-170.5,-87.3351],[-171,-87.34756],[-171.5,-87.35969],[-172,-87.37149],[-172.5,-87.38296],[-173,-87.39412],[-173.5,-87.40497],[-174,-87.41551],[-174.5,-87.42576],[-175,-87.43572],[-175.5,-87.44538],[-176,-87.45477],[-176.5,-87.46388],[-177,-87.47271],[-177.5,-87.48128],[-178,-87.48958],[-178.5,-87.49762],[-179,-87.50541],[-179.5,-87.51295]]}},{"type":"Feature","id":"+10331224:north:1","properties":{"id":"+10331224","year":1033,"month":12,"day":24,"time_tdt":"13:51:14","type":"금환일식","type_code":"A","saros":116,"gamma":-0.94181,"magnitude":0.96092,"greatest":{"lat":-85.58012,"lng":-179.64313},"path_width_km":434.5,"duration":"02m24s","delta_t_seconds":1382.5,"catalog_number":7202,"source":"NASA Five Millennium Canon of Solar Eclipses","source_url":"https://eclipse.gsfc.nasa.gov/SEsearch/SEsearchmap.php?Ecl=%2B10331224","boundary":"north","name":"1033-12-24 금환일식"},"geometry":{"type":"LineString","coordinates":[[180,-87.52023],[179.5,-87.52728],[179,-87.53408],[178.5,-87.54064],[178,-87.54697],[177.5,-87.55307],[177,-87.55894],[176.5,-87.56458],[176,-87.57],[175.5,-87.5752],[175,-87.58018],[174.5,-87.58494],[174,-87.58949],[173.5,-87.59383],[173,-87.59795],[172.5,-87.60187],[172,-87.60558],[171.5,-87.60908],[171,-87.61239],[170.5,-87.61549],[170,-87.61839],[169.5,-87.62108],[169,-87.62359],[168.5,-87.62589],[168,-87.628],[167.5,-87.62991],[167,-87.63163],[166.5,-87.63315],[166,-87.63448],[165.5,-87.63562],[165,-87.63656],[164.5,-87.63732],[164,-87.63788],[163.5,-87.63825],[163,-87.63843],[162.5,-87.63842],[162,-87.63822],[161.5,-87.63783],[161,-87.63724],[160.5,-87.63647],[160,-87.6355],[159.5,-87.63434],[159,-87.63299],[158.5,-87.63144],[158,-87.6297],[157.5,-87.62777],[157,-87.62564],[156.5,-87.62331],[156,-87.62079],[155.5,-87.61807],[155,-87.61515],[154.5,-87.61203],[154,-87.6087],[153.5,-87.60517],[153,-87.60144],[152.5,-87.5975],[152,-87.59335],[151.5,-87.58899],[151,-87.58441],[150.5,-87.57963],[150,-87.57462],[149.5,-87.5694],[149,-87.56396],[148.5,-87.55829],[148,-87.55239],[147.5,-87.54627],[147,-87.53991],[146.5,-87.53332],[146,-87.52649],[145.5,-87.51942],[145,-87.5121],[144.5,-87.50454],[144,-87.49672],[143.5,-87.48865],[143,-87.48031],[142.5,-87.47171],[142,-87.46285],[141.5,-87.45371],[141,-87.44429],[140.5,-87.43459],[140,-87.4246],[139.5,-87.41431],[139,-87.40373],[138.5,-87.39285],[138,-87.38165],[137.5,-87.37013],[137,-87.3583],[136.5,-87.34613],[136,-87.33362],[135.5,-87.32077],[135,-87.30757],[134.5,-87.29401],[134,-87.28008],[133.5,-87.26577],[133,-87.25108],[132.5,-87.23599],[132,-87.22049],[131.5,-87.20458],[131,-87.18825],[130.5,-87.17147],[130,-87.15425],[129.5,-87.13657],[129,-87.11842],[128.5,-87.09978],[128,-87.08064],[127.5,-87.06098],[127,-87.0408],[126.5,-87.02007],[126,-86.99878],[125.5,-86.97691],[125,-86.95445],[124.5,-86.93137],[124,-86.90765],[123.5,-86.88328],[123,-86.85824],[122.5,-86.83249],[122,-86.80602],[121.5,-86.7788],[121,-86.7508],[120.5,-86.722],[120,-86.69236],[119.5,-86.66186],[119,-86.63046],[118.5,-86.59813],[118,-86.56482],[117.5,-86.53051],[117,-86.49515],[116.5,-86.45869],[116,-86.4211],[115.5,-86.38231],[115,-86.34228],[114.5,-86.30095],[114,-86.25826],[113.5,-86.21415],[113,-86.16855],[112.5,-86.12138],[112,-86.07257],[111.5,-86.02204],[111,-85.96968],[110.5,-85.91541],[110,-85.85911],[109.5,-85.80068],[109,-85.73998],[108.5,-85.67689],[108,-85.61126],[107.5,-85.54292],[107,-85.4717],[106.5,-85.39741],[106,-85.31984],[105.5,-85.23874],[105,-85.15387],[104.5,-85.06492],[104,-84.97159],[103.5,-84.87349],[103,-84.77023],[102.5,-84.66134],[102,-84.54629],[101.5,-84.42447],[101,-84.29518],[100.5,-84.15759],[100,-84.01075],[99.5,-83.8535],[99,-83.68447],[98.5,-83.50198],[98,-83.30393],[97.5,-83.08769],[97,-82.84986],[96.5,-82.58589],[96,-82.28952],[95.5,-81.9517],[95,-81.55843],[94.5,-81.08604],[94,-80.4879],[93.5,-79.64133],[93.5,-74.74377],[94,-73.49191],[94.5,-72.49564],[95,-71.63211],[95.5,-70.85453],[96,-70.13905],[96.5,-69.47152],[97,-68.84274],[97.5,-68.24629],[98,-67.67748],[98.5,-67.13278],[99,-66.60941],[99.5,-66.10515],[100,-65.61821],[100.5,-65.14706],[101,-64.69046],[101.5,-64.24732],[102,-63.81672],[102.5,-63.39784],[103,-62.98997],[103.5,-62.59249],[104,-62.20483],[104.5,-61.82649],[105,-61.45702],[105.5,-61.09601],[106,-60.74308],[106.5,-60.3979],[107,-60.06015]]}},{"type":"Feature","id":"+10331224:center:0","properties":{"id":"+10331224","year":1033,"month":12,"day":24,"time_tdt":"13:51:14","type":"금환일식","type_code":"A","saros":116,"gamma":-0.94181,"magnitude":0.96092,"greatest":{"lat":-85.58012,"lng":-179.64313},"path_width_km":434.5,"duration":"02m24s","delta_t_seconds":1382.5,"catalog_number":7202,"source":"NASA Five Millennium Canon of Solar Eclipses","source_url":"https://eclipse.gsfc.nasa.gov/SEsearch/SEsearchmap.php?Ecl=%2B10331224","boundary":"center","name":"1033-12-24 금환일식"},"geometry":{"type":"LineString","coordinates":[[-147.45111,-59.13988],[-147.5,-59.26625],[-147,-59.58317],[-146.5,-59.90845],[-146,-60.24253],[-145.5,-60.58589],[-145,-60.93905],[-144.5,-61.30262],[-144,-61.67726],[-143.5,-62.06375],[-143,-62.46296],[-142.5,-62.87591],[-142,-63.30377],[-141.5,-63.74796],[-141,-64.21015],[-140.5,-64.69236],[-140,-65.19713],[-139.5,-65.72764],[-139,-66.28802],[-138.5,-66.88385],[-138,-67.52288],[-137.5,-68.21662],[-137,-68.98344],[-136.5,-69.85632],[-136,-70.90771],[-135.5,-72.39235],[-135.5,-75.86119],[-136,-77.03561],[-136.5,-77.78222],[-137,-78.35565],[-137.5,-78.82821],[-138,-79.23279],[-138.5,-79.58764],[-139,-79.90415],[-139.5,-80.18999],[-140,-80.45061],[-140.5,-80.69006],[-141,-80.91144],[-141.5,-81.11717],[-142,-81.3092],[-142.5,-81.48912],[-143,-81.65825],[-143.5,-81.81771],[-144,-81.96842],[-144.5,-82.11119],[-145,-82.24671],[-145.5,-82.3756],[-146,-82.49838],[-146.5,-82.61552],[-147,-82.72743],[-147.5,-82.83449],[-148,-82.93703],[-148.5,-83.03535],[-149,-83.12971],[-149.5,-83.22036],[-150,-83.30752],[-150.5,-83.3914],[-151,-83.47218],[-151.5,-83.55003],[-152,-83.62511],[-152.5,-83.69756],[-153,-83.76751],[-153.5,-83.83509],[-154,-83.90041],[-154.5,-83.96358],[-155,-84.02469],[-155.5,-84.08385],[-156,-84.14113],[-156.5,-84.19662],[-157,-84.25038],[-157.5,-84.3025],[-158,-84.35304],[-158.5,-84.40206],[-159,-84.44962],[-159.5,-84.49577],[-160,-84.54057],[-160.5,-84.58406],[-161,-84.6263],[-161.5,-84.66733],[-162,-84.70718],[-162.5,-84.7459],[-163,-84.78353],[-163.5,-84.8201],[-164,-84.85564],[-164.5,-84.89019],[-165,-84.92378],[-165.5,-84.95643],[-166,-84.98818],[-166.5,-85.01904],[-167,-85.04906],[-167.5,-85.07824],[-168,-85.10661],[-168.5,-85.1342],[-169,-85.16102],[-169.5,-85.1871],[-170,-85.21245],[-170.5,-85.23709],[-171,-85.26104],[-171.5,-85.28432],[-172,-85.30694],[-172.5,-85.32891],[-173,-85.35026],[-173.5,-85.37099],[-174,-85.39112],[-174.5,-85.41066],[-175,-85.42962],[-175.5,-85.44802],[-176,-85.46587],[-176.5,-85.48317],[-177,-85.49994],[-177.5,-85.51619],[-178,-85.53193],[-178.5,-85.54716],[-179,-85.56189],[-179.5,-85.57614]]}},{"type":"Feature","id":"+10331224:center:1","properties":{"id":"+10331224","year":1033,"month":12,"day":24,"time_tdt":"13:51:14","type":"금환일식","type_code":"A","saros":116,"gamma":-0.94181,"magnitude":0.96092,"greatest":{"lat":-85.58012,"lng":-179.64313},"path_width_km":434.5,"duration":"02m24s","delta_t_seconds":1382.5,"catalog_number":7202,"source":"NASA Five Millennium Canon of Solar Eclipses","source_url":"https://eclipse.gsfc.nasa.gov/SEsearch/SEsearchmap.php?Ecl=%2B10331224","boundary":"center","name":"1033-12-24 금환일식"},"geometry":{"type":"LineString","coordinates":[[180,-85.58991],[179.5,-85.60321],[179,-85.61604],[178.5,-85.62841],[178,-85.64034],[177.5,-85.65182],[177,-85.66286],[176.5,-85.67347],[176,-85.68366],[175.5,-85.69342],[175,-85.70276],[174.5,-85.7117],[174,-85.72022],[173.5,-85.72834],[173,-85.73607],[172.5,-85.7434],[172,-85.75033],[171.5,-85.75688],[171,-85.76305],[170.5,-85.76883],[170,-85.77423],[169.5,-85.77926],[169,-85.78391],[168.5,-85.78819],[168,-85.7921],[167.5,-85.79564],[167,-85.79882],[166.5,-85.80163],[166,-85.80408],[165.5,-85.80617],[165,-85.80789],[164.5,-85.80926],[164,-85.81026],[163.5,-85.81091],[163,-85.8112],[162.5,-85.81112],[162,-85.81069],[161.5,-85.8099],[161,-85.80875],[160.5,-85.80724],[160,-85.80537],[159.5,-85.80314],[159,-85.80054],[158.5,-85.79758],[158,-85.79426],[157.5,-85.79057],[157,-85.78651],[156.5,-85.78208],[156,-85.77727],[155.5,-85.77209],[155,-85.76654],[154.5,-85.7606],[154,-85.75428],[153.5,-85.74757],[153,-85.74048],[152.5,-85.73299],[152,-85.7251],[151.5,-85.71681],[151,-85.70812],[150.5,-85.69902],[150,-85.6895],[149.5,-85.67957],[149,-85.66921],[148.5,-85.65842],[148,-85.6472],[147.5,-85.63553],[147,-85.62342],[146.5,-85.61085],[146,-85.59783],[145.5,-85.58433],[145,-85.57036],[144.5,-85.55591],[144,-85.54097],[143.5,-85.52553],[143,-85.50958],[142.5,-85.49311],[142,-85.47611],[141.5,-85.45858],[141,-85.44049],[140.5,-85.42185],[140,-85.40264],[139.5,-85.38285],[139,-85.36246],[138.5,-85.34146],[138,-85.31984],[137.5,-85.29759],[137,-85.27468],[136.5,-85.25111],[136,-85.22686],[135.5,-85.2019],[135,-85.17623],[134.5,-85.14982],[134,-85.12266],[133.5,-85.09472],[133,-85.06598],[132.5,-85.03642],[132,-85.00602],[131.5,-84.97475],[131,-84.94259],[130.5,-84.90951],[130,-84.87548],[129.5,-84.84047],[129,-84.80445],[128.5,-84.76738],[128,-84.72924],[127.5,-84.68998],[127,-84.64957],[126.5,-84.60796],[126,-84.56512],[125.5,-84.52099],[125,-84.47554],[124.5,-84.4287],[124,-84.38042],[123.5,-84.33065],[123,-84.27932],[122.5,-84.22637],[122,-84.17173],[121.5,-84.11533],[121,-84.05709],[120.5,-83.99691],[120,-83.93473],[119.5,-83.87043],[119,-83.80391],[118.5,-83.73506],[118,-83.66376],[117.5,-83.58988],[117,-83.51328],[116.5,-83.4338],[116,-83.35128],[115.5,-83.26554],[115,-83.17638],[114.5,-83.08358],[114,-82.9869],[113.5,-82.88608],[113,-82.78082],[112.5,-82.67081],[112,-82.55567],[111.5,-82.43501],[111,-82.30836],[110.5,-82.1752],[110,-82.03493],[109.5,-81.88689],[109,-81.73027],[108.5,-81.56415],[108,-81.38746],[107.5,-81.19888],[107,-80.99686],[106.5,-80.77947],[106,-80.54431],[105.5,-80.28832],[105,-80.00749],[104.5,-79.6964],[104,-79.34739],[103.5,-78.94902],[103,-78.48283],[102.5,-77.91515],[102,-77.17016],[101.5,-75.96015],[101.5,-72.90294],[102,-71.39193],[102.5,-70.35076],[103,-69.49163],[103.5,-68.73862],[104,-68.05796],[104.5,-67.4311],[105,-66.84651],[105.5,-66.29645],[106,-65.77541],[106.5,-65.27931],[107,-64.805],[107.5,-64.35002],[108,-63.91236],[108.5,-63.4904],[109,-63.08276],[109.5,-62.6883],[110,-62.30602],[110.5,-61.93509],[111,-61.57475],[111.5,-61.22436],[111.37785,-61.24401]]}},{"type":"Feature","id":"+10331224:south:0","properties":{"id":"+10331224","year":1033,"month":12,"day":24,"time_tdt":"13:51:14","type":"금환일식","type_code":"A","saros":116,"gamma":-0.94181,"magnitude":0.96092,"greatest":{"lat":-85.58012,"lng":-179.64313},"path_width_km":434.5,"duration":"02m24s","delta_t_seconds":1382.5,"catalog_number":7202,"source":"NASA Five Millennium Canon of Solar Eclipses","source_url":"https://eclipse.gsfc.nasa.gov/SEsearch/SEsearchmap.php?Ecl=%2B10331224","boundary":"south","name":"1033-12-24 금환일식"},"geometry":{"type":"LineString","coordinates":[[-152.25,-60.7679],[-152,-60.93171],[-151.5,-61.26769],[-151,-61.61552],[-150.5,-61.97615],[-150,-62.35073],[-149.5,-62.74061],[-149,-63.1474],[-148.5,-63.57307],[-148,-64.02008],[-147.5,-64.49155],[-147,-64.99154],[-146.5,-65.52554],[-146,-66.10131],[-145.5,-66.73041],[-145,-67.43161],[-144.5,-68.23939],[-144,-69.23286],[-143.5,-70.73468],[-143.5,-73.42356],[-144,-74.69573],[-144.5,-75.46335],[-145,-76.04901],[-145.5,-76.53175],[-146,-76.94599],[-146.5,-77.31044],[-147,-77.6366],[-147.5,-77.93215],[-148,-78.20255],[-148.5,-78.4518],[-149,-78.68296],[-149.5,-78.89844],[-150,-79.10015],[-150.5,-79.28968],[-151,-79.46831],[-151.5,-79.63714],[-152,-79.79709],[-152.5,-79.94895],[-153,-80.09342],[-153.5,-80.2311],[-154,-80.36249],[-154.5,-80.48808],[-155,-80.60827],[-155.5,-80.72342],[-156,-80.83388],[-156.5,-80.93993],[-157,-81.04184],[-157.5,-81.13986],[-158,-81.23421],[-158.5,-81.32509],[-159,-81.41269],[-159.5,-81.49717],[-160,-81.5787],[-160.5,-81.65742],[-161,-81.73347],[-161.5,-81.80696],[-162,-81.87801],[-162.5,-81.94674],[-163,-82.01323],[-163.5,-82.07759],[-164,-82.1399],[-164.5,-82.20025],[-165,-82.2587],[-165.5,-82.31533],[-166,-82.37021],[-166.5,-82.42341],[-167,-82.47497],[-167.5,-82.52497],[-168,-82.57345],[-168.5,-82.62046],[-169,-82.66605],[-169.5,-82.71026],[-170,-82.75314],[-170.5,-82.79473],[-171,-82.83506],[-171.5,-82.87418],[-172,-82.91212],[-172.5,-82.9489],[-173,-82.98456],[-173.5,-83.01914],[-174,-83.05265],[-174.5,-83.08513],[-175,-83.1166],[-175.5,-83.14709],[-176,-83.17661],[-176.5,-83.20519],[-177,-83.23286],[-177.5,-83.25962],[-178,-83.28551],[-178.5,-83.31054],[-179,-83.33472],[-179.5,-83.35807]]}},{"type":"Feature","id":"+10331224:south:1","properties":{"id":"+10331224","year":1033,"month":12,"day":24,"time_tdt":"13:51:14","type":"금환일식","type_code":"A","saros":116,"gamma":-0.94181,"magnitude":0.96092,"greatest":{"lat":-85.58012,"lng":-179.64313},"path_width_km":434.5,"duration":"02m24s","delta_t_seconds":1382.5,"catalog_number":7202,"source":"NASA Five Millennium Canon of Solar Eclipses","source_url":"https://eclipse.gsfc.nasa.gov/SEsearch/SEsearchmap.php?Ecl=%2B10331224","boundary":"south","name":"1033-12-24 금환일식"},"geometry":{"type":"LineString","coordinates":[[180,-83.38062],[179.5,-83.40236],[179,-83.42333],[178.5,-83.44352],[178,-83.46296],[177.5,-83.48166],[177,-83.49963],[176.5,-83.51687],[176,-83.53341],[175.5,-83.54925],[175,-83.56439],[174.5,-83.57886],[174,-83.59265],[173.5,-83.60579],[173,-83.61826],[172.5,-83.63009],[172,-83.64127],[171.5,-83.65182],[171,-83.66174],[170.5,-83.67103],[170,-83.67971],[169.5,-83.68777],[169,-83.69523],[168.5,-83.70207],[168,-83.70832],[167.5,-83.71397],[167,-83.71902],[166.5,-83.72349],[166,-83.72736],[165.5,-83.73064],[165,-83.73334],[164.5,-83.73546],[164,-83.73699],[163.5,-83.73794],[163,-83.73831],[162.5,-83.7381],[162,-83.7373],[161.5,-83.73593],[161,-83.73397],[160.5,-83.73142],[160,-83.72829],[159.5,-83.72458],[159,-83.72027],[158.5,-83.71537],[158,-83.70988],[157.5,-83.70379],[157,-83.6971],[156.5,-83.68981],[156,-83.6819],[155.5,-83.67339],[155,-83.66425],[154.5,-83.65449],[154,-83.64411],[153.5,-83.63309],[153,-83.62142],[152.5,-83.60911],[152,-83.59615],[151.5,-83.58252],[151,-83.56822],[150.5,-83.55325],[150,-83.53758],[149.5,-83.52121],[149,-83.50414],[148.5,-83.48635],[148,-83.46783],[147.5,-83.44856],[147,-83.42854],[146.5,-83.40776],[146,-83.38619],[145.5,-83.36383],[145,-83.34066],[144.5,-83.31667],[144,-83.29183],[143.5,-83.26613],[143,-83.23955],[142.5,-83.21208],[142,-83.18369],[141.5,-83.15436],[141,-83.12408],[140.5,-83.09281],[140,-83.06053],[139.5,-83.02722],[139,-82.99285],[138.5,-82.95739],[138,-82.92081],[137.5,-82.88309],[137,-82.84418],[136.5,-82.80406],[136,-82.76269],[135.5,-82.72002],[135,-82.67602],[134.5,-82.63065],[134,-82.58386],[133.5,-82.5356],[133,-82.48582],[132.5,-82.43448],[132,-82.3815],[131.5,-82.32684],[131,-82.27042],[130.5,-82.21218],[130,-82.15205],[129.5,-82.08995],[129,-82.0258],[128.5,-81.95951],[128,-81.89098],[127.5,-81.82012],[127,-81.74681],[126.5,-81.67093],[126,-81.59237],[125.5,-81.51099],[125,-81.42664],[124.5,-81.33915],[124,-81.24836],[123.5,-81.15407],[123,-81.05608],[122.5,-80.95416],[122,-80.84807],[121.5,-80.73752],[121,-80.6222],[120.5,-80.50179],[120,-80.37589],[119.5,-80.24409],[119,-80.10589],[118.5,-79.96075],[118,-79.80804],[117.5,-79.64704],[117,-79.47691],[116.5,-79.29667],[116,-79.10513],[115.5,-78.90092],[115,-78.6823],[114.5,-78.44718],[114,-78.19289],[113.5,-77.91596],[113,-77.61178],[112.5,-77.27397],[112,-76.89322],[111.5,-76.45497],[111,-75.93404],[110.5,-75.27885],[110,-74.33982],[110,-70.31261],[110.5,-69.14856],[111,-68.27175],[111.5,-67.53252],[112,-66.87927],[112.5,-66.28675],[113,-65.74035],[113.5,-65.23072],[114,-64.75142],[114.5,-64.29779],[115,-63.86633],[115.5,-63.45433],[116,-63.05963],[116.5,-62.68049]]}}],"attribution":"Eclipse Predictions by Fred Espenak and Jean Meeus (NASA's GSFC)","generated_at":"2026-09-23T03:35:41.679Z"}
