{"type":"FeatureCollection","year":1039,"events":[{"id":"+10390225","year":1039,"month":2,"day":25,"time_tdt":"21:18:55","type":"금환일식","type_code":"A","saros":95,"gamma":-0.55213,"magnitude":0.96198,"greatest":{"lat":-35.82248,"lng":-111.99841},"path_width_km":162.6,"duration":"03m31s","delta_t_seconds":1356.6,"catalog_number":7215,"source":"NASA Five Millennium Canon of Solar Eclipses","source_url":"https://eclipse.gsfc.nasa.gov/SEsearch/SEsearchmap.php?Ecl=%2B10390225"},{"id":"+10390822","year":1039,"month":8,"day":22,"time_tdt":"12:38:24","type":"금환일식","type_code":"A","saros":100,"gamma":0.48958,"magnitude":0.998,"greatest":{"lat":35.79169,"lng":12.08228},"path_width_km":7.9,"duration":"00m10s","delta_t_seconds":1354.2,"catalog_number":7216,"source":"NASA Five Millennium Canon of Solar Eclipses","source_url":"https://eclipse.gsfc.nasa.gov/SEsearch/SEsearchmap.php?Ecl=%2B10390822"}],"features":[{"type":"Feature","id":"+10390225:north:0","properties":{"id":"+10390225","year":1039,"month":2,"day":25,"time_tdt":"21:18:55","type":"금환일식","type_code":"A","saros":95,"gamma":-0.55213,"magnitude":0.96198,"greatest":{"lat":-35.82248,"lng":-111.99841},"path_width_km":162.6,"duration":"03m31s","delta_t_seconds":1356.6,"catalog_number":7215,"source":"NASA Five Millennium Canon of Solar Eclipses","source_url":"https://eclipse.gsfc.nasa.gov/SEsearch/SEsearchmap.php?Ecl=%2B10390225","boundary":"north","name":"1039-02-25 금환일식"},"geometry":{"type":"LineString","coordinates":[[150.9707,-60.3103],[151,-60.31401],[151.5,-60.37657],[152,-60.43786],[152.5,-60.49785],[153,-60.55657],[153.5,-60.61401],[154,-60.67016],[154.5,-60.72503],[155,-60.77863],[155.5,-60.83094],[156,-60.88198],[156.5,-60.93174],[157,-60.98022],[157.5,-61.02742],[158,-61.07334],[158.5,-61.11799],[159,-61.16136],[159.5,-61.20345],[160,-61.24427],[160.5,-61.2838],[161,-61.32206],[161.5,-61.35904],[162,-61.39475],[162.5,-61.42917],[163,-61.46231],[163.5,-61.49417],[164,-61.52475],[164.5,-61.55405],[165,-61.58207],[165.5,-61.60879],[166,-61.63424],[166.5,-61.65839],[167,-61.68125],[167.5,-61.70282],[168,-61.7231],[168.5,-61.74208],[169,-61.75976],[169.5,-61.77615],[170,-61.79122],[170.5,-61.80499],[171,-61.81746],[171.5,-61.82861],[172,-61.83844],[172.5,-61.84695],[173,-61.85414],[173.5,-61.86001],[174,-61.86454],[174.5,-61.86773],[175,-61.86959],[175.5,-61.8701],[176,-61.86926],[176.5,-61.86706],[177,-61.8635],[177.5,-61.85858],[178,-61.85228],[178.5,-61.84461],[179,-61.83555],[179.5,-61.82509],[180,-61.81324]]}},{"type":"Feature","id":"+10390225:north:1","properties":{"id":"+10390225","year":1039,"month":2,"day":25,"time_tdt":"21:18:55","type":"금환일식","type_code":"A","saros":95,"gamma":-0.55213,"magnitude":0.96198,"greatest":{"lat":-35.82248,"lng":-111.99841},"path_width_km":162.6,"duration":"03m31s","delta_t_seconds":1356.6,"catalog_number":7215,"source":"NASA Five Millennium Canon of Solar Eclipses","source_url":"https://eclipse.gsfc.nasa.gov/SEsearch/SEsearchmap.php?Ecl=%2B10390225","boundary":"north","name":"1039-02-25 금환일식"},"geometry":{"type":"LineString","coordinates":[[-179.5,-61.79998],[-179,-61.78531],[-178.5,-61.76921],[-178,-61.75169],[-177.5,-61.73273],[-177,-61.71232],[-176.5,-61.69045],[-176,-61.66712],[-175.5,-61.64231],[-175,-61.61602],[-174.5,-61.58823],[-174,-61.55894],[-173.5,-61.52812],[-173,-61.49578],[-172.5,-61.4619],[-172,-61.42647],[-171.5,-61.38947],[-171,-61.35089],[-170.5,-61.31072],[-170,-61.26895],[-169.5,-61.22555],[-169,-61.18052],[-168.5,-61.13384],[-168,-61.0855],[-167.5,-61.03547],[-167,-60.98375],[-166.5,-60.93031],[-166,-60.87514],[-165.5,-60.81822],[-165,-60.75953],[-164.5,-60.69905],[-164,-60.63676],[-163.5,-60.57264],[-163,-60.50668],[-162.5,-60.43884],[-162,-60.36911],[-161.5,-60.29746],[-161,-60.22387],[-160.5,-60.14832],[-160,-60.07078],[-159.5,-59.99122],[-159,-59.90962],[-158.5,-59.82596],[-158,-59.7402],[-157.5,-59.65231],[-157,-59.56227],[-156.5,-59.47004],[-156,-59.3756],[-155.5,-59.2789],[-155,-59.17993],[-154.5,-59.07864],[-154,-58.97499],[-153.5,-58.86896],[-153,-58.7605],[-152.5,-58.64958],[-152,-58.53615],[-151.5,-58.42018],[-151,-58.30163],[-150.5,-58.18044],[-150,-58.05658],[-149.5,-57.93001],[-149,-57.80066],[-148.5,-57.6685],[-148,-57.53347],[-147.5,-57.39552],[-147,-57.25461],[-146.5,-57.11067],[-146,-56.96364],[-145.5,-56.81348],[-145,-56.66012],[-144.5,-56.50349],[-144,-56.34354],[-143.5,-56.1802],[-143,-56.0134],[-142.5,-55.84308],[-142,-55.66915],[-141.5,-55.49155],[-141,-55.31021],[-140.5,-55.12503],[-140,-54.93594],[-139.5,-54.74286],[-139,-54.5457],[-138.5,-54.34437],[-138,-54.13879],[-137.5,-53.92885],[-137,-53.71446],[-136.5,-53.49552],[-136,-53.27192],[-135.5,-53.04357],[-135,-52.81035],[-134.5,-52.57214],[-134,-52.32884],[-133.5,-52.08032],[-133,-51.82647],[-132.5,-51.56715],[-132,-51.30224],[-131.5,-51.0316],[-131,-50.7551],[-130.5,-50.4726],[-130,-50.18396],[-129.5,-49.88903],[-129,-49.58766],[-128.5,-49.27971],[-128,-48.96501],[-127.5,-48.64341],[-127,-48.31476],[-126.5,-47.97888],[-126,-47.63563],[-125.5,-47.28483],[-125,-46.92633],[-124.5,-46.55996],[-124,-46.18555],[-123.5,-45.80297],[-123,-45.41203],[-122.5,-45.01261],[-122,-44.60455],[-121.5,-44.18772],[-121,-43.76199],[-120.5,-43.32725],[-120,-42.8834],[-119.5,-42.43035],[-119,-41.96805],[-118.5,-41.49645],[-118,-41.01553],[-117.5,-40.52532],[-117,-40.02585],[-116.5,-39.51722],[-116,-38.99953],[-115.5,-38.47296],[-115,-37.93773],[-114.5,-37.3941],[-114,-36.84238],[-113.5,-36.28295],[-113,-35.71625],[-112.5,-35.14276],[-112,-34.56303],[-111.5,-33.97767],[-111,-33.38735],[-110.5,-32.79278],[-110,-32.19471],[-109.5,-31.59396],[-109,-30.99136],[-108.5,-30.38777],[-108,-29.78407],[-107.5,-29.18114],[-107,-28.57987],[-106.5,-27.98113],[-106,-27.38576],[-105.5,-26.79457],[-105,-26.20836],[-104.5,-25.62785],[-104,-25.05372],[-103.5,-24.4866],[-103,-23.92706],[-102.5,-23.37561],[-102,-22.83269],[-101.5,-22.29869],[-101,-21.77394],[-100.5,-21.25871],[-100,-20.75323],[-99.5,-20.25767],[-99,-19.77214],[-98.5,-19.29674],[-98,-18.8315],[-97.5,-18.37642],[-97,-17.9315],[-96.5,-17.49667],[-96,-17.07186],[-95.5,-16.65699],[-95,-16.25192],[-94.5,-15.85654],[-94,-15.47071],[-93.5,-15.09427],[-93,-14.72707],[-92.5,-14.36894],[-92,-14.01972],[-91.5,-13.67922],[-91,-13.34727],[-90.5,-13.0237],[-90,-12.70833],[-89.5,-12.40098],[-89,-12.10147],[-88.5,-11.80964],[-88,-11.52532],[-87.5,-11.24832],[-87,-10.97849],[-86.5,-10.71567],[-86,-10.45969],[-85.5,-10.2104],[-85,-9.96764],[-84.5,-9.73128],[-84,-9.50116],[-83.5,-9.27713],[-83,-9.05908],[-82.5,-8.84685],[-82,-8.64033],[-81.5,-8.43938],[-81,-8.24388],[-80.5,-8.05371],[-80,-7.86877],[-79.5,-7.68892],[-79,-7.51408],[-78.5,-7.34412],[-78,-7.17896],[-77.5,-7.01848],[-77,-6.86259],[-76.5,-6.7112],[-76,-6.56422],[-75.5,-6.42156],[-75,-6.28314],[-74.5,-6.14886],[-74,-6.01866],[-73.5,-5.89244],[-73,-5.77015],[-72.5,-5.6517],[-72,-5.53702],[-71.5,-5.42604],[-71,-5.31869],[-70.5,-5.21492],[-70,-5.11465],[-69.5,-5.01783],[-69,-4.92439],[-68.5,-4.83428],[-68,-4.74744],[-67.5,-4.66381],[-67,-4.58335],[-66.5,-4.50599],[-66,-4.43169],[-65.5,-4.3604],[-65,-4.29208],[-64.5,-4.22666],[-64.35938,-4.20878]]}},{"type":"Feature","id":"+10390225:center:0","properties":{"id":"+10390225","year":1039,"month":2,"day":25,"time_tdt":"21:18:55","type":"금환일식","type_code":"A","saros":95,"gamma":-0.55213,"magnitude":0.96198,"greatest":{"lat":-35.82248,"lng":-111.99841},"path_width_km":162.6,"duration":"03m31s","delta_t_seconds":1356.6,"catalog_number":7215,"source":"NASA Five Millennium Canon of Solar Eclipses","source_url":"https://eclipse.gsfc.nasa.gov/SEsearch/SEsearchmap.php?Ecl=%2B10390225","boundary":"center","name":"1039-02-25 금환일식"},"geometry":{"type":"LineString","coordinates":[[150.17968,-61.31588],[150.5,-61.31015],[151,-61.3706],[151.5,-61.42978],[152,-61.4877],[152.5,-61.54436],[153,-61.59977],[153.5,-61.65392],[154,-61.70681],[154.5,-61.75845],[155,-61.80883],[155.5,-61.85797],[156,-61.90585],[156.5,-61.95248],[157,-61.99786],[157.5,-62.04199],[158,-62.08486],[158.5,-62.12649],[159,-62.16688],[159.5,-62.20601],[160,-62.24389],[160.5,-62.28053],[161,-62.31591],[161.5,-62.35005],[162,-62.38294],[162.5,-62.41458],[163,-62.44497],[163.5,-62.47411],[164,-62.50199],[164.5,-62.52863],[165,-62.55401],[165.5,-62.57814],[166,-62.60101],[166.5,-62.62262],[167,-62.64298],[167.5,-62.66208],[168,-62.67991],[168.5,-62.69648],[169,-62.71178],[169.5,-62.72581],[170,-62.73857],[170.5,-62.75006],[171,-62.76027],[171.5,-62.7692],[172,-62.77685],[172.5,-62.7832],[173,-62.78827],[173.5,-62.79205],[174,-62.79452],[174.5,-62.79569],[175,-62.79556],[175.5,-62.79411],[176,-62.79135],[176.5,-62.78726],[177,-62.78185],[177.5,-62.7751],[178,-62.76701],[178.5,-62.75758],[179,-62.7468],[179.5,-62.73466],[180,-62.72115]]}},{"type":"Feature","id":"+10390225:center:1","properties":{"id":"+10390225","year":1039,"month":2,"day":25,"time_tdt":"21:18:55","type":"금환일식","type_code":"A","saros":95,"gamma":-0.55213,"magnitude":0.96198,"greatest":{"lat":-35.82248,"lng":-111.99841},"path_width_km":162.6,"duration":"03m31s","delta_t_seconds":1356.6,"catalog_number":7215,"source":"NASA Five Millennium Canon of Solar Eclipses","source_url":"https://eclipse.gsfc.nasa.gov/SEsearch/SEsearchmap.php?Ecl=%2B10390225","boundary":"center","name":"1039-02-25 금환일식"},"geometry":{"type":"LineString","coordinates":[[-179.5,-62.70627],[-179,-62.69001],[-178.5,-62.67237],[-178,-62.65333],[-177.5,-62.63288],[-177,-62.61102],[-176.5,-62.58774],[-176,-62.56304],[-175.5,-62.53689],[-175,-62.50929],[-174.5,-62.48023],[-174,-62.4497],[-173.5,-62.41768],[-173,-62.38418],[-172.5,-62.34917],[-172,-62.31264],[-171.5,-62.27459],[-171,-62.23499],[-170.5,-62.19384],[-170,-62.15112],[-169.5,-62.10682],[-169,-62.06092],[-168.5,-62.01341],[-168,-61.96427],[-167.5,-61.91348],[-167,-61.86104],[-166.5,-61.80692],[-166,-61.75111],[-165.5,-61.69359],[-165,-61.63433],[-164.5,-61.57333],[-164,-61.51056],[-163.5,-61.446],[-163,-61.37963],[-162.5,-61.31144],[-162,-61.24139],[-161.5,-61.16946],[-161,-61.09564],[-160.5,-61.0199],[-160,-60.94221],[-159.5,-60.86256],[-159,-60.7809],[-158.5,-60.69722],[-158,-60.61149],[-157.5,-60.52369],[-157,-60.43377],[-156.5,-60.34172],[-156,-60.24749],[-155.5,-60.15107],[-155,-60.05241],[-154.5,-59.95149],[-154,-59.84827],[-153.5,-59.74271],[-153,-59.63478],[-152.5,-59.52443],[-152,-59.41164],[-151.5,-59.29636],[-151,-59.17855],[-150.5,-59.05816],[-150,-58.93517],[-149.5,-58.80951],[-149,-58.68114],[-148.5,-58.55002],[-148,-58.4161],[-147.5,-58.27933],[-147,-58.13965],[-146.5,-57.99701],[-146,-57.85136],[-145.5,-57.70265],[-145,-57.5508],[-144.5,-57.39577],[-144,-57.23748],[-143.5,-57.07589],[-143,-56.91091],[-142.5,-56.74249],[-142,-56.57056],[-141.5,-56.39503],[-141,-56.21584],[-140.5,-56.03292],[-140,-55.84618],[-139.5,-55.65554],[-139,-55.46092],[-138.5,-55.26223],[-138,-55.05938],[-137.5,-54.85229],[-137,-54.64086],[-136.5,-54.42499],[-136,-54.20459],[-135.5,-53.97954],[-135,-53.74975],[-134.5,-53.5151],[-134,-53.27548],[-133.5,-53.03078],[-133,-52.78089],[-132.5,-52.52567],[-132,-52.265],[-131.5,-51.99876],[-131,-51.72681],[-130.5,-51.44902],[-130,-51.16525],[-129.5,-50.87536],[-129,-50.57921],[-128.5,-50.27664],[-128,-49.96751],[-127.5,-49.65166],[-127,-49.32895],[-126.5,-48.9992],[-126,-48.66228],[-125.5,-48.31801],[-125,-47.96623],[-124.5,-47.60679],[-124,-47.23952],[-123.5,-46.86427],[-123,-46.48088],[-122.5,-46.08921],[-122,-45.68909],[-121.5,-45.28041],[-121,-44.86301],[-120.5,-44.43679],[-120,-44.00163],[-119.5,-43.55744],[-119,-43.10414],[-118.5,-42.64167],[-118,-42.16999],[-117.5,-41.6891],[-117,-41.19901],[-116.5,-40.69978],[-116,-40.19149],[-115.5,-39.67427],[-115,-39.1483],[-114.5,-38.61379],[-114,-38.07101],[-113.5,-37.52029],[-113,-36.96199],[-112.5,-36.39656],[-112,-35.82448],[-111.5,-35.24632],[-111,-34.66266],[-110.5,-34.07419],[-110,-33.4816],[-109.5,-32.88566],[-109,-32.28716],[-108.5,-31.68694],[-108,-31.08585],[-107.5,-30.48477],[-107,-29.88457],[-106.5,-29.28613],[-106,-28.6903],[-105.5,-28.09793],[-105,-27.50983],[-104.5,-26.92677],[-104,-26.34947],[-103.5,-25.7786],[-103,-25.21479],[-102.5,-24.6586],[-102,-24.11053],[-101.5,-23.57103],[-101,-23.04047],[-100.5,-22.51918],[-100,-22.00744],[-99.5,-21.50546],[-99,-21.0134],[-98.5,-20.5314],[-98,-20.05952],[-97.5,-19.59781],[-97,-19.14627],[-96.5,-18.70489],[-96,-18.2736],[-95.5,-17.85234],[-95,-17.44101],[-94.5,-17.03949],[-94,-16.64766],[-93.5,-16.26538],[-93,-15.89249],[-92.5,-15.52884],[-92,-15.17426],[-91.5,-14.82858],[-91,-14.49162],[-90.5,-14.16322],[-90,-13.8432],[-89.5,-13.53137],[-89,-13.22756],[-88.5,-12.9316],[-88,-12.64331],[-87.5,-12.36252],[-87,-12.08906],[-86.5,-11.82277],[-86,-11.56348],[-85.5,-11.31103],[-85,-11.06527],[-84.5,-10.82604],[-84,-10.5932],[-83.5,-10.3666],[-83,-10.14611],[-82.5,-9.93157],[-82,-9.72286],[-81.5,-9.51985],[-81,-9.32241],[-80.5,-9.13043],[-80,-8.94377],[-79.5,-8.76233],[-79,-8.58599],[-78.5,-8.41464],[-78,-8.24819],[-77.5,-8.08651],[-77,-7.92953],[-76.5,-7.77713],[-76,-7.62923],[-75.5,-7.48573],[-75,-7.34655],[-74.5,-7.21159],[-74,-7.08079],[-73.5,-6.95406],[-73,-6.83131],[-72.5,-6.71247],[-72,-6.59748],[-71.5,-6.48625],[-71,-6.37873],[-70.5,-6.27483],[-70,-6.1745],[-69.5,-6.07767],[-69,-5.98429],[-68.5,-5.89428],[-68,-5.80759],[-67.5,-5.72418],[-67,-5.64397],[-66.5,-5.56692],[-66,-5.49297],[-65.5,-5.42208],[-65,-5.35419],[-64.5,-5.28926],[-64,-5.22724],[-63.93383,-5.22637]]}},{"type":"Feature","id":"+10390225:south:0","properties":{"id":"+10390225","year":1039,"month":2,"day":25,"time_tdt":"21:18:55","type":"금환일식","type_code":"A","saros":95,"gamma":-0.55213,"magnitude":0.96198,"greatest":{"lat":-35.82248,"lng":-111.99841},"path_width_km":162.6,"duration":"03m31s","delta_t_seconds":1356.6,"catalog_number":7215,"source":"NASA Five Millennium Canon of Solar Eclipses","source_url":"https://eclipse.gsfc.nasa.gov/SEsearch/SEsearchmap.php?Ecl=%2B10390225","boundary":"south","name":"1039-02-25 금환일식"},"geometry":{"type":"LineString","coordinates":[[150,-62.31957],[149.5,-62.26004],[150.5,-62.37786],[151,-62.43491],[151.5,-62.49073],[152,-62.54532],[152.5,-62.59867],[153,-62.65079],[153.5,-62.70169],[154,-62.75135],[154.5,-62.79979],[155,-62.847],[155.5,-62.89298],[156,-62.93774],[156.5,-62.98128],[157,-63.0236],[157.5,-63.0647],[158,-63.10457],[158.5,-63.14323],[159,-63.18067],[159.5,-63.21688],[160,-63.25188],[160.5,-63.28566],[161,-63.31823],[161.5,-63.34957],[162,-63.3797],[162.5,-63.4086],[163,-63.43629],[163.5,-63.46276],[164,-63.48801],[164.5,-63.51204],[165,-63.53485],[165.5,-63.55643],[166,-63.57679],[166.5,-63.59593],[167,-63.61384],[167.5,-63.63052],[168,-63.64597],[168.5,-63.66019],[169,-63.67317],[169.5,-63.68492],[170,-63.69543],[170.5,-63.7047],[171,-63.71272],[171.5,-63.7195],[172,-63.72502],[172.5,-63.72929],[173,-63.73231],[173.5,-63.73406],[174,-63.73455],[174.5,-63.73377],[175,-63.73172],[175.5,-63.72838],[176,-63.72377],[176.5,-63.71786],[177,-63.71066],[177.5,-63.70217],[178,-63.69236],[178.5,-63.68125],[179,-63.66882],[179.5,-63.65506],[180,-63.63998]]}},{"type":"Feature","id":"+10390225:south:1","properties":{"id":"+10390225","year":1039,"month":2,"day":25,"time_tdt":"21:18:55","type":"금환일식","type_code":"A","saros":95,"gamma":-0.55213,"magnitude":0.96198,"greatest":{"lat":-35.82248,"lng":-111.99841},"path_width_km":162.6,"duration":"03m31s","delta_t_seconds":1356.6,"catalog_number":7215,"source":"NASA Five Millennium Canon of Solar Eclipses","source_url":"https://eclipse.gsfc.nasa.gov/SEsearch/SEsearchmap.php?Ecl=%2B10390225","boundary":"south","name":"1039-02-25 금환일식"},"geometry":{"type":"LineString","coordinates":[[-179.5,-63.62355],[-179,-63.60578],[-178.5,-63.58666],[-178,-63.56618],[-177.5,-63.54433],[-177,-63.5211],[-176.5,-63.49649],[-176,-63.47048],[-175.5,-63.44306],[-175,-63.41423],[-174.5,-63.38398],[-174,-63.35229],[-173.5,-63.31916],[-173,-63.28456],[-172.5,-63.2485],[-172,-63.21096],[-171.5,-63.17193],[-171,-63.13139],[-170.5,-63.08934],[-170,-63.04575],[-169.5,-63.00062],[-169,-62.95392],[-168.5,-62.90566],[-168,-62.8558],[-167.5,-62.80434],[-167,-62.75125],[-166.5,-62.69653],[-166,-62.64016],[-165.5,-62.58211],[-165,-62.52237],[-164.5,-62.46093],[-164,-62.39775],[-163.5,-62.33283],[-163,-62.26614],[-162.5,-62.19766],[-162,-62.12737],[-161.5,-62.05525],[-161,-61.98127],[-160.5,-61.90541],[-160,-61.82766],[-159.5,-61.74797],[-159,-61.66633],[-158.5,-61.58271],[-158,-61.49709],[-157.5,-61.40944],[-157,-61.31972],[-156.5,-61.22791],[-156,-61.13398],[-155.5,-61.0379],[-155,-60.93963],[-154.5,-60.83915],[-154,-60.73642],[-153.5,-60.6314],[-153,-60.52406],[-152.5,-60.41436],[-152,-60.30227],[-151.5,-60.18775],[-151,-60.07074],[-150.5,-59.95123],[-150,-59.82915],[-149.5,-59.70448],[-149,-59.57715],[-148.5,-59.44714],[-148,-59.31438],[-147.5,-59.17883],[-147,-59.04045],[-146.5,-58.89917],[-146,-58.75495],[-145.5,-58.60773],[-145,-58.45745],[-144.5,-58.30405],[-144,-58.14748],[-143.5,-57.98767],[-143,-57.82456],[-142.5,-57.65809],[-142,-57.48818],[-141.5,-57.31476],[-141,-57.13777],[-140.5,-56.95713],[-140,-56.77276],[-139.5,-56.58458],[-139,-56.39252],[-138.5,-56.19649],[-138,-55.99641],[-137.5,-55.79218],[-137,-55.58372],[-136.5,-55.37092],[-136,-55.15371],[-135.5,-54.93196],[-135,-54.70559],[-134.5,-54.47449],[-134,-54.23854],[-133.5,-53.99765],[-133,-53.75168],[-132.5,-53.50054],[-132,-53.24408],[-131.5,-52.9822],[-131,-52.71475],[-130.5,-52.44162],[-130,-52.16267],[-129.5,-51.87776],[-129,-51.58674],[-128.5,-51.28949],[-128,-50.98585],[-127.5,-50.67567],[-127,-50.3588],[-126.5,-50.03509],[-126,-49.70439],[-125.5,-49.36653],[-125,-49.02137],[-124.5,-48.66873],[-124,-48.30847],[-123.5,-47.94043],[-123,-47.56445],[-122.5,-47.18038],[-122,-46.78808],[-121.5,-46.38739],[-121,-45.97819],[-120.5,-45.56035],[-120,-45.13374],[-119.5,-44.69827],[-119,-44.25384],[-118.5,-43.80038],[-118,-43.33783],[-117.5,-42.86617],[-117,-42.38539],[-116.5,-41.89551],[-116,-41.39659],[-115.5,-40.88872],[-115,-40.37204],[-114.5,-39.84672],[-114,-39.31298],[-113.5,-38.77109],[-113,-38.22138],[-112.5,-37.66424],[-112,-37.10008],[-111.5,-36.52942],[-111,-35.9528],[-110.5,-35.37081],[-110,-34.78414],[-109.5,-34.19349],[-109,-33.5996],[-108.5,-33.00328],[-108,-32.40534],[-107.5,-31.80665],[-107,-31.20807],[-106.5,-30.61046],[-106,-30.0147],[-105.5,-29.42164],[-105,-28.83212],[-104.5,-28.24692],[-104,-27.66683],[-103.5,-27.09255],[-103,-26.52476],[-102.5,-25.96407],[-102,-25.41103],[-101.5,-24.86615],[-101,-24.32985],[-100.5,-23.80254],[-100,-23.28451],[-99.5,-22.77605],[-99,-22.27737],[-98.5,-21.78862],[-98,-21.30994],[-97.5,-20.8414],[-97,-20.38303],[-96.5,-19.93485],[-96,-19.49683],[-95.5,-19.06892],[-95,-18.65103],[-94.5,-18.24308],[-94,-17.84496],[-93.5,-17.45652],[-93,-17.07764],[-92.5,-16.70815],[-92,-16.34791],[-91.5,-15.99674],[-91,-15.65448],[-90.5,-15.32095],[-90,-14.99597],[-89.5,-14.67937],[-89,-14.37098],[-88.5,-14.07061],[-88,-13.77808],[-87.5,-13.49323],[-87,-13.21589],[-86.5,-12.94587],[-86,-12.68303],[-85.5,-12.42719],[-85,-12.17819],[-84.5,-11.93588],[-84,-11.70011],[-83.5,-11.47072],[-83,-11.24758],[-82.5,-11.03054],[-82,-10.81946],[-81.5,-10.61421],[-81,-10.41466],[-80.5,-10.22068],[-80,-10.03215],[-79.5,-9.84895],[-79,-9.67097],[-78.5,-9.49808],[-78,-9.33019],[-77.5,-9.16719],[-77,-9.00897],[-76.5,-8.85544],[-76,-8.70649],[-75.5,-8.56204],[-75,-8.42199],[-74.5,-8.28625],[-74,-8.15475],[-73.5,-8.02739],[-73,-7.90409],[-72.5,-7.78478],[-72,-7.66939],[-71.5,-7.55783],[-71,-7.45003],[-70.5,-7.34594],[-70,-7.24547],[-69.5,-7.14856],[-69,-7.05515],[-68.5,-6.96518],[-68,-6.87859],[-67.5,-6.79532],[-67,-6.71531],[-66.5,-6.63851],[-66,-6.56486],[-65.5,-6.49431],[-65,-6.42681],[-64.5,-6.36231],[-64,-6.30077],[-63.51367,-6.2437]]}},{"type":"Feature","id":"+10390822:north:0","properties":{"id":"+10390822","year":1039,"month":8,"day":22,"time_tdt":"12:38:24","type":"금환일식","type_code":"A","saros":100,"gamma":0.48958,"magnitude":0.998,"greatest":{"lat":35.79169,"lng":12.08228},"path_width_km":7.9,"duration":"00m10s","delta_t_seconds":1354.2,"catalog_number":7216,"source":"NASA Five Millennium Canon of Solar Eclipses","source_url":"https://eclipse.gsfc.nasa.gov/SEsearch/SEsearchmap.php?Ecl=%2B10390822","boundary":"north","name":"1039-08-22 금환일식"},"geometry":{"type":"LineString","coordinates":[[-84.75,55.65331],[-84.5,55.69821],[-84,55.78698],[-83.5,55.87437],[-83,55.96039],[-82.5,56.04503],[-82,56.12829],[-81.5,56.21017],[-81,56.29066],[-80.5,56.36978],[-80,56.44751],[-79.5,56.52385],[-79,56.59881],[-78.5,56.67238],[-78,56.74457],[-77.5,56.81536],[-77,56.88477],[-76.5,56.95278],[-76,57.01941],[-75.5,57.08464],[-75,57.14848],[-74.5,57.21093],[-74,57.27198],[-73.5,57.33163],[-73,57.38989],[-72.5,57.44675],[-72,57.50222],[-71.5,57.55628],[-71,57.60894],[-70.5,57.66021],[-70,57.71006],[-69.5,57.75852],[-69,57.80556],[-68.5,57.8512],[-68,57.89544],[-67.5,57.93826],[-67,57.97967],[-66.5,58.01966],[-66,58.05824],[-65.5,58.0954],[-65,58.13115],[-64.5,58.16547],[-64,58.19836],[-63.5,58.22983],[-63,58.25987],[-62.5,58.28847],[-62,58.31564],[-61.5,58.34138],[-61,58.36567],[-60.5,58.38851],[-60,58.40991],[-59.5,58.42986],[-59,58.44834],[-58.5,58.46537],[-58,58.48094],[-57.5,58.49503],[-57,58.50765],[-56.5,58.5188],[-56,58.52846],[-55.5,58.53663],[-55,58.5433],[-54.5,58.54848],[-54,58.55215],[-53.5,58.5543],[-53,58.55494],[-52.5,58.55405],[-52,58.55163],[-51.5,58.54767],[-51,58.54216],[-50.5,58.5351],[-50,58.52647],[-49.5,58.51627],[-49,58.50449],[-48.5,58.49112],[-48,58.47616],[-47.5,58.45958],[-47,58.44138],[-46.5,58.42156],[-46,58.40009],[-45.5,58.37697],[-45,58.35219],[-44.5,58.32574],[-44,58.29759],[-43.5,58.26775],[-43,58.2362],[-42.5,58.20292],[-42,58.1679],[-41.5,58.13113],[-41,58.09258],[-40.5,58.05225],[-40,58.01012],[-39.5,57.96618],[-39,57.9204],[-38.5,57.87277],[-38,57.82327],[-37.5,57.77188],[-37,57.71859],[-36.5,57.66337],[-36,57.60621],[-35.5,57.54708],[-35,57.48596],[-34.5,57.42283],[-34,57.35767],[-33.5,57.29046],[-33,57.22116],[-32.5,57.14976],[-32,57.07623],[-31.5,57.00054],[-31,56.92267],[-30.5,56.84258],[-30,56.76026],[-29.5,56.67567],[-29,56.58878],[-28.5,56.49955],[-28,56.40797],[-27.5,56.31398],[-27,56.21757],[-26.5,56.11869],[-26,56.0173],[-25.5,55.91338],[-25,55.80688],[-24.5,55.69777],[-24,55.586],[-23.5,55.47152],[-23,55.35431],[-22.5,55.2343],[-22,55.11147],[-21.5,54.98576],[-21,54.85711],[-20.5,54.72549],[-20,54.59085],[-19.5,54.45312],[-19,54.31225],[-18.5,54.16819],[-18,54.02089],[-17.5,53.87027],[-17,53.71628],[-16.5,53.55887],[-16,53.39795],[-15.5,53.23347],[-15,53.06536],[-14.5,52.89354],[-14,52.71795],[-13.5,52.53851],[-13,52.35515],[-12.5,52.16777],[-12,51.97631],[-11.5,51.78068],[-11,51.58079],[-10.5,51.37656],[-10,51.16789],[-9.5,50.95469],[-9,50.73687],[-8.5,50.51432],[-8,50.28695],[-7.5,50.05466],[-7,49.81733],[-6.5,49.57486],[-6,49.32714],[-5.5,49.07406],[-5,48.81549],[-4.5,48.55133],[-4,48.28144],[-3.5,48.00572],[-3,47.72402],[-2.5,47.43624],[-2,47.14223],[-1.5,46.84188],[-1,46.53505],[-0.5,46.22161],[0,45.90142],[0.5,45.57437],[1,45.24031],[1.5,44.89912],[2,44.55068],[2.5,44.19486],[3,43.83154],[3.5,43.4606],[4,43.08195],[4.5,42.69547],[5,42.30108],[5.5,41.8987],[6,41.48825],[6.5,41.06967],[7,40.64293],[7.5,40.20801],[8,39.7649],[8.5,39.31362],[9,38.85422],[9.5,38.38676],[10,37.91134],[10.5,37.42811],[11,36.93721],[11.5,36.43886],[12,35.9333],[12.5,35.42079],[13,34.90167],[13.5,34.37629],[14,33.84504],[14.5,33.30839],[15,32.7668],[15.5,32.22079],[16,31.67093],[16.5,31.11779],[17,30.562],[17.5,30.00419],[18,29.44502],[18.5,28.88516],[19,28.32528],[19.5,27.76607],[20,27.20819],[20.5,26.6523],[21,26.09904],[21.5,25.54905],[22,25.0029],[22.5,24.46116],[23,23.92437],[23.5,23.393],[24,22.86752],[24.5,22.34833],[25,21.8358],[25.5,21.33027],[26,20.83202],[26.5,20.3413],[27,19.85832],[27.5,19.38327],[28,18.91628],[28.5,18.45746],[29,18.0069],[29.5,17.56464],[30,17.13072],[30.5,16.70514],[31,16.2879],[31.5,15.87895],[32,15.47825],[32.5,15.08574],[33,14.70134],[33.5,14.32497],[34,13.95653],[34.5,13.59593],[35,13.24305],[35.5,12.89778],[36,12.56001],[36.5,12.22961],[37,11.90645],[37.5,11.59043],[38,11.2814],[38.5,10.97924],[39,10.68382],[39.5,10.39503],[40,10.11272],[40.5,9.83679],[41,9.56709],[41.5,9.30352],[42,9.04595],[42.5,8.79427],[43,8.54835],[43.5,8.30809],[44,8.07337],[44.5,7.84408],[45,7.62012],[45.5,7.40139],[46,7.18777],[46.5,6.97917],[47,6.77549],[47.5,6.57664],[48,6.38252],[48.5,6.19305],[49,6.00813],[49.5,5.82769],[50,5.65162],[50.5,5.47987],[51,5.31234],[51.5,5.14895],[52,4.98964],[52.5,4.83432],[53,4.68294],[53.5,4.53541],[54,4.39167],[54.5,4.25166],[55,4.11531],[55.5,3.98255],[56,3.85334],[56.5,3.7276],[57,3.60528],[57.5,3.48633],[58,3.37068],[58.5,3.25829],[59,3.14911],[59.5,3.04308],[60,2.94016],[60.5,2.84029],[61,2.74343],[61.5,2.64954],[62,2.55857],[62.5,2.47047]]}},{"type":"Feature","id":"+10390822:center:0","properties":{"id":"+10390822","year":1039,"month":8,"day":22,"time_tdt":"12:38:24","type":"금환일식","type_code":"A","saros":100,"gamma":0.48958,"magnitude":0.998,"greatest":{"lat":35.79169,"lng":12.08228},"path_width_km":7.9,"duration":"00m10s","delta_t_seconds":1354.2,"catalog_number":7216,"source":"NASA Five Millennium Canon of Solar Eclipses","source_url":"https://eclipse.gsfc.nasa.gov/SEsearch/SEsearchmap.php?Ecl=%2B10390822","boundary":"center","name":"1039-08-22 금환일식"},"geometry":{"type":"LineString","coordinates":[[-84.734,55.34299],[-84.5,55.35713],[-84,55.44826],[-83.5,55.538],[-83,55.62635],[-82.5,55.71332],[-82,55.79889],[-81.5,55.88308],[-81,55.96586],[-80.5,56.04726],[-80,56.12726],[-79.5,56.20586],[-79,56.28307],[-78.5,56.35887],[-78,56.43328],[-77.5,56.50628],[-77,56.57789],[-76.5,56.64809],[-76,56.71688],[-75.5,56.78428],[-75,56.85026],[-74.5,56.91485],[-74,56.97802],[-73.5,57.03978],[-73,57.10014],[-72.5,57.15908],[-72,57.21662],[-71.5,57.27274],[-71,57.32745],[-70.5,57.38074],[-70,57.43262],[-69.5,57.48308],[-69,57.53212],[-68.5,57.57974],[-68,57.62594],[-67.5,57.67071],[-67,57.71406],[-66.5,57.75599],[-66,57.79648],[-65.5,57.83555],[-65,57.87318],[-64.5,57.90938],[-64,57.94414],[-63.5,57.97746],[-63,58.00934],[-62.5,58.03977],[-62,58.06876],[-61.5,58.09629],[-61,58.12237],[-60.5,58.147],[-60,58.17016],[-59.5,58.19186],[-59,58.21209],[-58.5,58.23085],[-58,58.24814],[-57.5,58.26394],[-57,58.27826],[-56.5,58.29109],[-56,58.30242],[-55.5,58.31225],[-55,58.32058],[-54.5,58.32739],[-54,58.33269],[-53.5,58.33647],[-53,58.33871],[-52.5,58.33942],[-52,58.33859],[-51.5,58.33621],[-51,58.33227],[-50.5,58.32676],[-50,58.31968],[-49.5,58.31102],[-49,58.30077],[-48.5,58.28891],[-48,58.27545],[-47.5,58.26038],[-47,58.24367],[-46.5,58.22533],[-46,58.20533],[-45.5,58.18368],[-45,58.16035],[-44.5,58.13535],[-44,58.10864],[-43.5,58.08023],[-43,58.0501],[-42.5,58.01824],[-42,57.98463],[-41.5,57.94925],[-41,57.9121],[-40.5,57.87316],[-40,57.83241],[-39.5,57.78983],[-39,57.74542],[-38.5,57.69915],[-38,57.651],[-37.5,57.60096],[-37,57.54901],[-36.5,57.49512],[-36,57.43929],[-35.5,57.38148],[-35,57.32168],[-34.5,57.25986],[-34,57.19601],[-33.5,57.13009],[-33,57.06209],[-32.5,56.99198],[-32,56.91974],[-31.5,56.84533],[-31,56.76874],[-30.5,56.68993],[-30,56.60888],[-29.5,56.52555],[-29,56.43992],[-28.5,56.35196],[-28,56.26163],[-27.5,56.1689],[-27,56.07374],[-26.5,55.9761],[-26,55.87597],[-25.5,55.77329],[-25,55.66803],[-24.5,55.56015],[-24,55.44962],[-23.5,55.33638],[-23,55.2204],[-22.5,55.10163],[-22,54.98003],[-21.5,54.85554],[-21,54.72813],[-20.5,54.59774],[-20,54.46432],[-19.5,54.32782],[-19,54.18818],[-18.5,54.04535],[-18,53.89927],[-17.5,53.74988],[-17,53.59712],[-16.5,53.44093],[-16,53.28125],[-15.5,53.118],[-15,52.95111],[-14.5,52.78053],[-14,52.60617],[-13.5,52.42797],[-13,52.24583],[-12.5,52.0597],[-12,51.86947],[-11.5,51.67508],[-11,51.47643],[-10.5,51.27344],[-10,51.06601],[-9.5,50.85406],[-9,50.63748],[-8.5,50.41618],[-8,50.19006],[-7.5,49.95901],[-7,49.72294],[-6.5,49.48172],[-6,49.23525],[-5.5,48.98341],[-5,48.72609],[-4.5,48.46318],[-4,48.19454],[-3.5,47.92006],[-3,47.63961],[-2.5,47.35307],[-2,47.0603],[-1.5,46.76118],[-1,46.45557],[-0.5,46.14334],[0,45.82437],[0.5,45.49851],[1,45.16564],[1.5,44.82563],[2,44.47835],[2.5,44.12367],[3,43.76147],[3.5,43.39164],[4,43.01406],[4.5,42.62863],[5,42.23526],[5.5,41.83385],[6,41.42434],[6.5,41.00667],[7,40.58078],[7.5,40.14666],[8,39.70429],[8.5,39.25368],[9,38.79488],[9.5,38.32796],[10,37.85299],[10.5,37.37012],[11,36.87949],[11.5,36.38131],[12,35.8758],[12.5,35.36323],[13,34.84393],[13.5,34.31824],[14,33.78656],[14.5,33.24933],[15,32.70702],[15.5,32.16015],[16,31.60927],[16.5,31.05496],[17,30.49785],[17.5,29.93857],[18,29.37778],[18.5,28.81614],[19,28.25435],[19.5,27.69308],[20,27.133],[20.5,26.57479],[21,26.01909],[21.5,25.46653],[22,24.91772],[22.5,24.37322],[23,23.83357],[23.5,23.29928],[24,22.77079],[24.5,22.24854],[25,21.7329],[25.5,21.2242],[26,20.72275],[26.5,20.22881],[27,19.74258],[27.5,19.26426],[28,18.79399],[28.5,18.33189],[29,17.87804],[29.5,17.4325],[30,16.99531],[30.5,16.56647],[31,16.14597],[31.5,15.73378],[32,15.32987],[32.5,14.93415],[33,14.54658],[33.5,14.16705],[34,13.79549],[34.5,13.43178],[35,13.07581],[35.5,12.72749],[36,12.38668],[36.5,12.05328],[37,11.72714],[37.5,11.40816],[38,11.0962],[38.5,10.79114],[39,10.49284],[39.5,10.20119],[40,9.91605],[40.5,9.63731],[41,9.36483],[41.5,9.0985],[42,8.83819],[42.5,8.58378],[43,8.33517],[43.5,8.09223],[44,7.85486],[44.5,7.62294],[45,7.39636],[45.5,7.17503],[46,6.95883],[46.5,6.74767],[47,6.54145],[47.5,6.34007],[48,6.14345],[48.5,5.95148],[49,5.76409],[49.5,5.58118],[50,5.40268],[50.5,5.22849],[51,5.05854],[51.5,4.89275],[52,4.73105],[52.5,4.57336],[53,4.41962],[53.5,4.26974],[54,4.12367],[54.5,3.98133],[55,3.84267],[55.5,3.70761],[56,3.57611],[56.5,3.44809],[57,3.32351],[57.5,3.2023],[58,3.08441],[58.5,2.96979],[59,2.85838],[59.5,2.75014],[60,2.64501],[60.5,2.54295],[61,2.4439],[61.5,2.34784],[62,2.2547],[62.41133,2.18248]]}},{"type":"Feature","id":"+10390822:south:0","properties":{"id":"+10390822","year":1039,"month":8,"day":22,"time_tdt":"12:38:24","type":"금환일식","type_code":"A","saros":100,"gamma":0.48958,"magnitude":0.998,"greatest":{"lat":35.79169,"lng":12.08228},"path_width_km":7.9,"duration":"00m10s","delta_t_seconds":1354.2,"catalog_number":7216,"source":"NASA Five Millennium Canon of Solar Eclipses","source_url":"https://eclipse.gsfc.nasa.gov/SEsearch/SEsearchmap.php?Ecl=%2B10390822","boundary":"south","name":"1039-08-22 금환일식"},"geometry":{"type":"LineString","coordinates":[[-84.48438,55.0183],[-84,55.10886],[-83.5,55.20097],[-83,55.29168],[-82.5,55.38099],[-82,55.4689],[-81.5,55.55541],[-81,55.64051],[-80.5,55.72421],[-80,55.8065],[-79.5,55.88738],[-79,55.96686],[-78.5,56.04492],[-78,56.12157],[-77.5,56.19681],[-77,56.27063],[-76.5,56.34304],[-76,56.41403],[-75.5,56.4836],[-75,56.55176],[-74.5,56.61849],[-74,56.68381],[-73.5,56.74771],[-73,56.81018],[-72.5,56.87123],[-72,56.93086],[-71.5,56.98906],[-71,57.04583],[-70.5,57.10117],[-70,57.15509],[-69.5,57.20758],[-69,57.25863],[-68.5,57.30825],[-68,57.35644],[-67.5,57.40319],[-67,57.4485],[-66.5,57.49237],[-66,57.5348],[-65.5,57.57579],[-65,57.61533],[-64.5,57.65343],[-64,57.69007],[-63.5,57.72526],[-63,57.759],[-62.5,57.79128],[-62,57.8221],[-61.5,57.85146],[-61,57.87935],[-60.5,57.90577],[-60,57.93072],[-59.5,57.95419],[-59,57.97618],[-58.5,57.99669],[-58,58.01571],[-57.5,58.03323],[-57,58.04926],[-56.5,58.06379],[-56,58.07681],[-55.5,58.08832],[-55,58.09832],[-54.5,58.10679],[-54,58.11373],[-53.5,58.11914],[-53,58.12301],[-52.5,58.12533],[-52,58.1261],[-51.5,58.1253],[-51,58.12294],[-50.5,58.11901],[-50,58.11349],[-49.5,58.10638],[-49,58.09766],[-48.5,58.08734],[-48,58.0754],[-47.5,58.06184],[-47,58.04663],[-46.5,58.02978],[-46,58.01127],[-45.5,57.99109],[-45,57.96923],[-44.5,57.94569],[-44,57.92043],[-43.5,57.89346],[-43,57.86476],[-42.5,57.83432],[-42,57.80213],[-41.5,57.76816],[-41,57.73241],[-40.5,57.69487],[-40,57.6555],[-39.5,57.61431],[-39,57.57127],[-38.5,57.52636],[-38,57.47957],[-37.5,57.43088],[-37,57.38028],[-36.5,57.32773],[-36,57.27323],[-35.5,57.21675],[-35,57.15827],[-34.5,57.09777],[-34,57.03523],[-33.5,56.97062],[-33,56.90392],[-32.5,56.83511],[-32,56.76416],[-31.5,56.69104],[-31,56.61573],[-30.5,56.5382],[-30,56.45842],[-29.5,56.37637],[-29,56.292],[-28.5,56.2053],[-28,56.11623],[-27.5,56.02476],[-27,55.93085],[-26.5,55.83447],[-26,55.73558],[-25.5,55.63415],[-25,55.53013],[-24.5,55.42349],[-24,55.3142],[-23.5,55.20219],[-23,55.08745],[-22.5,54.96991],[-22,54.84954],[-21.5,54.72629],[-21,54.6001],[-20.5,54.47094],[-20,54.33875],[-19.5,54.20347],[-19,54.06506],[-18.5,53.92345],[-18,53.7786],[-17.5,53.63044],[-17,53.4789],[-16.5,53.32394],[-16,53.16548],[-15.5,53.00345],[-15,52.8378],[-14.5,52.66844],[-14,52.49531],[-13.5,52.31833],[-13,52.13743],[-12.5,51.95252],[-12,51.76353],[-11.5,51.57037],[-11,51.37296],[-10.5,51.1712],[-10,50.96501],[-9.5,50.75429],[-9,50.53895],[-8.5,50.31889],[-8,50.09401],[-7.5,49.86421],[-7,49.62937],[-6.5,49.38939],[-6,49.14416],[-5.5,48.89357],[-5,48.63749],[-4.5,48.37581],[-4,48.10841],[-3.5,47.83517],[-3,47.55595],[-2.5,47.27064],[-2,46.97909],[-1.5,46.68119],[-1,46.37679],[-0.5,46.06578],[0,45.748],[0.5,45.42333],[1,45.09164],[1.5,44.75279],[2,44.40665],[2.5,44.0531],[3,43.69201],[3.5,43.32327],[4,42.94675],[4.5,42.56236],[5,42.16998],[5.5,41.76954],[6,41.36096],[6.5,40.94417],[7,40.51912],[7.5,40.08578],[8,39.64413],[8.5,39.19419],[9,38.73598],[9.5,38.26957],[10,37.79504],[10.5,37.31252],[11,36.82214],[11.5,36.32411],[12,35.81864],[12.5,35.30601],[13,34.78651],[13.5,34.2605],[14,33.72837],[14.5,33.19054],[15,32.6475],[15.5,32.09975],[16,31.54784],[16.5,30.99235],[17,30.43391],[17.5,29.87314],[18,29.31071],[18.5,28.74728],[19,28.18355],[19.5,27.6202],[20,27.05791],[20.5,26.49736],[21,25.93919],[21.5,25.38406],[22,24.83256],[22.5,24.28527],[23,23.74275],[23.5,23.20551],[24,22.674],[24.5,22.14866],[25,21.62988],[25.5,21.11801],[26,20.61334],[26.5,20.11615],[27,19.62665],[27.5,19.14504],[28,18.67147],[28.5,18.20607],[29,17.74892],[29.5,17.30008],[30,16.8596],[30.5,16.42748],[31,16.00371],[31.5,15.58828],[32,15.18113],[32.5,14.78221],[33,14.39145],[33.5,14.00876],[34,13.63405],[34.5,13.26723],[35,12.90818],[35.5,12.55679],[36,12.21294],[36.5,11.87652],[37,11.54741],[37.5,11.22546],[38,10.91057],[38.5,10.6026],[39,10.30142],[39.5,10.00691],[40,9.71894],[40.5,9.43739],[41,9.16212],[41.5,8.89303],[42,8.62998],[42.5,8.37286],[43,8.12155],[43.5,7.87594],[44,7.63591],[44.5,7.40136],[45,7.17217],[45.5,6.94824],[46,6.72947],[46.5,6.51576],[47,6.307],[47.5,6.1031],[48,5.90397],[48.5,5.70952],[49,5.51966],[49.5,5.3343],[50,5.15335],[50.5,4.97674],[51,4.80438],[51.5,4.6362],[52,4.47211],[52.5,4.31206],[53,4.15596],[53.5,4.00374],[54,3.85534],[54.5,3.71068],[55,3.56971],[55.5,3.43237],[56,3.29858],[56.5,3.1683],[57,3.04145],[57.5,2.918],[58,2.79787],[58.5,2.68102],[59,2.5674],[59.5,2.45695],[60,2.34963],[60.5,2.24538],[61,2.14416],[61.5,2.04592],[62,1.95062],[62.28125,1.89829]]}}],"attribution":"Eclipse Predictions by Fred Espenak and Jean Meeus (NASA's GSFC)","generated_at":"2026-09-23T03:35:41.412Z"}
