{"type":"FeatureCollection","year":1053,"events":[{"id":"+10530520","year":1053,"month":5,"day":20,"time_tdt":"16:28:31","type":"개기일식","type_code":"T","saros":93,"gamma":-0.74811,"magnitude":1.06903,"greatest":{"lat":-25.66787,"lng":-49.64563},"path_width_km":336,"duration":"05m55s","delta_t_seconds":1287.2,"catalog_number":7249,"source":"NASA Five Millennium Canon of Solar Eclipses","source_url":"https://eclipse.gsfc.nasa.gov/SEsearch/SEsearchmap.php?Ecl=%2B10530520"},{"id":"+10531113","year":1053,"month":11,"day":13,"time_tdt":"06:13:19","type":"금환일식","type_code":"A","saros":98,"gamma":0.6846,"magnitude":0.93547,"greatest":{"lat":21.57332,"lng":102.65607},"path_width_km":324.2,"duration":"07m44s","delta_t_seconds":1284.8,"catalog_number":7250,"source":"NASA Five Millennium Canon of Solar Eclipses","source_url":"https://eclipse.gsfc.nasa.gov/SEsearch/SEsearchmap.php?Ecl=%2B10531113"}],"features":[{"type":"Feature","id":"+10530520:north:0","properties":{"id":"+10530520","year":1053,"month":5,"day":20,"time_tdt":"16:28:31","type":"개기일식","type_code":"T","saros":93,"gamma":-0.74811,"magnitude":1.06903,"greatest":{"lat":-25.66787,"lng":-49.64563},"path_width_km":336,"duration":"05m55s","delta_t_seconds":1287.2,"catalog_number":7249,"source":"NASA Five Millennium Canon of Solar Eclipses","source_url":"https://eclipse.gsfc.nasa.gov/SEsearch/SEsearchmap.php?Ecl=%2B10530520","boundary":"north","name":"1053-05-20 개기일식"},"geometry":{"type":"LineString","coordinates":[[-99.5,-56.67644],[-99,-56.43205],[-98.5,-56.18516],[-98,-55.93575],[-97.5,-55.6838],[-97,-55.42931],[-96.5,-55.17227],[-96,-54.91265],[-95.5,-54.65044],[-95,-54.38564],[-94.5,-54.11822],[-94,-53.84819],[-93.5,-53.57552],[-93,-53.30021],[-92.5,-53.02224],[-92,-52.74161],[-91.5,-52.45831],[-91,-52.17232],[-90.5,-51.88365],[-90,-51.59228],[-89.5,-51.29821],[-89,-51.00143],[-88.5,-50.70194],[-88,-50.39974],[-87.5,-50.09482],[-87,-49.78718],[-86.5,-49.47683],[-86,-49.16376],[-85.5,-48.84798],[-85,-48.5295],[-84.5,-48.20831],[-84,-47.88443],[-83.5,-47.55787],[-83,-47.22865],[-82.5,-46.89676],[-82,-46.56224],[-81.5,-46.2251],[-81,-45.88537],[-80.5,-45.54306],[-80,-45.19821],[-79.5,-44.85085],[-79,-44.501],[-78.5,-44.14872],[-78,-43.79404],[-77.5,-43.43701],[-77,-43.07767],[-76.5,-42.71608],[-76,-42.35231],[-75.5,-41.98641],[-75,-41.61845],[-74.5,-41.24852],[-74,-40.87669],[-73.5,-40.50304],[-73,-40.12768],[-72.5,-39.7507],[-72,-39.3722],[-71.5,-38.99231],[-71,-38.61114],[-70.5,-38.22883],[-70,-37.84551],[-69.5,-37.46132],[-69,-37.07642],[-68.5,-36.69097],[-68,-36.30514],[-67.5,-35.91911],[-67,-35.53307],[-66.5,-35.14721],[-66,-34.76174],[-65.5,-34.37688],[-65,-33.99283],[-64.5,-33.60985],[-64,-33.22815],[-63.5,-32.84799],[-63,-32.46962],[-62.5,-32.0933],[-62,-31.71929],[-61.5,-31.34786],[-61,-30.9793],[-60.5,-30.61386],[-60,-30.25184],[-59.5,-29.89352],[-59,-29.53918],[-58.5,-29.1891],[-58,-28.84356],[-57.5,-28.50284],[-57,-28.16722],[-56.5,-27.83697],[-56,-27.51234],[-55.5,-27.19359],[-55,-26.88098],[-54.5,-26.57474],[-54,-26.27509],[-53.5,-25.98226],[-53,-25.69645],[-52.5,-25.41784],[-52,-25.14663],[-51.5,-24.88297],[-51,-24.62701],[-50.5,-24.37888],[-50,-24.13872],[-49.5,-23.90662],[-49,-23.68267],[-48.5,-23.46696],[-48,-23.25953],[-47.5,-23.06044],[-47,-22.86972],[-46.5,-22.68739],[-46,-22.51345],[-45.5,-22.34791],[-45,-22.19073],[-44.5,-22.0419],[-44,-21.90136],[-43.5,-21.76908],[-43,-21.64498],[-42.5,-21.52901],[-42,-21.42108],[-41.5,-21.32112],[-41,-21.22903],[-40.5,-21.14472],[-40,-21.06808],[-39.5,-20.99901],[-39,-20.9374],[-38.5,-20.88314],[-38,-20.8361],[-37.5,-20.79616],[-37,-20.76322],[-36.5,-20.73713],[-36,-20.71777],[-35.5,-20.70503],[-35,-20.69876],[-34.5,-20.69885],[-34,-20.70516],[-33.5,-20.71756],[-33,-20.73594],[-32.5,-20.76016],[-32,-20.79009],[-31.5,-20.82561],[-31,-20.8666],[-30.5,-20.91293],[-30,-20.96448],[-29.5,-21.02114],[-29,-21.08278],[-28.5,-21.14928],[-28,-21.22053],[-27.5,-21.29642],[-27,-21.37684],[-26.5,-21.46167],[-26,-21.55081],[-25.5,-21.64415],[-25,-21.74159],[-24.5,-21.84303],[-24,-21.94836],[-23.5,-22.05749],[-23,-22.17032],[-22.5,-22.28676],[-22,-22.40671],[-21.5,-22.53009],[-21,-22.6568],[-20.5,-22.78676],[-20,-22.91989],[-19.5,-23.05609],[-19,-23.1953],[-18.5,-23.33743],[-18,-23.4824],[-17.5,-23.63014],[-17,-23.78058],[-16.5,-23.93363],[-16,-24.08923],[-15.5,-24.24732],[-15,-24.40782],[-14.5,-24.57066],[-14,-24.73579],[-13.5,-24.90314],[-13,-25.07264],[-12.5,-25.24424],[-12,-25.41788],[-11.5,-25.5935],[-11,-25.77105],[-10.5,-25.95046],[-10,-26.13169],[-9.5,-26.31469],[-9,-26.4994],[-8.5,-26.68577],[-8,-26.87375],[-7.5,-27.0633],[-7,-27.25437],[-6.5,-27.44691],[-6,-27.64088],[-5.5,-27.83624],[-5,-28.03294],[-4.5,-28.23094],[-4,-28.43021],[-3.5,-28.63069],[-3,-28.83236]]}},{"type":"Feature","id":"+10530520:center:0","properties":{"id":"+10530520","year":1053,"month":5,"day":20,"time_tdt":"16:28:31","type":"개기일식","type_code":"T","saros":93,"gamma":-0.74811,"magnitude":1.06903,"greatest":{"lat":-25.66787,"lng":-49.64563},"path_width_km":336,"duration":"05m55s","delta_t_seconds":1287.2,"catalog_number":7249,"source":"NASA Five Millennium Canon of Solar Eclipses","source_url":"https://eclipse.gsfc.nasa.gov/SEsearch/SEsearchmap.php?Ecl=%2B10530520","boundary":"center","name":"1053-05-20 개기일식"},"geometry":{"type":"LineString","coordinates":[[-98.22665,-57.6474],[-98,-57.42862],[-97.5,-57.18059],[-97,-56.93003],[-96.5,-56.67693],[-96,-56.42127],[-95.5,-56.16305],[-95,-55.90226],[-94.5,-55.63887],[-94,-55.37288],[-93.5,-55.10428],[-93,-54.83306],[-92.5,-54.55921],[-92,-54.28272],[-91.5,-54.00358],[-91,-53.72178],[-90.5,-53.43731],[-90,-53.15018],[-89.5,-52.86037],[-89,-52.56788],[-88.5,-52.2727],[-88,-51.97484],[-87.5,-51.67428],[-87,-51.37104],[-86.5,-51.0651],[-86,-50.75647],[-85.5,-50.44516],[-85,-50.13117],[-84.5,-49.8145],[-84,-49.49517],[-83.5,-49.17318],[-83,-48.84854],[-82.5,-48.52127],[-82,-48.19138],[-81.5,-47.85889],[-81,-47.52383],[-80.5,-47.1862],[-80,-46.84605],[-79.5,-46.50339],[-79,-46.15827],[-78.5,-45.81071],[-78,-45.46075],[-77.5,-45.10844],[-77,-44.75383],[-76.5,-44.39695],[-76,-44.03787],[-75.5,-43.67665],[-75,-43.31335],[-74.5,-42.94804],[-74,-42.5808],[-73.5,-42.2117],[-73,-41.84083],[-72.5,-41.46829],[-72,-41.09417],[-71.5,-40.71858],[-71,-40.34163],[-70.5,-39.96344],[-70,-39.58413],[-69.5,-39.20385],[-69,-38.82273],[-68.5,-38.44093],[-68,-38.0586],[-67.5,-37.67591],[-67,-37.29304],[-66.5,-36.91017],[-66,-36.52749],[-65.5,-36.1452],[-65,-35.76351],[-64.5,-35.38264],[-64,-35.00281],[-63.5,-34.62427],[-63,-34.24723],[-62.5,-33.87196],[-62,-33.49871],[-61.5,-33.12774],[-61,-32.7593],[-60.5,-32.39368],[-60,-32.03114],[-59.5,-31.67196],[-59,-31.31641],[-58.5,-30.96478],[-58,-30.61734],[-57.5,-30.27437],[-57,-29.93614],[-56.5,-29.60293],[-56,-29.27501],[-55.5,-28.95262],[-55,-28.63604],[-54.5,-28.3255],[-54,-28.02124],[-53.5,-27.72349],[-53,-27.43246],[-52.5,-27.14837],[-52,-26.8714],[-51.5,-26.60174],[-51,-26.33954],[-50.5,-26.08497],[-50,-25.83816],[-49.5,-25.59922],[-49,-25.36828],[-48.5,-25.14542],[-48,-24.93072],[-47.5,-24.72425],[-47,-24.52605],[-46.5,-24.33617],[-46,-24.15462],[-45.5,-23.98141],[-45,-23.81653],[-44.5,-23.65998],[-44,-23.51173],[-43.5,-23.37173],[-43,-23.23994],[-42.5,-23.11631],[-42,-23.00076],[-41.5,-22.89322],[-41,-22.79361],[-40.5,-22.70184],[-40,-22.61782],[-39.5,-22.54144],[-39,-22.4726],[-38.5,-22.4112],[-38,-22.35711],[-37.5,-22.31021],[-37,-22.2704],[-36.5,-22.23755],[-36,-22.21153],[-35.5,-22.19221],[-35,-22.17948],[-34.5,-22.17321],[-34,-22.17326],[-33.5,-22.17951],[-33,-22.19183],[-32.5,-22.21009],[-32,-22.23417],[-31.5,-22.26394],[-31,-22.29927],[-30.5,-22.34005],[-30,-22.38614],[-29.5,-22.43743],[-29,-22.49379],[-28.5,-22.55511],[-28,-22.62127],[-27.5,-22.69215],[-27,-22.76765],[-26.5,-22.84765],[-26,-22.93204],[-25.5,-23.02071],[-25,-23.11356],[-24.5,-23.21048],[-24,-23.31137],[-23.5,-23.41614],[-23,-23.52468],[-22.5,-23.6369],[-22,-23.7527],[-21.5,-23.872],[-21,-23.9947],[-20.5,-24.12071],[-20,-24.24996],[-19.5,-24.38234],[-19,-24.51779],[-18.5,-24.65622],[-18,-24.79755],[-17.5,-24.94171],[-17,-25.08862],[-16.5,-25.23821],[-16,-25.3904],[-15.5,-25.54512],[-15,-25.70231],[-14.5,-25.8619],[-14,-26.02382],[-13.5,-26.18801],[-13,-26.35441],[-12.5,-26.52296],[-12,-26.69359],[-11.5,-26.86625],[-11,-27.04088],[-10.5,-27.21742],[-10,-27.39583],[-9.5,-27.57605],[-9,-27.75802],[-8.5,-27.9417],[-8,-28.12703],[-7.5,-28.31398],[-7,-28.50248],[-6.5,-28.6925],[-6,-28.88399],[-5.5,-29.07691],[-5,-29.27121],[-4.5,-29.46686],[-4,-29.6638],[-3.5,-29.862],[-3.05743,-30.02895]]}},{"type":"Feature","id":"+10530520:south:0","properties":{"id":"+10530520","year":1053,"month":5,"day":20,"time_tdt":"16:28:31","type":"개기일식","type_code":"T","saros":93,"gamma":-0.74811,"magnitude":1.06903,"greatest":{"lat":-25.66787,"lng":-49.64563},"path_width_km":336,"duration":"05m55s","delta_t_seconds":1287.2,"catalog_number":7249,"source":"NASA Five Millennium Canon of Solar Eclipses","source_url":"https://eclipse.gsfc.nasa.gov/SEsearch/SEsearchmap.php?Ecl=%2B10530520","boundary":"south","name":"1053-05-20 개기일식"},"geometry":{"type":"LineString","coordinates":[[-97.09766,-58.52768],[-97,-58.47929],[-96.5,-58.23002],[-96,-57.97822],[-95.5,-57.72386],[-95,-57.46694],[-94.5,-57.20744],[-94,-56.94535],[-93.5,-56.68068],[-93,-56.41339],[-92.5,-56.14349],[-92,-55.87097],[-91.5,-55.59581],[-91,-55.31802],[-90.5,-55.03758],[-90,-54.75449],[-89.5,-54.46874],[-89,-54.18034],[-88.5,-53.88926],[-88,-53.59552],[-87.5,-53.29912],[-87,-53.00004],[-86.5,-52.69829],[-86,-52.39388],[-85.5,-52.0868],[-85,-51.77706],[-84.5,-51.46467],[-84,-51.14963],[-83.5,-50.83196],[-83,-50.51166],[-82.5,-50.18874],[-82,-49.86322],[-81.5,-49.53513],[-81,-49.20447],[-80.5,-48.87127],[-80,-48.53555],[-79.5,-48.19734],[-79,-47.85667],[-78.5,-47.51357],[-78,-47.16808],[-77.5,-46.82023],[-77,-46.47008],[-76.5,-46.11766],[-76,-45.76303],[-75.5,-45.40624],[-75,-45.04735],[-74.5,-44.68643],[-74,-44.32354],[-73.5,-43.95877],[-73,-43.59218],[-72.5,-43.22387],[-72,-42.85393],[-71.5,-42.48245],[-71,-42.10954],[-70.5,-41.73531],[-70,-41.35987],[-69.5,-40.98336],[-69,-40.60591],[-68.5,-40.22765],[-68,-39.84873],[-67.5,-39.46931],[-67,-39.08956],[-66.5,-38.70963],[-66,-38.32972],[-65.5,-37.95002],[-65,-37.57071],[-64.5,-37.192],[-64,-36.81411],[-63.5,-36.43726],[-63,-36.06167],[-62.5,-35.68758],[-62,-35.31523],[-61.5,-34.94487],[-61,-34.57675],[-60.5,-34.21113],[-60,-33.84828],[-59.5,-33.48847],[-59,-33.13196],[-58.5,-32.77902],[-58,-32.42994],[-57.5,-32.08498],[-57,-31.74442],[-56.5,-31.40852],[-56,-31.07757],[-55.5,-30.75181],[-55,-30.43152],[-54.5,-30.11693],[-54,-29.80831],[-53.5,-29.50588],[-53,-29.20986],[-52.5,-28.92049],[-52,-28.63795],[-51.5,-28.36245],[-51,-28.09417],[-50.5,-27.83327],[-50,-27.57991],[-49.5,-27.33422],[-49,-27.09633],[-48.5,-26.86636],[-48,-26.6444],[-47.5,-26.43053],[-47,-26.22481],[-46.5,-26.0273],[-46,-25.83804],[-45.5,-25.65706],[-45,-25.48436],[-44.5,-25.31994],[-44,-25.16379],[-43.5,-25.01589],[-43,-24.87621],[-42.5,-24.74469],[-42,-24.62127],[-41.5,-24.50591],[-41,-24.39852],[-40.5,-24.29902],[-40,-24.20733],[-39.5,-24.12336],[-39,-24.04699],[-38.5,-23.97814],[-38,-23.91669],[-37.5,-23.86253],[-37,-23.81554],[-36.5,-23.7756],[-36,-23.7426],[-35.5,-23.71641],[-35,-23.6969],[-34.5,-23.68395],[-34,-23.67742],[-33.5,-23.67721],[-33,-23.68317],[-32.5,-23.69517],[-32,-23.7131],[-31.5,-23.73682],[-31,-23.76621],[-30.5,-23.80114],[-30,-23.84149],[-29.5,-23.88713],[-29,-23.93795],[-28.5,-23.99383],[-28,-24.05464],[-27.5,-24.12026],[-27,-24.1906],[-26.5,-24.26552],[-26,-24.34493],[-25.5,-24.4287],[-25,-24.51674],[-24.5,-24.60894],[-24,-24.70519],[-23.5,-24.8054],[-23,-24.90946],[-22.5,-25.01728],[-22,-25.12875],[-21.5,-25.2438],[-21,-25.36232],[-20.5,-25.48423],[-20,-25.60943],[-19.5,-25.73785],[-19,-25.8694],[-18.5,-26.004],[-18,-26.14156],[-17.5,-26.28202],[-17,-26.42529],[-16.5,-26.57129],[-16,-26.71996],[-15.5,-26.87123],[-15,-27.02502],[-14.5,-27.18126],[-14,-27.3399],[-13.5,-27.50086],[-13,-27.66408],[-12.5,-27.8295],[-12,-27.99706],[-11.5,-28.1667],[-11,-28.33837],[-10.5,-28.512],[-10,-28.68754],[-9.5,-28.86494],[-9,-29.04415],[-8.5,-29.22511],[-8,-29.40777],[-7.5,-29.59209],[-7,-29.77802],[-6.5,-29.96551],[-6,-30.15451],[-5.5,-30.34499],[-5,-30.53689],[-4.5,-30.73018],[-4,-30.92482],[-3.5,-31.12076],[-3.27734,-31.20842]]}},{"type":"Feature","id":"+10531113:north:0","properties":{"id":"+10531113","year":1053,"month":11,"day":13,"time_tdt":"06:13:19","type":"금환일식","type_code":"A","saros":98,"gamma":0.6846,"magnitude":0.93547,"greatest":{"lat":21.57332,"lng":102.65607},"path_width_km":324.2,"duration":"07m44s","delta_t_seconds":1284.8,"catalog_number":7250,"source":"NASA Five Millennium Canon of Solar Eclipses","source_url":"https://eclipse.gsfc.nasa.gov/SEsearch/SEsearchmap.php?Ecl=%2B10531113","boundary":"north","name":"1053-11-13 금환일식"},"geometry":{"type":"LineString","coordinates":[[54.50195,57.93932],[55,57.71731],[55.5,57.49177],[56,57.26354],[56.5,57.0326],[57,56.79891],[57.5,56.56245],[58,56.32319],[58.5,56.08109],[59,55.83613],[59.5,55.58828],[60,55.3375],[60.5,55.08377],[61,54.82706],[61.5,54.56733],[62,54.30455],[62.5,54.03869],[63,53.76972],[63.5,53.4976],[64,53.22231],[64.5,52.94382],[65,52.66208],[65.5,52.37707],[66,52.08876],[66.5,51.79711],[67,51.50209],[67.5,51.20367],[68,50.90182],[68.5,50.5965],[69,50.28768],[69.5,49.97534],[70,49.65944],[70.5,49.33995],[71,49.01685],[71.5,48.6901],[72,48.35967],[72.5,48.02555],[73,47.6877],[73.5,47.3461],[74,47.00072],[74.5,46.65156],[75,46.29858],[75.5,45.94177],[76,45.58112],[76.5,45.21661],[77,44.84824],[77.5,44.47599],[78,44.09988],[78.5,43.71989],[79,43.33604],[79.5,42.94834],[80,42.55681],[80.5,42.16146],[81,41.76233],[81.5,41.35946],[82,40.95288],[82.5,40.54265],[83,40.12884],[83.5,39.71151],[84,39.29074],[84.5,38.86664],[85,38.43929],[85.5,38.00884],[86,37.57539],[86.5,37.13912],[87,36.70017],[87.5,36.25872],[88,35.81499],[88.5,35.36918],[89,34.92152],[89.5,34.47228],[90,34.02173],[90.5,33.57017],[91,33.11792],[91.5,32.66531],[92,32.21271],[92.5,31.76049],[93,31.30907],[93.5,30.85886],[94,30.41031],[94.5,29.96387],[95,29.52001],[95.5,29.07922],[96,28.642],[96.5,28.20885],[97,27.78027],[97.5,27.35678],[98,26.93889],[98.5,26.52709],[99,26.12189],[99.5,25.72375],[100,25.33316],[100.5,24.95055],[101,24.57634],[101.5,24.21093],[102,23.8547],[102.5,23.50797],[103,23.17106],[103.5,22.84423],[104,22.52774],[104.5,22.22178],[105,21.92652],[105.5,21.6421],[106,21.36863],[106.5,21.10617],[107,20.85477],[107.5,20.61443],[108,20.38513],[108.5,20.16685],[109,19.9595],[109.5,19.763],[110,19.57725],[110.5,19.40211],[111,19.23746],[111.5,19.08313],[112,18.93895],[112.5,18.80476],[113,18.68036],[113.5,18.56557],[114,18.46018],[114.5,18.364],[115,18.27682],[115.5,18.19844],[116,18.12864],[116.5,18.06722],[117,18.01397],[117.5,17.96869],[118,17.93116],[118.5,17.90119],[119,17.87857],[119.5,17.86311],[120,17.85462],[120.5,17.8529],[121,17.85776],[121.5,17.86903],[122,17.88652],[122.5,17.91006],[123,17.93948],[123.5,17.97461],[124,18.01529],[124.5,18.06136],[125,18.11266],[125.5,18.16905],[126,18.23039],[126.5,18.29652],[127,18.36731],[127.5,18.44262],[128,18.52233],[128.5,18.60631],[129,18.69444],[129.5,18.78659],[130,18.88265],[130.5,18.98251],[131,19.08606],[131.5,19.19319],[132,19.3038],[132.5,19.41779],[133,19.53505],[133.5,19.65551],[134,19.77906],[134.5,19.90562],[135,20.0351],[135.5,20.16742],[136,20.3025],[136.5,20.44025],[137,20.5806],[137.5,20.72347],[138,20.8688],[138.5,21.01651],[139,21.16654],[139.5,21.31881],[140,21.47327],[140.5,21.62984],[141,21.78848],[141.5,21.94912],[142,22.1117],[142.5,22.27617],[143,22.44247],[143.5,22.61055],[144,22.78036],[144.5,22.95185],[145,23.12496],[145.5,23.29966],[146,23.4759],[146.5,23.65362],[147,23.83279],[147.5,24.01337],[148,24.1953],[148.5,24.37856],[148.79492,24.48726]]}},{"type":"Feature","id":"+10531113:center:0","properties":{"id":"+10531113","year":1053,"month":11,"day":13,"time_tdt":"06:13:19","type":"금환일식","type_code":"A","saros":98,"gamma":0.6846,"magnitude":0.93547,"greatest":{"lat":21.57332,"lng":102.65607},"path_width_km":324.2,"duration":"07m44s","delta_t_seconds":1284.8,"catalog_number":7250,"source":"NASA Five Millennium Canon of Solar Eclipses","source_url":"https://eclipse.gsfc.nasa.gov/SEsearch/SEsearchmap.php?Ecl=%2B10531113","boundary":"center","name":"1053-11-13 금환일식"},"geometry":{"type":"LineString","coordinates":[[52.76594,56.76444],[53,56.57647],[53.5,56.36146],[54,56.14389],[54.5,55.92375],[55,55.70099],[55.5,55.47559],[56,55.24753],[56.5,55.01677],[57,54.78328],[57.5,54.54704],[58,54.30801],[58.5,54.06616],[59,53.82147],[59.5,53.5739],[60,53.32342],[60.5,53.06999],[61,52.8136],[61.5,52.5542],[62,52.29176],[62.5,52.02625],[63,51.75763],[63.5,51.48588],[64,51.21097],[64.5,50.93284],[65,50.65148],[65.5,50.36686],[66,50.07892],[66.5,49.78765],[67,49.49301],[67.5,49.19497],[68,48.89349],[68.5,48.58854],[69,48.28009],[69.5,47.9681],[70,47.65254],[70.5,47.33339],[71,47.01061],[71.5,46.68417],[72,46.35404],[72.5,46.0202],[73,45.68262],[73.5,45.34128],[74,44.99614],[74.5,44.6472],[75,44.29443],[75.5,43.93781],[76,43.57733],[76.5,43.21299],[77,42.84476],[77.5,42.47265],[78,42.09665],[78.5,41.71678],[79,41.33303],[79.5,40.94543],[80,40.55399],[80.5,40.15874],[81,39.75972],[81.5,39.35696],[82,38.95052],[82.5,38.54045],[83,38.12683],[83.5,37.70972],[84,37.28924],[84.5,36.86546],[85,36.43853],[85.5,36.00855],[86,35.57569],[86.5,35.1401],[87,34.70195],[87.5,34.26146],[88,33.81882],[88.5,33.37428],[89,32.92809],[89.5,32.48052],[90,32.03187],[90.5,31.58246],[91,31.13262],[91.5,30.68272],[92,30.23313],[92.5,29.78426],[93,29.33652],[93.5,28.89036],[94,28.44622],[94.5,28.00459],[95,27.56594],[95.5,27.13077],[96,26.69956],[96.5,26.27284],[97,25.85111],[97.5,25.43486],[98,25.0246],[98.5,24.62081],[99,24.22396],[99.5,23.83453],[100,23.45294],[100.5,23.07961],[101,22.71493],[101.5,22.35926],[102,22.01294],[102.5,21.67627],[103,21.34951],[103.5,21.0329],[104,20.72664],[104.5,20.4309],[105,20.1458],[105.5,19.87146],[106,19.60793],[106.5,19.35527],[107,19.11347],[107.5,18.88252],[108,18.66239],[108.5,18.453],[109,18.25428],[109.5,18.06612],[110,17.88839],[110.5,17.72097],[111,17.5637],[111.5,17.41642],[112,17.27897],[112.5,17.15115],[113,17.03279],[113.5,16.9237],[114,16.82368],[114.5,16.73253],[115,16.65005],[115.5,16.57604],[116,16.5103],[116.5,16.45262],[117,16.40281],[117.5,16.36066],[118,16.32599],[118.5,16.29859],[119,16.27827],[119.5,16.26484],[120,16.25812],[120.5,16.25792],[121,16.26408],[121.5,16.2764],[122,16.29473],[122.5,16.31889],[123,16.34872],[123.5,16.38407],[124,16.42477],[124.5,16.47068],[125,16.52165],[125.5,16.57753],[126,16.6382],[126.5,16.7035],[127,16.77332],[127.5,16.84752],[128,16.92597],[128.5,17.00857],[129,17.09518],[129.5,17.1857],[130,17.28001],[130.5,17.37801],[131,17.47958],[131.5,17.58464],[132,17.69308],[132.5,17.80481],[133,17.91973],[133.5,18.03774],[134,18.15878],[134.5,18.28274],[135,18.40954],[135.5,18.53911],[136,18.67137],[136.5,18.80623],[137,18.94364],[137.5,19.0835],[138,19.22576],[138.5,19.37035],[139,19.5172],[139.5,19.66624],[140,19.81742],[140.5,19.97067],[141,20.12594],[141.5,20.28316],[142,20.44228],[142.5,20.60325],[143,20.76601],[143.5,20.93052],[144,21.09672],[144.5,21.26456],[145,21.434],[145.5,21.60499],[146,21.77748],[146.5,21.95143],[147,22.12681],[147.5,22.30356],[148,22.48164],[148.5,22.66102],[148.95802,22.8211]]}},{"type":"Feature","id":"+10531113:south:0","properties":{"id":"+10531113","year":1053,"month":11,"day":13,"time_tdt":"06:13:19","type":"금환일식","type_code":"A","saros":98,"gamma":0.6846,"magnitude":0.93547,"greatest":{"lat":21.57332,"lng":102.65607},"path_width_km":324.2,"duration":"07m44s","delta_t_seconds":1284.8,"catalog_number":7250,"source":"NASA Five Millennium Canon of Solar Eclipses","source_url":"https://eclipse.gsfc.nasa.gov/SEsearch/SEsearchmap.php?Ecl=%2B10531113","boundary":"south","name":"1053-11-13 금환일식"},"geometry":{"type":"LineString","coordinates":[[51.32812,55.35787],[51.5,55.28711],[52,55.07962],[52.5,54.86967],[53,54.65723],[53.5,54.44227],[54,54.22477],[54.5,54.0047],[55,53.78203],[55.5,53.55672],[56,53.32876],[56.5,53.09811],[57,52.86474],[57.5,52.62862],[58,52.38972],[58.5,52.14801],[59,51.90346],[59.5,51.65603],[60,51.40569],[60.5,51.15241],[61,50.89616],[61.5,50.63691],[62,50.37461],[62.5,50.10925],[63,49.84077],[63.5,49.56916],[64,49.29437],[64.5,49.01638],[65,48.73513],[65.5,48.45062],[66,48.16278],[66.5,47.8716],[67,47.57704],[67.5,47.27906],[68,46.97763],[68.5,46.67272],[69,46.36428],[69.5,46.0523],[70,45.73673],[70.5,45.41754],[71,45.09471],[71.5,44.7682],[72,44.43798],[72.5,44.10402],[73,43.76631],[73.5,43.4248],[74,43.07949],[74.5,42.73034],[75,42.37735],[75.5,42.02048],[76,41.65974],[76.5,41.2951],[77,40.92657],[77.5,40.55414],[78,40.17781],[78.5,39.79759],[79,39.41348],[79.5,39.02552],[80,38.63372],[80.5,38.23811],[81,37.83874],[81.5,37.43565],[82,37.02889],[82.5,36.61854],[83,36.20467],[83.5,35.78737],[84,35.36674],[84.5,34.94289],[85,34.51596],[85.5,34.08609],[86,33.65343],[86.5,33.21816],[87,32.78049],[87.5,32.34061],[88,31.89877],[88.5,31.45522],[89,31.01022],[89.5,30.56408],[90,30.11711],[90.5,29.66964],[91,29.22204],[91.5,28.77468],[92,28.32797],[92.5,27.88231],[93,27.43815],[93.5,26.99594],[94,26.55615],[94.5,26.11925],[95,25.68574],[95.5,25.25612],[96,24.83087],[96.5,24.41051],[97,23.99554],[97.5,23.58643],[98,23.18368],[98.5,22.78776],[99,22.39911],[99.5,22.01818],[100,21.64536],[100.5,21.28104],[101,20.92559],[101.5,20.57932],[102,20.24253],[102.5,19.91548],[103,19.59841],[103.5,19.29151],[104,18.99494],[104.5,18.70883],[105,18.43329],[105.5,18.16837],[106,17.91413],[106.5,17.67056],[107,17.43767],[107.5,17.21539],[108,17.00369],[108.5,16.80246],[109,16.61162],[109.5,16.43104],[110,16.2606],[110.5,16.10015],[111,15.94953],[111.5,15.80858],[112,15.67713],[112.5,15.55499],[113,15.44199],[113.5,15.33793],[114,15.24262],[114.5,15.15586],[115,15.07747],[115.5,15.00724],[116,14.94497],[116.5,14.89049],[117,14.84358],[117.5,14.80406],[118,14.77174],[118.5,14.74643],[119,14.72796],[119.5,14.71613],[120,14.71077],[120.5,14.7117],[121,14.71877],[121.5,14.73179],[122,14.75061],[122.5,14.77507],[123,14.80501],[123.5,14.84028],[124,14.88073],[124.5,14.92622],[125,14.97661],[125.5,15.03177],[126,15.09155],[126.5,15.15583],[127,15.22448],[127.5,15.29739],[128,15.37443],[128.5,15.45549],[129,15.54045],[129.5,15.6292],[130,15.72165],[130.5,15.81768],[131,15.9172],[131.5,16.0201],[132,16.1263],[132.5,16.2357],[133,16.34821],[133.5,16.46374],[134,16.58221],[134.5,16.70355],[135,16.82766],[135.5,16.95447],[136,17.0839],[136.5,17.21589],[137,17.35035],[137.5,17.48723],[138,17.62645],[138.5,17.76794],[139,17.91165],[139.5,18.05752],[140,18.20547],[140.5,18.35545],[141,18.50741],[141.5,18.66129],[142,18.81703],[142.5,18.97459],[143,19.13391],[143.5,19.29494],[144,19.45763],[144.5,19.62193],[145,19.7878],[145.5,19.9552],[146,20.12408],[146.5,20.29439],[147,20.4661],[147.5,20.63917],[148,20.81355],[148.5,20.9892],[149,21.1661],[149.14453,21.21746]]}}],"attribution":"Eclipse Predictions by Fred Espenak and Jean Meeus (NASA's GSFC)","generated_at":"2026-09-23T03:35:41.927Z"}
