{"type":"FeatureCollection","year":1060,"events":[{"id":"+10600106","year":1060,"month":1,"day":6,"time_tdt":"09:59:33","type":"부분일식","type_code":"P","saros":87,"gamma":-1.17662,"magnitude":0.67041,"greatest":{"lat":-63.87963,"lng":-177.4574},"path_width_km":0,"duration":"00m00s","delta_t_seconds":1255.8,"catalog_number":7264,"source":"NASA Five Millennium Canon of Solar Eclipses","source_url":"https://eclipse.gsfc.nasa.gov/SEsearch/SEsearchmap.php?Ecl=%2B10600106"},{"id":"+10600204","year":1060,"month":2,"day":4,"time_tdt":"21:21:56","type":"부분일식","type_code":"Pb","saros":125,"gamma":1.53339,"magnitude":0.00805,"greatest":{"lat":62.05592,"lng":167.75085},"path_width_km":0,"duration":"00m00s","delta_t_seconds":1255.4,"catalog_number":7265,"source":"NASA Five Millennium Canon of Solar Eclipses","source_url":"https://eclipse.gsfc.nasa.gov/SEsearch/SEsearchmap.php?Ecl=%2B10600204"},{"id":"+10600630","year":1060,"month":6,"day":30,"time_tdt":"17:01:02","type":"부분일식","type_code":"P","saros":92,"gamma":1.06418,"magnitude":0.87628,"greatest":{"lat":64.563,"lng":82.73834},"path_width_km":0,"duration":"00m00s","delta_t_seconds":1253.5,"catalog_number":7266,"source":"NASA Five Millennium Canon of Solar Eclipses","source_url":"https://eclipse.gsfc.nasa.gov/SEsearch/SEsearchmap.php?Ecl=%2B10600630"},{"id":"+10601225","year":1060,"month":12,"day":25,"time_tdt":"18:38:02","type":"금환일식","type_code":"A","saros":97,"gamma":-0.52341,"magnitude":0.95106,"greatest":{"lat":-54.18105,"lng":-83.66071},"path_width_km":210.6,"duration":"04m26s","delta_t_seconds":1251.2,"catalog_number":7267,"source":"NASA Five Millennium Canon of Solar Eclipses","source_url":"https://eclipse.gsfc.nasa.gov/SEsearch/SEsearchmap.php?Ecl=%2B10601225"}],"features":[{"type":"Feature","id":"+10601225:north:0","properties":{"id":"+10601225","year":1060,"month":12,"day":25,"time_tdt":"18:38:02","type":"금환일식","type_code":"A","saros":97,"gamma":-0.52341,"magnitude":0.95106,"greatest":{"lat":-54.18105,"lng":-83.66071},"path_width_km":210.6,"duration":"04m26s","delta_t_seconds":1251.2,"catalog_number":7267,"source":"NASA Five Millennium Canon of Solar Eclipses","source_url":"https://eclipse.gsfc.nasa.gov/SEsearch/SEsearchmap.php?Ecl=%2B10601225","boundary":"north","name":"1060-12-25 금환일식"},"geometry":{"type":"LineString","coordinates":[[-177.00391,-36.99444],[-177,-36.99623],[-176.5,-37.22611],[-176,-37.45597],[-175.5,-37.68579],[-175,-37.91553],[-174.5,-38.14516],[-174,-38.37465],[-173.5,-38.60395],[-173,-38.83304],[-172.5,-39.06188],[-172,-39.29043],[-171.5,-39.51865],[-171,-39.74652],[-170.5,-39.97399],[-170,-40.20102],[-169.5,-40.42758],[-169,-40.65363],[-168.5,-40.87913],[-168,-41.10404],[-167.5,-41.32832],[-167,-41.55194],[-166.5,-41.77486],[-166,-41.99703],[-165.5,-42.21842],[-165,-42.43898],[-164.5,-42.65869],[-164,-42.8775],[-163.5,-43.09537],[-163,-43.31226],[-162.5,-43.52814],[-162,-43.74296],[-161.5,-43.95668],[-161.5,-43.95669],[-161,-44.16929],[-160.5,-44.38073],[-160,-44.59096],[-159.5,-44.79995],[-159,-45.00766],[-158.5,-45.21407],[-158,-45.41912],[-157.5,-45.62279],[-157,-45.82505],[-156.5,-46.02586],[-156,-46.22518],[-155.5,-46.42299],[-155,-46.61925],[-154.5,-46.81394],[-154,-47.00702],[-153.5,-47.19846],[-153,-47.38824],[-152.5,-47.57632],[-152,-47.76269],[-151.5,-47.94731],[-151,-48.13015],[-150.5,-48.31121],[-150,-48.49044],[-149.5,-48.66783],[-149,-48.84335],[-148.5,-49.01699],[-148,-49.18873],[-147.5,-49.35853],[-147,-49.5264],[-146.5,-49.6923],[-146,-49.85622],[-145.5,-50.01815],[-145,-50.17806],[-144.5,-50.33596],[-144,-50.49181],[-143.5,-50.64561],[-143,-50.79735],[-142.5,-50.94701],[-142,-51.09459],[-141.5,-51.24007],[-141,-51.38345],[-140.5,-51.52471],[-140,-51.66385],[-139.5,-51.80086],[-139,-51.93574],[-138.5,-52.06848],[-138,-52.19906],[-137.5,-52.3275],[-137,-52.45378],[-136.5,-52.5779],[-136,-52.69986],[-135.5,-52.81965],[-135,-52.93727],[-134.5,-53.05272],[-134,-53.166],[-133.5,-53.27711],[-133,-53.38604],[-132.5,-53.49279],[-132,-53.59737],[-131.5,-53.69978],[-131,-53.8],[-130.5,-53.89806],[-130,-53.99393],[-129.5,-54.08764],[-129,-54.17917],[-128.5,-54.26853],[-128,-54.35572],[-127.5,-54.44075],[-127,-54.5236],[-126.5,-54.60429],[-126,-54.68281],[-125.5,-54.75918],[-125,-54.83338],[-124.5,-54.90542],[-124,-54.97531],[-124,-54.9753],[-123.5,-55.04303],[-123,-55.10861],[-122.5,-55.17203],[-122,-55.2333],[-121.5,-55.29241],[-121,-55.34938],[-120.5,-55.4042],[-120,-55.45687],[-119.5,-55.50739],[-119,-55.55577],[-118.5,-55.602],[-118,-55.64608],[-117.5,-55.68802],[-117,-55.72781],[-116.5,-55.76544],[-116,-55.80093],[-115.5,-55.83427],[-115,-55.86546],[-114.5,-55.89449],[-114,-55.92137],[-113.5,-55.94609],[-113,-55.96865],[-113,-55.96864],[-112.5,-55.98904],[-112,-56.00726],[-111.5,-56.02331],[-111,-56.03719],[-110.5,-56.04888],[-110,-56.05839],[-109.5,-56.06571],[-109,-56.07083],[-108.5,-56.07374],[-108,-56.07445],[-107.5,-56.07294],[-107,-56.0692],[-106.5,-56.06323],[-106,-56.05502],[-105.5,-56.04455],[-105,-56.03183],[-104.5,-56.01684],[-104,-55.99956],[-103.5,-55.98],[-103,-55.95813],[-102.5,-55.93394],[-102,-55.90743],[-101.5,-55.87857],[-101,-55.84736],[-100.5,-55.81378],[-100,-55.77782],[-99.5,-55.73946],[-99,-55.69868],[-98.5,-55.65547],[-98,-55.60981],[-97.5,-55.56168],[-97,-55.51107],[-96.5,-55.45795],[-96,-55.40231],[-95.5,-55.34412],[-95,-55.28337],[-94.5,-55.22004],[-94,-55.15409],[-93.5,-55.08551],[-93,-55.01427],[-92.5,-54.94036],[-92,-54.86374],[-91.5,-54.78439],[-91,-54.70229],[-90.5,-54.61741],[-90,-54.52972],[-89.5,-54.43919],[-89,-54.34579],[-88.5,-54.2495],[-88,-54.15029],[-87.5,-54.04812],[-87,-53.94297],[-86.5,-53.8348],[-86,-53.72358],[-85.5,-53.60929],[-85,-53.49188],[-84.5,-53.37133],[-84,-53.24759],[-83.5,-53.12065],[-83,-52.99045],[-82.5,-52.85697],[-82,-52.72018],[-81.5,-52.58003],[-81,-52.4365],[-80.5,-52.28954],[-80,-52.13913],[-79.5,-51.98522],[-79,-51.82779],[-78.5,-51.66679],[-78,-51.5022],[-77.5,-51.33398],[-77,-51.16209],[-76.5,-50.9865],[-76,-50.80719],[-75.5,-50.62412],[-75,-50.43725],[-74.5,-50.24657],[-74,-50.05204],[-73.5,-49.85364],[-73,-49.65134],[-72.5,-49.44512],[-72,-49.23497],[-71.5,-49.02085],[-71,-48.80276],[-70.5,-48.58068],[-70,-48.3546],[-69.5,-48.12452],[-69,-47.89043],[-68.5,-47.65232],[-68,-47.41021],[-67.5,-47.1641],[-67,-46.914],[-66.5,-46.65993],[-66,-46.4019],[-65.5,-46.13994],[-65,-45.87409],[-64.5,-45.60436],[-64.5,-45.60437],[-64,-45.33082],[-63.5,-45.0535],[-63,-44.77245],[-62.5,-44.48773],[-62,-44.19941],[-61.5,-43.90755],[-61,-43.61224],[-60.5,-43.31354],[-60,-43.01155],[-59.5,-42.70637],[-59.5,-42.70636],[-59,-42.39808],[-58.5,-42.0868],[-58,-41.77264],[-57.5,-41.45572],[-57,-41.13615],[-56.5,-40.81406],[-56,-40.48958],[-55.5,-40.16286],[-55,-39.83402],[-54.5,-39.50322],[-54,-39.17059],[-53.5,-38.8363],[-53.5,-38.83629],[-53,-38.50048],[-52.5,-38.16329],[-52,-37.8249],[-51.5,-37.48544],[-51,-37.14509],[-50.5,-36.804],[-50,-36.46232],[-49.5,-36.1202],[-49,-35.77781],[-48.5,-35.43529],[-48,-35.09279],[-47.5,-34.75046],[-47,-34.40844],[-46.5,-34.06687],[-46,-33.72589],[-45.5,-33.38564],[-45,-33.04624],[-44.5,-32.70781],[-44,-32.37048],[-43.5,-32.03436],[-43,-31.69956],[-42.5,-31.36619],[-42,-31.03435],[-41.5,-30.70412],[-41,-30.37562],[-40.5,-30.04891],[-40,-29.72409],[-39.5,-29.40122],[-39,-29.08038],[-38.5,-28.76164],[-38,-28.44506],[-37.5,-28.13069],[-37,-27.81858],[-36.5,-27.5088],[-36,-27.20138],[-35.5,-26.89636],[-35,-26.59378],[-34.5,-26.29367],[-34,-25.99607],[-33.5,-25.701],[-33,-25.40849],[-32.5,-25.11855],[-32,-24.83121],[-31.5,-24.54647],[-31,-24.26435],[-30.5,-23.98487],[-30,-23.70802],[-29.5,-23.43382],[-29,-23.16226],[-28.5,-22.89336],[-28,-22.62711],[-27.5,-22.3635],[-27,-22.10254],[-26.5,-21.84422],[-26,-21.58853],[-25.5,-21.33547],[-25,-21.08503],[-24.5,-20.8372],[-24,-20.59196],[-23.5,-20.34932],[-23,-20.10925],[-22.5,-19.87174],[-22,-19.63678],[-21.5,-19.40436],[-21,-19.17445],[-20.5,-18.94705],[-20,-18.72214],[-19.5,-18.4997],[-19.37109,-18.44275]]}},{"type":"Feature","id":"+10601225:center:0","properties":{"id":"+10601225","year":1060,"month":12,"day":25,"time_tdt":"18:38:02","type":"금환일식","type_code":"A","saros":97,"gamma":-0.52341,"magnitude":0.95106,"greatest":{"lat":-54.18105,"lng":-83.66071},"path_width_km":210.6,"duration":"04m26s","delta_t_seconds":1251.2,"catalog_number":7267,"source":"NASA Five Millennium Canon of Solar Eclipses","source_url":"https://eclipse.gsfc.nasa.gov/SEsearch/SEsearchmap.php?Ecl=%2B10601225","boundary":"center","name":"1060-12-25 금환일식"},"geometry":{"type":"LineString","coordinates":[[-178.13724,-38.05265],[-178,-38.11321],[-177.5,-38.34084],[-177,-38.56844],[-176.5,-38.79597],[-176,-39.0234],[-175.5,-39.2507],[-175,-39.47784],[-174.5,-39.70478],[-174,-39.93148],[-173.5,-40.15791],[-173,-40.38403],[-172.5,-40.60981],[-172,-40.83522],[-171.5,-41.06021],[-171,-41.28474],[-170.5,-41.50879],[-170,-41.7323],[-169.5,-41.95526],[-169,-42.17761],[-168.5,-42.39932],[-168,-42.62034],[-167.5,-42.84066],[-167,-43.06021],[-166.5,-43.27897],[-166,-43.4969],[-165.5,-43.71396],[-165,-43.93011],[-164.5,-44.14531],[-164,-44.35953],[-163.5,-44.57272],[-163,-44.78486],[-162.5,-44.9959],[-162,-45.20581],[-161.5,-45.41455],[-161,-45.62208],[-160.5,-45.82838],[-160,-46.0334],[-159.5,-46.2371],[-159,-46.43947],[-158.5,-46.64046],[-158,-46.84003],[-157.5,-47.03817],[-157,-47.23483],[-156.5,-47.42999],[-156,-47.62361],[-155.5,-47.81567],[-155,-48.00613],[-154.5,-48.19498],[-154,-48.38217],[-153.5,-48.56769],[-153,-48.75151],[-152.5,-48.93361],[-152,-49.11395],[-151.5,-49.29253],[-151,-49.46931],[-150.5,-49.64427],[-150,-49.81739],[-149.5,-49.98866],[-149,-50.15805],[-148.5,-50.32555],[-148,-50.49114],[-147.5,-50.65479],[-147,-50.81651],[-146.5,-50.97626],[-146,-51.13405],[-145.5,-51.28984],[-145,-51.44364],[-144.5,-51.59542],[-144,-51.74519],[-143.5,-51.89292],[-143,-52.03861],[-142.5,-52.18225],[-142,-52.32383],[-141.5,-52.46335],[-141,-52.60079],[-140.5,-52.73615],[-140,-52.86943],[-139.5,-53.00062],[-139,-53.12971],[-138.5,-53.2567],[-138,-53.3816],[-137.5,-53.50438],[-137,-53.62506],[-136.5,-53.74363],[-136,-53.86008],[-135.5,-53.97442],[-135,-54.08665],[-134.5,-54.19677],[-134,-54.30477],[-133.5,-54.41065],[-133,-54.51442],[-132.5,-54.61608],[-132,-54.71562],[-131.5,-54.81305],[-131,-54.90838],[-130.5,-55.00159],[-130,-55.0927],[-129.5,-55.1817],[-129,-55.2686],[-128.5,-55.35339],[-128,-55.43609],[-127.5,-55.51669],[-127,-55.5952],[-126.5,-55.67161],[-126,-55.74593],[-125.5,-55.81817],[-125,-55.88831],[-125,-55.88832],[-124.5,-55.95638],[-124,-56.02236],[-123.5,-56.08627],[-123,-56.14809],[-122.5,-56.20784],[-122,-56.26552],[-121.5,-56.32112],[-121,-56.37465],[-120.5,-56.42611],[-120,-56.47551],[-119.5,-56.52283],[-119,-56.56809],[-118.5,-56.61128],[-118,-56.65241],[-117.5,-56.69147],[-117,-56.72846],[-116.5,-56.76339],[-116,-56.79625],[-115.5,-56.82704],[-115,-56.85576],[-114.5,-56.88241],[-114,-56.90699],[-113.5,-56.92949],[-113,-56.94991],[-112.5,-56.96825],[-112,-56.98451],[-111.5,-56.99868],[-111,-57.01076],[-110.5,-57.02074],[-110,-57.02862],[-109.5,-57.03439],[-109,-57.03806],[-108.5,-57.0396],[-108,-57.03903],[-107.5,-57.03632],[-107,-57.03147],[-106.5,-57.02448],[-106,-57.01534],[-105.5,-57.00403],[-105,-56.99055],[-104.5,-56.97489],[-104,-56.95704],[-103.5,-56.93699],[-103,-56.91473],[-102.5,-56.89024],[-102,-56.86352],[-101.5,-56.83455],[-101,-56.80331],[-100.5,-56.76981],[-100,-56.73401],[-99.5,-56.69591],[-99.5,-56.6959],[-99,-56.65548],[-98.5,-56.61273],[-98,-56.56762],[-97.5,-56.52014],[-97,-56.47028],[-96.5,-56.41801],[-96,-56.36332],[-95.5,-56.30618],[-95,-56.24658],[-94.5,-56.1845],[-94,-56.11992],[-93.5,-56.0528],[-93,-55.98314],[-92.5,-55.91091],[-92,-55.83608],[-91.5,-55.75864],[-91,-55.67854],[-90.5,-55.59578],[-90,-55.51032],[-89.5,-55.42214],[-89,-55.33121],[-88.5,-55.2375],[-88,-55.14099],[-87.5,-55.04164],[-87,-54.93942],[-86.5,-54.83431],[-86,-54.72628],[-85.5,-54.61528],[-85,-54.5013],[-84.5,-54.3843],[-84,-54.26425],[-83.5,-54.14111],[-83,-54.01485],[-82.5,-53.88543],[-82,-53.75284],[-81.5,-53.61702],[-81,-53.47794],[-80.5,-53.33558],[-80,-53.18989],[-79.5,-53.04084],[-79,-52.8884],[-78.5,-52.73254],[-78.5,-52.73253],[-78,-52.57321],[-77.5,-52.41038],[-77,-52.24403],[-76.5,-52.07411],[-76,-51.9006],[-75.5,-51.72347],[-75.5,-51.72346],[-75,-51.54267],[-74.5,-51.35819],[-74,-51.16999],[-73.5,-50.97805],[-73,-50.78234],[-72.5,-50.58284],[-72,-50.37951],[-71.5,-50.17235],[-71,-49.96133],[-70.5,-49.74644],[-70,-49.52766],[-69.5,-49.30497],[-69,-49.07838],[-68.5,-48.84787],[-68,-48.61344],[-67.5,-48.3751],[-67,-48.13284],[-66.5,-47.88668],[-66,-47.63663],[-65.5,-47.3827],[-65,-47.12492],[-64.5,-46.86332],[-64,-46.59792],[-63.5,-46.32876],[-63,-46.05589],[-62.5,-45.77935],[-62,-45.49919],[-61.5,-45.21547],[-61,-44.92826],[-60.5,-44.63762],[-60,-44.34364],[-59.5,-44.04639],[-59,-43.74596],[-58.5,-43.44245],[-58,-43.13596],[-58,-43.13595],[-57.5,-42.82658],[-57,-42.51443],[-56.5,-42.19963],[-56,-41.88229],[-55.5,-41.56254],[-55,-41.24052],[-54.5,-40.91635],[-54,-40.59018],[-53.5,-40.26213],[-53,-39.93237],[-52.5,-39.60103],[-52,-39.26827],[-51.5,-38.93423],[-51,-38.59906],[-50.5,-38.26293],[-50,-37.92598],[-49.5,-37.58836],[-49,-37.25023],[-48.5,-36.91174],[-48,-36.57304],[-47.5,-36.23428],[-47,-35.89559],[-46.5,-35.55714],[-46,-35.21904],[-45.5,-34.88145],[-45,-34.5445],[-44.5,-34.20831],[-44,-33.87301],[-43.5,-33.53871],[-43,-33.20555],[-42.5,-32.87363],[-42,-32.54305],[-41.5,-32.21392],[-41,-31.88633],[-40.5,-31.56039],[-40,-31.23617],[-39.5,-30.91377],[-39,-30.59325],[-38.5,-30.2747],[-38,-29.95818],[-37.5,-29.64376],[-37,-29.33149],[-36.5,-29.02144],[-36,-28.71365],[-35.5,-28.40818],[-35,-28.10505],[-34.5,-27.80433],[-34,-27.50603],[-33.5,-27.2102],[-33,-26.91686],[-32.5,-26.62604],[-32,-26.33776],[-31.5,-26.05204],[-31,-25.7689],[-30.5,-25.48835],[-30,-25.21041],[-29.5,-24.93508],[-29,-24.66237],[-28.5,-24.39229],[-28,-24.12483],[-27.5,-23.86001],[-27,-23.59782],[-26.5,-23.33826],[-26,-23.08133],[-25.5,-22.82701],[-25,-22.57532],[-25,-22.57531],[-24.5,-22.32622],[-24,-22.07973],[-23.5,-21.83583],[-23,-21.59451],[-22.5,-21.35575],[-22,-21.11955],[-21.5,-20.8859],[-21,-20.65477],[-20.5,-20.42616],[-20,-20.20005],[-19.5,-19.97643],[-19,-19.75528],[-18.5,-19.53658],[-18.47279,-19.52049]]}},{"type":"Feature","id":"+10601225:south:0","properties":{"id":"+10601225","year":1060,"month":12,"day":25,"time_tdt":"18:38:02","type":"금환일식","type_code":"A","saros":97,"gamma":-0.52341,"magnitude":0.95106,"greatest":{"lat":-54.18105,"lng":-83.66071},"path_width_km":210.6,"duration":"04m26s","delta_t_seconds":1251.2,"catalog_number":7267,"source":"NASA Five Millennium Canon of Solar Eclipses","source_url":"https://eclipse.gsfc.nasa.gov/SEsearch/SEsearchmap.php?Ecl=%2B10601225","boundary":"south","name":"1060-12-25 금환일식"},"geometry":{"type":"LineString","coordinates":[[-179.25,-39.14593],[-179,-39.25865],[-178.5,-39.48408],[-178,-39.70945],[-177.5,-39.93473],[-177,-40.1599],[-176.5,-40.38491],[-176,-40.60973],[-175.5,-40.83433],[-175,-41.05868],[-174.5,-41.28273],[-174,-41.50646],[-173.5,-41.72982],[-173,-41.95278],[-172.5,-42.17531],[-172,-42.39737],[-171.5,-42.61891],[-171,-42.83992],[-170.5,-43.06033],[-170,-43.28013],[-169.5,-43.49927],[-169,-43.71771],[-168.5,-43.93542],[-168,-44.15235],[-167.5,-44.36848],[-167,-44.58376],[-166.5,-44.79816],[-166,-45.01164],[-165.5,-45.22416],[-165,-45.43568],[-164.5,-45.64618],[-164,-45.85561],[-163.5,-46.06393],[-163,-46.27112],[-163,-46.27111],[-162.5,-46.47713],[-162,-46.68193],[-161.5,-46.88549],[-161,-47.08777],[-160.5,-47.28874],[-160,-47.48837],[-159.5,-47.68663],[-159,-47.88347],[-158.5,-48.07888],[-158,-48.27283],[-157.5,-48.46527],[-157,-48.65619],[-156.5,-48.84556],[-156,-49.03334],[-155.5,-49.21952],[-155,-49.40406],[-154.5,-49.58694],[-154,-49.76814],[-153.5,-49.94763],[-153,-50.12539],[-152.5,-50.3014],[-152,-50.47564],[-151.5,-50.64808],[-151,-50.81871],[-150.5,-50.98752],[-150,-51.15447],[-149.5,-51.31956],[-149,-51.48276],[-148.5,-51.64407],[-148,-51.80347],[-147.5,-51.96094],[-147,-52.11648],[-146.5,-52.27007],[-146,-52.42169],[-145.5,-52.57134],[-145,-52.71901],[-144.5,-52.86469],[-144,-53.00837],[-143.5,-53.15004],[-143,-53.2897],[-142.5,-53.42734],[-142,-53.56295],[-142,-53.56294],[-141.5,-53.69652],[-141,-53.82806],[-140.5,-53.95756],[-140,-54.08501],[-139.5,-54.21042],[-139,-54.33377],[-138.5,-54.45507],[-138,-54.57432],[-137.5,-54.69151],[-137,-54.80665],[-136.5,-54.91972],[-136,-55.03074],[-135.5,-55.13971],[-135,-55.24661],[-134.5,-55.35146],[-134,-55.45426],[-133.5,-55.555],[-133,-55.65369],[-132.5,-55.75033],[-132,-55.84492],[-131.5,-55.93746],[-131,-56.02796],[-130.5,-56.11642],[-130,-56.20285],[-129.5,-56.28723],[-129,-56.36958],[-128.5,-56.4499],[-128,-56.5282],[-127.5,-56.60447],[-127,-56.67871],[-126.5,-56.75094],[-126,-56.82115],[-125.5,-56.88935],[-125,-56.95553],[-124.5,-57.01971],[-124,-57.08188],[-123.5,-57.14205],[-123,-57.20022],[-122.5,-57.25638],[-122,-57.31056],[-121.5,-57.36273],[-121,-57.41292],[-120.5,-57.46111],[-120,-57.50731],[-119.5,-57.55153],[-119,-57.59375],[-118.5,-57.63399],[-118,-57.67224],[-117.5,-57.70851],[-117,-57.74279],[-116.5,-57.77508],[-116,-57.80539],[-115.5,-57.83371],[-115,-57.86004],[-114.5,-57.88438],[-114,-57.90673],[-113.5,-57.92709],[-113,-57.94545],[-112.5,-57.96181],[-112,-57.97617],[-111.5,-57.98852],[-111,-57.99887],[-110.5,-58.0072],[-110,-58.01352],[-109.5,-58.01782],[-109,-58.02008],[-108.5,-58.02032],[-108,-58.01852],[-108,-58.01851],[-107.5,-58.01467],[-107,-58.00876],[-106.5,-58.0008],[-106,-57.99078],[-105.5,-57.97867],[-105,-57.96449],[-104.5,-57.94821],[-104,-57.92982],[-103.5,-57.90933],[-103,-57.88671],[-102.5,-57.86196],[-102,-57.83506],[-101.5,-57.806],[-101,-57.77478],[-100.5,-57.74137],[-100,-57.70576],[-99.5,-57.66794],[-99,-57.6279],[-98.5,-57.58561],[-98,-57.54108],[-98,-57.54107],[-97.5,-57.49426],[-97,-57.44516],[-96.5,-57.39375],[-96,-57.34001],[-95.5,-57.28394],[-95,-57.2255],[-94.5,-57.16467],[-94,-57.10145],[-93.5,-57.0358],[-93,-56.9677],[-92.5,-56.89714],[-92,-56.82409],[-91.5,-56.74853],[-91,-56.67043],[-90.5,-56.58977],[-90,-56.50652],[-89.5,-56.42067],[-89.5,-56.42066],[-89,-56.33217],[-88.5,-56.24101],[-88,-56.14716],[-87.5,-56.05058],[-87,-55.95126],[-86.5,-55.84916],[-86,-55.74426],[-85.5,-55.63652],[-85,-55.52591],[-84.5,-55.4124],[-84,-55.29597],[-83.5,-55.17657],[-83,-55.05418],[-82.5,-54.92876],[-82,-54.80029],[-82,-54.80028],[-81.5,-54.66872],[-81,-54.53402],[-80.5,-54.39617],[-80,-54.25512],[-79.5,-54.11084],[-79,-53.96331],[-78.5,-53.81247],[-78.5,-53.81248],[-78,-53.65831],[-77.5,-53.50079],[-77,-53.33987],[-76.5,-53.17552],[-76,-53.00771],[-75.5,-52.83641],[-75,-52.66157],[-74.5,-52.48319],[-74,-52.30121],[-73.5,-52.11563],[-73,-51.92639],[-72.5,-51.73349],[-72,-51.5369],[-71.5,-51.33658],[-71,-51.13253],[-70.5,-50.92472],[-70,-50.71313],[-69.5,-50.49775],[-69,-50.27856],[-68.5,-50.05556],[-68,-49.82873],[-67.5,-49.59807],[-67,-49.36359],[-66.5,-49.12528],[-66,-48.88315],[-65.5,-48.63721],[-65,-48.38747],[-64.5,-48.13395],[-64,-47.87668],[-63.5,-47.61568],[-63,-47.35099],[-62.5,-47.08264],[-62.5,-47.08263],[-62,-46.81067],[-61.5,-46.53514],[-61,-46.25609],[-60.5,-45.97359],[-60,-45.6877],[-59.5,-45.3985],[-59.5,-45.39849],[-59,-45.10605],[-59,-45.10604],[-58.5,-44.81044],[-58.5,-44.81043],[-58,-44.51175],[-57.5,-44.21009],[-57,-43.90555],[-56.5,-43.59823],[-56,-43.28824],[-55.5,-42.9757],[-55,-42.66073],[-54.5,-42.34345],[-54,-42.02399],[-53.5,-41.70248],[-53,-41.37906],[-52.5,-41.05386],[-52,-40.72704],[-51.5,-40.39872],[-51,-40.06906],[-50.5,-39.73821],[-50,-39.40632],[-49.5,-39.07353],[-49,-38.74],[-48.5,-38.40587],[-48,-38.07129],[-47.5,-37.73642],[-47,-37.40139],[-46.5,-37.06635],[-46,-36.73145],[-45.5,-36.39683],[-45,-36.06261],[-44.5,-35.72894],[-44,-35.39594],[-43.5,-35.06374],[-43,-34.73246],[-42.5,-34.40223],[-42,-34.07314],[-41.5,-33.74532],[-41,-33.41886],[-40.5,-33.09387],[-40,-32.77044],[-39.5,-32.44867],[-39,-32.12863],[-38.5,-31.81041],[-38,-31.49408],[-37.5,-31.17972],[-37,-30.8674],[-37,-30.86739],[-36.5,-30.55717],[-36,-30.24909],[-35.5,-29.94323],[-35,-29.63962],[-34.5,-29.33832],[-34,-29.03936],[-33.5,-28.7428],[-33,-28.44865],[-32.5,-28.15695],[-32,-27.86774],[-31.5,-27.58103],[-31,-27.29685],[-30.5,-27.01522],[-30,-26.73614],[-29.5,-26.45965],[-29,-26.18574],[-28.5,-25.91444],[-28,-25.64573],[-27.5,-25.37964],[-27,-25.11616],[-26.5,-24.85529],[-26,-24.59704],[-25.5,-24.34139],[-25.5,-24.3414],[-25,-24.08836],[-24.5,-23.83793],[-24,-23.59009],[-23.5,-23.34485],[-23,-23.10219],[-22.5,-22.86209],[-22,-22.62456],[-21.5,-22.38958],[-21,-22.15714],[-20.5,-21.92722],[-20,-21.69982],[-19.5,-21.47491],[-19,-21.25249],[-18.5,-21.03254],[-18,-20.81504],[-17.53906,-20.61669]]}}],"attribution":"Eclipse Predictions by Fred Espenak and Jean Meeus (NASA's GSFC)","generated_at":"2026-09-23T03:35:42.089Z"}
