{"type":"FeatureCollection","year":1083,"events":[{"id":"+10830419","year":1083,"month":4,"day":19,"time_tdt":"20:52:17","type":"금환일식","type_code":"A","saros":104,"gamma":-0.01728,"magnitude":0.94322,"greatest":{"lat":12.32618,"lng":-128.76166},"path_width_km":209.8,"duration":"07m28s","delta_t_seconds":1150.4,"catalog_number":7322,"source":"NASA Five Millennium Canon of Solar Eclipses","source_url":"https://eclipse.gsfc.nasa.gov/SEsearch/SEsearchmap.php?Ecl=%2B10830419"},{"id":"+10831014","year":1083,"month":10,"day":14,"time_tdt":"01:15:15","type":"개기일식","type_code":"T","saros":109,"gamma":0.05029,"magnitude":1.04237,"greatest":{"lat":-7.44988,"lng":163.13684},"path_width_km":141.7,"duration":"04m00s","delta_t_seconds":1148.3,"catalog_number":7323,"source":"NASA Five Millennium Canon of Solar Eclipses","source_url":"https://eclipse.gsfc.nasa.gov/SEsearch/SEsearchmap.php?Ecl=%2B10831014"}],"features":[{"type":"Feature","id":"+10830419:north:0","properties":{"id":"+10830419","year":1083,"month":4,"day":19,"time_tdt":"20:52:17","type":"금환일식","type_code":"A","saros":104,"gamma":-0.01728,"magnitude":0.94322,"greatest":{"lat":12.32618,"lng":-128.76166},"path_width_km":209.8,"duration":"07m28s","delta_t_seconds":1150.4,"catalog_number":7322,"source":"NASA Five Millennium Canon of Solar Eclipses","source_url":"https://eclipse.gsfc.nasa.gov/SEsearch/SEsearchmap.php?Ecl=%2B10830419","boundary":"north","name":"1083-04-19 금환일식"},"geometry":{"type":"LineString","coordinates":[[173.80469,-13.44143],[174,-13.39614],[174.5,-13.27903],[175,-13.16026],[175.5,-13.03981],[176,-12.91766],[176.5,-12.79379],[177,-12.66818],[177.5,-12.54082],[178,-12.41168],[178.5,-12.28075],[179,-12.148],[179.5,-12.01342],[180,-11.87698]]}},{"type":"Feature","id":"+10830419:north:1","properties":{"id":"+10830419","year":1083,"month":4,"day":19,"time_tdt":"20:52:17","type":"금환일식","type_code":"A","saros":104,"gamma":-0.01728,"magnitude":0.94322,"greatest":{"lat":12.32618,"lng":-128.76166},"path_width_km":209.8,"duration":"07m28s","delta_t_seconds":1150.4,"catalog_number":7322,"source":"NASA Five Millennium Canon of Solar Eclipses","source_url":"https://eclipse.gsfc.nasa.gov/SEsearch/SEsearchmap.php?Ecl=%2B10830419","boundary":"north","name":"1083-04-19 금환일식"},"geometry":{"type":"LineString","coordinates":[[-179.5,-11.73866],[-179,-11.59845],[-178.5,-11.45632],[-178,-11.31225],[-177.5,-11.16622],[-177,-11.0182],[-176.5,-10.86818],[-176,-10.71612],[-175.5,-10.56202],[-175,-10.40583],[-174.5,-10.24754],[-174,-10.08713],[-173.5,-9.92456],[-173,-9.75982],[-172.5,-9.59288],[-172,-9.42371],[-171.5,-9.25229],[-171,-9.0786],[-170.5,-8.9026],[-170,-8.72427],[-169.5,-8.54358],[-169,-8.36051],[-168.5,-8.17502],[-168,-7.98711],[-167.5,-7.79672],[-167,-7.60385],[-166.5,-7.40845],[-166,-7.21051],[-165.5,-7.01],[-165,-6.80689],[-164.5,-6.60115],[-164,-6.39276],[-163.5,-6.18169],[-163,-5.96792],[-162.5,-5.75142],[-162,-5.53216],[-161.5,-5.31013],[-161,-5.0853],[-160.5,-4.85764],[-160,-4.62715],[-159.5,-4.39379],[-159,-4.15755],[-158.5,-3.91841],[-158,-3.67636],[-157.5,-3.43139],[-157,-3.18348],[-156.5,-2.93262],[-156,-2.67881],[-155.5,-2.42205],[-155,-2.16233],[-154.5,-1.89966],[-154,-1.63405],[-153.5,-1.3655],[-153,-1.09403],[-152.5,-0.81966],[-152,-0.54242],[-151.5,-0.26234],[-151,0.02056],[-150.5,0.30622],[-150,0.5946],[-149.5,0.88565],[-149,1.17929],[-148.5,1.47546],[-148,1.77409],[-147.5,2.07507],[-147,2.37832],[-146.5,2.68374],[-146,2.99119],[-145.5,3.30057],[-145,3.61174],[-144.5,3.92454],[-144,4.23883],[-143.5,4.55443],[-143,4.87118],[-142.5,5.18888],[-142,5.50734],[-141.5,5.82634],[-141,6.14568],[-140.5,6.46513],[-140,6.78446],[-139.5,7.10342],[-139,7.42178],[-138.5,7.73927],[-138,8.05564],[-137.5,8.37063],[-137,8.68399],[-136.5,8.99543],[-136,9.30471],[-135.5,9.61157],[-135,9.91574],[-134.5,10.21697],[-134,10.51501],[-133.5,10.80963],[-133,11.10059],[-132.5,11.38767],[-132,11.67065],[-131.5,11.94934],[-131,12.22353],[-130.5,12.49307],[-130,12.75777],[-129.5,13.01748],[-129,13.27208],[-128.5,13.52143],[-128,13.76542],[-127.5,14.00395],[-127,14.23695],[-126.5,14.46432],[-126,14.68603],[-125.5,14.90202],[-125,15.11225],[-124.5,15.3167],[-124,15.51535],[-123.5,15.7082],[-123,15.89526],[-122.5,16.07654],[-122,16.25205],[-121.5,16.42183],[-121,16.58592],[-120.5,16.74434],[-120,16.89716],[-119.5,17.04441],[-119,17.18617],[-118.5,17.32248],[-118,17.45341],[-117.5,17.57903],[-117,17.69941],[-116.5,17.81461],[-116,17.92472],[-115.5,18.0298],[-115,18.12994],[-114.5,18.2252],[-114,18.31567],[-113.5,18.40142],[-113,18.48254],[-112.5,18.55911],[-112,18.63119],[-111.5,18.69887],[-111,18.76223],[-110.5,18.82134],[-110,18.87629],[-109.5,18.92715],[-109,18.97399],[-108.5,19.01688],[-108,19.05592],[-107.5,19.09115],[-107,19.12267],[-106.5,19.15053],[-106,19.17482],[-105.5,19.19559],[-105,19.21291],[-104.5,19.22686],[-104,19.2375],[-103.5,19.24489],[-103,19.2491],[-102.5,19.25019],[-102,19.24822],[-101.5,19.24324],[-101,19.23533],[-100.5,19.22454],[-100,19.21092],[-99.5,19.19453],[-99,19.17543],[-98.5,19.15367],[-98,19.1293],[-97.5,19.10238],[-97,19.07295],[-96.5,19.04107],[-96,19.00679],[-95.5,18.97014],[-95,18.93119],[-94.5,18.88998],[-94,18.84655],[-93.5,18.80095],[-93,18.75322],[-92.5,18.7034],[-92,18.65154],[-91.5,18.59768],[-91,18.54186],[-90.5,18.48412],[-90,18.4245],[-89.5,18.36303],[-89,18.29976],[-88.5,18.23472],[-88,18.16795],[-87.5,18.09948],[-87,18.02936],[-86.5,17.9576],[-86,17.88426],[-85.5,17.80936],[-85,17.73293],[-84.5,17.65501],[-84,17.57562],[-83.5,17.49481],[-83,17.41259],[-82.5,17.32901],[-82,17.24408],[-81.5,17.15784],[-81,17.07032],[-80.5,16.98154],[-80,16.89153],[-79.5,16.80032],[-79,16.70793],[-78.5,16.6144],[-78,16.51974],[-77.5,16.42398],[-77,16.32715],[-76.5,16.22927],[-76,16.13037],[-75.5,16.03046],[-75,15.92957],[-74.5,15.82773],[-74,15.72495],[-73.5,15.62126],[-73,15.51668],[-72.5,15.41123],[-72,15.30493],[-71.5,15.1978],[-71,15.08987],[-70.5,14.98114],[-70,14.87165],[-69.5,14.76141],[-69,14.65044],[-68.5,14.53875],[-68,14.42637],[-67.5,14.31331],[-67,14.19959],[-66.5,14.08524],[-66,13.97025],[-65.5,13.85466],[-65.3125,13.81116]]}},{"type":"Feature","id":"+10830419:center:0","properties":{"id":"+10830419","year":1083,"month":4,"day":19,"time_tdt":"20:52:17","type":"금환일식","type_code":"A","saros":104,"gamma":-0.01728,"magnitude":0.94322,"greatest":{"lat":12.32618,"lng":-128.76166},"path_width_km":209.8,"duration":"07m28s","delta_t_seconds":1150.4,"catalog_number":7322,"source":"NASA Five Millennium Canon of Solar Eclipses","source_url":"https://eclipse.gsfc.nasa.gov/SEsearch/SEsearchmap.php?Ecl=%2B10830419","boundary":"center","name":"1083-04-19 금환일식"},"geometry":{"type":"LineString","coordinates":[[174.16365,-14.60924],[174.5,-14.52853],[175,-14.40852],[175.5,-14.28684],[176,-14.16346],[176.5,-14.03838],[177,-13.91157],[177.5,-13.783],[178,-13.65268],[178.5,-13.52057],[179,-13.38665],[179.5,-13.25091],[180,-13.11332]]}},{"type":"Feature","id":"+10830419:center:1","properties":{"id":"+10830419","year":1083,"month":4,"day":19,"time_tdt":"20:52:17","type":"금환일식","type_code":"A","saros":104,"gamma":-0.01728,"magnitude":0.94322,"greatest":{"lat":12.32618,"lng":-128.76166},"path_width_km":209.8,"duration":"07m28s","delta_t_seconds":1150.4,"catalog_number":7322,"source":"NASA Five Millennium Canon of Solar Eclipses","source_url":"https://eclipse.gsfc.nasa.gov/SEsearch/SEsearchmap.php?Ecl=%2B10830419","boundary":"center","name":"1083-04-19 금환일식"},"geometry":{"type":"LineString","coordinates":[[-179.5,-12.97387],[-179,-12.83254],[-178.5,-12.68929],[-178,-12.54412],[-177.5,-12.397],[-177,-12.2479],[-176.5,-12.09681],[-176,-11.9437],[-175.5,-11.78855],[-175,-11.63134],[-174.5,-11.47204],[-174,-11.31062],[-173.5,-11.14707],[-173,-10.98136],[-172.5,-10.81346],[-172,-10.64336],[-171.5,-10.47101],[-171,-10.2964],[-170.5,-10.11951],[-170,-9.9403],[-169.5,-9.75875],[-169,-9.57483],[-168.5,-9.38852],[-168,-9.19978],[-167.5,-9.0086],[-167,-8.81495],[-166.5,-8.61879],[-166,-8.4201],[-165.5,-8.21886],[-165,-8.01503],[-164.5,-7.8086],[-164,-7.59952],[-163.5,-7.38779],[-163,-7.17337],[-162.5,-6.95623],[-162,-6.73635],[-161.5,-6.51371],[-161,-6.28829],[-160.5,-6.06006],[-160,-5.82899],[-159.5,-5.59507],[-159,-5.35829],[-158.5,-5.11861],[-158,-4.87603],[-157.5,-4.63053],[-157,-4.3821],[-156.5,-4.13072],[-156,-3.87639],[-155.5,-3.61911],[-155,-3.35886],[-154.5,-3.09566],[-154,-2.8295],[-153.5,-2.5604],[-153,-2.28835],[-152.5,-2.01339],[-152,-1.73553],[-151.5,-1.4548],[-151,-1.17123],[-150.5,-0.88485],[-150,-0.59571],[-149.5,-0.30386],[-149,-0.00936],[-148.5,0.28773],[-148,0.58734],[-147.5,0.88937],[-147,1.19375],[-146.5,1.50037],[-146,1.80913],[-145.5,2.11991],[-145,2.43257],[-144.5,2.74697],[-144,3.06298],[-143.5,3.38043],[-143,3.69914],[-142.5,4.01894],[-142,4.33963],[-141.5,4.66101],[-141,4.98286],[-140.5,5.30498],[-140,5.62712],[-139.5,5.94904],[-139,6.27051],[-138.5,6.59126],[-138,6.91104],[-137.5,7.22958],[-137,7.54661],[-136.5,7.86188],[-136,8.1751],[-135.5,8.48602],[-135,8.79435],[-134.5,9.09985],[-134,9.40225],[-133.5,9.70129],[-133,9.99674],[-132.5,10.28835],[-132,10.5759],[-131.5,10.85917],[-131,11.13796],[-130.5,11.41207],[-130,11.68133],[-129.5,11.94557],[-129,12.20463],[-128.5,12.45838],[-128,12.70669],[-127.5,12.94946],[-127,13.18659],[-126.5,13.41798],[-126,13.64359],[-125.5,13.86334],[-125,14.07719],[-124.5,14.28512],[-124,14.48709],[-123.5,14.68311],[-123,14.87317],[-122.5,15.05728],[-122,15.23546],[-121.5,15.40773],[-121,15.57413],[-120.5,15.7347],[-120,15.88948],[-119.5,16.03853],[-119,16.1819],[-118.5,16.31965],[-118,16.45186],[-117.5,16.57858],[-117,16.69989],[-116.5,16.81586],[-116,16.92658],[-115.5,17.03211],[-115,17.13253],[-114.5,17.22794],[-114,17.3184],[-113.5,17.40401],[-113,17.48483],[-112.5,17.56097],[-112,17.63249],[-111.5,17.69948],[-111,17.76203],[-110.5,17.82021],[-110,17.8741],[-109.5,17.92379],[-109,17.96936],[-108.5,18.01088],[-108,18.04843],[-107.5,18.08208],[-107,18.11193],[-106.5,18.13803],[-106,18.16046],[-105.5,18.1793],[-105,18.19461],[-104.5,18.20647],[-104,18.21494],[-103.5,18.2201],[-103,18.222],[-102.5,18.22073],[-102,18.21632],[-101.5,18.20887],[-101,18.19841],[-100.5,18.18502],[-100,18.16876],[-99.5,18.14968],[-99,18.12784],[-98.5,18.10329],[-98,18.0761],[-97.5,18.04632],[-97,18.014],[-96.5,17.97918],[-96,17.94193],[-95.5,17.9023],[-95,17.86033],[-94.5,17.81607],[-94,17.76956],[-93.5,17.72087],[-93,17.67002],[-92.5,17.61707],[-92,17.56205],[-91.5,17.50502],[-91,17.44602],[-90.5,17.38508],[-90,17.32225],[-89.5,17.25756],[-89,17.19106],[-88.5,17.12279],[-88,17.05277],[-87.5,16.98106],[-87,16.90768],[-86.5,16.83267],[-86,16.75606],[-85.5,16.6779],[-85,16.59821],[-84.5,16.51703],[-84,16.43439],[-83.5,16.35031],[-83,16.26485],[-82.5,16.17801],[-82,16.08984],[-81.5,16.00036],[-81,15.9096],[-80.5,15.8176],[-80,15.72437],[-79.5,15.62995],[-79,15.53437],[-78.5,15.43764],[-78,15.33981],[-77.5,15.24088],[-77,15.14089],[-76.5,15.03986],[-76,14.93782],[-75.5,14.83479],[-75,14.7308],[-74.5,14.62586],[-74,14.52],[-73.5,14.41324],[-73,14.30561],[-72.5,14.19712],[-72,14.0878],[-71.5,13.97767],[-71,13.86674],[-70.5,13.75504],[-70,13.64259],[-69.5,13.52941],[-69,13.41551],[-68.5,13.30091],[-68,13.18564],[-67.5,13.06971],[-67,12.95314],[-66.5,12.83594],[-66,12.71814],[-65.65358,12.63621]]}},{"type":"Feature","id":"+10830419:south:0","properties":{"id":"+10830419","year":1083,"month":4,"day":19,"time_tdt":"20:52:17","type":"금환일식","type_code":"A","saros":104,"gamma":-0.01728,"magnitude":0.94322,"greatest":{"lat":12.32618,"lng":-128.76166},"path_width_km":209.8,"duration":"07m28s","delta_t_seconds":1150.4,"catalog_number":7322,"source":"NASA Five Millennium Canon of Solar Eclipses","source_url":"https://eclipse.gsfc.nasa.gov/SEsearch/SEsearchmap.php?Ecl=%2B10830419","boundary":"south","name":"1083-04-19 금환일식"},"geometry":{"type":"LineString","coordinates":[[174.51172,-15.77543],[175,-15.657],[175.5,-15.53408],[176,-15.40948],[176.5,-15.28318],[177,-15.15516],[177.5,-15.02539],[178,-14.89388],[178.5,-14.76059],[179,-14.6255],[179.5,-14.4886],[180,-14.34986]]}},{"type":"Feature","id":"+10830419:south:1","properties":{"id":"+10830419","year":1083,"month":4,"day":19,"time_tdt":"20:52:17","type":"금환일식","type_code":"A","saros":104,"gamma":-0.01728,"magnitude":0.94322,"greatest":{"lat":12.32618,"lng":-128.76166},"path_width_km":209.8,"duration":"07m28s","delta_t_seconds":1150.4,"catalog_number":7322,"source":"NASA Five Millennium Canon of Solar Eclipses","source_url":"https://eclipse.gsfc.nasa.gov/SEsearch/SEsearchmap.php?Ecl=%2B10830419","boundary":"south","name":"1083-04-19 금환일식"},"geometry":{"type":"LineString","coordinates":[[-179.5,-14.20927],[-179,-14.0668],[-178.5,-13.92244],[-178,-13.77616],[-177.5,-13.62794],[-177,-13.47776],[-176.5,-13.3256],[-176,-13.17143],[-175.5,-13.01524],[-175,-12.85699],[-174.5,-12.69667],[-174,-12.53425],[-173.5,-12.36971],[-173,-12.20303],[-172.5,-12.03417],[-172,-11.86311],[-171.5,-11.68984],[-171,-11.51431],[-170.5,-11.33651],[-170,-11.15642],[-169.5,-10.974],[-169,-10.78923],[-168.5,-10.60208],[-168,-10.41253],[-167.5,-10.22055],[-167,-10.0261],[-166.5,-9.82918],[-166,-9.62974],[-165.5,-9.42776],[-165,-9.22321],[-164.5,-9.01607],[-164,-8.80631],[-163.5,-8.59391],[-163,-8.37883],[-162.5,-8.16106],[-162,-7.94056],[-161.5,-7.71732],[-161,-7.4913],[-160.5,-7.26249],[-160,-7.03085],[-159.5,-6.79638],[-159,-6.55905],[-158.5,-6.31885],[-158,-6.07574],[-157.5,-5.82972],[-157,-5.58078],[-156.5,-5.3289],[-156,-5.07406],[-155.5,-4.81627],[-155,-4.55552],[-154.5,-4.29181],[-154,-4.02513],[-153.5,-3.7555],[-153,-3.48292],[-152.5,-3.2074],[-152,-2.92896],[-151.5,-2.64762],[-151,-2.36342],[-150.5,-2.07638],[-150,-1.78653],[-149.5,-1.49394],[-149,-1.19865],[-148.5,-0.90071],[-148,-0.6002],[-147.5,-0.2972],[-147,0.00822],[-146.5,0.31596],[-146,0.62592],[-145.5,0.93799],[-145,1.25204],[-144.5,1.56794],[-144,1.88556],[-143.5,2.20472],[-143,2.52528],[-142.5,2.84705],[-142,3.16984],[-141.5,3.49347],[-141,3.81771],[-140.5,4.14236],[-140,4.46718],[-139.5,4.79194],[-139,5.11639],[-138.5,5.44028],[-138,5.76335],[-137.5,6.08533],[-137,6.40595],[-136.5,6.72493],[-136,7.04202],[-135.5,7.35691],[-135,7.66935],[-134.5,7.97906],[-134,8.28576],[-133.5,8.5892],[-133,8.88912],[-132.5,9.18526],[-132,9.47738],[-131.5,9.76526],[-131,10.04867],[-130.5,10.32741],[-130,10.60129],[-129.5,10.87011],[-129,11.13372],[-128.5,11.39195],[-128,11.64468],[-127.5,11.89179],[-127,12.13315],[-126.5,12.36867],[-126,12.59829],[-125.5,12.82192],[-125,13.03952],[-124.5,13.25105],[-124,13.45648],[-123.5,13.65578],[-123,13.84897],[-122.5,14.03603],[-122,14.21699],[-121.5,14.39187],[-121,14.5607],[-120.5,14.72352],[-120,14.88037],[-119.5,15.03131],[-119,15.17639],[-118.5,15.31567],[-118,15.44923],[-117.5,15.57714],[-117,15.69946],[-116.5,15.81627],[-116,15.92765],[-115.5,16.03369],[-115,16.13447],[-114.5,16.23006],[-114,16.32057],[-113.5,16.40606],[-113,16.48663],[-112.5,16.56237],[-112,16.63336],[-111.5,16.69968],[-111,16.76143],[-110.5,16.81869],[-110,16.87155],[-109.5,16.92008],[-109,16.96438],[-108.5,17.00452],[-108,17.04059],[-107.5,17.07267],[-107,17.10084],[-106.5,17.12517],[-106,17.14574],[-105.5,17.16263],[-105,17.17592],[-104.5,17.18568],[-104,17.19197],[-103.5,17.19488],[-103,17.19447],[-102.5,17.19081],[-102,17.18396],[-101.5,17.174],[-101,17.16098],[-100.5,17.14498],[-100,17.12605],[-99.5,17.10426],[-99,17.07966],[-98.5,17.05231],[-98,17.02228],[-97.5,16.98961],[-97,16.95437],[-96.5,16.91661],[-96,16.87638],[-95.5,16.83373],[-95,16.78872],[-94.5,16.74139],[-94,16.6918],[-93.5,16.63999],[-93,16.58601],[-92.5,16.52991],[-92,16.47172],[-91.5,16.41151],[-91,16.34931],[-90.5,16.28516],[-90,16.2191],[-89.5,16.15119],[-89,16.08144],[-88.5,16.00992],[-88,15.93665],[-87.5,15.86168],[-87,15.78504],[-86.5,15.70676],[-86,15.62689],[-85.5,15.54546],[-85,15.46251],[-84.5,15.37806],[-84,15.29216],[-83.5,15.20483],[-83,15.1161],[-82.5,15.02602],[-82,14.9346],[-81.5,14.84188],[-81,14.74789],[-80.5,14.65266],[-80,14.55622],[-79.5,14.4586],[-79,14.35981],[-78.5,14.2599],[-78,14.15889],[-77.5,14.0568],[-77,13.95366],[-76.5,13.84949],[-76,13.74432],[-75.5,13.63817],[-75,13.53108],[-74.5,13.42305],[-74,13.31412],[-73.5,13.2043],[-73,13.09363],[-72.5,12.98211],[-72,12.86978],[-71.5,12.75665],[-71,12.64274],[-70.5,12.52808],[-70,12.41268],[-69.5,12.29657],[-69,12.17975],[-68.5,12.06226],[-68,11.94412],[-67.5,11.82532],[-67,11.70591],[-66.5,11.58589],[-66,11.46528]]}},{"type":"Feature","id":"+10831014:north:0","properties":{"id":"+10831014","year":1083,"month":10,"day":14,"time_tdt":"01:15:15","type":"개기일식","type_code":"T","saros":109,"gamma":0.05029,"magnitude":1.04237,"greatest":{"lat":-7.44988,"lng":163.13684},"path_width_km":141.7,"duration":"04m00s","delta_t_seconds":1148.3,"catalog_number":7323,"source":"NASA Five Millennium Canon of Solar Eclipses","source_url":"https://eclipse.gsfc.nasa.gov/SEsearch/SEsearchmap.php?Ecl=%2B10831014","boundary":"north","name":"1083-10-14 개기일식"},"geometry":{"type":"LineString","coordinates":[[101.875,18.74347],[102,18.72144],[102.5,18.63237],[103,18.54177],[103.5,18.44964],[104,18.35595],[104.5,18.26069],[105,18.16384],[105.5,18.0654],[106,17.96534],[106.5,17.86365],[107,17.76032],[107.5,17.65532],[108,17.54865],[108.5,17.44028],[109,17.3302],[109.5,17.2184],[110,17.10485],[110.5,16.98954],[111,16.87245],[111.5,16.75356],[112,16.63286],[112.5,16.51033],[113,16.38594],[113.5,16.25969],[114,16.13155],[114.5,16.0015],[115,15.86953],[115.5,15.7356],[116,15.59972],[116.5,15.46185],[117,15.32197],[117.5,15.18007],[118,15.03612],[118.5,14.89011],[119,14.74201],[119.5,14.5918],[120,14.43946],[120.5,14.28498],[121,14.12832],[121.5,13.96947],[122,13.80841],[122.5,13.64511],[123,13.47956],[123.5,13.31173],[124,13.1416],[124.5,12.96915],[125,12.79436],[125.5,12.6172],[126,12.43766],[126.5,12.25572],[127,12.07136],[127.5,11.88455],[128,11.69528],[128.5,11.50352],[129,11.30926],[129.5,11.11248],[130,10.91316],[130.5,10.71129],[131,10.50684],[131.5,10.29981],[132,10.09018],[132.5,9.87793],[133,9.66306],[133.5,9.44555],[134,9.22539],[134.5,9.00257],[135,8.77709],[135.5,8.54895],[136,8.31813],[136.5,8.08465],[137,7.8485],[137.5,7.60968],[138,7.3682],[138.5,7.12408],[139,6.87732],[139.5,6.62794],[140,6.37595],[140.5,6.12139],[141,5.86427],[141.5,5.60463],[142,5.3425],[142.5,5.07792],[143,4.81093],[143.5,4.54159],[144,4.26994],[144.5,3.99605],[145,3.71997],[145.5,3.44179],[146,3.16157],[146.5,2.87939],[147,2.59535],[147.5,2.30955],[148,2.02207],[148.5,1.73303],[149,1.44255],[149.5,1.15073],[150,0.85772],[150.5,0.56364],[151,0.26863],[151.5,-0.02716],[152,-0.32358],[152.5,-0.62048],[153,-0.91769],[153.5,-1.21504],[154,-1.51237],[154.5,-1.8095],[155,-2.10626],[155.5,-2.40245],[156,-2.6979],[156.5,-2.99242],[157,-3.28583],[157.5,-3.57793],[158,-3.86855],[158.5,-4.1575],[159,-4.44459],[159.5,-4.72965],[160,-5.01249],[160.5,-5.29295],[161,-5.57085],[161.5,-5.84604],[162,-6.11834],[162.5,-6.38761],[163,-6.6537],[163.5,-6.91648],[164,-7.17581],[164.5,-7.43157],[165,-7.68363],[165.5,-7.9319],[166,-8.17626],[166.5,-8.41663],[167,-8.65293],[167.5,-8.88507],[168,-9.11298],[168.5,-9.33661],[169,-9.5559],[169.5,-9.77081],[170,-9.98129],[170.5,-10.18732],[171,-10.38886],[171.5,-10.58591],[172,-10.77845],[172.5,-10.96646],[173,-11.14996],[173.5,-11.32894],[174,-11.50341],[174.5,-11.67338],[175,-11.83888],[175.5,-11.99992],[176,-12.15653],[176.5,-12.30873],[177,-12.45656],[177.5,-12.60005],[178,-12.73923],[178.5,-12.87415],[179,-13.00485],[179.5,-13.13136],[180,-13.25373]]}},{"type":"Feature","id":"+10831014:north:1","properties":{"id":"+10831014","year":1083,"month":10,"day":14,"time_tdt":"01:15:15","type":"개기일식","type_code":"T","saros":109,"gamma":0.05029,"magnitude":1.04237,"greatest":{"lat":-7.44988,"lng":163.13684},"path_width_km":141.7,"duration":"04m00s","delta_t_seconds":1148.3,"catalog_number":7323,"source":"NASA Five Millennium Canon of Solar Eclipses","source_url":"https://eclipse.gsfc.nasa.gov/SEsearch/SEsearchmap.php?Ecl=%2B10831014","boundary":"north","name":"1083-10-14 개기일식"},"geometry":{"type":"LineString","coordinates":[[-179.5,-13.37201],[-179,-13.48624],[-178.5,-13.59648],[-178,-13.70276],[-177.5,-13.80514],[-177,-13.90367],[-176.5,-13.9984],[-176,-14.08937],[-175.5,-14.17665],[-175,-14.26028],[-174.5,-14.34031],[-174,-14.41679],[-173.5,-14.48977],[-173,-14.55931],[-172.5,-14.62546],[-172,-14.68826],[-171.5,-14.74777],[-171,-14.80403],[-170.5,-14.8571],[-170,-14.90702],[-169.5,-14.95384],[-169,-14.99762],[-168.5,-15.03838],[-168,-15.0762],[-167.5,-15.1111],[-167,-15.14314],[-166.5,-15.17236],[-166,-15.1988],[-165.5,-15.22252],[-165,-15.24355],[-164.5,-15.26193],[-164,-15.27771],[-163.5,-15.29093],[-163,-15.30162],[-162.5,-15.30984],[-162,-15.31562],[-161.5,-15.31899],[-161,-15.32001],[-160.5,-15.31869],[-160,-15.31509],[-159.5,-15.30924],[-159,-15.30118],[-158.5,-15.29093],[-158,-15.27854],[-157.5,-15.26404],[-157,-15.24747],[-156.5,-15.22885],[-156,-15.20822],[-155.5,-15.18562],[-155,-15.16107],[-154.5,-15.1346],[-154,-15.10625],[-153.5,-15.07605],[-153,-15.04403],[-152.5,-15.01021],[-152,-14.97462],[-151.5,-14.9373],[-151,-14.89828],[-150.5,-14.85757],[-150,-14.8152],[-149.5,-14.77121],[-149,-14.72562],[-148.5,-14.67846],[-148,-14.62974],[-147.5,-14.57951],[-147,-14.52777],[-146.5,-14.47456],[-146,-14.41989],[-145.5,-14.3638],[-145,-14.30631],[-144.5,-14.24743],[-144,-14.1872],[-143.5,-14.12563],[-143,-14.06275],[-142.5,-13.99857],[-142,-13.93313],[-141.5,-13.86643],[-141,-13.79851],[-140.5,-13.72937],[-140,-13.65905],[-139.5,-13.58756],[-139,-13.51492],[-138.5,-13.44114],[-138,-13.36626],[-137.5,-13.29029],[-137,-13.21324],[-136.5,-13.13513],[-136,-13.05599],[-135.5,-12.97583],[-135,-12.89466],[-134.5,-12.81251],[-134,-12.72939],[-133.5,-12.64532],[-133,-12.56032],[-132.5,-12.47439],[-132,-12.38756],[-131.5,-12.29985],[-131.44336,-12.28986]]}},{"type":"Feature","id":"+10831014:center:0","properties":{"id":"+10831014","year":1083,"month":10,"day":14,"time_tdt":"01:15:15","type":"개기일식","type_code":"T","saros":109,"gamma":0.05029,"magnitude":1.04237,"greatest":{"lat":-7.44988,"lng":163.13684},"path_width_km":141.7,"duration":"04m00s","delta_t_seconds":1148.3,"catalog_number":7323,"source":"NASA Five Millennium Canon of Solar Eclipses","source_url":"https://eclipse.gsfc.nasa.gov/SEsearch/SEsearchmap.php?Ecl=%2B10831014","boundary":"center","name":"1083-10-14 개기일식"},"geometry":{"type":"LineString","coordinates":[[101.79817,18.38771],[102,18.3493],[102.5,18.25768],[103,18.16451],[103.5,18.06978],[104,17.97348],[104.5,17.87558],[105,17.77608],[105.5,17.67496],[106,17.57221],[106.5,17.4678],[107,17.36173],[107.5,17.25397],[108,17.14451],[108.5,17.03334],[109,16.92043],[109.5,16.80577],[110,16.68935],[110.5,16.57114],[111,16.45113],[111.5,16.32929],[112,16.20562],[112.5,16.08009],[113,15.95269],[113.5,15.82339],[114,15.69218],[114.5,15.55903],[115,15.42394],[115.5,15.28687],[116,15.1478],[116.5,15.00673],[117,14.86363],[117.5,14.71847],[118,14.57124],[118.5,14.42191],[119,14.27047],[119.5,14.1169],[120,13.96117],[120.5,13.80325],[121,13.64314],[121.5,13.48081],[122,13.31624],[122.5,13.1494],[123,12.98028],[123.5,12.80885],[124,12.6351],[124.5,12.45899],[125,12.28052],[125.5,12.09965],[126,11.91637],[126.5,11.73066],[127,11.54249],[127.5,11.35186],[128,11.15873],[128.5,10.96309],[129,10.76492],[129.5,10.5642],[130,10.36092],[130.5,10.15506],[131,9.9466],[131.5,9.73553],[132,9.52184],[132.5,9.30551],[133,9.08653],[133.5,8.8649],[134,8.6406],[134.5,8.41363],[135,8.18398],[135.5,7.95166],[136,7.71665],[136.5,7.47896],[137,7.2386],[137.5,6.99557],[138,6.74988],[138.5,6.50155],[139,6.25058],[139.5,5.997],[140,5.74083],[140.5,5.4821],[141,5.22083],[141.5,4.95706],[142,4.69084],[142.5,4.42219],[143,4.15118],[143.5,3.87785],[144,3.60227],[144.5,3.3245],[145,3.04461],[145.5,2.76267],[146,2.47877],[146.5,2.193],[147,1.90545],[147.5,1.61622],[148,1.32542],[148.5,1.03317],[149,0.73958],[149.5,0.44479],[150,0.14892],[150.5,-0.14788],[151,-0.44547],[151.5,-0.7437],[152,-1.04241],[152.5,-1.34143],[153,-1.64061],[153.5,-1.93976],[154,-2.23871],[154.5,-2.53729],[155,-2.8353],[155.5,-3.13258],[156,-3.42892],[156.5,-3.72415],[157,-4.01808],[157.5,-4.31052],[158,-4.60128],[158.5,-4.89019],[159,-5.17706],[159.5,-5.4617],[160,-5.74396],[160.5,-6.02365],[161,-6.30062],[161.5,-6.5747],[162,-6.84574],[162.5,-7.11359],[163,-7.37811],[163.5,-7.63918],[164,-7.89666],[164.5,-8.15044],[165,-8.4004],[165.5,-8.64645],[166,-8.8885],[166.5,-9.12645],[167,-9.36023],[167.5,-9.58977],[168,-9.815],[168.5,-10.03588],[169,-10.25236],[169.5,-10.4644],[170,-10.67196],[170.5,-10.87501],[171,-11.07355],[171.5,-11.26756],[172,-11.45702],[172.5,-11.64194],[173,-11.82232],[173.5,-11.99817],[174,-12.16949],[174.5,-12.33631],[175,-12.49865],[175.5,-12.65654],[176,-12.80998],[176.5,-12.95903],[177,-13.10371],[177.5,-13.24406],[178,-13.38012],[178.5,-13.51192],[179,-13.63951],[179.5,-13.76293],[180,-13.88223]]}},{"type":"Feature","id":"+10831014:center:1","properties":{"id":"+10831014","year":1083,"month":10,"day":14,"time_tdt":"01:15:15","type":"개기일식","type_code":"T","saros":109,"gamma":0.05029,"magnitude":1.04237,"greatest":{"lat":-7.44988,"lng":163.13684},"path_width_km":141.7,"duration":"04m00s","delta_t_seconds":1148.3,"catalog_number":7323,"source":"NASA Five Millennium Canon of Solar Eclipses","source_url":"https://eclipse.gsfc.nasa.gov/SEsearch/SEsearchmap.php?Ecl=%2B10831014","boundary":"center","name":"1083-10-14 개기일식"},"geometry":{"type":"LineString","coordinates":[[-179.5,-13.99746],[-179,-14.10865],[-178.5,-14.21586],[-178,-14.31914],[-177.5,-14.41853],[-177,-14.51409],[-176.5,-14.60587],[-176,-14.69392],[-175.5,-14.77829],[-175,-14.85903],[-174.5,-14.93619],[-174,-15.00982],[-173.5,-15.07997],[-173,-15.1467],[-172.5,-15.21005],[-172,-15.27007],[-171.5,-15.32682],[-171,-15.38034],[-170.5,-15.43068],[-170,-15.47789],[-169.5,-15.52202],[-169,-15.56311],[-168.5,-15.60122],[-168,-15.63639],[-167.5,-15.66865],[-167,-15.69807],[-166.5,-15.72469],[-166,-15.74854],[-165.5,-15.76967],[-165,-15.78813],[-164.5,-15.80395],[-164,-15.81718],[-163.5,-15.82786],[-163,-15.83603],[-162.5,-15.84173],[-162,-15.845],[-161.5,-15.84588],[-161,-15.8444],[-160.5,-15.84061],[-160,-15.83454],[-159.5,-15.82622],[-159,-15.81569],[-158.5,-15.803],[-158,-15.78816],[-157.5,-15.77122],[-157,-15.75221],[-156.5,-15.73117],[-156,-15.70812],[-155.5,-15.6831],[-155,-15.65614],[-154.5,-15.62726],[-154,-15.59651],[-153.5,-15.56391],[-153,-15.5295],[-152.5,-15.49329],[-152,-15.45532],[-151.5,-15.41562],[-151,-15.37421],[-150.5,-15.33113],[-150,-15.2864],[-149.5,-15.24004],[-149,-15.19208],[-148.5,-15.14256],[-148,-15.09148],[-147.5,-15.03889],[-147,-14.9848],[-146.5,-14.92924],[-146,-14.87223],[-145.5,-14.8138],[-145,-14.75396],[-144.5,-14.69275],[-144,-14.63018],[-143.5,-14.56628],[-143,-14.50106],[-142.5,-14.43456],[-142,-14.36679],[-141.5,-14.29777],[-141,-14.22753],[-140.5,-14.15607],[-140,-14.08344],[-139.5,-14.00963],[-139,-13.93468],[-138.5,-13.8586],[-138,-13.78142],[-137.5,-13.70314],[-137,-13.6238],[-136.5,-13.5434],[-136,-13.46196],[-135.5,-13.37951],[-135,-13.29606],[-134.5,-13.21163],[-134,-13.12624],[-133.5,-13.03989],[-133,-12.95261],[-132.5,-12.86442],[-132,-12.77533],[-131.5,-12.68536],[-131.36853,-12.66247]]}},{"type":"Feature","id":"+10831014:south:0","properties":{"id":"+10831014","year":1083,"month":10,"day":14,"time_tdt":"01:15:15","type":"개기일식","type_code":"T","saros":109,"gamma":0.05029,"magnitude":1.04237,"greatest":{"lat":-7.44988,"lng":163.13684},"path_width_km":141.7,"duration":"04m00s","delta_t_seconds":1148.3,"catalog_number":7323,"source":"NASA Five Millennium Canon of Solar Eclipses","source_url":"https://eclipse.gsfc.nasa.gov/SEsearch/SEsearchmap.php?Ecl=%2B10831014","boundary":"south","name":"1083-10-14 개기일식"},"geometry":{"type":"LineString","coordinates":[[101.7207,18.02831],[102,17.97636],[102.5,17.88216],[103,17.7864],[103.5,17.68905],[104,17.5901],[104.5,17.48955],[105,17.38737],[105.5,17.28354],[106,17.17806],[106.5,17.07091],[107,16.96207],[107.5,16.85152],[108,16.73924],[108.5,16.62523],[109,16.50947],[109.5,16.39192],[110,16.27259],[110.5,16.15145],[111,16.02848],[111.5,15.90367],[112,15.77699],[112.5,15.64843],[113,15.51797],[113.5,15.38559],[114,15.25127],[114.5,15.11499],[115,14.97673],[115.5,14.83647],[116,14.69419],[116.5,14.54988],[117,14.4035],[117.5,14.25504],[118,14.10449],[118.5,13.95181],[119,13.79698],[119.5,13.64],[120,13.48082],[120.5,13.31944],[121,13.15584],[121.5,12.98998],[122,12.82185],[122.5,12.65142],[123,12.47868],[123.5,12.30361],[124,12.12618],[124.5,11.94637],[125,11.76415],[125.5,11.57952],[126,11.39245],[126.5,11.20292],[127,11.0109],[127.5,10.81638],[128,10.61935],[128.5,10.41977],[129,10.21764],[129.5,10.01293],[130,9.80564],[130.5,9.59574],[131,9.38321],[131.5,9.16806],[132,8.95026],[132.5,8.7298],[133,8.50667],[133.5,8.28087],[134,8.05238],[134.5,7.82121],[135,7.58735],[135.5,7.3508],[136,7.11156],[136.5,6.86963],[137,6.62502],[137.5,6.37775],[138,6.12781],[138.5,5.87524],[139,5.62004],[139.5,5.36224],[140,5.10186],[140.5,4.83894],[141,4.57351],[141.5,4.30561],[142,4.03528],[142.5,3.76257],[143,3.48754],[143.5,3.21025],[144,2.93075],[144.5,2.64912],[145,2.36544],[145.5,2.07979],[146,1.79225],[146.5,1.50293],[147,1.21192],[147.5,0.91933],[148,0.62529],[148.5,0.32989],[149,0.03329],[149.5,-0.2644],[150,-0.56302],[150.5,-0.86244],[151,-1.1625],[151.5,-1.46305],[152,-1.76391],[152.5,-2.06493],[153,-2.36593],[153.5,-2.66673],[154,-2.96716],[154.5,-3.26703],[155,-3.56615],[155.5,-3.86435],[156,-4.16143],[156.5,-4.45721],[157,-4.75149],[157.5,-5.0441],[158,-5.33484],[158.5,-5.62354],[159,-5.91002],[159.5,-6.1941],[160,-6.4756],[160.5,-6.75438],[161,-7.03026],[161.5,-7.30309],[162,-7.57272],[162.5,-7.83902],[163,-8.10184],[163.5,-8.36107],[164,-8.61659],[164.5,-8.86828],[165,-9.11604],[165.5,-9.35978],[166,-9.59942],[166.5,-9.83486],[167,-10.06605],[167.5,-10.29293],[168,-10.51542],[168.5,-10.7335],[169,-10.94712],[169.5,-11.15624],[170,-11.36084],[170.5,-11.5609],[171,-11.75641],[171.5,-11.94735],[172,-12.13373],[172.5,-12.31554],[173,-12.4928],[173.5,-12.66551],[174,-12.8337],[174.5,-12.99737],[175,-13.15657],[175.5,-13.3113],[176,-13.46161],[176.5,-13.60753],[177,-13.74909],[177.5,-13.88632],[178,-14.01927],[178.5,-14.14799],[179,-14.2725],[179.5,-14.39287],[180,-14.50913]]}},{"type":"Feature","id":"+10831014:south:1","properties":{"id":"+10831014","year":1083,"month":10,"day":14,"time_tdt":"01:15:15","type":"개기일식","type_code":"T","saros":109,"gamma":0.05029,"magnitude":1.04237,"greatest":{"lat":-7.44988,"lng":163.13684},"path_width_km":141.7,"duration":"04m00s","delta_t_seconds":1148.3,"catalog_number":7323,"source":"NASA Five Millennium Canon of Solar Eclipses","source_url":"https://eclipse.gsfc.nasa.gov/SEsearch/SEsearchmap.php?Ecl=%2B10831014","boundary":"south","name":"1083-10-14 개기일식"},"geometry":{"type":"LineString","coordinates":[[-179.5,-14.62132],[-179,-14.72951],[-178.5,-14.83374],[-178,-14.93405],[-177.5,-15.03049],[-177,-15.12313],[-176.5,-15.212],[-176,-15.29716],[-175.5,-15.37866],[-175,-15.45654],[-174.5,-15.53087],[-174,-15.60169],[-173.5,-15.66905],[-173,-15.73301],[-172.5,-15.7936],[-172,-15.85089],[-171.5,-15.90492],[-171,-15.95573],[-170.5,-16.00339],[-170,-16.04793],[-169.5,-16.08941],[-169,-16.12786],[-168.5,-16.16335],[-168,-16.1959],[-167.5,-16.22557],[-167,-16.25241],[-166.5,-16.27645],[-166,-16.29775],[-165.5,-16.31633],[-165,-16.33226],[-164.5,-16.34556],[-164,-16.35628],[-163.5,-16.36445],[-163,-16.37013],[-162.5,-16.37335],[-162,-16.37414],[-161.5,-16.37256],[-161,-16.36862],[-160.5,-16.36238],[-160,-16.35386],[-159.5,-16.34311],[-159,-16.33015],[-158.5,-16.31503],[-158,-16.29778],[-157.5,-16.27843],[-157,-16.25702],[-156.5,-16.23357],[-156,-16.20813],[-155.5,-16.18071],[-155,-16.15137],[-154.5,-16.12011],[-154,-16.08698],[-153.5,-16.05201],[-153,-16.01522],[-152.5,-15.97665],[-152,-15.93632],[-151.5,-15.89426],[-151,-15.85049],[-150.5,-15.80506],[-150,-15.75797],[-149.5,-15.70927],[-149,-15.65897],[-148.5,-15.6071],[-148,-15.55369],[-147.5,-15.49875],[-147,-15.44233],[-146.5,-15.38443],[-146,-15.32509],[-145.5,-15.26433],[-145,-15.20217],[-144.5,-15.13863],[-144,-15.07374],[-143.5,-15.00752],[-143,-14.93999],[-142.5,-14.87117],[-142,-14.80108],[-141.5,-14.72975],[-141,-14.6572],[-140.5,-14.58344],[-140,-14.5085],[-139.5,-14.43239],[-139,-14.35514],[-138.5,-14.27677],[-138,-14.19729],[-137.5,-14.11672],[-137,-14.03508],[-136.5,-13.9524],[-136,-13.86868],[-135.5,-13.78395],[-135,-13.69822],[-134.5,-13.61151],[-134,-13.52384],[-133.5,-13.43523],[-133,-13.34568],[-132.5,-13.25523],[-132,-13.16388],[-131.5,-13.07165],[-131.29102,-13.03284]]}}],"attribution":"Eclipse Predictions by Fred Espenak and Jean Meeus (NASA's GSFC)","generated_at":"2026-09-23T03:35:42.356Z"}
