{"type":"FeatureCollection","year":1094,"events":[{"id":"+10940319","year":1094,"month":3,"day":19,"time_tdt":"06:28:14","type":"개기일식","type_code":"T","saros":105,"gamma":0.08625,"magnitude":1.03503,"greatest":{"lat":6.12743,"lng":86.70172},"path_width_km":118.3,"duration":"03m04s","delta_t_seconds":1103.6,"catalog_number":7348,"source":"NASA Five Millennium Canon of Solar Eclipses","source_url":"https://eclipse.gsfc.nasa.gov/SEsearch/SEsearchmap.php?Ecl=%2B10940319"},{"id":"+10940912","year":1094,"month":9,"day":12,"time_tdt":"15:20:29","type":"금환일식","type_code":"A","saros":110,"gamma":-0.09222,"magnitude":0.94081,"greatest":{"lat":-2.77989,"lng":-49.67737},"path_width_km":220,"duration":"06m41s","delta_t_seconds":1101.6,"catalog_number":7349,"source":"NASA Five Millennium Canon of Solar Eclipses","source_url":"https://eclipse.gsfc.nasa.gov/SEsearch/SEsearchmap.php?Ecl=%2B10940912"}],"features":[{"type":"Feature","id":"+10940319:north:0","properties":{"id":"+10940319","year":1094,"month":3,"day":19,"time_tdt":"06:28:14","type":"개기일식","type_code":"T","saros":105,"gamma":0.08625,"magnitude":1.03503,"greatest":{"lat":6.12743,"lng":86.70172},"path_width_km":118.3,"duration":"03m04s","delta_t_seconds":1103.6,"catalog_number":7348,"source":"NASA Five Millennium Canon of Solar Eclipses","source_url":"https://eclipse.gsfc.nasa.gov/SEsearch/SEsearchmap.php?Ecl=%2B10940319","boundary":"north","name":"1094-03-19 개기일식"},"geometry":{"type":"LineString","coordinates":[[26.30664,-24.07418],[26.5,-24.06728],[27,-24.04804],[27.5,-24.02674],[28,-24.00336],[28.5,-23.97789],[29,-23.95029],[29.5,-23.92055],[30,-23.88864],[30.5,-23.85453],[31,-23.8182],[31.5,-23.77963],[32,-23.73878],[32.5,-23.69564],[33,-23.65017],[33.5,-23.60235],[34,-23.55215],[34.5,-23.49953],[35,-23.44448],[35.5,-23.38695],[36,-23.32691],[36.5,-23.26434],[37,-23.1992],[37.5,-23.13145],[38,-23.06106],[38.5,-22.98801],[39,-22.91224],[39.5,-22.83372],[40,-22.75241],[40.5,-22.66828],[41,-22.58127],[41.5,-22.49136],[42,-22.3985],[42.5,-22.30265],[43,-22.20375],[43.5,-22.10176],[44,-21.99664],[44.5,-21.88834],[45,-21.7768],[45.5,-21.66198],[46,-21.54381],[46.5,-21.42226],[47,-21.29726],[47.5,-21.16875],[48,-21.03667],[48.5,-20.90097],[49,-20.76158],[49.5,-20.61843],[50,-20.47147],[50.5,-20.32062],[51,-20.1658],[51.5,-20.00696],[52,-19.84402],[52.5,-19.67689],[53,-19.5055],[53.5,-19.32977],[54,-19.14962],[54.5,-18.96495],[55,-18.77569],[55.5,-18.58174],[56,-18.38301],[56.5,-18.1794],[57,-17.97081],[57.5,-17.75715],[58,-17.5383],[58.5,-17.31416],[59,-17.08463],[59.5,-16.84958],[60,-16.6089],[60.5,-16.36248],[61,-16.11019],[61.5,-15.85191],[62,-15.5875],[62.5,-15.31685],[63,-15.03981],[63.5,-14.75625],[64,-14.46603],[64.5,-14.16902],[65,-13.86507],[65.5,-13.55403],[66,-13.23575],[66.5,-12.91011],[67,-12.57693],[67.5,-12.23608],[68,-11.88742],[68.5,-11.53078],[69,-11.16604],[69.5,-10.79304],[70,-10.41166],[70.5,-10.02175],[71,-9.6232],[71.5,-9.21589],[72,-8.7997],[72.5,-8.37455],[73,-7.94034],[73.5,-7.49702],[74,-7.04454],[74.5,-6.58286],[75,-6.11197],[75.5,-5.63192],[76,-5.14273],[76.5,-4.64449],[77,-4.13733],[77.5,-3.6214],[78,-3.09689],[78.5,-2.56404],[79,-2.02314],[79.5,-1.47452],[80,-0.91857],[80.5,-0.35571],[81,0.21357],[81.5,0.78873],[82,1.36921],[82.5,1.95438],[83,2.54357],[83.5,3.13609],[84,3.73119],[84.5,4.32814],[85,4.92614],[85.5,5.52443],[86,6.12221],[86.5,6.7187],[87,7.31314],[87.5,7.90477],[88,8.49288],[88.5,9.07677],[89,9.65579],[89.5,10.22935],[90,10.79687],[90.5,11.35784],[91,11.9118],[91.5,12.45832],[92,12.99705],[92.5,13.52767],[93,14.04991],[93.5,14.56354],[94,15.06838],[94.5,15.56428],[95,16.05115],[95.5,16.52892],[96,16.99753],[96.5,17.45698],[97,17.90729],[97.5,18.34848],[98,18.78062],[98.5,19.20376],[99,19.61801],[99.5,20.02347],[100,20.42023],[100.5,20.80843],[101,21.18818],[101.5,21.55963],[102,21.92291],[102.5,22.27816],[103,22.62553],[103.5,22.96516],[104,23.29721],[104.5,23.62181],[105,23.93912],[105.5,24.24927],[106,24.55243],[106.5,24.84872],[107,25.1383],[107.5,25.42129],[108,25.69784],[108.5,25.96809],[109,26.23215],[109.5,26.49017],[110,26.74227],[110.5,26.98857],[111,27.22919],[111.5,27.46426],[112,27.69387],[112.5,27.91815],[113,28.13721],[113.5,28.35114],[114,28.56006],[114.5,28.76406],[115,28.96324],[115.5,29.15769],[116,29.34751],[116.5,29.53278],[117,29.7136],[117.5,29.89004],[118,30.06219],[118.5,30.23013],[119,30.39393],[119.5,30.55367],[120,30.70943],[120.5,30.86127],[121,31.00927],[121.5,31.15348],[122,31.29398],[122.5,31.43082],[123,31.56408],[123.5,31.6938],[124,31.82006],[124.5,31.94289],[125,32.06236],[125.5,32.17853],[126,32.29143],[126.5,32.40113],[127,32.50767],[127.5,32.6111],[128,32.71147],[128.5,32.80882],[129,32.90319],[129.5,32.99463],[130,33.08318],[130.5,33.16888],[131,33.25176],[131.5,33.33187],[132,33.40925],[132.5,33.48393],[133,33.55594],[133.5,33.62532],[134,33.69211],[134.5,33.75633],[135,33.81802],[135.5,33.87721],[136,33.93393],[136.5,33.98821],[137,34.04008],[137.5,34.08956],[138,34.13669],[138.5,34.18149],[139,34.22398],[139.5,34.2642],[140,34.30216],[140.5,34.3379],[141,34.37143],[141.5,34.40277],[142,34.43196],[142.5,34.45902],[143,34.48395],[143.5,34.5068],[144,34.52757],[144.5,34.54629],[145,34.56297],[145.5,34.57764],[146,34.59032],[146.5,34.60102],[147,34.60976],[147.5,34.61657],[148,34.62145],[148.5,34.62442],[149,34.62551],[149.5,34.62473],[150,34.62209],[150.5,34.61761],[151,34.61131],[151.5,34.60319],[152,34.59329],[152.5,34.5816],[153,34.56815],[153.5,34.55295],[153.9668,34.53719]]}},{"type":"Feature","id":"+10940319:center:0","properties":{"id":"+10940319","year":1094,"month":3,"day":19,"time_tdt":"06:28:14","type":"개기일식","type_code":"T","saros":105,"gamma":0.08625,"magnitude":1.03503,"greatest":{"lat":6.12743,"lng":86.70172},"path_width_km":118.3,"duration":"03m04s","delta_t_seconds":1103.6,"catalog_number":7348,"source":"NASA Five Millennium Canon of Solar Eclipses","source_url":"https://eclipse.gsfc.nasa.gov/SEsearch/SEsearchmap.php?Ecl=%2B10940319","boundary":"center","name":"1094-03-19 개기일식"},"geometry":{"type":"LineString","coordinates":[[26.34407,-24.36914],[26.5,-24.34747],[27,-24.33048],[27.5,-24.31145],[28,-24.29036],[28.5,-24.26719],[29,-24.24192],[29.5,-24.21451],[30,-24.18496],[30.5,-24.15323],[31,-24.1193],[31.5,-24.08314],[32,-24.04474],[32.5,-24.00405],[33,-23.96107],[33.5,-23.91575],[34,-23.86807],[34.5,-23.818],[35,-23.76551],[35.5,-23.71058],[36,-23.65317],[36.5,-23.59325],[37,-23.53078],[37.5,-23.46574],[38,-23.39808],[38.5,-23.32778],[39,-23.2548],[39.5,-23.17911],[40,-23.10065],[40.5,-23.0194],[41,-22.93532],[41.5,-22.84836],[42,-22.75849],[42.5,-22.66566],[43,-22.56982],[43.5,-22.47094],[44,-22.36896],[44.5,-22.26384],[45,-22.15552],[45.5,-22.04397],[46,-21.92912],[46.5,-21.81093],[47,-21.68933],[47.5,-21.56428],[48,-21.43571],[48.5,-21.30356],[49,-21.16778],[49.5,-21.02831],[50,-20.88507],[50.5,-20.738],[51,-20.58703],[51.5,-20.43209],[52,-20.27312],[52.5,-20.11003],[53,-19.94274],[53.5,-19.77119],[54,-19.59528],[54.5,-19.41494],[55,-19.23008],[55.5,-19.04061],[56,-18.84644],[56.5,-18.64748],[57,-18.44362],[57.5,-18.23478],[58,-18.02085],[58.5,-17.80172],[59,-17.57729],[59.5,-17.34745],[60,-17.11209],[60.5,-16.87108],[61,-16.62431],[61.5,-16.37166],[62,-16.11301],[62.5,-15.84821],[63,-15.57716],[63.5,-15.29971],[64,-15.01572],[64.5,-14.72506],[65,-14.42759],[65.5,-14.12316],[66,-13.81163],[66.5,-13.49286],[67,-13.1667],[67.5,-12.83299],[68,-12.4916],[68.5,-12.14237],[69,-11.78516],[69.5,-11.41983],[70,-11.04623],[70.5,-10.66423],[71,-10.2737],[71.5,-9.87451],[72,-9.46655],[72.5,-9.0497],[73,-8.62388],[73.5,-8.18899],[74,-7.74499],[74.5,-7.29181],[75,-6.82944],[75.5,-6.35786],[76,-5.8771],[76.5,-5.38722],[77,-4.8883],[77.5,-4.38045],[78,-3.86384],[78.5,-3.33867],[79,-2.80518],[79.5,-2.26365],[80,-1.71443],[80.5,-1.1579],[81,-0.59449],[81.5,-0.0247],[82,0.55095],[82.5,1.13187],[83,1.71743],[83.5,2.30697],[84,2.89978],[84.5,3.49514],[85,4.09228],[85.5,4.69043],[86,5.2888],[86.5,5.88661],[87,6.48307],[87.5,7.07742],[88,7.66892],[88.5,8.25683],[89,8.84047],[89.5,9.4192],[90,9.99241],[90.5,10.55954],[91,11.12008],[91.5,11.67356],[92,12.21958],[92.5,12.75777],[93,13.28781],[93.5,13.80945],[94,14.32246],[94.5,14.82665],[95,15.3219],[95.5,15.8081],[96,16.28517],[96.5,16.75309],[97,17.21184],[97.5,17.66143],[98,18.10191],[98.5,18.53333],[99,18.95576],[99.5,19.36929],[100,19.77403],[100.5,20.17009],[101,20.55758],[101.5,20.93664],[102,21.3074],[102.5,21.66999],[103,22.02457],[103.5,22.37128],[104,22.71025],[104.5,23.04165],[105,23.36561],[105.5,23.68229],[106,23.99183],[106.5,24.29438],[107,24.59008],[107.5,24.87907],[108,25.16149],[108.5,25.43748],[109,25.70718],[109.5,25.9707],[110,26.22819],[110.5,26.47978],[111,26.72557],[111.5,26.9657],[112,27.20027],[112.5,27.42942],[113,27.65324],[113.5,27.87184],[114,28.08533],[114.5,28.29382],[115,28.49739],[115.5,28.69616],[116,28.89021],[116.5,29.07964],[117,29.26453],[117.5,29.44498],[118,29.62106],[118.5,29.79285],[119,29.96045],[119.5,30.12392],[120,30.28333],[120.5,30.43877],[121,30.59031],[121.5,30.738],[122,30.88192],[122.5,31.02214],[123,31.15871],[123.5,31.2917],[124,31.42116],[124.5,31.54717],[125,31.66976],[125.5,31.78899],[126,31.90493],[126.5,32.01761],[127,32.1271],[127.5,32.23344],[128,32.33667],[128.5,32.43685],[129,32.53401],[129.5,32.6282],[130,32.71947],[130.5,32.80786],[131,32.8934],[131.5,32.97614],[132,33.05611],[132.5,33.13335],[133,33.20789],[133.5,33.27978],[134,33.34905],[134.5,33.41572],[135,33.47984],[135.5,33.54143],[136,33.60053],[136.5,33.65716],[137,33.71136],[137.5,33.76316],[138,33.81257],[138.5,33.85964],[139,33.90438],[139.5,33.94682],[140,33.987],[140.5,34.02492],[141,34.06062],[141.5,34.09413],[142,34.12545],[142.5,34.15463],[143,34.18167],[143.5,34.20661],[144,34.22945],[144.5,34.25023],[145,34.26896],[145.5,34.28567],[146,34.30037],[146.5,34.31307],[147,34.32381],[147.5,34.3326],[148,34.33945],[148.5,34.34439],[149,34.34742],[149.5,34.34858],[150,34.34786],[150.5,34.3453],[151,34.3409],[151.5,34.33469],[152,34.32667],[152.5,34.31686],[153,34.30528],[153.5,34.29194],[153.92146,34.30946]]}},{"type":"Feature","id":"+10940319:south:0","properties":{"id":"+10940319","year":1094,"month":3,"day":19,"time_tdt":"06:28:14","type":"개기일식","type_code":"T","saros":105,"gamma":0.08625,"magnitude":1.03503,"greatest":{"lat":6.12743,"lng":86.70172},"path_width_km":118.3,"duration":"03m04s","delta_t_seconds":1103.6,"catalog_number":7348,"source":"NASA Five Millennium Canon of Solar Eclipses","source_url":"https://eclipse.gsfc.nasa.gov/SEsearch/SEsearchmap.php?Ecl=%2B10940319","boundary":"south","name":"1094-03-19 개기일식"},"geometry":{"type":"LineString","coordinates":[[26.5,-24.62732],[27,-24.61256],[27.5,-24.59579],[28,-24.57697],[28.5,-24.55608],[29,-24.53311],[29.5,-24.50802],[30,-24.48081],[30.5,-24.45143],[31,-24.41987],[31.5,-24.38611],[32,-24.35012],[32.5,-24.31187],[33,-24.27134],[33.5,-24.22849],[34,-24.18331],[34.5,-24.13576],[35,-24.08582],[35.5,-24.03346],[36,-23.97864],[36.5,-23.92133],[37,-23.86151],[37.5,-23.79914],[38,-23.73418],[38.5,-23.66661],[39,-23.59638],[39.5,-23.52347],[40,-23.44783],[40.5,-23.36943],[41,-23.28823],[41.5,-23.20419],[42,-23.11726],[42.5,-23.02741],[43,-22.9346],[43.5,-22.83877],[44,-22.73989],[44.5,-22.6379],[45,-22.53276],[45.5,-22.42443],[46,-22.31284],[46.5,-22.19795],[47,-22.07971],[47.5,-21.95806],[48,-21.83294],[48.5,-21.7043],[49,-21.57207],[49.5,-21.4362],[50,-21.29662],[50.5,-21.15327],[51,-21.00608],[51.5,-20.85498],[52,-20.6999],[52.5,-20.54078],[53,-20.37752],[53.5,-20.21007],[54,-20.03834],[54.5,-19.86224],[55,-19.68169],[55.5,-19.49662],[56,-19.30692],[56.5,-19.11251],[57,-18.9133],[57.5,-18.70918],[58,-18.50007],[58.5,-18.28585],[59,-18.06642],[59.5,-17.84168],[60,-17.61152],[60.5,-17.37581],[61,-17.13445],[61.5,-16.88732],[62,-16.63429],[62.5,-16.37524],[63,-16.11005],[63.5,-15.83857],[64,-15.56068],[64.5,-15.27624],[65,-14.98512],[65.5,-14.68717],[66,-14.38224],[66.5,-14.07021],[67,-13.75091],[67.5,-13.4242],[68,-13.08994],[68.5,-12.74798],[69,-12.39817],[69.5,-12.04036],[70,-11.67442],[70.5,-11.30019],[71,-10.91755],[71.5,-10.52636],[72,-10.12651],[72.5,-9.71786],[73,-9.30033],[73.5,-8.87381],[74,-8.43822],[74.5,-7.99349],[75,-7.5396],[75.5,-7.07649],[76,-6.60419],[76.5,-6.1227],[77,-5.63209],[77.5,-5.13244],[78,-4.62388],[78.5,-4.10656],[79,-3.5807],[79.5,-3.04652],[80,-2.50433],[80.5,-1.95447],[81,-1.39732],[81.5,-0.83333],[82,-0.26299],[82.5,0.31318],[83,0.89457],[83.5,1.48057],[84,2.0705],[84.5,2.66365],[85,3.25929],[85.5,3.85667],[86,4.45499],[86.5,5.05349],[87,5.65136],[87.5,6.24783],[88,6.84213],[88.5,7.43351],[89,8.02126],[89.5,8.60469],[90,9.18316],[90.5,9.75605],[91,10.32282],[91.5,10.88295],[92,11.43599],[92.5,11.98153],[93,12.5192],[93.5,13.0487],[94,13.56976],[94.5,14.08217],[95,14.58575],[95.5,15.08036],[96,15.5659],[96.5,16.0423],[97,16.50954],[97.5,16.96761],[98,17.41651],[98.5,17.85629],[99,18.28701],[99.5,18.70874],[100,19.12158],[100.5,19.52562],[101,19.92099],[101.5,20.30779],[102,20.68617],[102.5,21.05625],[103,21.41818],[103.5,21.7721],[104,22.11815],[104.5,22.45648],[105,22.78724],[105.5,23.11058],[106,23.42665],[106.5,23.73559],[107,24.03754],[107.5,24.33266],[108,24.62108],[108.5,24.90294],[109,25.17838],[109.5,25.44754],[110,25.71054],[110.5,25.96751],[111,26.21859],[111.5,26.46389],[112,26.70354],[112.5,26.93764],[113,27.16632],[113.5,27.38969],[114,27.60785],[114.5,27.82092],[115,28.02898],[115.5,28.23215],[116,28.43052],[116.5,28.62418],[117,28.81323],[117.5,28.99775],[118,29.17784],[118.5,29.35357],[119,29.52502],[119.5,29.69228],[120,29.85543],[120.5,30.01453],[121,30.16967],[121.5,30.3209],[122,30.46831],[122.5,30.61195],[123,30.7519],[123.5,30.88821],[124,31.02094],[124.5,31.15016],[125,31.27592],[125.5,31.39828],[126,31.51729],[126.5,31.63301],[127,31.74549],[127.5,31.85478],[128,31.96092],[128.5,32.06396],[129,32.16396],[129.5,32.26095],[130,32.35498],[130.5,32.44609],[131,32.53432],[131.5,32.61972],[132,32.70232],[132.5,32.78215],[133,32.85927],[133.5,32.9337],[134,33.00547],[134.5,33.07463],[135,33.14121],[135.5,33.20523],[136,33.26674],[136.5,33.32576],[137,33.38231],[137.5,33.43644],[138,33.48818],[138.5,33.53753],[139,33.58455],[139.5,33.62925],[140,33.67165],[140.5,33.71179],[141,33.74969],[141.5,33.78537],[142,33.81886],[142.5,33.85018],[143,33.87935],[143.5,33.90639],[144,33.93133],[144.5,33.95419],[145,33.97499],[145.5,33.99375],[146,34.01049],[146.5,34.02522],[147,34.03797],[147.5,34.04875],[148,34.05759],[148.5,34.0645],[149,34.0695],[149.5,34.07261],[150,34.07384],[150.5,34.07321],[151,34.07073],[151.5,34.06643],[152,34.06031],[152.5,34.05239],[153,34.0427],[153.5,34.03123],[153.91992,34.02024]]}},{"type":"Feature","id":"+10940912:north:0","properties":{"id":"+10940912","year":1094,"month":9,"day":12,"time_tdt":"15:20:29","type":"금환일식","type_code":"A","saros":110,"gamma":-0.09222,"magnitude":0.94081,"greatest":{"lat":-2.77989,"lng":-49.67737},"path_width_km":220,"duration":"06m41s","delta_t_seconds":1101.6,"catalog_number":7349,"source":"NASA Five Millennium Canon of Solar Eclipses","source_url":"https://eclipse.gsfc.nasa.gov/SEsearch/SEsearchmap.php?Ecl=%2B10940912","boundary":"north","name":"1094-09-12 금환일식"},"geometry":{"type":"LineString","coordinates":[[-108.5,25.35016],[-108,25.36323],[-107.5,25.37439],[-107,25.38361],[-106.5,25.39088],[-106,25.39617],[-105.5,25.39946],[-105,25.40073],[-104.5,25.39995],[-104,25.3971],[-103.5,25.39216],[-103,25.3851],[-102.5,25.37589],[-102,25.36451],[-101.5,25.35093],[-101,25.33512],[-100.5,25.31706],[-100,25.29672],[-99.5,25.27406],[-99,25.24907],[-98.5,25.2217],[-98,25.19192],[-97.5,25.15971],[-97,25.12502],[-96.5,25.08783],[-96,25.0481],[-95.5,25.0058],[-95,24.96088],[-94.5,24.9133],[-94,24.86304],[-93.5,24.81005],[-93,24.75429],[-92.5,24.69571],[-92,24.63427],[-91.5,24.56993],[-91,24.50265],[-90.5,24.43236],[-90,24.35903],[-89.5,24.28261],[-89,24.20303],[-88.5,24.12026],[-88,24.03423],[-87.5,23.94489],[-87,23.85217],[-86.5,23.75602],[-86,23.65638],[-85.5,23.55318],[-85,23.44635],[-84.5,23.33583],[-84,23.22155],[-83.5,23.10342],[-83,22.98138],[-82.5,22.85535],[-82,22.72524],[-81.5,22.59098],[-81,22.45247],[-80.5,22.30963],[-80,22.16236],[-79.5,22.01057],[-79,21.85415],[-78.5,21.69301],[-78,21.52703],[-77.5,21.35611],[-77,21.18014],[-76.5,20.99898],[-76,20.81252],[-75.5,20.62064],[-75,20.42319],[-74.5,20.22004],[-74,20.01105],[-73.5,19.79607],[-73,19.57495],[-72.5,19.34752],[-72,19.11362],[-71.5,18.87309],[-71,18.62574],[-70.5,18.37139],[-70,18.10985],[-69.5,17.84092],[-69,17.5644],[-68.5,17.28008],[-68,16.98774],[-67.5,16.68715],[-67,16.37809],[-66.5,16.06031],[-66,15.73358],[-65.5,15.39763],[-65,15.05222],[-64.5,14.69708],[-64,14.33195],[-63.5,13.95655],[-63,13.57061],[-62.5,13.17385],[-62,12.76601],[-61.5,12.34682],[-61,11.916],[-60.5,11.47331],[-60,11.01849],[-59.5,10.55132],[-59,10.07158],[-58.5,9.5791],[-58,9.07372],[-57.5,8.55532],[-57,8.02382],[-56.5,7.47922],[-56,6.92155],[-55.5,6.35092],[-55,5.76752],[-54.5,5.17162],[-54,4.56358],[-53.5,3.94387],[-53,3.31307],[-52.5,2.67186],[-52,2.02104],[-51.5,1.36151],[-51,0.69428],[-50.5,0.02047],[-50,-0.65872],[-49.5,-1.34202],[-49,-2.02811],[-48.5,-2.71562],[-48,-3.40317],[-47.5,-4.08939],[-47,-4.77294],[-46.5,-5.45252],[-46,-6.12691],[-45.5,-6.79496],[-45,-7.45561],[-44.5,-8.1079],[-44,-8.75101],[-43.5,-9.38418],[-43,-10.00679],[-42.5,-10.61833],[-42,-11.21836],[-41.5,-11.80657],[-41,-12.38271],[-40.5,-12.94662],[-40,-13.49821],[-39.5,-14.03745],[-39,-14.56436],[-38.5,-15.07903],[-38,-15.58155],[-37.5,-16.07207],[-37,-16.55078],[-36.5,-17.01785],[-36,-17.47351],[-35.5,-17.91798],[-35,-18.3515],[-34.5,-18.7743],[-34,-19.18665],[-33.5,-19.58879],[-33,-19.98097],[-32.5,-20.36345],[-32,-20.73646],[-31.5,-21.10027],[-31,-21.4551],[-30.5,-21.80119],[-30,-22.13879],[-29.5,-22.4681],[-29,-22.78936],[-28.5,-23.10277],[-28,-23.40854],[-27.5,-23.70689],[-27,-23.99799],[-26.5,-24.28204],[-26,-24.55923],[-25.5,-24.82973],[-25,-25.09371],[-24.5,-25.35133],[-24,-25.60277],[-23.5,-25.84816],[-23,-26.08767],[-22.5,-26.32142],[-22,-26.54957],[-21.5,-26.77225],[-21,-26.98958],[-20.5,-27.20169],[-20,-27.4087],[-19.5,-27.61073],[-19,-27.80789],[-18.5,-28.00028],[-18,-28.18802],[-17.5,-28.3712],[-17,-28.54992],[-16.5,-28.72428],[-16,-28.89436],[-15.5,-29.06025],[-15,-29.22204],[-14.5,-29.37982],[-14,-29.53365],[-13.5,-29.68363],[-13,-29.82981],[-12.5,-29.97228],[-12,-30.11111],[-11.5,-30.24635],[-11,-30.37808],[-10.5,-30.50636],[-10,-30.63126],[-9.5,-30.75282],[-9,-30.87111],[-8.5,-30.98619],[-8,-31.0981],[-7.5,-31.20691],[-7,-31.31265],[-6.5,-31.41539],[-6,-31.51517],[-5.5,-31.61203],[-5,-31.70603],[-4.5,-31.7972],[-4,-31.88558],[-3.5,-31.97123],[-3,-32.05417],[-2.5,-32.13445],[-2,-32.21211],[-1.5,-32.28719],[-1,-32.35971],[-0.5,-32.42972],[0,-32.49724],[0.5,-32.56232],[1,-32.62498],[1.5,-32.68526],[2,-32.74318],[2.5,-32.79878],[3,-32.85209],[3.5,-32.90313],[4,-32.95193],[4.5,-32.99852],[5,-33.04293],[5.5,-33.08517],[6,-33.12528],[6.5,-33.16328],[7,-33.1992],[7.5,-33.23305],[8,-33.26486],[8.5,-33.29465],[9,-33.32245],[9.5,-33.34827],[10,-33.37214],[10.5,-33.39407],[11,-33.41409],[11.5,-33.43221],[12,-33.44846],[12.3418,-33.4585]]}},{"type":"Feature","id":"+10940912:center:0","properties":{"id":"+10940912","year":1094,"month":9,"day":12,"time_tdt":"15:20:29","type":"금환일식","type_code":"A","saros":110,"gamma":-0.09222,"magnitude":0.94081,"greatest":{"lat":-2.77989,"lng":-49.67737},"path_width_km":220,"duration":"06m41s","delta_t_seconds":1101.6,"catalog_number":7349,"source":"NASA Five Millennium Canon of Solar Eclipses","source_url":"https://eclipse.gsfc.nasa.gov/SEsearch/SEsearchmap.php?Ecl=%2B10940912","boundary":"center","name":"1094-09-12 금환일식"},"geometry":{"type":"LineString","coordinates":[[-108.5897,24.09795],[-108.5,24.08738],[-108,24.10259],[-107.5,24.11586],[-107,24.12719],[-106.5,24.13653],[-106,24.14388],[-105.5,24.1492],[-105,24.15248],[-104.5,24.15368],[-104,24.15279],[-103.5,24.14977],[-103,24.14461],[-102.5,24.13728],[-102,24.12774],[-101.5,24.11597],[-101,24.10194],[-100.5,24.08563],[-100,24.067],[-99.5,24.04603],[-99,24.02267],[-98.5,23.9969],[-98,23.96869],[-97.5,23.938],[-97,23.9048],[-96.5,23.86905],[-96,23.83072],[-95.5,23.78976],[-95,23.74615],[-94.5,23.69983],[-94,23.65077],[-93.5,23.59893],[-93,23.54427],[-92.5,23.48673],[-92,23.42628],[-91.5,23.36287],[-91,23.29645],[-90.5,23.22697],[-90,23.15437],[-89.5,23.07862],[-89,22.99965],[-88.5,22.9174],[-88,22.83182],[-87.5,22.74285],[-87,22.65044],[-86.5,22.5545],[-86,22.45499],[-85.5,22.35183],[-85,22.24495],[-84.5,22.13428],[-84,22.01975],[-83.5,21.90128],[-83,21.77879],[-82.5,21.6522],[-82,21.52142],[-81.5,21.38636],[-81,21.24694],[-80.5,21.10306],[-80,20.95462],[-79.5,20.80152],[-79,20.64366],[-78.5,20.48093],[-78,20.31321],[-77.5,20.14039],[-77,19.96235],[-76.5,19.77896],[-76,19.5901],[-75.5,19.39562],[-75,19.19539],[-74.5,18.98926],[-74,18.77708],[-73.5,18.5587],[-73,18.33396],[-72.5,18.10268],[-72,17.86469],[-71.5,17.61982],[-71,17.36787],[-70.5,17.10865],[-70,16.84196],[-69.5,16.5676],[-69,16.28535],[-68.5,15.99498],[-68,15.69628],[-67.5,15.38899],[-67,15.07289],[-66.5,14.74772],[-66,14.41323],[-65.5,14.06916],[-65,13.71523],[-64.5,13.35118],[-64,12.97673],[-63.5,12.59162],[-63,12.19555],[-62.5,11.78825],[-62,11.36946],[-61.5,10.9389],[-61,10.49631],[-60.5,10.04145],[-60,9.5741],[-59.5,9.09403],[-59,8.60107],[-58.5,8.09507],[-58,7.57592],[-57.5,7.04356],[-57,6.49798],[-56.5,5.93924],[-56,5.36745],[-55.5,4.78282],[-55,4.18566],[-54.5,3.57634],[-54,2.95536],[-53.5,2.32332],[-53,1.68094],[-52.5,1.02903],[-52,0.36854],[-51.5,-0.2995],[-51,-0.97396],[-50.5,-1.65361],[-50,-2.33716],[-49.5,-3.02328],[-49,-3.7106],[-48.5,-4.39774],[-48,-5.08333],[-47.5,-5.76605],[-47,-6.44461],[-46.5,-7.11781],[-46,-7.78453],[-45.5,-8.44373],[-45,-9.09449],[-44.5,-9.736],[-44,-10.36755],[-43.5,-10.98853],[-43,-11.59844],[-42.5,-12.1969],[-42,-12.78359],[-41.5,-13.35829],[-41,-13.92086],[-40.5,-14.47121],[-40,-15.00932],[-39.5,-15.53524],[-39,-16.04904],[-38.5,-16.55083],[-38,-17.04076],[-37.5,-17.51901],[-37,-17.98577],[-36.5,-18.44126],[-36,-18.8857],[-35.5,-19.31931],[-35,-19.74236],[-34.5,-20.15507],[-34,-20.5577],[-33.5,-20.9505],[-33,-21.33371],[-32.5,-21.70758],[-32,-22.07234],[-31.5,-22.42824],[-31,-22.7755],[-30.5,-23.11437],[-30,-23.44505],[-29.5,-23.76776],[-29,-24.08272],[-28.5,-24.39012],[-28,-24.69017],[-27.5,-24.98306],[-27,-25.26898],[-26.5,-25.5481],[-26,-25.8206],[-25.5,-26.08664],[-25,-26.3464],[-24.5,-26.60002],[-24,-26.84766],[-23.5,-27.08946],[-23,-27.32558],[-22.5,-27.55613],[-22,-27.78126],[-21.5,-28.0011],[-21,-28.21575],[-20.5,-28.42536],[-20,-28.63002],[-19.5,-28.82985],[-19,-29.02495],[-18.5,-29.21544],[-18,-29.4014],[-17.5,-29.58294],[-17,-29.76015],[-16.5,-29.93311],[-16,-30.10192],[-15.5,-30.26666],[-15,-30.42741],[-14.5,-30.58425],[-14,-30.73725],[-13.5,-30.88649],[-13,-31.03204],[-12.5,-31.17397],[-12,-31.31234],[-11.5,-31.44722],[-11,-31.57868],[-10.5,-31.70677],[-10,-31.83155],[-9.5,-31.95308],[-9,-32.07141],[-8.5,-32.1866],[-8,-32.2987],[-7.5,-32.40776],[-7,-32.51383],[-6.5,-32.61695],[-6,-32.71718],[-5.5,-32.81456],[-5,-32.90912],[-4.5,-33.00092],[-4,-33.08999],[-3.5,-33.17638],[-3,-33.26011],[-2.5,-33.34124],[-2,-33.4198],[-1.5,-33.49581],[-1,-33.56933],[-0.5,-33.64038],[0,-33.70899],[0.5,-33.77519],[1,-33.83902],[1.5,-33.90052],[2,-33.95969],[2.5,-34.01659],[3,-34.07122],[3.5,-34.12363],[4,-34.17384],[4.5,-34.22187],[5,-34.26775],[5.5,-34.31151],[6,-34.35316],[6.5,-34.39274],[7,-34.43026],[7.5,-34.46574],[8,-34.49922],[8.5,-34.53071],[9,-34.56023],[9.5,-34.5878],[10,-34.61345],[10.5,-34.63719],[11,-34.65903],[11.5,-34.67901],[12,-34.69714],[12.29757,-34.74232]]}},{"type":"Feature","id":"+10940912:south:0","properties":{"id":"+10940912","year":1094,"month":9,"day":12,"time_tdt":"15:20:29","type":"금환일식","type_code":"A","saros":110,"gamma":-0.09222,"magnitude":0.94081,"greatest":{"lat":-2.77989,"lng":-49.67737},"path_width_km":220,"duration":"06m41s","delta_t_seconds":1101.6,"catalog_number":7349,"source":"NASA Five Millennium Canon of Solar Eclipses","source_url":"https://eclipse.gsfc.nasa.gov/SEsearch/SEsearchmap.php?Ecl=%2B10940912","boundary":"south","name":"1094-09-12 금환일식"},"geometry":{"type":"LineString","coordinates":[[-108.60547,22.81843],[-108.5,22.82234],[-108,22.83969],[-107.5,22.85509],[-107,22.86852],[-106.5,22.87994],[-106,22.88935],[-105.5,22.8967],[-105,22.90198],[-104.5,22.90517],[-104,22.90624],[-103.5,22.90515],[-103,22.90189],[-102.5,22.89643],[-102,22.88873],[-101.5,22.87877],[-101,22.86653],[-100.5,22.85196],[-100,22.83504],[-99.5,22.81574],[-99,22.79402],[-98.5,22.76985],[-98,22.7432],[-97.5,22.71403],[-97,22.6823],[-96.5,22.64798],[-96,22.61103],[-95.5,22.57142],[-95,22.52909],[-94.5,22.48401],[-94,22.43615],[-93.5,22.38544],[-93,22.33186],[-92.5,22.27534],[-92,22.21586],[-91.5,22.15335],[-91,22.08777],[-90.5,22.01906],[-90,21.94717],[-89.5,21.87205],[-89,21.79364],[-88.5,21.71189],[-88,21.62672],[-87.5,21.53809],[-87,21.44592],[-86.5,21.35015],[-86,21.25071],[-85.5,21.14753],[-85,21.04053],[-84.5,20.92966],[-84,20.81481],[-83.5,20.69592],[-83,20.5729],[-82.5,20.44566],[-82,20.31412],[-81.5,20.17818],[-81,20.03774],[-80.5,19.89272],[-80,19.743],[-79.5,19.58847],[-79,19.42904],[-78.5,19.26458],[-78,19.09498],[-77.5,18.92011],[-77,18.73985],[-76.5,18.55405],[-76,18.3626],[-75.5,18.16534],[-75,17.96213],[-74.5,17.75281],[-74,17.53723],[-73.5,17.31522],[-73,17.08661],[-72.5,16.85122],[-72,16.60887],[-71.5,16.35937],[-71,16.10252],[-70.5,15.83812],[-70,15.56596],[-69.5,15.28582],[-69,14.99747],[-68.5,14.70068],[-68,14.39521],[-67.5,14.08082],[-67,13.75725],[-66.5,13.42424],[-66,13.08152],[-65.5,12.72883],[-65,12.36589],[-64.5,11.99243],[-64,11.60815],[-63.5,11.21278],[-63,10.80605],[-62.5,10.38766],[-62,9.95736],[-61.5,9.51489],[-61,9.06],[-60.5,8.59245],[-60,8.11205],[-59.5,7.61862],[-59,7.11201],[-58.5,6.59212],[-58,6.05889],[-57.5,5.51234],[-57,4.95252],[-56.5,4.37959],[-56,3.79376],[-55.5,3.19535],[-55,2.58478],[-54.5,1.96256],[-54,1.32933],[-53.5,0.68582],[-53,0.03289],[-52.5,-0.6285],[-52,-1.29729],[-51.5,-1.97231],[-51,-2.65233],[-50.5,-3.33604],[-50,-4.02209],[-49.5,-4.70912],[-49,-5.39575],[-48.5,-6.08062],[-48,-6.76241],[-47.5,-7.43987],[-47,-8.1118],[-46.5,-8.77711],[-46,-9.43479],[-45.5,-10.08395],[-45,-10.72381],[-44.5,-11.35367],[-44,-11.97297],[-43.5,-12.58122],[-43,-13.17806],[-42.5,-13.7632],[-42,-14.33643],[-41.5,-14.89762],[-41,-15.44671],[-40.5,-15.98368],[-40,-16.50857],[-39.5,-17.02148],[-39,-17.52251],[-38.5,-18.01182],[-38,-18.4896],[-37.5,-18.95602],[-37,-19.4113],[-36.5,-19.85567],[-36,-20.28936],[-35.5,-20.7126],[-35,-21.12565],[-34.5,-21.52873],[-34,-21.9221],[-33.5,-22.306],[-33,-22.68067],[-32.5,-23.04635],[-32,-23.40327],[-31.5,-23.75166],[-31,-24.09174],[-30.5,-24.42373],[-30,-24.74785],[-29.5,-25.0643],[-29,-25.37327],[-28.5,-25.67498],[-28,-25.9696],[-27.5,-26.25731],[-27,-26.5383],[-26.5,-26.81274],[-26,-27.08079],[-25.5,-27.34261],[-25,-27.59836],[-24.5,-27.84818],[-24,-28.09222],[-23.5,-28.33062],[-23,-28.56352],[-22.5,-28.79103],[-22,-29.0133],[-21.5,-29.23044],[-21,-29.44256],[-20.5,-29.64979],[-20,-29.85222],[-19.5,-30.04997],[-19,-30.24313],[-18.5,-30.43181],[-18,-30.61609],[-17.5,-30.79608],[-17,-30.97186],[-16.5,-31.14351],[-16,-31.31113],[-15.5,-31.47478],[-15,-31.63455],[-14.5,-31.79051],[-14,-31.94273],[-13.5,-32.09129],[-13,-32.23626],[-12.5,-32.37769],[-12,-32.51565],[-11.5,-32.65021],[-11,-32.78143],[-10.5,-32.90935],[-10,-33.03405],[-9.5,-33.15557],[-9,-33.27397],[-8.5,-33.38929],[-8,-33.5016],[-7.5,-33.61093],[-7,-33.71733],[-6.5,-33.82085],[-6,-33.92154],[-5.5,-34.01944],[-5,-34.11458],[-4.5,-34.20701],[-4,-34.29677],[-3.5,-34.3839],[-3,-34.46843],[-2.5,-34.5504],[-2,-34.62985],[-1.5,-34.70681],[-1,-34.78131],[-0.5,-34.85339],[0,-34.92308],[0.5,-34.99041],[1,-35.05541],[1.5,-35.1181],[2,-35.17852],[2.5,-35.2367],[3,-35.29266],[3.5,-35.34642],[4,-35.39803],[4.5,-35.44749],[5,-35.49483],[5.5,-35.54008],[6,-35.58326],[6.5,-35.6244],[7,-35.66351],[7.5,-35.70062],[8,-35.73575],[8.5,-35.76892],[9,-35.80015],[9.5,-35.82946],[10,-35.85687],[10.5,-35.8824],[11,-35.90606],[11.5,-35.92788],[12,-35.94787]]}}],"attribution":"Eclipse Predictions by Fred Espenak and Jean Meeus (NASA's GSFC)","generated_at":"2026-09-23T03:35:42.539Z"}
