{"type":"FeatureCollection","year":1096,"events":[{"id":"+10960128","year":1096,"month":1,"day":28,"time_tdt":"03:04:32","type":"부분일식","type_code":"P","saros":87,"gamma":-1.20264,"magnitude":0.62302,"greatest":{"lat":-62.28791,"lng":-92.87012},"path_width_km":0,"duration":"00m00s","delta_t_seconds":1095.8,"catalog_number":7352,"source":"NASA Five Millennium Canon of Solar Eclipses","source_url":"https://eclipse.gsfc.nasa.gov/SEsearch/SEsearchmap.php?Ecl=%2B10960128"},{"id":"+10960226","year":1096,"month":2,"day":26,"time_tdt":"14:07:35","type":"부분일식","type_code":"P","saros":125,"gamma":1.49357,"magnitude":0.08202,"greatest":{"lat":61.2618,"lng":-102.02899},"path_width_km":0,"duration":"00m00s","delta_t_seconds":1095.4,"catalog_number":7353,"source":"NASA Five Millennium Canon of Solar Eclipses","source_url":"https://eclipse.gsfc.nasa.gov/SEsearch/SEsearchmap.php?Ecl=%2B10960226"},{"id":"+10960722","year":1096,"month":7,"day":22,"time_tdt":"07:15:03","type":"부분일식","type_code":"P","saros":92,"gamma":1.2025,"magnitude":0.62446,"greatest":{"lat":62.95444,"lng":-150.36798},"path_width_km":0,"duration":"00m00s","delta_t_seconds":1093.8,"catalog_number":7354,"source":"NASA Five Millennium Canon of Solar Eclipses","source_url":"https://eclipse.gsfc.nasa.gov/SEsearch/SEsearchmap.php?Ecl=%2B10960722"},{"id":"+10960820","year":1096,"month":8,"day":20,"time_tdt":"18:35:35","type":"부분일식","type_code":"Pb","saros":130,"gamma":-1.51099,"magnitude":0.0743,"greatest":{"lat":-61.38324,"lng":-164.69836},"path_width_km":0,"duration":"00m00s","delta_t_seconds":1093.4,"catalog_number":7355,"source":"NASA Five Millennium Canon of Solar Eclipses","source_url":"https://eclipse.gsfc.nasa.gov/SEsearch/SEsearchmap.php?Ecl=%2B10960820"}],"features":[],"attribution":"Eclipse Predictions by Fred Espenak and Jean Meeus (NASA's GSFC)","generated_at":"2026-09-23T03:35:42.311Z"}
