{"type":"FeatureCollection","year":1104,"events":[{"id":"+11040227","year":1104,"month":2,"day":27,"time_tdt":"21:46:57","type":"개기일식","type_code":"T","saros":96,"gamma":0.539,"magnitude":1.05675,"greatest":{"lat":25.28139,"lng":-149.32587},"path_width_km":220.8,"duration":"04m49s","delta_t_seconds":1062.4,"catalog_number":7375,"source":"NASA Five Millennium Canon of Solar Eclipses","source_url":"https://eclipse.gsfc.nasa.gov/SEsearch/SEsearchmap.php?Ecl=%2B11040227"},{"id":"+11040822","year":1104,"month":8,"day":22,"time_tdt":"10:50:41","type":"금환일식","type_code":"A","saros":101,"gamma":-0.67715,"magnitude":0.94659,"greatest":{"lat":-31.45298,"lng":9.2403},"path_width_km":264.3,"duration":"06m04s","delta_t_seconds":1060.4,"catalog_number":7376,"source":"NASA Five Millennium Canon of Solar Eclipses","source_url":"https://eclipse.gsfc.nasa.gov/SEsearch/SEsearchmap.php?Ecl=%2B11040822"}],"features":[{"type":"Feature","id":"+11040227:north:0","properties":{"id":"+11040227","year":1104,"month":2,"day":27,"time_tdt":"21:46:57","type":"개기일식","type_code":"T","saros":96,"gamma":0.539,"magnitude":1.05675,"greatest":{"lat":25.28139,"lng":-149.32587},"path_width_km":220.8,"duration":"04m49s","delta_t_seconds":1062.4,"catalog_number":7375,"source":"NASA Five Millennium Canon of Solar Eclipses","source_url":"https://eclipse.gsfc.nasa.gov/SEsearch/SEsearchmap.php?Ecl=%2B11040227","boundary":"north","name":"1104-02-27 개기일식"},"geometry":{"type":"LineString","coordinates":[[154.05859,16.18566],[154.5,16.14181],[155,16.09338],[155.5,16.04629],[156,16.00057],[156.5,15.95624],[157,15.91331],[157.5,15.87182],[158,15.83178],[158.5,15.79322],[159,15.75616],[159.5,15.72064],[160,15.68667],[160.5,15.65427],[161,15.62348],[161.5,15.59433],[162,15.56683],[162.5,15.54102],[163,15.51693],[163.5,15.49457],[164,15.474],[164.5,15.45522],[165,15.43828],[165.5,15.4232],[166,15.41001],[166.5,15.39876],[167,15.38946],[167.5,15.38215],[168,15.37688],[168.5,15.37366],[169,15.37254],[169.5,15.37355],[170,15.37673],[170.5,15.38211],[171,15.38973],[171.5,15.39964],[172,15.41186],[172.5,15.42644],[173,15.44342],[173.5,15.46284],[174,15.48474],[174.5,15.50916],[175,15.53615],[175.5,15.56574],[176,15.59799],[176.5,15.63294],[177,15.67062],[177.5,15.7111],[178,15.7544],[178.5,15.80059],[179,15.84971],[179.5,15.9018],[180,15.95691]]}},{"type":"Feature","id":"+11040227:north:1","properties":{"id":"+11040227","year":1104,"month":2,"day":27,"time_tdt":"21:46:57","type":"개기일식","type_code":"T","saros":96,"gamma":0.539,"magnitude":1.05675,"greatest":{"lat":25.28139,"lng":-149.32587},"path_width_km":220.8,"duration":"04m49s","delta_t_seconds":1062.4,"catalog_number":7375,"source":"NASA Five Millennium Canon of Solar Eclipses","source_url":"https://eclipse.gsfc.nasa.gov/SEsearch/SEsearchmap.php?Ecl=%2B11040227","boundary":"north","name":"1104-02-27 개기일식"},"geometry":{"type":"LineString","coordinates":[[-179.5,16.0151],[-179,16.07641],[-178.5,16.14088],[-178,16.20858],[-177.5,16.27955],[-177,16.35384],[-176.5,16.43149],[-176,16.51257],[-175.5,16.59712],[-175,16.68518],[-174.5,16.77682],[-174,16.87207],[-173.5,16.97099],[-173,17.07362],[-172.5,17.18001],[-172,17.29021],[-171.5,17.40427],[-171,17.52222],[-170.5,17.64411],[-170,17.76998],[-169.5,17.89986],[-169,18.03381],[-168.5,18.17184],[-168,18.314],[-167.5,18.4603],[-167,18.61079],[-166.5,18.76548],[-166,18.92439],[-165.5,19.08754],[-165,19.25493],[-164.5,19.42659],[-164,19.6025],[-163.5,19.78268],[-163,19.9671],[-162.5,20.15577],[-162,20.34865],[-161.5,20.54573],[-161,20.74698],[-160.5,20.95236],[-160,21.16182],[-159.5,21.37532],[-159,21.59279],[-158.5,21.81418],[-158,22.03942],[-157.5,22.26842],[-157,22.5011],[-156.5,22.73736],[-156,22.97711],[-155.5,23.22024],[-155,23.46664],[-154.5,23.71619],[-154,23.96875],[-153.5,24.2242],[-153,24.48241],[-152.5,24.74322],[-152,25.00649],[-151.5,25.27206],[-151,25.5398],[-150.5,25.80952],[-150,26.08108],[-149.5,26.35431],[-149,26.62904],[-148.5,26.90511],[-148,27.18236],[-147.5,27.46061],[-147,27.7397],[-146.5,28.01947],[-146,28.29976],[-145.5,28.5804],[-145,28.86125],[-144.5,29.14213],[-144,29.42292],[-143.5,29.70346],[-143,29.9836],[-142.5,30.26322],[-142,30.54218],[-141.5,30.82035],[-141,31.09762],[-140.5,31.37385],[-140,31.64895],[-139.5,31.92281],[-139,32.19532],[-138.5,32.4664],[-138,32.73594],[-137.5,33.00388],[-137,33.27012],[-136.5,33.5346],[-136,33.79725],[-135.5,34.058],[-135,34.31679],[-134.5,34.57357],[-134,34.82829],[-133.5,35.08091],[-133,35.33138],[-132.5,35.57966],[-132,35.82573],[-131.5,36.06954],[-131,36.31109],[-130.5,36.55033],[-130,36.78726],[-129.5,37.02185],[-129,37.25409],[-128.5,37.48397],[-128,37.71148],[-127.5,37.93661],[-127,38.15936],[-126.5,38.37972],[-126,38.59769],[-125.5,38.81327],[-125,39.02647],[-124.5,39.23729],[-124,39.44573],[-123.5,39.65181],[-123,39.85552],[-122.5,40.05688],[-122,40.2559],[-121.5,40.45258],[-121,40.64694],[-120.5,40.839],[-120,41.02876],[-119.5,41.21624],[-119,41.40145],[-118.5,41.58441],[-118,41.76513],[-117.5,41.94363],[-117,42.11992],[-116.5,42.29403],[-116,42.46596],[-115.5,42.63574],[-115,42.80337],[-114.5,42.96889],[-114,43.1323],[-113.5,43.29363],[-113,43.45289],[-112.5,43.6101],[-112,43.76527],[-111.5,43.91843],[-111,44.06959],[-110.5,44.21877],[-110,44.36598],[-109.5,44.51126],[-109,44.6546],[-108.5,44.79603],[-108,44.93558],[-107.5,45.07324],[-107,45.20905],[-106.5,45.34302],[-106,45.47516],[-105.5,45.60549],[-105,45.73404],[-104.5,45.8608],[-104,45.98581],[-103.5,46.10908],[-103,46.23062],[-102.5,46.35045],[-102,46.46859],[-101.5,46.58505],[-101,46.69984],[-100.5,46.81299],[-100,46.9245],[-99.5,47.03439],[-99,47.14268],[-98.5,47.24937],[-98,47.35449],[-97.5,47.45805],[-97,47.56007],[-96.5,47.66054],[-96,47.7595],[-95.5,47.85695],[-95,47.9529],[-94.5,48.04738],[-94,48.14038],[-93.5,48.23193],[-93,48.32203],[-92.5,48.41071],[-92,48.49796],[-91.5,48.58381],[-91,48.66826],[-90.5,48.75133],[-90,48.83303],[-89.5,48.91336],[-89,48.99235],[-88.5,49.06999],[-88,49.14631],[-87.5,49.22131],[-87,49.295],[-86.5,49.36739],[-86,49.4385],[-85.5,49.50833],[-85,49.5769],[-84.5,49.6442],[-84,49.71026],[-83.5,49.77508],[-83,49.83867],[-82.5,49.90105],[-82,49.96221],[-81.5,50.02216],[-81,50.08093],[-80.5,50.13851],[-80,50.19491],[-79.5,50.25015],[-79,50.30423],[-78.5,50.35715],[-78,50.40893],[-77.88477,50.42071]]}},{"type":"Feature","id":"+11040227:center:0","properties":{"id":"+11040227","year":1104,"month":2,"day":27,"time_tdt":"21:46:57","type":"개기일식","type_code":"T","saros":96,"gamma":0.539,"magnitude":1.05675,"greatest":{"lat":25.28139,"lng":-149.32587},"path_width_km":220.8,"duration":"04m49s","delta_t_seconds":1062.4,"catalog_number":7375,"source":"NASA Five Millennium Canon of Solar Eclipses","source_url":"https://eclipse.gsfc.nasa.gov/SEsearch/SEsearchmap.php?Ecl=%2B11040227","boundary":"center","name":"1104-02-27 개기일식"},"geometry":{"type":"LineString","coordinates":[[154.14331,15.45231],[154.5,15.41492],[155,15.36357],[155.5,15.31353],[156,15.26483],[156.5,15.2175],[157,15.17154],[157.5,15.12699],[158,15.08388],[158.5,15.04221],[159,15.00202],[159.5,14.96333],[160,14.92617],[160.5,14.89056],[161,14.85653],[161.5,14.8241],[162,14.7933],[162.5,14.76415],[163,14.7367],[163.5,14.71095],[164,14.68695],[164.5,14.66472],[165,14.64429],[165.5,14.6257],[166,14.60897],[166.5,14.59413],[167,14.58122],[167.5,14.57026],[168,14.5613],[168.5,14.55437],[169,14.5495],[169.5,14.54673],[170,14.54608],[170.5,14.54761],[171,14.55134],[171.5,14.55732],[172,14.56558],[172.5,14.57615],[173,14.58909],[173.5,14.60443],[174,14.62222],[174.5,14.64248],[175,14.66528],[175.5,14.69064],[176,14.71861],[176.5,14.74924],[177,14.78257],[177.5,14.81865],[178,14.85752],[178.5,14.89924],[179,14.94384],[179.5,14.99137],[180,15.04189]]}},{"type":"Feature","id":"+11040227:center:1","properties":{"id":"+11040227","year":1104,"month":2,"day":27,"time_tdt":"21:46:57","type":"개기일식","type_code":"T","saros":96,"gamma":0.539,"magnitude":1.05675,"greatest":{"lat":25.28139,"lng":-149.32587},"path_width_km":220.8,"duration":"04m49s","delta_t_seconds":1062.4,"catalog_number":7375,"source":"NASA Five Millennium Canon of Solar Eclipses","source_url":"https://eclipse.gsfc.nasa.gov/SEsearch/SEsearchmap.php?Ecl=%2B11040227","boundary":"center","name":"1104-02-27 개기일식"},"geometry":{"type":"LineString","coordinates":[[-179.5,15.09544],[-179,15.15207],[-178.5,15.21183],[-178,15.27477],[-177.5,15.34094],[-177,15.41039],[-176.5,15.48318],[-176,15.55934],[-175.5,15.63894],[-175,15.72203],[-174.5,15.80864],[-174,15.89885],[-173.5,15.99268],[-173,16.09021],[-172.5,16.19146],[-172,16.2965],[-171.5,16.40537],[-171,16.51811],[-170.5,16.63477],[-170,16.7554],[-169.5,16.88004],[-169,17.00872],[-168.5,17.14149],[-168,17.27838],[-167.5,17.41942],[-167,17.56466],[-166.5,17.71411],[-166,17.8678],[-165.5,18.02576],[-165,18.18799],[-164.5,18.35452],[-164,18.52536],[-163.5,18.7005],[-163,18.87996],[-162.5,19.06372],[-162,19.25178],[-161.5,19.44411],[-161,19.64071],[-160.5,19.84153],[-160,20.04655],[-159.5,20.25572],[-159,20.469],[-158.5,20.68633],[-158,20.90765],[-157.5,21.13289],[-157,21.36197],[-156.5,21.59481],[-156,21.83131],[-155.5,22.07139],[-155,22.31493],[-154.5,22.56181],[-154,22.81193],[-153.5,23.06516],[-153,23.32136],[-152.5,23.58039],[-152,23.84212],[-151.5,24.10639],[-151,24.37306],[-150.5,24.64196],[-150,24.91293],[-149.5,25.18582],[-149,25.46045],[-148.5,25.73666],[-148,26.01429],[-147.5,26.29316],[-147,26.5731],[-146.5,26.85395],[-146,27.13554],[-145.5,27.4177],[-145,27.70028],[-144.5,27.9831],[-144,28.26602],[-143.5,28.54889],[-143,28.83154],[-142.5,29.11384],[-142,29.39565],[-141.5,29.67683],[-141,29.95725],[-140.5,30.23678],[-140,30.51531],[-139.5,30.79272],[-139,31.0689],[-138.5,31.34375],[-138,31.61717],[-137.5,31.88907],[-137,32.15936],[-136.5,32.42796],[-136,32.69479],[-135.5,32.95979],[-135,33.22288],[-134.5,33.48401],[-134,33.74312],[-133.5,34.00016],[-133,34.25509],[-132.5,34.50785],[-132,34.75841],[-131.5,35.00674],[-131,35.2528],[-130.5,35.49658],[-130,35.73803],[-129.5,35.97715],[-129,36.21391],[-128.5,36.4483],[-128,36.68031],[-127.5,36.90992],[-127,37.13714],[-126.5,37.36195],[-126,37.58435],[-125.5,37.80434],[-125,38.02192],[-124.5,38.23709],[-124,38.44986],[-123.5,38.66023],[-123,38.86821],[-122.5,39.07381],[-122,39.27702],[-121.5,39.47788],[-121,39.67637],[-120.5,39.87253],[-120,40.06635],[-119.5,40.25786],[-119,40.44707],[-118.5,40.63398],[-118,40.81862],[-117.5,41.001],[-117,41.18114],[-116.5,41.35906],[-116,41.53476],[-115.5,41.70828],[-115,41.87961],[-114.5,42.04879],[-114,42.21583],[-113.5,42.38075],[-113,42.54356],[-112.5,42.70428],[-112,42.86293],[-111.5,43.01954],[-111,43.17411],[-110.5,43.32666],[-110,43.47722],[-109.5,43.62579],[-109,43.77241],[-108.5,43.91708],[-108,44.05983],[-107.5,44.20066],[-107,44.33961],[-106.5,44.47668],[-106,44.6119],[-105.5,44.74527],[-105,44.87683],[-104.5,45.00658],[-104,45.13454],[-103.5,45.26072],[-103,45.38516],[-102.5,45.50785],[-102,45.62882],[-101.5,45.74808],[-101,45.86564],[-100.5,45.98154],[-100,46.09577],[-99.5,46.20835],[-99,46.3193],[-98.5,46.42864],[-98,46.53637],[-97.5,46.64252],[-97,46.74709],[-96.5,46.85011],[-96,46.95157],[-95.5,47.05151],[-95,47.14993],[-94.5,47.24684],[-94,47.34227],[-93.5,47.43621],[-93,47.52869],[-92.5,47.61971],[-92,47.70929],[-91.5,47.79744],[-91,47.88418],[-90.5,47.96951],[-90,48.05345],[-89.5,48.136],[-89,48.21719],[-88.5,48.29702],[-88,48.3755],[-87.5,48.45264],[-87,48.52845],[-86.5,48.60295],[-86,48.67614],[-85.5,48.74804],[-85,48.81866],[-84.5,48.88799],[-84,48.95607],[-83.5,49.02288],[-83,49.08845],[-82.5,49.15279],[-82,49.21589],[-81.5,49.27778],[-81,49.33846],[-80.5,49.39794],[-80,49.45622],[-79.5,49.51333],[-79,49.56925],[-78.5,49.62401],[-78,49.67762],[-77.87403,49.69604]]}},{"type":"Feature","id":"+11040227:south:0","properties":{"id":"+11040227","year":1104,"month":2,"day":27,"time_tdt":"21:46:57","type":"개기일식","type_code":"T","saros":96,"gamma":0.539,"magnitude":1.05675,"greatest":{"lat":25.28139,"lng":-149.32587},"path_width_km":220.8,"duration":"04m49s","delta_t_seconds":1062.4,"catalog_number":7375,"source":"NASA Five Millennium Canon of Solar Eclipses","source_url":"https://eclipse.gsfc.nasa.gov/SEsearch/SEsearchmap.php?Ecl=%2B11040227","boundary":"south","name":"1104-02-27 개기일식"},"geometry":{"type":"LineString","coordinates":[[154.5,14.69451],[155,14.64028],[155.5,14.58734],[156,14.53572],[156.5,14.48543],[157,14.4365],[157.5,14.38895],[158,14.3428],[158.5,14.29808],[159,14.25482],[159.5,14.21302],[160,14.17273],[160.5,14.13396],[161,14.09674],[161.5,14.0611],[162,14.02706],[162.5,13.99465],[163,13.96389],[163.5,13.93482],[164,13.90746],[164.5,13.88185],[165,13.85801],[165.5,13.83596],[166,13.81575],[166.5,13.79741],[167,13.78095],[167.5,13.76643],[168,13.75387],[168.5,13.7433],[169,13.73476],[169.5,13.72828],[170,13.7239],[170.5,13.72165],[171,13.72157],[171.5,13.72371],[172,13.72809],[172.5,13.73475],[173,13.74374],[173.5,13.75509],[174,13.76885],[174.5,13.78505],[175,13.80374],[175.5,13.82496],[176,13.84876],[176.5,13.87517],[177,13.90425],[177.5,13.93603],[178,13.97057],[178.5,14.00791],[179,14.04809],[179.5,14.09117],[180,14.13719]]}},{"type":"Feature","id":"+11040227:south:1","properties":{"id":"+11040227","year":1104,"month":2,"day":27,"time_tdt":"21:46:57","type":"개기일식","type_code":"T","saros":96,"gamma":0.539,"magnitude":1.05675,"greatest":{"lat":25.28139,"lng":-149.32587},"path_width_km":220.8,"duration":"04m49s","delta_t_seconds":1062.4,"catalog_number":7375,"source":"NASA Five Millennium Canon of Solar Eclipses","source_url":"https://eclipse.gsfc.nasa.gov/SEsearch/SEsearchmap.php?Ecl=%2B11040227","boundary":"south","name":"1104-02-27 개기일식"},"geometry":{"type":"LineString","coordinates":[[-179.5,14.1862],[-179,14.23826],[-178.5,14.2934],[-178,14.35169],[-177.5,14.41316],[-177,14.47788],[-176.5,14.54589],[-176,14.61725],[-175.5,14.692],[-175,14.7702],[-174.5,14.8519],[-174,14.93715],[-173.5,15.026],[-173,15.1185],[-172.5,15.21471],[-172,15.31467],[-171.5,15.41843],[-171,15.52604],[-170.5,15.63756],[-170,15.75301],[-169.5,15.87246],[-169,15.99594],[-168.5,16.1235],[-168,16.25517],[-167.5,16.391],[-167,16.53101],[-166.5,16.67525],[-166,16.82374],[-165.5,16.97651],[-165,17.13359],[-164.5,17.29499],[-164,17.46072],[-163.5,17.63081],[-163,17.80526],[-162.5,17.98407],[-162,18.16724],[-161.5,18.35475],[-161,18.54661],[-160.5,18.74278],[-160,18.94324],[-159.5,19.14796],[-159,19.3569],[-158.5,19.57002],[-158,19.78726],[-157.5,20.00856],[-157,20.23385],[-156.5,20.46306],[-156,20.6961],[-155.5,20.93289],[-155,21.17334],[-154.5,21.41732],[-154,21.66474],[-153.5,21.91547],[-153,22.16939],[-152.5,22.42637],[-152,22.68627],[-151.5,22.94894],[-151,23.21424],[-150.5,23.48202],[-150,23.75211],[-149.5,24.02436],[-149,24.2986],[-148.5,24.57465],[-148,24.85237],[-147.5,25.13157],[-147,25.41208],[-146.5,25.69373],[-146,25.97635],[-145.5,26.25977],[-145,26.54382],[-144.5,26.82834],[-144,27.11317],[-143.5,27.39813],[-143,27.68308],[-142.5,27.96786],[-142,28.25233],[-141.5,28.53634],[-141,28.81974],[-140.5,29.10242],[-140,29.38423],[-139.5,29.66506],[-139,29.94479],[-138.5,30.2233],[-138,30.50049],[-137.5,30.77627],[-137,31.05052],[-136.5,31.32317],[-136,31.59413],[-135.5,31.86332],[-135,32.13068],[-134.5,32.39612],[-134,32.65959],[-133.5,32.92104],[-133,33.1804],[-132.5,33.43763],[-132,33.69269],[-131.5,33.94554],[-131,34.19613],[-130.5,34.44444],[-130,34.69044],[-129.5,34.93411],[-129,35.17542],[-128.5,35.41435],[-128,35.65089],[-127.5,35.88503],[-127,36.11675],[-126.5,36.34605],[-126,36.57292],[-125.5,36.79736],[-125,37.01937],[-124.5,37.23894],[-124,37.45608],[-123.5,37.6708],[-123,37.88309],[-122.5,38.09297],[-122,38.30045],[-121.5,38.50552],[-121,38.7082],[-120.5,38.90851],[-120,39.10646],[-119.5,39.30205],[-119,39.4953],[-118.5,39.68622],[-118,39.87484],[-117.5,40.06116],[-117,40.2452],[-116.5,40.42697],[-116,40.6065],[-115.5,40.7838],[-115,40.95889],[-114.5,41.13178],[-114,41.3025],[-113.5,41.47105],[-113,41.63747],[-112.5,41.80176],[-112,41.96394],[-111.5,42.12404],[-111,42.28207],[-110.5,42.43804],[-110,42.59199],[-109.5,42.74391],[-109,42.89385],[-108.5,43.0418],[-108,43.1878],[-107.5,43.33185],[-107,43.47398],[-106.5,43.6142],[-106,43.75253],[-105.5,43.88899],[-105,44.0236],[-104.5,44.15637],[-104,44.28732],[-103.5,44.41647],[-103,44.54383],[-102.5,44.66942],[-102,44.79326],[-101.5,44.91536],[-101,45.03574],[-100.5,45.15442],[-100,45.2714],[-99.5,45.38672],[-99,45.50037],[-98.5,45.61238],[-98,45.72276],[-97.5,45.83153],[-97,45.9387],[-96.5,46.04429],[-96,46.1483],[-95.5,46.25076],[-95,46.35168],[-94.5,46.45106],[-94,46.54893],[-93.5,46.6453],[-93,46.74018],[-92.5,46.83359],[-92,46.92553],[-91.5,47.01602],[-91,47.10507],[-90.5,47.19269],[-90,47.2789],[-89.5,47.36371],[-89,47.44712],[-88.5,47.52916],[-88,47.60983],[-87.5,47.68914],[-87,47.7671],[-86.5,47.84373],[-86,47.91904],[-85.5,47.99303],[-85,48.06572],[-84.5,48.13712],[-84,48.20723],[-83.5,48.27607],[-83,48.34365],[-82.5,48.40997],[-82,48.47505],[-81.5,48.53889],[-81,48.60151],[-80.5,48.6629],[-80,48.7231],[-79.5,48.78209],[-79,48.83989],[-78.5,48.89651],[-78,48.95196],[-77.875,48.96564]]}},{"type":"Feature","id":"+11040822:north:0","properties":{"id":"+11040822","year":1104,"month":8,"day":22,"time_tdt":"10:50:41","type":"금환일식","type_code":"A","saros":101,"gamma":-0.67715,"magnitude":0.94659,"greatest":{"lat":-31.45298,"lng":9.2403},"path_width_km":264.3,"duration":"06m04s","delta_t_seconds":1060.4,"catalog_number":7376,"source":"NASA Five Millennium Canon of Solar Eclipses","source_url":"https://eclipse.gsfc.nasa.gov/SEsearch/SEsearchmap.php?Ecl=%2B11040822","boundary":"north","name":"1104-08-22 금환일식"},"geometry":{"type":"LineString","coordinates":[[-41.64844,-25.08744],[-41.5,-25.06276],[-41,-24.98036],[-40.5,-24.89911],[-40,-24.81902],[-39.5,-24.74012],[-39,-24.66245],[-38.5,-24.58601],[-38,-24.51086],[-37.5,-24.437],[-37,-24.36447],[-36.5,-24.29331],[-36,-24.22353],[-35.5,-24.15517],[-35,-24.08826],[-34.5,-24.02284],[-34,-23.95893],[-33.5,-23.89657],[-33,-23.83579],[-32.5,-23.77663],[-32,-23.71913],[-31.5,-23.66332],[-31,-23.60924],[-30.5,-23.55694],[-30,-23.50644],[-29.5,-23.45779],[-29,-23.41103],[-28.5,-23.36621],[-28,-23.32336],[-27.5,-23.28255],[-27,-23.2438],[-26.5,-23.20716],[-26,-23.1727],[-25.5,-23.14044],[-25,-23.11046],[-24.5,-23.08279],[-24,-23.05749],[-23.5,-23.03462],[-23,-23.01423],[-22.5,-22.99638],[-22,-22.98113],[-21.5,-22.96853],[-21,-22.95865],[-20.5,-22.95155],[-20,-22.94729],[-19.5,-22.94594],[-19,-22.94757],[-18.5,-22.95225],[-18,-22.96003],[-17.5,-22.971],[-17,-22.98523],[-16.5,-23.00279],[-16,-23.02375],[-15.5,-23.04819],[-15,-23.07619],[-14.5,-23.10782],[-14,-23.14318],[-13.5,-23.18232],[-13,-23.22535],[-12.5,-23.27233],[-12,-23.32336],[-11.5,-23.37852],[-11,-23.43788],[-10.5,-23.50154],[-10,-23.56958],[-9.5,-23.64209],[-9,-23.71914],[-8.5,-23.80082],[-8,-23.88721],[-7.5,-23.9784],[-7,-24.07446],[-6.5,-24.17547],[-6,-24.28151],[-5.5,-24.39264],[-5,-24.50895],[-4.5,-24.63049],[-4,-24.75732],[-3.5,-24.88951],[-3,-25.02711],[-2.5,-25.17016],[-2,-25.31869],[-1.5,-25.47276],[-1,-25.63237],[-0.5,-25.79756],[0,-25.96832],[0.5,-26.14466],[1,-26.32657],[1.5,-26.51403],[2,-26.707],[2.5,-26.90545],[3,-27.10932],[3.5,-27.31855],[4,-27.53306],[4.5,-27.75275],[5,-27.97753],[5.5,-28.20728],[6,-28.44188],[6.5,-28.68119],[7,-28.92504],[7.5,-29.1733],[8,-29.42577],[8.5,-29.68229],[9,-29.94265],[9.5,-30.20667],[10,-30.47413],[10.5,-30.74481],[11,-31.01851],[11.5,-31.29499],[12,-31.57403],[12.5,-31.85541],[13,-32.13889],[13.5,-32.42425],[14,-32.71125],[14.5,-32.99967],[15,-33.28929],[15.5,-33.57988],[16,-33.87124],[16.5,-34.16315],[17,-34.45542],[17.5,-34.74783],[18,-35.04021],[18.5,-35.33237],[19,-35.62415],[19.5,-35.91536],[20,-36.20586],[20.5,-36.49549],[21,-36.78411],[21.5,-37.0716],[22,-37.35782],[22.5,-37.64265],[23,-37.926],[23.5,-38.20775],[24,-38.48782],[24.5,-38.76611],[25,-39.04255],[25.5,-39.31706],[26,-39.58958],[26.5,-39.86004],[27,-40.1284],[27.5,-40.3946],[28,-40.6586],[28.5,-40.92036],[29,-41.17985],[29.5,-41.43703],[30,-41.69188],[30.5,-41.94437],[31,-42.1945],[31.5,-42.44224],[32,-42.68758],[32.5,-42.93052],[33,-43.17104],[33.5,-43.40914],[34,-43.64483],[34.5,-43.87809],[35,-44.10894],[35.5,-44.33738],[36,-44.56341],[36.5,-44.78704],[37,-45.00828],[37.5,-45.22714],[38,-45.44363],[38.5,-45.65776],[39,-45.86955],[39.5,-46.07901],[40,-46.28615],[40.5,-46.49099],[41,-46.69355],[41.5,-46.89384],[42,-47.09188],[42.5,-47.28768],[43,-47.48127],[43.5,-47.67266],[44,-47.86187],[44.5,-48.04892],[45,-48.23382],[45.5,-48.4166],[46,-48.59728],[46.5,-48.77587],[47,-48.95239],[47.5,-49.12686],[48,-49.29931],[48.5,-49.46974],[49,-49.63818],[49.5,-49.80465],[50,-49.96917],[50.5,-50.13175],[51,-50.29242],[51.5,-50.45118],[52,-50.60807],[52.5,-50.7631],[53,-50.91628],[53.5,-51.06764],[54,-51.2172],[54.5,-51.36496],[55,-51.51095],[55.5,-51.65519],[56,-51.79768],[56.5,-51.93846],[57,-52.07754],[57.5,-52.21492],[58,-52.35064],[58.5,-52.4847],[59,-52.61712],[59.5,-52.74792],[60,-52.87711],[60.5,-53.00471],[61,-53.13073],[61.5,-53.25519],[62,-53.3781],[62.5,-53.49949],[63,-53.61935],[63.5,-53.73771],[64,-53.85458],[64.5,-53.96997],[65,-54.0839],[65.5,-54.19638],[66,-54.30743],[66.5,-54.41705],[67,-54.52526],[67.5,-54.63208],[68,-54.73751],[68.5,-54.84158],[69,-54.94428],[69.5,-55.04563],[70,-55.14565],[70.5,-55.24434],[71,-55.34172],[71.5,-55.4378],[72,-55.53259],[72.5,-55.6261],[73,-55.71834],[73.5,-55.80932],[74,-55.89906],[74.5,-55.98756],[75,-56.07483],[75.20703,-56.11061]]}},{"type":"Feature","id":"+11040822:center:0","properties":{"id":"+11040822","year":1104,"month":8,"day":22,"time_tdt":"10:50:41","type":"금환일식","type_code":"A","saros":101,"gamma":-0.67715,"magnitude":0.94659,"greatest":{"lat":-31.45298,"lng":9.2403},"path_width_km":264.3,"duration":"06m04s","delta_t_seconds":1060.4,"catalog_number":7376,"source":"NASA Five Millennium Canon of Solar Eclipses","source_url":"https://eclipse.gsfc.nasa.gov/SEsearch/SEsearchmap.php?Ecl=%2B11040822","boundary":"center","name":"1104-08-22 금환일식"},"geometry":{"type":"LineString","coordinates":[[-41.80264,-26.50541],[-41.5,-26.45477],[-41,-26.36996],[-40.5,-26.28631],[-40,-26.20385],[-39.5,-26.12259],[-39,-26.04257],[-38.5,-25.96382],[-38,-25.88635],[-37.5,-25.81021],[-37,-25.73541],[-36.5,-25.662],[-36,-25.58999],[-35.5,-25.51943],[-35,-25.45034],[-34.5,-25.38275],[-34,-25.31671],[-33.5,-25.25224],[-33,-25.18938],[-32.5,-25.12817],[-32,-25.06864],[-31.5,-25.01083],[-31,-24.95479],[-30.5,-24.90054],[-30,-24.84814],[-29.5,-24.79762],[-29,-24.74903],[-28.5,-24.70241],[-28,-24.65781],[-27.5,-24.61527],[-27,-24.57484],[-26.5,-24.53656],[-26,-24.5005],[-25.5,-24.4667],[-25,-24.4352],[-24.5,-24.40608],[-24,-24.37937],[-23.5,-24.35514],[-23,-24.33344],[-22.5,-24.31434],[-22,-24.29788],[-21.5,-24.28414],[-21,-24.27318],[-20.5,-24.26506],[-20,-24.25985],[-19.5,-24.25761],[-19,-24.25841],[-18.5,-24.26232],[-18,-24.26942],[-17.5,-24.27977],[-17,-24.29346],[-16.5,-24.31055],[-16,-24.33112],[-15.5,-24.35525],[-15,-24.38302],[-14.5,-24.41451],[-14,-24.4498],[-13.5,-24.48898],[-13,-24.53212],[-12.5,-24.57931],[-12,-24.63063],[-11.5,-24.68618],[-11,-24.74603],[-10.5,-24.81027],[-10,-24.87898],[-9.5,-24.95226],[-9,-25.03018],[-8.5,-25.11283],[-8,-25.20029],[-7.5,-25.29264],[-7,-25.38996],[-6.5,-25.49233],[-6,-25.59982],[-5.5,-25.71251],[-5,-25.83045],[-4.5,-25.95372],[-4,-26.08237],[-3.5,-26.21646],[-3,-26.35604],[-2.5,-26.50114],[-2,-26.65181],[-1.5,-26.80807],[-1,-26.96993],[-0.5,-27.13743],[0,-27.31054],[0.5,-27.48928],[1,-27.67361],[1.5,-27.86352],[2,-28.05896],[2.5,-28.25988],[3,-28.46622],[3.5,-28.6779],[4,-28.89485],[4.5,-29.11695],[5,-29.34409],[5.5,-29.57616],[6,-29.81302],[6.5,-30.05452],[7,-30.3005],[7.5,-30.55079],[8,-30.80521],[8.5,-31.06358],[9,-31.32569],[9.5,-31.59135],[10,-31.86033],[10.5,-32.13244],[11,-32.40744],[11.5,-32.6851],[12,-32.96521],[12.5,-33.24754],[13,-33.53185],[13.5,-33.81792],[14,-34.10552],[14.5,-34.39444],[15,-34.68444],[15.5,-34.97533],[16,-35.26687],[16.5,-35.55889],[17,-35.85116],[17.5,-36.14352],[18,-36.43576],[18.5,-36.72772],[19,-37.01923],[19.5,-37.31012],[20,-37.60026],[20.5,-37.88948],[21,-38.17766],[21.5,-38.46467],[22,-38.75039],[22.5,-39.03471],[23,-39.31752],[23.5,-39.59873],[24,-39.87825],[24.5,-40.15599],[25,-40.43188],[25.5,-40.70585],[26,-40.97784],[26.5,-41.24779],[27,-41.51565],[27.5,-41.78136],[28,-42.0449],[28.5,-42.30622],[29,-42.56529],[29.5,-42.82208],[30,-43.07657],[30.5,-43.32873],[31,-43.57855],[31.5,-43.82602],[32,-44.07112],[32.5,-44.31385],[33,-44.55419],[33.5,-44.79215],[34,-45.02772],[34.5,-45.26091],[35,-45.49171],[35.5,-45.72013],[36,-45.94618],[36.5,-46.16987],[37,-46.39119],[37.5,-46.61017],[38,-46.82681],[38.5,-47.04112],[39,-47.25312],[39.5,-47.46281],[40,-47.67023],[40.5,-47.87537],[41,-48.07825],[41.5,-48.2789],[42,-48.47732],[42.5,-48.67353],[43,-48.86756],[43.5,-49.05941],[44,-49.24911],[44.5,-49.43667],[45,-49.62211],[45.5,-49.80545],[46,-49.98671],[46.5,-50.1659],[47,-50.34305],[47.5,-50.51817],[48,-50.69128],[48.5,-50.8624],[49,-51.03155],[49.5,-51.19875],[50,-51.36401],[50.5,-51.52735],[51,-51.6888],[51.5,-51.84837],[52,-52.00607],[52.5,-52.16192],[53,-52.31595],[53.5,-52.46818],[54,-52.6186],[54.5,-52.76726],[55,-52.91415],[55.5,-53.0593],[56,-53.20273],[56.5,-53.34445],[57,-53.48448],[57.5,-53.62284],[58,-53.75953],[58.5,-53.89459],[59,-54.02801],[59.5,-54.15982],[60,-54.29004],[60.5,-54.41867],[61,-54.54574],[61.5,-54.67126],[62,-54.79524],[62.5,-54.91769],[63,-55.03864],[63.5,-55.15809],[64,-55.27606],[64.5,-55.39256],[65,-55.50761],[65.5,-55.62122],[66,-55.7334],[66.5,-55.84417],[67,-55.95354],[67.5,-56.06151],[68,-56.16811],[68.5,-56.27335],[69,-56.37723],[69.5,-56.47977],[70,-56.58098],[70.5,-56.68088],[71,-56.77947],[71.5,-56.87677],[72,-56.97278],[72.5,-57.06752],[73,-57.161],[73.5,-57.25322],[74,-57.34421],[74.5,-57.43396],[74.8526,-57.49987]]}},{"type":"Feature","id":"+11040822:south:0","properties":{"id":"+11040822","year":1104,"month":8,"day":22,"time_tdt":"10:50:41","type":"금환일식","type_code":"A","saros":101,"gamma":-0.67715,"magnitude":0.94659,"greatest":{"lat":-31.45298,"lng":9.2403},"path_width_km":264.3,"duration":"06m04s","delta_t_seconds":1060.4,"catalog_number":7376,"source":"NASA Five Millennium Canon of Solar Eclipses","source_url":"https://eclipse.gsfc.nasa.gov/SEsearch/SEsearchmap.php?Ecl=%2B11040822","boundary":"south","name":"1104-08-22 금환일식"},"geometry":{"type":"LineString","coordinates":[[-41.97266,-27.96017],[-41.5,-27.87665],[-41,-27.78942],[-40.5,-27.70335],[-40,-27.61849],[-39.5,-27.53486],[-39,-27.45248],[-38.5,-27.37139],[-38,-27.29161],[-37.5,-27.21316],[-37,-27.13609],[-36.5,-27.06043],[-36,-26.98619],[-35.5,-26.91342],[-35,-26.84216],[-34.5,-26.77242],[-34,-26.70425],[-33.5,-26.63768],[-33,-26.57276],[-32.5,-26.50951],[-32,-26.44798],[-31.5,-26.3882],[-31,-26.33021],[-30.5,-26.27406],[-30,-26.21979],[-29.5,-26.16744],[-29,-26.11706],[-28.5,-26.06869],[-28,-26.02237],[-27.5,-25.97816],[-27,-25.9361],[-26.5,-25.89625],[-26,-25.85865],[-25.5,-25.82336],[-25,-25.79044],[-24.5,-25.75992],[-24,-25.73188],[-23.5,-25.70638],[-23,-25.68346],[-22.5,-25.66319],[-22,-25.64564],[-21.5,-25.63086],[-21,-25.61892],[-20.5,-25.60989],[-20,-25.60383],[-19.5,-25.60082],[-19,-25.60091],[-18.5,-25.6042],[-18,-25.61074],[-17.5,-25.62062],[-17,-25.6339],[-16.5,-25.65067],[-16,-25.67101],[-15.5,-25.69499],[-15,-25.72269],[-14.5,-25.75421],[-14,-25.78962],[-13.5,-25.829],[-13,-25.87244],[-12.5,-25.92002],[-12,-25.97184],[-11.5,-26.02797],[-11,-26.08851],[-10.5,-26.15354],[-10,-26.22314],[-9.5,-26.29741],[-9,-26.37642],[-8.5,-26.46026],[-8,-26.54901],[-7.5,-26.64276],[-7,-26.74158],[-6.5,-26.84554],[-6,-26.95472],[-5.5,-27.06919],[-5,-27.18902],[-4.5,-27.31426],[-4,-27.44497],[-3.5,-27.5812],[-3,-27.72299],[-2.5,-27.87038],[-2,-28.02341],[-1.5,-28.18209],[-1,-28.34644],[-0.5,-28.51645],[0,-28.69214],[0.5,-28.87347],[1,-29.06044],[1.5,-29.25299],[2,-29.45108],[2.5,-29.65465],[3,-29.86363],[3.5,-30.07794],[4,-30.29747],[4.5,-30.52212],[5,-30.75177],[5.5,-30.98629],[6,-31.22552],[6.5,-31.46932],[7,-31.71751],[7.5,-31.96993],[8,-32.22638],[8.5,-32.48667],[9,-32.75061],[9.5,-33.01797],[10,-33.28854],[10.5,-33.56212],[11,-33.83846],[11.5,-34.11736],[12,-34.39857],[12.5,-34.68188],[13,-34.96706],[13.5,-35.25388],[14,-35.54213],[14.5,-35.83157],[15,-36.122],[15.5,-36.4132],[16,-36.70498],[16.5,-36.99713],[17,-37.28947],[17.5,-37.5818],[18,-37.87395],[18.5,-38.16576],[19,-38.45705],[19.5,-38.74768],[20,-39.0375],[20.5,-39.32637],[21,-39.61416],[21.5,-39.90075],[22,-40.18603],[22.5,-40.46989],[23,-40.75223],[23.5,-41.03296],[24,-41.31199],[24.5,-41.58924],[25,-41.86465],[25.5,-42.13814],[26,-42.40966],[26.5,-42.67915],[27,-42.94657],[27.5,-43.21186],[28,-43.47499],[28.5,-43.73593],[29,-43.99464],[29.5,-44.25109],[30,-44.50527],[30.5,-44.75715],[31,-45.00672],[31.5,-45.25396],[32,-45.49886],[32.5,-45.74142],[33,-45.98163],[33.5,-46.21948],[34,-46.45497],[34.5,-46.68811],[35,-46.9189],[35.5,-47.14734],[36,-47.37344],[36.5,-47.59719],[37,-47.81862],[37.5,-48.03774],[38,-48.25454],[38.5,-48.46904],[39,-48.68126],[39.5,-48.89121],[40,-49.0989],[40.5,-49.30434],[41,-49.50756],[41.5,-49.70856],[42,-49.90736],[42.5,-50.10398],[43,-50.29843],[43.5,-50.49073],[44,-50.68091],[44.5,-50.86896],[45,-51.05492],[45.5,-51.2388],[46,-51.42062],[46.5,-51.60039],[47,-51.77814],[47.5,-51.95388],[48,-52.12763],[48.5,-52.29941],[49,-52.46923],[49.5,-52.63711],[50,-52.80308],[50.5,-52.96714],[51,-53.12933],[51.5,-53.28964],[52,-53.44811],[52.5,-53.60475],[53,-53.75957],[53.5,-53.9126],[54,-54.06384],[54.5,-54.21333],[55,-54.36107],[55.5,-54.50708],[56,-54.65137],[56.5,-54.79397],[57,-54.93489],[57.5,-55.07415],[58,-55.21175],[58.5,-55.34772],[59,-55.48208],[59.5,-55.61483],[60,-55.74599],[60.5,-55.87559],[61,-56.00362],[61.5,-56.13011],[62,-56.25507],[62.5,-56.37852],[63,-56.50046],[63.5,-56.62092],[64,-56.7399],[64.5,-56.85743],[65,-56.97351],[65.5,-57.08815],[66,-57.20138],[66.5,-57.3132],[67,-57.42362],[67.5,-57.53266],[68,-57.64033],[68.5,-57.74664],[69,-57.85161],[69.5,-57.95524],[70,-58.05755],[70.5,-58.15855],[71,-58.25825],[71.5,-58.35666],[72,-58.45379],[72.5,-58.54965],[73,-58.64426],[73.5,-58.73763],[74,-58.82976]]}}],"attribution":"Eclipse Predictions by Fred Espenak and Jean Meeus (NASA's GSFC)","generated_at":"2026-09-23T03:35:42.689Z"}
