{"type":"FeatureCollection","year":1112,"events":[{"id":"+11120329","year":1112,"month":3,"day":29,"time_tdt":"14:17:31","type":"개기일식","type_code":"T","saros":105,"gamma":0.0378,"magnitude":1.04098,"greatest":{"lat":7.9563,"lng":-30.46411},"path_width_km":137.2,"duration":"03m34s","delta_t_seconds":1029.8,"catalog_number":7394,"source":"NASA Five Millennium Canon of Solar Eclipses","source_url":"https://eclipse.gsfc.nasa.gov/SEsearch/SEsearchmap.php?Ecl=%2B11120329"},{"id":"+11120922","year":1112,"month":9,"day":22,"time_tdt":"22:38:26","type":"금환일식","type_code":"Am","saros":110,"gamma":-0.04688,"magnitude":0.93648,"greatest":{"lat":-4.8378,"lng":-159.07263},"path_width_km":236.5,"duration":"07m13s","delta_t_seconds":1027.9,"catalog_number":7395,"source":"NASA Five Millennium Canon of Solar Eclipses","source_url":"https://eclipse.gsfc.nasa.gov/SEsearch/SEsearchmap.php?Ecl=%2B11120922"}],"features":[{"type":"Feature","id":"+11120329:north:0","properties":{"id":"+11120329","year":1112,"month":3,"day":29,"time_tdt":"14:17:31","type":"개기일식","type_code":"T","saros":105,"gamma":0.0378,"magnitude":1.04098,"greatest":{"lat":7.9563,"lng":-30.46411},"path_width_km":137.2,"duration":"03m34s","delta_t_seconds":1029.8,"catalog_number":7394,"source":"NASA Five Millennium Canon of Solar Eclipses","source_url":"https://eclipse.gsfc.nasa.gov/SEsearch/SEsearchmap.php?Ecl=%2B11120329","boundary":"north","name":"1112-03-29 개기일식"},"geometry":{"type":"LineString","coordinates":[[-90.10547,-25.96278],[-90,-25.95117],[-89.5,-25.89485],[-89,-25.83639],[-88.5,-25.77576],[-88,-25.71295],[-87.5,-25.64792],[-87,-25.58066],[-86.5,-25.51113],[-86,-25.43931],[-85.5,-25.36518],[-85,-25.28869],[-84.5,-25.20984],[-84,-25.12858],[-83.5,-25.04488],[-83,-24.95872],[-82.5,-24.87007],[-82,-24.77889],[-81.5,-24.68515],[-81,-24.58881],[-80.5,-24.48985],[-80,-24.38822],[-79.5,-24.28389],[-79,-24.17682],[-78.5,-24.06698],[-78,-23.95432],[-77.5,-23.83881],[-77,-23.7204],[-76.5,-23.59905],[-76,-23.47471],[-75.5,-23.34735],[-75,-23.21692],[-74.5,-23.08337],[-74,-22.94665],[-73.5,-22.80672],[-73,-22.66351],[-72.5,-22.51699],[-72,-22.36709],[-71.5,-22.21376],[-71,-22.05695],[-70.5,-21.8966],[-70,-21.73264],[-69.5,-21.56502],[-69,-21.39367],[-68.5,-21.21853],[-68,-21.03953],[-67.5,-20.85661],[-67,-20.66969],[-66.5,-20.4787],[-66,-20.28357],[-65.5,-20.08423],[-65,-19.88059],[-64.5,-19.67257],[-64,-19.4601],[-63.5,-19.24308],[-63,-19.02143],[-62.5,-18.79507],[-62,-18.5639],[-61.5,-18.32782],[-61,-18.08675],[-60.5,-17.84058],[-60,-17.58922],[-59.5,-17.33255],[-59,-17.07048],[-58.5,-16.8029],[-58,-16.52969],[-57.5,-16.25075],[-57,-15.96597],[-56.5,-15.67521],[-56,-15.37838],[-55.5,-15.07534],[-55,-14.76597],[-54.5,-14.45016],[-54,-14.12777],[-53.5,-13.79869],[-53,-13.46278],[-52.5,-13.11993],[-52,-12.77],[-51.5,-12.41287],[-51,-12.04843],[-50.5,-11.67654],[-50,-11.29709],[-49.5,-10.90997],[-49,-10.51507],[-48.5,-10.11228],[-48,-9.70152],[-47.5,-9.2827],[-47,-8.85573],[-46.5,-8.42056],[-46,-7.97714],[-45.5,-7.52543],[-45,-7.06541],[-44.5,-6.59709],[-44,-6.1205],[-43.5,-5.63568],[-43,-5.14271],[-42.5,-4.64171],[-42,-4.13281],[-41.5,-3.61618],[-41,-3.09205],[-40.5,-2.56065],[-40,-2.02229],[-39.5,-1.4773],[-39,-0.92605],[-38.5,-0.36898],[-38,0.19346],[-37.5,0.76076],[-37,1.33237],[-36.5,1.90769],[-36,2.48611],[-35.5,3.06696],[-35,3.64958],[-34.5,4.23325],[-34,4.81725],[-33.5,5.40087],[-33,5.98338],[-32.5,6.56405],[-32,7.14217],[-31.5,7.71704],[-31,8.28801],[-30.5,8.85442],[-30,9.41568],[-29.5,9.97122],[-29,10.5205],[-28.5,11.06305],[-28,11.59843],[-27.5,12.12625],[-27,12.64616],[-26.5,13.15786],[-26,13.66109],[-25.5,14.15563],[-25,14.64132],[-24.5,15.11801],[-24,15.58561],[-23.5,16.04403],[-23,16.49325],[-22.5,16.93324],[-22,17.36403],[-21.5,17.78564],[-21,18.19813],[-20.5,18.60156],[-20,18.99603],[-19.5,19.38163],[-19,19.75846],[-18.5,20.12665],[-18,20.48632],[-17.5,20.8376],[-17,21.18064],[-16.5,21.51556],[-16,21.84251],[-15.5,22.16164],[-15,22.47309],[-14.5,22.77701],[-14,23.07355],[-13.5,23.36285],[-13,23.64506],[-12.5,23.92032],[-12,24.18877],[-11.5,24.45055],[-11,24.70579],[-10.5,24.95464],[-10,25.19723],[-9.5,25.43367],[-9,25.66411],[-8.5,25.88866],[-8,26.10745],[-7.5,26.32059],[-7,26.52819],[-6.5,26.73038],[-6,26.92725],[-5.5,27.11892],[-5,27.30548],[-4.5,27.48704],[-4,27.6637],[-3.5,27.83555],[-3,28.00268],[-2.5,28.16519],[-2,28.32315],[-1.5,28.47666],[-1,28.6258],[-0.5,28.77064],[0,28.91127],[0.5,29.04776],[1,29.18018],[1.5,29.30861],[2,29.43311],[2.5,29.55376],[3,29.67061],[3.5,29.78373],[4,29.89318],[4.5,29.99903],[5,30.10132],[5.5,30.20013],[6,30.29549],[6.5,30.38747],[7,30.47612],[7.5,30.56148],[8,30.64361],[8.5,30.72256],[9,30.79837],[9.5,30.87108],[10,30.94075],[10.5,31.00741],[11,31.0711],[11.5,31.13188],[12,31.18976],[12.5,31.24481],[13,31.29704],[13.5,31.34651],[14,31.39323],[14.5,31.43726],[15,31.47862],[15.5,31.51735],[16,31.55348],[16.5,31.58703],[17,31.61805],[17.5,31.64656],[18,31.67259],[18.5,31.69617],[19,31.71733],[19.5,31.73609],[20,31.75248],[20.5,31.76652],[21,31.77825],[21.5,31.78769],[22,31.79486],[22.5,31.79979],[23,31.8025],[23.5,31.80301],[24,31.80134],[24.5,31.79752],[25,31.79157],[25.5,31.7835],[26,31.77335],[26.5,31.76113],[27,31.74686],[27.5,31.73056],[28,31.71225],[28.5,31.69194],[29,31.66966],[29.5,31.64543],[30,31.61926],[30.5,31.59117],[31,31.56117],[31.5,31.52929],[32,31.49555],[32.5,31.45994],[33,31.42251],[33.5,31.38325],[34,31.34219],[34.5,31.29934],[35,31.25472],[35.5,31.20833],[36,31.16021],[36.5,31.11035],[37,31.05878],[37.5,31.00551],[37.82031,30.9705]]}},{"type":"Feature","id":"+11120329:center:0","properties":{"id":"+11120329","year":1112,"month":3,"day":29,"time_tdt":"14:17:31","type":"개기일식","type_code":"T","saros":105,"gamma":0.0378,"magnitude":1.04098,"greatest":{"lat":7.9563,"lng":-30.46411},"path_width_km":137.2,"duration":"03m34s","delta_t_seconds":1029.8,"catalog_number":7394,"source":"NASA Five Millennium Canon of Solar Eclipses","source_url":"https://eclipse.gsfc.nasa.gov/SEsearch/SEsearchmap.php?Ecl=%2B11120329","boundary":"center","name":"1112-03-29 개기일식"},"geometry":{"type":"LineString","coordinates":[[-90.04414,-26.32535],[-90,-26.31974],[-89.5,-26.26582],[-89,-26.20979],[-88.5,-26.15161],[-88,-26.09128],[-87.5,-26.02875],[-87,-25.96401],[-86.5,-25.89704],[-86,-25.8278],[-85.5,-25.75627],[-85,-25.68242],[-84.5,-25.60623],[-84,-25.52766],[-83.5,-25.44669],[-83,-25.36329],[-82.5,-25.27742],[-82,-25.18906],[-81.5,-25.09817],[-81,-25.00472],[-80.5,-24.90868],[-80,-24.81001],[-79.5,-24.70868],[-79,-24.60464],[-78.5,-24.49787],[-78,-24.38833],[-77.5,-24.27597],[-77,-24.16075],[-76.5,-24.04264],[-76,-23.92159],[-75.5,-23.79756],[-75,-23.67051],[-74.5,-23.54038],[-74,-23.40714],[-73.5,-23.27073],[-73,-23.1311],[-72.5,-22.98821],[-72,-22.842],[-71.5,-22.69242],[-71,-22.53941],[-70.5,-22.38292],[-70,-22.22288],[-69.5,-22.05925],[-69,-21.89196],[-68.5,-21.72094],[-68,-21.54613],[-67.5,-21.36747],[-67,-21.18489],[-66.5,-20.99831],[-66,-20.80767],[-65.5,-20.61289],[-65,-20.4139],[-64.5,-20.21061],[-64,-20.00296],[-63.5,-19.79085],[-63,-19.5742],[-62.5,-19.35293],[-62,-19.12695],[-61.5,-18.89616],[-61,-18.66048],[-60.5,-18.4198],[-60,-18.17404],[-59.5,-17.92308],[-59,-17.66684],[-58.5,-17.40519],[-58,-17.13804],[-57.5,-16.86528],[-57,-16.58679],[-56.5,-16.30245],[-56,-16.01217],[-55.5,-15.71581],[-55,-15.41325],[-54.5,-15.10438],[-54,-14.78908],[-53.5,-14.46721],[-53,-14.13866],[-52.5,-13.80329],[-52,-13.46099],[-51.5,-13.11163],[-51,-12.75508],[-50.5,-12.39123],[-50,-12.01995],[-49.5,-11.64113],[-49,-11.25464],[-48.5,-10.8604],[-48,-10.45828],[-47.5,-10.0482],[-47,-9.63008],[-46.5,-9.20383],[-46,-8.76939],[-45.5,-8.32671],[-45,-7.87576],[-44.5,-7.41653],[-44,-6.949],[-43.5,-6.47321],[-43,-5.98921],[-42.5,-5.49708],[-42,-4.99692],[-41.5,-4.48887],[-41,-3.9731],[-40.5,-3.44983],[-40,-2.91931],[-39.5,-2.38181],[-39,-1.83769],[-38.5,-1.28731],[-38,-0.73109],[-37.5,-0.1695],[-37,0.39696],[-36.5,0.96774],[-36,1.54226],[-35.5,2.11989],[-35,2.69998],[-34.5,3.28185],[-34,3.86481],[-33.5,4.44813],[-33,5.03109],[-32.5,5.61297],[-32,6.19304],[-31.5,6.7706],[-31,7.34494],[-30.5,7.91539],[-30,8.48133],[-29.5,9.04213],[-29,9.59724],[-28.5,10.14612],[-28,10.68828],[-27.5,11.2233],[-27,11.75077],[-26.5,12.27034],[-26,12.78172],[-25.5,13.28464],[-25,13.77889],[-24.5,14.26428],[-24,14.74068],[-23.5,15.20799],[-23,15.66614],[-22.5,16.11507],[-22,16.55479],[-21.5,16.98529],[-21,17.40662],[-20.5,17.81882],[-20,18.22197],[-19.5,18.61614],[-19,19.00144],[-18.5,19.37798],[-18,19.74586],[-17.5,20.10523],[-17,20.4562],[-16.5,20.79891],[-16,21.13351],[-15.5,21.46014],[-15,21.77894],[-14.5,22.09006],[-14,22.39365],[-13.5,22.68985],[-13,22.97881],[-12.5,23.26068],[-12,23.53559],[-11.5,23.80369],[-11,24.06512],[-10.5,24.32002],[-10,24.56852],[-9.5,24.81075],[-9,25.04684],[-8.5,25.27692],[-8,25.50112],[-7.5,25.71955],[-7,25.93233],[-6.5,26.13959],[-6,26.34142],[-5.5,26.53793],[-5,26.72925],[-4.5,26.91546],[-4,27.09667],[-3.5,27.27298],[-3,27.44448],[-2.5,27.61127],[-2,27.77343],[-1.5,27.93106],[-1,28.08423],[-0.5,28.23303],[0,28.37754],[0.5,28.51784],[1,28.654],[1.5,28.7861],[2,28.9142],[2.5,29.03839],[3,29.15872],[3.5,29.27526],[4,29.38807],[4.5,29.49722],[5,29.60277],[5.5,29.70477],[6,29.80328],[6.5,29.89835],[7,29.99005],[7.5,30.07841],[8,30.1635],[8.5,30.24537],[9,30.32405],[9.5,30.39959],[10,30.47205],[10.5,30.54147],[11,30.60788],[11.5,30.67134],[12,30.73187],[12.5,30.78953],[13,30.84435],[13.5,30.89636],[14,30.94561],[14.5,30.99213],[15,31.03595],[15.5,31.07712],[16,31.11565],[16.5,31.15159],[17,31.18497],[17.5,31.21582],[18,31.24416],[18.5,31.27003],[19,31.29345],[19.5,31.31446],[20,31.33307],[20.5,31.34933],[21,31.36325],[21.5,31.37486],[22,31.38418],[22.5,31.39124],[23,31.39607],[23.5,31.39868],[24,31.3991],[24.5,31.39735],[25,31.39346],[25.5,31.38744],[26,31.37932],[26.5,31.36911],[27,31.35685],[27.5,31.34254],[28,31.32621],[28.5,31.30788],[29,31.28756],[29.5,31.26527],[30,31.24104],[30.5,31.21488],[31,31.18681],[31.5,31.15684],[32,31.125],[32.5,31.09129],[33,31.05574],[33.5,31.01836],[34,30.97917],[34.5,30.93819],[35,30.89542],[35.5,30.85089],[36,30.80461],[36.5,30.7566],[37,30.70686],[37.5,30.65542],[37.75943,30.62665]]}},{"type":"Feature","id":"+11120329:south:0","properties":{"id":"+11120329","year":1112,"month":3,"day":29,"time_tdt":"14:17:31","type":"개기일식","type_code":"T","saros":105,"gamma":0.0378,"magnitude":1.04098,"greatest":{"lat":7.9563,"lng":-30.46411},"path_width_km":137.2,"duration":"03m34s","delta_t_seconds":1029.8,"catalog_number":7394,"source":"NASA Five Millennium Canon of Solar Eclipses","source_url":"https://eclipse.gsfc.nasa.gov/SEsearch/SEsearchmap.php?Ecl=%2B11120329","boundary":"south","name":"1112-03-29 개기일식"},"geometry":{"type":"LineString","coordinates":[[-89.98242,-26.68579],[-89.5,-26.63603],[-89,-26.58239],[-88.5,-26.52664],[-88,-26.46875],[-87.5,-26.40869],[-87,-26.34645],[-86.5,-26.28199],[-86,-26.2153],[-85.5,-26.14634],[-85,-26.07509],[-84.5,-26.00153],[-84,-25.92562],[-83.5,-25.84733],[-83,-25.76664],[-82.5,-25.68352],[-82,-25.59794],[-81.5,-25.50986],[-81,-25.41926],[-80.5,-25.32609],[-80,-25.23033],[-79.5,-25.13195],[-79,-25.0309],[-78.5,-24.92715],[-78,-24.82067],[-77.5,-24.71141],[-77,-24.59934],[-76.5,-24.48441],[-76,-24.36659],[-75.5,-24.24584],[-75,-24.1221],[-74.5,-23.99534],[-74,-23.86551],[-73.5,-23.73256],[-73,-23.59644],[-72.5,-23.45712],[-72,-23.31453],[-71.5,-23.16862],[-71,-23.01934],[-70.5,-22.86664],[-70,-22.71045],[-69.5,-22.55073],[-69,-22.38741],[-68.5,-22.22043],[-68,-22.04973],[-67.5,-21.87524],[-67,-21.6969],[-66.5,-21.51464],[-66,-21.32839],[-65.5,-21.13808],[-65,-20.94364],[-64.5,-20.74498],[-64,-20.54204],[-63.5,-20.33473],[-63,-20.12297],[-62.5,-19.90668],[-62,-19.68577],[-61.5,-19.46015],[-61,-19.22974],[-60.5,-18.99443],[-60,-18.75413],[-59.5,-18.50876],[-59,-18.25819],[-58.5,-18.00234],[-58,-17.74111],[-57.5,-17.47437],[-57,-17.20203],[-56.5,-16.92396],[-56,-16.64007],[-55.5,-16.35023],[-55,-16.05432],[-54.5,-15.75223],[-54,-15.44384],[-53.5,-15.12902],[-53,-14.80765],[-52.5,-14.4796],[-52,-14.14475],[-51.5,-13.80298],[-51,-13.45416],[-50.5,-13.09817],[-50,-12.73489],[-49.5,-12.36419],[-49,-11.98596],[-48.5,-11.60009],[-48,-11.20647],[-47.5,-10.80499],[-47,-10.39557],[-46.5,-9.97811],[-46,-9.55255],[-45.5,-9.11881],[-45,-8.67685],[-44.5,-8.22663],[-44,-7.76814],[-43.5,-7.30137],[-43,-6.82636],[-42.5,-6.34314],[-42,-5.8518],[-41.5,-5.35245],[-41,-4.84521],[-40.5,-4.33027],[-40,-3.80782],[-39.5,-3.27813],[-39,-2.74146],[-38.5,-2.19817],[-38,-1.64862],[-37.5,-1.09322],[-37,-0.53244],[-36.5,0.03322],[-36,0.60322],[-35.5,1.17697],[-35,1.75385],[-34.5,2.33322],[-34,2.91439],[-33.5,3.49667],[-33,4.07934],[-32.5,4.66168],[-32,5.24297],[-31.5,5.82247],[-31,6.39949],[-30.5,6.97332],[-30,7.5433],[-29.5,8.10879],[-29,8.66916],[-28.5,9.22387],[-28,9.77237],[-27.5,10.31417],[-27,10.84885],[-26.5,11.37599],[-26,11.89525],[-25.5,12.40633],[-25,12.90896],[-24.5,13.40292],[-24,13.88804],[-23.5,14.36417],[-23,14.83121],[-22.5,15.28908],[-22,15.73775],[-21.5,16.1772],[-21,16.60744],[-20.5,17.02849],[-20,17.44042],[-19.5,17.84329],[-19,18.23718],[-18.5,18.6222],[-18,18.99844],[-17.5,19.36603],[-17,19.7251],[-16.5,20.07577],[-16,20.41818],[-15.5,20.75247],[-15,21.07878],[-14.5,21.39726],[-14,21.70806],[-13.5,22.01133],[-13,22.3072],[-12.5,22.59583],[-12,22.87736],[-11.5,23.15194],[-11,23.4197],[-10.5,23.68079],[-10,23.93535],[-9.5,24.1835],[-9,24.42539],[-8.5,24.66114],[-8,24.89088],[-7.5,25.11473],[-7,25.33281],[-6.5,25.54525],[-6,25.75216],[-5.5,25.95364],[-5,26.14982],[-4.5,26.34079],[-4,26.52667],[-3.5,26.70754],[-3,26.88351],[-2.5,27.05468],[-2,27.22113],[-1.5,27.38296],[-1,27.54026],[-0.5,27.6931],[0,27.84158],[0.5,27.98577],[1,28.12575],[1.5,28.2616],[2,28.39339],[2.5,28.52119],[3,28.64507],[3.5,28.7651],[4,28.88134],[4.5,28.99386],[5,29.10272],[5.5,29.20798],[6,29.3097],[6.5,29.40793],[7,29.50274],[7.5,29.59417],[8,29.68227],[8.5,29.7671],[9,29.84871],[9.5,29.92714],[10,30.00244],[10.5,30.07466],[11,30.14384],[11.5,30.21003],[12,30.27326],[12.5,30.33358],[13,30.39102],[13.5,30.44563],[14,30.49744],[14.5,30.54649],[15,30.59282],[15.5,30.63646],[16,30.67745],[16.5,30.71581],[17,30.75158],[17.5,30.7848],[18,30.81549],[18.5,30.84368],[19,30.8694],[19.5,30.89269],[20,30.91357],[20.5,30.93206],[21,30.9482],[21.5,30.96201],[22,30.97351],[22.5,30.98274],[23,30.98971],[23.5,30.99445],[24,30.99699],[24.5,30.99734],[25,30.99553],[25.5,30.99158],[26,30.98552],[26.5,30.97736],[27,30.96712],[27.5,30.95483],[28,30.9405],[28.5,30.92416],[29,30.90583],[29.5,30.88551],[30,30.86324],[30.5,30.83903],[31,30.8129],[31.5,30.78486],[32,30.75494],[32.5,30.72315],[33,30.6895],[33.5,30.65402],[34,30.61672],[34.5,30.57762],[35,30.53673],[35.5,30.49406],[36,30.44964],[36.5,30.40348],[37,30.35559],[37.5,30.30599],[37.69531,30.28616]]}},{"type":"Feature","id":"+11120922:north:0","properties":{"id":"+11120922","year":1112,"month":9,"day":22,"time_tdt":"22:38:26","type":"금환일식","type_code":"Am","saros":110,"gamma":-0.04688,"magnitude":0.93648,"greatest":{"lat":-4.8378,"lng":-159.07263},"path_width_km":236.5,"duration":"07m13s","delta_t_seconds":1027.9,"catalog_number":7395,"source":"NASA Five Millennium Canon of Solar Eclipses","source_url":"https://eclipse.gsfc.nasa.gov/SEsearch/SEsearchmap.php?Ecl=%2B11120922","boundary":"north","name":"1112-09-22 금환일식"},"geometry":{"type":"LineString","coordinates":[[143.5,27.96093],[144,27.93477],[144.5,27.9066],[145,27.87639],[145.5,27.84411],[146,27.80975],[146.5,27.77327],[147,27.73465],[147.5,27.69386],[148,27.65089],[148.5,27.6057],[149,27.55826],[149.5,27.50855],[150,27.45654],[150.5,27.4022],[151,27.34549],[151.5,27.28639],[152,27.22486],[152.5,27.16087],[153,27.09439],[153.5,27.02538],[154,26.95381],[154.5,26.87964],[155,26.80282],[155.5,26.72333],[156,26.64113],[156.5,26.55616],[157,26.4684],[157.5,26.37779],[158,26.28429],[158.5,26.18786],[159,26.08845],[159.5,25.986],[160,25.88048],[160.5,25.77182],[161,25.65998],[161.5,25.54489],[162,25.42651],[162.5,25.30478],[163,25.17962],[163.5,25.05099],[164,24.91882],[164.5,24.78304],[165,24.64358],[165.5,24.50037],[166,24.35335],[166.5,24.20242],[167,24.04752],[167.5,23.88857],[168,23.72548],[168.5,23.55817],[169,23.38654],[169.5,23.2105],[170,23.02997],[170.5,22.84483],[171,22.65499],[171.5,22.46034],[172,22.26078],[172.5,22.05618],[173,21.84644],[173.5,21.63142],[174,21.411],[174.5,21.18506],[175,20.95345],[175.5,20.71604],[176,20.47267],[176.5,20.22321],[177,19.96748],[177.5,19.70534],[178,19.43661],[178.5,19.16112],[179,18.87869],[179.5,18.58913],[180,18.29226]]}},{"type":"Feature","id":"+11120922:north:1","properties":{"id":"+11120922","year":1112,"month":9,"day":22,"time_tdt":"22:38:26","type":"금환일식","type_code":"Am","saros":110,"gamma":-0.04688,"magnitude":0.93648,"greatest":{"lat":-4.8378,"lng":-159.07263},"path_width_km":236.5,"duration":"07m13s","delta_t_seconds":1027.9,"catalog_number":7395,"source":"NASA Five Millennium Canon of Solar Eclipses","source_url":"https://eclipse.gsfc.nasa.gov/SEsearch/SEsearchmap.php?Ecl=%2B11120922","boundary":"north","name":"1112-09-22 금환일식"},"geometry":{"type":"LineString","coordinates":[[-179.5,17.98787],[-179,17.67576],[-178.5,17.35571],[-178,17.02752],[-177.5,16.69096],[-177,16.3458],[-176.5,15.9918],[-176,15.62872],[-175.5,15.25632],[-175,14.87435],[-174.5,14.48256],[-174,14.08069],[-173.5,13.66849],[-173,13.24571],[-172.5,12.81208],[-172,12.36736],[-171.5,11.91132],[-171,11.44372],[-170.5,10.96435],[-170,10.47301],[-169.5,9.96953],[-169,9.45376],[-168.5,8.92558],[-168,8.38494],[-167.5,7.8318],[-167,7.26619],[-166.5,6.68823],[-166,6.09806],[-165.5,5.49595],[-165,4.88223],[-164.5,4.25734],[-164,3.62181],[-163.5,2.97629],[-163,2.32153],[-162.5,1.6584],[-162,0.98787],[-161.5,0.31102],[-161,-0.37099],[-160.5,-1.05689],[-160,-1.74538],[-159.5,-2.4351],[-159,-3.12466],[-158.5,-3.81267],[-158,-4.49776],[-157.5,-5.17859],[-157,-5.85391],[-156.5,-6.5225],[-156,-7.18326],[-155.5,-7.8352],[-155,-8.47741],[-154.5,-9.1091],[-154,-9.72963],[-153.5,-10.33841],[-153,-10.935],[-152.5,-11.51905],[-152,-12.0903],[-151.5,-12.64858],[-151,-13.19379],[-150.5,-13.7259],[-150,-14.24494],[-149.5,-14.751],[-149,-15.2442],[-148.5,-15.72469],[-148,-16.19267],[-147.5,-16.64836],[-147,-17.09199],[-146.5,-17.52381],[-146,-17.94407],[-145.5,-18.35306],[-145,-18.75103],[-144.5,-19.13826],[-144,-19.51503],[-143.5,-19.88161],[-143,-20.23827],[-142.5,-20.58528],[-142,-20.9229],[-141.5,-21.25138],[-141,-21.57098],[-140.5,-21.88194],[-140,-22.18449],[-139.5,-22.47887],[-139,-22.76531],[-138.5,-23.04401],[-138,-23.31518],[-137.5,-23.57904],[-137,-23.83577],[-136.5,-24.08556],[-136,-24.3286],[-135.5,-24.56506],[-135,-24.79511],[-134.5,-25.01892],[-134,-25.23664],[-133.5,-25.44842],[-133,-25.65442],[-132.5,-25.85476],[-132,-26.0496],[-131.5,-26.23906],[-131,-26.42326],[-130.5,-26.60233],[-130,-26.77638],[-129.5,-26.94554],[-129,-27.10991],[-128.5,-27.26959],[-128,-27.42468],[-127.5,-27.5753],[-127,-27.72152],[-126.5,-27.86344],[-126,-28.00116],[-125.5,-28.13475],[-125,-28.2643],[-124.5,-28.38988],[-124,-28.51159],[-123.5,-28.62948],[-123,-28.74363],[-122.5,-28.85412],[-122,-28.961],[-121.5,-29.06436],[-121,-29.16423],[-120.5,-29.2607],[-120,-29.35382],[-119.5,-29.44365],[-119,-29.53023],[-118.5,-29.61364],[-118,-29.69391],[-117.5,-29.7711],[-117,-29.84526],[-116.5,-29.91644],[-116,-29.98468],[-115.5,-30.05003],[-115,-30.11253],[-114.5,-30.17223],[-114,-30.22916],[-113.5,-30.28337],[-113,-30.33489],[-112.5,-30.38377],[-112,-30.43004],[-111.5,-30.47374],[-111,-30.5149],[-110.5,-30.55355],[-110,-30.58974],[-109.5,-30.62348],[-109,-30.65482],[-108.5,-30.68378],[-108,-30.7104],[-107.5,-30.7347],[-107,-30.75671],[-106.5,-30.77646],[-106,-30.79398],[-105.5,-30.80929],[-105,-30.82242],[-104.5,-30.8334],[-104,-30.84224],[-103.5,-30.84898],[-103,-30.85364],[-102.5,-30.85623],[-102,-30.85679],[-101.5,-30.85533],[-101,-30.85188],[-100.5,-30.84646],[-100,-30.83909],[-99.5,-30.82978],[-99,-30.81857],[-98.5,-30.80546],[-98,-30.79048],[-97.5,-30.77365],[-97,-30.75498],[-96.5,-30.73449],[-96,-30.71221],[-95.79688,-30.70264]]}},{"type":"Feature","id":"+11120922:center:0","properties":{"id":"+11120922","year":1112,"month":9,"day":22,"time_tdt":"22:38:26","type":"금환일식","type_code":"Am","saros":110,"gamma":-0.04688,"magnitude":0.93648,"greatest":{"lat":-4.8378,"lng":-159.07263},"path_width_km":236.5,"duration":"07m13s","delta_t_seconds":1027.9,"catalog_number":7395,"source":"NASA Five Millennium Canon of Solar Eclipses","source_url":"https://eclipse.gsfc.nasa.gov/SEsearch/SEsearchmap.php?Ecl=%2B11120922","boundary":"center","name":"1112-09-22 금환일식"},"geometry":{"type":"LineString","coordinates":[[142.9566,26.65119],[143,26.64343],[143.5,26.6209],[144,26.59634],[144.5,26.56973],[145,26.54106],[145.5,26.51028],[146,26.47739],[146.5,26.44235],[147,26.40514],[147.5,26.36573],[148,26.32409],[148.5,26.2802],[149,26.23403],[149.5,26.18555],[150,26.13472],[150.5,26.08152],[151,26.02592],[151.5,25.96787],[152,25.90736],[152.5,25.84434],[153,25.77877],[153.5,25.71064],[154,25.63988],[154.5,25.56648],[155,25.49038],[155.5,25.41155],[156,25.32994],[156.5,25.24552],[157,25.15824],[157.5,25.06805],[158,24.97491],[158.5,24.87877],[159,24.77957],[159.5,24.67728],[160,24.57183],[160.5,24.46318],[161,24.35126],[161.5,24.23602],[162,24.1174],[162.5,23.99534],[163,23.86978],[163.5,23.74064],[164,23.60787],[164.5,23.47139],[165,23.33113],[165.5,23.18703],[166,23.03899],[166.5,22.88694],[167,22.7308],[167.5,22.57049],[168,22.40592],[168.5,22.23699],[169,22.06362],[169.5,21.8857],[170,21.70314],[170.5,21.51583],[171,21.32366],[171.5,21.12652],[172,20.9243],[172.5,20.71688],[173,20.50413],[173.5,20.28592],[174,20.06213],[174.5,19.8326],[175,19.5972],[175.5,19.35579],[176,19.1082],[176.5,18.85428],[177,18.59386],[177.5,18.32677],[178,18.05284],[178.5,17.77188],[179,17.4837],[179.5,17.18811],[180,16.8849]]}},{"type":"Feature","id":"+11120922:center:1","properties":{"id":"+11120922","year":1112,"month":9,"day":22,"time_tdt":"22:38:26","type":"금환일식","type_code":"Am","saros":110,"gamma":-0.04688,"magnitude":0.93648,"greatest":{"lat":-4.8378,"lng":-159.07263},"path_width_km":236.5,"duration":"07m13s","delta_t_seconds":1027.9,"catalog_number":7395,"source":"NASA Five Millennium Canon of Solar Eclipses","source_url":"https://eclipse.gsfc.nasa.gov/SEsearch/SEsearchmap.php?Ecl=%2B11120922","boundary":"center","name":"1112-09-22 금환일식"},"geometry":{"type":"LineString","coordinates":[[-179.5,16.57388],[-179,16.25481],[-178.5,15.92748],[-178,15.59167],[-177.5,15.24714],[-177,14.89365],[-176.5,14.53095],[-176,14.15881],[-175.5,13.77696],[-175,13.38515],[-174.5,12.98312],[-174,12.57062],[-173.5,12.14738],[-173,11.71316],[-172.5,11.26771],[-172,10.81078],[-171.5,10.34215],[-171,9.86161],[-170.5,9.36897],[-170,8.86405],[-169.5,8.34673],[-169,7.8169],[-168.5,7.2745],[-168,6.71953],[-167.5,6.15205],[-167,5.57216],[-166.5,4.98008],[-166,4.37608],[-165.5,3.76052],[-165,3.13389],[-164.5,2.49675],[-164,1.84978],[-163.5,1.19379],[-163,0.52968],[-162.5,-0.14155],[-162,-0.81879],[-161.5,-1.50083],[-161,-2.18641],[-160.5,-2.8742],[-160,-3.56284],[-159.5,-4.25093],[-159,-4.9371],[-158.5,-5.62001],[-158,-6.29833],[-157.5,-6.97084],[-157,-7.63638],[-156.5,-8.29388],[-156,-8.94239],[-155.5,-9.58104],[-155,-10.20911],[-154.5,-10.82597],[-154,-11.43109],[-153.5,-12.02406],[-153,-12.60457],[-152.5,-13.17238],[-152,-13.72734],[-151.5,-14.26939],[-151,-14.7985],[-150.5,-15.31473],[-150,-15.81816],[-149.5,-16.30893],[-149,-16.7872],[-148.5,-17.25318],[-148,-17.70706],[-147.5,-18.1491],[-147,-18.57953],[-146.5,-18.99861],[-146,-19.40661],[-145.5,-19.8038],[-145,-20.19044],[-144.5,-20.5668],[-144,-20.93315],[-143.5,-21.28976],[-143,-21.63688],[-142.5,-21.97477],[-142,-22.30368],[-141.5,-22.62386],[-141,-22.93555],[-140.5,-23.23896],[-140,-23.53434],[-139.5,-23.8219],[-139,-24.10185],[-138.5,-24.37439],[-138,-24.63972],[-137.5,-24.89803],[-137,-25.14951],[-136.5,-25.39434],[-136,-25.63268],[-135.5,-25.8647],[-135,-26.09057],[-134.5,-26.31043],[-134,-26.52443],[-133.5,-26.73273],[-133,-26.93545],[-132.5,-27.13273],[-132,-27.3247],[-131.5,-27.51148],[-131,-27.6932],[-130.5,-27.86996],[-130,-28.04188],[-129.5,-28.20906],[-129,-28.37161],[-128.5,-28.52963],[-128,-28.68322],[-127.5,-28.83247],[-127,-28.97746],[-126.5,-29.11829],[-126,-29.25504],[-125.5,-29.38779],[-125,-29.51662],[-124.5,-29.6416],[-124,-29.76281],[-123.5,-29.88032],[-123,-29.99419],[-122.5,-30.1045],[-122,-30.21131],[-121.5,-30.31468],[-121,-30.41466],[-120.5,-30.51133],[-120,-30.60473],[-119.5,-30.69493],[-119,-30.78196],[-118.5,-30.86589],[-118,-30.94677],[-117.5,-31.02464],[-117,-31.09955],[-116.5,-31.17154],[-116,-31.24067],[-115.5,-31.30697],[-115,-31.37049],[-114.5,-31.43126],[-114,-31.48933],[-113.5,-31.54474],[-113,-31.59752],[-112.5,-31.6477],[-112,-31.69533],[-111.5,-31.74044],[-111,-31.78306],[-110.5,-31.82322],[-110,-31.86096],[-109.5,-31.89631],[-109,-31.9293],[-108.5,-31.95995],[-108,-31.9883],[-107.5,-32.01437],[-107,-32.0382],[-106.5,-32.0598],[-106,-32.0792],[-105.5,-32.09644],[-105,-32.11153],[-104.5,-32.1245],[-104,-32.13537],[-103.5,-32.14417],[-103,-32.15092],[-102.5,-32.15564],[-102,-32.15834],[-101.5,-32.15907],[-101,-32.15782],[-100.5,-32.15463],[-100,-32.14952],[-99.5,-32.1425],[-99,-32.13359],[-98.5,-32.12282],[-98,-32.11019],[-97.5,-32.09573],[-97,-32.07946],[-96.5,-32.06139],[-96,-32.04155],[-95.68526,-32.03909]]}},{"type":"Feature","id":"+11120922:south:0","properties":{"id":"+11120922","year":1112,"month":9,"day":22,"time_tdt":"22:38:26","type":"금환일식","type_code":"Am","saros":110,"gamma":-0.04688,"magnitude":0.93648,"greatest":{"lat":-4.8378,"lng":-159.07263},"path_width_km":236.5,"duration":"07m13s","delta_t_seconds":1027.9,"catalog_number":7395,"source":"NASA Five Millennium Canon of Solar Eclipses","source_url":"https://eclipse.gsfc.nasa.gov/SEsearch/SEsearchmap.php?Ecl=%2B11120922","boundary":"south","name":"1112-09-22 금환일식"},"geometry":{"type":"LineString","coordinates":[[142.82812,25.30708],[143,25.30036],[143.5,25.27944],[144,25.25648],[144.5,25.23143],[145,25.20429],[145.5,25.17501],[146,25.14359],[146.5,25.10998],[147,25.07417],[147.5,25.03613],[148,24.99582],[148.5,24.95323],[149,24.90831],[149.5,24.86103],[150,24.81138],[150.5,24.75931],[151,24.70479],[151.5,24.64779],[152,24.58827],[152.5,24.5262],[153,24.46154],[153.5,24.39425],[154,24.32429],[154.5,24.25163],[155,24.17622],[155.5,24.09802],[156,24.01698],[156.5,23.93307],[157,23.84624],[157.5,23.75643],[158,23.66361],[158.5,23.56771],[159,23.4687],[159.5,23.36651],[160,23.26109],[160.5,23.15238],[161,23.04033],[161.5,22.92488],[162,22.80596],[162.5,22.6835],[163,22.55745],[163.5,22.42774],[164,22.29429],[164.5,22.15703],[165,22.01588],[165.5,21.87078],[166,21.72163],[166.5,21.56835],[167,21.41087],[167.5,21.24908],[168,21.0829],[168.5,20.91223],[169,20.73697],[169.5,20.55703],[170,20.37229],[170.5,20.18264],[171,19.98797],[171.5,19.78817],[172,19.58311],[172.5,19.37267],[173,19.1567],[173.5,18.93509],[174,18.70768],[174.5,18.47434],[175,18.2349],[175.5,17.98922],[176,17.73713],[176.5,17.47846],[177,17.21304],[177.5,16.94069],[178,16.66122],[178.5,16.37444],[179,16.08015],[179.5,15.77815],[180,15.46822]]}},{"type":"Feature","id":"+11120922:south:1","properties":{"id":"+11120922","year":1112,"month":9,"day":22,"time_tdt":"22:38:26","type":"금환일식","type_code":"Am","saros":110,"gamma":-0.04688,"magnitude":0.93648,"greatest":{"lat":-4.8378,"lng":-159.07263},"path_width_km":236.5,"duration":"07m13s","delta_t_seconds":1027.9,"catalog_number":7395,"source":"NASA Five Millennium Canon of Solar Eclipses","source_url":"https://eclipse.gsfc.nasa.gov/SEsearch/SEsearchmap.php?Ecl=%2B11120922","boundary":"south","name":"1112-09-22 금환일식"},"geometry":{"type":"LineString","coordinates":[[-179.5,15.15013],[-179,14.82368],[-178.5,14.48863],[-178,14.14473],[-177.5,13.79175],[-177,13.42943],[-176.5,13.05753],[-176,12.6758],[-175.5,12.28396],[-175,11.88176],[-174.5,11.46894],[-174,11.04524],[-173.5,10.61041],[-173,10.1642],[-172.5,9.70637],[-172,9.23669],[-171.5,8.75496],[-171,8.261],[-170.5,7.75463],[-170,7.23574],[-169.5,6.70424],[-169,6.16009],[-168.5,5.6033],[-168,5.03394],[-167.5,4.45217],[-167,3.8582],[-166.5,3.25234],[-166,2.63501],[-165.5,2.00671],[-165,1.36805],[-164.5,0.71975],[-164,0.06265],[-163.5,-0.60231],[-163,-1.27409],[-162.5,-1.95155],[-162,-2.63346],[-161.5,-3.31854],[-161,-4.00544],[-160.5,-4.69281],[-160,-5.37926],[-159.5,-6.06342],[-159,-6.74397],[-158.5,-7.41963],[-158,-8.08921],[-157.5,-8.75157],[-157,-9.40569],[-156.5,-10.05067],[-156,-10.6857],[-155.5,-11.31008],[-155,-11.92322],[-154.5,-12.52464],[-154,-13.11397],[-153.5,-13.69091],[-153,-14.25527],[-152.5,-14.80691],[-152,-15.34579],[-151.5,-15.87191],[-151,-16.38533],[-150.5,-16.88614],[-150,-17.37449],[-149.5,-17.85054],[-149,-18.3145],[-148.5,-18.76659],[-148,-19.20702],[-147.5,-19.63606],[-147,-20.05395],[-146.5,-20.46095],[-146,-20.85733],[-145.5,-21.24335],[-145,-21.61928],[-144.5,-21.98537],[-144,-22.34189],[-143.5,-22.68908],[-143,-23.02721],[-142.5,-23.35651],[-142,-23.67722],[-141.5,-23.98958],[-141,-24.2938],[-140.5,-24.59012],[-140,-24.87874],[-139.5,-25.15987],[-139,-25.43371],[-138.5,-25.70045],[-138,-25.96028],[-137.5,-26.21338],[-137,-26.45992],[-136.5,-26.70007],[-136,-26.93399],[-135.5,-27.16184],[-135,-27.38377],[-134.5,-27.59992],[-134,-27.81043],[-133.5,-28.01545],[-133,-28.2151],[-132.5,-28.4095],[-132,-28.59878],[-131.5,-28.78305],[-131,-28.96243],[-130.5,-29.13703],[-130,-29.30694],[-129.5,-29.47229],[-129,-29.63315],[-128.5,-29.78962],[-128,-29.94181],[-127.5,-30.08979],[-127,-30.23364],[-126.5,-30.37347],[-126,-30.50933],[-125.5,-30.64131],[-125,-30.76949],[-124.5,-30.89393],[-124,-31.01471],[-123.5,-31.13189],[-123,-31.24554],[-122.5,-31.35572],[-122,-31.46249],[-121.5,-31.56591],[-121,-31.66605],[-120.5,-31.76294],[-120,-31.85666],[-119.5,-31.94725],[-119,-32.03476],[-118.5,-32.11924],[-118,-32.20074],[-117.5,-32.2793],[-117,-32.35498],[-116.5,-32.4278],[-116,-32.49783],[-115.5,-32.56509],[-115,-32.62963],[-114.5,-32.69149],[-114,-32.7507],[-113.5,-32.8073],[-113,-32.86133],[-112.5,-32.91282],[-112,-32.96181],[-111.5,-33.00832],[-111,-33.0524],[-110.5,-33.09407],[-110,-33.13336],[-109.5,-33.1703],[-109,-33.20493],[-108.5,-33.23727],[-108,-33.26734],[-107.5,-33.29518],[-107,-33.32081],[-106.5,-33.34425],[-106,-33.36554],[-105.5,-33.38469],[-105,-33.40173],[-104.5,-33.41668],[-104,-33.42957],[-103.5,-33.44042],[-103,-33.44924],[-102.5,-33.45607],[-102,-33.46092],[-101.5,-33.46381],[-101,-33.46476],[-100.5,-33.46379],[-100,-33.46093],[-99.5,-33.45618],[-99,-33.44957],[-98.5,-33.44111],[-98,-33.43083],[-97.5,-33.41874],[-97,-33.40486],[-96.5,-33.3892],[-96,-33.37178]]}}],"attribution":"Eclipse Predictions by Fred Espenak and Jean Meeus (NASA's GSFC)","generated_at":"2026-09-23T03:35:42.834Z"}
