{"type":"FeatureCollection","year":1119,"events":[{"id":"+11190511","year":1119,"month":5,"day":11,"time_tdt":"10:03:00","type":"금환일식","type_code":"A","saros":104,"gamma":0.13863,"magnitude":0.94836,"greatest":{"lat":27.36418,"lng":30.89325},"path_width_km":191.7,"duration":"06m24s","delta_t_seconds":1001.8,"catalog_number":7412,"source":"NASA Five Millennium Canon of Solar Eclipses","source_url":"https://eclipse.gsfc.nasa.gov/SEsearch/SEsearchmap.php?Ecl=%2B11190511"},{"id":"+11191104","year":1119,"month":11,"day":4,"time_tdt":"18:19:38","type":"개기일식","type_code":"T","saros":109,"gamma":0.01937,"magnitude":1.03355,"greatest":{"lat":-16.39356,"lng":-94.24133},"path_width_km":113.1,"duration":"03m14s","delta_t_seconds":1000,"catalog_number":7413,"source":"NASA Five Millennium Canon of Solar Eclipses","source_url":"https://eclipse.gsfc.nasa.gov/SEsearch/SEsearchmap.php?Ecl=%2B11191104"}],"features":[{"type":"Feature","id":"+11190511:north:0","properties":{"id":"+11190511","year":1119,"month":5,"day":11,"time_tdt":"10:03:00","type":"금환일식","type_code":"A","saros":104,"gamma":0.13863,"magnitude":0.94836,"greatest":{"lat":27.36418,"lng":30.89325},"path_width_km":191.7,"duration":"06m24s","delta_t_seconds":1001.8,"catalog_number":7412,"source":"NASA Five Millennium Canon of Solar Eclipses","source_url":"https://eclipse.gsfc.nasa.gov/SEsearch/SEsearchmap.php?Ecl=%2B11190511","boundary":"north","name":"1119-05-11 금환일식"},"geometry":{"type":"LineString","coordinates":[[-29.07422,1.00735],[-29,1.03313],[-28.5,1.20771],[-28,1.38394],[-27.5,1.56181],[-27,1.74134],[-26.5,1.92254],[-26,2.10541],[-25.5,2.28998],[-25,2.47624],[-24.5,2.66422],[-24,2.85391],[-23.5,3.04533],[-23,3.23848],[-22.5,3.43338],[-22,3.63004],[-21.5,3.82845],[-21,4.02864],[-20.5,4.23061],[-20,4.43436],[-19.5,4.6399],[-19,4.84724],[-18.5,5.05638],[-18,5.26734],[-17.5,5.48011],[-17,5.69469],[-16.5,5.9111],[-16,6.12933],[-15.5,6.34938],[-15,6.57127],[-14.5,6.79498],[-14,7.02051],[-13.5,7.24787],[-13,7.47705],[-12.5,7.70805],[-12,7.94085],[-11.5,8.17546],[-11,8.41187],[-10.5,8.65006],[-10,8.89003],[-9.5,9.13176],[-9,9.37523],[-8.5,9.62044],[-8,9.86735],[-7.5,10.11596],[-7,10.36624],[-6.5,10.61815],[-6,10.87169],[-5.5,11.1268],[-5,11.38347],[-4.5,11.64166],[-4,11.90133],[-3.5,12.16243],[-3,12.42493],[-2.5,12.68877],[-2,12.9539],[-1.5,13.22028],[-1,13.48784],[-0.5,13.75652],[0,14.02626],[0.5,14.29699],[1,14.56863],[1.5,14.84112],[2,15.11436],[2.5,15.38827],[3,15.66278],[3.5,15.93778],[4,16.21317],[4.5,16.48887],[5,16.76476],[5.5,17.04073],[6,17.31668],[6.5,17.59249],[7,17.86804],[7.5,18.14321],[8,18.41787],[8.5,18.69189],[9,18.96515],[9.5,19.23751],[10,19.50883],[10.5,19.77898],[11,20.04782],[11.5,20.3152],[12,20.58099],[12.5,20.84503],[13,21.1072],[13.5,21.36734],[14,21.62532],[14.5,21.88099],[15,22.13421],[15.5,22.38485],[16,22.63277],[16.5,22.87784],[17,23.11992],[17.5,23.35888],[18,23.59461],[18.5,23.82698],[19,24.05588],[19.5,24.28119],[20,24.5028],[20.5,24.72061],[21,24.93453],[21.5,25.14446],[22,25.35031],[22.5,25.55199],[23,25.74944],[23.5,25.94257],[24,26.13133],[24.5,26.31564],[25,26.49546],[25.5,26.67073],[26,26.8414],[26.5,27.00744],[27,27.1688],[27.5,27.32546],[28,27.47739],[28.5,27.62457],[29,27.76699],[29.5,27.90461],[30,28.03745],[30.5,28.16548],[31,28.28872],[31.5,28.40716],[32,28.5208],[32.5,28.62966],[33,28.73375],[33.5,28.83307],[34,28.92765],[34.5,29.01751],[35,29.10267],[35.5,29.18314],[36,29.25896],[36.5,29.33016],[37,29.39676],[37.5,29.45879],[38,29.51629],[38.5,29.56929],[39,29.61782],[39.5,29.66193],[40,29.70164],[40.5,29.737],[41,29.76805],[41.5,29.79482],[42,29.81737],[42.5,29.83572],[43,29.84992],[43.5,29.86002],[44,29.86605],[44.5,29.86807],[45,29.86611],[45.5,29.86023],[46,29.85046],[46.5,29.83685],[47,29.81944],[47.5,29.79829],[48,29.77344],[48.5,29.74494],[49,29.71282],[49.5,29.67715],[50,29.63796],[50.5,29.59531],[51,29.54923],[51.5,29.49979],[52,29.44702],[52.5,29.39098],[53,29.3317],[53.5,29.26925],[54,29.20366],[54.5,29.13499],[55,29.06328],[55.5,28.98858],[56,28.91094],[56.5,28.83041],[57,28.74704],[57.5,28.66087],[58,28.57195],[58.5,28.48033],[59,28.38606],[59.5,28.28918],[60,28.18975],[60.5,28.08782],[61,27.98342],[61.5,27.87661],[62,27.76743],[62.5,27.65594],[63,27.54218],[63.5,27.4262],[64,27.30804],[64.5,27.18776],[65,27.06539],[65.5,26.94099],[66,26.8146],[66.5,26.68627],[67,26.55604],[67.5,26.42396],[68,26.29008],[68.5,26.15444],[69,26.01708],[69.5,25.87806],[70,25.73741],[70.5,25.59518],[71,25.4514],[71.5,25.30614],[72,25.15942],[72.5,25.0113],[73,24.8618],[73.5,24.71098],[74,24.55888],[74.5,24.40553],[75,24.25098],[75.5,24.09527],[76,23.93843],[76.5,23.78051],[77,23.62154],[77.5,23.46157],[78,23.30062],[78.5,23.13874],[79,22.97597],[79.5,22.81233],[80,22.64787],[80.5,22.48262],[81,22.31661],[81.5,22.14988],[82,21.98246],[82.5,21.81439],[83,21.64569],[83.5,21.47641],[84,21.30656],[84.5,21.13618],[85,20.9653],[85.5,20.79395],[86,20.62216],[86.5,20.44996],[87,20.27737],[87.5,20.10443],[88,19.93115],[88.5,19.75758],[89,19.58372],[89.5,19.40961],[90,19.23527],[90.5,19.06072],[91,18.886],[91.5,18.71112],[92,18.5361],[92.5,18.36097],[93,18.18574],[93.5,18.01045],[94,17.83511],[94.5,17.65974],[95,17.48436],[95.5,17.30898],[96,17.13364],[96.5,16.95834],[97,16.78311],[97.5,16.60796],[98,16.4329],[98.5,16.25797],[98.82812,16.14323]]}},{"type":"Feature","id":"+11190511:center:0","properties":{"id":"+11190511","year":1119,"month":5,"day":11,"time_tdt":"10:03:00","type":"금환일식","type_code":"A","saros":104,"gamma":0.13863,"magnitude":0.94836,"greatest":{"lat":27.36418,"lng":30.89325},"path_width_km":191.7,"duration":"06m24s","delta_t_seconds":1001.8,"catalog_number":7412,"source":"NASA Five Millennium Canon of Solar Eclipses","source_url":"https://eclipse.gsfc.nasa.gov/SEsearch/SEsearchmap.php?Ecl=%2B11190511","boundary":"center","name":"1119-05-11 금환일식"},"geometry":{"type":"LineString","coordinates":[[-28.53418,-0.04136],[-28.5,-0.03101],[-28,0.14616],[-27.5,0.32498],[-27,0.50547],[-26.5,0.68763],[-26,0.87147],[-25.5,1.05701],[-25,1.24425],[-24.5,1.4332],[-24,1.62388],[-23.5,1.81629],[-23,2.01044],[-22.5,2.20635],[-22,2.40401],[-21.5,2.60345],[-21,2.80467],[-20.5,3.00767],[-20,3.21247],[-19.5,3.41907],[-19,3.62748],[-18.5,3.83771],[-18,4.04976],[-17.5,4.26363],[-17,4.47934],[-16.5,4.69689],[-16,4.91628],[-15.5,5.1375],[-15,5.36058],[-14.5,5.5855],[-14,5.81227],[-13.5,6.04088],[-13,6.27134],[-12.5,6.50364],[-12,6.73777],[-11.5,6.97374],[-11,7.21153],[-10.5,7.45114],[-10,7.69256],[-9.5,7.93577],[-9,8.18076],[-8.5,8.42753],[-8,8.67604],[-7.5,8.92629],[-7,9.17825],[-6.5,9.4319],[-6,9.68721],[-5.5,9.94416],[-5,10.20271],[-4.5,10.46284],[-4,10.7245],[-3.5,10.98766],[-3,11.25228],[-2.5,11.51831],[-2,11.7857],[-1.5,12.0544],[-1,12.32436],[-0.5,12.59551],[0,12.8678],[0.5,13.14116],[1,13.41551],[1.5,13.6908],[2,13.96692],[2.5,14.24382],[3,14.52139],[3.5,14.79954],[4,15.07819],[4.5,15.35724],[5,15.63657],[5.5,15.91609],[6,16.19569],[6.5,16.47524],[7,16.75463],[7.5,17.03374],[8,17.31244],[8.5,17.5906],[9,17.86808],[9.5,18.14477],[10,18.4205],[10.5,18.69516],[11,18.96858],[11.5,19.24064],[12,19.51117],[12.5,19.78004],[13,20.0471],[13.5,20.3122],[14,20.57519],[14.5,20.83592],[15,21.09425],[15.5,21.35004],[16,21.60314],[16.5,21.85341],[17,22.1007],[17.5,22.3449],[18,22.58585],[18.5,22.82344],[19,23.05754],[19.5,23.28802],[20,23.51478],[20.5,23.7377],[21,23.95667],[21.5,24.17159],[22,24.38237],[22.5,24.58891],[23,24.79113],[23.5,24.98895],[24,25.18229],[24.5,25.37109],[25,25.55529],[25.5,25.73482],[26,25.90963],[26.5,26.07968],[27,26.24493],[27.5,26.40534],[28,26.56088],[28.5,26.71152],[29,26.85724],[29.5,26.99803],[30,27.13387],[30.5,27.26476],[31,27.39068],[31.5,27.51165],[32,27.62766],[32.5,27.73873],[33,27.84485],[33.5,27.94605],[34,28.04234],[34.5,28.13374],[35,28.22027],[35.5,28.30196],[36,28.37882],[36.5,28.4509],[37,28.51823],[37.5,28.58082],[38,28.63872],[38.5,28.69196],[39,28.74058],[39.5,28.78462],[40,28.82412],[40.5,28.85911],[41,28.88965],[41.5,28.91576],[42,28.9375],[42.5,28.95491],[43,28.96803],[43.5,28.97691],[44,28.9816],[44.5,28.98214],[45,28.97858],[45.5,28.97097],[46,28.95935],[46.5,28.94378],[47,28.92429],[47.5,28.90095],[48,28.8738],[48.5,28.84289],[49,28.80828],[49.5,28.77],[50,28.72811],[50.5,28.68266],[51,28.63371],[51.5,28.58129],[52,28.52547],[52.5,28.46629],[53,28.40381],[53.5,28.33807],[54,28.26913],[54.5,28.19704],[55,28.12184],[55.5,28.0436],[56,27.96235],[56.5,27.87816],[57,27.79107],[57.5,27.70114],[58,27.60841],[58.5,27.51294],[59,27.41477],[59.5,27.31396],[60,27.21057],[60.5,27.10463],[61,26.9962],[61.5,26.88533],[62,26.77208],[62.5,26.65648],[63,26.53859],[63.5,26.41847],[64,26.29616],[64.5,26.1717],[65,26.04516],[65.5,25.91657],[66,25.78599],[66.5,25.65347],[67,25.51905],[67.5,25.38278],[68,25.2447],[68.5,25.10487],[69,24.96334],[69.5,24.82014],[70,24.67533],[70.5,24.52895],[71,24.38104],[71.5,24.23165],[72,24.08083],[72.5,23.92862],[73,23.77505],[73.5,23.62019],[74,23.46406],[74.5,23.30671],[75,23.14818],[75.5,22.98851],[76,22.82775],[76.5,22.66593],[77,22.50309],[77.5,22.33927],[78,22.17452],[78.5,22.00886],[79,21.84233],[79.5,21.67497],[80,21.50683],[80.5,21.33792],[81,21.1683],[81.5,20.99798],[82,20.82702],[82.5,20.65543],[83,20.48325],[83.5,20.31052],[84,20.13726],[84.5,19.96351],[85,19.78929],[85.5,19.61464],[86,19.43959],[86.5,19.26416],[87,19.08838],[87.5,18.91229],[88,18.73589],[88.5,18.55923],[89,18.38233],[89.5,18.20521],[90,18.0279],[90.5,17.85042],[91,17.6728],[91.5,17.49506],[92,17.31721],[92.5,17.13929],[93,16.96131],[93.5,16.7833],[94,16.60527],[94.5,16.42725],[95,16.24925],[95.5,16.07129],[96,15.8934],[96.5,15.71559],[97,15.53787],[97.5,15.36027],[98,15.1828],[98.25392,15.09291]]}},{"type":"Feature","id":"+11190511:south:0","properties":{"id":"+11190511","year":1119,"month":5,"day":11,"time_tdt":"10:03:00","type":"금환일식","type_code":"A","saros":104,"gamma":0.13863,"magnitude":0.94836,"greatest":{"lat":27.36418,"lng":30.89325},"path_width_km":191.7,"duration":"06m24s","delta_t_seconds":1001.8,"catalog_number":7412,"source":"NASA Five Millennium Canon of Solar Eclipses","source_url":"https://eclipse.gsfc.nasa.gov/SEsearch/SEsearchmap.php?Ecl=%2B11190511","boundary":"south","name":"1119-05-11 금환일식"},"geometry":{"type":"LineString","coordinates":[[-27.99609,-1.08692],[-27.5,-0.90854],[-27,-0.7271],[-26.5,-0.54399],[-26,-0.35918],[-25.5,-0.17268],[-25,0.01553],[-24.5,0.20546],[-24,0.39711],[-23.5,0.59051],[-23,0.78566],[-22.5,0.98256],[-22,1.18123],[-21.5,1.38168],[-21,1.58392],[-20.5,1.78795],[-20,1.99379],[-19.5,2.20144],[-19,2.41091],[-18.5,2.6222],[-18,2.83533],[-17.5,3.0503],[-17,3.26712],[-16.5,3.48578],[-16,3.7063],[-15.5,3.92869],[-15,4.15293],[-14.5,4.37904],[-14,4.60701],[-13.5,4.83685],[-13,5.06856],[-12.5,5.30213],[-12,5.53756],[-11.5,5.77485],[-11,6.014],[-10.5,6.25498],[-10,6.49781],[-9.5,6.74247],[-9,6.98894],[-8.5,7.23721],[-8,7.48728],[-7.5,7.73912],[-7,7.99271],[-6.5,8.24804],[-6,8.50507],[-5.5,8.76379],[-5,9.02417],[-4.5,9.28617],[-4,9.54976],[-3.5,9.81491],[-3,10.08158],[-2.5,10.34972],[-2,10.61929],[-1.5,10.89024],[-1,11.16251],[-0.5,11.43606],[0,11.71082],[0.5,11.98672],[1,12.26371],[1.5,12.5417],[2,12.82062],[2.5,13.1004],[3,13.38095],[3.5,13.66217],[4,13.94398],[4.5,14.22629],[5,14.50898],[5.5,14.79195],[6,15.0751],[6.5,15.3583],[7,15.64145],[7.5,15.92441],[8,16.20707],[8.5,16.48928],[9,16.77093],[9.5,17.05186],[10,17.33195],[10.5,17.61104],[11,17.889],[11.5,18.16567],[12,18.44091],[12.5,18.71457],[13,18.98648],[13.5,19.25651],[14,19.52449],[14.5,19.79028],[15,20.05372],[15.5,20.31466],[16,20.57294],[16.5,20.82843],[17,21.08097],[17.5,21.33043],[18,21.57665],[18.5,21.81951],[19,22.05886],[19.5,22.29459],[20,22.52656],[20.5,22.75465],[21,22.97875],[21.5,23.19876],[22,23.41455],[22.5,23.62605],[23,23.83314],[23.5,24.03575],[24,24.23379],[24.5,24.42719],[25,24.61587],[25.5,24.79977],[26,24.97884],[26.5,25.15302],[27,25.32227],[27.5,25.48653],[28,25.64579],[28.5,25.8],[29,25.94914],[29.5,26.09319],[30,26.23214],[30.5,26.36597],[31,26.49469],[31.5,26.61827],[32,26.73674],[32.5,26.85008],[33,26.95832],[33.5,27.06147],[34,27.15953],[34.5,27.25253],[35,27.3405],[35.5,27.42345],[36,27.50141],[36.5,27.57442],[37,27.6425],[37.5,27.70568],[38,27.76401],[38.5,27.81752],[39,27.86624],[39.5,27.91023],[40,27.94951],[40.5,27.98414],[41,28.01415],[41.5,28.0396],[42,28.06052],[42.5,28.07697],[43,28.08899],[43.5,28.09663],[44,28.09994],[44.5,28.09897],[45,28.09378],[45.5,28.0844],[46,28.07089],[46.5,28.05331],[47,28.0317],[47.5,28.00612],[48,27.97662],[48.5,27.94326],[49,27.90608],[49.5,27.86514],[50,27.8205],[50.5,27.7722],[51,27.7203],[51.5,27.66486],[52,27.60593],[52.5,27.54356],[53,27.4778],[53.5,27.40872],[54,27.33637],[54.5,27.26079],[55,27.18205],[55.5,27.1002],[56,27.01529],[56.5,26.92738],[57,26.83652],[57.5,26.74277],[58,26.64617],[58.5,26.54679],[59,26.44468],[59.5,26.33989],[60,26.23248],[60.5,26.12249],[61,26.00999],[61.5,25.89502],[62,25.77764],[62.5,25.65791],[63,25.53586],[63.5,25.41156],[64,25.28506],[64.5,25.15641],[65,25.02566],[65.5,24.89287],[66,24.75807],[66.5,24.62133],[67,24.4827],[67.5,24.34221],[68,24.19994],[68.5,24.05591],[69,23.91018],[69.5,23.76281],[70,23.61383],[70.5,23.4633],[71,23.31125],[71.5,23.15774],[72,23.00282],[72.5,22.84652],[73,22.6889],[73.5,22.53],[74,22.36986],[74.5,22.20852],[75,22.04603],[75.5,21.88242],[76,21.71775],[76.5,21.55205],[77,21.38537],[77.5,21.21773],[78,21.04919],[78.5,20.87977],[79,20.70952],[79.5,20.53848],[80,20.36667],[80.5,20.19415],[81,20.02094],[81.5,19.84707],[82,19.67259],[82.5,19.49752],[83,19.3219],[83.5,19.14575],[84,18.96913],[84.5,18.79204],[85,18.61453],[85.5,18.43662],[86,18.25834],[86.5,18.07972],[87,17.9008],[87.5,17.72158],[88,17.54212],[88.5,17.36242],[89,17.18251],[89.5,17.00243],[90,16.82219],[90.5,16.64182],[91,16.46133],[91.5,16.28077],[92,16.10014],[92.5,15.91946],[93,15.73877],[93.5,15.55808],[94,15.3774],[94.5,15.19677],[95,15.01619],[95.5,14.8357],[96,14.65529],[96.5,14.475],[97,14.29485],[97.5,14.11483],[97.6875,14.04737]]}},{"type":"Feature","id":"+11191104:north:0","properties":{"id":"+11191104","year":1119,"month":11,"day":4,"time_tdt":"18:19:38","type":"개기일식","type_code":"T","saros":109,"gamma":0.01937,"magnitude":1.03355,"greatest":{"lat":-16.39356,"lng":-94.24133},"path_width_km":113.1,"duration":"03m14s","delta_t_seconds":1000,"catalog_number":7413,"source":"NASA Five Millennium Canon of Solar Eclipses","source_url":"https://eclipse.gsfc.nasa.gov/SEsearch/SEsearchmap.php?Ecl=%2B11191104","boundary":"north","name":"1119-11-04 개기일식"},"geometry":{"type":"LineString","coordinates":[[-154.66211,11.3443],[-154.5,11.29394],[-154,11.13759],[-153.5,10.97967],[-153,10.82018],[-152.5,10.65911],[-152,10.49644],[-151.5,10.33216],[-151,10.16627],[-150.5,9.99876],[-150,9.82962],[-149.5,9.65883],[-149,9.48638],[-148.5,9.31228],[-148,9.1365],[-147.5,8.95903],[-147,8.77988],[-146.5,8.59903],[-146,8.41646],[-145.5,8.23218],[-145,8.04617],[-144.5,7.85842],[-144,7.66893],[-143.5,7.47769],[-143,7.28469],[-142.5,7.08993],[-142,6.89339],[-141.5,6.69507],[-141,6.49496],[-140.5,6.29306],[-140,6.08937],[-139.5,5.88387],[-139,5.67657],[-138.5,5.46746],[-138,5.25654],[-137.5,5.0438],[-137,4.82925],[-136.5,4.61288],[-136,4.3947],[-135.5,4.1747],[-135,3.95289],[-134.5,3.72927],[-134,3.50385],[-133.5,3.27663],[-133,3.04761],[-132.5,2.81681],[-132,2.58423],[-131.5,2.34989],[-131,2.1138],[-130.5,1.87597],[-130,1.63641],[-129.5,1.39515],[-129,1.1522],[-128.5,0.90759],[-128,0.66134],[-127.5,0.41347],[-127,0.16401],[-126.5,-0.08701],[-126,-0.33955],[-125.5,-0.59358],[-125,-0.84906],[-124.5,-1.10596],[-124,-1.36422],[-123.5,-1.6238],[-123,-1.88466],[-122.5,-2.14674],[-122,-2.40997],[-121.5,-2.67431],[-121,-2.93969],[-120.5,-3.20605],[-120,-3.47331],[-119.5,-3.7414],[-119,-4.01024],[-118.5,-4.27976],[-118,-4.54986],[-117.5,-4.82046],[-117,-5.09147],[-116.5,-5.36279],[-116,-5.63432],[-115.5,-5.90596],[-115,-6.17759],[-114.5,-6.44913],[-114,-6.72043],[-113.5,-6.9914],[-113,-7.26191],[-112.5,-7.53184],[-112,-7.80106],[-111.5,-8.06944],[-111,-8.33686],[-110.5,-8.60318],[-110,-8.86827],[-109.5,-9.13199],[-109,-9.39421],[-108.5,-9.65479],[-108,-9.91358],[-107.5,-10.17046],[-107,-10.42529],[-106.5,-10.67793],[-106,-10.92823],[-105.5,-11.17608],[-105,-11.42133],[-104.5,-11.66386],[-104,-11.90353],[-103.5,-12.14022],[-103,-12.3738],[-102.5,-12.60417],[-102,-12.83119],[-101.5,-13.05477],[-101,-13.27478],[-100.5,-13.49114],[-100,-13.70373],[-99.5,-13.91247],[-99,-14.11726],[-98.5,-14.31803],[-98,-14.5147],[-97.5,-14.70718],[-97,-14.89541],[-96.5,-15.07933],[-96,-15.25889],[-95.5,-15.43402],[-95,-15.60469],[-94.5,-15.77084],[-94,-15.93245],[-93.5,-16.08947],[-93,-16.24189],[-92.5,-16.38969],[-92,-16.53283],[-91.5,-16.67132],[-91,-16.80514],[-90.5,-16.93429],[-90,-17.05876],[-89.5,-17.17857],[-89,-17.29371],[-88.5,-17.4042],[-88,-17.51005],[-87.5,-17.61128],[-87,-17.70791],[-86.5,-17.79995],[-86,-17.88745],[-85.5,-17.97041],[-85,-18.04889],[-84.5,-18.12289],[-84,-18.19247],[-83.5,-18.25765],[-83,-18.31847],[-82.5,-18.37498],[-82,-18.42721],[-81.5,-18.4752],[-81,-18.51901],[-80.5,-18.55866],[-80,-18.59421],[-79.5,-18.62571],[-79,-18.65319],[-78.5,-18.67672],[-78,-18.69633],[-77.5,-18.71207],[-77,-18.724],[-76.5,-18.73217],[-76,-18.73662],[-75.5,-18.7374],[-75,-18.73457],[-74.5,-18.72817],[-74,-18.71825],[-73.5,-18.70488],[-73,-18.68809],[-72.5,-18.66794],[-72,-18.64449],[-71.5,-18.61777],[-71,-18.58784],[-70.5,-18.55475],[-70,-18.51856],[-69.5,-18.47931],[-69,-18.43705],[-68.5,-18.39183],[-68,-18.3437],[-67.5,-18.29272],[-67,-18.23892],[-66.5,-18.18236],[-66,-18.12309],[-65.5,-18.06116],[-65,-17.9966],[-64.5,-17.92948],[-64,-17.85983],[-63.5,-17.78771],[-63,-17.71315],[-62.5,-17.63621],[-62,-17.55694],[-61.5,-17.47537],[-61,-17.39155],[-60.5,-17.30552],[-60,-17.21734],[-59.5,-17.12704],[-59,-17.03466],[-58.5,-16.94025],[-58,-16.84386],[-57.5,-16.74552],[-57,-16.64527],[-56.5,-16.54315],[-56,-16.43921],[-55.5,-16.33349],[-55,-16.22602],[-54.5,-16.11685],[-54,-16.00601],[-53.5,-15.89354],[-53,-15.77948],[-52.5,-15.66386],[-52,-15.54673],[-51.5,-15.42812],[-51,-15.30807],[-50.5,-15.1866],[-50,-15.06377],[-49.5,-14.93959],[-49,-14.81411],[-48.5,-14.68736],[-48,-14.55937],[-47.5,-14.43018],[-47,-14.29981],[-46.5,-14.16831],[-46,-14.03569],[-45.5,-13.902],[-45,-13.76726],[-44.5,-13.6315],[-44,-13.49475],[-43.5,-13.35705],[-43,-13.21842],[-42.5,-13.07888],[-42,-12.93848],[-41.5,-12.79723],[-41,-12.65516],[-40.5,-12.5123],[-40,-12.36867],[-39.5,-12.2243],[-39,-12.07922],[-38.5,-11.93345],[-38,-11.78702],[-37.5,-11.63995],[-37,-11.49226],[-36.5,-11.34397],[-36,-11.19512],[-35.5,-11.04572],[-35,-10.89579],[-34.5,-10.74537],[-34,-10.59445],[-33.5,-10.44308],[-33,-10.29127],[-32.5,-10.13904],[-32,-9.98641],[-31.5,-9.8334],[-31,-9.68003],[-30.5,-9.52631],[-30,-9.37227],[-29.5,-9.21793],[-29,-9.0633],[-28.5,-8.9084],[-28,-8.75325],[-27.89062,-8.71928]]}},{"type":"Feature","id":"+11191104:center:0","properties":{"id":"+11191104","year":1119,"month":11,"day":4,"time_tdt":"18:19:38","type":"개기일식","type_code":"T","saros":109,"gamma":0.01937,"magnitude":1.03355,"greatest":{"lat":-16.39356,"lng":-94.24133},"path_width_km":113.1,"duration":"03m14s","delta_t_seconds":1000,"catalog_number":7413,"source":"NASA Five Millennium Canon of Solar Eclipses","source_url":"https://eclipse.gsfc.nasa.gov/SEsearch/SEsearchmap.php?Ecl=%2B11191104","boundary":"center","name":"1119-11-04 개기일식"},"geometry":{"type":"LineString","coordinates":[[-154.74506,11.12459],[-154.5,11.04599],[-154,10.88679],[-153.5,10.726],[-153,10.56362],[-152.5,10.39963],[-152,10.23402],[-151.5,10.06679],[-151,9.89792],[-150.5,9.7274],[-150,9.55522],[-149.5,9.38138],[-149,9.20586],[-148.5,9.02865],[-148,8.84975],[-147.5,8.66914],[-147,8.48681],[-146.5,8.30276],[-146,8.11698],[-145.5,7.92946],[-145,7.74018],[-144.5,7.54914],[-144,7.35634],[-143.5,7.16176],[-143,6.9654],[-142.5,6.76725],[-142,6.56731],[-141.5,6.36556],[-141,6.162],[-140.5,5.95663],[-140,5.74944],[-139.5,5.54042],[-139,5.32958],[-138.5,5.11691],[-138,4.90241],[-137.5,4.68607],[-137,4.4679],[-136.5,4.2479],[-136,4.02606],[-135.5,3.80239],[-135,3.57689],[-134.5,3.34956],[-134,3.12041],[-133.5,2.88946],[-133,2.65669],[-132.5,2.42213],[-132,2.18578],[-131.5,1.94766],[-131,1.70778],[-130.5,1.46615],[-130,1.2228],[-129.5,0.97773],[-129,0.73098],[-128.5,0.48256],[-128,0.2325],[-127.5,-0.01917],[-127,-0.27242],[-126.5,-0.52722],[-126,-0.78353],[-125.5,-1.04133],[-125,-1.30056],[-124.5,-1.56118],[-124,-1.82315],[-123.5,-2.08642],[-123,-2.35093],[-122.5,-2.61663],[-122,-2.88346],[-121.5,-3.15135],[-121,-3.42025],[-120.5,-3.69007],[-120,-3.96076],[-119.5,-4.23222],[-119,-4.50438],[-118.5,-4.77715],[-118,-5.05045],[-117.5,-5.32419],[-117,-5.59826],[-116.5,-5.87256],[-116,-6.14701],[-115.5,-6.42147],[-115,-6.69586],[-114.5,-6.97004],[-114,-7.24392],[-113.5,-7.51735],[-113,-7.79023],[-112.5,-8.06243],[-112,-8.33381],[-111.5,-8.60425],[-111,-8.87361],[-110.5,-9.14176],[-110,-9.40857],[-109.5,-9.67389],[-109,-9.93759],[-108.5,-10.19953],[-108,-10.45957],[-107.5,-10.71757],[-107,-10.9734],[-106.5,-11.22691],[-106,-11.47798],[-105.5,-11.72647],[-105,-11.97224],[-104.5,-12.21517],[-104,-12.45513],[-103.5,-12.692],[-103,-12.92565],[-102.5,-13.15597],[-102,-13.38285],[-101.5,-13.60617],[-101,-13.82584],[-100.5,-14.04174],[-100,-14.2538],[-99.5,-14.46191],[-99,-14.666],[-98.5,-14.86597],[-98,-15.06177],[-97.5,-15.25331],[-97,-15.44053],[-96.5,-15.62338],[-96,-15.8018],[-95.5,-15.97574],[-95,-16.14517],[-94.5,-16.31003],[-94,-16.4703],[-93.5,-16.62595],[-93,-16.77695],[-92.5,-16.92329],[-92,-17.06496],[-91.5,-17.20194],[-91,-17.33422],[-90.5,-17.46181],[-90,-17.58471],[-89.5,-17.70292],[-89,-17.81645],[-88.5,-17.92532],[-88,-18.02953],[-87.5,-18.12912],[-87,-18.22409],[-86.5,-18.31448],[-86,-18.40031],[-85.5,-18.4816],[-85,-18.5584],[-84.5,-18.63073],[-84,-18.69862],[-83.5,-18.76212],[-83,-18.82126],[-82.5,-18.87609],[-82,-18.92663],[-81.5,-18.97294],[-81,-19.01506],[-80.5,-19.05303],[-80,-19.08689],[-79.5,-19.1167],[-79,-19.1425],[-78.5,-19.16434],[-78,-19.18226],[-77.5,-19.19631],[-77,-19.20654],[-76.5,-19.21301],[-76,-19.21576],[-75.5,-19.21483],[-75,-19.21029],[-74.5,-19.20218],[-74,-19.19054],[-73.5,-19.17544],[-73,-19.15692],[-72.5,-19.13503],[-72,-19.10983],[-71.5,-19.08135],[-71,-19.04966],[-70.5,-19.0148],[-70,-18.97682],[-69.5,-18.93578],[-69,-18.89171],[-68.5,-18.84468],[-68,-18.79472],[-67.5,-18.74189],[-67,-18.68625],[-66.5,-18.62782],[-66,-18.56667],[-65.5,-18.50284],[-65,-18.43638],[-64.5,-18.36733],[-64,-18.29575],[-63.5,-18.22167],[-63,-18.14515],[-62.5,-18.06623],[-62,-17.98496],[-61.5,-17.90138],[-61,-17.81553],[-60.5,-17.72746],[-60,-17.63721],[-59.5,-17.54483],[-59,-17.45037],[-58.5,-17.35385],[-58,-17.25533],[-57.5,-17.15485],[-57,-17.05244],[-56.5,-16.94815],[-56,-16.84202],[-55.5,-16.7341],[-55,-16.62441],[-54.5,-16.513],[-54,-16.39991],[-53.5,-16.28517],[-53,-16.16883],[-52.5,-16.05092],[-52,-15.93149],[-51.5,-15.81055],[-51,-15.68816],[-50.5,-15.56435],[-50,-15.43915],[-49.5,-15.3126],[-49,-15.18473],[-48.5,-15.05557],[-48,-14.92517],[-47.5,-14.79355],[-47,-14.66075],[-46.5,-14.5268],[-46,-14.39173],[-45.5,-14.25557],[-45,-14.11835],[-44.5,-13.98011],[-44,-13.84087],[-43.5,-13.70066],[-43,-13.55952],[-42.5,-13.41747],[-42,-13.27454],[-41.5,-13.13075],[-41,-12.98615],[-40.5,-12.84074],[-40,-12.69456],[-39.5,-12.54764],[-39,-12.4],[-38.5,-12.25167],[-38,-12.10266],[-37.5,-11.95302],[-37,-11.80275],[-36.5,-11.65189],[-36,-11.50046],[-35.5,-11.34848],[-35,-11.19597],[-34.5,-11.04295],[-34,-10.88946],[-33.5,-10.7355],[-33,-10.5811],[-32.5,-10.42629],[-32,-10.27107],[-31.5,-10.11548],[-31,-9.95952],[-30.5,-9.80323],[-30,-9.64661],[-29.5,-9.4897],[-29,-9.33249],[-28.5,-9.17503],[-28,-9.01731],[-27.80214,-8.95511]]}},{"type":"Feature","id":"+11191104:south:0","properties":{"id":"+11191104","year":1119,"month":11,"day":4,"time_tdt":"18:19:38","type":"개기일식","type_code":"T","saros":109,"gamma":0.01937,"magnitude":1.03355,"greatest":{"lat":-16.39356,"lng":-94.24133},"path_width_km":113.1,"duration":"03m14s","delta_t_seconds":1000,"catalog_number":7413,"source":"NASA Five Millennium Canon of Solar Eclipses","source_url":"https://eclipse.gsfc.nasa.gov/SEsearch/SEsearchmap.php?Ecl=%2B11191104","boundary":"south","name":"1119-11-04 개기일식"},"geometry":{"type":"LineString","coordinates":[[-154.83008,10.90313],[-154.5,10.79702],[-154,10.63495],[-153.5,10.47127],[-153,10.30596],[-152.5,10.13903],[-152,9.97046],[-151.5,9.80024],[-151,9.62836],[-150.5,9.45481],[-150,9.27957],[-149.5,9.10265],[-149,8.92402],[-148.5,8.74368],[-148,8.56162],[-147.5,8.37784],[-147,8.19231],[-146.5,8.00503],[-146,7.816],[-145.5,7.6252],[-145,7.43262],[-144.5,7.23826],[-144,7.04211],[-143.5,6.84416],[-143,6.64441],[-142.5,6.44284],[-142,6.23945],[-141.5,6.03424],[-141,5.8272],[-140.5,5.61831],[-140,5.40759],[-139.5,5.19502],[-139,4.98061],[-138.5,4.76434],[-138,4.54622],[-137.5,4.32625],[-137,4.10442],[-136.5,3.88074],[-136,3.65521],[-135.5,3.42783],[-135,3.1986],[-134.5,2.96753],[-134,2.73463],[-133.5,2.4999],[-133,2.26335],[-132.5,2.02499],[-132,1.78484],[-131.5,1.5429],[-131,1.2992],[-130.5,1.05374],[-130,0.80656],[-129.5,0.55766],[-129,0.30707],[-128.5,0.05482],[-128,-0.19907],[-127.5,-0.45457],[-127,-0.71163],[-126.5,-0.97024],[-126,-1.23036],[-125.5,-1.49193],[-125,-1.75492],[-124.5,-2.01929],[-124,-2.28498],[-123.5,-2.55193],[-123,-2.82011],[-122.5,-3.08944],[-122,-3.35986],[-121.5,-3.63131],[-121,-3.90372],[-120.5,-4.17701],[-120,-4.45111],[-119.5,-4.72593],[-119,-5.00139],[-118.5,-5.27741],[-118,-5.55388],[-117.5,-5.83072],[-117,-6.10782],[-116.5,-6.38508],[-116,-6.66239],[-115.5,-6.93965],[-115,-7.21673],[-114.5,-7.49353],[-114,-7.76991],[-113.5,-8.04576],[-113,-8.32095],[-112.5,-8.59534],[-112,-8.86882],[-111.5,-9.14125],[-111,-9.41248],[-110.5,-9.68239],[-110,-9.95083],[-109.5,-10.21767],[-109,-10.48277],[-108.5,-10.74599],[-108,-11.00719],[-107.5,-11.26623],[-107,-11.52297],[-106.5,-11.77728],[-106,-12.02902],[-105.5,-12.27806],[-105,-12.52427],[-104.5,-12.76752],[-104,-13.00768],[-103.5,-13.24464],[-103,-13.47827],[-102.5,-13.70847],[-102,-13.93512],[-101.5,-14.15811],[-101,-14.37735],[-100.5,-14.59274],[-100,-14.80418],[-99.5,-15.0116],[-99,-15.21491],[-98.5,-15.41403],[-98,-15.6089],[-97.5,-15.79944],[-97,-15.98561],[-96.5,-16.16733],[-96,-16.34457],[-95.5,-16.51728],[-95,-16.68542],[-94.5,-16.84896],[-94,-17.00786],[-93.5,-17.1621],[-93,-17.31166],[-92.5,-17.45653],[-92,-17.5967],[-91.5,-17.73215],[-91,-17.86289],[-90.5,-17.98891],[-90,-18.11022],[-89.5,-18.22682],[-89,-18.33874],[-88.5,-18.44598],[-88,-18.54856],[-87.5,-18.6465],[-87,-18.73983],[-86.5,-18.82856],[-86,-18.91273],[-85.5,-18.99236],[-85,-19.06749],[-84.5,-19.13816],[-84,-19.20439],[-83.5,-19.26622],[-83,-19.3237],[-82.5,-19.37685],[-82,-19.42573],[-81.5,-19.47038],[-81,-19.51083],[-80.5,-19.54713],[-80,-19.57933],[-79.5,-19.60748],[-79,-19.63161],[-78.5,-19.65178],[-78,-19.66803],[-77.5,-19.68042],[-77,-19.68898],[-76.5,-19.69378],[-76,-19.69485],[-75.5,-19.69225],[-75,-19.68602],[-74.5,-19.67622],[-74,-19.6629],[-73.5,-19.6461],[-73,-19.62587],[-72.5,-19.60227],[-72,-19.57534],[-71.5,-19.54514],[-71,-19.51171],[-70.5,-19.47511],[-70,-19.43538],[-69.5,-19.39256],[-69,-19.34672],[-68.5,-19.2979],[-68,-19.24615],[-67.5,-19.19151],[-67,-19.13403],[-66.5,-19.07377],[-66,-19.01077],[-65.5,-18.94507],[-65,-18.87673],[-64.5,-18.80579],[-64,-18.73229],[-63.5,-18.65629],[-63,-18.57783],[-62.5,-18.49696],[-62,-18.41371],[-61.5,-18.32814],[-61,-18.24028],[-60.5,-18.15019],[-60,-18.05791],[-59.5,-17.96348],[-59,-17.86694],[-58.5,-17.76833],[-58,-17.66771],[-57.5,-17.5651],[-57,-17.46056],[-56.5,-17.35412],[-56,-17.24582],[-55.5,-17.13571],[-55,-17.02381],[-54.5,-16.91019],[-54,-16.79486],[-53.5,-16.67787],[-53,-16.55927],[-52.5,-16.43908],[-52,-16.31734],[-51.5,-16.1941],[-51,-16.06938],[-50.5,-15.94323],[-50,-15.81568],[-49.5,-15.68676],[-49,-15.55651],[-48.5,-15.42496],[-48,-15.29216],[-47.5,-15.15812],[-47,-15.02289],[-46.5,-14.8865],[-46,-14.74897],[-45.5,-14.61035],[-45,-14.47066],[-44.5,-14.32994],[-44,-14.18821],[-43.5,-14.0455],[-43,-13.90185],[-42.5,-13.75728],[-42,-13.61182],[-41.5,-13.4655],[-41,-13.31836],[-40.5,-13.1704],[-40,-13.02167],[-39.5,-12.87219],[-39,-12.72199],[-38.5,-12.57109],[-38,-12.41952],[-37.5,-12.26729],[-37,-12.11445],[-36.5,-11.961],[-36,-11.80699],[-35.5,-11.65241],[-35,-11.49732],[-34.5,-11.34171],[-34,-11.18562],[-33.5,-11.02907],[-33,-10.87208],[-32.5,-10.71467],[-32,-10.55686],[-31.5,-10.39868],[-31,-10.24013],[-30.5,-10.08125],[-30,-9.92205],[-29.5,-9.76255],[-29,-9.60276],[-28.5,-9.44271],[-28,-9.28242],[-27.71094,-9.18964]]}}],"attribution":"Eclipse Predictions by Fred Espenak and Jean Meeus (NASA's GSFC)","generated_at":"2026-09-23T03:35:42.941Z"}
