{"type":"FeatureCollection","year":1123,"events":[{"id":"+11230227","year":1123,"month":2,"day":27,"time_tdt":"21:15:11","type":"개기일식","type_code":"Tm","saros":106,"gamma":-0.13125,"magnitude":1.02511,"greatest":{"lat":-13.12192,"lng":-129.31287},"path_width_km":86.1,"duration":"02m27s","delta_t_seconds":987.2,"catalog_number":7422,"source":"NASA Five Millennium Canon of Solar Eclipses","source_url":"https://eclipse.gsfc.nasa.gov/SEsearch/SEsearchmap.php?Ecl=%2B11230227"},{"id":"+11230822","year":1123,"month":8,"day":22,"time_tdt":"23:36:13","type":"혼성일식","type_code":"H","saros":111,"gamma":0.03908,"magnitude":1.00161,"greatest":{"lat":11.91102,"lng":-169.27875},"path_width_km":5.6,"duration":"00m10s","delta_t_seconds":985.3,"catalog_number":7423,"source":"NASA Five Millennium Canon of Solar Eclipses","source_url":"https://eclipse.gsfc.nasa.gov/SEsearch/SEsearchmap.php?Ecl=%2B11230822"}],"features":[{"type":"Feature","id":"+11230227:north:0","properties":{"id":"+11230227","year":1123,"month":2,"day":27,"time_tdt":"21:15:11","type":"개기일식","type_code":"Tm","saros":106,"gamma":-0.13125,"magnitude":1.02511,"greatest":{"lat":-13.12192,"lng":-129.31287},"path_width_km":86.1,"duration":"02m27s","delta_t_seconds":987.2,"catalog_number":7422,"source":"NASA Five Millennium Canon of Solar Eclipses","source_url":"https://eclipse.gsfc.nasa.gov/SEsearch/SEsearchmap.php?Ecl=%2B11230227","boundary":"north","name":"1123-02-27 개기일식"},"geometry":{"type":"LineString","coordinates":[[162.13086,-24.6156],[162.5,-24.65186],[163,-24.70006],[163.5,-24.7472],[164,-24.79327],[164.5,-24.83826],[165,-24.88214],[165.5,-24.9249],[166,-24.96655],[166.5,-25.00705],[167,-25.04639],[167.5,-25.08457],[168,-25.12157],[168.5,-25.15737],[169,-25.19196],[169.5,-25.22532],[170,-25.25744],[170.5,-25.28831],[171,-25.3179],[171.5,-25.34621],[172,-25.37322],[172.5,-25.39891],[173,-25.42327],[173.5,-25.44627],[174,-25.46791],[174.5,-25.48816],[175,-25.50702],[175.5,-25.52445],[176,-25.54045],[176.5,-25.555],[177,-25.56808],[177.5,-25.57966],[178,-25.58974],[178.5,-25.59829],[179,-25.6053],[179.5,-25.61074],[180,-25.61459]]}},{"type":"Feature","id":"+11230227:north:1","properties":{"id":"+11230227","year":1123,"month":2,"day":27,"time_tdt":"21:15:11","type":"개기일식","type_code":"Tm","saros":106,"gamma":-0.13125,"magnitude":1.02511,"greatest":{"lat":-13.12192,"lng":-129.31287},"path_width_km":86.1,"duration":"02m27s","delta_t_seconds":987.2,"catalog_number":7422,"source":"NASA Five Millennium Canon of Solar Eclipses","source_url":"https://eclipse.gsfc.nasa.gov/SEsearch/SEsearchmap.php?Ecl=%2B11230227","boundary":"north","name":"1123-02-27 개기일식"},"geometry":{"type":"LineString","coordinates":[[-179.5,-25.61684],[-179,-25.61746],[-178.5,-25.61644],[-178,-25.61374],[-177.5,-25.60936],[-177,-25.60327],[-176.5,-25.59545],[-176,-25.58587],[-175.5,-25.57451],[-175,-25.56136],[-174.5,-25.54637],[-174,-25.52954],[-173.5,-25.51084],[-173,-25.49024],[-172.5,-25.46772],[-172,-25.44325],[-171.5,-25.4168],[-171,-25.38835],[-170.5,-25.35788],[-170,-25.32535],[-169.5,-25.29074],[-169,-25.25402],[-168.5,-25.21515],[-168,-25.17412],[-167.5,-25.13089],[-167,-25.08543],[-166.5,-25.03771],[-166,-24.9877],[-165.5,-24.93537],[-165,-24.88068],[-164.5,-24.8236],[-164,-24.7641],[-163.5,-24.70214],[-163,-24.6377],[-162.5,-24.57073],[-162,-24.50119],[-161.5,-24.42906],[-161,-24.3543],[-160.5,-24.27686],[-160,-24.19672],[-159.5,-24.11383],[-159,-24.02815],[-158.5,-23.93965],[-158,-23.84828],[-157.5,-23.754],[-157,-23.65678],[-156.5,-23.55657],[-156,-23.45333],[-155.5,-23.34702],[-155,-23.23759],[-154.5,-23.125],[-154,-23.00922],[-153.5,-22.89019],[-153,-22.76788],[-152.5,-22.64223],[-152,-22.51321],[-151.5,-22.38078],[-151,-22.24488],[-150.5,-22.10548],[-150,-21.96253],[-149.5,-21.81598],[-149,-21.66581],[-148.5,-21.51196],[-148,-21.3544],[-147.5,-21.19309],[-147,-21.02798],[-146.5,-20.85904],[-146,-20.68623],[-145.5,-20.50952],[-145,-20.32888],[-144.5,-20.14428],[-144,-19.95568],[-143.5,-19.76306],[-143,-19.56641],[-142.5,-19.36569],[-142,-19.1609],[-141.5,-18.95202],[-141,-18.73904],[-140.5,-18.52196],[-140,-18.30078],[-139.5,-18.07551],[-139,-17.84615],[-138.5,-17.61273],[-138,-17.37526],[-137.5,-17.13379],[-137,-16.88833],[-136.5,-16.63894],[-136,-16.38568],[-135.5,-16.12858],[-135,-15.86774],[-134.5,-15.60321],[-134,-15.33509],[-133.5,-15.06347],[-133,-14.78845],[-132.5,-14.51013],[-132,-14.22864],[-131.5,-13.94411],[-131,-13.65667],[-130.5,-13.36648],[-130,-13.07367],[-129.5,-12.77841],[-129,-12.48088],[-128.5,-12.18125],[-128,-11.87969],[-127.5,-11.57641],[-127,-11.27158],[-126.5,-10.96542],[-126,-10.65811],[-125.5,-10.34987],[-125,-10.04089],[-124.5,-9.7314],[-124,-9.42159],[-123.5,-9.11167],[-123,-8.80185],[-122.5,-8.49233],[-122,-8.1833],[-121.5,-7.87498],[-121,-7.56754],[-120.5,-7.26117],[-120,-6.95607],[-119.5,-6.65238],[-119,-6.3503],[-118.5,-6.04997],[-118,-5.75155],[-117.5,-5.45518],[-117,-5.16101],[-116.5,-4.86915],[-116,-4.57973],[-115.5,-4.29286],[-115,-4.00865],[-114.5,-3.72719],[-114,-3.44857],[-113.5,-3.17286],[-113,-2.90015],[-112.5,-2.6305],[-112,-2.36396],[-111.5,-2.10059],[-111,-1.84043],[-110.5,-1.58353],[-110,-1.3299],[-109.5,-1.07958],[-109,-0.8326],[-108.5,-0.58897],[-108,-0.3487],[-107.5,-0.11179],[-107,0.12174],[-106.5,0.35189],[-106,0.57868],[-105.5,0.8021],[-105,1.02217],[-104.5,1.2389],[-104,1.45231],[-103.5,1.6624],[-103,1.86921],[-102.5,2.07274],[-102,2.27303],[-101.5,2.4701],[-101,2.66398],[-100.5,2.85468],[-100,3.04224],[-99.5,3.22669],[-99,3.40806],[-98.5,3.58638],[-98,3.76167],[-97.5,3.93397],[-97,4.10332],[-96.5,4.26974],[-96,4.43327],[-95.5,4.59393],[-95,4.75177],[-94.5,4.90681],[-94,5.05908],[-93.5,5.20863],[-93,5.35548],[-92.5,5.49966],[-92,5.64121],[-91.5,5.78015],[-91,5.91653],[-90.5,6.05037],[-90,6.1817],[-89.5,6.31056],[-89,6.43697],[-88.5,6.56096],[-88,6.68257],[-87.5,6.80183],[-87,6.91876],[-86.5,7.03339],[-86,7.14575],[-85.5,7.25588],[-85,7.36379],[-84.5,7.46951],[-84,7.57308],[-83.5,7.67451],[-83,7.77384],[-82.5,7.87109],[-82,7.96629],[-81.5,8.05945],[-81,8.15061],[-80.5,8.23979],[-80,8.32702],[-79.5,8.41231],[-79,8.49569],[-78.5,8.57718],[-78,8.65681],[-77.5,8.7346],[-77,8.81056],[-76.5,8.88472],[-76,8.95711],[-75.5,9.02773],[-75,9.09662],[-74.5,9.16379],[-74,9.22926],[-73.5,9.29305],[-73,9.35518],[-72.5,9.41567],[-72,9.47453],[-71.5,9.53179],[-71,9.58746],[-70.5,9.64156],[-70,9.69411],[-69.5,9.74512],[-69.0332,9.79137]]}},{"type":"Feature","id":"+11230227:center:0","properties":{"id":"+11230227","year":1123,"month":2,"day":27,"time_tdt":"21:15:11","type":"개기일식","type_code":"Tm","saros":106,"gamma":-0.13125,"magnitude":1.02511,"greatest":{"lat":-13.12192,"lng":-129.31287},"path_width_km":86.1,"duration":"02m27s","delta_t_seconds":987.2,"catalog_number":7422,"source":"NASA Five Millennium Canon of Solar Eclipses","source_url":"https://eclipse.gsfc.nasa.gov/SEsearch/SEsearchmap.php?Ecl=%2B11230227","boundary":"center","name":"1123-02-27 개기일식"},"geometry":{"type":"LineString","coordinates":[[162.10717,-24.72552],[162.5,-24.76568],[163,-24.81604],[163.5,-24.86534],[164,-24.91357],[164.5,-24.96072],[165,-25.00678],[165.5,-25.05172],[166,-25.09554],[166.5,-25.13823],[167,-25.17976],[167.5,-25.22014],[168,-25.25933],[168.5,-25.29733],[169,-25.33413],[169.5,-25.3697],[170,-25.40404],[170.5,-25.43713],[171,-25.46895],[171.5,-25.49948],[172,-25.52872],[172.5,-25.55665],[173,-25.58324],[173.5,-25.60849],[174,-25.63238],[174.5,-25.65489],[175,-25.676],[175.5,-25.6957],[176,-25.71396],[177,-25.74613],[177.5,-25.76],[178,-25.77236],[178.5,-25.7832],[176.5,-25.73093],[179,-25.7925],[179.5,-25.80024],[180,-25.80639]]}},{"type":"Feature","id":"+11230227:center:1","properties":{"id":"+11230227","year":1123,"month":2,"day":27,"time_tdt":"21:15:11","type":"개기일식","type_code":"Tm","saros":106,"gamma":-0.13125,"magnitude":1.02511,"greatest":{"lat":-13.12192,"lng":-129.31287},"path_width_km":86.1,"duration":"02m27s","delta_t_seconds":987.2,"catalog_number":7422,"source":"NASA Five Millennium Canon of Solar Eclipses","source_url":"https://eclipse.gsfc.nasa.gov/SEsearch/SEsearchmap.php?Ecl=%2B11230227","boundary":"center","name":"1123-02-27 개기일식"},"geometry":{"type":"LineString","coordinates":[[-179.5,-25.81095],[-179,-25.81389],[-178.5,-25.81518],[-178,-25.81481],[-177.5,-25.81276],[-177,-25.80901],[-176.5,-25.80352],[-176,-25.79629],[-175.5,-25.78728],[-175,-25.77648],[-174.5,-25.76386],[-174,-25.7494],[-173.5,-25.73308],[-173,-25.71486],[-172.5,-25.69472],[-172,-25.67265],[-171.5,-25.64861],[-171,-25.62257],[-170.5,-25.59451],[-170,-25.56441],[-169.5,-25.53223],[-169,-25.49795],[-168.5,-25.46154],[-168,-25.42296],[-167.5,-25.3822],[-167,-25.33921],[-166.5,-25.29398],[-166,-25.24646],[-165.5,-25.19663],[-165,-25.14445],[-164.5,-25.0899],[-164,-25.03293],[-163.5,-24.97352],[-163,-24.91163],[-162.5,-24.84723],[-162,-24.78027],[-161.5,-24.71073],[-161,-24.63857],[-160.5,-24.56375],[-160,-24.48623],[-159.5,-24.40598],[-159,-24.32295],[-158.5,-24.23711],[-158,-24.14842],[-157.5,-24.05684],[-157,-23.96232],[-156.5,-23.86483],[-156,-23.76433],[-155.5,-23.66077],[-155,-23.5541],[-154.5,-23.4443],[-154,-23.33131],[-153.5,-23.21509],[-153,-23.0956],[-152.5,-22.9728],[-152,-22.84664],[-151.5,-22.71707],[-151,-22.58406],[-150.5,-22.44755],[-150,-22.30752],[-149.5,-22.1639],[-149,-22.01667],[-148.5,-21.86578],[-148,-21.71118],[-147.5,-21.55285],[-147,-21.39073],[-146.5,-21.22479],[-146,-21.05499],[-145.5,-20.88129],[-145,-20.70367],[-144.5,-20.5221],[-144,-20.33653],[-143.5,-20.14694],[-143,-19.95331],[-142.5,-19.75562],[-142,-19.55385],[-141.5,-19.34798],[-141,-19.138],[-140.5,-18.92391],[-140,-18.70569],[-139.5,-18.48336],[-139,-18.25692],[-138.5,-18.02639],[-138,-17.79177],[-137.5,-17.55311],[-137,-17.31042],[-136.5,-17.06375],[-136,-16.81314],[-135.5,-16.55865],[-135,-16.30034],[-134.5,-16.03827],[-134,-15.77253],[-133.5,-15.5032],[-133,-15.23037],[-132.5,-14.95416],[-132,-14.67467],[-131.5,-14.39202],[-131,-14.10635],[-130.5,-13.81779],[-130,-13.52649],[-129.5,-13.2326],[-129,-12.9363],[-128.5,-12.63774],[-128,-12.33711],[-127.5,-12.03459],[-127,-11.73037],[-126.5,-11.42465],[-126,-11.11762],[-125.5,-10.80948],[-125,-10.50045],[-124.5,-10.19072],[-124,-9.8805],[-123.5,-9.57],[-123,-9.25943],[-122.5,-8.94899],[-122,-8.63888],[-121.5,-8.32931],[-121,-8.02047],[-120.5,-7.71254],[-120,-7.40572],[-119.5,-7.10018],[-119,-6.79609],[-118.5,-6.49362],[-118,-6.19294],[-117.5,-5.89418],[-117,-5.59749],[-116.5,-5.30302],[-116,-5.01087],[-115.5,-4.72118],[-115,-4.43405],[-114.5,-4.14959],[-114,-3.86789],[-113.5,-3.58903],[-113,-3.31309],[-112.5,-3.04015],[-112,-2.77027],[-111.5,-2.50351],[-111,-2.23991],[-110.5,-1.97952],[-110,-1.72238],[-109.5,-1.46851],[-109,-1.21795],[-108.5,-0.97072],[-108,-0.72682],[-107.5,-0.48628],[-107,-0.2491],[-106.5,-0.01528],[-106,0.21517],[-105.5,0.44227],[-105,0.66602],[-104.5,0.88642],[-104,1.10349],[-103.5,1.31726],[-103,1.52772],[-102.5,1.73491],[-102,1.93884],[-101.5,2.13954],[-101,2.33703],[-100.5,2.53134],[-100,2.7225],[-99.5,2.91052],[-99,3.09545],[-98.5,3.27731],[-98,3.45613],[-97.5,3.63194],[-97,3.80477],[-96.5,3.97466],[-96,4.14163],[-95.5,4.30572],[-95,4.46697],[-94.5,4.62539],[-94,4.78104],[-93.5,4.93393],[-93,5.0841],[-92.5,5.23159],[-92,5.37642],[-91.5,5.51863],[-91,5.65824],[-90.5,5.7953],[-90,5.92983],[-89.5,6.06187],[-89,6.19143],[-88.5,6.31857],[-88,6.44329],[-87.5,6.56564],[-87,6.68564],[-86.5,6.80333],[-86,6.91873],[-85.5,7.03186],[-85,7.14277],[-84.5,7.25147],[-84,7.35799],[-83.5,7.46236],[-83,7.56461],[-82.5,7.66475],[-82,7.76283],[-81.5,7.85885],[-81,7.95286],[-80.5,8.04486],[-80,8.13489],[-79.5,8.22297],[-79,8.30912],[-78.5,8.39337],[-78,8.47573],[-77.5,8.55624],[-77,8.6349],[-76.5,8.71175],[-76,8.7868],[-75.5,8.86008],[-75,8.93161],[-74.5,9.0014],[-74,9.06947],[-73.5,9.13585],[-73,9.20056],[-72.5,9.2636],[-72,9.32501],[-71.5,9.3848],[-71,9.44298],[-70.5,9.49958],[-70,9.55461],[-69.5,9.60809],[-69.00883,9.6594]]}},{"type":"Feature","id":"+11230227:south:0","properties":{"id":"+11230227","year":1123,"month":2,"day":27,"time_tdt":"21:15:11","type":"개기일식","type_code":"Tm","saros":106,"gamma":-0.13125,"magnitude":1.02511,"greatest":{"lat":-13.12192,"lng":-129.31287},"path_width_km":86.1,"duration":"02m27s","delta_t_seconds":987.2,"catalog_number":7422,"source":"NASA Five Millennium Canon of Solar Eclipses","source_url":"https://eclipse.gsfc.nasa.gov/SEsearch/SEsearchmap.php?Ecl=%2B11230227","boundary":"south","name":"1123-02-27 개기일식"},"geometry":{"type":"LineString","coordinates":[[162.08398,-24.83526],[162.5,-24.87975],[163,-24.93226],[163.5,-24.98372],[164,-25.03412],[164.5,-25.08344],[165,-25.13166],[165.5,-25.17878],[166,-25.22479],[166.5,-25.26966],[167,-25.31338],[167.5,-25.35595],[168,-25.39734],[168.5,-25.43754],[169,-25.47655],[169.5,-25.51433],[170,-25.55088],[170.5,-25.58618],[171,-25.62022],[171.5,-25.65299],[172,-25.68445],[172.5,-25.71461],[173,-25.74345],[173.5,-25.77094],[174,-25.79707],[174.5,-25.82183],[175,-25.84519],[175.5,-25.86715],[176,-25.88767],[176.5,-25.90676],[177,-25.92438],[177.5,-25.94052],[178,-25.95516],[178.5,-25.96828],[179,-25.97987],[179.5,-25.98989],[180,-25.99835]]}},{"type":"Feature","id":"+11230227:south:1","properties":{"id":"+11230227","year":1123,"month":2,"day":27,"time_tdt":"21:15:11","type":"개기일식","type_code":"Tm","saros":106,"gamma":-0.13125,"magnitude":1.02511,"greatest":{"lat":-13.12192,"lng":-129.31287},"path_width_km":86.1,"duration":"02m27s","delta_t_seconds":987.2,"catalog_number":7422,"source":"NASA Five Millennium Canon of Solar Eclipses","source_url":"https://eclipse.gsfc.nasa.gov/SEsearch/SEsearchmap.php?Ecl=%2B11230227","boundary":"south","name":"1123-02-27 개기일식"},"geometry":{"type":"LineString","coordinates":[[-179.5,-26.0052],[-179,-26.01045],[-178.5,-26.01405],[-178,-26.016],[-177.5,-26.01626],[-177,-26.01483],[-176.5,-26.01168],[-176,-26.00678],[-175.5,-26.00012],[-175,-25.99166],[-174.5,-25.9814],[-174,-25.96929],[-173.5,-25.95533],[-173,-25.93948],[-172.5,-25.92172],[-172,-25.90203],[-171.5,-25.88038],[-171,-25.85674],[-170.5,-25.83109],[-170,-25.80339],[-169.5,-25.77363],[-169,-25.74177],[-168.5,-25.70779],[-168,-25.67166],[-167.5,-25.63335],[-167,-25.59282],[-166.5,-25.55005],[-166,-25.50501],[-165.5,-25.45766],[-165,-25.40798],[-164.5,-25.35593],[-164,-25.30148],[-163.5,-25.24459],[-163,-25.18523],[-162.5,-25.12337],[-162,-25.05898],[-161.5,-24.992],[-161,-24.92242],[-160.5,-24.85019],[-160,-24.77527],[-159.5,-24.69764],[-159,-24.61724],[-158.5,-24.53404],[-158,-24.44801],[-157.5,-24.35909],[-157,-24.26726],[-156.5,-24.17247],[-156,-24.07467],[-155.5,-23.97383],[-155,-23.86991],[-154.5,-23.76286],[-154,-23.65264],[-153.5,-23.53921],[-153,-23.42251],[-152.5,-23.30252],[-152,-23.17919],[-151.5,-23.05246],[-151,-22.92231],[-150.5,-22.78868],[-150,-22.65153],[-149.5,-22.51081],[-149,-22.3665],[-148.5,-22.21853],[-148,-22.06688],[-147.5,-21.91149],[-147,-21.75233],[-146.5,-21.58937],[-146,-21.42255],[-145.5,-21.25185],[-145,-21.07723],[-144.5,-20.89866],[-144,-20.7161],[-143.5,-20.52952],[-143,-20.3389],[-142.5,-20.14422],[-142,-19.94545],[-141.5,-19.74258],[-141,-19.53559],[-140.5,-19.32447],[-140,-19.10921],[-139.5,-18.88982],[-139,-18.6663],[-138.5,-18.43865],[-138,-18.20689],[-137.5,-17.97105],[-137,-17.73114],[-136.5,-17.4872],[-136,-17.23927],[-135.5,-16.98741],[-135,-16.73165],[-134.5,-16.47208],[-134,-16.20875],[-133.5,-15.94176],[-133,-15.67118],[-132.5,-15.39711],[-132,-15.11967],[-131.5,-14.83896],[-131,-14.55512],[-130.5,-14.26826],[-130,-13.97854],[-129.5,-13.6861],[-129,-13.39111],[-128.5,-13.09371],[-128,-12.7941],[-127.5,-12.49244],[-127,-12.18892],[-126.5,-11.88373],[-126,-11.57708],[-125.5,-11.26915],[-125,-10.96014],[-124.5,-10.65028],[-124,-10.33975],[-123.5,-10.02877],[-123,-9.71755],[-122.5,-9.40629],[-122,-9.0952],[-121.5,-8.78447],[-121,-8.47431],[-120.5,-8.16491],[-120,-7.85646],[-119.5,-7.54914],[-119,-7.24313],[-118.5,-6.9386],[-118,-6.63571],[-117.5,-6.33463],[-117,-6.03549],[-116.5,-5.73845],[-116,-5.44363],[-115.5,-5.15117],[-115,-4.86116],[-114.5,-4.57374],[-114,-4.28898],[-113.5,-4.007],[-113,-3.72786],[-112.5,-3.45166],[-112,-3.17845],[-111.5,-2.9083],[-111,-2.64127],[-110.5,-2.37741],[-110,-2.11675],[-109.5,-1.85933],[-109,-1.60519],[-108.5,-1.35435],[-108,-1.10683],[-107.5,-0.86264],[-107,-0.62179],[-106.5,-0.3843],[-106,-0.15016],[-105.5,0.08062],[-105,0.30806],[-104.5,0.53216],[-104,0.75293],[-103.5,0.97038],[-103,1.18453],[-102.5,1.39539],[-102,1.60299],[-101.5,1.80735],[-101,2.00849],[-100.5,2.20643],[-100,2.4012],[-99.5,2.59283],[-99,2.78134],[-98.5,2.96677],[-98,3.14914],[-97.5,3.32849],[-97,3.50484],[-96.5,3.67822],[-96,3.84867],[-95.5,4.01622],[-95,4.1809],[-94.5,4.34274],[-94,4.50178],[-93.5,4.65804],[-93,4.81157],[-92.5,4.96239],[-92,5.11053],[-91.5,5.25602],[-91,5.39891],[-90.5,5.53921],[-90,5.67696],[-89.5,5.8122],[-89,5.94495],[-88.5,6.07524],[-88,6.2031],[-87.5,6.32857],[-87,6.45167],[-86.5,6.57243],[-86,6.69089],[-85.5,6.80706],[-85,6.92098],[-84.5,7.03267],[-84,7.14217],[-83.5,7.2495],[-83,7.35468],[-82.5,7.45774],[-82,7.55872],[-81.5,7.65762],[-81,7.75449],[-80.5,7.84933],[-80,7.94218],[-79.5,8.03307],[-79,8.12201],[-78.5,8.20902],[-78,8.29414],[-77.5,8.37738],[-77,8.45876],[-76.5,8.53831],[-76,8.61605],[-75.5,8.692],[-75,8.76617],[-74.5,8.8386],[-74,8.90929],[-73.5,8.97827],[-73,9.04556],[-72.5,9.11118],[-72,9.17514],[-71.5,9.23747],[-71,9.29818],[-70.5,9.35729],[-70,9.41482],[-69.5,9.47078],[-69,9.52519],[-68.98438,9.52686]]}},{"type":"Feature","id":"+11230822:north:0","properties":{"id":"+11230822","year":1123,"month":8,"day":22,"time_tdt":"23:36:13","type":"혼성일식","type_code":"H","saros":111,"gamma":0.03908,"magnitude":1.00161,"greatest":{"lat":11.91102,"lng":-169.27875},"path_width_km":5.6,"duration":"00m10s","delta_t_seconds":985.3,"catalog_number":7423,"source":"NASA Five Millennium Canon of Solar Eclipses","source_url":"https://eclipse.gsfc.nasa.gov/SEsearch/SEsearchmap.php?Ecl=%2B11230822","boundary":"north","name":"1123-08-22 혼성일식"},"geometry":{"type":"LineString","coordinates":[[124.5,18.17676],[125,18.26012],[125.5,18.34261],[126,18.42421],[126.5,18.50489],[127,18.58465],[127.5,18.66347],[128,18.74133],[128.5,18.81822],[129,18.89412],[129.5,18.96902],[130,19.04289],[130.5,19.11573],[131,19.1875],[131.5,19.25821],[132,19.32782],[132.5,19.39633],[133,19.4637],[133.5,19.52993],[134,19.595],[134.5,19.65888],[135,19.72157],[135.5,19.78302],[136,19.84324],[136.5,19.9022],[137,19.95987],[137.5,20.01624],[138,20.07129],[138.5,20.12499],[139,20.17733],[139.5,20.22828],[140,20.27782],[140.5,20.32592],[141,20.37257],[141.5,20.41774],[142,20.46141],[142.5,20.50355],[143,20.54414],[143.5,20.58315],[144,20.62057],[144.5,20.65635],[145,20.69049],[145.5,20.72294],[146,20.75369],[146.5,20.78271],[147,20.80997],[147.5,20.83543],[148,20.85908],[148.5,20.88089],[149,20.90082],[149.5,20.91884],[150,20.93492],[150.5,20.94904],[151,20.96116],[151.5,20.97125],[152,20.97927],[152.5,20.98519],[153,20.98899],[153.5,20.99061],[154,20.99004],[154.5,20.98723],[155,20.98214],[155.5,20.97475],[156,20.96501],[156.5,20.95288],[157,20.93832],[157.5,20.92131],[158,20.90178],[158.5,20.87971],[159,20.85506],[159.5,20.82777],[160,20.79781],[160.5,20.76513],[161,20.72969],[161.5,20.69144],[162,20.65034],[162.5,20.60634],[163,20.55939],[163.5,20.50944],[164,20.45646],[164.5,20.40037],[165,20.34114],[165.5,20.27872],[166,20.21304],[166.5,20.14407],[167,20.07175],[167.5,19.99601],[168,19.91682],[168.5,19.83411],[169,19.74783],[169.5,19.65792],[170,19.56433],[170.5,19.467],[171,19.36588],[171.5,19.2609],[172,19.15202],[172.5,19.03917],[173,18.9223],[173.5,18.80136],[174,18.67628],[174.5,18.54702],[175,18.41352],[175.5,18.27751],[176,18.13865],[176.5,17.99534],[177,17.84751],[177.5,17.69513],[178,17.53815],[178.5,17.37651],[179,17.21018],[179.5,17.03913],[180,16.8633]]}},{"type":"Feature","id":"+11230822:north:1","properties":{"id":"+11230822","year":1123,"month":8,"day":22,"time_tdt":"23:36:13","type":"혼성일식","type_code":"H","saros":111,"gamma":0.03908,"magnitude":1.00161,"greatest":{"lat":11.91102,"lng":-169.27875},"path_width_km":5.6,"duration":"00m10s","delta_t_seconds":985.3,"catalog_number":7423,"source":"NASA Five Millennium Canon of Solar Eclipses","source_url":"https://eclipse.gsfc.nasa.gov/SEsearch/SEsearchmap.php?Ecl=%2B11230822","boundary":"north","name":"1123-08-22 혼성일식"},"geometry":{"type":"LineString","coordinates":[[-179.5,16.68268],[-179,16.49722],[-178.5,16.30692],[-178,16.11175],[-177.5,15.91169],[-177,15.70673],[-176.5,15.49689],[-176,15.28215],[-175.5,15.06254],[-175,14.83807],[-174.5,14.60877],[-174,14.37467],[-173.5,14.13582],[-173,13.89227],[-172.5,13.64409],[-172,13.39135],[-171.5,13.13413],[-171,12.87252],[-170.5,12.60663],[-170,12.33657],[-169.5,12.06247],[-169,11.78446],[-168.5,11.50269],[-168,11.2173],[-167.5,10.92847],[-167,10.63638],[-166.5,10.34119],[-166,10.04311],[-165.5,9.74233],[-165,9.43906],[-164.5,9.13351],[-164,8.82588],[-163.5,8.51642],[-163,8.20533],[-162.5,7.89284],[-162,7.57917],[-161.5,7.26456],[-161,6.94924],[-160.5,6.63341],[-160,6.31731],[-159.5,6.00114],[-159,5.68513],[-158.5,5.36948],[-158,5.05485],[-157.5,4.74522],[-157,4.43668],[-156.5,4.12938],[-156,3.82349],[-155.5,3.51918],[-155,3.21658],[-154.5,2.91584],[-154,2.61709],[-153.5,2.32045],[-153,2.02603],[-152.5,1.73393],[-152,1.44426],[-151.5,1.1571],[-151,0.87254],[-150.5,0.59065],[-150,0.31148],[-149.5,0.03511],[-149,-0.23841],[-148.5,-0.50905],[-148,-0.77675],[-147.5,-1.04149],[-147,-1.30323],[-146.5,-1.56196],[-146,-1.81765],[-145.5,-2.07028],[-145,-2.31985],[-144.5,-2.56636],[-144,-2.80979],[-143.5,-3.05015],[-143,-3.28744],[-142.5,-3.52167],[-142,-3.75284],[-141.5,-3.98097],[-141,-4.20607],[-140.5,-4.42815],[-140,-4.64723],[-139.5,-4.86334],[-139,-5.07648],[-138.5,-5.28669],[-138,-5.49397],[-137.5,-5.69837],[-137,-5.89989],[-136.5,-6.09857],[-136,-6.29443],[-135.5,-6.4875],[-135,-6.6778],[-134.5,-6.86536],[-134,-7.05021],[-133.5,-7.23238],[-133,-7.41189],[-132.5,-7.58877],[-132,-7.76305],[-131.5,-7.93476],[-131,-8.10393],[-130.5,-8.27058],[-130,-8.43474],[-129.5,-8.59644],[-129,-8.75571],[-128.5,-8.91258],[-128,-9.06707],[-127.5,-9.21921],[-127,-9.36903],[-126.5,-9.51655],[-126,-9.66181],[-125.5,-9.80482],[-125,-9.94561],[-124.5,-10.08421],[-124,-10.22065],[-123.5,-10.35494],[-123,-10.48712],[-122.5,-10.6172],[-122,-10.74522],[-121.5,-10.87119],[-121,-10.99514],[-120.5,-11.1171],[-120,-11.23708],[-119.5,-11.3551],[-119,-11.4712],[-118.5,-11.58539],[-118,-11.69769],[-117.5,-11.80812],[-117,-11.91671],[-116.5,-12.02347],[-116,-12.12842],[-115.5,-12.2316],[-115,-12.333],[-114.5,-12.43266],[-114,-12.53059],[-113.5,-12.62682],[-113,-12.72135],[-112.5,-12.81421],[-112,-12.90541],[-111.5,-12.99498],[-111,-13.08292],[-110.5,-13.16926],[-110,-13.25402],[-109.79102,-13.28897]]}},{"type":"Feature","id":"+11230822:center:0","properties":{"id":"+11230822","year":1123,"month":8,"day":22,"time_tdt":"23:36:13","type":"혼성일식","type_code":"H","saros":111,"gamma":0.03908,"magnitude":1.00161,"greatest":{"lat":11.91102,"lng":-169.27875},"path_width_km":5.6,"duration":"00m10s","delta_t_seconds":985.3,"catalog_number":7423,"source":"NASA Five Millennium Canon of Solar Eclipses","source_url":"https://eclipse.gsfc.nasa.gov/SEsearch/SEsearchmap.php?Ecl=%2B11230822","boundary":"center","name":"1123-08-22 혼성일식"},"geometry":{"type":"LineString","coordinates":[[124.51019,17.94805],[125,18.03145],[125.5,18.11634],[126,18.20034],[126.5,18.28343],[127,18.3656],[127.5,18.44683],[128,18.52712],[128.5,18.60643],[129,18.68475],[129.5,18.76208],[130,18.83839],[130.5,18.91366],[131,18.98787],[131.5,19.06102],[132,19.13308],[132.5,19.20403],[133,19.27385],[133.5,19.34253],[134,19.41005],[134.5,19.47638],[135,19.54152],[135.5,19.60543],[136,19.66811],[136.5,19.72952],[137,19.78965],[137.5,19.84848],[138,19.90598],[138.5,19.96214],[139,20.01694],[139.5,20.07034],[140,20.12233],[140.5,20.17289],[141,20.22199],[141.5,20.26962],[142,20.31573],[142.5,20.36032],[143,20.40335],[143.5,20.44481],[144,20.48466],[144.5,20.52289],[145,20.55946],[145.5,20.59434],[146,20.62752],[146.5,20.65896],[147,20.68863],[147.5,20.71652],[148,20.74258],[148.5,20.76679],[149,20.78912],[149.5,20.80953],[150,20.82801],[150.5,20.84451],[151,20.85901],[151.5,20.87147],[152,20.88186],[152.5,20.89014],[153,20.89629],[153.5,20.90026],[154,20.90202],[154.5,20.90154],[155,20.89878],[155.5,20.89369],[156,20.88626],[156.5,20.87642],[157,20.86416],[157.5,20.84942],[158,20.83216],[158.5,20.81235],[159,20.78994],[159.5,20.76489],[160,20.73716],[160.5,20.7067],[161,20.67346],[161.5,20.63741],[162,20.59849],[162.5,20.55665],[163,20.51186],[163.5,20.46406],[164,20.4132],[164.5,20.35923],[165,20.30211],[165.5,20.24177],[166,20.17817],[166.5,20.11125],[167,20.04096],[167.5,19.96725],[168,19.89007],[168.5,19.80935],[169,19.72504],[169.5,19.63708],[170,19.54543],[170.5,19.45001],[171,19.35078],[171.5,19.24768],[172,19.14065],[172.5,19.02963],[173,18.91456],[173.5,18.7954],[174,18.67208],[174.5,18.54454],[175,18.41274],[175.5,18.27662],[176,18.13612],[176.5,17.9912],[177,17.8418],[177.5,17.68787],[178,17.52938],[178.5,17.36628],[179,17.19852],[179.5,17.02607],[180,16.84889]]}},{"type":"Feature","id":"+11230822:center:1","properties":{"id":"+11230822","year":1123,"month":8,"day":22,"time_tdt":"23:36:13","type":"혼성일식","type_code":"H","saros":111,"gamma":0.03908,"magnitude":1.00161,"greatest":{"lat":11.91102,"lng":-169.27875},"path_width_km":5.6,"duration":"00m10s","delta_t_seconds":985.3,"catalog_number":7423,"source":"NASA Five Millennium Canon of Solar Eclipses","source_url":"https://eclipse.gsfc.nasa.gov/SEsearch/SEsearchmap.php?Ecl=%2B11230822","boundary":"center","name":"1123-08-22 혼성일식"},"geometry":{"type":"LineString","coordinates":[[-179.5,16.66696],[-179,16.48025],[-178.5,16.28873],[-178,16.0924],[-177.5,15.89123],[-177,15.68522],[-176.5,15.47437],[-176,15.2587],[-175.5,15.03821],[-175,14.81292],[-174.5,14.58287],[-174,14.3481],[-173.5,14.10865],[-173,13.86457],[-172.5,13.61594],[-172,13.36283],[-171.5,13.10532],[-171,12.84351],[-170.5,12.57751],[-170,12.30744],[-169.5,12.03341],[-169,11.75557],[-168.5,11.47406],[-168,11.18905],[-167.5,10.90069],[-167,10.60917],[-166.5,10.31466],[-166,10.01735],[-165.5,9.71746],[-165,9.41517],[-164.5,9.11071],[-164,8.80429],[-163.5,8.49612],[-163,8.18643],[-162.5,7.87544],[-162,7.56338],[-161.5,7.25046],[-161,6.93692],[-160.5,6.62298],[-160,6.30884],[-159.5,5.99473],[-159,5.68086],[-158.5,5.36742],[-158,5.05462],[-157.5,4.74265],[-157,4.43168],[-156.5,4.12191],[-156,3.81349],[-155.5,3.50658],[-155,3.20134],[-154.5,2.89791],[-154,2.59642],[-153.5,2.297],[-153,1.99977],[-152.5,1.70483],[-152,1.41228],[-151.5,1.12222],[-151,0.83473],[-150.5,0.54989],[-150,0.26777],[-149.5,-0.01159],[-149,-0.2881],[-148.5,-0.56174],[-148,-0.83246],[-147.5,-1.10022],[-147,-1.36499],[-146.5,-1.62674],[-146,-1.88546],[-145.5,-2.14112],[-145,-2.39372],[-144.5,-2.64325],[-144,-2.8897],[-143.5,-3.13308],[-143,-3.37338],[-142.5,-3.61061],[-142,-3.84477],[-141.5,-4.07589],[-141,-4.30396],[-140.5,-4.52901],[-140,-4.75105],[-139.5,-4.9701],[-139,-5.18617],[-138.5,-5.3993],[-138,-5.60949],[-137.5,-5.81678],[-137,-6.02118],[-136.5,-6.22273],[-136,-6.42144],[-135.5,-6.61735],[-135,-6.81048],[-134.5,-7.00085],[-134,-7.1885],[-133.5,-7.37345],[-133,-7.55573],[-132.5,-7.73537],[-132,-7.91239],[-131.5,-8.08683],[-131,-8.25871],[-130.5,-8.42806],[-130,-8.5949],[-129.5,-8.75928],[-129,-8.9212],[-128.5,-9.08071],[-128,-9.23783],[-127.5,-9.39258],[-127,-9.545],[-126.5,-9.6951],[-126,-9.84293],[-125.5,-9.9885],[-125,-10.13183],[-124.5,-10.27296],[-124,-10.41191],[-123.5,-10.54871],[-123,-10.68338],[-122.5,-10.81594],[-122,-10.94642],[-121.5,-11.07484],[-121,-11.20123],[-120.5,-11.32561],[-120,-11.448],[-119.5,-11.56842],[-119,-11.6869],[-118.5,-11.80346],[-118,-11.91812],[-117.5,-12.0309],[-117,-12.14182],[-116.5,-12.25091],[-116,-12.35818],[-115.5,-12.46365],[-115,-12.56734],[-114.5,-12.66928],[-114,-12.76948],[-113.5,-12.86795],[-113,-12.96473],[-112.5,-13.05982],[-112,-13.15324],[-111.5,-13.24501],[-111,-13.33515],[-110.5,-13.42368],[-110,-13.51061],[-109.84628,-13.53538]]}},{"type":"Feature","id":"+11230822:south:0","properties":{"id":"+11230822","year":1123,"month":8,"day":22,"time_tdt":"23:36:13","type":"혼성일식","type_code":"H","saros":111,"gamma":0.03908,"magnitude":1.00161,"greatest":{"lat":11.91102,"lng":-169.27875},"path_width_km":5.6,"duration":"00m10s","delta_t_seconds":985.3,"catalog_number":7423,"source":"NASA Five Millennium Canon of Solar Eclipses","source_url":"https://eclipse.gsfc.nasa.gov/SEsearch/SEsearchmap.php?Ecl=%2B11230822","boundary":"south","name":"1123-08-22 혼성일식"},"geometry":{"type":"LineString","coordinates":[[124.56445,17.72566],[125,17.80241],[125.5,17.8897],[126,17.9761],[126.5,18.06161],[127,18.1462],[127.5,18.22985],[128,18.31256],[128.5,18.3943],[129,18.47507],[129.5,18.55483],[130,18.63357],[130.5,18.71129],[131,18.78795],[131.5,18.86355],[132,18.93805],[132.5,19.01146],[133,19.08374],[133.5,19.15488],[134,19.22485],[134.5,19.29365],[135,19.36125],[135.5,19.42762],[136,19.49276],[136.5,19.55664],[137,19.61923],[137.5,19.68052],[138,19.74049],[138.5,19.79912],[139,19.85638],[139.5,19.91224],[140,19.9667],[140.5,20.01972],[141,20.07128],[141.5,20.12136],[142,20.16993],[142.5,20.21697],[143,20.26246],[143.5,20.30637],[144,20.34867],[144.5,20.38933],[145,20.42834],[145.5,20.46566],[146,20.50127],[146.5,20.53514],[147,20.56724],[147.5,20.59755],[148,20.62603],[148.5,20.65265],[149,20.67738],[149.5,20.7002],[150,20.72107],[150.5,20.73996],[151,20.75684],[151.5,20.77168],[152,20.78444],[152.5,20.79508],[153,20.80358],[153.5,20.8099],[154,20.81401],[154.5,20.81586],[155,20.81542],[155.5,20.81266],[156,20.80753],[156.5,20.8],[157,20.79002],[157.5,20.77756],[158,20.76258],[158.5,20.74502],[159,20.72487],[159.5,20.70205],[160,20.67655],[160.5,20.6483],[161,20.61728],[161.5,20.58341],[162,20.54668],[162.5,20.50701],[163,20.46438],[163.5,20.41872],[164,20.36999],[164.5,20.31814],[165,20.26311],[165.5,20.20486],[166,20.14333],[166.5,20.07847],[167,20.01022],[167.5,19.93854],[168,19.86335],[168.5,19.78462],[169,19.70228],[169.5,19.61628],[170,19.52655],[170.5,19.43305],[171,19.33571],[171.5,19.23448],[172,19.1293],[172.5,19.0201],[173,18.90684],[173.5,18.78945],[174,18.66788],[174.5,18.54207],[175,18.41197],[175.5,18.27572],[176,18.13358],[176.5,17.98705],[177,17.83607],[177.5,17.6806],[178,17.5206],[178.5,17.35603],[179,17.18683],[179.5,17.01299],[180,16.83446]]}},{"type":"Feature","id":"+11230822:south:1","properties":{"id":"+11230822","year":1123,"month":8,"day":22,"time_tdt":"23:36:13","type":"혼성일식","type_code":"H","saros":111,"gamma":0.03908,"magnitude":1.00161,"greatest":{"lat":11.91102,"lng":-169.27875},"path_width_km":5.6,"duration":"00m10s","delta_t_seconds":985.3,"catalog_number":7423,"source":"NASA Five Millennium Canon of Solar Eclipses","source_url":"https://eclipse.gsfc.nasa.gov/SEsearch/SEsearchmap.php?Ecl=%2B11230822","boundary":"south","name":"1123-08-22 혼성일식"},"geometry":{"type":"LineString","coordinates":[[-179.5,16.65122],[-179,16.46325],[-178.5,16.27052],[-178,16.07302],[-177.5,15.87074],[-177,15.66367],[-176.5,15.45183],[-176,15.23521],[-175.5,15.01384],[-175,14.78774],[-174.5,14.55695],[-174,14.3215],[-173.5,14.08145],[-173,13.83685],[-172.5,13.58777],[-172,13.33429],[-171.5,13.0765],[-171,12.8145],[-170.5,12.54839],[-170,12.2783],[-169.5,12.00435],[-169,11.72668],[-168.5,11.44545],[-168,11.16081],[-167.5,10.87292],[-167,10.58197],[-166.5,10.28814],[-166,9.99162],[-165.5,9.69261],[-165,9.39132],[-164.5,9.08795],[-164,8.78272],[-163.5,8.47585],[-163,8.16756],[-162.5,7.85808],[-162,7.54761],[-161.5,7.23639],[-161,6.92464],[-160.5,6.61257],[-160,6.3004],[-159.5,5.98834],[-159,5.6766],[-158.5,5.36537],[-158,5.0544],[-157.5,4.74006],[-157,4.42667],[-156.5,4.11441],[-156,3.80344],[-155.5,3.49393],[-155,3.18604],[-154.5,2.8799],[-154,2.57567],[-153.5,2.27346],[-153,1.9734],[-152.5,1.67561],[-152,1.38017],[-151.5,1.0872],[-151,0.79677],[-150.5,0.50897],[-150,0.22387],[-149.5,-0.05848],[-149,-0.338],[-148.5,-0.61466],[-148,-0.8884],[-147.5,-1.15919],[-147,-1.427],[-146.5,-1.69179],[-146,-1.95355],[-145.5,-2.21226],[-145,-2.4679],[-144.5,-2.72046],[-144,-2.96995],[-143.5,-3.21635],[-143,-3.45967],[-142.5,-3.69991],[-142,-3.93708],[-141.5,-4.17119],[-141,-4.40225],[-140.5,-4.63027],[-140,-4.85527],[-139.5,-5.07727],[-139,-5.29629],[-138.5,-5.51234],[-138,-5.72545],[-137.5,-5.93563],[-137,-6.14293],[-136.5,-6.34735],[-136,-6.54892],[-135.5,-6.74768],[-135,-6.94364],[-134.5,-7.13683],[-134,-7.32728],[-133.5,-7.51502],[-133,-7.70007],[-132.5,-7.88247],[-132,-8.06223],[-131.5,-8.2394],[-131,-8.41399],[-130.5,-8.58604],[-130,-8.75557],[-129.5,-8.92262],[-129,-9.0872],[-128.5,-9.24935],[-128,-9.40909],[-127.5,-9.56646],[-127,-9.72148],[-126.5,-9.87417],[-126,-10.02456],[-125.5,-10.17268],[-125,-10.31856],[-124.5,-10.46222],[-124,-10.60369],[-123.5,-10.74298],[-123,-10.88014],[-122.5,-11.01517],[-122,-11.14811],[-121.5,-11.27898],[-121,-11.4078],[-120.5,-11.5346],[-120,-11.6594],[-119.5,-11.78222],[-119,-11.90308],[-118.5,-12.02201],[-118,-12.13903],[-117.5,-12.25416],[-117,-12.36741],[-116.5,-12.47882],[-116,-12.5884],[-115.5,-12.69616],[-115,-12.80214],[-114.5,-12.90635],[-114,-13.00881],[-113.5,-13.10953],[-113,-13.20854],[-112.5,-13.30586],[-112,-13.40149],[-111.5,-13.49547],[-111,-13.5878],[-110.5,-13.67851],[-110,-13.76761],[-109.9082,-13.7838]]}}],"attribution":"Eclipse Predictions by Fred Espenak and Jean Meeus (NASA's GSFC)","generated_at":"2026-09-23T03:35:43.017Z"}
