{"type":"FeatureCollection","year":1126,"events":[{"id":"+11260622","year":1126,"month":6,"day":22,"time_tdt":"12:12:40","type":"개기일식","type_code":"T","saros":103,"gamma":-0.31607,"magnitude":1.01928,"greatest":{"lat":5.03114,"lng":2.11359},"path_width_km":69.5,"duration":"02m09s","delta_t_seconds":974.5,"catalog_number":7430,"source":"NASA Five Millennium Canon of Solar Eclipses","source_url":"https://eclipse.gsfc.nasa.gov/SEsearch/SEsearchmap.php?Ecl=%2B11260622"},{"id":"+11261215","year":1126,"month":12,"day":15,"time_tdt":"22:41:48","type":"혼성일식","type_code":"H","saros":108,"gamma":-0.02278,"magnitude":1.00133,"greatest":{"lat":-24.9983,"lng":-156.37915},"path_width_km":4.6,"duration":"00m08s","delta_t_seconds":972.7,"catalog_number":7431,"source":"NASA Five Millennium Canon of Solar Eclipses","source_url":"https://eclipse.gsfc.nasa.gov/SEsearch/SEsearchmap.php?Ecl=%2B11261215"}],"features":[{"type":"Feature","id":"+11260622:north:0","properties":{"id":"+11260622","year":1126,"month":6,"day":22,"time_tdt":"12:12:40","type":"개기일식","type_code":"T","saros":103,"gamma":-0.31607,"magnitude":1.01928,"greatest":{"lat":5.03114,"lng":2.11359},"path_width_km":69.5,"duration":"02m09s","delta_t_seconds":974.5,"catalog_number":7430,"source":"NASA Five Millennium Canon of Solar Eclipses","source_url":"https://eclipse.gsfc.nasa.gov/SEsearch/SEsearchmap.php?Ecl=%2B11260622","boundary":"north","name":"1126-06-22 개기일식"},"geometry":{"type":"LineString","coordinates":[[-54,-19.61698],[-53.5,-19.39326],[-53,-19.16823],[-52.5,-18.94189],[-52,-18.71424],[-51.5,-18.48528],[-51,-18.25502],[-50.5,-18.02346],[-50,-17.7906],[-49.5,-17.55645],[-49,-17.32101],[-48.5,-17.08429],[-48,-16.8463],[-47.5,-16.60703],[-47,-16.3665],[-46.5,-16.12472],[-46,-15.8817],[-45.5,-15.63744],[-45,-15.39195],[-44.5,-15.14525],[-44,-14.89735],[-43.5,-14.64826],[-43,-14.398],[-42.5,-14.14658],[-42,-13.89402],[-41.5,-13.64034],[-41,-13.38555],[-40.5,-13.12967],[-40,-12.87273],[-39.5,-12.61475],[-39,-12.35575],[-38.5,-12.09576],[-38,-11.83481],[-37.5,-11.57293],[-37,-11.31014],[-36.5,-11.04648],[-36,-10.78198],[-35.5,-10.51669],[-35,-10.25063],[-34.5,-9.98385],[-34,-9.71639],[-33.5,-9.4483],[-33,-9.17962],[-32.5,-8.91041],[-32,-8.64071],[-31.5,-8.37058],[-31,-8.10008],[-30.5,-7.82927],[-30,-7.55821],[-29.5,-7.28697],[-29,-7.01561],[-28.5,-6.74421],[-28,-6.47284],[-27.5,-6.20158],[-27,-5.93051],[-26.5,-5.65972],[-26,-5.3893],[-25.5,-5.11933],[-25,-4.84991],[-24.5,-4.58114],[-24,-4.31312],[-23.5,-4.04595],[-23,-3.77975],[-22.5,-3.51462],[-22,-3.25069],[-21.5,-2.98806],[-21,-2.72686],[-20.5,-2.46722],[-20,-2.20926],[-19.5,-1.95312],[-19,-1.69892],[-18.5,-1.44681],[-18,-1.19693],[-17.5,-0.94941],[-17,-0.7044],[-16.5,-0.46205],[-16,-0.22251],[-15.5,0.01408],[-15,0.24756],[-14.5,0.47779],[-14,0.70461],[-13.5,0.92787],[-13,1.14741],[-12.5,1.36308],[-12,1.57473],[-11.5,1.78221],[-11,1.98537],[-10.5,2.18406],[-10,2.37812],[-9.5,2.56743],[-9,2.75184],[-8.5,2.9312],[-8,3.10539],[-7.5,3.27427],[-7,3.43771],[-6.5,3.59559],[-6,3.7478],[-5.5,3.89421],[-5,4.03473],[-4.5,4.16924],[-4,4.29766],[-3.5,4.41988],[-3,4.53583],[-2.5,4.64543],[-2,4.7486],[-1.5,4.84528],[-1,4.93541],[-0.5,5.01894],[0,5.09582],[0.5,5.16601],[1,5.22948],[1.5,5.28621],[2,5.33618],[2.5,5.37937],[3,5.41579],[3.5,5.44544],[4,5.46832],[4.5,5.48444],[5,5.49384],[5.5,5.49654],[6,5.49257],[6.5,5.48197],[7,5.46479],[7.5,5.44108],[8,5.4109],[8.5,5.3743],[9,5.33136],[9.5,5.28214],[10,5.22672],[10.5,5.16519],[11,5.09762],[11.5,5.0241],[12,4.94473],[12.5,4.85961],[13,4.76882],[13.5,4.67248],[14,4.57068],[14.5,4.46353],[15,4.35115],[15.5,4.23364],[16,4.11112],[16.5,3.9837],[17,3.8515],[17.5,3.71463],[18,3.57321],[18.5,3.42737],[19,3.27723],[19.5,3.12289],[20,2.96449],[20.5,2.80214],[21,2.63596],[21.5,2.46608],[22,2.29261],[22.5,2.11568],[23,1.93539],[23.5,1.75187],[24,1.56523],[24.5,1.3756],[25,1.18307],[25.5,0.98777],[26,0.7898],[26.5,0.58928],[27,0.38631],[27.5,0.181],[28,-0.02655],[28.5,-0.23624],[29,-0.44796],[29.5,-0.66162],[30,-0.87711],[30.5,-1.09436],[31,-1.31326],[31.5,-1.53373],[32,-1.75567],[32.5,-1.979],[33,-2.20364],[33.5,-2.4295],[34,-2.65651],[34.5,-2.88458],[35,-3.11365],[35.5,-3.34364],[36,-3.57447],[36.5,-3.80609],[37,-4.03842],[37.5,-4.27139],[38,-4.50495],[38.5,-4.73903],[39,-4.97358],[39.5,-5.20853],[40,-5.44383],[40.5,-5.67944],[41,-5.91528],[41.5,-6.15133],[42,-6.38752],[42.5,-6.62381],[43,-6.86015],[43.5,-7.09651],[44,-7.33284],[44.5,-7.5691],[45,-7.80525],[45.5,-8.04125],[46,-8.27707],[46.5,-8.51267],[47,-8.74802],[47.5,-8.98309],[48,-9.21784],[48.5,-9.45225],[49,-9.68629],[49.5,-9.91992],[50,-10.15313],[50.5,-10.38589],[51,-10.61817],[51.5,-10.84995],[52,-11.08121],[52.5,-11.31192],[53,-11.54207],[53.5,-11.77164],[54,-12.00061],[54.5,-12.22895],[55,-12.45666],[55.5,-12.68371],[56,-12.91009],[56.5,-13.13578],[57,-13.36078],[57.5,-13.58506],[58,-13.80861],[58.5,-14.03143],[58.95312,-14.2327]]}},{"type":"Feature","id":"+11260622:center:0","properties":{"id":"+11260622","year":1126,"month":6,"day":22,"time_tdt":"12:12:40","type":"개기일식","type_code":"T","saros":103,"gamma":-0.31607,"magnitude":1.01928,"greatest":{"lat":5.03114,"lng":2.11359},"path_width_km":69.5,"duration":"02m09s","delta_t_seconds":974.5,"catalog_number":7430,"source":"NASA Five Millennium Canon of Solar Eclipses","source_url":"https://eclipse.gsfc.nasa.gov/SEsearch/SEsearchmap.php?Ecl=%2B11260622","boundary":"center","name":"1126-06-22 개기일식"},"geometry":{"type":"LineString","coordinates":[[-53.98888,-19.661],[-54,-19.65936],[-53.5,-19.43835],[-53,-19.21605],[-52.5,-18.99245],[-52,-18.76757],[-51.5,-18.5414],[-51,-18.31395],[-50.5,-18.08522],[-50,-17.85521],[-49.5,-17.62393],[-49,-17.39139],[-48.5,-17.15758],[-48,-16.92252],[-47.5,-16.68621],[-47,-16.44866],[-46.5,-16.20988],[-46,-15.96987],[-45.5,-15.72864],[-45,-15.48621],[-44.5,-15.24259],[-44,-14.99778],[-43.5,-14.75181],[-43,-14.50468],[-42.5,-14.25641],[-42,-14.00702],[-41.5,-13.75652],[-41,-13.50493],[-40.5,-13.25228],[-40,-12.99857],[-39.5,-12.74384],[-39,-12.48811],[-38.5,-12.23141],[-38,-11.97375],[-37.5,-11.71517],[-37,-11.4557],[-36.5,-11.19537],[-36,-10.93422],[-35.5,-10.67227],[-35,-10.40957],[-34.5,-10.14616],[-34,-9.88208],[-33.5,-9.61737],[-33,-9.35207],[-32.5,-9.08624],[-32,-8.81993],[-31.5,-8.55319],[-31,-8.28608],[-30.5,-8.01865],[-30,-7.75096],[-29.5,-7.48309],[-29,-7.2151],[-28.5,-6.94705],[-28,-6.67903],[-27.5,-6.4111],[-27,-6.14334],[-26.5,-5.87585],[-26,-5.6087],[-25.5,-5.34199],[-25,-5.0758],[-24.5,-4.81023],[-24,-4.54539],[-23.5,-4.28136],[-23,-4.01827],[-22.5,-3.75622],[-22,-3.49532],[-21.5,-3.23568],[-21,-2.97744],[-20.5,-2.7207],[-20,-2.4656],[-19.5,-2.21227],[-19,-1.96083],[-18.5,-1.71142],[-18,-1.46418],[-17.5,-1.21925],[-17,-0.97676],[-16.5,-0.73687],[-16,-0.49972],[-15.5,-0.26546],[-15,-0.03423],[-14.5,0.19381],[-14,0.41852],[-13.5,0.63973],[-13,0.85731],[-12.5,1.07109],[-12,1.28093],[-11.5,1.48667],[-11,1.68817],[-10.5,1.88527],[-10,2.07784],[-9.5,2.26572],[-9,2.44877],[-8.5,2.62686],[-8,2.79985],[-7.5,2.9676],[-7,3.12999],[-6.5,3.2869],[-6,3.4382],[-5.5,3.58379],[-5,3.72354],[-4.5,3.85736],[-4,3.98514],[-3.5,4.10681],[-3,4.22226],[-2.5,4.33141],[-2,4.43421],[-1.5,4.53057],[-1,4.62043],[-0.5,4.70375],[0,4.78047],[0.5,4.85056],[1,4.91399],[1.5,4.97071],[2,5.02073],[2.5,5.06402],[3,5.10058],[3.5,5.13042],[4,5.15353],[4.5,5.16993],[5,5.17966],[5.5,5.18272],[6,5.17916],[6.5,5.16902],[7,5.15234],[7.5,5.12917],[8,5.09957],[8.5,5.06361],[9,5.02134],[9.5,4.97284],[10,4.91819],[10.5,4.85747],[11,4.79076],[11.5,4.71815],[12,4.63974],[12.5,4.55562],[13,4.46588],[13.5,4.37064],[14,4.27],[14.5,4.16406],[15,4.05293],[15.5,3.93673],[16,3.81556],[16.5,3.68956],[17,3.55882],[17.5,3.42347],[18,3.28362],[18.5,3.13941],[19,2.99093],[19.5,2.83832],[20,2.6817],[20.5,2.52118],[21,2.35689],[21.5,2.18894],[22,2.01746],[22.5,1.84256],[23,1.66435],[23.5,1.48297],[24,1.29851],[24.5,1.11109],[25,0.92084],[25.5,0.72785],[26,0.53224],[26.5,0.33412],[27,0.13359],[27.5,-0.06925],[28,-0.27428],[28.5,-0.48141],[29,-0.69054],[29.5,-0.90158],[30,-1.11442],[30.5,-1.32898],[31,-1.54517],[31.5,-1.76289],[32,-1.98205],[32.5,-2.20259],[33,-2.4244],[33.5,-2.64742],[34,-2.87156],[34.5,-3.09675],[35,-3.32292],[35.5,-3.54998],[36,-3.77788],[36.5,-4.00654],[37,-4.2359],[37.5,-4.4659],[38,-4.69647],[38.5,-4.92755],[39,-5.15909],[39.5,-5.39102],[40,-5.6233],[40.5,-5.85588],[41,-6.08869],[41.5,-6.3217],[42,-6.55485],[42.5,-6.7881],[43,-7.02141],[43.5,-7.25473],[44,-7.48802],[44.5,-7.72124],[45,-7.95436],[45.5,-8.18733],[46,-8.42013],[46.5,-8.65271],[47,-8.88504],[47.5,-9.1171],[48,-9.34885],[48.5,-9.58027],[49,-9.81132],[49.5,-10.04198],[50,-10.27222],[50.5,-10.50202],[51,-10.73135],[51.5,-10.9602],[52,-11.18853],[52.5,-11.41633],[53,-11.64358],[53.5,-11.87025],[54,-12.09634],[54.5,-12.32182],[55,-12.54667],[55.5,-12.77088],[56,-12.99444],[56.5,-13.21732],[57,-13.43952],[57.5,-13.66101],[58,-13.8818],[58.5,-14.10186],[58.91959,-14.28957]]}},{"type":"Feature","id":"+11260622:south:0","properties":{"id":"+11260622","year":1126,"month":6,"day":22,"time_tdt":"12:12:40","type":"개기일식","type_code":"T","saros":103,"gamma":-0.31607,"magnitude":1.01928,"greatest":{"lat":5.03114,"lng":2.11359},"path_width_km":69.5,"duration":"02m09s","delta_t_seconds":974.5,"catalog_number":7430,"source":"NASA Five Millennium Canon of Solar Eclipses","source_url":"https://eclipse.gsfc.nasa.gov/SEsearch/SEsearchmap.php?Ecl=%2B11260622","boundary":"south","name":"1126-06-22 개기일식"},"geometry":{"type":"LineString","coordinates":[[-53.98438,-19.69479],[-53.5,-19.48327],[-53,-19.26368],[-52.5,-19.04282],[-52,-18.82069],[-51.5,-18.5973],[-51,-18.37265],[-50.5,-18.14674],[-50,-17.91957],[-49.5,-17.69115],[-49,-17.46148],[-48.5,-17.23058],[-48,-16.99844],[-47.5,-16.76507],[-47,-16.53047],[-46.5,-16.29467],[-46,-16.05766],[-45.5,-15.81946],[-45,-15.58006],[-44.5,-15.3395],[-44,-15.09777],[-43.5,-14.85489],[-43,-14.61088],[-42.5,-14.36574],[-42,-14.1195],[-41.5,-13.87217],[-41,-13.62376],[-40.5,-13.37431],[-40,-13.12382],[-39.5,-12.87232],[-39,-12.61984],[-38.5,-12.36639],[-38,-12.11201],[-37.5,-11.85672],[-37,-11.60055],[-36.5,-11.34353],[-36,-11.0857],[-35.5,-10.82708],[-35,-10.56772],[-34.5,-10.30766],[-34,-10.04692],[-33.5,-9.78557],[-33,-9.52364],[-32.5,-9.26118],[-32,-8.99823],[-31.5,-8.73486],[-31,-8.47111],[-30.5,-8.20705],[-30,-7.94273],[-29.5,-7.67821],[-29,-7.41356],[-28.5,-7.14885],[-28,-6.88415],[-27.5,-6.61954],[-27,-6.35508],[-26.5,-6.09087],[-26,-5.82699],[-25.5,-5.56351],[-25,-5.30055],[-24.5,-5.03817],[-24,-4.77649],[-23.5,-4.51561],[-23,-4.25562],[-22.5,-3.99664],[-22,-3.73877],[-21.5,-3.48213],[-21,-3.22683],[-20.5,-2.973],[-20,-2.72076],[-19.5,-2.47024],[-19,-2.22156],[-18.5,-1.97486],[-18,-1.73027],[-17.5,-1.48793],[-17,-1.24797],[-16.5,-1.01055],[-16,-0.77581],[-15.5,-0.54388],[-15,-0.31493],[-14.5,-0.08909],[-14,0.13349],[-13.5,0.35264],[-13,0.56823],[-12.5,0.7801],[-12,0.9881],[-11.5,1.19209],[-11,1.3919],[-10.5,1.5874],[-10,1.77843],[-9.5,1.96486],[-9,2.14653],[-8.5,2.32332],[-8,2.49508],[-7.5,2.66169],[-7,2.82301],[-6.5,2.97892],[-6,3.12929],[-5.5,3.27401],[-5,3.41298],[-4.5,3.54608],[-4,3.67322],[-3.5,3.79429],[-3,3.90922],[-2.5,4.01792],[-2,4.12031],[-1.5,4.21634],[-1,4.30592],[-0.5,4.38902],[0,4.46557],[0.5,4.53555],[1,4.59891],[1.5,4.65562],[2,4.70568],[2.5,4.74906],[3,4.78576],[3.5,4.81577],[4,4.83911],[4.5,4.8558],[5,4.86584],[5.5,4.86927],[6,4.86613],[6.5,4.85644],[7,4.84026],[7.5,4.81764],[8,4.78864],[8.5,4.75331],[9,4.71173],[9.5,4.66396],[10,4.61009],[10.5,4.55019],[11,4.48436],[11.5,4.41267],[12,4.33523],[12.5,4.25212],[13,4.16346],[13.5,4.06933],[14,3.96986],[14.5,3.86514],[15,3.75528],[15.5,3.6404],[16,3.52061],[16.5,3.39604],[17,3.26678],[17.5,3.13296],[18,2.9947],[18.5,2.85212],[19,2.70534],[19.5,2.55448],[20,2.39965],[20.5,2.24098],[21,2.07858],[21.5,1.91258],[22,1.74309],[22.5,1.57024],[23,1.39413],[23.5,1.21488],[24,1.03261],[24.5,0.84743],[25,0.65945],[25.5,0.46879],[26,0.27554],[26.5,0.07982],[27,-0.11826],[27.5,-0.31861],[28,-0.52112],[28.5,-0.7257],[29,-0.93224],[29.5,-1.14065],[30,-1.35084],[30.5,-1.56272],[31,-1.77618],[31.5,-1.99116],[32,-2.20756],[32.5,-2.4253],[33,-2.6443],[33.5,-2.86448],[34,-3.08576],[34.5,-3.30807],[35,-3.53133],[35.5,-3.75548],[36,-3.98045],[36.5,-4.20617],[37,-4.43257],[37.5,-4.6596],[38,-4.88719],[38.5,-5.11528],[39,-5.34382],[39.5,-5.57275],[40,-5.80202],[40.5,-6.03158],[41,-6.26138],[41.5,-6.49136],[42,-6.72149],[42.5,-6.95172],[43,-7.182],[43.5,-7.41229],[44,-7.64256],[44.5,-7.87276],[45,-8.10286],[45.5,-8.33281],[46,-8.5626],[46.5,-8.79217],[47,-9.02151],[47.5,-9.25057],[48,-9.47934],[48.5,-9.70778],[49,-9.93585],[49.5,-10.16355],[50,-10.39084],[50.5,-10.61769],[51,-10.84409],[51.5,-11.07001],[52,-11.29543],[52.5,-11.52033],[53,-11.74469],[53.5,-11.96849],[54,-12.19171],[54.5,-12.41434],[55,-12.63635],[55.5,-12.85773],[56,-13.07848],[56.5,-13.29856],[57,-13.51797],[57.5,-13.7367],[58,-13.95472],[58.5,-14.17204],[58.90625,-14.34808]]}},{"type":"Feature","id":"+11261215:north:0","properties":{"id":"+11261215","year":1126,"month":12,"day":15,"time_tdt":"22:41:48","type":"혼성일식","type_code":"H","saros":108,"gamma":-0.02278,"magnitude":1.00133,"greatest":{"lat":-24.9983,"lng":-156.37915},"path_width_km":4.6,"duration":"00m08s","delta_t_seconds":972.7,"catalog_number":7431,"source":"NASA Five Millennium Canon of Solar Eclipses","source_url":"https://eclipse.gsfc.nasa.gov/SEsearch/SEsearchmap.php?Ecl=%2B11261215","boundary":"north","name":"1126-12-15 혼성일식"},"geometry":{"type":"LineString","coordinates":[[142.53906,4.05458],[143,3.84885],[143.5,3.62412],[144,3.39776],[144.5,3.16976],[145,2.94012],[145.5,2.70884],[146,2.47592],[146.5,2.24135],[147,2.00514],[147.5,1.76729],[148,1.5278],[148.5,1.28667],[149,1.0439],[149.5,0.7995],[150,0.55347],[150.5,0.30582],[151,0.05655],[151.5,-0.19433],[152,-0.44682],[152.5,-0.7009],[153,-0.95657],[153.5,-1.21381],[154,-1.47262],[154.5,-1.73298],[155,-1.99487],[155.5,-2.25829],[156,-2.52321],[156.5,-2.78961],[157,-3.05748],[157.5,-3.3268],[158,-3.59753],[158.5,-3.86966],[159,-4.14316],[159.5,-4.418],[160,-4.69415],[160.5,-4.97158],[161,-5.25025],[161.5,-5.53013],[162,-5.81117],[162.5,-6.09334],[163,-6.3766],[163.5,-6.66089],[164,-6.94617],[164.5,-7.23239],[165,-7.51949],[165.5,-7.80742],[166,-8.09613],[166.5,-8.38553],[167,-8.67559],[167.5,-8.96621],[168,-9.25735],[168.5,-9.54892],[169,-9.84084],[169.5,-10.13304],[170,-10.42544],[170.5,-10.71795],[171,-11.01049],[171.5,-11.30295],[172,-11.59526],[172.5,-11.88731],[173,-12.17901],[173.5,-12.47025],[174,-12.76093],[174.5,-13.05094],[175,-13.34018],[175.5,-13.62853],[176,-13.91588],[176.5,-14.20212],[177,-14.48713],[177.5,-14.77079],[178,-15.05298],[178.5,-15.33357],[179,-15.61246],[179.5,-15.88952],[180,-16.16462]]}},{"type":"Feature","id":"+11261215:north:1","properties":{"id":"+11261215","year":1126,"month":12,"day":15,"time_tdt":"22:41:48","type":"혼성일식","type_code":"H","saros":108,"gamma":-0.02278,"magnitude":1.00133,"greatest":{"lat":-24.9983,"lng":-156.37915},"path_width_km":4.6,"duration":"00m08s","delta_t_seconds":972.7,"catalog_number":7431,"source":"NASA Five Millennium Canon of Solar Eclipses","source_url":"https://eclipse.gsfc.nasa.gov/SEsearch/SEsearchmap.php?Ecl=%2B11261215","boundary":"north","name":"1126-12-15 혼성일식"},"geometry":{"type":"LineString","coordinates":[[-179.5,-16.43764],[-179,-16.70845],[-178.5,-16.97695],[-178,-17.24299],[-177.5,-17.50646],[-177,-17.76724],[-176.5,-18.02522],[-176,-18.28026],[-175.5,-18.53226],[-175,-18.7811],[-174.5,-19.02666],[-174,-19.26884],[-173.5,-19.50754],[-173,-19.74263],[-172.5,-19.97403],[-172,-20.20164],[-171.5,-20.42281],[-171,-20.63934],[-170.5,-20.85193],[-170,-21.0605],[-169.5,-21.26497],[-169,-21.46526],[-168.5,-21.6613],[-168,-21.85301],[-167.5,-22.04032],[-167,-22.22317],[-166.5,-22.40151],[-166,-22.57527],[-165.5,-22.74441],[-165,-22.90886],[-164.5,-23.0686],[-164,-23.22357],[-163.5,-23.37375],[-163,-23.51908],[-162.5,-23.65955],[-162,-23.79512],[-161.5,-23.92578],[-161,-24.05149],[-160.5,-24.17224],[-160,-24.28802],[-159.5,-24.39881],[-159,-24.5046],[-158.5,-24.60538],[-158,-24.70116],[-157.5,-24.79192],[-157,-24.87767],[-156.5,-24.95841],[-156,-25.03415],[-155.5,-25.10489],[-155,-25.17064],[-154.5,-25.23141],[-154,-25.28722],[-153.5,-25.33807],[-153,-25.38399],[-152.5,-25.42499],[-152,-25.46109],[-151.5,-25.49231],[-151,-25.51867],[-150.5,-25.5402],[-150,-25.55692],[-149.5,-25.56885],[-149,-25.57603],[-148.5,-25.57848],[-148,-25.57623],[-147.5,-25.56931],[-147,-25.55776],[-146.5,-25.54159],[-146,-25.52086],[-145.5,-25.49559],[-145,-25.46581],[-144.5,-25.43157],[-144,-25.3929],[-143.5,-25.34984],[-143,-25.30078],[-142.5,-25.24618],[-142,-25.18723],[-141.5,-25.12396],[-141,-25.05642],[-140.5,-24.98464],[-140,-24.90867],[-139.5,-24.82856],[-139,-24.74435],[-138.5,-24.65609],[-138,-24.56383],[-137.5,-24.46761],[-137,-24.36748],[-136.5,-24.2635],[-136,-24.1557],[-135.5,-24.04416],[-135,-23.92891],[-134.5,-23.81001],[-134,-23.68751],[-133.5,-23.56147],[-133,-23.43195],[-132.5,-23.299],[-132,-23.16267],[-131.5,-23.02302],[-131,-22.88012],[-130.5,-22.73402],[-130,-22.58477],[-129.5,-22.43245],[-129,-22.27711],[-128.5,-22.1188],[-128,-21.9576],[-127.5,-21.79356],[-127,-21.62675],[-126.5,-21.45723],[-126,-21.28506],[-125.5,-21.1103],[-125,-20.93302],[-124.5,-20.75328],[-124,-20.57115],[-123.5,-20.38668],[-123,-20.19995],[-122.5,-20.01101],[-122,-19.81994],[-121.5,-19.62679],[-121,-19.43162],[-120.5,-19.23451],[-120,-19.03551],[-119.5,-18.83469],[-119,-18.63211],[-118.5,-18.42783],[-118,-18.22192],[-117.5,-18.01443],[-117,-17.80543],[-116.5,-17.59498],[-116,-17.38313],[-115.5,-17.16995],[-115,-16.9555],[-114.5,-16.73983],[-114,-16.523],[-113.5,-16.30506],[-113,-16.08608],[-112.5,-15.86611],[-112,-15.6452],[-111.5,-15.42341],[-111,-15.20079],[-110.5,-14.97739],[-110,-14.75326],[-109.5,-14.52845],[-109,-14.30302],[-108.5,-14.077],[-108,-13.85045],[-107.5,-13.62342],[-107,-13.39594],[-106.5,-13.16806],[-106,-12.93983],[-105.5,-12.7113],[-105,-12.48249],[-104.5,-12.25345],[-104,-12.02423],[-103.5,-11.79485],[-103,-11.56536],[-102.5,-11.3358],[-102,-11.10619],[-101.5,-10.87659],[-101,-10.64701],[-100.5,-10.41749],[-100,-10.18807],[-99.5,-9.95878],[-99,-9.72964],[-98.5,-9.50069],[-98,-9.27195],[-97.5,-9.04345],[-97,-8.81523],[-96.5,-8.5873],[-96,-8.35969],[-95.5,-8.13243],[-95,-7.90554],[-94.5,-7.67904],[-94,-7.45296],[-93.5,-7.22731],[-93,-7.00213],[-92.5,-6.77742],[-92,-6.5532],[-91.5,-6.32951],[-91,-6.10635],[-90.6543,-5.95238]]}},{"type":"Feature","id":"+11261215:center:0","properties":{"id":"+11261215","year":1126,"month":12,"day":15,"time_tdt":"22:41:48","type":"혼성일식","type_code":"H","saros":108,"gamma":-0.02278,"magnitude":1.00133,"greatest":{"lat":-24.9983,"lng":-156.37915},"path_width_km":4.6,"duration":"00m08s","delta_t_seconds":972.7,"catalog_number":7431,"source":"NASA Five Millennium Canon of Solar Eclipses","source_url":"https://eclipse.gsfc.nasa.gov/SEsearch/SEsearchmap.php?Ecl=%2B11261215","boundary":"center","name":"1126-12-15 혼성일식"},"geometry":{"type":"LineString","coordinates":[[142.42242,3.84128],[142.5,3.80666],[143,3.5861],[143.5,3.36394],[144,3.14016],[144.5,2.91476],[145,2.68774],[145.5,2.4591],[146,2.22884],[146.5,1.99696],[147,1.76346],[147.5,1.52834],[148,1.29159],[148.5,1.05323],[149,0.81326],[149.5,0.57167],[150,0.32847],[150.5,0.08367],[151,-0.16272],[151.5,-0.41071],[152,-0.66028],[152.5,-0.91143],[153,-1.16414],[153.5,-1.41841],[154,-1.67422],[154.5,-1.93156],[155,-2.19041],[155.5,-2.45077],[156,-2.71261],[156.5,-2.97592],[157,-3.24067],[157.5,-3.50685],[158,-3.77444],[158.5,-4.0434],[159,-4.31371],[159.5,-4.58535],[160,-4.85828],[160.5,-5.13247],[161,-5.40789],[161.5,-5.68451],[162,-5.96228],[162.5,-6.24116],[163,-6.52112],[163.5,-6.8021],[164,-7.08407],[164.5,-7.36696],[165,-7.65073],[165.5,-7.93532],[166,-8.22068],[166.5,-8.50674],[167,-8.79345],[167.5,-9.08073],[168,-9.36852],[168.5,-9.65674],[169,-9.94532],[169.5,-10.23419],[170,-10.52326],[170.5,-10.81246],[171,-11.10169],[171.5,-11.39086],[172,-11.6799],[172.5,-11.96869],[173,-12.25715],[173.5,-12.54517],[174,-12.83266],[174.5,-13.11951],[175,-13.40561],[175.5,-13.69085],[176,-13.97513],[176.5,-14.25833],[177,-14.54033],[177.5,-14.82103],[178,-15.10029],[178.5,-15.37802],[179,-15.65407],[179.5,-15.92834],[180,-16.20071]]}},{"type":"Feature","id":"+11261215:center:1","properties":{"id":"+11261215","year":1126,"month":12,"day":15,"time_tdt":"22:41:48","type":"혼성일식","type_code":"H","saros":108,"gamma":-0.02278,"magnitude":1.00133,"greatest":{"lat":-24.9983,"lng":-156.37915},"path_width_km":4.6,"duration":"00m08s","delta_t_seconds":972.7,"catalog_number":7431,"source":"NASA Five Millennium Canon of Solar Eclipses","source_url":"https://eclipse.gsfc.nasa.gov/SEsearch/SEsearchmap.php?Ecl=%2B11261215","boundary":"center","name":"1126-12-15 혼성일식"},"geometry":{"type":"LineString","coordinates":[[-179.5,-16.47104],[-179,-16.73923],[-178.5,-17.00515],[-178,-17.26867],[-177.5,-17.52969],[-177,-17.78807],[-176.5,-18.04371],[-176,-18.29648],[-175.5,-18.54626],[-175,-18.79296],[-174.5,-19.03644],[-174,-19.27661],[-173.5,-19.51336],[-173,-19.74658],[-172.5,-19.97617],[-172,-20.20204],[-171.5,-20.42408],[-171,-20.6422],[-170.5,-20.85633],[-170,-21.06636],[-169.5,-21.27222],[-169,-21.47383],[-168.5,-21.67112],[-168,-21.86402],[-167.5,-22.05245],[-167,-22.23636],[-166.5,-22.41568],[-166,-22.59036],[-165.5,-22.76035],[-165,-22.9256],[-164.5,-23.08606],[-164,-23.2417],[-163.5,-23.39247],[-163,-23.53835],[-162.5,-23.6793],[-162,-23.8153],[-161.5,-23.94632],[-161,-24.07234],[-160.5,-24.19334],[-160,-24.30932],[-159.5,-24.42025],[-159,-24.52612],[-158.5,-24.62694],[-158,-24.7227],[-157.5,-24.81339],[-157,-24.89902],[-156.5,-24.9796],[-156,-25.05511],[-155.5,-25.12558],[-155,-25.19102],[-154.5,-25.25142],[-154,-25.30682],[-153.5,-25.35721],[-153,-25.40262],[-152.5,-25.44307],[-152,-25.47857],[-151.5,-25.50915],[-151,-25.53482],[-150.5,-25.55562],[-150,-25.57156],[-149.5,-25.58268],[-149,-25.58899],[-148.5,-25.59053],[-148,-25.58733],[-147.5,-25.57942],[-147,-25.56682],[-146.5,-25.54958],[-146,-25.52771],[-145.5,-25.50127],[-145,-25.47028],[-144.5,-25.43478],[-144,-25.39481],[-143.5,-25.35041],[-143,-25.3016],[-142.5,-25.24844],[-142,-25.19097],[-141.5,-25.12922],[-141,-25.06324],[-140.5,-24.99307],[-140,-24.91876],[-139.5,-24.84035],[-139,-24.75788],[-138.5,-24.6714],[-138,-24.58097],[-137.5,-24.48662],[-137,-24.38841],[-136.5,-24.28638],[-136,-24.18059],[-135.5,-24.07109],[-135,-23.95793],[-134.5,-23.84116],[-134,-23.72084],[-133.5,-23.59701],[-133,-23.46975],[-132.5,-23.33909],[-132,-23.2051],[-131.5,-23.06783],[-131,-22.92735],[-130.5,-22.78371],[-130,-22.63696],[-129.5,-22.48717],[-129,-22.3344],[-128.5,-22.1787],[-128,-22.02015],[-127.5,-21.85879],[-127,-21.69469],[-126.5,-21.52792],[-126,-21.35853],[-125.5,-21.18658],[-125,-21.01214],[-124.5,-20.83528],[-124,-20.65605],[-123.5,-20.47451],[-123,-20.29074],[-122.5,-20.10479],[-122,-19.91672],[-121.5,-19.7266],[-121,-19.53449],[-120.5,-19.34046],[-120,-19.14456],[-119.5,-18.94685],[-119,-18.74741],[-118.5,-18.54628],[-118,-18.34353],[-117.5,-18.13923],[-117,-17.93342],[-116.5,-17.72618],[-116,-17.51755],[-115.5,-17.3076],[-115,-17.09639],[-114.5,-16.88397],[-114,-16.67039],[-113.5,-16.45572],[-113,-16.24],[-112.5,-16.0233],[-112,-15.80567],[-111.5,-15.58715],[-111,-15.3678],[-110.5,-15.14768],[-110,-14.92682],[-109.5,-14.70528],[-109,-14.48312],[-108.5,-14.26036],[-108,-14.03707],[-107.5,-13.81329],[-107,-13.58906],[-106.5,-13.36443],[-106,-13.13943],[-105.5,-12.91411],[-105,-12.68852],[-104.5,-12.46269],[-104,-12.23666],[-103.5,-12.01046],[-103,-11.78414],[-102.5,-11.55774],[-102,-11.33128],[-101.5,-11.1048],[-101,-10.87834],[-100.5,-10.65192],[-100,-10.42559],[-99.5,-10.19936],[-99,-9.97328],[-98.5,-9.74736],[-98,-9.52165],[-97.5,-9.29616],[-97,-9.07092],[-96.5,-8.84596],[-96,-8.62131],[-95.5,-8.39698],[-95,-8.173],[-94.5,-7.9494],[-94,-7.72619],[-93.5,-7.5034],[-93,-7.28105],[-92.5,-7.05916],[-92,-6.83775],[-91.5,-6.61683],[-91,-6.39643],[-90.52282,-6.1869]]}},{"type":"Feature","id":"+11261215:south:0","properties":{"id":"+11261215","year":1126,"month":12,"day":15,"time_tdt":"22:41:48","type":"혼성일식","type_code":"H","saros":108,"gamma":-0.02278,"magnitude":1.00133,"greatest":{"lat":-24.9983,"lng":-156.37915},"path_width_km":4.6,"duration":"00m08s","delta_t_seconds":972.7,"catalog_number":7431,"source":"NASA Five Millennium Canon of Solar Eclipses","source_url":"https://eclipse.gsfc.nasa.gov/SEsearch/SEsearchmap.php?Ecl=%2B11261215","boundary":"south","name":"1126-12-15 혼성일식"},"geometry":{"type":"LineString","coordinates":[[142.30469,3.62712],[142.5,3.54239],[143,3.32438],[143.5,3.10477],[144,2.88357],[144.5,2.66078],[145,2.43638],[145.5,2.21038],[146,1.98279],[146.5,1.75359],[147,1.52279],[147.5,1.29039],[148,1.05639],[148.5,0.8208],[149,0.58361],[149.5,0.34482],[150,0.10446],[150.5,-0.1375],[151,-0.38102],[151.5,-0.62612],[152,-0.87278],[152.5,-1.121],[153,-1.37076],[153.5,-1.62205],[154,-1.87487],[154.5,-2.1292],[155,-2.38503],[155.5,-2.64234],[156,-2.90111],[156.5,-3.16133],[157,-3.42298],[157.5,-3.68604],[158,-3.95048],[158.5,-4.21628],[159,-4.48342],[159.5,-4.75187],[160,-5.02159],[160.5,-5.29257],[161,-5.56475],[161.5,-5.83812],[162,-6.11263],[162.5,-6.38824],[163,-6.66492],[163.5,-6.94261],[164,-7.22127],[164.5,-7.50085],[165,-7.78131],[165.5,-8.06258],[166,-8.34461],[166.5,-8.62735],[167,-8.91072],[167.5,-9.19467],[168,-9.47913],[168.5,-9.76402],[169,-10.04929],[169.5,-10.33484],[170,-10.62061],[170.5,-10.9065],[171,-11.19245],[171.5,-11.47835],[172,-11.76413],[172.5,-12.04968],[173,-12.33492],[173.5,-12.61975],[174,-12.90406],[174.5,-13.18776],[175,-13.47074],[175.5,-13.7529],[176,-14.03412],[176.5,-14.3143],[177,-14.59331],[177.5,-14.87106],[178,-15.14742],[178.5,-15.42228],[179,-15.69552],[179.5,-15.96702],[180,-16.23667]]}},{"type":"Feature","id":"+11261215:south:1","properties":{"id":"+11261215","year":1126,"month":12,"day":15,"time_tdt":"22:41:48","type":"혼성일식","type_code":"H","saros":108,"gamma":-0.02278,"magnitude":1.00133,"greatest":{"lat":-24.9983,"lng":-156.37915},"path_width_km":4.6,"duration":"00m08s","delta_t_seconds":972.7,"catalog_number":7431,"source":"NASA Five Millennium Canon of Solar Eclipses","source_url":"https://eclipse.gsfc.nasa.gov/SEsearch/SEsearchmap.php?Ecl=%2B11261215","boundary":"south","name":"1126-12-15 혼성일식"},"geometry":{"type":"LineString","coordinates":[[-179.5,-16.50433],[-179,-16.7699],[-178.5,-17.03326],[-178,-17.29428],[-177.5,-17.55284],[-177,-17.80884],[-176.5,-18.06214],[-176,-18.31265],[-175.5,-18.56023],[-175,-18.80478],[-174.5,-19.0462],[-174,-19.28436],[-173.5,-19.51917],[-173,-19.75052],[-172.5,-19.9783],[-172,-20.20243],[-171.5,-20.42535],[-171,-20.64508],[-170.5,-20.86073],[-170,-21.07223],[-169.5,-21.27948],[-169,-21.48242],[-168.5,-21.68096],[-168,-21.87504],[-167.5,-22.06459],[-167,-22.24955],[-166.5,-22.42986],[-166,-22.60546],[-165.5,-22.7763],[-165,-22.94234],[-164.5,-23.10353],[-164,-23.25983],[-163.5,-23.41121],[-163,-23.55763],[-162.5,-23.69906],[-162,-23.83548],[-161.5,-23.96686],[-161,-24.09319],[-160.5,-24.21444],[-160,-24.33061],[-159.5,-24.44168],[-159,-24.54765],[-158.5,-24.6485],[-158,-24.74424],[-157.5,-24.83486],[-157,-24.92037],[-156.5,-25.00077],[-156,-25.07607],[-155.5,-25.14627],[-155,-25.21138],[-154.5,-25.27142],[-154,-25.3264],[-153.5,-25.37634],[-153,-25.42125],[-152.5,-25.46114],[-152,-25.49605],[-151.5,-25.52598],[-151,-25.55097],[-150.5,-25.57104],[-150,-25.58621],[-149.5,-25.5965],[-149,-25.60195],[-148.5,-25.60259],[-148,-25.59843],[-147.5,-25.58952],[-147,-25.57589],[-146.5,-25.55756],[-146,-25.53457],[-145.5,-25.50695],[-145,-25.47475],[-144.5,-25.43799],[-144,-25.39672],[-143.5,-25.35097],[-143,-25.30243],[-142.5,-25.2507],[-142,-25.19471],[-141.5,-25.13448],[-141,-25.07006],[-140.5,-25.0015],[-140,-24.92884],[-139.5,-24.85212],[-139,-24.77139],[-138.5,-24.68669],[-138,-24.59808],[-137.5,-24.5056],[-137,-24.4093],[-136.5,-24.30923],[-136,-24.20544],[-135.5,-24.09798],[-135,-23.9869],[-134.5,-23.87226],[-134,-23.7541],[-133.5,-23.63248],[-133,-23.50747],[-132.5,-23.3791],[-132,-23.24744],[-131.5,-23.11255],[-131,-22.97447],[-130.5,-22.83327],[-130,-22.68902],[-129.5,-22.54175],[-129,-22.39154],[-128.5,-22.23844],[-128,-22.08252],[-127.5,-21.92383],[-127,-21.76243],[-126.5,-21.59839],[-126,-21.43177],[-125.5,-21.26262],[-125,-21.09101],[-124.5,-20.91701],[-124,-20.74066],[-123.5,-20.56204],[-123,-20.38121],[-122.5,-20.19823],[-122,-20.01315],[-121.5,-19.82605],[-121,-19.63698],[-120.5,-19.446],[-120,-19.25318],[-119.5,-19.05857],[-119,-18.86224],[-118.5,-18.66425],[-118,-18.46466],[-117.5,-18.26351],[-117,-18.06089],[-116.5,-17.85683],[-116,-17.65141],[-115.5,-17.44467],[-115,-17.23668],[-114.5,-17.02749],[-114,-16.81715],[-113.5,-16.60572],[-113,-16.39325],[-112.5,-16.1798],[-112,-15.96542],[-111.5,-15.75016],[-111,-15.53407],[-110.5,-15.3172],[-110,-15.0996],[-109.5,-14.88132],[-109,-14.6624],[-108.5,-14.4429],[-108,-14.22285],[-107.5,-14.00231],[-107,-13.78131],[-106.5,-13.5599],[-106,-13.33812],[-105.5,-13.11601],[-105,-12.89362],[-104.5,-12.67098],[-104,-12.44813],[-103.5,-12.2251],[-103,-12.00194],[-102.5,-11.77868],[-102,-11.55535],[-101.5,-11.33199],[-101,-11.10863],[-100.5,-10.88531],[-100,-10.66205],[-99.5,-10.43889],[-99,-10.21585],[-98.5,-9.99296],[-98,-9.77026],[-97.5,-9.54777],[-97,-9.32551],[-96.5,-9.10351],[-96,-8.8818],[-95.5,-8.6604],[-95,-8.43933],[-94.5,-8.21861],[-94,-7.99828],[-93.5,-7.77834],[-93,-7.55883],[-92.5,-7.33975],[-92,-7.12113],[-91.5,-6.90299],[-91,-6.68534],[-90.5,-6.46821],[-90.39453,-6.42247]]}}],"attribution":"Eclipse Predictions by Fred Espenak and Jean Meeus (NASA's GSFC)","generated_at":"2026-09-23T03:35:43.094Z"}
