{"type":"FeatureCollection","year":1137,"events":[{"id":"+11370521","year":1137,"month":5,"day":21,"time_tdt":"16:30:23","type":"금환일식","type_code":"A","saros":104,"gamma":0.22355,"magnitude":0.95037,"greatest":{"lat":34.53341,"lng":-65.98627},"path_width_km":186.8,"duration":"05m51s","delta_t_seconds":934,"catalog_number":7457,"source":"NASA Five Millennium Canon of Solar Eclipses","source_url":"https://eclipse.gsfc.nasa.gov/SEsearch/SEsearchmap.php?Ecl=%2B11370521"},{"id":"+11371115","year":1137,"month":11,"day":15,"time_tdt":"03:00:21","type":"개기일식","type_code":"Tm","saros":109,"gamma":0.01163,"magnitude":1.0297,"greatest":{"lat":-19.60452,"lng":135.74219},"path_width_km":100.5,"duration":"02m53s","delta_t_seconds":932.2,"catalog_number":7458,"source":"NASA Five Millennium Canon of Solar Eclipses","source_url":"https://eclipse.gsfc.nasa.gov/SEsearch/SEsearchmap.php?Ecl=%2B11371115"}],"features":[{"type":"Feature","id":"+11370521:north:0","properties":{"id":"+11370521","year":1137,"month":5,"day":21,"time_tdt":"16:30:23","type":"금환일식","type_code":"A","saros":104,"gamma":0.22355,"magnitude":0.95037,"greatest":{"lat":34.53341,"lng":-65.98627},"path_width_km":186.8,"duration":"05m51s","delta_t_seconds":934,"catalog_number":7457,"source":"NASA Five Millennium Canon of Solar Eclipses","source_url":"https://eclipse.gsfc.nasa.gov/SEsearch/SEsearchmap.php?Ecl=%2B11370521","boundary":"north","name":"1137-05-21 금환일식"},"geometry":{"type":"LineString","coordinates":[[-129.89453,9.15142],[-129.5,9.30592],[-129,9.50302],[-128.5,9.70158],[-128,9.90159],[-127.5,10.10305],[-127,10.30597],[-126.5,10.51035],[-126,10.71619],[-125.5,10.92348],[-125,11.13223],[-124.5,11.34244],[-124,11.55409],[-123.5,11.76719],[-123,11.98174],[-122.5,12.19773],[-122,12.41515],[-121.5,12.63401],[-121,12.85429],[-120.5,13.07598],[-120,13.29908],[-119.5,13.52358],[-119,13.74947],[-118.5,13.97673],[-118,14.20536],[-117.5,14.43534],[-117,14.66665],[-116.5,14.89928],[-116,15.13322],[-115.5,15.36844],[-115,15.60493],[-114.5,15.84266],[-114,16.08161],[-113.5,16.32175],[-113,16.56307],[-112.5,16.80553],[-112,17.0491],[-111.5,17.29375],[-111,17.53945],[-110.5,17.78616],[-110,18.03385],[-109.5,18.28248],[-109,18.532],[-108.5,18.78239],[-108,19.03358],[-107.5,19.28553],[-107,19.5382],[-106.5,19.79153],[-106,20.04546],[-105.5,20.29995],[-105,20.55494],[-104.5,20.81036],[-104,21.06614],[-103.5,21.32224],[-103,21.57857],[-102.5,21.83507],[-102,22.09166],[-101.5,22.34828],[-101,22.60485],[-100.5,22.86128],[-100,23.1175],[-99.5,23.37342],[-99,23.62896],[-98.5,23.88404],[-98,24.13856],[-97.5,24.39244],[-97,24.64558],[-96.5,24.89789],[-96,25.14928],[-95.5,25.39965],[-95,25.6489],[-94.5,25.89695],[-94,26.14369],[-93.5,26.38902],[-93,26.63285],[-92.5,26.87507],[-92,27.11559],[-91.5,27.35431],[-91,27.59114],[-90.5,27.82596],[-90,28.0587],[-89.5,28.28925],[-89,28.51751],[-88.5,28.7434],[-88,28.96682],[-87.5,29.18768],[-87,29.4059],[-86.5,29.62138],[-86,29.83405],[-85.5,30.04382],[-85,30.25061],[-84.5,30.45435],[-84,30.65495],[-83.5,30.85235],[-83,31.04647],[-82.5,31.23726],[-82,31.42464],[-81.5,31.60856],[-81,31.78895],[-80.5,31.96577],[-80,32.13895],[-79.5,32.30845],[-79,32.47422],[-78.5,32.63623],[-78,32.79442],[-77.5,32.94875],[-77,33.09921],[-76.5,33.24574],[-76,33.38832],[-75.5,33.52693],[-75,33.66153],[-74.5,33.79212],[-74,33.91865],[-73.5,34.04112],[-73,34.15952],[-72.5,34.27382],[-72,34.38402],[-71.5,34.49011],[-71,34.59208],[-70.5,34.68992],[-70,34.78363],[-69.5,34.8732],[-69,34.95865],[-68.5,35.03996],[-68,35.11714],[-67.5,35.19019],[-67,35.25911],[-66.5,35.32392],[-66,35.38462],[-65.5,35.44121],[-65,35.49371],[-64.5,35.54212],[-64,35.58646],[-63.5,35.62674],[-63,35.66297],[-62.5,35.69516],[-62,35.72334],[-61.5,35.7475],[-61,35.76767],[-60.5,35.78386],[-60,35.7961],[-59.5,35.80439],[-59,35.80876],[-58.5,35.80922],[-58,35.80579],[-57.5,35.7985],[-57,35.78735],[-56.5,35.77238],[-56,35.7536],[-55.5,35.73104],[-55,35.70472],[-54.5,35.67465],[-54,35.64087],[-53.5,35.60339],[-53,35.56224],[-52.5,35.51745],[-52,35.46904],[-51.5,35.41703],[-51,35.36146],[-50.5,35.30235],[-50,35.23972],[-49.5,35.17361],[-49,35.10404],[-48.5,35.03105],[-48,34.95466],[-47.5,34.8749],[-47,34.79181],[-46.5,34.70542],[-46,34.61576],[-45.5,34.52286],[-45,34.42676],[-44.5,34.3275],[-44,34.2251],[-43.5,34.11962],[-43,34.01107],[-42.5,33.89951],[-42,33.78496],[-41.5,33.66748],[-41,33.54709],[-40.5,33.42385],[-40,33.29778],[-39.5,33.16895],[-39,33.03738],[-38.5,32.90312],[-38,32.76622],[-37.5,32.62672],[-37,32.48467],[-36.5,32.34011],[-36,32.1931],[-35.5,32.04367],[-35,31.89188],[-34.5,31.73778],[-34,31.58141],[-33.5,31.42283],[-33,31.26208],[-32.5,31.09923],[-32,30.9343],[-31.5,30.76737],[-31,30.59848],[-30.5,30.42769],[-30,30.25503],[-29.5,30.08058],[-29,29.90438],[-28.5,29.72648],[-28,29.54693],[-27.5,29.3658],[-27,29.18312],[-26.5,28.99896],[-26,28.81337],[-25.5,28.62639],[-25,28.43809],[-24.5,28.24851],[-24,28.0577],[-23.5,27.86572],[-23,27.67262],[-22.5,27.47845],[-22,27.28325],[-21.5,27.08708],[-21,26.88999],[-20.5,26.69203],[-20,26.49324],[-19.5,26.29367],[-19,26.09337],[-18.5,25.89239],[-18,25.69077],[-17.5,25.48855],[-17,25.28579],[-16.5,25.08251],[-16,24.87878],[-15.5,24.67462],[-15,24.47009],[-14.5,24.26522],[-14,24.06004],[-13.5,23.85461],[-13,23.64896],[-12.5,23.44312],[-12,23.23713],[-11.5,23.03103],[-11,22.82486],[-10.5,22.61864],[-10,22.41241],[-9.5,22.20621],[-9,22.00005],[-8.5,21.79399],[-8,21.58804],[-7.5,21.38223],[-7,21.1766],[-6.5,20.97116],[-6,20.76595],[-5.5,20.561],[-5,20.35632],[-4.5,20.15195],[-4,19.9479],[-3.5,19.74421],[-3,19.54088],[-2.5,19.33795],[-2,19.13543],[-1.5,18.93335],[-1,18.73172],[-0.5,18.53056],[0,18.3299],[0.5,18.12974],[1,17.93011],[1.5,17.73102],[2,17.53248],[2.5,17.33453],[3,17.13715],[3.45703,16.95727]]}},{"type":"Feature","id":"+11370521:center:0","properties":{"id":"+11370521","year":1137,"month":5,"day":21,"time_tdt":"16:30:23","type":"금환일식","type_code":"A","saros":104,"gamma":0.22355,"magnitude":0.95037,"greatest":{"lat":34.53341,"lng":-65.98627},"path_width_km":186.8,"duration":"05m51s","delta_t_seconds":934,"catalog_number":7457,"source":"NASA Five Millennium Canon of Solar Eclipses","source_url":"https://eclipse.gsfc.nasa.gov/SEsearch/SEsearchmap.php?Ecl=%2B11370521","boundary":"center","name":"1137-05-21 금환일식"},"geometry":{"type":"LineString","coordinates":[[-129.26807,8.14218],[-129,8.24558],[-128.5,8.44512],[-128,8.64613],[-127.5,8.84862],[-127,9.05257],[-126.5,9.25801],[-126,9.46491],[-125.5,9.67329],[-125,9.88315],[-124.5,10.09449],[-124,10.30729],[-123.5,10.52157],[-123,10.73732],[-122.5,10.95453],[-122,11.1732],[-121.5,11.39333],[-121,11.61491],[-120.5,11.83794],[-120,12.06241],[-119.5,12.2883],[-119,12.51562],[-118.5,12.74434],[-118,12.97447],[-117.5,13.20598],[-117,13.43887],[-116.5,13.67312],[-116,13.90871],[-115.5,14.14563],[-115,14.38386],[-114.5,14.62338],[-114,14.86416],[-113.5,15.1062],[-113,15.34945],[-112.5,15.59389],[-112,15.83951],[-111.5,16.08626],[-111,16.33412],[-110.5,16.58305],[-110,16.83302],[-109.5,17.084],[-109,17.33593],[-108.5,17.58879],[-108,17.84252],[-107.5,18.09709],[-107,18.35245],[-106.5,18.60854],[-106,18.86531],[-105.5,19.12271],[-105,19.38069],[-104.5,19.63917],[-104,19.89811],[-103.5,20.15744],[-103,20.41709],[-102.5,20.67698],[-102,20.93706],[-101.5,21.19725],[-101,21.45747],[-100.5,21.71764],[-100,21.97769],[-99.5,22.23752],[-99,22.49706],[-98.5,22.75622],[-98,23.01491],[-97.5,23.27304],[-97,23.53051],[-96.5,23.78724],[-96,24.04312],[-95.5,24.29807],[-95,24.55197],[-94.5,24.80473],[-94,25.05626],[-93.5,25.30645],[-93,25.5552],[-92.5,25.8024],[-92,26.04796],[-91.5,26.29177],[-91,26.53373],[-90.5,26.77374],[-90,27.01169],[-89.5,27.24749],[-89,27.48104],[-88.5,27.71223],[-88,27.94098],[-87.5,28.16718],[-87,28.39075],[-86.5,28.61158],[-86,28.82959],[-85.5,29.0447],[-85,29.25681],[-84.5,29.46584],[-84,29.67171],[-83.5,29.87434],[-83,30.07366],[-82.5,30.2696],[-82,30.46208],[-81.5,30.65104],[-81,30.83642],[-80.5,31.01814],[-80,31.19616],[-79.5,31.37043],[-79,31.54088],[-78.5,31.70747],[-78,31.87016],[-77.5,32.0289],[-77,32.18365],[-76.5,32.33437],[-76,32.48104],[-75.5,32.62362],[-75,32.76207],[-74.5,32.89639],[-74,33.02653],[-73.5,33.15249],[-73,33.27424],[-72.5,33.39177],[-72,33.50506],[-71.5,33.6141],[-71,33.71889],[-70.5,33.81941],[-70,33.91566],[-69.5,34.00763],[-69,34.09532],[-68.5,34.17874],[-68,34.25788],[-67.5,34.33275],[-67,34.40335],[-66.5,34.46968],[-66,34.53175],[-65.5,34.58957],[-65,34.64315],[-64.5,34.6925],[-64,34.73763],[-63.5,34.77855],[-63,34.81527],[-62.5,34.84781],[-62,34.87618],[-61.5,34.9004],[-61,34.92048],[-60.5,34.93645],[-60,34.94831],[-59.5,34.95609],[-59,34.9598],[-58.5,34.95947],[-58,34.95512],[-57.5,34.94676],[-57,34.93442],[-56.5,34.91812],[-56,34.89788],[-55.5,34.87372],[-55,34.84568],[-54.5,34.81376],[-54,34.77801],[-53.5,34.73844],[-53,34.69508],[-52.5,34.64796],[-52,34.5971],[-51.5,34.54253],[-51,34.48428],[-50.5,34.42238],[-50,34.35687],[-49.5,34.28776],[-49,34.2151],[-48.5,34.13891],[-48,34.05922],[-47.5,33.97608],[-47,33.88951],[-46.5,33.79955],[-46,33.70623],[-45.5,33.6096],[-45,33.50968],[-44.5,33.40653],[-44,33.30016],[-43.5,33.19063],[-43,33.07798],[-42.5,32.96224],[-42,32.84347],[-41.5,32.72169],[-41,32.59695],[-40.5,32.46931],[-40,32.3388],[-39.5,32.20547],[-39,32.06936],[-38.5,31.93053],[-38,31.78902],[-37.5,31.64487],[-37,31.49815],[-36.5,31.34889],[-36,31.19715],[-35.5,31.04299],[-35,30.88644],[-34.5,30.72757],[-34,30.56642],[-33.5,30.40305],[-33,30.23752],[-32.5,30.06987],[-32,29.90016],[-31.5,29.72844],[-31,29.55477],[-30.5,29.37921],[-30,29.20181],[-29.5,29.02262],[-29,28.8417],[-28.5,28.6591],[-28,28.47488],[-27.5,28.2891],[-27,28.1018],[-26.5,27.91305],[-26,27.7229],[-25.5,27.5314],[-25,27.33861],[-24.5,27.14458],[-24,26.94936],[-23.5,26.75301],[-23,26.55558],[-22.5,26.35712],[-22,26.15768],[-21.5,25.95732],[-21,25.75608],[-20.5,25.55402],[-20,25.35118],[-19.5,25.14761],[-19,24.94336],[-18.5,24.73848],[-18,24.53301],[-17.5,24.327],[-17,24.12049],[-16.5,23.91353],[-16,23.70616],[-15.5,23.49842],[-15,23.29036],[-14.5,23.08201],[-14,22.87342],[-13.5,22.66462],[-13,22.45565],[-12.5,22.24655],[-12,22.03736],[-11.5,21.82811],[-11,21.61883],[-10.5,21.40956],[-10,21.20034],[-9.5,20.99119],[-9,20.78214],[-8.5,20.57323],[-8,20.36448],[-7.5,20.15593],[-7,19.9476],[-6.5,19.73952],[-6,19.53171],[-5.5,19.3242],[-5,19.11702],[-4.5,18.91019],[-4,18.70372],[-3.5,18.49766],[-3,18.292],[-2.5,18.08679],[-2,17.88203],[-1.5,17.67774],[-1,17.47395],[-0.5,17.27068],[0,17.06793],[0.5,16.86573],[1,16.6641],[1.5,16.46304],[2,16.26258],[2.5,16.06273],[2.79602,15.94523]]}},{"type":"Feature","id":"+11370521:south:0","properties":{"id":"+11370521","year":1137,"month":5,"day":21,"time_tdt":"16:30:23","type":"금환일식","type_code":"A","saros":104,"gamma":0.22355,"magnitude":0.95037,"greatest":{"lat":34.53341,"lng":-65.98627},"path_width_km":186.8,"duration":"05m51s","delta_t_seconds":934,"catalog_number":7457,"source":"NASA Five Millennium Canon of Solar Eclipses","source_url":"https://eclipse.gsfc.nasa.gov/SEsearch/SEsearchmap.php?Ecl=%2B11370521","boundary":"south","name":"1137-05-21 금환일식"},"geometry":{"type":"LineString","coordinates":[[-128.64258,7.13652],[-128.5,7.19385],[-128,7.39584],[-127.5,7.59933],[-127,7.8043],[-126.5,8.01077],[-126,8.21873],[-125.5,8.42818],[-125,8.63913],[-124.5,8.85157],[-124,9.06551],[-123.5,9.28093],[-123,9.49785],[-122.5,9.71626],[-122,9.93616],[-121.5,10.15753],[-121,10.38039],[-120.5,10.60471],[-120,10.83051],[-119.5,11.05776],[-119,11.28647],[-118.5,11.51662],[-118,11.7482],[-117.5,11.98121],[-117,12.21562],[-116.5,12.45144],[-116,12.68864],[-115.5,12.92721],[-115,13.16712],[-114.5,13.40838],[-114,13.65094],[-113.5,13.8948],[-113,14.13993],[-112.5,14.3863],[-112,14.6339],[-111.5,14.88268],[-111,15.13263],[-110.5,15.38371],[-110,15.63589],[-109.5,15.88914],[-109,16.14341],[-108.5,16.39866],[-108,16.65486],[-107.5,16.91196],[-107,17.16992],[-106.5,17.42869],[-106,17.68821],[-105.5,17.94844],[-105,18.20932],[-104.5,18.47079],[-104,18.73279],[-103.5,18.99526],[-103,19.25813],[-102.5,19.52134],[-102,19.78481],[-101.5,20.04848],[-101,20.31227],[-100.5,20.57609],[-100,20.83988],[-99.5,21.10354],[-99,21.36699],[-98.5,21.63016],[-98,21.89293],[-97.5,22.15523],[-97,22.41697],[-96.5,22.67804],[-96,22.93835],[-95.5,23.1978],[-95,23.45629],[-94.5,23.71372],[-94,23.96998],[-93.5,24.22498],[-93,24.4786],[-92.5,24.73075],[-92,24.98131],[-91.5,25.23019],[-91,25.47726],[-90.5,25.72244],[-90,25.9656],[-89.5,26.20666],[-89,26.44549],[-88.5,26.68201],[-88,26.9161],[-87.5,27.14766],[-87,27.3766],[-86.5,27.60282],[-86,27.82621],[-85.5,28.0467],[-85,28.26418],[-84.5,28.47856],[-84,28.68977],[-83.5,28.8977],[-83,29.10229],[-82.5,29.30346],[-82,29.50112],[-81.5,29.69521],[-81,29.88565],[-80.5,30.07238],[-80,30.25533],[-79.5,30.43445],[-79,30.60968],[-78.5,30.78096],[-78,30.94825],[-77.5,31.11149],[-77,31.27064],[-76.5,31.42566],[-76,31.57652],[-75.5,31.72317],[-75,31.86558],[-74.5,32.00373],[-74,32.13758],[-73.5,32.26712],[-73,32.39233],[-72.5,32.51317],[-72,32.62964],[-71.5,32.74173],[-71,32.84942],[-70.5,32.9527],[-70,33.05156],[-69.5,33.14601],[-69,33.23603],[-68.5,33.32162],[-68,33.40279],[-67.5,33.47953],[-67,33.55185],[-66.5,33.61976],[-66,33.68325],[-65.5,33.74234],[-65,33.79704],[-64.5,33.84736],[-64,33.8933],[-63.5,33.93488],[-63,33.97211],[-62.5,34.00501],[-62,34.0336],[-61.5,34.05788],[-61,34.07787],[-60.5,34.0936],[-60,34.10509],[-59.5,34.11234],[-59,34.11538],[-58.5,34.11424],[-58,34.10893],[-57.5,34.09948],[-57,34.0859],[-56.5,34.06823],[-56,34.04648],[-55.5,34.02069],[-55,33.99088],[-54.5,33.95706],[-54,33.91928],[-53.5,33.87756],[-53,33.83193],[-52.5,33.78241],[-52,33.72903],[-51.5,33.67183],[-51,33.61084],[-50.5,33.54609],[-50,33.47761],[-49.5,33.40543],[-49,33.32959],[-48.5,33.25013],[-48,33.16707],[-47.5,33.08046],[-47,32.99033],[-46.5,32.89672],[-46,32.79967],[-45.5,32.69922],[-45,32.59541],[-44.5,32.48828],[-44,32.37786],[-43.5,32.26422],[-43,32.14738],[-42.5,32.02739],[-42,31.9043],[-41.5,31.77816],[-41,31.64901],[-40.5,31.51689],[-40,31.38186],[-39.5,31.24397],[-39,31.10326],[-38.5,30.95979],[-38,30.81361],[-37.5,30.66477],[-37,30.51332],[-36.5,30.35931],[-36,30.20281],[-35.5,30.04386],[-35,29.88251],[-34.5,29.71883],[-34,29.55287],[-33.5,29.38469],[-33,29.21433],[-32.5,29.04187],[-32,28.86735],[-31.5,28.69084],[-31,28.51238],[-30.5,28.33204],[-30,28.14988],[-29.5,27.96595],[-29,27.78032],[-28.5,27.59303],[-28,27.40415],[-27.5,27.21373],[-27,27.02183],[-26.5,26.8285],[-26,26.63382],[-25.5,26.43782],[-25,26.24056],[-24.5,26.04211],[-24,25.84252],[-23.5,25.64183],[-23,25.44011],[-22.5,25.2374],[-22,25.03377],[-21.5,24.82926],[-21,24.62392],[-20.5,24.41781],[-20,24.21097],[-19.5,24.00345],[-19,23.79531],[-18.5,23.58658],[-18,23.37732],[-17.5,23.16758],[-17,22.95739],[-16.5,22.7468],[-16,22.53585],[-15.5,22.3246],[-15,22.11307],[-14.5,21.90131],[-14,21.68936],[-13.5,21.47726],[-13,21.26504],[-12.5,21.05274],[-12,20.84041],[-11.5,20.62807],[-11,20.41575],[-10.5,20.2035],[-10,19.99134],[-9.5,19.77931],[-9,19.56743],[-8.5,19.35574],[-8,19.14426],[-7.5,18.93303],[-7,18.72206],[-6.5,18.51139],[-6,18.30105],[-5.5,18.09105],[-5,17.88141],[-4.5,17.67218],[-4,17.46336],[-3.5,17.25497],[-3,17.04705],[-2.5,16.8396],[-2,16.63265],[-1.5,16.42622],[-1,16.22032],[-0.5,16.01497],[0,15.8102],[0.5,15.606],[1,15.40241],[1.5,15.19944],[2,14.99709],[2.14648,14.93793]]}},{"type":"Feature","id":"+11371115:north:0","properties":{"id":"+11371115","year":1137,"month":11,"day":15,"time_tdt":"03:00:21","type":"개기일식","type_code":"Tm","saros":109,"gamma":0.01163,"magnitude":1.0297,"greatest":{"lat":-19.60452,"lng":135.74219},"path_width_km":100.5,"duration":"02m53s","delta_t_seconds":932.2,"catalog_number":7458,"source":"NASA Five Millennium Canon of Solar Eclipses","source_url":"https://eclipse.gsfc.nasa.gov/SEsearch/SEsearchmap.php?Ecl=%2B11371115","boundary":"north","name":"1137-11-15 개기일식"},"geometry":{"type":"LineString","coordinates":[[74.57422,7.21088],[75,7.05539],[75.5,6.87148],[76,6.68613],[76.5,6.49934],[77,6.31111],[77.5,6.12143],[78,5.93031],[78.5,5.73773],[79,5.54369],[79.5,5.3482],[80,5.15124],[80.5,4.95282],[81,4.75294],[81.5,4.55159],[82,4.34877],[82.5,4.14449],[83,3.93873],[83.5,3.73152],[84,3.52283],[84.5,3.31269],[85,3.10108],[85.5,2.88801],[86,2.67348],[86.5,2.45751],[87,2.24009],[87.5,2.02123],[88,1.80093],[88.5,1.5792],[89,1.35606],[89.5,1.13151],[90,0.90555],[90.5,0.67821],[91,0.44949],[91.5,0.2194],[92,-0.01203],[92.5,-0.2448],[93,-0.47888],[93.5,-0.71427],[94,-0.95093],[94.5,-1.18885],[95,-1.42801],[95.5,-1.66838],[96,-1.90994],[96.5,-2.15265],[97,-2.3965],[97.5,-2.64144],[98,-2.88745],[98.5,-3.13449],[99,-3.38253],[99.5,-3.63152],[100,-3.88142],[100.5,-4.1322],[101,-4.38381],[101.5,-4.63619],[102,-4.8893],[102.5,-5.14309],[103,-5.3975],[103.5,-5.65247],[104,-5.90795],[104.5,-6.16388],[105,-6.42017],[105.5,-6.67678],[106,-6.93363],[106.5,-7.19065],[107,-7.44776],[107.5,-7.70488],[108,-7.96193],[108.5,-8.21884],[109,-8.47551],[109.5,-8.73185],[110,-8.98778],[110.5,-9.2432],[111,-9.49802],[111.5,-9.75214],[112,-10.00546],[112.5,-10.25787],[113,-10.50928],[113.5,-10.75958],[114,-11.00866],[114.5,-11.25642],[115,-11.50274],[115.5,-11.74751],[116,-11.99063],[116.5,-12.23197],[117,-12.47144],[117.5,-12.70891],[118,-12.94427],[118.5,-13.17741],[119,-13.40822],[119.5,-13.63658],[120,-13.86238],[120.5,-14.08552],[121,-14.30589],[121.5,-14.52337],[122,-14.73787],[122.5,-14.94927],[123,-15.15748],[123.5,-15.36241],[124,-15.56394],[124.5,-15.762],[125,-15.95648],[125.5,-16.14731],[126,-16.33439],[126.5,-16.51765],[127,-16.697],[127.5,-16.87238],[128,-17.04372],[128.5,-17.21093],[129,-17.37398],[129.5,-17.53278],[130,-17.6873],[130.5,-17.83747],[131,-17.98325],[131.5,-18.1246],[132,-18.26147],[132.5,-18.39383],[133,-18.52164],[133.5,-18.64489],[134,-18.76353],[134.5,-18.87756],[135,-18.98695],[135.5,-19.09169],[136,-19.19177],[136.5,-19.28717],[137,-19.3779],[137.5,-19.46396],[138,-19.54533],[138.5,-19.62204],[139,-19.69408],[139.5,-19.76146],[140,-19.8242],[140.5,-19.88231],[141,-19.93582],[141.5,-19.98473],[142,-20.02907],[142.5,-20.06886],[143,-20.10413],[143.5,-20.13491],[144,-20.16122],[144.5,-20.1831],[145,-20.20058],[145.5,-20.21369],[146,-20.22247],[146.5,-20.22696],[147,-20.2272],[147.5,-20.22321],[148,-20.21506],[148.5,-20.20277],[149,-20.18639],[149.5,-20.16596],[150,-20.14153],[150.5,-20.11315],[151,-20.08087],[151.5,-20.04472],[152,-20.00476],[152.5,-19.96104],[153,-19.9136],[153.5,-19.8625],[154,-19.80779],[154.5,-19.74951],[155,-19.68773],[155.5,-19.62249],[156,-19.55384],[156.5,-19.48184],[157,-19.40654],[157.5,-19.328],[158,-19.24627],[158.5,-19.16139],[159,-19.07344],[159.5,-18.98246],[160,-18.8885],[160.5,-18.79162],[161,-18.69188],[161.5,-18.58932],[162,-18.48401],[162.5,-18.376],[163,-18.26535],[163.5,-18.1521],[164,-18.03631],[164.5,-17.91804],[165,-17.79734],[165.5,-17.67427],[166,-17.54888],[166.5,-17.42122],[167,-17.29134],[167.5,-17.15931],[168,-17.02517],[168.5,-16.88897],[169,-16.75077],[169.5,-16.61062],[170,-16.46856],[170.5,-16.32466],[171,-16.17896],[171.5,-16.03152],[172,-15.88237],[172.5,-15.73158],[173,-15.57918],[173.5,-15.42524],[174,-15.26979],[174.5,-15.11288],[175,-14.95456],[175.5,-14.79488],[176,-14.63388],[176.5,-14.47161],[177,-14.30811],[177.5,-14.14342],[178,-13.97759],[178.5,-13.81066],[179,-13.64268],[179.5,-13.47368],[180,-13.3037]]}},{"type":"Feature","id":"+11371115:north:1","properties":{"id":"+11371115","year":1137,"month":11,"day":15,"time_tdt":"03:00:21","type":"개기일식","type_code":"Tm","saros":109,"gamma":0.01163,"magnitude":1.0297,"greatest":{"lat":-19.60452,"lng":135.74219},"path_width_km":100.5,"duration":"02m53s","delta_t_seconds":932.2,"catalog_number":7458,"source":"NASA Five Millennium Canon of Solar Eclipses","source_url":"https://eclipse.gsfc.nasa.gov/SEsearch/SEsearchmap.php?Ecl=%2B11371115","boundary":"north","name":"1137-11-15 개기일식"},"geometry":{"type":"LineString","coordinates":[[-179.5,-13.13279],[-179,-12.96098],[-178.5,-12.78832],[-178,-12.61484],[-177.5,-12.44058],[-177,-12.26557],[-176.5,-12.08986],[-176,-11.91347],[-175.5,-11.73645],[-175,-11.55883],[-174.5,-11.38063],[-174,-11.2019],[-173.5,-11.02266],[-173,-10.84296],[-172.5,-10.66281],[-172,-10.48225],[-171.5,-10.30131],[-171,-10.12002],[-170.5,-9.9384],[-170,-9.75649],[-169.5,-9.57431],[-169,-9.39189],[-168.5,-9.20926],[-168,-9.02643],[-167.5,-8.84345],[-167,-8.66032],[-166.5,-8.47707],[-166,-8.29374],[-165.5,-8.11033],[-165,-7.92687],[-164.5,-7.74339],[-164,-7.5599],[-163.5,-7.37643],[-163,-7.193],[-162.5,-7.00961],[-162,-6.82631],[-161.5,-6.64309],[-161,-6.45999],[-160.5,-6.27701],[-160,-6.09418],[-159.5,-5.91152],[-159,-5.72903],[-158.54688,-5.56382]]}},{"type":"Feature","id":"+11371115:center:0","properties":{"id":"+11371115","year":1137,"month":11,"day":15,"time_tdt":"03:00:21","type":"개기일식","type_code":"Tm","saros":109,"gamma":0.01163,"magnitude":1.0297,"greatest":{"lat":-19.60452,"lng":135.74219},"path_width_km":100.5,"duration":"02m53s","delta_t_seconds":932.2,"catalog_number":7458,"source":"NASA Five Millennium Canon of Solar Eclipses","source_url":"https://eclipse.gsfc.nasa.gov/SEsearch/SEsearchmap.php?Ecl=%2B11371115","boundary":"center","name":"1137-11-15 개기일식"},"geometry":{"type":"LineString","coordinates":[[74.49958,7.04834],[75,6.86341],[75.5,6.67656],[76,6.48826],[76.5,6.29849],[77,6.10727],[77.5,5.91457],[78,5.7204],[78.5,5.52476],[79,5.32764],[79.5,5.12904],[80,4.92896],[80.5,4.72739],[81,4.52433],[81.5,4.31979],[82,4.11376],[82.5,3.90625],[83,3.69724],[83.5,3.48675],[84,3.27478],[84.5,3.06132],[85,2.84638],[85.5,2.62996],[86,2.41206],[86.5,2.1927],[87,1.97187],[87.5,1.74959],[88,1.52585],[88.5,1.30067],[89,1.07406],[89.5,0.84602],[90,0.61656],[90.5,0.38571],[91,0.15346],[91.5,-0.08016],[92,-0.31514],[92.5,-0.55147],[93,-0.78912],[93.5,-1.02808],[94,-1.26833],[94.5,-1.50984],[95,-1.75258],[95.5,-1.99655],[96,-2.2417],[96.5,-2.48801],[97,-2.73545],[97.5,-2.98398],[98,-3.23358],[98.5,-3.4842],[99,-3.73581],[99.5,-3.98836],[100,-4.24181],[100.5,-4.49612],[101,-4.75125],[101.5,-5.00713],[102,-5.26372],[102.5,-5.52096],[103,-5.7788],[103.5,-6.03718],[104,-6.29603],[104.5,-6.55529],[105,-6.81489],[105.5,-7.07477],[106,-7.33484],[106.5,-7.59504],[107,-7.85528],[107.5,-8.11549],[108,-8.37558],[108.5,-8.63546],[109,-8.89505],[109.5,-9.15426],[110,-9.41299],[110.5,-9.67115],[111,-9.92863],[111.5,-10.18535],[112,-10.44119],[112.5,-10.69606],[113,-10.94984],[113.5,-11.20244],[114,-11.45373],[114.5,-11.70362],[115,-11.95199],[115.5,-12.19872],[116,-12.44371],[116.5,-12.68684],[117,-12.928],[117.5,-13.16708],[118,-13.40396],[118.5,-13.63852],[119,-13.87066],[119.5,-14.10026],[120,-14.32721],[120.5,-14.55141],[121,-14.77274],[121.5,-14.99111],[122,-15.20639],[122.5,-15.4185],[123,-15.62733],[123.5,-15.83279],[124,-16.03478],[124.5,-16.2332],[125,-16.42798],[125.5,-16.61902],[126,-16.80625],[126.5,-16.98958],[127,-17.16894],[127.5,-17.34426],[128,-17.51547],[128.5,-17.6825],[129,-17.8453],[129.5,-18.00381],[130,-18.15797],[130.5,-18.30774],[131,-18.45308],[131.5,-18.59393],[132,-18.73027],[132.5,-18.86206],[133,-18.98927],[133.5,-19.11187],[134,-19.22985],[134.5,-19.34317],[135,-19.45183],[135.5,-19.55582],[136,-19.65511],[136.5,-19.74972],[137,-19.83963],[137.5,-19.92485],[138,-20.00537],[138.5,-20.08121],[139,-20.15237],[139.5,-20.21885],[140,-20.28069],[140.5,-20.33788],[141,-20.39045],[141.5,-20.43843],[142,-20.48182],[142.5,-20.52065],[143,-20.55496],[143.5,-20.58476],[144,-20.61009],[144.5,-20.63098],[145,-20.64746],[145.5,-20.65956],[146,-20.66733],[146.5,-20.67079],[147,-20.66998],[147.5,-20.66495],[148,-20.65574],[148.5,-20.64238],[149,-20.62492],[149.5,-20.6034],[150,-20.57787],[150.5,-20.54838],[151,-20.51495],[151.5,-20.47766],[152,-20.43653],[152.5,-20.39163],[153,-20.34299],[153.5,-20.29067],[154,-20.23472],[154.5,-20.17519],[155,-20.11213],[155.5,-20.04559],[156,-19.97563],[156.5,-19.90229],[157,-19.82562],[157.5,-19.74569],[158,-19.66254],[158.5,-19.57623],[159,-19.48681],[159.5,-19.39433],[160,-19.29886],[160.5,-19.20043],[161,-19.09911],[161.5,-18.99496],[162,-18.88801],[162.5,-18.77834],[163,-18.666],[163.5,-18.55103],[164,-18.43349],[164.5,-18.31344],[165,-18.19093],[165.5,-18.06602],[166,-17.93876],[166.5,-17.8092],[167,-17.67739],[167.5,-17.5434],[168,-17.40727],[168.5,-17.26905],[169,-17.1288],[169.5,-16.98656],[170,-16.8424],[170.5,-16.69636],[171,-16.5485],[171.5,-16.39886],[172,-16.24749],[172.5,-16.09445],[173,-15.93978],[173.5,-15.78353],[174,-15.62575],[174.5,-15.46649],[175,-15.30579],[175.5,-15.14371],[176,-14.98028],[176.5,-14.81556],[177,-14.64959],[177.5,-14.48241],[178,-14.31406],[178.5,-14.1446],[179,-13.97406],[179.5,-13.80249],[180,-13.62992]]}},{"type":"Feature","id":"+11371115:center:1","properties":{"id":"+11371115","year":1137,"month":11,"day":15,"time_tdt":"03:00:21","type":"개기일식","type_code":"Tm","saros":109,"gamma":0.01163,"magnitude":1.0297,"greatest":{"lat":-19.60452,"lng":135.74219},"path_width_km":100.5,"duration":"02m53s","delta_t_seconds":932.2,"catalog_number":7458,"source":"NASA Five Millennium Canon of Solar Eclipses","source_url":"https://eclipse.gsfc.nasa.gov/SEsearch/SEsearchmap.php?Ecl=%2B11371115","boundary":"center","name":"1137-11-15 개기일식"},"geometry":{"type":"LineString","coordinates":[[-179.5,-13.4564],[-179,-13.28197],[-178.5,-13.10666],[-178,-12.93052],[-177.5,-12.75359],[-177,-12.5759],[-176.5,-12.39748],[-176,-12.21839],[-175.5,-12.03864],[-175,-11.85828],[-174.5,-11.67734],[-174,-11.49585],[-173.5,-11.31385],[-173,-11.13137],[-172.5,-10.94844],[-172,-10.76509],[-171.5,-10.58136],[-171,-10.39727],[-170.5,-10.21285],[-170,-10.02813],[-169.5,-9.84314],[-169,-9.6579],[-168.5,-9.47245],[-168,-9.28681],[-167.5,-9.101],[-167,-8.91505],[-166.5,-8.72898],[-166,-8.54282],[-165.5,-8.3566],[-165,-8.17032],[-164.5,-7.98402],[-164,-7.79772],[-163.5,-7.61144],[-163,-7.4252],[-162.5,-7.23901],[-162,-7.05291],[-161.5,-6.8669],[-161,-6.68101],[-160.5,-6.49525],[-160,-6.30965],[-159.5,-6.12421],[-159,-5.93896],[-158.5,-5.75391],[-158.46861,-5.74224]]}},{"type":"Feature","id":"+11371115:south:0","properties":{"id":"+11371115","year":1137,"month":11,"day":15,"time_tdt":"03:00:21","type":"개기일식","type_code":"Tm","saros":109,"gamma":0.01163,"magnitude":1.0297,"greatest":{"lat":-19.60452,"lng":135.74219},"path_width_km":100.5,"duration":"02m53s","delta_t_seconds":932.2,"catalog_number":7458,"source":"NASA Five Millennium Canon of Solar Eclipses","source_url":"https://eclipse.gsfc.nasa.gov/SEsearch/SEsearchmap.php?Ecl=%2B11371115","boundary":"south","name":"1137-11-15 개기일식"},"geometry":{"type":"LineString","coordinates":[[74.42969,6.88521],[74.5,6.85885],[75,6.67052],[75.5,6.48072],[76,6.28943],[76.5,6.09667],[77,5.90242],[77.5,5.70668],[78,5.50945],[78.5,5.31072],[79,5.11048],[79.5,4.90875],[80,4.70551],[80.5,4.50077],[81,4.29452],[81.5,4.08676],[82,3.87749],[82.5,3.66672],[83,3.45443],[83.5,3.24064],[84,3.02534],[84.5,2.80854],[85,2.59023],[85.5,2.37043],[86,2.14914],[86.5,1.92636],[87,1.7021],[87.5,1.47636],[88,1.24915],[88.5,1.02049],[89,0.79037],[89.5,0.55882],[90,0.32583],[90.5,0.09143],[91,-0.14437],[91.5,-0.38156],[92,-0.62012],[92.5,-0.86003],[93,-1.10128],[93.5,-1.34385],[94,-1.5877],[94.5,-1.83282],[95,-2.07919],[95.5,-2.32678],[96,-2.57555],[96.5,-2.82548],[97,-3.07654],[97.5,-3.32868],[98,-3.58189],[98.5,-3.83611],[99,-4.09131],[99.5,-4.34744],[100,-4.60446],[100.5,-4.86232],[101,-5.12097],[101.5,-5.38037],[102,-5.64045],[102.5,-5.90116],[103,-6.16244],[103.5,-6.42422],[104,-6.68645],[104.5,-6.94905],[105,-7.21195],[105.5,-7.47509],[106,-7.73839],[106.5,-8.00176],[107,-8.26512],[107.5,-8.52841],[108,-8.79151],[108.5,-9.05436],[109,-9.31686],[109.5,-9.57891],[110,-9.84041],[110.5,-10.10128],[111,-10.36141],[111.5,-10.62069],[112,-10.87902],[112.5,-11.1363],[113,-11.39242],[113.5,-11.64727],[114,-11.90074],[114.5,-12.15271],[115,-12.40308],[115.5,-12.65172],[116,-12.89854],[116.5,-13.1434],[117,-13.3862],[117.5,-13.62683],[118,-13.86516],[118.5,-14.10109],[119,-14.3345],[119.5,-14.56528],[120,-14.79332],[120.5,-15.01852],[121,-15.24076],[121.5,-15.45994],[122,-15.67595],[122.5,-15.8887],[123,-16.09809],[123.5,-16.30403],[124,-16.50641],[124.5,-16.70515],[125,-16.90016],[125.5,-17.09137],[126,-17.27869],[126.5,-17.46204],[127,-17.64135],[127.5,-17.81656],[128,-17.9876],[128.5,-18.1544],[129,-18.31691],[129.5,-18.47508],[130,-18.62886],[130.5,-18.77819],[131,-18.92304],[131.5,-19.06338],[132,-19.19915],[132.5,-19.33034],[133,-19.45691],[133.5,-19.57885],[134,-19.69613],[134.5,-19.80873],[135,-19.91665],[135.5,-20.01986],[136,-20.11837],[136.5,-20.21216],[137,-20.30124],[137.5,-20.38561],[138,-20.46528],[138.5,-20.54024],[139,-20.61051],[139.5,-20.6761],[140,-20.73703],[140.5,-20.79331],[141,-20.84495],[141.5,-20.89199],[142,-20.93444],[142.5,-20.97232],[143,-21.00567],[143.5,-21.03451],[144,-21.05886],[144.5,-21.07877],[145,-21.09426],[145.5,-21.10537],[146,-21.11214],[146.5,-21.11459],[147,-21.11276],[147.5,-21.10671],[148,-21.09645],[148.5,-21.08205],[149,-21.06353],[149.5,-21.04094],[150,-21.01433],[150.5,-20.98373],[151,-20.9492],[151.5,-20.91078],[152,-20.86851],[152.5,-20.82245],[153,-20.77264],[153.5,-20.71913],[154,-20.66197],[154.5,-20.60122],[155,-20.53691],[155.5,-20.4691],[156,-20.39784],[156.5,-20.32318],[157,-20.24518],[157.5,-20.16389],[158,-20.07935],[158.5,-19.99163],[159,-19.90077],[159.5,-19.80683],[160,-19.70986],[160.5,-19.60992],[161,-19.50705],[161.5,-19.40132],[162,-19.29278],[162.5,-19.18147],[163,-19.06746],[163.5,-18.9508],[164,-18.83154],[164.5,-18.70974],[165,-18.58545],[165.5,-18.45872],[166,-18.32961],[166.5,-18.19817],[167,-18.06446],[167.5,-17.92853],[168,-17.79043],[168.5,-17.65021],[169,-17.50793],[169.5,-17.36364],[170,-17.21739],[170.5,-17.06923],[171,-16.91922],[171.5,-16.7674],[172,-16.61383],[172.5,-16.45855],[173,-16.30162],[173.5,-16.14308],[174,-15.98299],[174.5,-15.82138],[175,-15.65832],[175.5,-15.49384],[176,-15.328],[176.5,-15.16084],[177,-14.9924],[177.5,-14.82274],[178,-14.65188],[178.5,-14.47989],[179,-14.3068],[179.5,-14.13266],[180,-13.9575]]}},{"type":"Feature","id":"+11371115:south:1","properties":{"id":"+11371115","year":1137,"month":11,"day":15,"time_tdt":"03:00:21","type":"개기일식","type_code":"Tm","saros":109,"gamma":0.01163,"magnitude":1.0297,"greatest":{"lat":-19.60452,"lng":135.74219},"path_width_km":100.5,"duration":"02m53s","delta_t_seconds":932.2,"catalog_number":7458,"source":"NASA Five Millennium Canon of Solar Eclipses","source_url":"https://eclipse.gsfc.nasa.gov/SEsearch/SEsearchmap.php?Ecl=%2B11371115","boundary":"south","name":"1137-11-15 개기일식"},"geometry":{"type":"LineString","coordinates":[[-179.5,-13.78138],[-179,-13.60432],[-178.5,-13.42637],[-178,-13.24757],[-177.5,-13.06797],[-177,-12.88759],[-176.5,-12.70647],[-176,-12.52466],[-175.5,-12.34218],[-175,-12.15908],[-174.5,-11.97539],[-174,-11.79114],[-173.5,-11.60637],[-173,-11.42111],[-172.5,-11.23539],[-172,-11.04925],[-171.5,-10.86271],[-171,-10.67581],[-170.5,-10.48857],[-170,-10.30104],[-169.5,-10.11322],[-169,-9.92516],[-168.5,-9.73688],[-168,-9.54841],[-167.5,-9.35976],[-167,-9.17098],[-166.5,-8.98208],[-166,-8.79309],[-165.5,-8.60403],[-165,-8.41492],[-164.5,-8.22579],[-164,-8.03666],[-163.5,-7.84756],[-163,-7.65849],[-162.5,-7.46949],[-162,-7.28057],[-161.5,-7.09175],[-161,-6.90306],[-160.5,-6.7145],[-160,-6.52611],[-159.5,-6.33789],[-159,-6.14986],[-158.5,-5.96204],[-158.39062,-5.92098]]}}],"attribution":"Eclipse Predictions by Fred Espenak and Jean Meeus (NASA's GSFC)","generated_at":"2026-09-23T03:35:43.219Z"}
