{"type":"FeatureCollection","year":1138,"events":[{"id":"+11380510","year":1138,"month":5,"day":10,"time_tdt":"19:48:33","type":"금환일식","type_code":"A","saros":114,"gamma":-0.54466,"magnitude":0.98351,"greatest":{"lat":-13.52158,"lng":-110.01831},"path_width_km":69.5,"duration":"01m58s","delta_t_seconds":930.4,"catalog_number":7459,"source":"NASA Five Millennium Canon of Solar Eclipses","source_url":"https://eclipse.gsfc.nasa.gov/SEsearch/SEsearchmap.php?Ecl=%2B11380510"},{"id":"+11381104","year":1138,"month":11,"day":4,"time_tdt":"14:24:41","type":"금환일식","type_code":"A","saros":119,"gamma":0.73618,"magnitude":0.97321,"greatest":{"lat":29.40749,"lng":-27.20386},"path_width_km":141.2,"duration":"02m51s","delta_t_seconds":928.7,"catalog_number":7460,"source":"NASA Five Millennium Canon of Solar Eclipses","source_url":"https://eclipse.gsfc.nasa.gov/SEsearch/SEsearchmap.php?Ecl=%2B11381104"}],"features":[{"type":"Feature","id":"+11380510:north:0","properties":{"id":"+11380510","year":1138,"month":5,"day":10,"time_tdt":"19:48:33","type":"금환일식","type_code":"A","saros":114,"gamma":-0.54466,"magnitude":0.98351,"greatest":{"lat":-13.52158,"lng":-110.01831},"path_width_km":69.5,"duration":"01m58s","delta_t_seconds":930.4,"catalog_number":7459,"source":"NASA Five Millennium Canon of Solar Eclipses","source_url":"https://eclipse.gsfc.nasa.gov/SEsearch/SEsearchmap.php?Ecl=%2B11380510","boundary":"north","name":"1138-05-10 금환일식"},"geometry":{"type":"LineString","coordinates":[[-164.84375,-38.06956],[-164.5,-37.94551],[-164,-37.76388],[-163.5,-37.58084],[-163,-37.39638],[-162.5,-37.2105],[-162,-37.02319],[-161.5,-36.83444],[-161,-36.64425],[-160.5,-36.4526],[-160,-36.25951],[-159.5,-36.06495],[-159,-35.86892],[-158.5,-35.67142],[-158,-35.47245],[-157.5,-35.27199],[-157,-35.07005],[-156.5,-34.86662],[-156,-34.66169],[-155.5,-34.45526],[-155,-34.24733],[-154.5,-34.03789],[-154,-33.82694],[-153.5,-33.61448],[-153,-33.40051],[-152.5,-33.18502],[-152,-32.96801],[-151.5,-32.74949],[-151,-32.52944],[-150.5,-32.30789],[-150,-32.08481],[-149.5,-31.86022],[-149,-31.63412],[-148.5,-31.40652],[-148,-31.17741],[-147.5,-30.9468],[-147,-30.7147],[-146.5,-30.48111],[-146,-30.24605],[-145.5,-30.00951],[-145,-29.77153],[-144.5,-29.53209],[-144,-29.29123],[-143.5,-29.04894],[-143,-28.80526],[-142.5,-28.56019],[-142,-28.31377],[-141.5,-28.066],[-141,-27.81691],[-140.5,-27.56653],[-140,-27.31488],[-139.5,-27.06201],[-139,-26.80793],[-138.5,-26.55268],[-138,-26.29631],[-137.5,-26.03885],[-137,-25.78035],[-136.5,-25.52085],[-136,-25.26041],[-135.5,-24.99908],[-135,-24.73691],[-134.5,-24.47397],[-134,-24.21033],[-133.5,-23.94605],[-133,-23.68121],[-132.5,-23.41588],[-132,-23.15015],[-131.5,-22.88411],[-131,-22.61785],[-130.5,-22.35147],[-130,-22.08507],[-129.5,-21.81876],[-129,-21.55266],[-128.5,-21.28688],[-128,-21.02155],[-127.5,-20.7568],[-127,-20.49277],[-126.5,-20.2296],[-126,-19.96744],[-125.5,-19.70645],[-125,-19.44678],[-124.5,-19.1886],[-124,-18.93207],[-123.5,-18.67739],[-123,-18.42471],[-122.5,-18.17424],[-122,-17.92616],[-121.5,-17.68065],[-121,-17.43793],[-120.5,-17.19818],[-120,-16.9616],[-119.5,-16.7284],[-119,-16.49878],[-118.5,-16.27294],[-118,-16.05108],[-117.5,-15.83341],[-117,-15.62012],[-116.5,-15.4114],[-116,-15.20746],[-115.5,-15.00847],[-115,-14.81461],[-114.5,-14.62606],[-114,-14.44299],[-113.5,-14.26556],[-113,-14.09391],[-112.5,-13.92819],[-112,-13.76853],[-111.5,-13.61505],[-111,-13.46786],[-110.5,-13.32707],[-110,-13.19276],[-109.5,-13.065],[-109,-12.94386],[-108.5,-12.82939],[-108,-12.72164],[-107.5,-12.62063],[-107,-12.52637],[-106.5,-12.43889],[-106,-12.35816],[-105.5,-12.28418],[-105,-12.21692],[-104.5,-12.15634],[-104,-12.1024],[-103.5,-12.05504],[-103,-12.0142],[-102.5,-11.97981],[-102,-11.9518],[-101.5,-11.93007],[-101,-11.91454],[-100.5,-11.90511],[-100,-11.90169],[-99.5,-11.90417],[-99,-11.91243],[-98.5,-11.92637],[-98,-11.94587],[-97.5,-11.97081],[-97,-12.00108],[-96.5,-12.03655],[-96,-12.0771],[-95.5,-12.12261],[-95,-12.17296],[-94.5,-12.22802],[-94,-12.28766],[-93.5,-12.35177],[-93,-12.42023],[-92.5,-12.4929],[-92,-12.56968],[-91.5,-12.65044],[-91,-12.73506],[-90.5,-12.82344],[-90,-12.91545],[-89.5,-13.01098],[-89,-13.10992],[-88.5,-13.21216],[-88,-13.31761],[-87.5,-13.42614],[-87,-13.53767],[-86.5,-13.65208],[-86,-13.76929],[-85.5,-13.88919],[-85,-14.01169],[-84.5,-14.13671],[-84,-14.26415],[-83.5,-14.39393],[-83,-14.52595],[-82.5,-14.66015],[-82,-14.79643],[-81.5,-14.93473],[-81,-15.07495],[-80.5,-15.21704],[-80,-15.36092],[-79.5,-15.50652],[-79,-15.65376],[-78.5,-15.80259],[-78,-15.95294],[-77.5,-16.10475],[-77,-16.25795],[-76.5,-16.4125],[-76,-16.56832],[-75.5,-16.72537],[-75,-16.88359],[-74.5,-17.04293],[-74,-17.20335],[-73.5,-17.36478],[-73,-17.52718],[-72.5,-17.69051],[-72,-17.85472],[-71.5,-18.01977],[-71,-18.18562],[-70.5,-18.35222],[-70,-18.51953],[-69.5,-18.68752],[-69,-18.85616],[-68.5,-19.02539],[-68,-19.19519],[-67.5,-19.36553],[-67,-19.53637],[-66.5,-19.70768],[-66,-19.87942],[-65.5,-20.05157],[-65,-20.22411],[-64.5,-20.39699],[-64,-20.5702],[-63.5,-20.7437],[-63,-20.91747],[-62.5,-21.09149],[-62,-21.26574],[-61.5,-21.44018],[-61,-21.61479],[-60.5,-21.78956],[-60,-21.96446],[-59.5,-22.13947],[-59,-22.31457],[-58.5,-22.48975],[-58,-22.66497],[-57.5,-22.84023],[-57,-23.01551],[-56.95312,-23.03194]]}},{"type":"Feature","id":"+11380510:center:0","properties":{"id":"+11380510","year":1138,"month":5,"day":10,"time_tdt":"19:48:33","type":"금환일식","type_code":"A","saros":114,"gamma":-0.54466,"magnitude":0.98351,"greatest":{"lat":-13.52158,"lng":-110.01831},"path_width_km":69.5,"duration":"01m58s","delta_t_seconds":930.4,"catalog_number":7459,"source":"NASA Five Millennium Canon of Solar Eclipses","source_url":"https://eclipse.gsfc.nasa.gov/SEsearch/SEsearchmap.php?Ecl=%2B11380510","boundary":"center","name":"1138-05-10 금환일식"},"geometry":{"type":"LineString","coordinates":[[-164.65069,-38.57796],[-164.5,-38.51543],[-164,-38.33164],[-163.5,-38.14643],[-163,-37.95978],[-162.5,-37.7717],[-162,-37.58218],[-161.5,-37.3912],[-161,-37.19878],[-160.5,-37.00489],[-160,-36.80953],[-159.5,-36.6127],[-159,-36.4144],[-158.5,-36.21461],[-158,-36.01333],[-157.5,-35.81056],[-157,-35.60629],[-156.5,-35.40052],[-156,-35.19324],[-155.5,-34.98444],[-155,-34.77414],[-154.5,-34.56232],[-154,-34.34897],[-153.5,-34.13411],[-153,-33.91771],[-152.5,-33.6998],[-152,-33.48035],[-151.5,-33.25938],[-151,-33.03687],[-150.5,-32.81284],[-150,-32.58729],[-149.5,-32.36021],[-149,-32.13161],[-148.5,-31.90149],[-148,-31.66985],[-147.5,-31.43671],[-147,-31.20207],[-146.5,-30.96593],[-146,-30.7283],[-145.5,-30.4892],[-145,-30.24863],[-144.5,-30.00661],[-144,-29.76315],[-143.5,-29.51826],[-143,-29.27197],[-142.5,-29.02428],[-142,-28.77522],[-141.5,-28.52482],[-141,-28.27309],[-140.5,-28.02006],[-140,-27.76576],[-139.5,-27.51023],[-139,-27.25348],[-138.5,-26.99557],[-138,-26.73652],[-137.5,-26.47639],[-137,-26.21521],[-136.5,-25.95303],[-136,-25.6899],[-135.5,-25.42588],[-135,-25.16103],[-134.5,-24.89541],[-134,-24.62908],[-133.5,-24.36212],[-133,-24.0946],[-132.5,-23.8266],[-132,-23.5582],[-131.5,-23.28949],[-131,-23.02058],[-130.5,-22.75155],[-130,-22.48251],[-129.5,-22.21357],[-129,-21.94485],[-128.5,-21.67647],[-128,-21.40855],[-127.5,-21.14123],[-127,-20.87465],[-126.5,-20.60896],[-126,-20.34429],[-125.5,-20.08082],[-125,-19.81869],[-124.5,-19.55808],[-124,-19.29917],[-123.5,-19.04212],[-123,-18.78712],[-122.5,-18.53437],[-122,-18.28404],[-121.5,-18.03634],[-121,-17.79146],[-120.5,-17.54961],[-120,-17.31098],[-119.5,-17.07579],[-119,-16.84424],[-118.5,-16.61652],[-118,-16.39286],[-117.5,-16.17345],[-117,-15.95849],[-116.5,-15.74818],[-116,-15.54272],[-115.5,-15.34229],[-115,-15.14708],[-114.5,-14.95726],[-114,-14.77301],[-113.5,-14.59448],[-113,-14.42183],[-112.5,-14.25521],[-112,-14.09474],[-111.5,-13.94055],[-111,-13.79276],[-110.5,-13.65145],[-110,-13.51673],[-109.5,-13.38867],[-109,-13.26733],[-108.5,-13.15277],[-108,-13.04503],[-107.5,-12.94414],[-107,-12.85011],[-106.5,-12.76295],[-106,-12.68265],[-105.5,-12.60921],[-105,-12.54258],[-104.5,-12.48274],[-104,-12.42963],[-103.5,-12.38321],[-103,-12.3434],[-102.5,-12.31014],[-102,-12.28334],[-101.5,-12.26292],[-101,-12.24879],[-100.5,-12.24085],[-100,-12.239],[-99.5,-12.24312],[-99,-12.25311],[-98.5,-12.26886],[-98,-12.29024],[-97.5,-12.31714],[-97,-12.34943],[-96.5,-12.38699],[-96,-12.42969],[-95.5,-12.47742],[-95,-12.53004],[-94.5,-12.58742],[-94,-12.64945],[-93.5,-12.716],[-93,-12.78694],[-92.5,-12.86215],[-92,-12.9415],[-91.5,-13.02488],[-91,-13.11217],[-90.5,-13.20324],[-90,-13.29798],[-89.5,-13.39628],[-89,-13.49802],[-88.5,-13.60309],[-88,-13.71139],[-87.5,-13.82281],[-87,-13.93725],[-86.5,-14.05459],[-86,-14.17475],[-85.5,-14.29763],[-85,-14.42312],[-84.5,-14.55115],[-84,-14.68161],[-83.5,-14.81442],[-83,-14.94949],[-82.5,-15.08675],[-82,-15.2261],[-81.5,-15.36748],[-81,-15.51079],[-80.5,-15.65597],[-80,-15.80295],[-79.5,-15.95165],[-79,-16.102],[-78.5,-16.25394],[-78,-16.4074],[-77.5,-16.56233],[-77,-16.71864],[-76.5,-16.8763],[-76,-17.03524],[-75.5,-17.1954],[-75,-17.35673],[-74.5,-17.51918],[-74,-17.68269],[-73.5,-17.84722],[-73,-18.01272],[-72.5,-18.17913],[-72,-18.34643],[-71.5,-18.51455],[-71,-18.68347],[-70.5,-18.85313],[-70,-19.0235],[-69.5,-19.19454],[-69,-19.36621],[-68.5,-19.53847],[-68,-19.71129],[-67.5,-19.88464],[-67,-20.05848],[-66.5,-20.23278],[-66,-20.40751],[-65.5,-20.58263],[-65,-20.75812],[-64.5,-20.93396],[-64,-21.1101],[-63.5,-21.28653],[-63,-21.46322],[-62.5,-21.64015],[-62,-21.81728],[-61.5,-21.9946],[-61,-22.17209],[-60.5,-22.34971],[-60,-22.52746],[-59.5,-22.7053],[-59,-22.88322],[-58.5,-23.0612],[-58,-23.23922],[-57.5,-23.41726],[-57.06329,-23.57282]]}},{"type":"Feature","id":"+11380510:south:0","properties":{"id":"+11380510","year":1138,"month":5,"day":10,"time_tdt":"19:48:33","type":"금환일식","type_code":"A","saros":114,"gamma":-0.54466,"magnitude":0.98351,"greatest":{"lat":-13.52158,"lng":-110.01831},"path_width_km":69.5,"duration":"01m58s","delta_t_seconds":930.4,"catalog_number":7459,"source":"NASA Five Millennium Canon of Solar Eclipses","source_url":"https://eclipse.gsfc.nasa.gov/SEsearch/SEsearchmap.php?Ecl=%2B11380510","boundary":"south","name":"1138-05-10 금환일식"},"geometry":{"type":"LineString","coordinates":[[-164.47461,-39.08135],[-164,-38.9048],[-163.5,-38.71741],[-163,-38.52857],[-162.5,-38.33829],[-162,-38.14655],[-161.5,-37.95335],[-161,-37.75868],[-160.5,-37.56254],[-160,-37.36492],[-159.5,-37.16581],[-159,-36.96522],[-158.5,-36.76313],[-158,-36.55954],[-157.5,-36.35444],[-157,-36.14783],[-156.5,-35.93971],[-156,-35.73007],[-155.5,-35.51891],[-155,-35.30622],[-154.5,-35.09201],[-154,-34.87626],[-153.5,-34.65897],[-153,-34.44015],[-152.5,-34.21979],[-152,-33.9979],[-151.5,-33.77446],[-151,-33.54948],[-150.5,-33.32297],[-150,-33.09492],[-149.5,-32.86533],[-149,-32.63421],[-148.5,-32.40157],[-148,-32.16739],[-147.5,-31.9317],[-147,-31.6945],[-146.5,-31.4558],[-146,-31.2156],[-145.5,-30.97391],[-145,-30.73074],[-144.5,-30.48612],[-144,-30.24004],[-143.5,-29.99253],[-143,-29.74361],[-142.5,-29.49328],[-142,-29.24158],[-141.5,-28.98852],[-141,-28.73413],[-140.5,-28.47843],[-140,-28.22146],[-139.5,-27.96325],[-139,-27.70382],[-138.5,-27.44321],[-138,-27.18147],[-137.5,-26.91864],[-137,-26.65476],[-136.5,-26.38987],[-136,-26.12404],[-135.5,-25.85731],[-135,-25.58975],[-134.5,-25.32142],[-134,-25.05239],[-133.5,-24.78272],[-133,-24.51249],[-132.5,-24.24179],[-132,-23.97069],[-131.5,-23.6993],[-131,-23.42769],[-130.5,-23.15599],[-130,-22.88428],[-129.5,-22.61269],[-129,-22.34132],[-128.5,-22.07031],[-128,-21.79978],[-127.5,-21.52986],[-127,-21.2607],[-126.5,-20.99244],[-126,-20.72524],[-125.5,-20.45925],[-125,-20.19464],[-124.5,-19.93157],[-124,-19.67023],[-123.5,-19.41079],[-123,-19.15344],[-122.5,-18.89836],[-122,-18.64576],[-121.5,-18.39582],[-121,-18.14876],[-120.5,-17.90477],[-120,-17.66406],[-119.5,-17.42684],[-119,-17.19332],[-118.5,-16.9637],[-118,-16.7382],[-117.5,-16.51701],[-117,-16.30035],[-116.5,-16.08841],[-116,-15.8814],[-115.5,-15.6795],[-115,-15.4829],[-114.5,-15.29178],[-114,-15.10632],[-113.5,-14.92667],[-113,-14.75299],[-112.5,-14.58543],[-112,-14.42413],[-111.5,-14.26921],[-111,-14.12078],[-110.5,-13.97894],[-110,-13.84379],[-109.5,-13.7154],[-109,-13.59385],[-108.5,-13.47918],[-108,-13.37143],[-107.5,-13.27063],[-107,-13.17681],[-106.5,-13.08996],[-106,-13.01009],[-105.5,-12.93716],[-105,-12.87116],[-104.5,-12.81204],[-104,-12.75977],[-103.5,-12.71427],[-103,-12.67549],[-102.5,-12.64335],[-102,-12.61777],[-101.5,-12.59866],[-101,-12.58593],[-100.5,-12.57948],[-100,-12.5792],[-99.5,-12.58498],[-99,-12.5967],[-98.5,-12.61426],[-98,-12.63753],[-97.5,-12.66639],[-97,-12.70071],[-96.5,-12.74037],[-96,-12.78524],[-95.5,-12.83519],[-95,-12.8901],[-94.5,-12.94983],[-94,-13.01425],[-93.5,-13.08325],[-93,-13.15669],[-92.5,-13.23445],[-92,-13.31639],[-91.5,-13.40241],[-91,-13.49237],[-90.5,-13.58615],[-90,-13.68365],[-89.5,-13.78473],[-89,-13.88929],[-88.5,-13.99721],[-88,-14.10839],[-87.5,-14.22271],[-87,-14.34007],[-86.5,-14.46037],[-86,-14.5835],[-85.5,-14.70936],[-85,-14.83787],[-84.5,-14.96892],[-84,-15.10242],[-83.5,-15.23829],[-83,-15.37643],[-82.5,-15.51677],[-82,-15.65921],[-81.5,-15.80368],[-81,-15.9501],[-80.5,-16.0984],[-80,-16.24849],[-79.5,-16.40031],[-79,-16.5538],[-78.5,-16.70887],[-78,-16.86546],[-77.5,-17.02351],[-77,-17.18297],[-76.5,-17.34375],[-76,-17.50582],[-75.5,-17.66911],[-75,-17.83357],[-74.5,-17.99914],[-74,-18.16578],[-73.5,-18.33342],[-73,-18.50203],[-72.5,-18.67155],[-72,-18.84195],[-71.5,-19.01316],[-71,-19.18516],[-70.5,-19.35791],[-70,-19.53135],[-69.5,-19.70545],[-69,-19.88017],[-68.5,-20.05548],[-68,-20.23134],[-67.5,-20.40772],[-67,-20.58458],[-66.5,-20.76189],[-66,-20.93961],[-65.5,-21.11773],[-65,-21.2962],[-64.5,-21.475],[-64,-21.6541],[-63.5,-21.83347],[-63,-22.01309],[-62.5,-22.19294],[-62,-22.37298],[-61.5,-22.5532],[-61,-22.73357],[-60.5,-22.91407],[-60,-23.09467],[-59.5,-23.27536],[-59,-23.45612],[-58.5,-23.63692],[-58,-23.81775],[-57.5,-23.99858],[-57.16992,-24.11796]]}},{"type":"Feature","id":"+11381104:north:0","properties":{"id":"+11381104","year":1138,"month":11,"day":4,"time_tdt":"14:24:41","type":"금환일식","type_code":"A","saros":119,"gamma":0.73618,"magnitude":0.97321,"greatest":{"lat":29.40749,"lng":-27.20386},"path_width_km":141.2,"duration":"02m51s","delta_t_seconds":928.7,"catalog_number":7460,"source":"NASA Five Millennium Canon of Solar Eclipses","source_url":"https://eclipse.gsfc.nasa.gov/SEsearch/SEsearchmap.php?Ecl=%2B11381104","boundary":"north","name":"1138-11-04 금환일식"},"geometry":{"type":"LineString","coordinates":[[-80.75,54.8394],[-80.5,54.7496],[-81,54.92883],[-80,54.56886],[-79.5,54.38662],[-79,54.20287],[-78.5,54.01761],[-78,53.83082],[-77.5,53.64251],[-77,53.45267],[-76.5,53.26129],[-76,53.06836],[-75.5,52.8739],[-75,52.67788],[-74.5,52.48031],[-74,52.28118],[-73.5,52.08049],[-73,51.87823],[-72.5,51.67441],[-72,51.46901],[-71.5,51.26205],[-71,51.05351],[-70.5,50.8434],[-70,50.6317],[-69.5,50.41844],[-69,50.20359],[-68.5,49.98717],[-68,49.76917],[-67.5,49.5496],[-67,49.32846],[-66.5,49.10575],[-66,48.88147],[-65.5,48.65563],[-65,48.42824],[-64.5,48.1993],[-64,47.96881],[-63.5,47.73679],[-63,47.50324],[-62.5,47.26818],[-62,47.03161],[-61.5,46.79355],[-61,46.55401],[-60.5,46.313],[-60,46.07055],[-59.5,45.82666],[-59,45.58136],[-58.5,45.33466],[-58,45.0866],[-57.5,44.8372],[-57,44.58647],[-56.5,44.33445],[-56,44.08117],[-55.5,43.82667],[-55,43.57097],[-54.5,43.31411],[-54,43.05614],[-53.5,42.79709],[-53,42.53702],[-52.5,42.27596],[-52,42.01398],[-51.5,41.75113],[-51,41.48745],[-50.5,41.22303],[-50,40.95791],[-49.5,40.69218],[-49,40.42589],[-48.5,40.15914],[-48,39.892],[-47.5,39.62455],[-47,39.35689],[-46.5,39.08911],[-46,38.8213],[-45.5,38.55358],[-45,38.28605],[-44.5,38.01882],[-44,37.75201],[-43.5,37.48575],[-43,37.22015],[-42.5,36.95537],[-42,36.69152],[-41.5,36.42877],[-41,36.16724],[-40.5,35.9071],[-40,35.6485],[-39.5,35.3916],[-39,35.13656],[-38.5,34.88356],[-38,34.63276],[-37.5,34.38434],[-37,34.13848],[-36.5,33.89535],[-36,33.65513],[-35.5,33.41802],[-35,33.18417],[-34.5,32.95379],[-34,32.72705],[-33.5,32.50414],[-33,32.28522],[-32.5,32.07048],[-32,31.86009],[-31.5,31.65421],[-31,31.45301],[-30.5,31.25664],[-30,31.06527],[-29.5,30.87903],[-29,30.69806],[-28.5,30.5225],[-28,30.35245],[-27.5,30.18805],[-27,30.02939],[-26.5,29.87656],[-26,29.72966],[-25.5,29.58875],[-25,29.45391],[-24.5,29.32518],[-24,29.20261],[-23.5,29.08624],[-23,28.97609],[-22.5,28.87218],[-22,28.77451],[-21.5,28.68308],[-21,28.59787],[-20.5,28.51887],[-20,28.44604],[-19.5,28.37934],[-19,28.31874],[-18.5,28.26417],[-18,28.21559],[-17.5,28.17291],[-17,28.13609],[-16.5,28.10503],[-16,28.07966],[-15.5,28.0599],[-15,28.04565],[-14.5,28.03682],[-14,28.03333],[-13.5,28.03507],[-13,28.04195],[-12.5,28.05386],[-12,28.0707],[-11.5,28.09237],[-11,28.11877],[-10.5,28.14979],[-10,28.18532],[-9.5,28.22526],[-9,28.26951],[-8.5,28.31797],[-8,28.37052],[-7.5,28.42707],[-7,28.48752],[-6.5,28.55176],[-6,28.61969],[-5.5,28.69122],[-5,28.76626],[-4.5,28.8447],[-4,28.92645],[-3.5,29.01142],[-3,29.09952],[-2.5,29.19066],[-2,29.28475],[-1.5,29.38172],[-1,29.48146],[-0.5,29.58391],[0,29.68899],[0.5,29.79661],[1,29.9067],[1.5,30.01918],[2,30.13398],[2.5,30.25104],[3,30.37027],[3.5,30.49162],[4,30.61501],[4.5,30.74039],[5,30.86769],[5.5,30.99685],[6,31.1278],[6.5,31.2605],[7,31.39488],[7.5,31.53089],[8,31.66847],[8.5,31.80758],[9,31.94816],[9.5,32.09017],[10,32.23355],[10.5,32.37825],[11,32.52424],[11.5,32.67147],[12,32.81989],[12.5,32.96946],[13,33.12014],[13.5,33.27189],[14,33.42468],[14.5,33.57846],[15,33.73319],[15.5,33.88885],[16,34.0454],[16.5,34.20279],[17,34.36101],[17.5,34.52001],[18,34.67977],[18.5,34.84025],[19,35.00142],[19.5,35.16327],[20,35.32575],[20.5,35.48884],[21,35.65251],[21.5,35.81674],[22,35.9815]]}},{"type":"Feature","id":"+11381104:center:0","properties":{"id":"+11381104","year":1138,"month":11,"day":4,"time_tdt":"14:24:41","type":"금환일식","type_code":"A","saros":119,"gamma":0.73618,"magnitude":0.97321,"greatest":{"lat":29.40749,"lng":-27.20386},"path_width_km":141.2,"duration":"02m51s","delta_t_seconds":928.7,"catalog_number":7460,"source":"NASA Five Millennium Canon of Solar Eclipses","source_url":"https://eclipse.gsfc.nasa.gov/SEsearch/SEsearchmap.php?Ecl=%2B11381104","boundary":"center","name":"1138-11-04 금환일식"},"geometry":{"type":"LineString","coordinates":[[-81.38572,54.19536],[-81,53.95528],[-81.5,54.13081],[-80.5,53.77828],[-80,53.5998],[-79.5,53.41984],[-79,53.23839],[-78.5,53.05545],[-78,52.871],[-77.5,52.68505],[-77,52.49759],[-76.5,52.30861],[-76,52.11811],[-75.5,51.92608],[-75,51.73252],[-74.5,51.53743],[-74,51.3408],[-73.5,51.14262],[-73,50.9429],[-72.5,50.74163],[-72,50.53881],[-71.5,50.33444],[-71,50.1285],[-70.5,49.92101],[-70,49.71196],[-69.5,49.50135],[-69,49.28918],[-68.5,49.07545],[-68,48.86016],[-67.5,48.64331],[-67,48.42491],[-66.5,48.20495],[-66,47.98344],[-65.5,47.76038],[-65,47.53579],[-64.5,47.30965],[-64,47.08199],[-63.5,46.8528],[-63,46.6221],[-62.5,46.3899],[-62,46.1562],[-61.5,45.92102],[-61,45.68437],[-60.5,45.44627],[-60,45.20673],[-59.5,44.96576],[-59,44.72339],[-58.5,44.47964],[-58,44.23453],[-57.5,43.98808],[-57,43.74031],[-56.5,43.49127],[-56,43.24096],[-55.5,42.98944],[-55,42.73673],[-54.5,42.48286],[-54,42.22788],[-53.5,41.97184],[-53,41.71477],[-52.5,41.45672],[-52,41.19774],[-51.5,40.9379],[-51,40.67723],[-50.5,40.41582],[-50,40.15371],[-49.5,39.89098],[-49,39.62771],[-48.5,39.36396],[-48,39.09981],[-47.5,38.83536],[-47,38.57069],[-46.5,38.3059],[-46,38.04107],[-45.5,37.77633],[-45,37.51176],[-44.5,37.24749],[-44,36.98363],[-43.5,36.7203],[-43,36.45764],[-42.5,36.19576],[-42,35.93482],[-41.5,35.67494],[-41,35.41628],[-40.5,35.15899],[-40,34.90322],[-39.5,34.64913],[-39,34.39688],[-38.5,34.14664],[-38,33.89858],[-37.5,33.65287],[-37,33.40969],[-36.5,33.1692],[-36,32.9316],[-35.5,32.69706],[-35,32.46576],[-34.5,32.23788],[-34,32.01359],[-33.5,31.79309],[-33,31.57653],[-32.5,31.3641],[-32,31.15596],[-31.5,30.95228],[-31,30.75321],[-30.5,30.55893],[-30,30.36956],[-29.5,30.18526],[-29,30.00616],[-28.5,29.83239],[-28,29.66407],[-27.5,29.5013],[-27,29.34419],[-26.5,29.19284],[-26,29.04732],[-25.5,28.90771],[-25,28.77407],[-24.5,28.64645],[-24,28.5249],[-23.5,28.40945],[-23,28.30012],[-22.5,28.19693],[-22,28.09988],[-21.5,28.00897],[-21,27.92419],[-20.5,27.8455],[-20,27.77289],[-19.5,27.70632],[-19,27.64573],[-18.5,27.59108],[-18,27.54231],[-17.5,27.49935],[-17,27.46214],[-16.5,27.4306],[-16,27.40466],[-15.5,27.38422],[-15,27.36921],[-14.5,27.35953],[-14,27.35509],[-13.5,27.35579],[-13,27.36155],[-12.5,27.37225],[-12,27.3878],[-11.5,27.4081],[-11,27.43305],[-10.5,27.46254],[-10,27.49647],[-9.5,27.53474],[-9,27.57724],[-8.5,27.62388],[-8,27.67455],[-7.5,27.72915],[-7,27.78759],[-6.5,27.84976],[-6,27.91557],[-5.5,27.98491],[-5,28.05771],[-4.5,28.13385],[-4,28.21325],[-3.5,28.29583],[-3,28.38149],[-2.5,28.47014],[-2,28.5617],[-1.5,28.65608],[-1,28.75321],[-0.5,28.85301],[0,28.95539],[0.5,29.06028],[1,29.1676],[1.5,29.27728],[2,29.38925],[2.5,29.50344],[3,29.61978],[3.5,29.73821],[4,29.85866],[4.5,29.98106],[5,30.10536],[5.5,30.23149],[6,30.3594],[6.5,30.48902],[7,30.62032],[7.5,30.75322],[8,30.88768],[8.5,31.02364],[9,31.16106],[9.5,31.29988],[10,31.44007],[10.5,31.58157],[11,31.72433],[11.5,31.86832],[12,32.0135],[12.5,32.15981],[13,32.30722],[13.5,32.4557],[14,32.60519],[14.5,32.75567],[15,32.9071],[15.5,33.05944],[16,33.21267],[16.5,33.36673],[17,33.52161],[17.5,33.67727],[18,33.83369],[18.5,33.99082],[19,34.14864],[19.5,34.30712],[20,34.46624],[20.5,34.62596],[21,34.78627],[21.5,34.94713],[22,35.10852],[22.34352,35.21027]]}},{"type":"Feature","id":"+11381104:south:0","properties":{"id":"+11381104","year":1138,"month":11,"day":4,"time_tdt":"14:24:41","type":"금환일식","type_code":"A","saros":119,"gamma":0.73618,"magnitude":0.97321,"greatest":{"lat":29.40749,"lng":-27.20386},"path_width_km":141.2,"duration":"02m51s","delta_t_seconds":928.7,"catalog_number":7460,"source":"NASA Five Millennium Canon of Solar Eclipses","source_url":"https://eclipse.gsfc.nasa.gov/SEsearch/SEsearchmap.php?Ecl=%2B11381104","boundary":"south","name":"1138-11-04 금환일식"},"geometry":{"type":"LineString","coordinates":[[-82.01562,53.35808],[-82,53.35273],[-81.5,53.18083],[-81,53.00749],[-80.5,52.83269],[-80,52.65644],[-79.5,52.47871],[-79,52.29952],[-78.5,52.11886],[-78,51.93671],[-77.5,51.75307],[-77,51.56794],[-76.5,51.38131],[-76,51.19318],[-75.5,51.00354],[-75,50.81238],[-74.5,50.61971],[-74,50.42552],[-73.5,50.2298],[-73,50.03255],[-72.5,49.83377],[-72,49.63346],[-71.5,49.43161],[-71,49.22821],[-70.5,49.02328],[-70,48.8168],[-69.5,48.60877],[-69,48.3992],[-68.5,48.18808],[-68,47.97542],[-67.5,47.76122],[-67,47.54547],[-66.5,47.32818],[-66,47.10936],[-65.5,46.889],[-65,46.66711],[-64.5,46.4437],[-64,46.21877],[-63.5,45.99233],[-63,45.76439],[-62.5,45.53496],[-62,45.30404],[-61.5,45.07165],[-61,44.8378],[-60.5,44.60251],[-60,44.36578],[-59.5,44.12764],[-59,43.88811],[-58.5,43.6472],[-58,43.40493],[-57.5,43.16134],[-57,42.91644],[-56.5,42.67026],[-56,42.42283],[-55.5,42.17419],[-55,41.92436],[-54.5,41.67339],[-54,41.4213],[-53.5,41.16815],[-53,40.91398],[-52.5,40.65883],[-52,40.40276],[-51.5,40.14581],[-51,39.88806],[-50.5,39.62954],[-50,39.37034],[-49.5,39.11051],[-49,38.85014],[-48.5,38.58928],[-48,38.32803],[-47.5,38.06647],[-47,37.80469],[-46.5,37.54277],[-46,37.28082],[-45.5,37.01894],[-45,36.75723],[-44.5,36.49581],[-44,36.23479],[-43.5,35.97429],[-43,35.71444],[-42.5,35.45537],[-42,35.19721],[-41.5,34.94011],[-41,34.68421],[-40.5,34.42966],[-40,34.17661],[-39.5,33.92522],[-39,33.67565],[-38.5,33.42806],[-38,33.18263],[-37.5,32.93952],[-37,32.6989],[-36.5,32.46096],[-36,32.22586],[-35.5,31.99379],[-35,31.76491],[-34.5,31.53942],[-34,31.31748],[-33.5,31.09928],[-33,30.88497],[-32.5,30.67474],[-32,30.46875],[-31.5,30.26715],[-31,30.07012],[-30.5,29.8778],[-30,29.69034],[-29.5,29.50788],[-29,29.33054],[-28.5,29.15846],[-28,28.99175],[-27.5,28.83052],[-27,28.67487],[-26.5,28.52489],[-26,28.38066],[-25.5,28.24224],[-25,28.10971],[-24.5,27.98311],[-24,27.86249],[-23.5,27.74787],[-23,27.63927],[-22.5,27.53672],[-22,27.44021],[-21.5,27.34975],[-21,27.2653],[-20.5,27.18686],[-20,27.1144],[-19.5,27.04787],[-19,26.98722],[-18.5,26.93242],[-18,26.8834],[-17.5,26.8401],[-17,26.80245],[-16.5,26.77038],[-16,26.74381],[-15.5,26.72265],[-15,26.70682],[-14.5,26.69624],[-14,26.69082],[-13.5,26.69045],[-13,26.69505],[-12.5,26.70451],[-12,26.71874],[-11.5,26.73764],[-11,26.76111],[-10.5,26.78906],[-10,26.82136],[-9.5,26.85794],[-9,26.89869],[-8.5,26.9435],[-8,26.99228],[-7.5,27.04493],[-7,27.10135],[-6.5,27.16145],[-6,27.22512],[-5.5,27.29228],[-5,27.36284],[-4.5,27.4367],[-4,27.51376],[-3.5,27.59395],[-3,27.67718],[-2.5,27.76336],[-2,27.8524],[-1.5,27.94423],[-1,28.03876],[-0.5,28.13592],[0,28.23563],[0.5,28.33781],[1,28.44239],[1.5,28.54931],[2,28.65848],[2.5,28.76984],[3,28.88332],[3.5,28.99886],[4,29.11639],[4.5,29.23586],[5,29.3572],[5.5,29.48035],[6,29.60526],[6.5,29.73186],[7,29.86011],[7.5,29.98995],[8,30.12133],[8.5,30.2542],[9,30.3885],[9.5,30.5242],[10,30.66125],[10.5,30.79959],[11,30.93919],[11.5,31.08001],[12,31.22199],[12.5,31.3651],[13,31.50931],[13.5,31.65456],[14,31.80083],[14.5,31.94808],[15,32.09626],[15.5,32.24536],[16,32.39532],[16.5,32.54613],[17,32.69774],[17.5,32.85013],[18,33.00327],[18.5,33.15712],[19,33.31166],[19.5,33.46686],[20,33.62269],[20.5,33.77913],[21,33.93614],[21.5,34.09371],[22,34.25181],[22.49609,34.40917]]}}],"attribution":"Eclipse Predictions by Fred Espenak and Jean Meeus (NASA's GSFC)","generated_at":"2026-09-23T03:35:43.251Z"}
