{"type":"FeatureCollection","year":1145,"events":[{"id":"+11450622","year":1145,"month":6,"day":22,"time_tdt":"02:02:44","type":"금환일식","type_code":"A","saros":113,"gamma":0.39092,"magnitude":0.96446,"greatest":{"lat":46.60512,"lng":151.69641},"path_width_km":139.7,"duration":"03m35s","delta_t_seconds":904.9,"catalog_number":7477,"source":"NASA Five Millennium Canon of Solar Eclipses","source_url":"https://eclipse.gsfc.nasa.gov/SEsearch/SEsearchmap.php?Ecl=%2B11450622"},{"id":"+11451215","year":1145,"month":12,"day":15,"time_tdt":"21:18:46","type":"개기일식","type_code":"T","saros":118,"gamma":-0.68918,"magnitude":1.03865,"greatest":{"lat":-67.01626,"lng":-144.98462},"path_width_km":179.8,"duration":"02m32s","delta_t_seconds":903.1,"catalog_number":7478,"source":"NASA Five Millennium Canon of Solar Eclipses","source_url":"https://eclipse.gsfc.nasa.gov/SEsearch/SEsearchmap.php?Ecl=%2B11451215"}],"features":[{"type":"Feature","id":"+11450622:north:0","properties":{"id":"+11450622","year":1145,"month":6,"day":22,"time_tdt":"02:02:44","type":"금환일식","type_code":"A","saros":113,"gamma":0.39092,"magnitude":0.96446,"greatest":{"lat":46.60512,"lng":151.69641},"path_width_km":139.7,"duration":"03m35s","delta_t_seconds":904.9,"catalog_number":7477,"source":"NASA Five Millennium Canon of Solar Eclipses","source_url":"https://eclipse.gsfc.nasa.gov/SEsearch/SEsearchmap.php?Ecl=%2B11450622","boundary":"north","name":"1145-06-22 금환일식"},"geometry":{"type":"LineString","coordinates":[[81.20312,19.21202],[81.5,19.34116],[82,19.55986],[82.5,19.78007],[83,20.00179],[83.5,20.22501],[84,20.44973],[84.5,20.67593],[85,20.90362],[85.5,21.13278],[86,21.3634],[86.5,21.59547],[87,21.82899],[87.5,22.06393],[88,22.30029],[88.5,22.53805],[89,22.7772],[89.5,23.01772],[90,23.25958],[90.5,23.50278],[91,23.74729],[91.5,23.99309],[92,24.24015],[92.5,24.48846],[93,24.73798],[93.5,24.98868],[94,25.24055],[94.5,25.49354],[95,25.74762],[95.5,26.00276],[96,26.25893],[96.5,26.51608],[97,26.77417],[97.5,27.03317],[98,27.29303],[98.5,27.55371],[99,27.81515],[99.5,28.07732],[100,28.34015],[100.5,28.6036],[101,28.86762],[101.5,29.13214],[102,29.3971],[102.5,29.66246],[103,29.92814],[103.5,30.19408],[104,30.46022],[104.5,30.72648],[105,30.99281],[105.5,31.25913],[106,31.52537],[106.5,31.79145],[107,32.0573],[107.5,32.32285],[108,32.58801],[108.5,32.85271],[109,33.11688],[109.5,33.38042],[110,33.64326],[110.5,33.90532],[111,34.16652],[111.5,34.42676],[112,34.68598],[112.5,34.94409],[113,35.20101],[113.5,35.45665],[114,35.71093],[114.5,35.96377],[115,36.21509],[115.5,36.46481],[116,36.71286],[116.5,36.95914],[117,37.2036],[117.5,37.44614],[118,37.6867],[118.5,37.92521],[119,38.16159],[119.5,38.39577],[120,38.6277],[120.5,38.85729],[121,39.0845],[121.5,39.30925],[122,39.5315],[122.5,39.75118],[123,39.96823],[123.5,40.18262],[124,40.39428],[124.5,40.60317],[125,40.80925],[125.5,41.01246],[126,41.21278],[126.5,41.41017],[127,41.60458],[127.5,41.79599],[128,41.98436],[128.5,42.16967],[129,42.35189],[129.5,42.53099],[130,42.70695],[130.5,42.87975],[131,43.04938],[131.5,43.21582],[132,43.37905],[132.5,43.53905],[133,43.69583],[133.5,43.84936],[134,43.99965],[134.5,44.14667],[135,44.29044],[135.5,44.43095],[136,44.56818],[136.5,44.70215],[137,44.83285],[137.5,44.96028],[138,45.08444],[138.5,45.20534],[139,45.32299],[139.5,45.43737],[140,45.54851],[140.5,45.6564],[141,45.76105],[141.5,45.86247],[142,45.96067],[142.5,46.05565],[143,46.14742],[143.5,46.23599],[144,46.32137],[144.5,46.40357],[145,46.48259],[145.5,46.55845],[146,46.63115],[146.5,46.70071],[147,46.76713],[147.5,46.83043],[148,46.89061],[148.5,46.94768],[149,47.00165],[149.5,47.05253],[150,47.10034],[150.5,47.14507],[151,47.18675],[151.5,47.22537],[152,47.26094],[152.5,47.29348],[153,47.32299],[153.5,47.34948],[154,47.37296],[154.5,47.39343],[155,47.4109],[155.5,47.42539],[156,47.43689],[156.5,47.44541],[157,47.45096],[157.5,47.45354],[158,47.45317],[158.5,47.44984],[159,47.44356],[159.5,47.43433],[160,47.42217],[160.5,47.40707],[161,47.38904],[161.5,47.36808],[162,47.3442],[162.5,47.31739],[163,47.28768],[163.5,47.25504],[164,47.2195],[164.5,47.18105],[165,47.1397],[165.5,47.09545],[166,47.0483],[166.5,46.99825],[167,46.94531],[167.5,46.88948],[168,46.83076],[168.5,46.76915],[169,46.70466],[169.5,46.6373],[170,46.56705],[170.5,46.49393],[171,46.41795],[171.5,46.33909],[172,46.25737],[172.5,46.17279],[173,46.08536],[173.5,45.99507],[174,45.90194],[174.5,45.80597],[175,45.70716],[175.5,45.60553],[176,45.50107],[176.5,45.3938],[177,45.28372],[177.5,45.17084],[178,45.05517],[178.5,44.93673],[179,44.81551],[179.5,44.69153],[180,44.56481]]}},{"type":"Feature","id":"+11450622:north:1","properties":{"id":"+11450622","year":1145,"month":6,"day":22,"time_tdt":"02:02:44","type":"금환일식","type_code":"A","saros":113,"gamma":0.39092,"magnitude":0.96446,"greatest":{"lat":46.60512,"lng":151.69641},"path_width_km":139.7,"duration":"03m35s","delta_t_seconds":904.9,"catalog_number":7477,"source":"NASA Five Millennium Canon of Solar Eclipses","source_url":"https://eclipse.gsfc.nasa.gov/SEsearch/SEsearchmap.php?Ecl=%2B11450622","boundary":"north","name":"1145-06-22 금환일식"},"geometry":{"type":"LineString","coordinates":[[-179.5,44.43535],[-179,44.30317],[-178.5,44.16829],[-178,44.03072],[-177.5,43.89047],[-177,43.74756],[-176.5,43.60202],[-176,43.45385],[-175.5,43.30309],[-175,43.14975],[-174.5,42.99386],[-174,42.83543],[-173.5,42.6745],[-173,42.51108],[-172.5,42.34522],[-172,42.17692],[-171.5,42.00624],[-171,41.83318],[-170.5,41.6578],[-170,41.48011],[-169.5,41.30016],[-169,41.11798],[-168.5,40.93361],[-168,40.74708],[-167.5,40.55844],[-167,40.36771],[-166.5,40.17495],[-166,39.9802],[-165.5,39.7835],[-165,39.58489],[-164.5,39.38442],[-164,39.18214],[-163.5,38.97808],[-163,38.77231],[-162.5,38.56487],[-162,38.3558],[-161.5,38.14516],[-161,37.933],[-160.5,37.71937],[-160,37.50432],[-159.5,37.2879],[-159,37.07017],[-158.5,36.85118],[-158,36.63098],[-157.5,36.40962],[-157,36.18716],[-156.5,35.96366],[-156,35.73916],[-155.5,35.51372],[-155,35.28738],[-154.5,35.06023],[-154,34.83229],[-153.5,34.60362],[-153,34.37428],[-152.5,34.14431],[-152,33.91377],[-151.5,33.68272],[-151,33.45119],[-150.5,33.21924],[-150,32.98693],[-149.5,32.75429],[-149,32.52138],[-148.5,32.28825],[-148,32.05494],[-147.5,31.8215],[-147,31.58796],[-146.5,31.35439],[-146,31.12082],[-145.5,30.88729],[-145,30.65384],[-144.5,30.42052],[-144,30.18736],[-143.5,29.95441],[-143,29.7217],[-142.5,29.48927],[-142,29.25715],[-141.5,29.02538],[-141,28.79399],[-140.5,28.56302],[-140,28.3325],[-139.5,28.10245],[-139,27.87291],[-138.5,27.64392],[-138,27.41548],[-137.5,27.18764],[-137,26.96042],[-136.5,26.73385],[-136,26.50794],[-135.5,26.28273],[-135,26.05823],[-134.5,25.83447],[-134,25.61147],[-133.5,25.38924],[-133,25.16782],[-132.5,24.94721],[-132,24.72743],[-131.6875,24.5905]]}},{"type":"Feature","id":"+11450622:center:0","properties":{"id":"+11450622","year":1145,"month":6,"day":22,"time_tdt":"02:02:44","type":"금환일식","type_code":"A","saros":113,"gamma":0.39092,"magnitude":0.96446,"greatest":{"lat":46.60512,"lng":151.69641},"path_width_km":139.7,"duration":"03m35s","delta_t_seconds":904.9,"catalog_number":7477,"source":"NASA Five Millennium Canon of Solar Eclipses","source_url":"https://eclipse.gsfc.nasa.gov/SEsearch/SEsearchmap.php?Ecl=%2B11450622","boundary":"center","name":"1145-06-22 금환일식"},"geometry":{"type":"LineString","coordinates":[[81.84996,18.4034],[82,18.47055],[82.5,18.69178],[83,18.91455],[83.5,19.13884],[84,19.36466],[84.5,19.59199],[85,19.82084],[85.5,20.05119],[86,20.28304],[86.5,20.51638],[87,20.75119],[87.5,20.98748],[88,21.22521],[88.5,21.46439],[89,21.70499],[89.5,21.94701],[90,22.19042],[90.5,22.43521],[91,22.68135],[91.5,22.92884],[92,23.17764],[92.5,23.42773],[93,23.67909],[93.5,23.93169],[94,24.18551],[94.5,24.44051],[95,24.69666],[95.5,24.95393],[96,25.21229],[96.5,25.47169],[97,25.73211],[97.5,25.9935],[98,26.25582],[98.5,26.51903],[99,26.78307],[99.5,27.04791],[100,27.31349],[100.5,27.57977],[101,27.84668],[101.5,28.11417],[102,28.3822],[102.5,28.65068],[103,28.91958],[103.5,29.18881],[104,29.45833],[104.5,29.72805],[105,29.99792],[105.5,30.26786],[106,30.5378],[106.5,30.80766],[107,31.07738],[107.5,31.34688],[108,31.61607],[108.5,31.88488],[109,32.15322],[109.5,32.42103],[110,32.6882],[110.5,32.95467],[111,33.22035],[111.5,33.48515],[112,33.74899],[112.5,34.01178],[113,34.27344],[113.5,34.53389],[114,34.79303],[114.5,35.05079],[115,35.30708],[115.5,35.56182],[116,35.81492],[116.5,36.06631],[117,36.3159],[117.5,36.56361],[118,36.80936],[118.5,37.05309],[119,37.29471],[119.5,37.53415],[120,37.77134],[120.5,38.00622],[121,38.2387],[121.5,38.46873],[122,38.69625],[122.5,38.92119],[123,39.14349],[123.5,39.36311],[124,39.57998],[124.5,39.79405],[125,40.00528],[125.5,40.21362],[126,40.41902],[126.5,40.62145],[127,40.82086],[127.5,41.01721],[128,41.21048],[128.5,41.40063],[129,41.58763],[129.5,41.77146],[130,41.95208],[130.5,42.12948],[131,42.30364],[131.5,42.47453],[132,42.64214],[132.5,42.80645],[133,42.96746],[133.5,43.12514],[134,43.27949],[134.5,43.43051],[135,43.57818],[135.5,43.7225],[136,43.86347],[136.5,44.00108],[137,44.13534],[137.5,44.26624],[138,44.39378],[138.5,44.51796],[139,44.6388],[139.5,44.75628],[140,44.87043],[140.5,44.98123],[141,45.0887],[141.5,45.19285],[142,45.29368],[142.5,45.3912],[143,45.48541],[143.5,45.57633],[144,45.66396],[144.5,45.74832],[145,45.8294],[145.5,45.90723],[146,45.98181],[146.5,46.05315],[147,46.12126],[147.5,46.18614],[148,46.24782],[148.5,46.3063],[149,46.36158],[149.5,46.41368],[150,46.46261],[150.5,46.50838],[151,46.55099],[151.5,46.59046],[152,46.62679],[152.5,46.65999],[153,46.69008],[153.5,46.71705],[154,46.74092],[154.5,46.76169],[155,46.77938],[155.5,46.79398],[156,46.80551],[156.5,46.81398],[157,46.81938],[157.5,46.82173],[158,46.82103],[158.5,46.81728],[159,46.8105],[159.5,46.80069],[160,46.78785],[160.5,46.77199],[161,46.75311],[161.5,46.73121],[162,46.70631],[162.5,46.6784],[163,46.64749],[163.5,46.61358],[164,46.57667],[164.5,46.53678],[165,46.49389],[165.5,46.44802],[166,46.39917],[166.5,46.34733],[167,46.29252],[167.5,46.23474],[168,46.17399],[168.5,46.11027],[169,46.04359],[169.5,45.97394],[170,45.90134],[170.5,45.82579],[171,45.74728],[171.5,45.66583],[172,45.58144],[172.5,45.49411],[173,45.40385],[173.5,45.31066],[174,45.21455],[174.5,45.11553],[175,45.0136],[175.5,44.90876],[176,44.80103],[176.5,44.69042],[177,44.57693],[177.5,44.46058],[178,44.34136],[178.5,44.2193],[179,44.09441],[179.5,43.96669],[180,43.83617]]}},{"type":"Feature","id":"+11450622:center:1","properties":{"id":"+11450622","year":1145,"month":6,"day":22,"time_tdt":"02:02:44","type":"금환일식","type_code":"A","saros":113,"gamma":0.39092,"magnitude":0.96446,"greatest":{"lat":46.60512,"lng":151.69641},"path_width_km":139.7,"duration":"03m35s","delta_t_seconds":904.9,"catalog_number":7477,"source":"NASA Five Millennium Canon of Solar Eclipses","source_url":"https://eclipse.gsfc.nasa.gov/SEsearch/SEsearchmap.php?Ecl=%2B11450622","boundary":"center","name":"1145-06-22 금환일식"},"geometry":{"type":"LineString","coordinates":[[-179.5,43.70285],[-179,43.56675],[-178.5,43.42789],[-178,43.28629],[-177.5,43.14195],[-177,42.99491],[-176.5,42.84518],[-176,42.69278],[-175.5,42.53774],[-175,42.38008],[-174.5,42.21982],[-174,42.05699],[-173.5,41.89161],[-173,41.72373],[-172.5,41.55335],[-172,41.38052],[-171.5,41.20527],[-171,41.02763],[-170.5,40.84763],[-170,40.66532],[-169.5,40.48072],[-169,40.29387],[-168.5,40.10483],[-168,39.91361],[-167.5,39.72028],[-167,39.52486],[-166.5,39.32741],[-166,39.12796],[-165.5,38.92657],[-165,38.72328],[-164.5,38.51814],[-164,38.3112],[-163.5,38.1025],[-163,37.8921],[-162.5,37.68005],[-162,37.4664],[-161.5,37.2512],[-161,37.03451],[-160.5,36.81638],[-160,36.59685],[-159.5,36.376],[-159,36.15387],[-158.5,35.93051],[-158,35.70599],[-157.5,35.48035],[-157,35.25366],[-156.5,35.02596],[-156,34.79731],[-155.5,34.56777],[-155,34.3374],[-154.5,34.10624],[-154,33.87435],[-153.5,33.64179],[-153,33.40861],[-152.5,33.17486],[-152,32.94059],[-151.5,32.70586],[-151,32.47071],[-150.5,32.23521],[-150,31.99939],[-149.5,31.76331],[-149,31.52702],[-148.5,31.29055],[-148,31.05397],[-147.5,30.81732],[-147,30.58064],[-146.5,30.34397],[-146,30.10736],[-145.5,29.87085],[-145,29.63449],[-144.5,29.3983],[-144,29.16234],[-143.5,28.92664],[-143,28.69123],[-142.5,28.45616],[-142,28.22146],[-141.5,27.98716],[-141,27.75329],[-140.5,27.5199],[-140,27.287],[-139.5,27.05463],[-139,26.82282],[-138.5,26.5916],[-138,26.361],[-137.5,26.13103],[-137,25.90173],[-136.5,25.67312],[-136,25.44523],[-135.5,25.21807],[-135,24.99167],[-134.5,24.76605],[-134,24.54123],[-133.5,24.31723],[-133,24.09407],[-132.5,23.87177],[-132.35855,23.80589]]}},{"type":"Feature","id":"+11450622:south:0","properties":{"id":"+11450622","year":1145,"month":6,"day":22,"time_tdt":"02:02:44","type":"금환일식","type_code":"A","saros":113,"gamma":0.39092,"magnitude":0.96446,"greatest":{"lat":46.60512,"lng":151.69641},"path_width_km":139.7,"duration":"03m35s","delta_t_seconds":904.9,"catalog_number":7477,"source":"NASA Five Millennium Canon of Solar Eclipses","source_url":"https://eclipse.gsfc.nasa.gov/SEsearch/SEsearchmap.php?Ecl=%2B11450622","boundary":"south","name":"1145-06-22 금환일식"},"geometry":{"type":"LineString","coordinates":[[82.48047,17.60017],[82.5,17.60888],[83,17.83266],[83.5,18.05799],[84,18.28488],[84.5,18.51332],[85,18.74329],[85.5,18.97481],[86,19.20785],[86.5,19.44241],[87,19.67849],[87.5,19.91607],[88,20.15514],[88.5,20.39569],[89,20.6377],[89.5,20.88117],[90,21.12608],[90.5,21.37241],[91,21.62014],[91.5,21.86925],[92,22.11974],[92.5,22.37156],[93,22.6247],[93.5,22.87914],[94,23.13484],[94.5,23.39179],[95,23.64995],[95.5,23.90928],[96,24.16977],[96.5,24.43136],[97,24.69404],[97.5,24.95775],[98,25.22245],[98.5,25.48811],[99,25.75468],[99.5,26.02212],[100,26.29037],[100.5,26.55939],[101,26.82912],[101.5,27.09952],[102,27.37052],[102.5,27.64206],[103,27.91409],[103.5,28.18654],[104,28.45935],[104.5,28.73246],[105,29.00579],[105.5,29.27927],[106,29.55284],[106.5,29.82642],[107,30.09993],[107.5,30.3733],[108,30.64645],[108.5,30.91929],[109,31.19176],[109.5,31.46376],[110,31.73522],[110.5,32.00604],[111,32.27614],[111.5,32.54544],[112,32.81386],[112.5,33.08129],[113,33.34766],[113.5,33.61288],[114,33.87685],[114.5,34.1395],[115,34.40074],[115.5,34.66047],[116,34.91862],[116.5,35.17509],[117,35.42981],[117.5,35.68269],[118,35.93364],[118.5,36.1826],[119,36.42947],[119.5,36.67419],[120,36.91667],[120.5,37.15684],[121,37.39463],[121.5,37.62997],[122,37.8628],[122.5,38.09305],[123,38.32065],[123.5,38.54554],[124,38.76767],[124.5,38.98698],[125,39.20342],[125.5,39.41694],[126,39.62749],[126.5,39.83502],[127,40.0395],[127.5,40.24087],[128,40.43911],[128.5,40.63417],[129,40.82604],[129.5,41.01466],[130,41.20002],[130.5,41.3821],[131,41.56085],[131.5,41.73628],[132,41.90835],[132.5,42.07705],[133,42.24237],[133.5,42.40428],[134,42.56278],[134.5,42.71787],[135,42.86952],[135.5,43.01774],[136,43.16251],[136.5,43.30385],[137,43.44173],[137.5,43.57617],[138,43.70716],[138.5,43.8347],[139,43.95879],[139.5,44.07945],[140,44.19666],[140.5,44.31045],[141,44.4208],[141.5,44.52773],[142,44.63125],[142.5,44.73136],[143,44.82807],[143.5,44.92139],[144,45.01133],[144.5,45.09789],[145,45.18109],[145.5,45.26093],[146,45.33743],[146.5,45.41059],[147,45.48042],[147.5,45.54694],[148,45.61014],[148.5,45.67006],[149,45.72668],[149.5,45.78003],[150,45.83011],[150.5,45.87693],[151,45.9205],[151.5,45.96084],[152,45.99794],[152.5,46.03182],[153,46.06249],[153.5,46.08996],[154,46.11423],[154.5,46.13531],[155,46.15321],[155.5,46.16794],[156,46.1795],[156.5,46.1879],[157,46.19316],[157.5,46.19526],[158,46.19423],[158.5,46.19007],[159,46.18277],[159.5,46.17236],[160,46.15883],[160.5,46.14219],[161,46.12244],[161.5,46.09959],[162,46.07364],[162.5,46.0446],[163,46.01246],[163.5,45.97725],[164,45.93895],[164.5,45.89757],[165,45.85312],[165.5,45.80559],[166,45.755],[166.5,45.70135],[167,45.64463],[167.5,45.58486],[168,45.52203],[168.5,45.45615],[169,45.38722],[169.5,45.31526],[170,45.24025],[170.5,45.16221],[171,45.08114],[171.5,44.99704],[172,44.90992],[172.5,44.81978],[173,44.72664],[173.5,44.63049],[174,44.53135],[174.5,44.42921],[175,44.32409],[175.5,44.216],[176,44.10494],[176.5,43.99093],[177,43.87397],[177.5,43.75407],[178,43.63125],[178.5,43.50551],[179,43.37688],[179.5,43.24536],[180,43.11098]]}},{"type":"Feature","id":"+11450622:south:1","properties":{"id":"+11450622","year":1145,"month":6,"day":22,"time_tdt":"02:02:44","type":"금환일식","type_code":"A","saros":113,"gamma":0.39092,"magnitude":0.96446,"greatest":{"lat":46.60512,"lng":151.69641},"path_width_km":139.7,"duration":"03m35s","delta_t_seconds":904.9,"catalog_number":7477,"source":"NASA Five Millennium Canon of Solar Eclipses","source_url":"https://eclipse.gsfc.nasa.gov/SEsearch/SEsearchmap.php?Ecl=%2B11450622","boundary":"south","name":"1145-06-22 금환일식"},"geometry":{"type":"LineString","coordinates":[[-179.5,42.97373],[-179,42.83366],[-178.5,42.69076],[-178,42.54506],[-177.5,42.39658],[-177,42.24534],[-176.5,42.09137],[-176,41.93468],[-175.5,41.7753],[-175,41.61325],[-174.5,41.44858],[-174,41.28129],[-173.5,41.11142],[-173,40.93901],[-172.5,40.76408],[-172,40.58667],[-171.5,40.40681],[-171,40.22453],[-170.5,40.03989],[-170,39.8529],[-169.5,39.66362],[-169,39.47208],[-168.5,39.27833],[-168,39.08241],[-167.5,38.88435],[-167,38.68422],[-166.5,38.48206],[-166,38.2779],[-165.5,38.07181],[-165,37.86383],[-164.5,37.65401],[-164,37.4424],[-163.5,37.22906],[-163,37.01403],[-162.5,36.79738],[-162,36.57916],[-161.5,36.35941],[-161,36.1382],[-160.5,35.91558],[-160,35.69161],[-159.5,35.46634],[-159,35.23983],[-158.5,35.01214],[-158,34.78332],[-157.5,34.55343],[-157,34.32253],[-156.5,34.09068],[-156,33.85793],[-155.5,33.62433],[-155,33.38995],[-154.5,33.15484],[-154,32.91905],[-153.5,32.68264],[-153,32.44567],[-152.5,32.20818],[-152,31.97024],[-151.5,31.73189],[-151,31.49318],[-150.5,31.25417],[-150,31.01491],[-149.5,30.77545],[-149,30.53583],[-148.5,30.2961],[-148,30.05631],[-147.5,29.8165],[-147,29.57673],[-146.5,29.33703],[-146,29.09745],[-145.5,28.85802],[-145,28.6188],[-144.5,28.37981],[-144,28.1411],[-143.5,27.90271],[-143,27.66467],[-142.5,27.42702],[-142,27.18979],[-141.5,26.95302],[-141,26.71673],[-140.5,26.48097],[-140,26.24575],[-139.5,26.01112],[-139,25.77709],[-138.5,25.5437],[-138,25.31098],[-137.5,25.07894],[-137,24.84761],[-136.5,24.61702],[-136,24.38718],[-135.5,24.15813],[-135,23.92988],[-134.5,23.70245],[-134,23.47585],[-133.5,23.25012],[-133,23.02527],[-132.99805,23.02439]]}},{"type":"Feature","id":"+11451215:north:0","properties":{"id":"+11451215","year":1145,"month":12,"day":15,"time_tdt":"21:18:46","type":"개기일식","type_code":"T","saros":118,"gamma":-0.68918,"magnitude":1.03865,"greatest":{"lat":-67.01626,"lng":-144.98462},"path_width_km":179.8,"duration":"02m32s","delta_t_seconds":903.1,"catalog_number":7478,"source":"NASA Five Millennium Canon of Solar Eclipses","source_url":"https://eclipse.gsfc.nasa.gov/SEsearch/SEsearchmap.php?Ecl=%2B11451215","boundary":"north","name":"1145-12-15 개기일식"},"geometry":{"type":"LineString","coordinates":[[136,-34.45111],[136.5,-34.6783],[137,-34.90745],[137.5,-35.13854],[138,-35.37158],[138.5,-35.60655],[139,-35.84345],[139.5,-36.08226],[140,-36.32296],[140.5,-36.56556],[141,-36.81002],[141.5,-37.05633],[142,-37.30448],[142.5,-37.55443],[143,-37.80618],[143.5,-38.0597],[143.5,-38.05969],[144,-38.31495],[144.5,-38.57192],[145,-38.83057],[145.5,-39.09087],[146,-39.35279],[146.5,-39.6163],[147,-39.88134],[147.5,-40.1479],[148,-40.41592],[148.5,-40.68535],[149,-40.95616],[149.5,-41.22829],[150,-41.5017],[150.5,-41.77632],[151,-42.05211],[151.5,-42.329],[152,-42.60694],[152.5,-42.88586],[153,-43.1657],[153.5,-43.44638],[154,-43.72785],[154.5,-44.01002],[155,-44.29283],[155.5,-44.5762],[156,-44.86005],[156.5,-45.1443],[157,-45.42887],[157.5,-45.71368],[158,-45.99865],[158.5,-46.28368],[159,-46.56868],[159.5,-46.85359],[160,-47.13829],[160.5,-47.42271],[161,-47.70674],[161.5,-47.99031],[162,-48.27332],[162.5,-48.55568],[163,-48.8373],[163.5,-49.11808],[164,-49.39793],[164.5,-49.67678],[165,-49.95452],[165.5,-50.23107],[166,-50.50634],[166.5,-50.78025],[167,-51.05271],[167.5,-51.32365],[168,-51.59298],[168.5,-51.86062],[169,-52.12651],[169.5,-52.39056],[170,-52.6527],[170.5,-52.91287],[171,-53.171],[171.5,-53.42703],[172,-53.6809],[172.5,-53.93254],[172.5,-53.93255],[173,-54.18192],[173.5,-54.42897],[174,-54.67364],[174.5,-54.9159],[175,-55.15569],[175.5,-55.39299],[176,-55.62775],[176.5,-55.85993],[177,-56.08952],[177.5,-56.31647],[178,-56.54077],[178.5,-56.7624],[179,-56.98133],[179.5,-57.19754],[180,-57.41103]]}},{"type":"Feature","id":"+11451215:north:1","properties":{"id":"+11451215","year":1145,"month":12,"day":15,"time_tdt":"21:18:46","type":"개기일식","type_code":"T","saros":118,"gamma":-0.68918,"magnitude":1.03865,"greatest":{"lat":-67.01626,"lng":-144.98462},"path_width_km":179.8,"duration":"02m32s","delta_t_seconds":903.1,"catalog_number":7478,"source":"NASA Five Millennium Canon of Solar Eclipses","source_url":"https://eclipse.gsfc.nasa.gov/SEsearch/SEsearchmap.php?Ecl=%2B11451215","boundary":"north","name":"1145-12-15 개기일식"},"geometry":{"type":"LineString","coordinates":[[-179.5,-57.62178],[-179,-57.82978],[-178.5,-58.03503],[-178,-58.23751],[-177.5,-58.43723],[-177,-58.63418],[-176.5,-58.82836],[-176.5,-58.82837],[-176,-59.01979],[-175.5,-59.20846],[-175,-59.39437],[-174.5,-59.57755],[-174,-59.75798],[-173.5,-59.9357],[-173,-60.1107],[-172.5,-60.283],[-172,-60.45261],[-171.5,-60.61955],[-171,-60.78384],[-170.5,-60.94549],[-170.5,-60.9455],[-170,-61.10453],[-169.5,-61.26096],[-169,-61.4148],[-168.5,-61.56609],[-168,-61.71483],[-167.5,-61.86105],[-167,-62.00477],[-166.5,-62.146],[-166.5,-62.14601],[-166,-62.28479],[-165.5,-62.42113],[-165,-62.55506],[-164.5,-62.6866],[-164,-62.81578],[-163.5,-62.9426],[-163,-63.06711],[-162.5,-63.18931],[-162,-63.30924],[-161.5,-63.42691],[-161,-63.54235],[-160.5,-63.65558],[-160,-63.76662],[-159.5,-63.87549],[-159.5,-63.8755],[-159,-63.98223],[-158.5,-64.08684],[-158,-64.18936],[-157.5,-64.28979],[-157.5,-64.2898],[-157,-64.38818],[-156.5,-64.48452],[-156,-64.57885],[-155.5,-64.67119],[-155,-64.76155],[-154.5,-64.84996],[-154,-64.93644],[-153.5,-65.021],[-153,-65.10367],[-152.5,-65.18446],[-152,-65.26338],[-151.5,-65.34048],[-151.5,-65.34047],[-151,-65.41574],[-150.5,-65.4892],[-150,-65.56087],[-149.5,-65.63077],[-149,-65.69892],[-148.5,-65.76532],[-148,-65.83001],[-147.5,-65.89298],[-147,-65.95426],[-146.5,-66.01386],[-146,-66.07179],[-145.5,-66.12808],[-145,-66.18272],[-144.5,-66.23574],[-144,-66.28715],[-143.5,-66.33696],[-143,-66.38518],[-142.5,-66.43183],[-142,-66.47691],[-141.5,-66.52044],[-141,-66.56243],[-140.5,-66.60289],[-140,-66.64182],[-139.5,-66.67924],[-139,-66.71515],[-138.5,-66.74958],[-138,-66.78251],[-137.5,-66.81397],[-137,-66.84396],[-136.5,-66.87249],[-136,-66.89956],[-135.5,-66.92519],[-135,-66.94937],[-134.5,-66.97212],[-134,-66.99344],[-133.5,-67.01334],[-133,-67.03182],[-132.5,-67.04889],[-132,-67.06455],[-131.5,-67.07881],[-131,-67.09167],[-130.5,-67.10313],[-130,-67.1132],[-129.5,-67.12188],[-129,-67.12918],[-128.5,-67.13509],[-128,-67.13962],[-127.5,-67.14277],[-127.5,-67.14278],[-127,-67.14455],[-126.5,-67.14495],[-126,-67.14398],[-125.5,-67.14163],[-125,-67.13791],[-125,-67.1379],[-124.5,-67.13281],[-124,-67.12634],[-123.5,-67.1185],[-123,-67.10928],[-122.5,-67.09869],[-122,-67.08672],[-121.5,-67.07338],[-121,-67.05865],[-120.5,-67.04255],[-120,-67.02506],[-119.5,-67.00618],[-119,-66.98591],[-118.5,-66.96426],[-118,-66.9412],[-117.5,-66.91675],[-117,-66.89089],[-116.5,-66.86362],[-116,-66.83495],[-115.5,-66.80485],[-115,-66.77333],[-114.5,-66.74039],[-114,-66.70601],[-113.5,-66.67019],[-113,-66.63293],[-112.5,-66.59422],[-112,-66.55405],[-111.5,-66.51241],[-111,-66.4693],[-110.5,-66.42472],[-110,-66.37864],[-109.5,-66.33108],[-109,-66.282],[-108.5,-66.23142],[-108,-66.17932],[-107.5,-66.12569],[-107,-66.07052],[-106.5,-66.01381],[-106,-65.95554],[-105.5,-65.8957],[-105,-65.83429],[-104.5,-65.77129],[-104,-65.70669],[-103.5,-65.64049],[-103,-65.57267],[-102.5,-65.50323],[-102,-65.43214],[-101.5,-65.35941],[-101,-65.28501],[-100.5,-65.20894],[-100,-65.13118],[-99.5,-65.05173],[-99,-64.97057],[-98.5,-64.88769],[-98,-64.80307],[-97.5,-64.71672],[-97.5,-64.71671],[-97,-64.6286],[-96.5,-64.53871],[-96,-64.44705],[-95.5,-64.35359],[-95,-64.25832],[-94.5,-64.16123],[-94,-64.06231],[-93.5,-63.96155],[-93,-63.85893],[-92.5,-63.75444],[-92,-63.64807],[-91.5,-63.53981],[-91,-63.42965],[-90.5,-63.31756],[-90,-63.20355],[-89.5,-63.0876],[-89,-62.96969],[-88.5,-62.84983],[-88,-62.72799],[-87.5,-62.60417],[-87,-62.47835],[-86.5,-62.35053],[-86,-62.2207],[-85.5,-62.08885],[-85,-61.95497],[-84.5,-61.81904],[-84,-61.68108],[-83.5,-61.54106],[-83,-61.39898],[-82.5,-61.25484],[-82,-61.10863],[-81.5,-60.96034],[-81,-60.80998],[-80.5,-60.65754],[-80,-60.50301],[-79.5,-60.3464],[-79,-60.18771],[-78.5,-60.02693],[-78,-59.86407],[-77.5,-59.69913],[-77,-59.53212],[-76.5,-59.36303],[-76,-59.19188],[-75.5,-59.01866],[-75,-58.8434],[-74.5,-58.6661],[-74,-58.48676],[-73.5,-58.3054],[-73,-58.12204],[-72.5,-57.93668],[-72,-57.74934],[-71.5,-57.56005],[-71,-57.36881],[-70.5,-57.17564],[-70,-56.98057],[-69.5,-56.78362],[-69,-56.58482],[-68.5,-56.38418],[-68,-56.18173],[-67.5,-55.9775],[-67,-55.77153],[-66.5,-55.56383],[-66,-55.35445],[-65.5,-55.14341],[-65,-54.93075],[-64.5,-54.7165],[-64,-54.50071],[-63.5,-54.2834],[-63,-54.06462],[-62.5,-53.84441],[-62,-53.62281],[-61.5,-53.39986],[-61,-53.17561],[-60.5,-52.95009],[-60,-52.72336],[-59.5,-52.49546],[-59,-52.26644],[-58.5,-52.03634],[-58,-51.80521],[-57.5,-51.5731],[-57,-51.34007],[-56.5,-51.10615],[-56,-50.8714],[-55.5,-50.63587],[-55,-50.3996],[-54.5,-50.16266],[-54,-49.92509],[-53.5,-49.68694],[-53,-49.44826],[-52.5,-49.20911],[-52,-48.96953],[-51.5,-48.72957],[-51,-48.48928],[-50.5,-48.24872],[-50,-48.00793],[-49.5,-47.76696],[-49,-47.52586],[-48.5,-47.28467],[-48,-47.04345],[-47.5,-46.80224],[-47,-46.56108],[-46.5,-46.32003],[-46,-46.07912],[-45.5,-45.8384],[-45,-45.59792],[-44.5,-45.3577],[-44,-45.11781],[-43.5,-44.87826],[-43,-44.63912],[-42.5,-44.4004],[-42,-44.16216],[-41.5,-43.92442],[-41,-43.68722],[-41,-43.68723],[-40.5,-43.45061]]}},{"type":"Feature","id":"+11451215:center:0","properties":{"id":"+11451215","year":1145,"month":12,"day":15,"time_tdt":"21:18:46","type":"개기일식","type_code":"T","saros":118,"gamma":-0.68918,"magnitude":1.03865,"greatest":{"lat":-67.01626,"lng":-144.98462},"path_width_km":179.8,"duration":"02m32s","delta_t_seconds":903.1,"catalog_number":7478,"source":"NASA Five Millennium Canon of Solar Eclipses","source_url":"https://eclipse.gsfc.nasa.gov/SEsearch/SEsearchmap.php?Ecl=%2B11451215","boundary":"center","name":"1145-12-15 개기일식"},"geometry":{"type":"LineString","coordinates":[[135.31316,-34.81111],[135.5,-34.92279],[136,-35.15439],[136.5,-35.388],[137,-35.62362],[137.5,-35.86124],[138,-36.10084],[138.5,-36.34243],[139,-36.58598],[139.5,-36.83149],[140,-37.07893],[140.5,-37.3283],[141,-37.57957],[141.5,-37.83272],[142,-38.08773],[142.5,-38.34458],[143,-38.60324],[143.5,-38.86369],[144,-39.12589],[144.5,-39.38981],[145,-39.65543],[145.5,-39.9227],[146,-40.19158],[146.5,-40.46204],[147,-40.73404],[147.5,-41.00752],[148,-41.28244],[148.5,-41.55876],[149,-41.83641],[149.5,-42.11535],[150,-42.39552],[150.5,-42.67685],[151,-42.95929],[151.5,-43.24278],[152,-43.52723],[152.5,-43.81259],[153,-44.09879],[153.5,-44.38574],[154,-44.67338],[154.5,-44.96162],[155,-45.25038],[155.5,-45.53959],[156,-45.82915],[156.5,-46.11898],[157,-46.40899],[157.5,-46.6991],[158,-46.98921],[158.5,-47.27922],[158.5,-47.27923],[159,-47.56906],[159.5,-47.85862],[160,-48.1478],[160.5,-48.43652],[161,-48.72468],[161.5,-49.01218],[162,-49.29893],[162.5,-49.58482],[163,-49.86978],[163.5,-50.1537],[164,-50.43649],[164.5,-50.71805],[165,-50.99831],[165.5,-51.27716],[166,-51.55453],[166.5,-51.83032],[167,-52.10446],[167.5,-52.37686],[168,-52.64744],[168.5,-52.91613],[169,-53.18285],[169.5,-53.44754],[170,-53.71012],[170.5,-53.97053],[171,-54.22871],[171.5,-54.4846],[172,-54.73813],[172.5,-54.98927],[173,-55.23796],[173.5,-55.48416],[174,-55.72781],[174.5,-55.96888],[175,-56.20734],[175.5,-56.44315],[176,-56.67628],[176.5,-56.9067],[177,-57.13439],[177.5,-57.35932],[178,-57.58148],[178.5,-57.80084],[179,-58.01741],[179.5,-58.23116],[180,-58.44209]]}},{"type":"Feature","id":"+11451215:center:1","properties":{"id":"+11451215","year":1145,"month":12,"day":15,"time_tdt":"21:18:46","type":"개기일식","type_code":"T","saros":118,"gamma":-0.68918,"magnitude":1.03865,"greatest":{"lat":-67.01626,"lng":-144.98462},"path_width_km":179.8,"duration":"02m32s","delta_t_seconds":903.1,"catalog_number":7478,"source":"NASA Five Millennium Canon of Solar Eclipses","source_url":"https://eclipse.gsfc.nasa.gov/SEsearch/SEsearchmap.php?Ecl=%2B11451215","boundary":"center","name":"1145-12-15 개기일식"},"geometry":{"type":"LineString","coordinates":[[-179.5,-58.65018],[-179,-58.85545],[-178.5,-59.05788],[-178,-59.25747],[-177.5,-59.45424],[-177,-59.64817],[-176.5,-59.83928],[-176,-60.02758],[-175.5,-60.21308],[-175,-60.39578],[-174.5,-60.5757],[-174,-60.75285],[-173.5,-60.92725],[-173,-61.09892],[-172.5,-61.26786],[-172,-61.4341],[-171.5,-61.59765],[-171,-61.75854],[-170.5,-61.91679],[-170,-62.07241],[-169.5,-62.22543],[-169,-62.37587],[-168.5,-62.52376],[-168,-62.66911],[-167.5,-62.81194],[-167,-62.9523],[-166.5,-63.09018],[-166,-63.22563],[-165.5,-63.35866],[-165,-63.4893],[-164.5,-63.61757],[-164,-63.7435],[-163.5,-63.8671],[-163,-63.98842],[-162.5,-64.10746],[-162,-64.22425],[-162,-64.22426],[-161.5,-64.33883],[-161,-64.4512],[-160.5,-64.5614],[-160,-64.66945],[-159.5,-64.77536],[-159,-64.87917],[-158.5,-64.9809],[-158,-65.08057],[-157.5,-65.1782],[-157,-65.27381],[-156.5,-65.36743],[-156,-65.45907],[-155.5,-65.54876],[-155,-65.63652],[-154.5,-65.72237],[-154,-65.80632],[-153.5,-65.88841],[-153,-65.96864],[-152.5,-66.04703],[-152,-66.12361],[-151.5,-66.1984],[-151,-66.2714],[-150.5,-66.34265],[-150,-66.41214],[-149.5,-66.47991],[-149,-66.54597],[-148.5,-66.61034],[-148,-66.67302],[-147.5,-66.73404],[-147,-66.79341],[-146.5,-66.85114],[-146,-66.90726],[-145.5,-66.96176],[-145,-67.01467],[-144.5,-67.06601],[-144,-67.11577],[-143.5,-67.16398],[-143,-67.21064],[-142.5,-67.25577],[-142,-67.29938],[-141.5,-67.34148],[-141,-67.38209],[-140.5,-67.4212],[-140,-67.45883],[-139.5,-67.49499],[-139,-67.5297],[-138.5,-67.56295],[-138,-67.59476],[-137.5,-67.62513],[-137,-67.65407],[-136.5,-67.6816],[-136,-67.70771],[-135.5,-67.73242],[-135,-67.75572],[-134.5,-67.77764],[-134,-67.79816],[-133.5,-67.81731],[-133,-67.83507],[-132.5,-67.85147],[-132,-67.8665],[-131.5,-67.88016],[-131,-67.89247],[-130.5,-67.90342],[-130,-67.91302],[-129.5,-67.92127],[-129,-67.92818],[-128.5,-67.93374],[-128,-67.93796],[-127.5,-67.94084],[-127,-67.94238],[-126.5,-67.94259],[-126,-67.94146],[-125.5,-67.93899],[-125,-67.93519],[-124.5,-67.93005],[-124,-67.92358],[-123.5,-67.91578],[-123,-67.90664],[-122.5,-67.89616],[-122,-67.88434],[-121.5,-67.87118],[-121,-67.85668],[-120.5,-67.84083],[-120,-67.82364],[-119.5,-67.8051],[-119,-67.7852],[-118.5,-67.76395],[-118,-67.74134],[-117.5,-67.71737],[-117,-67.69202],[-116.5,-67.66531],[-116,-67.63722],[-115.5,-67.60774],[-115,-67.57688],[-114.5,-67.54463],[-114,-67.51098],[-113.5,-67.47592],[-113,-67.43946],[-112.5,-67.40157],[-112,-67.36226],[-111.5,-67.32152],[-111,-67.27935],[-110.5,-67.23572],[-110,-67.19064],[-109.5,-67.1441],[-109,-67.09609],[-108.5,-67.04659],[-108,-66.99561],[-107.5,-66.94313],[-107,-66.88915],[-106.5,-66.83364],[-106,-66.77661],[-105.5,-66.71804],[-105.5,-66.71805],[-105,-66.65793],[-104.5,-66.59626],[-104,-66.53302],[-103.5,-66.4682],[-103,-66.40179],[-102.5,-66.33377],[-102,-66.26415],[-101.5,-66.19289],[-101,-66.12],[-100.5,-66.04546],[-100,-65.96926],[-99.5,-65.89138],[-99,-65.81181],[-99,-65.81182],[-98.5,-65.73055],[-98,-65.64757],[-97.5,-65.56286],[-97,-65.47642],[-96.5,-65.38822],[-96,-65.29825],[-95.5,-65.20651],[-95,-65.11297],[-94.5,-65.01762],[-94,-64.92045],[-93.5,-64.82145],[-93,-64.7206],[-92.5,-64.61789],[-92,-64.5133],[-91.5,-64.40683],[-91,-64.29845],[-90.5,-64.18815],[-90,-64.07593],[-89.5,-63.96176],[-89,-63.84564],[-88.5,-63.72755],[-88,-63.60748],[-87.5,-63.48542],[-87,-63.36135],[-86.5,-63.23526],[-86,-63.10715],[-85.5,-62.97699],[-85,-62.84479],[-84.5,-62.71053],[-84,-62.57419],[-83.5,-62.43578],[-83,-62.29528],[-82.5,-62.15268],[-82,-62.00798],[-81.5,-61.86117],[-81,-61.71224],[-80.5,-61.56119],[-80,-61.40801],[-79.5,-61.2527],[-79,-61.09526],[-78.5,-60.93568],[-78,-60.77396],[-77.5,-60.61011],[-77,-60.44411],[-76.5,-60.27598],[-76,-60.10572],[-75.5,-59.93333],[-75,-59.75881],[-74.5,-59.58218],[-74,-59.40344],[-73.5,-59.22259],[-73,-59.03965],[-72.5,-58.85464],[-72,-58.66755],[-71.5,-58.47841],[-71,-58.28724],[-70.5,-58.09404],[-70,-57.89884],[-69.5,-57.70165],[-69,-57.50251],[-68.5,-57.30142],[-68,-57.09842],[-67.5,-56.89354],[-67,-56.68679],[-66.5,-56.4782],[-66,-56.26782],[-65.5,-56.05566],[-65,-55.84176],[-64.5,-55.62616],[-64,-55.40889],[-63.5,-55.18999],[-63,-54.9695],[-62.5,-54.74745],[-62,-54.52389],[-61.5,-54.29887],[-61,-54.07241],[-60.5,-53.84458],[-60,-53.61541],[-59.5,-53.38495],[-59,-53.15325],[-58.5,-52.92035],[-58,-52.68631],[-57.5,-52.45118],[-57,-52.215],[-56.5,-51.97783],[-56,-51.73972],[-55.5,-51.50072],[-55,-51.26089],[-54.5,-51.02027],[-54,-50.77892],[-53.5,-50.5369],[-53,-50.29425],[-52.5,-50.05104],[-52,-49.8073],[-51.5,-49.56311],[-51,-49.3185],[-50.5,-49.07353],[-50,-48.82827],[-50,-48.82826],[-49.5,-48.58274],[-49,-48.33702],[-48.5,-48.09114],[-48,-47.84517],[-47.5,-47.59915],[-47,-47.35312],[-46.5,-47.10714],[-46,-46.86126],[-45.5,-46.61552],[-45,-46.36997],[-44.5,-46.12466],[-44,-45.87962],[-43.5,-45.6349],[-43,-45.39055],[-42.5,-45.14661],[-42,-44.90311],[-41.5,-44.66009],[-41,-44.41761],[-41,-44.4176],[-40.5,-44.17568],[-40,-43.93435],[-39.73999,-43.80419]]}},{"type":"Feature","id":"+11451215:south:0","properties":{"id":"+11451215","year":1145,"month":12,"day":15,"time_tdt":"21:18:46","type":"개기일식","type_code":"T","saros":118,"gamma":-0.68918,"magnitude":1.03865,"greatest":{"lat":-67.01626,"lng":-144.98462},"path_width_km":179.8,"duration":"02m32s","delta_t_seconds":903.1,"catalog_number":7478,"source":"NASA Five Millennium Canon of Solar Eclipses","source_url":"https://eclipse.gsfc.nasa.gov/SEsearch/SEsearchmap.php?Ecl=%2B11451215","boundary":"south","name":"1145-12-15 개기일식"},"geometry":{"type":"LineString","coordinates":[[134.76367,-35.29136],[135,-35.40227],[135.5,-35.63844],[136,-35.87669],[136.5,-36.117],[137,-36.35938],[137.5,-36.6038],[138,-36.85026],[138.5,-37.09875],[139,-37.34925],[139.5,-37.60174],[140,-37.85621],[140.5,-38.11264],[141,-38.371],[141.5,-38.63127],[142,-38.89344],[142.5,-39.15746],[143,-39.42331],[143.5,-39.69096],[144,-39.96038],[144.5,-40.23153],[145,-40.50437],[145.5,-40.77886],[146,-41.05496],[146.5,-41.33262],[147,-41.6118],[147.5,-41.89244],[148,-42.17449],[148.5,-42.4579],[149,-42.7426],[149.5,-43.02854],[150,-43.31565],[150.5,-43.60386],[151,-43.89311],[151.5,-44.18332],[152,-44.47442],[152.5,-44.76634],[153,-45.05899],[153.5,-45.35229],[154,-45.64616],[154.5,-45.94052],[155,-46.23527],[155.5,-46.53032],[156,-46.82559],[156.5,-47.12098],[157,-47.41639],[157.5,-47.71173],[158,-48.0069],[158.5,-48.30181],[159,-48.59635],[159.5,-48.89043],[160,-49.18394],[160.5,-49.47678],[161,-49.76886],[161.5,-50.06008],[162,-50.35033],[162.5,-50.63952],[163,-50.92754],[163.5,-51.21432],[164,-51.49974],[164.5,-51.78372],[165,-52.06616],[165.5,-52.34698],[166,-52.62609],[166.5,-52.9034],[167,-53.17883],[167.5,-53.45231],[168,-53.72375],[168.5,-53.99309],[169,-54.26024],[169.5,-54.52516],[170,-54.78776],[170.5,-55.04799],[171,-55.30579],[171.5,-55.56111],[172,-55.8139],[172.5,-56.0641],[173,-56.31168],[173.5,-56.5566],[174,-56.79881],[174.5,-57.03829],[175,-57.275],[175.5,-57.50891],[176,-57.74001],[176.5,-57.96827],[177,-58.19366],[177.5,-58.41619],[178,-58.63583],[178.5,-58.85257],[179,-59.06641],[179.5,-59.27734],[180,-59.48536]]}},{"type":"Feature","id":"+11451215:south:1","properties":{"id":"+11451215","year":1145,"month":12,"day":15,"time_tdt":"21:18:46","type":"개기일식","type_code":"T","saros":118,"gamma":-0.68918,"magnitude":1.03865,"greatest":{"lat":-67.01626,"lng":-144.98462},"path_width_km":179.8,"duration":"02m32s","delta_t_seconds":903.1,"catalog_number":7478,"source":"NASA Five Millennium Canon of Solar Eclipses","source_url":"https://eclipse.gsfc.nasa.gov/SEsearch/SEsearchmap.php?Ecl=%2B11451215","boundary":"south","name":"1145-12-15 개기일식"},"geometry":{"type":"LineString","coordinates":[[-179.5,-59.69047],[-179.5,-59.69046],[-179,-59.89267],[-179,-59.89266],[-178.5,-60.09196],[-178,-60.28836],[-177.5,-60.48186],[-177,-60.67249],[-176.5,-60.86024],[-176,-61.04514],[-175.5,-61.2272],[-175,-61.40643],[-174.5,-61.58285],[-174.5,-61.58284],[-174,-61.75647],[-173.5,-61.92732],[-173,-62.09542],[-172.5,-62.26078],[-172,-62.42344],[-171.5,-62.5834],[-171,-62.7407],[-170.5,-62.89535],[-170,-63.04738],[-169.5,-63.19682],[-169,-63.34369],[-168.5,-63.48802],[-168,-63.62982],[-167.5,-63.76913],[-167,-63.90597],[-166.5,-64.04037],[-166,-64.17235],[-165.5,-64.30195],[-165,-64.42917],[-164.5,-64.55406],[-164,-64.67663],[-163.5,-64.79691],[-163,-64.91494],[-162.5,-65.03072],[-162,-65.14429],[-161.5,-65.25568],[-161,-65.36491],[-161,-65.3649],[-160.5,-65.47199],[-160,-65.57696],[-159.5,-65.67985],[-159,-65.78067],[-158.5,-65.87944],[-158,-65.9762],[-157.5,-66.07096],[-157,-66.16374],[-156.5,-66.25458],[-156,-66.34348],[-155.5,-66.43048],[-155,-66.51558],[-154.5,-66.59882],[-154,-66.68021],[-153.5,-66.75978],[-153,-66.83753],[-152.5,-66.9135],[-152,-66.9877],[-151.5,-67.06014],[-151,-67.13085],[-150.5,-67.19985],[-150,-67.26715],[-149.5,-67.33276],[-149,-67.39671],[-148.5,-67.45901],[-148,-67.51967],[-147.5,-67.57872],[-147,-67.63616],[-146.5,-67.69201],[-146,-67.74628],[-145.5,-67.79899],[-145,-67.85016],[-144.5,-67.89979],[-144.5,-67.89978],[-144,-67.94789],[-143.5,-67.99448],[-143,-68.03958],[-142.5,-68.08319],[-142,-68.12532],[-141.5,-68.16598],[-141,-68.20519],[-140.5,-68.24296],[-140,-68.27928],[-139.5,-68.31419],[-139,-68.34767],[-138.5,-68.37975],[-138,-68.41043],[-137.5,-68.43971],[-137,-68.46761],[-136.5,-68.49413],[-136,-68.51929],[-135.5,-68.54308],[-135,-68.56551],[-134.5,-68.58659],[-134,-68.60633],[-133.5,-68.62472],[-133,-68.64178],[-132.5,-68.65751],[-132,-68.67192],[-131.5,-68.685],[-131,-68.69676],[-130.5,-68.70721],[-130,-68.71635],[-129.5,-68.72418],[-129,-68.73071],[-128.5,-68.73593],[-128,-68.73985],[-127.5,-68.74247],[-127,-68.7438],[-126.5,-68.74382],[-126,-68.74255],[-125.5,-68.73998],[-125,-68.73612],[-124.5,-68.73096],[-124.5,-68.73097],[-124,-68.72451],[-123.5,-68.71676],[-123,-68.70771],[-122.5,-68.69737],[-122,-68.68572],[-121.5,-68.67277],[-121,-68.65852],[-120.5,-68.64296],[-120,-68.62609],[-119.5,-68.60791],[-119,-68.58841],[-118.5,-68.5676],[-118,-68.54546],[-117.5,-68.522],[-117,-68.49721],[-116.5,-68.47108],[-116,-68.44361],[-115.5,-68.41479],[-115,-68.38462],[-114.5,-68.3531],[-114,-68.32022],[-113.5,-68.28596],[-113,-68.25033],[-112.5,-68.21332],[-112,-68.17492],[-111.5,-68.13512],[-111,-68.09392],[-110.5,-68.05131],[-110,-68.00727],[-109.5,-67.96181],[-109,-67.91491],[-108.5,-67.86656],[-108,-67.81676],[-107.5,-67.76549],[-107,-67.71274],[-106.5,-67.65851],[-106,-67.60279],[-105.5,-67.54556],[-105,-67.48681],[-104.5,-67.42654],[-104,-67.36473],[-103.5,-67.30136],[-103,-67.23644],[-102.5,-67.16994],[-102,-67.10185],[-101.5,-67.03216],[-101,-66.96087],[-100.5,-66.88795],[-100,-66.81339],[-99.5,-66.73718],[-99,-66.65931],[-98.5,-66.57976],[-98,-66.49851],[-97.5,-66.41557],[-97,-66.3309],[-96.5,-66.2445],[-96,-66.15635],[-95.5,-66.06644],[-95,-65.97475],[-94.5,-65.88127],[-94,-65.78599],[-93.5,-65.68888],[-93,-65.58993],[-92.5,-65.48914],[-92,-65.38647],[-91.5,-65.28193],[-91,-65.17549],[-90.5,-65.06714],[-90,-64.95686],[-89.5,-64.84464],[-89,-64.73047],[-88.5,-64.61432],[-88.5,-64.61433],[-88,-64.4962],[-87.5,-64.37607],[-87,-64.25393],[-86.5,-64.12976],[-86,-64.00356],[-85.5,-63.8753],[-85,-63.74498],[-84.5,-63.61257],[-84,-63.47808],[-83.5,-63.34148],[-83,-63.20278],[-82.5,-63.06194],[-82,-62.91898],[-81.5,-62.77387],[-81,-62.6266],[-80.5,-62.47718],[-80,-62.32559],[-79.5,-62.17182],[-79,-62.01587],[-78.5,-61.85774],[-78,-61.69741],[-77.5,-61.5349],[-77,-61.37018],[-76.5,-61.20327],[-76,-61.03416],[-75.5,-60.86285],[-75,-60.68935],[-74.5,-60.51365],[-74,-60.33577],[-73.5,-60.15571],[-73,-59.97347],[-72.5,-59.78907],[-72,-59.6025],[-71.5,-59.4138],[-71,-59.22296],[-70.5,-59.03],[-70,-58.83493],[-69.5,-58.63778],[-69,-58.43856],[-68.5,-58.2373],[-68,-58.03401],[-67.5,-57.82871],[-67,-57.62144],[-66.5,-57.41222],[-66,-57.20107],[-65.5,-56.98803],[-65,-56.77313],[-64.5,-56.55641],[-64,-56.33788],[-63.5,-56.1176],[-63,-55.8956],[-62.5,-55.67192],[-62,-55.4466],[-61.5,-55.21968],[-61,-54.9912],[-60.5,-54.76122],[-60,-54.52976],[-59.5,-54.29689],[-59,-54.06265],[-58.5,-53.82709],[-58,-53.59026],[-57.5,-53.35221],[-57,-53.11299],[-56.5,-52.87266],[-56,-52.63126],[-55.5,-52.38886],[-55,-52.14551],[-54.5,-51.90126],[-54,-51.65617],[-53.5,-51.4103],[-53,-51.16369],[-52.5,-50.91642],[-52,-50.66852],[-51.5,-50.42007],[-51,-50.17111],[-50.5,-49.9217],[-50,-49.6719],[-49.5,-49.42177],[-49,-49.17135],[-48.5,-48.92071],[-48,-48.66989],[-47.5,-48.41896],[-47,-48.16796],[-46.5,-47.91694],[-46,-47.66597],[-45.5,-47.41508],[-45,-47.16433],[-44.5,-46.91376],[-44,-46.66343],[-43.5,-46.41338],[-43,-46.16367],[-42.5,-45.91432],[-42,-45.66539],[-41.5,-45.41692],[-41,-45.16896],[-40.5,-44.92153],[-40,-44.67469],[-39.5,-44.42847],[-39.10938,-44.23657]]}}],"attribution":"Eclipse Predictions by Fred Espenak and Jean Meeus (NASA's GSFC)","generated_at":"2026-09-23T03:35:43.415Z"}
