{"type":"FeatureCollection","year":1146,"events":[{"id":"+11460611","year":1146,"month":6,"day":11,"time_tdt":"03:09:15","type":"부분일식","type_code":"P","saros":123,"gamma":1.16417,"magnitude":0.68167,"greatest":{"lat":65.41023,"lng":-25.45496},"path_width_km":0,"duration":"00m00s","delta_t_seconds":901.4,"catalog_number":7479,"source":"NASA Five Millennium Canon of Solar Eclipses","source_url":"https://eclipse.gsfc.nasa.gov/SEsearch/SEsearchmap.php?Ecl=%2B11460611"},{"id":"+11461106","year":1146,"month":11,"day":6,"time_tdt":"01:33:49","type":"부분일식","type_code":"P","saros":90,"gamma":1.36689,"magnitude":0.32328,"greatest":{"lat":62.59,"lng":-151.85028},"path_width_km":0,"duration":"00m00s","delta_t_seconds":900,"catalog_number":7480,"source":"NASA Five Millennium Canon of Solar Eclipses","source_url":"https://eclipse.gsfc.nasa.gov/SEsearch/SEsearchmap.php?Ecl=%2B11461106"},{"id":"+11461205","year":1146,"month":12,"day":5,"time_tdt":"12:57:34","type":"부분일식","type_code":"P","saros":128,"gamma":-1.35071,"magnitude":0.35,"greatest":{"lat":-64.97647,"lng":-168.28302},"path_width_km":0,"duration":"00m00s","delta_t_seconds":899.7,"catalog_number":7481,"source":"NASA Five Millennium Canon of Solar Eclipses","source_url":"https://eclipse.gsfc.nasa.gov/SEsearch/SEsearchmap.php?Ecl=%2B11461205"}],"features":[],"attribution":"Eclipse Predictions by Fred Espenak and Jean Meeus (NASA's GSFC)","generated_at":"2026-09-23T03:35:43.101Z"}
