{"type":"FeatureCollection","year":1148,"events":[{"id":"+11480420","year":1148,"month":4,"day":20,"time_tdt":"05:37:53","type":"개기일식","type_code":"Tm","saros":105,"gamma":-0.07654,"magnitude":1.05195,"greatest":{"lat":9.809,"lng":100.34161},"path_width_km":172.5,"duration":"04m35s","delta_t_seconds":894.9,"catalog_number":7484,"source":"NASA Five Millennium Canon of Solar Eclipses","source_url":"https://eclipse.gsfc.nasa.gov/SEsearch/SEsearchmap.php?Ecl=%2B11480420"},{"id":"+11481014","year":1148,"month":10,"day":14,"time_tdt":"13:38:06","type":"금환일식","type_code":"A","saros":110,"gamma":0.02308,"magnitude":0.92863,"greatest":{"lat":-9.69386,"lng":-23.89429},"path_width_km":267.9,"duration":"08m26s","delta_t_seconds":893.2,"catalog_number":7485,"source":"NASA Five Millennium Canon of Solar Eclipses","source_url":"https://eclipse.gsfc.nasa.gov/SEsearch/SEsearchmap.php?Ecl=%2B11481014"}],"features":[{"type":"Feature","id":"+11480420:north:0","properties":{"id":"+11480420","year":1148,"month":4,"day":20,"time_tdt":"05:37:53","type":"개기일식","type_code":"Tm","saros":105,"gamma":-0.07654,"magnitude":1.05195,"greatest":{"lat":9.809,"lng":100.34161},"path_width_km":172.5,"duration":"04m35s","delta_t_seconds":894.9,"catalog_number":7484,"source":"NASA Five Millennium Canon of Solar Eclipses","source_url":"https://eclipse.gsfc.nasa.gov/SEsearch/SEsearchmap.php?Ecl=%2B11480420","boundary":"north","name":"1148-04-20 개기일식"},"geometry":{"type":"LineString","coordinates":[[42.12695,-28.11854],[42.5,-28.024],[43,-27.89527],[43.5,-27.76422],[44,-27.63082],[44.5,-27.49504],[45,-27.35685],[45.5,-27.21623],[46,-27.07313],[46.5,-26.92754],[47,-26.77941],[47.5,-26.62873],[48,-26.47544],[48.5,-26.31953],[49,-26.16096],[49.5,-25.99968],[50,-25.83568],[50.5,-25.6689],[51,-25.49931],[51.5,-25.32687],[52,-25.15155],[52.5,-24.9733],[53,-24.79208],[53.5,-24.60785],[54,-24.42057],[54.5,-24.2302],[55,-24.03668],[55.5,-23.83997],[56,-23.64004],[56.5,-23.43681],[57,-23.23026],[57.5,-23.02033],[58,-22.80697],[58.5,-22.59012],[59,-22.36974],[59.5,-22.14576],[60,-21.91814],[60.5,-21.68681],[61,-21.45173],[61.5,-21.21282],[62,-20.97003],[62.5,-20.72331],[63,-20.47257],[63.5,-20.21777],[64,-19.95884],[64.5,-19.69572],[65,-19.42832],[65.5,-19.1566],[66,-18.88048],[66.5,-18.59988],[67,-18.31475],[67.5,-18.02501],[68,-17.73058],[68.5,-17.43139],[69,-17.12738],[69.5,-16.81846],[70,-16.50457],[70.5,-16.18563],[71,-15.86157],[71.5,-15.53231],[72,-15.19778],[72.5,-14.85792],[73,-14.51264],[73.5,-14.16189],[74,-13.80559],[74.5,-13.44369],[75,-13.07612],[75.5,-12.70281],[76,-12.32373],[76.5,-11.93882],[77,-11.54803],[77.5,-11.15133],[78,-10.74869],[78.5,-10.34008],[79,-9.92548],[79.5,-9.5049],[80,-9.07834],[80.5,-8.64582],[81,-8.20736],[81.5,-7.76301],[82,-7.31283],[82.5,-6.8569],[83,-6.3953],[83.5,-5.92817],[84,-5.45562],[84.5,-4.97781],[85,-4.49493],[85.5,-4.00718],[86,-3.51479],[86.5,-3.018],[87,-2.5171],[87.5,-2.0124],[88,-1.50424],[88.5,-0.99296],[89,-0.47895],[89.5,0.03737],[90,0.55557],[90.5,1.0752],[91,1.59578],[91.5,2.11682],[92,2.63782],[92.5,3.15825],[93,3.67761],[93.5,4.19535],[94,4.71095],[94.5,5.22389],[95,5.73365],[95.5,6.23972],[96,6.74162],[96.5,7.23887],[97,7.73102],[97.5,8.21765],[98,8.69834],[98.5,9.17273],[99,9.64047],[99.5,10.10125],[100,10.55477],[100.5,11.00079],[101,11.43907],[101.5,11.86944],[102,12.2917],[102.5,12.70574],[103,13.11144],[103.5,13.50872],[104,13.8975],[104.5,14.27776],[105,14.64946],[105.5,15.01262],[106,15.36725],[106.5,15.71338],[107,16.05105],[107.5,16.38033],[108,16.70129],[108.5,17.01399],[109,17.31855],[109.5,17.61503],[110,17.90356],[110.5,18.18424],[111,18.45717],[111.5,18.72247],[112,18.98026],[112.5,19.23066],[113,19.47379],[113.5,19.70977],[114,19.93872],[114.5,20.16076],[115,20.37602],[115.5,20.58461],[116,20.78666],[116.5,20.98229],[117,21.1716],[117.5,21.35472],[118,21.53177],[118.5,21.70284],[119,21.86806],[119.5,22.02753],[120,22.18135],[120.5,22.32963],[121,22.47247],[121.5,22.60997],[122,22.74223],[122.5,22.86933],[123,22.99139],[123.5,23.10847],[124,23.22067],[124.5,23.32809],[125,23.43079],[125.5,23.52886],[126,23.62239],[126.5,23.71145],[127,23.79611],[127.5,23.87645],[128,23.95254],[128.5,24.02445],[129,24.09226],[129.5,24.15601],[130,24.21579],[130.5,24.27166],[131,24.32366],[131.5,24.37188],[132,24.41636],[132.5,24.45716],[133,24.49434],[133.5,24.52795],[134,24.55804],[134.5,24.58468],[135,24.6079],[135.5,24.62776],[136,24.6443],[136.5,24.65758],[137,24.66763],[137.5,24.67451],[138,24.67826],[138.5,24.67892],[139,24.67653],[139.5,24.67114],[140,24.66279],[140.5,24.65151],[141,24.63734],[141.5,24.62032],[142,24.6005],[142.5,24.5779],[143,24.55256],[143.5,24.52452],[144,24.49381],[144.5,24.46047],[145,24.42452],[145.5,24.38601],[146,24.34496],[146.5,24.3014],[147,24.25537],[147.5,24.2069],[148,24.15602],[148.5,24.10275],[149,24.04713],[149.5,23.98918],[150,23.92894],[150.5,23.86643],[151,23.80167],[151.5,23.73471],[152,23.66555],[152.5,23.59424],[153,23.52079],[153.5,23.44523],[154,23.3676],[154.5,23.2879],[155,23.20617],[155.5,23.12243],[156,23.03671],[156.5,22.94903],[157,22.85942],[157.5,22.76789],[158,22.67448],[158.5,22.5792],[159,22.48208],[159.5,22.38315],[160,22.28241],[160.5,22.1799],[161,22.07564],[161.5,21.96966],[162,21.86196],[162.5,21.75258],[163,21.64153],[163.5,21.52884],[164,21.41453],[164.5,21.29862],[165,21.18113],[165.5,21.06208],[166,20.94149],[166.5,20.81938],[167,20.69578],[167.5,20.5707]]}},{"type":"Feature","id":"+11480420:center:0","properties":{"id":"+11480420","year":1148,"month":4,"day":20,"time_tdt":"05:37:53","type":"개기일식","type_code":"Tm","saros":105,"gamma":-0.07654,"magnitude":1.05195,"greatest":{"lat":9.809,"lng":100.34161},"path_width_km":172.5,"duration":"04m35s","delta_t_seconds":894.9,"catalog_number":7484,"source":"NASA Five Millennium Canon of Solar Eclipses","source_url":"https://eclipse.gsfc.nasa.gov/SEsearch/SEsearchmap.php?Ecl=%2B11480420","boundary":"center","name":"1148-04-20 개기일식"},"geometry":{"type":"LineString","coordinates":[[42.31838,-28.63887],[42.5,-28.5693],[43,-28.44354],[43.5,-28.3155],[44,-28.18514],[44.5,-28.05244],[45,-27.91737],[45.5,-27.7799],[46,-27.64001],[46.5,-27.49766],[47,-27.35283],[47.5,-27.20547],[48,-27.05557],[48.5,-26.90308],[49,-26.74798],[49.5,-26.59022],[50,-26.42978],[50.5,-26.26662],[51,-26.10071],[51.5,-25.93199],[52,-25.76045],[52.5,-25.58603],[53,-25.40871],[53.5,-25.22843],[54,-25.04516],[54.5,-24.85885],[55,-24.66946],[55.5,-24.47695],[56,-24.28127],[56.5,-24.08237],[57,-23.88021],[57.5,-23.67474],[58,-23.46591],[58.5,-23.25366],[59,-23.03796],[59.5,-22.81873],[60,-22.59594],[60.5,-22.36953],[61,-22.13943],[61.5,-21.90559],[62,-21.66796],[62.5,-21.42648],[63,-21.18107],[63.5,-20.93169],[64,-20.67827],[64.5,-20.42075],[65,-20.15905],[65.5,-19.89312],[66,-19.62289],[66.5,-19.34828],[67,-19.06924],[67.5,-18.78569],[68,-18.49756],[68.5,-18.20478],[69,-17.90727],[69.5,-17.60498],[70,-17.29781],[70.5,-16.9857],[71,-16.66859],[71.5,-16.34638],[72,-16.01902],[72.5,-15.68643],[73,-15.34853],[73.5,-15.00527],[74,-14.65657],[74.5,-14.30237],[75,-13.9426],[75.5,-13.5772],[76,-13.20611],[76.5,-12.82928],[77,-12.44666],[77.5,-12.05821],[78,-11.66388],[78.5,-11.26365],[79,-10.8575],[79.5,-10.44539],[80,-10.02734],[80.5,-9.60333],[81,-9.1734],[81.5,-8.73755],[82,-8.29585],[82.5,-7.84834],[83,-7.39509],[83.5,-6.93621],[84,-6.47179],[84.5,-6.00196],[85,-5.52688],[85.5,-5.04673],[86,-4.56169],[86.5,-4.07199],[87,-3.57788],[87.5,-3.07963],[88,-2.57755],[88.5,-2.07194],[89,-1.56318],[89.5,-1.05163],[90,-0.53771],[90.5,-0.02183],[91,0.49556],[91.5,1.01399],[92,1.53296],[92.5,2.052],[93,2.57057],[93.5,3.08816],[94,3.60425],[94.5,4.11831],[95,4.62981],[95.5,5.13825],[96,5.64311],[96.5,6.1439],[97,6.64015],[97.5,7.13139],[98,7.61721],[98.5,8.09719],[99,8.57095],[99.5,9.03813],[100,9.49843],[100.5,9.95153],[101,10.39719],[101.5,10.83517],[102,11.26527],[102.5,11.68732],[103,12.10117],[103.5,12.5067],[104,12.90383],[104.5,13.29249],[105,13.67262],[105.5,14.04422],[106,14.40726],[106.5,14.76178],[107,15.10778],[107.5,15.44532],[108,15.77446],[108.5,16.09526],[109,16.4078],[109.5,16.71216],[110,17.00844],[110.5,17.29673],[111,17.57716],[111.5,17.84982],[112,18.11483],[112.5,18.3723],[113,18.62236],[113.5,18.86512],[114,19.10072],[114.5,19.32926],[115,19.55088],[115.5,19.76568],[116,19.97381],[116.5,20.17537],[117,20.37048],[117.5,20.55927],[118,20.74185],[118.5,20.91833],[119,21.08883],[119.5,21.25345],[120,21.41231],[120.5,21.56551],[121,21.71315],[121.5,21.85535],[122,21.99219],[122.5,22.12377],[123,22.2502],[123.5,22.37157],[124,22.48795],[124.5,22.59945],[125,22.70616],[125.5,22.80814],[126,22.9055],[126.5,22.9983],[127,23.08663],[127.5,23.17057],[128,23.25018],[128.5,23.32554],[129,23.39672],[129.5,23.46379],[130,23.52681],[130.5,23.58586],[131,23.641],[131.5,23.69228],[132,23.73977],[132.5,23.78354],[133,23.82362],[133.5,23.8601],[134,23.89301],[134.5,23.92241],[135,23.94835],[135.5,23.97089],[136,23.99008],[136.5,24.00596],[137,24.01858],[137.5,24.02799],[138,24.03424],[138.5,24.03736],[139,24.03741],[139.5,24.03442],[140,24.02844],[140.5,24.0195],[141,24.00765],[141.5,23.99293],[142,23.97538],[142.5,23.95503],[143,23.93192],[143.5,23.90608],[144,23.87756],[144.5,23.84638],[145,23.81258],[145.5,23.7762],[146,23.73727],[146.5,23.69581],[147,23.65187],[147.5,23.60547],[148,23.55665],[148.5,23.50543],[149,23.45185],[149.5,23.39593],[150,23.3377],[150.5,23.2772],[151,23.21444],[151.5,23.14946],[152,23.08229],[152.5,23.01295],[153,22.94147],[153.5,22.86788],[154,22.7922],[154.5,22.71445],[155,22.63467],[155.5,22.55288],[156,22.4691],[156.5,22.38335],[157,22.29567],[157.5,22.20608],[158,22.11459],[158.5,22.02124],[159,21.92604],[159.5,21.82902],[160,21.73021],[160.5,21.62962],[161,21.52728],[161.5,21.42321],[162,21.31743],[162.5,21.20996],[163,21.10083],[163.5,20.99006],[164,20.87766],[164.5,20.76367],[165,20.64809],[165.5,20.53096],[166,20.41229],[166.5,20.2921],[167,20.17041],[167.39334,20.07925]]}},{"type":"Feature","id":"+11480420:south:0","properties":{"id":"+11480420","year":1148,"month":4,"day":20,"time_tdt":"05:37:53","type":"개기일식","type_code":"Tm","saros":105,"gamma":-0.07654,"magnitude":1.05195,"greatest":{"lat":9.809,"lng":100.34161},"path_width_km":172.5,"duration":"04m35s","delta_t_seconds":894.9,"catalog_number":7484,"source":"NASA Five Millennium Canon of Solar Eclipses","source_url":"https://eclipse.gsfc.nasa.gov/SEsearch/SEsearchmap.php?Ecl=%2B11480420","boundary":"south","name":"1148-04-20 개기일식"},"geometry":{"type":"LineString","coordinates":[[42.5,-29.11292],[43,-28.99007],[43.5,-28.86497],[44,-28.73759],[44.5,-28.60792],[45,-28.47591],[45.5,-28.34154],[46,-28.20479],[46.5,-28.06562],[47,-27.92401],[47.5,-27.77992],[48,-27.63333],[48.5,-27.4842],[49,-27.3325],[49.5,-27.17819],[50,-27.02125],[50.5,-26.86163],[51,-26.69931],[51.5,-26.53424],[52,-26.3664],[52.5,-26.19573],[53,-26.02221],[53.5,-25.84579],[54,-25.66644],[54.5,-25.48411],[55,-25.29876],[55.5,-25.11035],[56,-24.91883],[56.5,-24.72415],[57,-24.52628],[57.5,-24.32517],[58,-24.12076],[58.5,-23.91301],[59,-23.70187],[59.5,-23.48729],[60,-23.26921],[60.5,-23.04758],[61,-22.82235],[61.5,-22.59347],[62,-22.36086],[62.5,-22.12449],[63,-21.88428],[63.5,-21.64018],[64,-21.39213],[64.5,-21.14006],[65,-20.88392],[65.5,-20.62363],[66,-20.35914],[66.5,-20.09037],[67,-19.81726],[67.5,-19.53974],[68,-19.25775],[68.5,-18.9712],[69,-18.68004],[69.5,-18.38419],[70,-18.08357],[70.5,-17.77813],[71,-17.46777],[71.5,-17.15244],[72,-16.83206],[72.5,-16.50656],[73,-16.17587],[73.5,-15.83992],[74,-15.49863],[74.5,-15.15194],[75,-14.79979],[75.5,-14.44212],[76,-14.07885],[76.5,-13.70993],[77,-13.33532],[77.5,-12.95495],[78,-12.56879],[78.5,-12.17679],[79,-11.77893],[79.5,-11.37518],[80,-10.96552],[80.5,-10.54994],[81,-10.12845],[81.5,-9.70105],[82,-9.26778],[82.5,-8.82868],[83,-8.38379],[83.5,-7.93318],[84,-7.47695],[84.5,-7.0152],[85,-6.54806],[85.5,-6.07566],[86,-5.59819],[86.5,-5.11582],[87,-4.62878],[87.5,-4.13731],[88,-3.64168],[88.5,-3.14216],[89,-2.6391],[89.5,-2.13283],[90,-1.62371],[90.5,-1.11215],[91,-0.59857],[91.5,-0.08341],[92,0.43288],[92.5,0.9498],[93,1.46687],[93.5,1.98359],[94,2.49942],[94.5,3.01385],[95,3.52637],[95.5,4.03643],[96,4.54354],[96.5,5.04717],[97,5.54685],[97.5,6.04208],[98,6.53241],[98.5,7.0174],[99,7.49665],[99.5,7.96976],[100,8.43637],[100.5,8.89617],[101,9.34884],[101.5,9.79412],[102,10.23178],[102.5,10.6616],[103,11.08341],[103.5,11.49705],[104,11.9024],[104.5,12.29937],[105,12.68788],[105.5,13.06789],[106,13.43935],[106.5,13.80227],[107,14.15666],[107.5,14.50253],[108,14.83993],[108.5,15.16892],[109,15.48955],[109.5,15.8019],[110,16.10606],[110.5,16.40213],[111,16.69019],[111.5,16.97036],[112,17.24274],[112.5,17.50745],[113,17.7646],[113.5,18.01432],[114,18.25672],[114.5,18.49193],[115,18.72006],[115.5,18.94125],[116,19.15561],[116.5,19.36327],[117,19.56434],[117.5,19.75895],[118,19.94721],[118.5,20.12925],[119,20.30517],[119.5,20.4751],[120,20.63914],[120.5,20.79739],[121,20.94998],[121.5,21.097],[122,21.23856],[122.5,21.37476],[123,21.50569],[123.5,21.63145],[124,21.75214],[124.5,21.86785],[125,21.97867],[125.5,22.08468],[126,22.18598],[126.5,22.28263],[127,22.37473],[127.5,22.46236],[128,22.54559],[128.5,22.62449],[129,22.69914],[129.5,22.76962],[130,22.83598],[130.5,22.89831],[131,22.95665],[131.5,23.01109],[132,23.06168],[132.5,23.10849],[133,23.15156],[133.5,23.19097],[134,23.22677],[134.5,23.25902],[135,23.28776],[135.5,23.31305],[136,23.33495],[136.5,23.3535],[137,23.36876],[137.5,23.38076],[138,23.38957],[138.5,23.39522],[139,23.39776],[139.5,23.39723],[140,23.39368],[140.5,23.38715],[141,23.37768],[141.5,23.36531],[142,23.35008],[142.5,23.33203],[143,23.31119],[143.5,23.28761],[144,23.26133],[144.5,23.23237],[145,23.20077],[145.5,23.16657],[146,23.1298],[146.5,23.09049],[147,23.04868],[147.5,23.0044],[148,22.95768],[148.5,22.90855],[149,22.85704],[149.5,22.80319],[150,22.74702],[150.5,22.68856],[151,22.62784],[151.5,22.56489],[152,22.49974],[152.5,22.43241],[153,22.36294],[153.5,22.29134],[154,22.21765],[154.5,22.14189],[155,22.06408],[155.5,21.98426],[156,21.90245],[156.5,21.81867],[157,21.73295],[157.5,21.64531],[158,21.55578],[158.5,21.46438],[159,21.37113],[159.5,21.27606],[160,21.17919],[160.5,21.08054],[161,20.98014],[161.5,20.87801],[162,20.77417],[162.5,20.66864],[163,20.56144],[163.5,20.4526],[164,20.34214],[164.5,20.23008],[165,20.11644],[165.5,20.00124],[166,19.88451],[166.5,19.76625],[167,19.6465],[167.25586,19.58465]]}},{"type":"Feature","id":"+11481014:north:0","properties":{"id":"+11481014","year":1148,"month":10,"day":14,"time_tdt":"13:38:06","type":"금환일식","type_code":"A","saros":110,"gamma":0.02308,"magnitude":0.92863,"greatest":{"lat":-9.69386,"lng":-23.89429},"path_width_km":267.9,"duration":"08m26s","delta_t_seconds":893.2,"catalog_number":7485,"source":"NASA Five Millennium Canon of Solar Eclipses","source_url":"https://eclipse.gsfc.nasa.gov/SEsearch/SEsearchmap.php?Ecl=%2B11481014","boundary":"north","name":"1148-10-14 금환일식"},"geometry":{"type":"LineString","coordinates":[[-78.5,29.17647],[-78,29.07596],[-77.5,28.97319],[-77,28.86813],[-76.5,28.76074],[-76,28.651],[-75.5,28.53888],[-75,28.42434],[-74.5,28.30734],[-74,28.18787],[-73.5,28.06587],[-73,27.94132],[-72.5,27.81418],[-72,27.68441],[-71.5,27.55198],[-71,27.41684],[-70.5,27.27895],[-70,27.13827],[-69.5,26.99476],[-69,26.84837],[-68.5,26.69906],[-68,26.54678],[-67.5,26.39149],[-67,26.23313],[-66.5,26.07165],[-66,25.907],[-65.5,25.73914],[-65,25.56799],[-64.5,25.39351],[-64,25.21564],[-63.5,25.03432],[-63,24.84948],[-62.5,24.66106],[-62,24.46899],[-61.5,24.27322],[-61,24.07366],[-60.5,23.87025],[-60,23.6629],[-59.5,23.45156],[-59,23.23612],[-58.5,23.01653],[-58,22.79268],[-57.5,22.5645],[-57,22.33189],[-56.5,22.09477],[-56,21.85304],[-55.5,21.6066],[-55,21.35535],[-54.5,21.09918],[-54,20.838],[-53.5,20.57169],[-53,20.30013],[-52.5,20.02321],[-52,19.74081],[-51.5,19.4528],[-51,19.15907],[-50.5,18.85946],[-50,18.55386],[-49.5,18.24212],[-49,17.9241],[-48.5,17.59965],[-48,17.26863],[-47.5,16.93088],[-47,16.58624],[-46.5,16.23455],[-46,15.87566],[-45.5,15.5094],[-45,15.13559],[-44.5,14.75408],[-44,14.36468],[-43.5,13.96724],[-43,13.56157],[-42.5,13.14751],[-42,12.7249],[-41.5,12.29356],[-41,11.85335],[-40.5,11.4041],[-40,10.94568],[-39.5,10.47795],[-39,10.00081],[-38.5,9.51413],[-38,9.01786],[-37.5,8.51192],[-37,7.99628],[-36.5,7.47096],[-36,6.93598],[-35.5,6.39142],[-35,5.83741],[-34.5,5.27413],[-34,4.7018],[-33.5,4.12072],[-33,3.53125],[-32.5,2.93383],[-32,2.32896],[-31.5,1.71723],[-31,1.09928],[-30.5,0.47587],[-30,-0.15219],[-29.5,-0.78402],[-29,-1.41867],[-28.5,-2.05513],[-28,-2.69235],[-27.5,-3.32925],[-27,-3.96472],[-26.5,-4.59765],[-26,-5.22692],[-25.5,-5.85147],[-25,-6.47024],[-24.5,-7.08224],[-24,-7.68655],[-23.5,-8.28231],[-23,-8.86873],[-22.5,-9.44511],[-22,-10.01084],[-21.5,-10.56541],[-21,-11.10836],[-20.5,-11.63934],[-20,-12.15808],[-19.5,-12.66438],[-19,-13.15809],[-18.5,-13.63914],[-18,-14.10752],[-17.5,-14.56325],[-17,-15.00642],[-16.5,-15.43714],[-16,-15.85555],[-15.5,-16.26182],[-15,-16.65614],[-14.5,-17.03873],[-14,-17.40981],[-13.5,-17.76961],[-13,-18.11839],[-12.5,-18.45639],[-12,-18.78385],[-11.5,-19.10104],[-11,-19.40821],[-10.5,-19.7056],[-10,-19.99348],[-9.5,-20.27207],[-9,-20.54163],[-8.5,-20.80238],[-8,-21.05457],[-7.5,-21.2984],[-7,-21.53411],[-6.5,-21.76191],[-6,-21.98199],[-5.5,-22.19457],[-5,-22.39983],[-4.5,-22.59796],[-4,-22.78915],[-3.5,-22.97357],[-3,-23.15139],[-2.5,-23.32277],[-2,-23.48788],[-1.5,-23.64686],[-1,-23.79986],[-0.5,-23.94703],[0,-24.08851],[0.5,-24.22441],[1,-24.35489],[1.5,-24.48005],[2,-24.60002],[2.5,-24.71491],[3,-24.82483],[3.5,-24.92989],[4,-25.0302],[4.5,-25.12586],[5,-25.21696],[5.5,-25.30359],[6,-25.38585],[6.5,-25.46382],[7,-25.5376],[7.5,-25.60725],[8,-25.67286],[8.5,-25.73451],[9,-25.79227],[9.5,-25.84621],[10,-25.89641],[10.5,-25.94293],[11,-25.98583],[11.5,-26.02518],[12,-26.06104],[12.5,-26.09347],[13,-26.12254],[13.5,-26.14828],[14,-26.17077],[14.5,-26.19005],[15,-26.20618],[15.5,-26.2192],[16,-26.22917],[16.5,-26.23613],[17,-26.24013],[17.5,-26.24121],[18,-26.23942],[18.5,-26.23481],[19,-26.2274],[19.5,-26.21726],[20,-26.2044],[20.5,-26.18888],[21,-26.17073],[21.5,-26.14999],[22,-26.1267],[22.5,-26.10089],[23,-26.07259],[23.5,-26.04184],[24,-26.00868],[24.5,-25.97313],[25,-25.93523],[25.5,-25.895],[26,-25.85249],[26.5,-25.80772],[27,-25.76072],[27.5,-25.71151],[28,-25.66014],[28.5,-25.60661],[29,-25.55098],[29.5,-25.49325],[30,-25.43346],[30.5,-25.37163],[31,-25.30779],[31.5,-25.24196],[32,-25.17417],[32.5,-25.10445],[33,-25.03281],[33.5,-24.95928],[34,-24.88389],[34.5,-24.80666],[35,-24.72761],[35.5,-24.64676],[36,-24.56414],[36.5,-24.47977],[37,-24.39367],[37.5,-24.30586],[38,-24.21636],[38.5,-24.12519],[39,-24.03238],[39.5,-23.93795],[40,-23.84191],[40.5,-23.74428],[40.65039,-23.71461]]}},{"type":"Feature","id":"+11481014:center:0","properties":{"id":"+11481014","year":1148,"month":10,"day":14,"time_tdt":"13:38:06","type":"금환일식","type_code":"A","saros":110,"gamma":0.02308,"magnitude":0.92863,"greatest":{"lat":-9.69386,"lng":-23.89429},"path_width_km":267.9,"duration":"08m26s","delta_t_seconds":893.2,"catalog_number":7485,"source":"NASA Five Millennium Canon of Solar Eclipses","source_url":"https://eclipse.gsfc.nasa.gov/SEsearch/SEsearchmap.php?Ecl=%2B11481014","boundary":"center","name":"1148-10-14 금환일식"},"geometry":{"type":"LineString","coordinates":[[-79.09622,27.7979],[-79,27.7564],[-78.5,27.65853],[-78,27.55838],[-77.5,27.45592],[-77,27.35113],[-76.5,27.24397],[-76,27.1344],[-75.5,27.02241],[-75,26.90794],[-74.5,26.79098],[-74,26.67148],[-73.5,26.54941],[-73,26.42473],[-72.5,26.2974],[-72,26.16739],[-71.5,26.03465],[-71,25.89914],[-70.5,25.76082],[-70,25.61965],[-69.5,25.47558],[-69,25.32856],[-68.5,25.17856],[-68,25.02551],[-67.5,24.86937],[-67,24.71008],[-66.5,24.54761],[-66,24.38188],[-65.5,24.21284],[-65,24.04045],[-64.5,23.86462],[-64,23.68532],[-63.5,23.50246],[-63,23.31599],[-62.5,23.12584],[-62,22.93195],[-61.5,22.73423],[-61,22.53262],[-60.5,22.32704],[-60,22.11741],[-59.5,21.90366],[-59,21.68569],[-58.5,21.46343],[-58,21.23679],[-57.5,21.00567],[-57,20.76999],[-56.5,20.52964],[-56,20.28453],[-55.5,20.03455],[-55,19.7796],[-54.5,19.51957],[-54,19.25435],[-53.5,18.98381],[-53,18.70785],[-52.5,18.42634],[-52,18.13915],[-51.5,17.84615],[-51,17.54721],[-50.5,17.2422],[-50,16.93096],[-49.5,16.61336],[-49,16.28924],[-48.5,15.95846],[-48,15.62086],[-47.5,15.27627],[-47,14.92455],[-46.5,14.56552],[-46,14.19902],[-45.5,13.82488],[-45,13.44292],[-44.5,13.05298],[-44,12.65489],[-43.5,12.24846],[-43,11.83355],[-42.5,11.40997],[-42,10.97757],[-41.5,10.5362],[-41,10.08569],[-40.5,9.62593],[-40,9.15678],[-39.5,8.67813],[-39,8.1899],[-38.5,7.692],[-38,7.18441],[-37.5,6.6671],[-37,6.1401],[-36.5,5.60345],[-36,5.05728],[-35.5,4.50171],[-35,3.93697],[-34.5,3.36332],[-34,2.78108],[-33.5,2.19065],[-33,1.5925],[-32.5,0.98717],[-32,0.37528],[-31.5,-0.24247],[-31,-0.8653],[-30.5,-1.49238],[-30,-2.12279],[-29.5,-2.75556],[-29,-3.38968],[-28.5,-4.02408],[-28,-4.65768],[-27.5,-5.28939],[-27,-5.91811],[-26.5,-6.54276],[-26,-7.1623],[-25.5,-7.77573],[-25,-8.3821],[-24.5,-8.98052],[-24,-9.5702],[-23.5,-10.1504],[-23,-10.72049],[-22.5,-11.2799],[-22,-11.82816],[-21.5,-12.36487],[-21,-12.88973],[-20.5,-13.4025],[-20,-13.903],[-19.5,-14.39114],[-19,-14.86686],[-18.5,-15.33016],[-18,-15.7811],[-17.5,-16.21976],[-17,-16.64627],[-16.5,-17.06078],[-16,-17.46345],[-15.5,-17.85449],[-15,-18.23411],[-14.5,-18.60252],[-14,-18.95997],[-13.5,-19.30668],[-13,-19.6429],[-12.5,-19.96887],[-12,-20.28485],[-11.5,-20.59107],[-11,-20.88777],[-10.5,-21.17521],[-10,-21.45361],[-9.5,-21.72321],[-9,-21.98423],[-8.5,-22.2369],[-8,-22.48143],[-7.5,-22.71803],[-7,-22.94691],[-6.5,-23.16827],[-6,-23.38229],[-5.5,-23.58917],[-5,-23.78909],[-4.5,-23.98222],[-4,-24.16873],[-3.5,-24.34879],[-3,-24.52255],[-2.5,-24.69016],[-2,-24.85178],[-1.5,-25.00754],[-1,-25.15758],[-0.5,-25.30204],[0,-25.44105],[0.5,-25.57472],[1,-25.70318],[1.5,-25.82654],[2,-25.94491],[2.5,-26.05841],[3,-26.16713],[3.5,-26.27118],[4,-26.37065],[4.5,-26.46564],[5,-26.55624],[5.5,-26.64253],[6,-26.7246],[6.5,-26.80253],[7,-26.87641],[7.5,-26.9463],[8,-27.01228],[8.5,-27.07443],[9,-27.13282],[9.5,-27.1875],[10,-27.23855],[10.5,-27.28604],[11,-27.33001],[11.5,-27.37054],[12,-27.40768],[12.5,-27.44149],[13,-27.47202],[13.5,-27.49932],[14,-27.52345],[14.5,-27.54446],[15,-27.56239],[15.5,-27.57729],[16,-27.58922],[16.5,-27.59821],[17,-27.60431],[17.5,-27.60756],[18,-27.608],[18.5,-27.60568],[19,-27.60063],[19.5,-27.59289],[20,-27.5825],[20.5,-27.5695],[21,-27.55392],[21.5,-27.53581],[22,-27.51518],[22.5,-27.49208],[23,-27.46654],[23.5,-27.43859],[24,-27.40827],[24.5,-27.37559],[25,-27.34061],[25.5,-27.30334],[26,-27.26381],[26.5,-27.22205],[27,-27.1781],[27.5,-27.13197],[28,-27.0837],[28.5,-27.03331],[29,-26.98082],[29.5,-26.92627],[30,-26.86968],[30.5,-26.81108],[31,-26.75048],[31.5,-26.68792],[32,-26.62341],[32.5,-26.55698],[33,-26.48865],[33.5,-26.41845],[34,-26.3464],[34.5,-26.27251],[35,-26.19682],[35.5,-26.11934],[36,-26.0401],[36.5,-25.95911],[37,-25.8764],[37.5,-25.79199],[38,-25.7059],[38.5,-25.61814],[39,-25.52874],[39.5,-25.43771],[40,-25.34509],[40.5,-25.25088],[41,-25.1551],[41.02029,-25.16448]]}},{"type":"Feature","id":"+11481014:south:0","properties":{"id":"+11481014","year":1148,"month":10,"day":14,"time_tdt":"13:38:06","type":"금환일식","type_code":"A","saros":110,"gamma":0.02308,"magnitude":0.92863,"greatest":{"lat":-9.69386,"lng":-23.89429},"path_width_km":267.9,"duration":"08m26s","delta_t_seconds":893.2,"catalog_number":7485,"source":"NASA Five Millennium Canon of Solar Eclipses","source_url":"https://eclipse.gsfc.nasa.gov/SEsearch/SEsearchmap.php?Ecl=%2B11481014","boundary":"south","name":"1148-10-14 금환일식"},"geometry":{"type":"LineString","coordinates":[[-79.5293,26.33875],[-79.5,26.33324],[-79,26.23803],[-78.5,26.14052],[-78,26.0407],[-77.5,25.93852],[-77,25.83396],[-76.5,25.72698],[-76,25.61756],[-75.5,25.50565],[-75,25.39123],[-74.5,25.27425],[-74,25.15469],[-73.5,25.03249],[-73,24.90763],[-72.5,24.78007],[-72,24.64975],[-71.5,24.51665],[-71,24.38072],[-70.5,24.24191],[-70,24.10018],[-69.5,23.95548],[-69,23.80777],[-68.5,23.65698],[-68,23.50309],[-67.5,23.34602],[-67,23.18573],[-66.5,23.02216],[-66,22.85525],[-65.5,22.68495],[-65,22.5112],[-64.5,22.33393],[-64,22.15307],[-63.5,21.96857],[-63,21.78035],[-62.5,21.58835],[-62,21.39248],[-61.5,21.19269],[-61,20.98888],[-60.5,20.78098],[-60,20.56892],[-59.5,20.35259],[-59,20.13192],[-58.5,19.90682],[-58,19.6772],[-57.5,19.44296],[-57,19.20399],[-56.5,18.96021],[-56,18.7115],[-55.5,18.45776],[-55,18.19888],[-54.5,17.93473],[-54,17.66522],[-53.5,17.3902],[-53,17.10956],[-52.5,16.82317],[-52,16.5309],[-51.5,16.2326],[-51,15.92815],[-50.5,15.61739],[-50,15.30018],[-49.5,14.97637],[-49,14.64581],[-48.5,14.30832],[-48,13.96377],[-47.5,13.61197],[-47,13.25277],[-46.5,12.88599],[-46,12.51147],[-45.5,12.12903],[-45,11.73851],[-44.5,11.33972],[-44,10.93251],[-43.5,10.51669],[-43,10.09211],[-42.5,9.65861],[-42,9.21604],[-41.5,8.76425],[-41,8.30311],[-40.5,7.83251],[-40,7.35235],[-39.5,6.86254],[-39,6.36303],[-38.5,5.85379],[-38,5.33482],[-37.5,4.80617],[-37,4.26791],[-36.5,3.72018],[-36,3.16315],[-35.5,2.59705],[-35,2.02219],[-34.5,1.43893],[-34,0.8477],[-33.5,0.249],[-33,-0.35658],[-32.5,-0.96838],[-32,-1.58568],[-31.5,-2.20767],[-31,-2.83348],[-30.5,-3.46217],[-30,-4.09277],[-29.5,-4.72423],[-29,-5.35551],[-28.5,-5.98551],[-28,-6.61318],[-27.5,-7.23742],[-27,-7.8572],[-26.5,-8.47151],[-26,-9.07939],[-25.5,-9.67994],[-25,-10.27233],[-24.5,-10.85582],[-24,-11.42972],[-23.5,-11.99345],[-23,-12.5465],[-22.5,-13.08844],[-22,-13.61892],[-21.5,-14.13767],[-21,-14.6445],[-20.5,-15.13925],[-20,-15.62186],[-19.5,-16.09229],[-19,-16.55058],[-18.5,-16.99678],[-18,-17.43099],[-17.5,-17.85334],[-17,-18.26399],[-16.5,-18.66312],[-16,-19.05091],[-15.5,-19.42758],[-15,-19.79335],[-14.5,-20.14844],[-14,-20.49309],[-13.5,-20.82753],[-13,-21.152],[-12.5,-21.46673],[-12,-21.77198],[-11.5,-22.06796],[-11,-22.35492],[-10.5,-22.63307],[-10,-22.90266],[-9.5,-23.16388],[-9,-23.41696],[-8.5,-23.66211],[-8,-23.89952],[-7.5,-24.1294],[-7,-24.35194],[-6.5,-24.56732],[-6,-24.77572],[-5.5,-24.97732],[-5,-25.17228],[-4.5,-25.36077],[-4,-25.54295],[-3.5,-25.71897],[-3,-25.88897],[-2.5,-26.05311],[-2,-26.2115],[-1.5,-26.3643],[-1,-26.51162],[-0.5,-26.6536],[0,-26.79034],[0.5,-26.92197],[1,-27.0486],[1.5,-27.17033],[2,-27.28728],[2.5,-27.39953],[3,-27.50719],[3.5,-27.61035],[4,-27.7091],[4.5,-27.80353],[5,-27.89372],[5.5,-27.97976],[6,-28.06173],[6.5,-28.1397],[7,-28.21375],[7.5,-28.28395],[8,-28.35036],[8.5,-28.41307],[9,-28.47212],[9.5,-28.5276],[10,-28.57955],[10.5,-28.62804],[11,-28.67312],[11.5,-28.71486],[12,-28.7533],[12.5,-28.7885],[13,-28.82051],[13.5,-28.84939],[14,-28.87517],[14.5,-28.89792],[15,-28.91766],[15.5,-28.93446],[16,-28.94835],[16.5,-28.95937],[17,-28.96757],[17.5,-28.97298],[18,-28.97566],[18.5,-28.97562],[19,-28.97292],[19.5,-28.96759],[20,-28.95967],[20.5,-28.94918],[21,-28.93617],[21.5,-28.92066],[22,-28.9027],[22.5,-28.8823],[23,-28.85951],[23.5,-28.83436],[24,-28.80686],[24.5,-28.77706],[25,-28.74498],[25.5,-28.71065],[26,-28.6741],[26.5,-28.63536],[27,-28.59444],[27.5,-28.55138],[28,-28.50621],[28.5,-28.45895],[29,-28.40961],[29.5,-28.35824],[30,-28.30485],[30.5,-28.24946],[31,-28.1921],[31.5,-28.1328],[32,-28.07157],[32.5,-28.00843],[33,-27.94342],[33.5,-27.87654],[34,-27.80783],[34.5,-27.7373],[35,-27.66497],[35.5,-27.59086],[36,-27.51501],[36.5,-27.43741],[37,-27.3581],[37.5,-27.27709],[38,-27.19441],[38.5,-27.11007],[39,-27.02409],[39.5,-26.93649],[40,-26.84729],[40.5,-26.7565],[41,-26.66416]]}}],"attribution":"Eclipse Predictions by Fred Espenak and Jean Meeus (NASA's GSFC)","generated_at":"2026-09-23T03:35:43.390Z"}
