{"type":"FeatureCollection","year":1158,"events":[{"id":"+11580331","year":1158,"month":3,"day":31,"time_tdt":"22:07:25","type":"개기일식","type_code":"T","saros":96,"gamma":0.6623,"magnitude":1.06205,"greatest":{"lat":46.15961,"lng":-163.94714},"path_width_km":270.5,"duration":"04m33s","delta_t_seconds":860.5,"catalog_number":7510,"source":"NASA Five Millennium Canon of Solar Eclipses","source_url":"https://eclipse.gsfc.nasa.gov/SEsearch/SEsearchmap.php?Ecl=%2B11580331"},{"id":"+11580924","year":1158,"month":9,"day":24,"time_tdt":"08:36:09","type":"금환일식","type_code":"A","saros":101,"gamma":-0.82225,"magnitude":0.94151,"greatest":{"lat":-54.59613,"lng":26.50452},"path_width_km":377.6,"duration":"05m15s","delta_t_seconds":858.9,"catalog_number":7511,"source":"NASA Five Millennium Canon of Solar Eclipses","source_url":"https://eclipse.gsfc.nasa.gov/SEsearch/SEsearchmap.php?Ecl=%2B11580924"}],"features":[{"type":"Feature","id":"+11580331:north:0","properties":{"id":"+11580331","year":1158,"month":3,"day":31,"time_tdt":"22:07:25","type":"개기일식","type_code":"T","saros":96,"gamma":0.6623,"magnitude":1.06205,"greatest":{"lat":46.15961,"lng":-163.94714},"path_width_km":270.5,"duration":"04m33s","delta_t_seconds":860.5,"catalog_number":7510,"source":"NASA Five Millennium Canon of Solar Eclipses","source_url":"https://eclipse.gsfc.nasa.gov/SEsearch/SEsearchmap.php?Ecl=%2B11580331","boundary":"north","name":"1158-03-31 개기일식"},"geometry":{"type":"LineString","coordinates":[[137.96289,25.44197],[138,25.44666],[138.5,25.51085],[139,25.57697],[139.5,25.64505],[140,25.7151],[140.5,25.78714],[141,25.86119],[141.5,25.93729],[142,26.01544],[142.5,26.09568],[143,26.17802],[143.5,26.26248],[144,26.3491],[144.5,26.43788],[145,26.52886],[145.5,26.62206],[146,26.7175],[146.5,26.81521],[147,26.9152],[147.5,27.01751],[148,27.12216],[148.5,27.22916],[149,27.33855],[149.5,27.45034],[150,27.56457],[150.5,27.68125],[151,27.80041],[151.5,27.92207],[152,28.04626],[152.5,28.17299],[153,28.3023],[153.5,28.4342],[154,28.56871],[154.5,28.70586],[155,28.84567],[155.5,28.98817],[156,29.13336],[156.5,29.28127],[157,29.43191],[157.5,29.58532],[158,29.7415],[158.5,29.90047],[159,30.06224],[159.5,30.22683],[160,30.39426],[160.5,30.56452],[161,30.73764],[161.5,30.91363],[162,31.09248],[162.5,31.27421],[163,31.45882],[163.5,31.6463],[164,31.83667],[164.5,32.02991],[165,32.22602],[165.5,32.42499],[166,32.62682],[166.5,32.83148],[167,33.03897],[167.5,33.24926],[168,33.46233],[168.5,33.67816],[169,33.89672],[169.5,34.11797],[170,34.34189],[170.5,34.56842],[171,34.79752],[171.5,35.02916],[172,35.26328],[172.5,35.49981],[173,35.73871],[173.5,35.97991],[174,36.22335],[174.5,36.46894],[175,36.71662],[175.5,36.96631],[176,37.21792],[176.5,37.47136],[177,37.72655],[177.5,37.98339],[178,38.24178],[178.5,38.50162],[179,38.76281],[179.5,39.02523],[180,39.28878]]}},{"type":"Feature","id":"+11580331:north:1","properties":{"id":"+11580331","year":1158,"month":3,"day":31,"time_tdt":"22:07:25","type":"개기일식","type_code":"T","saros":96,"gamma":0.6623,"magnitude":1.06205,"greatest":{"lat":46.15961,"lng":-163.94714},"path_width_km":270.5,"duration":"04m33s","delta_t_seconds":860.5,"catalog_number":7510,"source":"NASA Five Millennium Canon of Solar Eclipses","source_url":"https://eclipse.gsfc.nasa.gov/SEsearch/SEsearchmap.php?Ecl=%2B11580331","boundary":"north","name":"1158-03-31 개기일식"},"geometry":{"type":"LineString","coordinates":[[-179.5,39.55335],[-179,39.81882],[-178.5,40.08508],[-178,40.352],[-177.5,40.61947],[-177,40.88737],[-176.5,41.15557],[-176,41.42396],[-175.5,41.69241],[-175,41.96081],[-174.5,42.22904],[-174,42.49696],[-173.5,42.76448],[-173,43.03147],[-172.5,43.29781],[-172,43.5634],[-171.5,43.82813],[-171,44.09189],[-170.5,44.35457],[-170,44.61608],[-169.5,44.87631],[-169,45.13517],[-168.5,45.39258],[-168,45.64844],[-167.5,45.90267],[-167,46.1552],[-166.5,46.40594],[-166,46.65483],[-165.5,46.90179],[-165,47.14677],[-164.5,47.3897],[-164,47.63053],[-163.5,47.8692],[-163,48.10567],[-162.5,48.33989],[-162,48.57183],[-161.5,48.80143],[-161,49.02868],[-160.5,49.25354],[-160,49.47598],[-159.5,49.69597],[-159,49.9135],[-158.5,50.12855],[-158,50.3411],[-157.5,50.55114],[-157,50.75866],[-156.5,50.96364],[-156,51.16609],[-155.5,51.366],[-155,51.56337],[-154.5,51.75819],[-154,51.95048],[-153.5,52.14022],[-153,52.32744],[-152.5,52.51213],[-152,52.6943],[-151.5,52.87397],[-151,53.05113],[-150.5,53.22581],[-150,53.39802],[-149.5,53.56777],[-149,53.73507],[-148.5,53.89994],[-148,54.06239],[-147.5,54.22244],[-147,54.38012],[-146.5,54.53542],[-146,54.68838],[-145.5,54.83902],[-145,54.98734],[-144.5,55.13337],[-144,55.27713],[-143.5,55.41864],[-143,55.55792],[-142.5,55.69498],[-142,55.82985],[-141.5,55.96255],[-141,56.09309],[-140.5,56.22151],[-140,56.34781],[-139.5,56.47202],[-139,56.59416],[-138.5,56.71424],[-138,56.83229],[-137.5,56.94833],[-137,57.06238],[-136.5,57.17446],[-136,57.28458],[-135.5,57.39276],[-135,57.49903],[-134.5,57.60341],[-134,57.7059],[-133.5,57.80654],[-133,57.90533],[-132.5,58.00231],[-132,58.09747],[-131.5,58.19085],[-131,58.28247],[-130.5,58.37232],[-130,58.46044],[-129.5,58.54685],[-129,58.63155],[-128.5,58.71456],[-128,58.79591],[-127.5,58.8756],[-127,58.95365],[-126.5,59.03008],[-126,59.1049],[-125.5,59.17813],[-125,59.24977],[-124.5,59.31986],[-124,59.38839],[-123.5,59.45539],[-123,59.52086],[-122.5,59.58483],[-122,59.6473],[-121.5,59.70828],[-121,59.7678],[-120.5,59.82585],[-120,59.88246],[-119.5,59.93764],[-119,59.99139],[-118.5,60.04374],[-118,60.09468],[-117.5,60.14424],[-117,60.19242],[-116.5,60.23923],[-116,60.28469],[-115.5,60.3288],[-115,60.37157],[-114.5,60.41303],[-114,60.45316],[-113.5,60.49199],[-113,60.52952],[-112.5,60.56576],[-112,60.60072],[-111.5,60.63442],[-111,60.66685],[-110.5,60.69803],[-110,60.72796],[-109.5,60.75665],[-109,60.78412],[-108.5,60.81036],[-108,60.83539],[-107.5,60.85922],[-107,60.88184],[-106.5,60.90327],[-106,60.92351],[-105.5,60.94258],[-105,60.96047],[-104.5,60.9772],[-104,60.99277],[-103.5,61.00718],[-103,61.02045],[-102.5,61.03258],[-102,61.04357],[-101.5,61.05343],[-101,61.06216],[-100.5,61.06978],[-100,61.07628],[-99.5,61.08167],[-99,61.08596],[-98.5,61.08915],[-98,61.09124],[-97.5,61.09225],[-97,61.09217],[-96.5,61.09101],[-96,61.08877],[-95.5,61.08547],[-95,61.08109],[-94.5,61.07565],[-94,61.06915],[-93.5,61.0616],[-93,61.05299],[-92.5,61.04334],[-92,61.03264],[-91.5,61.0209],[-91,61.00812],[-90.5,60.99431],[-90,60.97947],[-89.5,60.9636],[-89,60.94671],[-88.5,60.92879],[-88,60.90986],[-87.5,60.88991],[-87,60.86895],[-86.5,60.84698],[-86,60.82401],[-85.5,60.80003],[-85,60.77505],[-84.5,60.74907],[-84,60.7221],[-83.5,60.69414],[-83,60.66518],[-82.5,60.63524],[-82,60.60432],[-81.5,60.57241],[-81,60.53952],[-80.5,60.50565],[-80,60.47081],[-79.5,60.435],[-79,60.39822],[-78.5,60.36047],[-78,60.32175],[-77.5,60.28208],[-77,60.24144],[-76.5,60.19984],[-76,60.15729],[-75.5,60.11378],[-75,60.06932],[-74.5,60.02391],[-74,59.97756],[-73.5,59.93026],[-73,59.88202],[-72.5,59.83285],[-72,59.78273],[-71.5,59.73168],[-71,59.6797],[-70.5,59.62679],[-70,59.57295],[-69.5,59.51818],[-69,59.46249],[-68.5,59.40589],[-68,59.34837],[-67.5,59.28993],[-67,59.23058],[-66.5,59.17032],[-66,59.10915],[-65.5,59.04709],[-65.17188,59.00586]]}},{"type":"Feature","id":"+11580331:center:0","properties":{"id":"+11580331","year":1158,"month":3,"day":31,"time_tdt":"22:07:25","type":"개기일식","type_code":"T","saros":96,"gamma":0.6623,"magnitude":1.06205,"greatest":{"lat":46.15961,"lng":-163.94714},"path_width_km":270.5,"duration":"04m33s","delta_t_seconds":860.5,"catalog_number":7510,"source":"NASA Five Millennium Canon of Solar Eclipses","source_url":"https://eclipse.gsfc.nasa.gov/SEsearch/SEsearchmap.php?Ecl=%2B11580331","boundary":"center","name":"1158-03-31 개기일식"},"geometry":{"type":"LineString","coordinates":[[138.40674,24.48146],[138.5,24.49416],[139,24.55552],[139.5,24.61877],[140,24.68394],[140.5,24.75105],[141,24.82011],[141.5,24.89116],[142,24.9642],[142.5,25.03927],[143,25.11638],[143.5,25.19555],[144,25.27682],[144.5,25.36019],[145,25.4457],[145.5,25.53337],[146,25.62321],[146.5,25.71526],[147,25.80953],[147.5,25.90606],[148,26.00485],[148.5,26.10595],[149,26.20936],[149.5,26.31512],[150,26.42325],[150.5,26.53377],[151,26.64671],[151.5,26.76209],[152,26.87993],[152.5,27.00026],[153,27.1231],[153.5,27.24847],[154,27.3764],[154.5,27.50691],[155,27.64003],[155.5,27.77576],[156,27.91414],[156.5,28.05519],[157,28.19893],[157.5,28.34537],[158,28.49455],[158.5,28.64646],[159,28.80114],[159.5,28.9586],[160,29.11885],[160.5,29.28192],[161,29.4478],[161.5,29.61653],[162,29.7881],[162.5,29.96252],[163,30.13981],[163.5,30.31997],[164,30.503],[164.5,30.68891],[165,30.8777],[165.5,31.06936],[166,31.26389],[166.5,31.46129],[167,31.66154],[167.5,31.86463],[168,32.07055],[168.5,32.27928],[169,32.4908],[169.5,32.70508],[170,32.92211],[170.5,33.14183],[171,33.36423],[171.5,33.58927],[172,33.8169],[172.5,34.04707],[173,34.27974],[173.5,34.51485],[174,34.75235],[174.5,34.99218],[175,35.23426],[175.5,35.47853],[176,35.72491],[176.5,35.97333],[177,36.2237],[177.5,36.47595],[178,36.72997],[178.5,36.98567],[179,37.24297],[179.5,37.50175],[180,37.76191]]}},{"type":"Feature","id":"+11580331:center:1","properties":{"id":"+11580331","year":1158,"month":3,"day":31,"time_tdt":"22:07:25","type":"개기일식","type_code":"T","saros":96,"gamma":0.6623,"magnitude":1.06205,"greatest":{"lat":46.15961,"lng":-163.94714},"path_width_km":270.5,"duration":"04m33s","delta_t_seconds":860.5,"catalog_number":7510,"source":"NASA Five Millennium Canon of Solar Eclipses","source_url":"https://eclipse.gsfc.nasa.gov/SEsearch/SEsearchmap.php?Ecl=%2B11580331","boundary":"center","name":"1158-03-31 개기일식"},"geometry":{"type":"LineString","coordinates":[[-179.5,38.02336],[-179,38.28597],[-178.5,38.54964],[-178,38.81425],[-177.5,39.07969],[-177,39.34584],[-176.5,39.61258],[-176,39.87979],[-175.5,40.14735],[-175,40.41514],[-174.5,40.68303],[-174,40.95091],[-173.5,41.21866],[-173,41.48615],[-172.5,41.75327],[-172,42.01991],[-171.5,42.28593],[-171,42.55124],[-170.5,42.81573],[-170,43.07928],[-169.5,43.34178],[-169,43.60314],[-168.5,43.86327],[-168,44.12205],[-167.5,44.3794],[-167,44.63524],[-166.5,44.88947],[-166,45.14201],[-165.5,45.3928],[-165,45.64175],[-164.5,45.8888],[-164,46.13387],[-163.5,46.37692],[-163,46.61788],[-162.5,46.8567],[-162,47.09333],[-161.5,47.32772],[-161,47.55983],[-160.5,47.78962],[-160,48.01706],[-159.5,48.24212],[-159,48.46476],[-158.5,48.68496],[-158,48.9027],[-157.5,49.11795],[-157,49.33071],[-156.5,49.54096],[-156,49.74868],[-155.5,49.95387],[-155,50.15652],[-154.5,50.35662],[-154,50.55418],[-153.5,50.74919],[-153,50.94165],[-152.5,51.13157],[-152,51.31895],[-151.5,51.50379],[-151,51.68612],[-150.5,51.86592],[-150,52.04322],[-149.5,52.21802],[-149,52.39033],[-148.5,52.56018],[-148,52.72757],[-147.5,52.89251],[-147,53.05503],[-146.5,53.21514],[-146,53.37286],[-145.5,53.52819],[-145,53.68117],[-144.5,53.83181],[-144,53.98012],[-143.5,54.12613],[-143,54.26986],[-142.5,54.41132],[-142,54.55053],[-141.5,54.68752],[-141,54.8223],[-140.5,54.9549],[-140,55.08532],[-139.5,55.21361],[-139,55.33976],[-138.5,55.46381],[-138,55.58577],[-137.5,55.70567],[-137,55.82352],[-136.5,55.93934],[-136,56.05316],[-135.5,56.16498],[-135,56.27484],[-134.5,56.38275],[-134,56.48873],[-133.5,56.59279],[-133,56.69497],[-132.5,56.79527],[-132,56.89371],[-131.5,56.99031],[-131,57.0851],[-130.5,57.17808],[-130,57.26928],[-129.5,57.35871],[-129,57.44639],[-128.5,57.53234],[-128,57.61657],[-127.5,57.69909],[-127,57.77994],[-126.5,57.85911],[-126,57.93663],[-125.5,58.01251],[-125,58.08677],[-124.5,58.15942],[-124,58.23047],[-123.5,58.29995],[-123,58.36786],[-122.5,58.43422],[-122,58.49904],[-121.5,58.56234],[-121,58.62413],[-120.5,58.68442],[-120,58.74322],[-119.5,58.80056],[-119,58.85643],[-118.5,58.91085],[-118,58.96384],[-117.5,59.0154],[-117,59.06555],[-116.5,59.11429],[-116,59.16164],[-115.5,59.20762],[-115,59.25222],[-114.5,59.29546],[-114,59.33736],[-113.5,59.37791],[-113,59.41714],[-112.5,59.45504],[-112,59.49164],[-111.5,59.52693],[-111,59.56093],[-110.5,59.59365],[-110,59.62509],[-109.5,59.65526],[-109,59.68418],[-108.5,59.71184],[-108,59.73827],[-107.5,59.76346],[-107,59.78742],[-106.5,59.81016],[-106,59.83169],[-105.5,59.85202],[-105,59.87115],[-104.5,59.88908],[-104,59.90584],[-103.5,59.92141],[-103,59.93582],[-102.5,59.94906],[-102,59.96114],[-101.5,59.97207],[-101,59.98185],[-100.5,59.99049],[-100,59.998],[-99.5,60.00438],[-99,60.00963],[-98.5,60.01376],[-98,60.01678],[-97.5,60.01869],[-97,60.0195],[-96.5,60.01921],[-96,60.01782],[-95.5,60.01535],[-95,60.01179],[-94.5,60.00715],[-94,60.00144],[-93.5,59.99465],[-93,59.9868],[-92.5,59.97788],[-92,59.96791],[-91.5,59.95688],[-91,59.94479],[-90.5,59.93167],[-90,59.91749],[-89.5,59.90228],[-89,59.88603],[-88.5,59.86875],[-88,59.85044],[-87.5,59.83111],[-87,59.81075],[-86.5,59.78938],[-86,59.76698],[-85.5,59.74358],[-85,59.71917],[-84.5,59.69375],[-84,59.66733],[-83.5,59.6399],[-83,59.61148],[-82.5,59.58207],[-82,59.55167],[-81.5,59.52028],[-81,59.4879],[-80.5,59.45454],[-80,59.4202],[-79.5,59.38489],[-79,59.3486],[-78.5,59.31134],[-78,59.27312],[-77.5,59.23393],[-77,59.19377],[-76.5,59.15266],[-76,59.11059],[-75.5,59.06756],[-75,59.02359],[-74.5,58.97866],[-74,58.93279],[-71.5,58.68934],[-73.5,58.88597],[-73,58.83822],[-72.5,58.78953],[-72,58.7399],[-71,58.63785],[-70.5,58.58544],[-70,58.5321],[-69.5,58.47784],[-69,58.42267],[-68.5,58.36657],[-68,58.30957],[-67.5,58.25166],[-67,58.19284],[-66.5,58.13312],[-66,58.07251],[-65.90945,58.08109]]}},{"type":"Feature","id":"+11580331:south:0","properties":{"id":"+11580331","year":1158,"month":3,"day":31,"time_tdt":"22:07:25","type":"개기일식","type_code":"T","saros":96,"gamma":0.6623,"magnitude":1.06205,"greatest":{"lat":46.15961,"lng":-163.94714},"path_width_km":270.5,"duration":"04m33s","delta_t_seconds":860.5,"catalog_number":7510,"source":"NASA Five Millennium Canon of Solar Eclipses","source_url":"https://eclipse.gsfc.nasa.gov/SEsearch/SEsearchmap.php?Ecl=%2B11580331","boundary":"south","name":"1158-03-31 개기일식"},"geometry":{"type":"LineString","coordinates":[[139,23.55654],[139.5,23.61518],[140,23.67568],[140.5,23.73806],[141,23.80235],[141.5,23.86856],[142,23.93671],[142.5,24.00683],[143,24.07893],[143.5,24.15305],[144,24.22919],[144.5,24.30739],[145,24.38766],[145.5,24.47003],[146,24.55452],[146.5,24.64116],[147,24.72996],[147.5,24.82095],[148,24.91415],[148.5,25.00959],[149,25.10729],[149.5,25.20728],[150,25.30957],[150.5,25.4142],[151,25.52118],[151.5,25.63054],[152,25.7423],[152.5,25.8565],[153,25.97314],[153.5,26.09226],[154,26.21388],[154.5,26.33802],[155,26.4647],[155.5,26.59396],[156,26.72581],[156.5,26.86027],[157,26.99736],[157.5,27.13711],[158,27.27954],[158.5,27.42467],[159,27.57251],[159.5,27.7231],[160,27.87643],[160.5,28.03254],[161,28.19144],[161.5,28.35314],[162,28.51765],[162.5,28.685],[163,28.85519],[163.5,29.02823],[164,29.20413],[164.5,29.3829],[165,29.56454],[165.5,29.74906],[166,29.93645],[166.5,30.12672],[167,30.31986],[167.5,30.51587],[168,30.71473],[168.5,30.91644],[169,31.12099],[169.5,31.32835],[170,31.53851],[170.5,31.75144],[171,31.96712],[171.5,32.18552],[172,32.40661],[172.5,32.63034],[173,32.85669],[173.5,33.08559],[174,33.31701],[174.5,33.5509],[175,33.78719],[175.5,34.02583],[176,34.26675],[176.5,34.50988],[177,34.75515],[177.5,35.00249],[178,35.2518],[178.5,35.50302],[179,35.75605],[179.5,36.01079],[180,36.26715]]}},{"type":"Feature","id":"+11580331:south:1","properties":{"id":"+11580331","year":1158,"month":3,"day":31,"time_tdt":"22:07:25","type":"개기일식","type_code":"T","saros":96,"gamma":0.6623,"magnitude":1.06205,"greatest":{"lat":46.15961,"lng":-163.94714},"path_width_km":270.5,"duration":"04m33s","delta_t_seconds":860.5,"catalog_number":7510,"source":"NASA Five Millennium Canon of Solar Eclipses","source_url":"https://eclipse.gsfc.nasa.gov/SEsearch/SEsearchmap.php?Ecl=%2B11580331","boundary":"south","name":"1158-03-31 개기일식"},"geometry":{"type":"LineString","coordinates":[[-179.5,36.52504],[-179,36.78434],[-178.5,37.04496],[-178,37.30678],[-177.5,37.5697],[-177,37.83359],[-176.5,38.09835],[-176,38.36385],[-175.5,38.62999],[-175,38.89663],[-174.5,39.16365],[-174,39.43094],[-173.5,39.69838],[-173,39.96583],[-172.5,40.23319],[-172,40.50033],[-171.5,40.76713],[-171,41.03347],[-170.5,41.29924],[-170,41.56433],[-169.5,41.82861],[-169,42.09199],[-168.5,42.35435],[-168,42.6156],[-167.5,42.87563],[-167,43.13435],[-166.5,43.39165],[-166,43.64746],[-165.5,43.90169],[-165,44.15425],[-164.5,44.40506],[-164,44.65405],[-163.5,44.90116],[-163,45.1463],[-162.5,45.38943],[-162,45.63048],[-161.5,45.8694],[-161,46.10613],[-160.5,46.34063],[-160,46.57286],[-159.5,46.80277],[-159,47.03033],[-158.5,47.25551],[-158,47.47827],[-157.5,47.6986],[-157,47.91646],[-156.5,48.13184],[-156,48.34471],[-155.5,48.55507],[-155,48.7629],[-154.5,48.96819],[-154,49.17094],[-153.5,49.37114],[-153,49.56878],[-152.5,49.76386],[-152,49.95639],[-151.5,50.14637],[-151,50.3338],[-150.5,50.51869],[-150,50.70105],[-149.5,50.88087],[-149,51.05818],[-148.5,51.23298],[-148,51.40528],[-147.5,51.57511],[-147,51.74246],[-146.5,51.90736],[-146,52.06982],[-145.5,52.22986],[-145,52.3875],[-144.5,52.54274],[-144,52.69561],[-143.5,52.84612],[-143,52.9943],[-142.5,53.14017],[-142,53.28373],[-141.5,53.42502],[-141,53.56405],[-140.5,53.70084],[-140,53.8354],[-139.5,53.96777],[-139,54.09796],[-138.5,54.22599],[-138,54.35188],[-137.5,54.47564],[-137,54.59731],[-136.5,54.71689],[-136,54.83442],[-135.5,54.9499],[-135,55.06337],[-134.5,55.17483],[-134,55.28431],[-133.5,55.39182],[-133,55.49739],[-132.5,55.60104],[-132,55.70278],[-131.5,55.80263],[-131,55.90061],[-130.5,55.99674],[-130,56.09104],[-129.5,56.18352],[-129,56.2742],[-128.5,56.36309],[-128,56.45023],[-127.5,56.53562],[-127,56.61927],[-126.5,56.70121],[-126,56.78145],[-125.5,56.86001],[-125,56.93691],[-124.5,57.01215],[-124,57.08575],[-123.5,57.15773],[-123,57.22811],[-122.5,57.29689],[-122,57.36409],[-121.5,57.42973],[-121,57.49382],[-120.5,57.55637],[-120,57.61739],[-119.5,57.67691],[-119,57.73492],[-118.5,57.79145],[-118,57.84651],[-117.5,57.90011],[-117,57.95225],[-116.5,58.00296],[-116,58.05225],[-115.5,58.10011],[-115,58.14658],[-114.5,58.19165],[-114,58.23534],[-113.5,58.27765],[-113,58.31861],[-112.5,58.35821],[-112,58.39647],[-111.5,58.4334],[-111,58.46901],[-110.5,58.5033],[-110,58.53629],[-109.5,58.56799],[-109,58.59839],[-108.5,58.62752],[-108,58.65538],[-107.5,58.68198],[-107,58.70733],[-106.5,58.73143],[-106,58.75429],[-105.5,58.77593],[-105,58.79634],[-104.5,58.81553],[-104,58.83352],[-103.5,58.85031],[-103,58.8659],[-102.5,58.88031],[-102,58.89353],[-101.5,58.90558],[-101,58.91647],[-100.5,58.92619],[-100,58.93476],[-99.5,58.94217],[-99,58.94845],[-98.5,58.95358],[-98,58.95759],[-97.5,58.96046],[-97,58.96222],[-96.5,58.96286],[-96,58.96239],[-95.5,58.96081],[-95,58.95813],[-94.5,58.95436],[-94,58.94949],[-93.5,58.94354],[-93,58.93651],[-92.5,58.9284],[-92,58.91922],[-91.5,58.90897],[-91,58.89765],[-90.5,58.88528],[-90,58.87185],[-89.5,58.85737],[-89,58.84184],[-88.5,58.82527],[-88,58.80766],[-87.5,58.78902],[-87,58.76934],[-86.5,58.74863],[-86,58.7269],[-85.5,58.70415],[-85,58.68038],[-84.5,58.6556],[-84,58.62981],[-83.5,58.60302],[-83,58.57522],[-82.5,58.54642],[-82,58.51662],[-81.5,58.48583],[-81,58.45405],[-80.5,58.42129],[-80,58.38754],[-79.5,58.35281],[-79,58.3171],[-78.5,58.28043],[-78,58.24278],[-77.5,58.20416],[-77,58.16458],[-76.5,58.12404],[-76,58.08254],[-75.5,58.04009],[-75,57.99669],[-74.5,57.95233],[-74,57.90704],[-73.5,57.8608],[-73,57.81362],[-72.5,57.76551],[-72,57.71646],[-71.5,57.66649],[-71,57.61559],[-70.5,57.56376],[-70,57.51102],[-69.5,57.45736],[-69,57.40279],[-68.5,57.3473],[-68,57.29091],[-67.5,57.23362],[-67,57.17543],[-66.75,57.146]]}},{"type":"Feature","id":"+11580924:north:0","properties":{"id":"+11580924","year":1158,"month":9,"day":24,"time_tdt":"08:36:09","type":"금환일식","type_code":"A","saros":101,"gamma":-0.82225,"magnitude":0.94151,"greatest":{"lat":-54.59613,"lng":26.50452},"path_width_km":377.6,"duration":"05m15s","delta_t_seconds":858.9,"catalog_number":7511,"source":"NASA Five Millennium Canon of Solar Eclipses","source_url":"https://eclipse.gsfc.nasa.gov/SEsearch/SEsearchmap.php?Ecl=%2B11580924","boundary":"north","name":"1158-09-24 금환일식"},"geometry":{"type":"LineString","coordinates":[[-22.79883,-35.90188],[-22.5,-35.91963],[-22,-35.95093],[-21.5,-35.98427],[-21,-36.01966],[-20.5,-36.05714],[-20,-36.09674],[-19.5,-36.13849],[-19,-36.18242],[-18.5,-36.22855],[-18,-36.27692],[-17.5,-36.32756],[-17,-36.38051],[-16.5,-36.43579],[-16,-36.49343],[-15.5,-36.55348],[-15,-36.61597],[-14.5,-36.68092],[-14,-36.74838],[-13.5,-36.81838],[-13,-36.89095],[-12.5,-36.96614],[-12,-37.04397],[-11.5,-37.12449],[-11,-37.20773],[-10.5,-37.29373],[-10,-37.38252],[-9.5,-37.47416],[-9,-37.56866],[-8.5,-37.66608],[-8,-37.76645],[-7.5,-37.8698],[-7.5,-37.86981],[-7,-37.97619],[-6.5,-38.08564],[-6,-38.19819],[-5.5,-38.31389],[-5,-38.43277],[-4.5,-38.55486],[-4,-38.68021],[-3.5,-38.80885],[-3,-38.94082],[-2.5,-39.07614],[-2,-39.21487],[-1.5,-39.35702],[-1,-39.50264],[-0.5,-39.65174],[0,-39.80437],[0.5,-39.96055],[1,-40.12029],[1.5,-40.28364],[2,-40.4506],[2.5,-40.6212],[3,-40.79545],[3.5,-40.97336],[4,-41.15495],[4.5,-41.34023],[5,-41.52918],[5.5,-41.72183],[6,-41.91815],[6.5,-42.11814],[7,-42.32179],[7.5,-42.52908],[8,-42.73998],[8.5,-42.95446],[9,-43.1725],[9.5,-43.39404],[10,-43.61905],[10.5,-43.84748],[11,-44.07925],[11.5,-44.31432],[12,-44.5526],[12.5,-44.79402],[13,-45.0385],[13.5,-45.28594],[14,-45.53625],[14.5,-45.78933],[15,-46.04505],[15.5,-46.30332],[16,-46.56399],[16.5,-46.82696],[17,-47.09208],[17.5,-47.35921],[17.5,-47.35922],[18,-47.62822],[18.5,-47.89896],[19,-48.17127],[19.5,-48.44501],[20,-48.72001],[20.5,-48.99612],[21,-49.27317],[21.5,-49.55102],[22,-49.82948],[22.5,-50.10841],[23,-50.38764],[23.5,-50.66701],[24,-50.94637],[24.5,-51.22555],[25,-51.50441],[25.5,-51.7828],[25.5,-51.78279],[26,-52.06056],[26.5,-52.33755],[27,-52.61365],[27.5,-52.88871],[28,-53.1626],[28.5,-53.43521],[29,-53.70641],[29.5,-53.97609],[30,-54.24415],[30.5,-54.51049],[31,-54.775],[31.5,-55.0376],[32,-55.29821],[32.5,-55.55674],[33,-55.81313],[33.5,-56.06731],[34,-56.31921],[34.5,-56.56878],[35,-56.81597],[35.5,-57.06072],[36,-57.30301],[36.5,-57.54279],[37,-57.78003],[37.5,-58.0147],[38,-58.24677],[38.5,-58.47623],[39,-58.70306],[39.5,-58.92724],[40,-59.14877],[40.5,-59.36764],[41,-59.58383],[41.5,-59.79736],[42,-60.00822],[42.5,-60.21641],[43,-60.42194],[43.5,-60.62482],[44,-60.82505],[44.5,-61.02265],[45,-61.21763],[45.5,-61.41001],[46,-61.59979],[46.5,-61.78699],[47,-61.97164],[47.5,-62.15375],[48,-62.33334],[48.5,-62.51043],[49,-62.68504],[49.5,-62.85719],[50,-63.02691],[50.5,-63.19422],[51,-63.35915],[51.5,-63.5217],[51.5,-63.52171],[52,-63.68192],[52.5,-63.83982],[53,-63.99544],[53.5,-64.14878],[54,-64.29988],[54.5,-64.44877],[55,-64.59546],[55.5,-64.73998],[56,-64.88236],[56.5,-65.02263],[57,-65.1608],[57.5,-65.2969],[58,-65.43096],[58.5,-65.563],[59,-65.69305],[59.5,-65.82112],[60,-65.94725],[60.5,-66.07145],[61,-66.19375],[61.5,-66.31418],[62,-66.43275],[62.5,-66.54949],[63,-66.66443],[63.5,-66.77757],[64,-66.88895],[64.5,-66.99859],[65,-67.10651],[65.5,-67.21273],[66,-67.31726],[66.5,-67.42014],[67,-67.52138],[67.5,-67.621],[68,-67.71903],[68.5,-67.81547],[69,-67.91035],[69.5,-68.00369],[70,-68.0955],[70.5,-68.18581],[71,-68.27464],[71.5,-68.36199],[72,-68.44789],[72.5,-68.53235],[73,-68.6154],[73.5,-68.69704],[74,-68.7773],[74.5,-68.85619],[75,-68.93372],[75.5,-69.00991],[76,-69.08478],[76.5,-69.15834],[77,-69.2306],[77.5,-69.30158],[78,-69.3713],[78.5,-69.43976],[79,-69.50699],[79.5,-69.57298],[80,-69.63777],[80.5,-69.70135],[81,-69.76375],[81.5,-69.82496],[82,-69.88502],[82.5,-69.94392],[83,-70.00169],[83.5,-70.05832],[84,-70.11383],[84.5,-70.16824],[85,-70.22155],[85.5,-70.27378],[86,-70.32493],[86.5,-70.37501],[87,-70.42404],[87.5,-70.47202],[88,-70.51897],[88.5,-70.56488],[89,-70.60978],[89.5,-70.65367],[90,-70.69655],[90.5,-70.73845],[91,-70.77936],[91.5,-70.81929],[92,-70.85826],[92,-70.85825],[92.5,-70.89626],[93,-70.93331],[93.5,-70.96941],[94,-71.00458],[94.5,-71.03881],[95,-71.07212],[95.5,-71.10451],[96,-71.13599],[96.5,-71.16657],[97,-71.19624],[97.5,-71.22503],[98,-71.25292],[98.5,-71.27994],[99,-71.30608],[99.5,-71.33135],[100,-71.35576],[100.5,-71.3793],[101,-71.402],[101.5,-71.42384],[102,-71.44484],[102.5,-71.465],[103,-71.48432],[103,-71.48433],[103.5,-71.50282],[104,-71.52049],[104.5,-71.53733],[105,-71.55336],[105.5,-71.56857],[106,-71.58297],[106.5,-71.59657],[107,-71.60936],[107.5,-71.62135],[107.5,-71.62136],[108,-71.63255],[108.5,-71.64295],[109,-71.65257],[109.5,-71.66139],[110,-71.66943],[110,-71.66944],[110.5,-71.67669],[110.5,-71.6767],[111,-71.68318],[111.5,-71.68888],[112,-71.69381],[112.5,-71.69797],[113,-71.70137],[113.5,-71.70399],[114,-71.70585],[114.5,-71.70695],[115,-71.70728],[115.5,-71.70686],[116,-71.70568],[116.5,-71.70375],[117,-71.70106],[117.5,-71.69761],[118,-71.69342],[118.5,-71.68848],[119,-71.68278],[119.5,-71.67634],[120,-71.66916],[120.5,-71.66122],[121,-71.65255],[121.5,-71.64312],[121.5,-71.64313],[122,-71.63296],[122.5,-71.62205],[123,-71.6104],[123.5,-71.59801],[124,-71.58488],[124.5,-71.57101],[125,-71.5564],[125.5,-71.54104],[126,-71.52495],[126.5,-71.50812],[127,-71.49055],[127.5,-71.47223],[128,-71.45318],[128.5,-71.43339],[129,-71.41286],[129.5,-71.39159],[130,-71.36958],[131.5,-71.29912],[130.5,-71.34682],[131,-71.32333],[131.5,-71.29909],[132,-71.27412],[132,-71.27411],[132.5,-71.24839],[133,-71.22193],[133.5,-71.19472],[133.55469,-71.1917]]}},{"type":"Feature","id":"+11580924:center:0","properties":{"id":"+11580924","year":1158,"month":9,"day":24,"time_tdt":"08:36:09","type":"금환일식","type_code":"A","saros":101,"gamma":-0.82225,"magnitude":0.94151,"greatest":{"lat":-54.59613,"lng":26.50452},"path_width_km":377.6,"duration":"05m15s","delta_t_seconds":858.9,"catalog_number":7511,"source":"NASA Five Millennium Canon of Solar Eclipses","source_url":"https://eclipse.gsfc.nasa.gov/SEsearch/SEsearchmap.php?Ecl=%2B11580924","boundary":"center","name":"1158-09-24 금환일식"},"geometry":{"type":"LineString","coordinates":[[-23.76708,-37.83496],[-23.5,-37.84705],[-23,-37.87494],[-22.5,-37.90487],[-22,-37.93688],[-22,-37.93689],[-21.5,-37.971],[-21,-38.00725],[-20.5,-38.04567],[-20,-38.08627],[-20,-38.08628],[-19.5,-38.12911],[-19,-38.1742],[-18.5,-38.22158],[-18,-38.27128],[-17.5,-38.32334],[-17,-38.37778],[-16.5,-38.43464],[-16,-38.49396],[-15.5,-38.55577],[-15,-38.62011],[-14.5,-38.687],[-14,-38.7565],[-13.5,-38.82862],[-13,-38.90342],[-12.5,-38.98092],[-12.5,-38.98093],[-12,-39.06118],[-11.5,-39.14421],[-11,-39.23006],[-11,-39.23007],[-10.5,-39.31878],[-10,-39.41039],[-9.5,-39.50494],[-9.5,-39.50495],[-9,-39.60247],[-8.5,-39.70301],[-8,-39.80661],[-7.5,-39.9133],[-7,-40.02312],[-6.5,-40.13611],[-6,-40.2523],[-6,-40.25231],[-5.5,-40.37175],[-5,-40.49448],[-4.5,-40.62052],[-4,-40.74993],[-3.5,-40.88272],[-3,-41.01894],[-3,-41.01895],[-2.5,-41.15863],[-2,-41.3018],[-1.5,-41.44849],[-1,-41.59873],[-0.5,-41.75256],[0,-41.90998],[0.5,-42.07104],[1,-42.23574],[1.5,-42.40411],[2,-42.57616],[2.5,-42.75191],[3,-42.93136],[3.5,-43.11453],[4,-43.30141],[4.5,-43.492],[5,-43.68631],[5.5,-43.88431],[6,-44.086],[6.5,-44.29135],[7,-44.50035],[7.5,-44.71296],[8,-44.92914],[8.5,-45.14887],[9,-45.37208],[9.5,-45.59873],[10,-45.82876],[10.5,-46.06211],[11,-46.29869],[11.5,-46.53844],[12,-46.78127],[12.5,-47.02708],[13,-47.27578],[13.5,-47.52727],[14,-47.78143],[14.5,-48.03816],[15,-48.29731],[15.5,-48.55878],[16,-48.82242],[16.5,-49.0881],[17,-49.35568],[17.5,-49.625],[18,-49.89593],[18.5,-50.16829],[19,-50.44195],[19.5,-50.71674],[20,-50.9925],[20.5,-51.26907],[21,-51.54628],[21.5,-51.82399],[22,-52.10203],[22.5,-52.38023],[23,-52.65845],[23.5,-52.93652],[24,-53.21429],[24.5,-53.49162],[25,-53.76836],[25.5,-54.04437],[26,-54.3195],[26.5,-54.59363],[27,-54.86663],[27.5,-55.13838],[28,-55.40875],[28.5,-55.67764],[29,-55.94494],[29.5,-56.21054],[29.5,-56.21055],[30,-56.47436],[30.5,-56.7363],[31,-56.99628],[31.5,-57.25422],[32,-57.51004],[32.5,-57.76369],[33,-58.01509],[33.5,-58.26419],[34,-58.51094],[34.5,-58.75529],[35,-58.9972],[35.5,-59.23663],[36,-59.47354],[36.5,-59.70792],[37,-59.93973],[37.5,-60.16895],[38,-60.39556],[38.5,-60.61955],[39,-60.84091],[39.5,-61.05963],[40,-61.2757],[40.5,-61.48912],[41,-61.6999],[41.5,-61.90803],[42,-62.11352],[42.5,-62.31638],[43,-62.5166],[43.5,-62.71422],[44,-62.90922],[44.5,-63.10164],[45,-63.29148],[45.5,-63.47876],[46,-63.6635],[46.5,-63.84571],[47,-64.02542],[47.5,-64.20264],[48,-64.3774],[48.5,-64.54971],[49,-64.71961],[49.5,-64.8871],[50,-65.05222],[50.5,-65.21498],[51,-65.37542],[51.5,-65.53356],[52,-65.68941],[52.5,-65.84301],[53,-65.99437],[53.5,-66.14353],[54,-66.29051],[54.5,-66.43534],[55,-66.57803],[55.5,-66.71862],[56,-66.85713],[56.5,-66.99357],[57,-67.12799],[57.5,-67.2604],[58,-67.39083],[58.5,-67.5193],[59,-67.64583],[59.5,-67.77045],[60,-67.89319],[60.5,-68.01406],[61,-68.13309],[61.5,-68.2503],[62,-68.36572],[62.5,-68.47937],[63,-68.59127],[63.5,-68.70143],[64,-68.8099],[64.5,-68.91667],[65,-69.02179],[65.5,-69.12526],[66,-69.2271],[66.5,-69.32735],[67,-69.42601],[67.5,-69.52311],[68,-69.61867],[68.5,-69.71271],[69,-69.80523],[69.5,-69.89628],[70,-69.98585],[70.5,-70.07397],[71,-70.16066],[71,-70.16067],[71.5,-70.24594],[72,-70.32982],[72.5,-70.41231],[73,-70.49344],[73.5,-70.57322],[74,-70.65167],[74.5,-70.72881],[75,-70.80464],[75.5,-70.87918],[76,-70.95245],[76.5,-71.02447],[77,-71.09524],[77.5,-71.16479],[78,-71.23312],[78.5,-71.30024],[78.5,-71.30025],[79,-71.36619],[79.5,-71.43095],[80,-71.49456],[80.5,-71.55701],[81,-71.61833],[81.5,-71.67853],[82,-71.73761],[82.5,-71.79559],[83,-71.85248],[83.5,-71.9083],[84,-71.96304],[84.5,-72.01673],[85,-72.06938],[85.5,-72.12099],[86,-72.17157],[86.5,-72.22114],[87,-72.2697],[87.5,-72.31726],[88,-72.36384],[88.5,-72.40944],[89,-72.45407],[89.5,-72.49774],[90,-72.54046],[90,-72.54047],[90.5,-72.58224],[91,-72.62308],[91,-72.62309],[91.5,-72.663],[92,-72.702],[92.5,-72.74008],[93,-72.77727],[93.5,-72.81355],[94,-72.84895],[94.5,-72.88346],[95,-72.9171],[95.5,-72.94987],[96,-72.98178],[96.5,-73.01283],[97,-73.04303],[97.5,-73.07239],[98,-73.10091],[98.5,-73.1286],[99,-73.15546],[99.5,-73.18151],[100,-73.20673],[100.5,-73.23115],[101,-73.25476],[101.5,-73.27757],[102,-73.29959],[102.5,-73.32081],[103,-73.34125],[103.5,-73.36091],[104,-73.37979],[104.5,-73.39789],[105,-73.41523],[105.5,-73.4318],[106,-73.44761],[106.5,-73.46266],[107,-73.47695],[107.5,-73.49049],[108,-73.50329],[108.5,-73.51534],[109,-73.52665],[109.5,-73.53722],[110,-73.54705],[110.5,-73.55616],[111,-73.56453],[111.5,-73.57217],[112,-73.57908],[112.5,-73.58528],[113,-73.59075],[113.5,-73.5955],[114,-73.59954],[114.5,-73.60286],[115,-73.60547],[115.5,-73.60736],[116,-73.60855],[116.5,-73.60903],[117,-73.6088],[117.5,-73.60786],[118,-73.60622],[118.5,-73.60388],[119,-73.60084],[119.5,-73.59709],[120,-73.59264],[120.5,-73.5875],[121,-73.58166],[121.5,-73.57511],[122,-73.56788],[122.5,-73.55994],[123,-73.55131],[123.5,-73.54198],[124,-73.53196],[124.5,-73.52124],[125,-73.50982],[125.5,-73.49771],[126,-73.48491],[126.5,-73.47141],[127,-73.45721],[127.5,-73.44232],[128,-73.42673],[128.5,-73.41044],[128.5,-73.41045],[129,-73.39346],[129.5,-73.37578],[130,-73.35741],[130.5,-73.33833],[131,-73.31856],[131.5,-73.29808],[132,-73.2769],[132.5,-73.25503],[133,-73.23245],[133.5,-73.20916],[134,-73.18517],[134.5,-73.16048],[135,-73.13508],[135.45167,-73.11791]]}},{"type":"Feature","id":"+11580924:south:0","properties":{"id":"+11580924","year":1158,"month":9,"day":24,"time_tdt":"08:36:09","type":"금환일식","type_code":"A","saros":101,"gamma":-0.82225,"magnitude":0.94151,"greatest":{"lat":-54.59613,"lng":26.50452},"path_width_km":377.6,"duration":"05m15s","delta_t_seconds":858.9,"catalog_number":7511,"source":"NASA Five Millennium Canon of Solar Eclipses","source_url":"https://eclipse.gsfc.nasa.gov/SEsearch/SEsearchmap.php?Ecl=%2B11580924","boundary":"south","name":"1158-09-24 금환일식"},"geometry":{"type":"LineString","coordinates":[[-24.75,-39.86786],[-24.5,-39.87942],[-24,-39.90407],[-23.5,-39.93079],[-23,-39.95961],[-22.5,-39.99057],[-22,-40.02368],[-21.5,-40.05899],[-21.5,-40.05898],[-21,-40.09651],[-20.5,-40.13629],[-20,-40.17836],[-19.5,-40.22274],[-19,-40.26947],[-18.5,-40.31859],[-18,-40.37012],[-17.5,-40.42411],[-17,-40.48058],[-16.5,-40.53958],[-16,-40.60113],[-15.5,-40.66528],[-15,-40.73206],[-14.5,-40.8015],[-14,-40.87366],[-13.5,-40.94855],[-13,-41.02623],[-12.5,-41.10673],[-12,-41.19009],[-11.5,-41.27634],[-11,-41.36553],[-10.5,-41.4577],[-10,-41.55289],[-9.5,-41.65113],[-9,-41.75246],[-8.5,-41.85693],[-8,-41.96458],[-7.5,-42.07543],[-7,-42.18954],[-6.5,-42.30694],[-6,-42.42766],[-5.5,-42.55175],[-5,-42.67925],[-4.5,-42.81017],[-4,-42.94458],[-3.5,-43.08248],[-3,-43.22392],[-2.5,-43.36893],[-2,-43.51754],[-1.5,-43.66978],[-1,-43.82566],[-0.5,-43.98522],[0,-44.14847],[0.5,-44.31544],[1,-44.48614],[1.5,-44.66058],[2,-44.83877],[2.5,-45.02071],[3,-45.20642],[3.5,-45.39588],[4,-45.5891],[4.5,-45.78606],[5,-45.98674],[5.5,-46.19113],[6,-46.3992],[6.5,-46.61093],[6.5,-46.61092],[7,-46.82626],[7.5,-47.04517],[8,-47.2676],[8.5,-47.49351],[8.5,-47.4935],[9,-47.72282],[9.5,-47.95547],[10,-48.1914],[10.5,-48.43051],[11,-48.67273],[11.5,-48.91795],[12,-49.16609],[12.5,-49.41703],[13,-49.67066],[13.5,-49.92687],[14,-50.18553],[14.5,-50.44651],[15,-50.70968],[15.5,-50.9749],[16,-51.24202],[16.5,-51.5109],[17,-51.78138],[17.5,-52.05332],[18,-52.32655],[18.5,-52.60091],[19,-52.87625],[19.5,-53.1524],[20,-53.42921],[20.5,-53.7065],[21,-53.98413],[21.5,-54.26193],[22,-54.53974],[22.5,-54.81741],[23,-55.09479],[23.5,-55.37172],[24,-55.64806],[24.5,-55.92368],[25,-56.19842],[25.5,-56.47217],[26,-56.74479],[26,-56.74478],[26.5,-57.01615],[27,-57.28615],[27.5,-57.55466],[28,-57.82159],[28.5,-58.08683],[29,-58.35029],[29.5,-58.61188],[30,-58.8715],[30.5,-59.12909],[31,-59.38457],[31,-59.38458],[31.5,-59.63788],[32,-59.88895],[32.5,-60.13772],[33,-60.38414],[33.5,-60.62817],[34,-60.86976],[34.5,-61.10887],[35,-61.34547],[35.5,-61.57954],[36,-61.81104],[36.5,-62.03995],[37,-62.26626],[37.5,-62.48995],[38,-62.71101],[38.5,-62.92943],[39,-63.1452],[39.5,-63.35833],[40,-63.56881],[40.5,-63.77664],[41,-63.98183],[41,-63.98184],[41.5,-64.18439],[42,-64.38432],[42.5,-64.58164],[43,-64.77635],[43.5,-64.96846],[43.5,-64.96847],[44,-65.15801],[44.5,-65.34499],[45,-65.52942],[45.5,-65.71133],[46,-65.89074],[46.5,-66.06765],[47,-66.2421],[47.5,-66.41411],[48,-66.5837],[48.5,-66.75088],[49,-66.91569],[49.5,-67.07815],[50,-67.23828],[50.5,-67.39611],[51,-67.55165],[51.5,-67.70494],[52,-67.856],[52.5,-68.00486],[53,-68.15154],[53.5,-68.29607],[54,-68.43846],[54.5,-68.57876],[55,-68.71697],[55.5,-68.85313],[56,-68.98727],[56.5,-69.1194],[57,-69.24955],[57.5,-69.37775],[58,-69.50402],[58.5,-69.62839],[59,-69.75088],[59.5,-69.87151],[60,-69.99031],[60,-69.9903],[60.5,-70.1073],[60.5,-70.10729],[61,-70.2225],[61.5,-70.33594],[62,-70.44764],[62.5,-70.55762],[63,-70.66591],[63.5,-70.77253],[63.5,-70.77252],[64,-70.87749],[64.5,-70.98082],[65,-71.08255],[65,-71.08254],[65.5,-71.18268],[66,-71.28125],[66.5,-71.37827],[67,-71.47376],[67.5,-71.56774],[68,-71.66024],[68.5,-71.75127],[69,-71.84084],[69.5,-71.92899],[70,-72.01572],[70.5,-72.10105],[71,-72.185],[71.5,-72.2676],[72,-72.34885],[72.5,-72.42877],[73,-72.50738],[73.5,-72.5847],[74,-72.66074],[74.5,-72.73552],[75,-72.80904],[75.5,-72.88134],[76,-72.95242],[76.5,-73.02229],[77,-73.09098],[77.5,-73.15849],[78,-73.22484],[78.5,-73.29005],[79,-73.35412],[79.5,-73.41707],[80,-73.47891],[80.5,-73.53966],[81,-73.59932],[81.5,-73.65791],[82,-73.71545],[82.5,-73.77193],[83,-73.82738],[83.5,-73.88181],[84,-73.93522],[84.5,-73.98763],[85,-74.03905],[85.5,-74.08948],[85.5,-74.08949],[86,-74.13895],[86.5,-74.18745],[87,-74.235],[87.5,-74.28161],[88,-74.32728],[88.5,-74.37203],[89,-74.41586],[89.5,-74.45879],[90,-74.50082],[90.5,-74.54196],[91,-74.58222],[91.5,-74.62161],[92,-74.66013],[92.5,-74.69779],[93,-74.73461],[93.5,-74.77058],[94,-74.80571],[94.5,-74.84002],[95,-74.87351],[95.5,-74.90618],[96,-74.93804],[96.5,-74.9691],[97,-74.99936],[97.5,-75.02883],[98,-75.05752],[98.5,-75.08543],[99,-75.11257],[99.5,-75.13895],[100,-75.16456],[100.5,-75.18941],[101,-75.21351],[101.5,-75.23687],[102,-75.25948],[102.5,-75.28136],[103,-75.30251],[103.5,-75.32292],[104,-75.34262],[104.5,-75.36159],[105,-75.37985],[105.5,-75.39739],[106,-75.41423],[106.5,-75.43036],[107,-75.4458],[107.5,-75.46053],[108,-75.47457],[108.5,-75.48792],[109,-75.50059],[109.5,-75.51256],[110,-75.52386],[110.5,-75.53448],[111,-75.54442],[111,-75.54441],[111.5,-75.55368],[112,-75.56227],[112.5,-75.5702],[113,-75.57746],[113,-75.57745],[113.5,-75.58405],[114,-75.58998],[114,-75.58997],[114.5,-75.59524],[115,-75.59985],[115.5,-75.6038],[116,-75.60709],[116.5,-75.60973],[117,-75.61172],[117.5,-75.61305],[118,-75.61374],[118.5,-75.61377],[119,-75.61316],[119,-75.61315],[119.5,-75.61189],[120,-75.60998],[120.5,-75.60743],[121,-75.60423],[121.5,-75.60038],[122,-75.59589],[122.5,-75.59076],[123,-75.58498],[123.5,-75.57856],[124,-75.5715],[124.5,-75.56379],[125,-75.55545],[125.5,-75.54645],[126,-75.53682],[126.5,-75.52654],[127,-75.51562],[127.5,-75.50405],[128,-75.49184],[128.5,-75.47899],[129,-75.46548],[129.5,-75.45134],[130,-75.43654],[130.5,-75.4211],[131,-75.40501],[131.5,-75.38827],[132,-75.37087],[132.5,-75.35283],[133,-75.33413],[133.5,-75.31478],[134,-75.29477],[134.5,-75.27411],[135,-75.25279],[135.5,-75.2308],[137.5,-75.13624],[136,-75.20816],[137,-75.16088],[136.5,-75.18485]]}}],"attribution":"Eclipse Predictions by Fred Espenak and Jean Meeus (NASA's GSFC)","generated_at":"2026-09-23T03:35:43.583Z"}
