{"type":"FeatureCollection","year":116,"events":[{"id":"+01160401","year":116,"month":4,"day":1,"time_tdt":"00:47:48","type":"금환일식","type_code":"A","saros":60,"gamma":0.86063,"magnitude":0.98303,"greatest":{"lat":58.90162,"lng":177.8667},"path_width_km":117.7,"duration":"01m19s","delta_t_seconds":9396.7,"catalog_number":5061,"source":"NASA Five Millennium Canon of Solar Eclipses","source_url":"https://eclipse.gsfc.nasa.gov/SEsearch/SEsearchmap.php?Ecl=%2B01160401"},{"id":"+01160924","year":116,"month":9,"day":24,"time_tdt":"04:27:28","type":"개기일식","type_code":"T","saros":65,"gamma":-0.895,"magnitude":1.02385,"greatest":{"lat":-58.62434,"lng":118.24243},"path_width_km":181.9,"duration":"01m39s","delta_t_seconds":9392,"catalog_number":5062,"source":"NASA Five Millennium Canon of Solar Eclipses","source_url":"https://eclipse.gsfc.nasa.gov/SEsearch/SEsearchmap.php?Ecl=%2B01160924"}],"features":[{"type":"Feature","id":"+01160401:north:0","properties":{"id":"+01160401","year":116,"month":4,"day":1,"time_tdt":"00:47:48","type":"금환일식","type_code":"A","saros":60,"gamma":0.86063,"magnitude":0.98303,"greatest":{"lat":58.90162,"lng":177.8667},"path_width_km":117.7,"duration":"01m19s","delta_t_seconds":9396.7,"catalog_number":5061,"source":"NASA Five Millennium Canon of Solar Eclipses","source_url":"https://eclipse.gsfc.nasa.gov/SEsearch/SEsearchmap.php?Ecl=%2B01160401","boundary":"north","name":"116-04-01 금환일식"},"geometry":{"type":"LineString","coordinates":[[128.5,42.72164],[129,42.75406],[129.5,42.78867],[130,42.82549],[130.5,42.86454],[130.5,42.86455],[131,42.90587],[131.5,42.9495],[132,42.99546],[132.5,43.04378],[133,43.09449],[133.5,43.14763],[134,43.20322],[134.5,43.2613],[135,43.3219],[135.5,43.38505],[136,43.45079],[136.5,43.51915],[137,43.59017],[137,43.59016],[137.5,43.66387],[138,43.7403],[138.5,43.81949],[139,43.90148],[139.5,43.98629],[140,44.07397],[140.5,44.16456],[141,44.25808],[141.5,44.35457],[142,44.45407],[142.5,44.55662],[143,44.66225],[143.5,44.77099],[144,44.88289],[144.5,44.99797],[145,45.11628],[145.5,45.23784],[146,45.36268],[146.5,45.49085],[147,45.62237],[147.5,45.75728],[148,45.89559],[148.5,46.03735],[149,46.18259],[149.5,46.33131],[150,46.48356],[150.5,46.63935],[151,46.7987],[151.5,46.96164],[152,47.12817],[152,47.12818],[152.5,47.29832],[153,47.47209],[153.5,47.6495],[154,47.83054],[154.5,48.01522],[155,48.20354],[155.5,48.39549],[156,48.59106],[156.5,48.79025],[157,48.99303],[157.5,49.19938],[158,49.40927],[158.5,49.62268],[159,49.83956],[159.5,50.05987],[159.5,50.05988],[160,50.28358],[160.5,50.51061],[161,50.74092],[161.5,50.97443],[161.5,50.97444],[162,51.21109],[162.5,51.45081],[163,51.69351],[163.5,51.9391],[164,52.18749],[164.5,52.43858],[165,52.69225],[165,52.69226],[165.5,52.94842],[166,53.20694],[166.5,53.46771],[167,53.7306],[167.5,53.99548],[168,54.2622],[168.5,54.53064],[169,54.80065],[169.5,55.07209],[170,55.3448],[170.5,55.61864],[171,55.89346],[171.5,56.16909],[172,56.4454],[172.5,56.72222],[173,56.9994],[173.5,57.27679],[174,57.55424],[174.5,57.83159],[175,58.1087],[175.5,58.38542],[176,58.66162],[176.5,58.93714],[177,59.21186],[177.5,59.48564],[178,59.75836],[178.5,60.0299],[179,60.30012],[179.5,60.56893],[180,60.83621],[180,60.83622]]}},{"type":"Feature","id":"+01160401:north:1","properties":{"id":"+01160401","year":116,"month":4,"day":1,"time_tdt":"00:47:48","type":"금환일식","type_code":"A","saros":60,"gamma":0.86063,"magnitude":0.98303,"greatest":{"lat":58.90162,"lng":177.8667},"path_width_km":117.7,"duration":"01m19s","delta_t_seconds":9396.7,"catalog_number":5061,"source":"NASA Five Millennium Canon of Solar Eclipses","source_url":"https://eclipse.gsfc.nasa.gov/SEsearch/SEsearchmap.php?Ecl=%2B01160401","boundary":"north","name":"116-04-01 금환일식"},"geometry":{"type":"LineString","coordinates":[[-179.5,61.10187],[-179,61.36579],[-178.5,61.62789],[-178,61.88808],[-177.5,62.14628],[-177,62.40241],[-176.5,62.6564],[-176,62.90818],[-175.5,63.15769],[-175,63.40487],[-174.5,63.64968],[-174,63.89205],[-173.5,64.13196],[-173,64.36936],[-172.5,64.60421],[-172,64.83649],[-171.5,65.06618],[-171,65.29324],[-170.5,65.51766],[-170,65.73942],[-169.5,65.95852],[-169,66.17494],[-168.5,66.38867],[-168,66.59972],[-167.5,66.80808],[-167,67.01375],[-166.5,67.21674],[-166,67.41705],[-165.5,67.61469],[-165,67.80968],[-164.5,68.00201],[-164,68.19171],[-163.5,68.3788],[-163,68.56328],[-163,68.56327],[-162.5,68.74517],[-162,68.92449],[-161.5,69.10127],[-161,69.27551],[-160.5,69.44726],[-160,69.61651],[-159.5,69.78331],[-159,69.94767],[-158.5,70.10962],[-158,70.26917],[-157.5,70.42637],[-157,70.58122],[-156.5,70.73377],[-156,70.88402],[-155.5,71.03202],[-155,71.17778],[-154.5,71.32134],[-154,71.46272],[-153.5,71.60194],[-153,71.73904],[-152.5,71.87403],[-152,72.00696],[-151.5,72.13784],[-151.5,72.13783],[-151,72.26669],[-150.5,72.39356],[-150,72.51845],[-149.5,72.64141],[-149,72.76245],[-148.5,72.8816],[-148,72.99889],[-147.5,73.11434],[-147,73.22798],[-146.5,73.33983],[-146,73.44991],[-145.5,73.55826],[-145,73.66489],[-144.5,73.76983],[-144,73.87311],[-143.5,73.97474],[-143,74.07475],[-143,74.07474],[-142.5,74.17316],[-142.5,74.17315],[-142,74.26999],[-141.5,74.36527],[-141,74.45902],[-140.5,74.55125],[-140,74.642],[-139.5,74.73128],[-139,74.81911],[-138.5,74.90551],[-138,74.99051],[-137.5,75.07411],[-137,75.15635],[-136.5,75.23723],[-136,75.31679],[-135.5,75.39503],[-135,75.47197],[-134.5,75.54764],[-134,75.62205],[-133.5,75.69521],[-133,75.76715],[-132.5,75.83788],[-132,75.90742],[-131.5,75.97578],[-131,76.04297],[-130.5,76.10902],[-130,76.17394],[-129.5,76.23775],[-129,76.30045],[-128.5,76.36206],[-128,76.4226],[-127.5,76.48208],[-127,76.54052],[-126.5,76.59792],[-126,76.6543],[-125.5,76.70967],[-125,76.76405],[-124.5,76.81745],[-124,76.86988],[-123.5,76.92135],[-123,76.97187],[-122.5,77.02145],[-122,77.07011],[-121.5,77.11786],[-121,77.1647],[-120.5,77.21065],[-120,77.25572],[-119.5,77.29991],[-119,77.34324],[-118.5,77.38572],[-118,77.42735],[-117.5,77.46815],[-117,77.50812],[-116.5,77.54728],[-116,77.58563],[-115.5,77.62317],[-115,77.65993],[-114.5,77.6959],[-114,77.73109],[-113.5,77.76552],[-113,77.79918],[-112.5,77.83209],[-112,77.86426],[-111.5,77.89568],[-111,77.92637],[-110.5,77.95634],[-110,77.98558],[-109.5,78.01411],[-109,78.04194],[-108.5,78.06906],[-108,78.09549],[-107.5,78.12122],[-107,78.14628],[-106.5,78.17065],[-106,78.19435],[-105.5,78.21738],[-105,78.23975],[-104.5,78.26146],[-104,78.28252],[-103.5,78.30292],[-103,78.32268],[-102.5,78.3418],[-102,78.36029],[-101.5,78.37814],[-101,78.39536],[-100.5,78.41196],[-100,78.42793],[-99.5,78.44329],[-99,78.45803],[-98.5,78.47217],[-98,78.48569],[-97.5,78.49861],[-97,78.51093],[-96.5,78.52265],[-96,78.53377],[-95.5,78.5443],[-95,78.55424],[-94.5,78.56358],[-94,78.57235],[-93.5,78.58052],[-93,78.58811],[-93,78.58812],[-92.5,78.59513],[-92,78.60156],[-91.5,78.60742],[-91,78.6127],[-90.5,78.61741],[-90,78.62154],[-89.5,78.62511],[-89,78.6281],[-88.5,78.63053],[-88,78.63238],[-87.5,78.63367],[-87,78.6344],[-86.5,78.63455],[-86,78.63415],[-85.5,78.63317],[-85,78.63164],[-84.5,78.62954],[-84,78.62687],[-83.5,78.62365],[-83,78.61986],[-82.5,78.61551],[-82,78.61059],[-81.5,78.60511],[-81,78.59906],[-80.5,78.59246],[-80,78.58528],[-79.5,78.57754],[-79,78.56924],[-78.5,78.56036],[-78,78.55092],[-77.5,78.54092],[-77,78.53034],[-76.5,78.51919],[-76,78.50747],[-75.5,78.49517],[-75,78.4823],[-74.5,78.46885],[-74,78.45483],[-73.5,78.44023],[-73,78.42504],[-72.5,78.40927],[-72,78.39292],[-71.5,78.37598],[-71,78.35845],[-70.5,78.34034],[-70,78.32162],[-69.5,78.30232],[-69,78.28241],[-68.5,78.26191],[-68,78.2408],[-67.5,78.21908],[-67,78.19676],[-66.5,78.17383],[-66,78.15028],[-65.5,78.12612],[-65,78.10134],[-64.5,78.07593],[-64,78.0499],[-63.5,78.02324],[-63,77.99595],[-62.5,77.96802],[-62,77.93946],[-61.5,77.91025],[-61,77.88039],[-60.5,77.84989],[-60,77.81873],[-59.5,77.78691],[-57.5,77.653],[-59,77.75443],[-58,77.68748],[-58.5,77.72129],[-58.125,77.696]]}},{"type":"Feature","id":"+01160401:center:0","properties":{"id":"+01160401","year":116,"month":4,"day":1,"time_tdt":"00:47:48","type":"금환일식","type_code":"A","saros":60,"gamma":0.86063,"magnitude":0.98303,"greatest":{"lat":58.90162,"lng":177.8667},"path_width_km":117.7,"duration":"01m19s","delta_t_seconds":9396.7,"catalog_number":5061,"source":"NASA Five Millennium Canon of Solar Eclipses","source_url":"https://eclipse.gsfc.nasa.gov/SEsearch/SEsearchmap.php?Ecl=%2B01160401","boundary":"center","name":"116-04-01 금환일식"},"geometry":{"type":"LineString","coordinates":[[128.90892,41.86408],[129,41.90519],[129.5,41.94139],[130,41.97979],[130.5,42.02041],[131,42.06329],[131.5,42.10844],[132,42.15591],[132.5,42.20572],[133,42.25791],[133.5,42.3125],[134,42.36953],[134.5,42.42903],[135,42.49102],[135.5,42.55555],[136,42.62265],[136.5,42.69235],[137,42.76468],[137.5,42.83967],[138,42.91737],[138.5,42.99781],[139,43.08102],[139.5,43.16703],[140,43.25589],[140.5,43.34762],[141,43.44227],[141.5,43.53986],[142,43.64044],[142.5,43.74404],[143,43.85069],[143.5,43.96043],[144,44.0733],[144.5,44.18932],[145,44.30854],[145.5,44.43098],[146,44.55669],[146.5,44.68569],[147,44.81801],[147.5,44.95369],[148,45.09275],[148.5,45.23522],[149,45.38114],[149.5,45.53053],[150,45.6834],[150.5,45.83979],[151,45.99972],[151.5,46.1632],[152,46.33025],[152.5,46.50088],[153,46.67511],[153.5,46.85295],[154,47.0344],[154.5,47.21946],[155,47.40814],[155.5,47.60042],[156,47.79631],[156.5,47.99578],[157,48.19882],[157.5,48.40542],[158,48.61554],[158.5,48.82916],[159,49.04623],[159.5,49.26672],[160,49.49059],[160.5,49.71777],[161,49.94822],[161.5,50.18187],[162,50.41864],[162.5,50.65848],[163,50.90129],[163.5,51.14699],[164,51.39549],[164.5,51.64669],[165,51.90048],[165.5,52.15676],[166,52.41541],[166.5,52.67631],[167,52.93933],[167.5,53.20435],[167.5,53.20436],[168,53.47124],[168.5,53.73985],[169,54.01005],[169.5,54.28169],[170,54.55462],[170.5,54.82869],[171,55.10376],[171.5,55.37967],[172,55.65627],[172.5,55.9334],[173,56.21091],[173.5,56.48865],[174,56.76646],[174.5,57.0442],[175,57.32172],[175.5,57.59887],[176,57.87551],[176.5,58.1515],[177,58.4267],[177.5,58.70099],[178,58.97423],[178.5,59.2463],[179,59.51708],[179.5,59.78646],[180,60.05432]]}},{"type":"Feature","id":"+01160401:center:1","properties":{"id":"+01160401","year":116,"month":4,"day":1,"time_tdt":"00:47:48","type":"금환일식","type_code":"A","saros":60,"gamma":0.86063,"magnitude":0.98303,"greatest":{"lat":58.90162,"lng":177.8667},"path_width_km":117.7,"duration":"01m19s","delta_t_seconds":9396.7,"catalog_number":5061,"source":"NASA Five Millennium Canon of Solar Eclipses","source_url":"https://eclipse.gsfc.nasa.gov/SEsearch/SEsearchmap.php?Ecl=%2B01160401","boundary":"center","name":"116-04-01 금환일식"},"geometry":{"type":"LineString","coordinates":[[-179.5,60.32057],[-179,60.58511],[-178.5,60.84783],[-178,61.10866],[-177.5,61.36751],[-177,61.62431],[-176.5,61.87897],[-176,62.13143],[-175.5,62.38163],[-175,62.62952],[-174.5,62.87503],[-174,63.11813],[-173.5,63.35876],[-173,63.59689],[-172.5,63.83249],[-172,64.06551],[-172,64.06552],[-171.5,64.29595],[-171,64.52377],[-170.5,64.74896],[-170,64.97149],[-169.5,65.19136],[-169,65.40856],[-168.5,65.62307],[-168,65.83491],[-167.5,66.04406],[-167,66.25053],[-166.5,66.45431],[-166,66.65543],[-165.5,66.85388],[-165,67.04967],[-164.5,67.24281],[-164,67.43333],[-163.5,67.62123],[-163,67.80653],[-163,67.80652],[-162.5,67.98924],[-162,68.16939],[-161.5,68.34699],[-161,68.52206],[-160.5,68.69463],[-160,68.86472],[-159.5,69.03235],[-159,69.19754],[-158.5,69.36031],[-158,69.5207],[-157.5,69.67873],[-157,69.83442],[-156.5,69.9878],[-156,70.13889],[-156,70.13888],[-155.5,70.28771],[-155,70.43431],[-154.5,70.5787],[-154,70.7209],[-153.5,70.86095],[-153,70.99887],[-152.5,71.13469],[-152,71.26844],[-151.5,71.40013],[-151,71.5298],[-150.5,71.65748],[-150,71.78319],[-149.5,71.90695],[-149,72.02879],[-148.5,72.14874],[-148,72.26682],[-147.5,72.38306],[-147,72.49748],[-146.5,72.6101],[-146,72.72096],[-145.5,72.83008],[-145,72.93747],[-144.5,73.04316],[-144,73.14718],[-143.5,73.24955],[-143,73.35029],[-142.5,73.44943],[-142,73.54698],[-141.5,73.64297],[-141,73.73742],[-140.5,73.83035],[-140,73.92178],[-139.5,74.01173],[-139,74.10022],[-138.5,74.18728],[-138,74.27292],[-137.5,74.35716],[-137,74.44002],[-136.5,74.52152],[-136,74.60168],[-135.5,74.68051],[-135,74.75804],[-134.5,74.83427],[-134,74.90924],[-133.5,74.98295],[-133,75.05542],[-132.5,75.12667],[-132,75.19671],[-131.5,75.26556],[-131.5,75.26557],[-131,75.33324],[-130.5,75.39976],[-130,75.46513],[-130,75.46514],[-129.5,75.52938],[-129,75.59251],[-128.5,75.65453],[-128,75.71547],[-127.5,75.77533],[-127,75.83414],[-126.5,75.89189],[-126,75.94861],[-125.5,76.00431],[-125,76.059],[-124.5,76.11268],[-124,76.16539],[-123.5,76.21711],[-123,76.26788],[-122.5,76.31769],[-122,76.36656],[-121.5,76.4145],[-121,76.46152],[-120.5,76.50763],[-120,76.55284],[-119.5,76.59716],[-119,76.6406],[-118.5,76.68317],[-118,76.72487],[-117.5,76.76573],[-117,76.80574],[-116.5,76.84491],[-116,76.88326],[-115.5,76.92079],[-115,76.9575],[-114.5,76.99342],[-114,77.02854],[-113.5,77.06287],[-113,77.09642],[-112.5,77.1292],[-112,77.16121],[-111.5,77.19246],[-111,77.22296],[-110.5,77.25272],[-110,77.28173],[-109.5,77.31001],[-109,77.33756],[-108.5,77.3644],[-108,77.39051],[-107.5,77.41592],[-107,77.44062],[-106.5,77.46462],[-106,77.48792],[-105.5,77.51054],[-105,77.53247],[-104.5,77.55372],[-104,77.57429],[-103.5,77.5942],[-103,77.61343],[-102.5,77.63201],[-102,77.64993],[-101.5,77.66719],[-101,77.6838],[-100.5,77.69976],[-100,77.71508],[-99.5,77.72976],[-99,77.7438],[-98.5,77.75721],[-98,77.76999],[-97.5,77.78214],[-97,77.79366],[-96.5,77.80456],[-96,77.81485],[-95.5,77.82451],[-95,77.83356],[-94.5,77.842],[-94,77.84982],[-94,77.84983],[-93.5,77.85704],[-93,77.86365],[-92.5,77.86966],[-92,77.87506],[-91.5,77.87986],[-91,77.88407],[-90.5,77.88767],[-90,77.89067],[-89.5,77.89308],[-89,77.89489],[-88.5,77.89611],[-88,77.89674],[-87.5,77.89677],[-87,77.89621],[-86.5,77.89506],[-86,77.89332],[-85.5,77.89099],[-85,77.88807],[-84.5,77.88456],[-84,77.88046],[-83.5,77.87577],[-83,77.87049],[-82.5,77.86462],[-82,77.85816],[-81.5,77.85111],[-81,77.84347],[-80.5,77.83523],[-80,77.82641],[-79.5,77.81699],[-79,77.80697],[-78.5,77.79637],[-78,77.78517],[-77.5,77.77337],[-77,77.76097],[-76.5,77.74797],[-76,77.73438],[-75.5,77.72018],[-75,77.70538],[-74.5,77.68998],[-74,77.67396],[-73.5,77.65734],[-73,77.64012],[-72.5,77.62227],[-72,77.60382],[-71.5,77.58475],[-71,77.56506],[-70.5,77.54475],[-70,77.52382],[-69.5,77.50227],[-69,77.48008],[-69,77.48009],[-68.5,77.45727],[-68,77.43383],[-67.5,77.40975],[-67,77.38503],[-66.5,77.35968],[-66,77.33368],[-65.5,77.30703],[-65,77.27973],[-65,77.27974],[-64.5,77.25179],[-64,77.22318],[-63.5,77.19392],[-63,77.164],[-62.5,77.13341],[-62,77.10215],[-61.5,77.07022],[-61,77.03761],[-60.5,77.00433],[-60,76.97036],[-59.5,76.93571],[-59,76.90036],[-58.33913,77.11875]]}},{"type":"Feature","id":"+01160401:south:0","properties":{"id":"+01160401","year":116,"month":4,"day":1,"time_tdt":"00:47:48","type":"금환일식","type_code":"A","saros":60,"gamma":0.86063,"magnitude":0.98303,"greatest":{"lat":58.90162,"lng":177.8667},"path_width_km":117.7,"duration":"01m19s","delta_t_seconds":9396.7,"catalog_number":5061,"source":"NASA Five Millennium Canon of Solar Eclipses","source_url":"https://eclipse.gsfc.nasa.gov/SEsearch/SEsearchmap.php?Ecl=%2B01160401","boundary":"south","name":"116-04-01 금환일식"},"geometry":{"type":"LineString","coordinates":[[129.30664,41.09475],[129.5,41.10963],[130,41.14963],[130.5,41.19183],[131,41.23627],[131.5,41.28298],[132,41.33198],[132.5,41.38331],[133,41.437],[133.5,41.49308],[134,41.55158],[134.5,41.61253],[135,41.67596],[135.5,41.7419],[136,41.8104],[136.5,41.88148],[137,41.95517],[137.5,42.0315],[138,42.11053],[138.5,42.19226],[139,42.27675],[139.5,42.36403],[140,42.45412],[140.5,42.54707],[141,42.64291],[141.5,42.74168],[142,42.8434],[142.5,42.94813],[143,43.05588],[143.5,43.1667],[144,43.28062],[144.5,43.39768],[145,43.5179],[145.5,43.64133],[146,43.76799],[146.5,43.89792],[147,44.03115],[147.5,44.16771],[148,44.30763],[148.5,44.45094],[149,44.59766],[149.5,44.74783],[150,44.90146],[150.5,45.05858],[151,45.21922],[151.5,45.38338],[152,45.55109],[152.5,45.72236],[153,45.8972],[153.5,46.07562],[153.5,46.07563],[154,46.25764],[154.5,46.44325],[155,46.63245],[155.5,46.82523],[156,47.0216],[156.5,47.22154],[157,47.42503],[157.5,47.63206],[158,47.84259],[158.5,48.05661],[159,48.27407],[159.5,48.49494],[160,48.71917],[160.5,48.94671],[161,49.17751],[161.5,49.4115],[162,49.64862],[162.5,49.88879],[163,50.13194],[163.5,50.37798],[164,50.62681],[164.5,50.87835],[165,51.13248],[165.5,51.38911],[166,51.64812],[166.5,51.90939],[167,52.17279],[167.5,52.4382],[168,52.70549],[168.5,52.97452],[169,53.24514],[169.5,53.51723],[170,53.79062],[170.5,54.06517],[171,54.34074],[171.5,54.61716],[172,54.89429],[172.5,55.17197],[173,55.45004],[173,55.45005],[173.5,55.72837],[174,56.00679],[174.5,56.28515],[175,56.56309],[175,56.56331],[175.5,56.84112],[176,57.11843],[176.5,57.39511],[177,57.67102],[177.5,57.94603],[178,58.22],[178.5,58.49282],[179,58.76436],[179.5,59.03451],[180,59.30316]]}},{"type":"Feature","id":"+01160401:south:1","properties":{"id":"+01160401","year":116,"month":4,"day":1,"time_tdt":"00:47:48","type":"금환일식","type_code":"A","saros":60,"gamma":0.86063,"magnitude":0.98303,"greatest":{"lat":58.90162,"lng":177.8667},"path_width_km":117.7,"duration":"01m19s","delta_t_seconds":9396.7,"catalog_number":5061,"source":"NASA Five Millennium Canon of Solar Eclipses","source_url":"https://eclipse.gsfc.nasa.gov/SEsearch/SEsearchmap.php?Ecl=%2B01160401","boundary":"south","name":"116-04-01 금환일식"},"geometry":{"type":"LineString","coordinates":[[-179.5,59.5702],[-179,59.83554],[-178.5,60.09908],[-178,60.36073],[-177.5,60.6204],[-177,60.87802],[-176.5,61.13352],[-176,61.38683],[-175.5,61.63788],[-175,61.88661],[-174.5,62.13298],[-174,62.37693],[-173.5,62.61842],[-173,62.85741],[-172.5,63.09387],[-172.5,63.09386],[-172,63.32775],[-171.5,63.55905],[-171,63.78773],[-170.5,64.01378],[-170,64.23717],[-169.5,64.4579],[-169,64.67595],[-168.5,64.89133],[-168,65.10402],[-168,65.10401],[-167.5,65.31402],[-167,65.52134],[-166.5,65.72597],[-166,65.92793],[-165.5,66.12722],[-165,66.32386],[-164.5,66.51784],[-164,66.70919],[-163.5,66.89792],[-163,67.08405],[-162.5,67.26759],[-162,67.44856],[-161.5,67.62698],[-161,67.80287],[-160.5,67.97626],[-160,68.14715],[-159.5,68.31559],[-159,68.48158],[-158.5,68.64516],[-158,68.80634],[-157.5,68.96516],[-157,69.12164],[-156.5,69.2758],[-156,69.42766],[-155.5,69.57727],[-155,69.72463],[-154.5,69.86978],[-154,70.01275],[-153.5,70.15355],[-153,70.29222],[-152.5,70.42879],[-152,70.56327],[-151.5,70.6957],[-151,70.8261],[-150.5,70.9545],[-150,71.08092],[-149.5,71.20539],[-149,71.32793],[-148.5,71.44857],[-148,71.56734],[-147.5,71.68426],[-147,71.79936],[-146.5,71.91265],[-146,72.02417],[-145.5,72.13393],[-145,72.24197],[-144.5,72.3483],[-144,72.45294],[-143.5,72.55593],[-143,72.65728],[-142.5,72.75702],[-142,72.85516],[-141.5,72.95173],[-141,73.04675],[-140.5,73.14024],[-140,73.23222],[-139.5,73.32272],[-139,73.41174],[-138.5,73.49932],[-138,73.58547],[-137.5,73.67021],[-137,73.75356],[-136.5,73.83554],[-136,73.91616],[-135.5,73.99544],[-135,74.07341],[-134.5,74.15008],[-134,74.22546],[-133.5,74.29957],[-133,74.37244],[-132.5,74.44407],[-132,74.51448],[-131.5,74.58368],[-131,74.6517],[-130.5,74.71854],[-130,74.78423],[-129.5,74.84877],[-129,74.91218],[-128.5,74.97448],[-128,75.03568],[-127.5,75.09578],[-127,75.15481],[-126.5,75.21278],[-126,75.26969],[-125.5,75.32557],[-125,75.38043],[-124.5,75.43427],[-124,75.48711],[-123.5,75.53895],[-123,75.58982],[-122.5,75.63972],[-122,75.68866],[-121.5,75.73666],[-121,75.78372],[-120.5,75.82985],[-120,75.87507],[-119.5,75.91938],[-119,75.96279],[-118.5,76.00531],[-118,76.04695],[-117.5,76.08773],[-117,76.12764],[-116.5,76.1667],[-116,76.20491],[-115.5,76.24229],[-115,76.27884],[-114.5,76.31457],[-114,76.34948],[-113.5,76.38359],[-113,76.4169],[-112.5,76.44941],[-112,76.48115],[-111.5,76.5121],[-111,76.54228],[-110.5,76.5717],[-110,76.60036],[-109.5,76.62826],[-109,76.65542],[-108.5,76.68184],[-108,76.70752],[-107.5,76.73247],[-107,76.75669],[-106.5,76.7802],[-106,76.80299],[-105.5,76.82507],[-105,76.84645],[-104.5,76.86712],[-104,76.8871],[-103.5,76.90639],[-103,76.92499],[-102.5,76.9429],[-102,76.96014],[-101.5,76.9767],[-101,76.99258],[-100.5,77.0078],[-100,77.02235],[-99.5,77.03625],[-99.5,77.03624],[-99,77.04948],[-98.5,77.06205],[-98,77.07398],[-97.5,77.08525],[-97,77.09588],[-96.5,77.10586],[-96,77.11519],[-95.5,77.12389],[-95,77.13195],[-94.5,77.13938],[-94,77.14617],[-93.5,77.15233],[-93,77.15786],[-92.5,77.16276],[-92,77.16703],[-91.5,77.17068],[-91,77.17371],[-90.5,77.17611],[-90,77.17789],[-89.5,77.17905],[-89,77.17959],[-88.5,77.17951],[-88,77.17882],[-87.5,77.17751],[-87,77.17558],[-86.5,77.17303],[-86,77.16987],[-85.5,77.1661],[-85,77.16171],[-84.5,77.1567],[-84,77.15108],[-83.5,77.14484],[-83,77.13799],[-82.5,77.13052],[-82,77.12244],[-81.5,77.11374],[-81,77.10442],[-80.5,77.09449],[-80,77.08393],[-79.5,77.07276],[-79,77.06097],[-78.5,77.04855],[-78,77.03552],[-77.5,77.02186],[-77,77.00758],[-76.5,76.99267],[-76,76.97713],[-75.5,76.96097],[-75,76.94417],[-74.5,76.92674],[-74,76.90868],[-73.5,76.88999],[-73,76.87065],[-72.5,76.85068],[-72,76.83007],[-71.5,76.80881],[-71,76.78691],[-70.5,76.76436],[-70,76.74116],[-69.5,76.7173],[-69,76.6928],[-68.5,76.66763],[-68,76.6418],[-67.5,76.61532],[-67,76.58816],[-66.5,76.56034],[-66,76.53185],[-65.5,76.50268],[-65,76.47283],[-64.5,76.44231],[-64,76.4111],[-63.5,76.3792],[-63,76.34662],[-62.5,76.31334],[-62,76.27936],[-61.5,76.24469],[-61,76.20931],[-60.5,76.17322],[-60,76.13643],[-59.91797,76.13032]]}},{"type":"Feature","id":"+01160924:north:0","properties":{"id":"+01160924","year":116,"month":9,"day":24,"time_tdt":"04:27:28","type":"개기일식","type_code":"T","saros":65,"gamma":-0.895,"magnitude":1.02385,"greatest":{"lat":-58.62434,"lng":118.24243},"path_width_km":181.9,"duration":"01m39s","delta_t_seconds":9392,"catalog_number":5062,"source":"NASA Five Millennium Canon of Solar Eclipses","source_url":"https://eclipse.gsfc.nasa.gov/SEsearch/SEsearchmap.php?Ecl=%2B01160924","boundary":"north","name":"116-09-24 개기일식"},"geometry":{"type":"LineString","coordinates":[[72.625,-45.20431],[73,-45.20224],[72.5,-45.20526],[73.5,-45.20135],[74,-45.20263],[74.5,-45.20612],[75,-45.21183],[75.5,-45.2198],[76,-45.23006],[76,-45.23007],[76.5,-45.24265],[77,-45.25759],[77.5,-45.27492],[78,-45.29467],[78.5,-45.31687],[79,-45.34156],[79.5,-45.36878],[80,-45.39855],[80.5,-45.43091],[81,-45.4659],[81.5,-45.50356],[82,-45.54392],[82.5,-45.58701],[83,-45.63288],[83.5,-45.68157],[84,-45.73311],[84.5,-45.78753],[85,-45.84489],[85.5,-45.90521],[86,-45.96855],[86.5,-46.03492],[87,-46.10439],[87.5,-46.17698],[88,-46.25273],[88.5,-46.3317],[89,-46.4139],[89.5,-46.49939],[90,-46.58821],[90.5,-46.68038],[91,-46.77596],[91.5,-46.87498],[92,-46.97748],[92.5,-47.08349],[93,-47.19305],[93.5,-47.3062],[94,-47.42297],[94.5,-47.5434],[95,-47.66751],[95.5,-47.79534],[96,-47.92692],[96.5,-48.06227],[97,-48.20143],[97.5,-48.34441],[98,-48.49124],[98.5,-48.64193],[99,-48.79651],[99.5,-48.95499],[100,-49.11738],[100.5,-49.28369],[101,-49.45392],[101.5,-49.62807],[102,-49.80615],[102.5,-49.98815],[103,-50.17405],[103.5,-50.36385],[104,-50.55752],[104.5,-50.75504],[105,-50.95638],[105.5,-51.16152],[106,-51.3704],[106.5,-51.58299],[107,-51.79924],[107.5,-52.01909],[108,-52.24248],[108.5,-52.46935],[109,-52.69963],[109.5,-52.93323],[110,-53.17008],[110.5,-53.41008],[111,-53.65315],[111.5,-53.89918],[112,-54.14807],[112.5,-54.3997],[113,-54.65397],[113.5,-54.91075],[114,-55.16992],[114.5,-55.43135],[115,-55.69491],[115.5,-55.96046],[116,-56.22787],[116.5,-56.49699],[117,-56.76767],[117.5,-57.03979],[118,-57.31317],[118.5,-57.58768],[119,-57.86317],[119.5,-58.13949],[120,-58.41649],[120.5,-58.69402],[121,-58.97193],[121.5,-59.25008],[122,-59.52832],[122.5,-59.80651],[123,-60.0845],[123.5,-60.36217],[124,-60.63937],[124,-60.63938],[124.5,-60.91599],[125,-61.19187],[125.5,-61.46692],[126,-61.74099],[126.5,-62.01399],[127,-62.2858],[127.5,-62.5563],[128,-62.8254],[128.5,-63.09301],[129,-63.35901],[129.5,-63.62334],[130,-63.8859],[130.5,-64.14661],[131,-64.4054],[131.5,-64.6622],[132,-64.91694],[132.5,-65.16956],[133,-65.42],[133.5,-65.66821],[134,-65.91413],[134.5,-66.15774],[135,-66.39897],[135.5,-66.6378],[136,-66.87419],[136.5,-67.10811],[137,-67.33954],[137.5,-67.56844],[138,-67.79481],[138.5,-68.01861],[139,-68.23984],[139.5,-68.45849],[140,-68.67454],[140.5,-68.88799],[141,-69.09883],[141.5,-69.30707],[142,-69.51269],[142.5,-69.71571],[143,-69.91612],[143.5,-70.11394],[144,-70.30916],[144.5,-70.5018],[145,-70.69187],[145.5,-70.87938],[146,-71.06434],[146.5,-71.24676],[147,-71.42667],[147.5,-71.60408],[148,-71.779],[148.5,-71.95146],[149,-72.12147],[149.5,-72.28905],[150,-72.45422],[150.5,-72.61701],[151,-72.77744],[151.5,-72.93552],[152,-73.09129],[152.5,-73.24476],[153,-73.39596],[153.5,-73.54491],[154,-73.69164],[154.5,-73.83618],[155,-73.97853],[155.5,-74.11874],[156,-74.25683],[156.5,-74.39281],[156.5,-74.39282],[157,-74.52673],[157.5,-74.6586],[158,-74.78844],[158.5,-74.91629],[159,-75.04217],[159.5,-75.1661],[160,-75.28811],[160.5,-75.40822],[161,-75.52647],[161.5,-75.64287],[162,-75.75745],[162.5,-75.87023],[163,-75.98124],[163.5,-76.09051],[164,-76.19805],[164.5,-76.3039],[165,-76.40807],[165.5,-76.51059],[166,-76.61148],[166.5,-76.71077],[167,-76.80848],[167.5,-76.90462],[168,-76.99923],[168.5,-77.09233],[169,-77.18393],[169.5,-77.27407],[170,-77.36275],[170.5,-77.45],[171,-77.53585],[171.5,-77.62031],[172,-77.7034],[172.5,-77.78514],[173,-77.86556],[173.5,-77.94467],[174,-78.02249],[174.5,-78.09904],[175,-78.17434],[175.5,-78.2484],[176,-78.32125],[176.5,-78.3929],[177,-78.46337],[177.5,-78.53268],[178,-78.60084],[178.5,-78.66787],[179,-78.73379],[179.5,-78.7986],[180,-78.86234]]}},{"type":"Feature","id":"+01160924:north:1","properties":{"id":"+01160924","year":116,"month":9,"day":24,"time_tdt":"04:27:28","type":"개기일식","type_code":"T","saros":65,"gamma":-0.895,"magnitude":1.02385,"greatest":{"lat":-58.62434,"lng":118.24243},"path_width_km":181.9,"duration":"01m39s","delta_t_seconds":9392,"catalog_number":5062,"source":"NASA Five Millennium Canon of Solar Eclipses","source_url":"https://eclipse.gsfc.nasa.gov/SEsearch/SEsearchmap.php?Ecl=%2B01160924","boundary":"north","name":"116-09-24 개기일식"},"geometry":{"type":"LineString","coordinates":[[-179.5,-78.92501],[-179,-78.98663],[-178.5,-79.04721],[-178,-79.10678],[-178,-79.10677],[-177.5,-79.16533],[-177,-79.22289],[-176.5,-79.27947],[-176,-79.33509],[-175.5,-79.38975],[-175,-79.44348],[-174.5,-79.49627],[-174,-79.54816],[-173.5,-79.59914],[-173,-79.64924],[-172.5,-79.69846],[-172,-79.74681],[-171.5,-79.79431],[-171,-79.84097],[-170.5,-79.8868],[-170,-79.93181],[-169.5,-79.976],[-169,-80.0194],[-168.5,-80.06201],[-168,-80.10384],[-167.5,-80.1449],[-167,-80.18521],[-166.5,-80.22476],[-166,-80.26357],[-165.5,-80.30165],[-165,-80.339],[-164.5,-80.37565],[-164,-80.41158],[-163.5,-80.44682],[-163,-80.48137],[-162.5,-80.51524],[-162,-80.54843],[-161.5,-80.58096],[-161,-80.61283],[-160.5,-80.64405],[-160,-80.67463],[-159.5,-80.70456],[-159.5,-80.70457],[-159,-80.73387],[-158.5,-80.76256],[-158,-80.79062],[-157.5,-80.81808],[-157,-80.84493],[-156.5,-80.87118],[-156,-80.89684],[-155.5,-80.92191],[-155,-80.9464],[-154.5,-80.97032],[-154,-80.99366],[-153.5,-81.01644],[-153,-81.03866],[-152.5,-81.06033],[-152,-81.08144],[-151.5,-81.10201],[-151,-81.12203],[-150.5,-81.14152],[-150,-81.16048],[-149.5,-81.17891],[-149,-81.19681],[-148.5,-81.2142],[-148,-81.23106],[-147.5,-81.24742],[-147,-81.26326],[-146.5,-81.2786],[-146,-81.29344],[-145.5,-81.30778],[-145,-81.32162],[-144.5,-81.33497],[-144,-81.34784],[-143.5,-81.36021],[-143,-81.3721],[-142.5,-81.38351],[-142,-81.39444],[-141.5,-81.40489],[-141,-81.41487],[-140.5,-81.42438],[-140,-81.43341],[-139.5,-81.44198],[-139,-81.45009],[-138.5,-81.45773],[-138,-81.4649],[-137.5,-81.47162],[-137,-81.47788],[-136.5,-81.48368],[-136,-81.48903],[-135.5,-81.49392],[-135,-81.49835],[-134.5,-81.50234],[-132,-81.51551],[-134,-81.50587],[-132.5,-81.51377],[-133.5,-81.50895],[-133,-81.51159]]}},{"type":"Feature","id":"+01160924:center:0","properties":{"id":"+01160924","year":116,"month":9,"day":24,"time_tdt":"04:27:28","type":"개기일식","type_code":"T","saros":65,"gamma":-0.895,"magnitude":1.02385,"greatest":{"lat":-58.62434,"lng":118.24243},"path_width_km":181.9,"duration":"01m39s","delta_t_seconds":9392,"catalog_number":5062,"source":"NASA Five Millennium Canon of Solar Eclipses","source_url":"https://eclipse.gsfc.nasa.gov/SEsearch/SEsearchmap.php?Ecl=%2B01160924","boundary":"center","name":"116-09-24 개기일식"},"geometry":{"type":"LineString","coordinates":[[72.21435,-45.77163],[72.5,-45.77181],[73,-45.7735],[73.5,-45.77739],[74,-45.78352],[74.5,-45.79191],[75,-45.8026],[75.5,-45.81561],[76,-45.83098],[76.5,-45.84873],[77,-45.86892],[77.5,-45.89155],[78,-45.91668],[78.5,-45.94434],[79,-45.97455],[79.5,-46.00735],[80,-46.04279],[80.5,-46.08089],[81,-46.1217],[81.5,-46.16524],[82,-46.21156],[82.5,-46.26069],[83,-46.31268],[83.5,-46.36756],[84,-46.42537],[84.5,-46.48614],[85,-46.54992],[85.5,-46.61675],[86,-46.68667],[86.5,-46.75971],[87,-46.83591],[87.5,-46.91532],[88,-46.99798],[88.5,-47.08392],[89,-47.17318],[89.5,-47.26581],[90,-47.36184],[90.5,-47.4613],[91,-47.56425],[91.5,-47.67071],[92,-47.78072],[92.5,-47.89432],[93,-48.01154],[93.5,-48.13241],[94,-48.25698],[94.5,-48.38526],[95,-48.5173],[95.5,-48.65311],[96,-48.79273],[96.5,-48.93618],[97,-49.08347],[97.5,-49.23464],[98,-49.3897],[98.5,-49.54866],[99,-49.71154],[99.5,-49.87835],[100,-50.04909],[100.5,-50.22376],[101,-50.40236],[101.5,-50.58489],[102,-50.77135],[102.5,-50.9617],[103,-51.15595],[103.5,-51.35406],[104,-51.55601],[104.5,-51.76176],[105,-51.97128],[105.5,-52.18453],[106,-52.40146],[106.5,-52.62201],[107,-52.84613],[107.5,-53.07375],[108,-53.3048],[108.5,-53.5392],[109,-53.77687],[109.5,-54.01773],[110,-54.26168],[110.5,-54.50862],[111,-54.75844],[111.5,-55.01105],[112,-55.26632],[112.5,-55.52413],[113,-55.78436],[113.5,-56.04688],[114,-56.31157],[114.5,-56.57828],[115,-56.84687],[115.5,-57.1172],[116,-57.38914],[116.5,-57.66252],[117,-57.93721],[117.5,-58.21305],[118,-58.48989],[118.5,-58.76758],[119,-59.04598],[119.5,-59.32493],[120,-59.60427],[120.5,-59.88387],[121,-60.16358],[121.5,-60.44324],[122,-60.72272],[122.5,-61.00189],[123,-61.28059],[123.5,-61.5587],[124,-61.83609],[124.5,-62.11263],[125,-62.38821],[125.5,-62.66269],[126,-62.93597],[126.5,-63.20794],[127,-63.47848],[127.5,-63.74752],[128,-64.01493],[128.5,-64.28064],[129,-64.54456],[129.5,-64.80661],[130,-65.0667],[130.5,-65.32477],[131,-65.58075],[131.5,-65.83457],[132,-66.08617],[132.5,-66.3355],[133,-66.58251],[133.5,-66.82716],[134,-67.06939],[134.5,-67.30917],[135,-67.54646],[135.5,-67.78124],[136,-68.01348],[136.5,-68.24314],[137,-68.47021],[137.5,-68.69467],[138,-68.91651],[138.5,-69.13571],[139,-69.35226],[139.5,-69.56616],[140,-69.77739],[140.5,-69.98597],[141,-70.19188],[141.5,-70.39513],[142,-70.59572],[142.5,-70.79366],[143,-70.98896],[143.5,-71.18162],[144,-71.37166],[144.5,-71.55908],[145,-71.74391],[145.5,-71.92615],[146,-72.10583],[146.5,-72.28295],[147,-72.45754],[147.5,-72.62962],[148,-72.7992],[148.5,-72.96631],[149,-73.13097],[149.5,-73.2932],[150,-73.45302],[150.5,-73.61046],[151,-73.76554],[151.5,-73.91828],[152,-74.06872],[152.5,-74.21686],[153,-74.36275],[153.5,-74.50641],[154,-74.64786],[154.5,-74.78712],[155,-74.92423],[155.5,-75.05921],[156,-75.19209],[156.5,-75.32289],[157,-75.45164],[157.5,-75.57837],[158,-75.7031],[158.5,-75.82586],[159,-75.94668],[159.5,-76.06558],[160,-76.18259],[160.5,-76.29774],[161,-76.41104],[161.5,-76.52253],[162,-76.63224],[162.5,-76.74018],[163,-76.84639],[163.5,-76.95088],[164,-77.05369],[164.5,-77.15483],[165,-77.25433],[165,-77.25434],[165.5,-77.35223],[166,-77.44853],[166.5,-77.54326],[167,-77.63645],[167.5,-77.72812],[168,-77.81829],[168.5,-77.90699],[169,-77.99423],[169.5,-78.08004],[170,-78.16444],[170.5,-78.24746],[171,-78.3291],[171.5,-78.4094],[172,-78.48837],[172.5,-78.56604],[173,-78.64241],[173.5,-78.71752],[174,-78.79138],[174.5,-78.86402],[175,-78.93544],[175.5,-79.00566],[176,-79.07472],[176.5,-79.14261],[177,-79.20937],[177.5,-79.275],[178,-79.33953],[178.5,-79.40296],[179,-79.46533],[179.5,-79.52663],[180,-79.5869]]}},{"type":"Feature","id":"+01160924:center:1","properties":{"id":"+01160924","year":116,"month":9,"day":24,"time_tdt":"04:27:28","type":"개기일식","type_code":"T","saros":65,"gamma":-0.895,"magnitude":1.02385,"greatest":{"lat":-58.62434,"lng":118.24243},"path_width_km":181.9,"duration":"01m39s","delta_t_seconds":9392,"catalog_number":5062,"source":"NASA Five Millennium Canon of Solar Eclipses","source_url":"https://eclipse.gsfc.nasa.gov/SEsearch/SEsearchmap.php?Ecl=%2B01160924","boundary":"center","name":"116-09-24 개기일식"},"geometry":{"type":"LineString","coordinates":[[-179.5,-79.64613],[-179,-79.70436],[-178.5,-79.76159],[-178,-79.81783],[-177.5,-79.87311],[-177,-79.92744],[-176.5,-79.98082],[-176,-80.03328],[-175.5,-80.08482],[-175,-80.13547],[-174.5,-80.18522],[-174,-80.2341],[-173.5,-80.28212],[-173,-80.32928],[-172.5,-80.37561],[-172,-80.42111],[-171.5,-80.46579],[-171,-80.50967],[-170.5,-80.55275],[-170,-80.59504],[-169.5,-80.63657],[-169,-80.67733],[-168.5,-80.71733],[-168,-80.7566],[-167.5,-80.79513],[-167,-80.83293],[-166.5,-80.87002],[-166,-80.9064],[-165.5,-80.94208],[-165,-80.97708],[-164.5,-81.01139],[-164,-81.04504],[-164,-81.04503],[-163.5,-81.07801],[-163,-81.11033],[-162.5,-81.142],[-162,-81.17303],[-161.5,-81.20343],[-161,-81.2332],[-160.5,-81.26235],[-160,-81.29089],[-159.5,-81.31882],[-159,-81.34615],[-158.5,-81.37289],[-158,-81.39904],[-157.5,-81.42461],[-157,-81.4496],[-156.5,-81.47403],[-156,-81.49789],[-155.5,-81.5212],[-155,-81.54395],[-154.5,-81.56616],[-154,-81.58782],[-153.5,-81.60895],[-153,-81.62954],[-152.5,-81.64961],[-152,-81.66915],[-151.5,-81.68818],[-151,-81.70669],[-150.5,-81.72469],[-150,-81.74219],[-149.5,-81.75918],[-149,-81.77568],[-148.5,-81.79168],[-148,-81.80719],[-147.5,-81.82222],[-147,-81.83676],[-146.5,-81.85082],[-146,-81.8644],[-145.5,-81.87751],[-145,-81.89015],[-144.5,-81.90232],[-144,-81.91403],[-143.5,-81.92527],[-143,-81.93605],[-142.5,-81.94638],[-142,-81.95625],[-141.5,-81.96566],[-141,-81.97463],[-140.5,-81.98315],[-140,-81.99122],[-139.5,-81.99884],[-139,-82.00603],[-138.5,-82.01277],[-138,-82.01907],[-137.5,-82.02493],[-137,-82.03036],[-136.5,-82.03535],[-136,-82.0399],[-135.5,-82.04403],[-135,-82.04772],[-134.5,-82.05098],[-134,-82.05381],[-133.5,-82.05621],[-133,-82.05818],[-132.5,-82.05972],[-132,-82.06084],[-131.5,-82.06152],[-131.42881,-82.04394]]}},{"type":"Feature","id":"+01160924:south:0","properties":{"id":"+01160924","year":116,"month":9,"day":24,"time_tdt":"04:27:28","type":"개기일식","type_code":"T","saros":65,"gamma":-0.895,"magnitude":1.02385,"greatest":{"lat":-58.62434,"lng":118.24243},"path_width_km":181.9,"duration":"01m39s","delta_t_seconds":9392,"catalog_number":5062,"source":"NASA Five Millennium Canon of Solar Eclipses","source_url":"https://eclipse.gsfc.nasa.gov/SEsearch/SEsearchmap.php?Ecl=%2B01160924","boundary":"south","name":"116-09-24 개기일식"},"geometry":{"type":"LineString","coordinates":[[71.97852,-46.34905],[72,-46.34919],[72.5,-46.35353],[73,-46.36012],[73.5,-46.36897],[74,-46.38013],[74.5,-46.39362],[75,-46.40947],[75.5,-46.42771],[76,-46.44839],[76.5,-46.47152],[77,-46.49716],[77.5,-46.52532],[78,-46.55604],[78.5,-46.58936],[79,-46.62532],[79.5,-46.66395],[80,-46.70529],[80.5,-46.74936],[81,-46.79622],[81.5,-46.8459],[82,-46.89844],[82.5,-46.95387],[83,-47.01223],[83.5,-47.07356],[84,-47.13791],[84.5,-47.2053],[85,-47.27579],[85.5,-47.3494],[86,-47.42619],[86.5,-47.50618],[87,-47.58942],[87.5,-47.67595],[88,-47.76581],[88.5,-47.85904],[89,-47.95567],[89.5,-48.05574],[90,-48.1593],[90.5,-48.26638],[91,-48.37702],[91.5,-48.49124],[92,-48.6091],[92.5,-48.73062],[93,-48.85583],[93.5,-48.98477],[94,-49.11747],[94.5,-49.25395],[95,-49.39425],[95.5,-49.53838],[96,-49.68637],[96.5,-49.83825],[97,-49.99403],[97.5,-50.15372],[98,-50.31734],[98.5,-50.4849],[99,-50.65641],[99.5,-50.83186],[100,-51.01127],[100.5,-51.19462],[101,-51.3819],[101.5,-51.57311],[102,-51.76823],[102.5,-51.96723],[103,-52.17009],[103.5,-52.37678],[104,-52.58726],[104.5,-52.8015],[105,-53.01943],[105.5,-53.24102],[106,-53.4662],[106.5,-53.69491],[107,-53.92708],[107.5,-54.16263],[108,-54.40149],[108.5,-54.64356],[109,-54.88875],[109.5,-55.13696],[110,-55.3881],[110.5,-55.64205],[111,-55.89869],[111.5,-56.15791],[112,-56.41959],[112.5,-56.68359],[113,-56.94978],[113.5,-57.21802],[114,-57.48818],[114.5,-57.76012],[115,-58.03368],[115.5,-58.30872],[116,-58.58509],[116.5,-58.86264],[117,-59.14122],[117.5,-59.42066],[118,-59.70083],[118.5,-59.98157],[119,-60.26272],[119.5,-60.54414],[120,-60.82567],[120.5,-61.10717],[121,-61.3885],[121.5,-61.6695],[122,-61.95005],[122.5,-62.23],[123,-62.50922],[123.5,-62.78759],[124,-63.06498],[124.5,-63.34126],[125,-63.61632],[125.5,-63.89005],[126,-64.16234],[126.5,-64.43308],[127,-64.70218],[127.5,-64.96955],[127.5,-64.96954],[128,-65.23508],[128.5,-65.49871],[129,-65.76035],[129.5,-66.01992],[130,-66.27736],[130.5,-66.5326],[130.5,-66.53259],[131,-66.78557],[131.5,-67.03622],[132,-67.2845],[132.5,-67.53036],[133,-67.77375],[133.5,-68.01464],[134,-68.25299],[134.5,-68.48876],[135,-68.72193],[135.5,-68.95246],[136,-69.18035],[136.5,-69.40556],[137,-69.62809],[137.5,-69.84792],[138,-70.06503],[138.5,-70.27943],[139,-70.49111],[139.5,-70.70006],[140,-70.90628],[140.5,-71.10978],[141,-71.31056],[141.5,-71.50863],[142,-71.70399],[142.5,-71.89665],[143,-72.08663],[143.5,-72.27393],[144,-72.45858],[144.5,-72.64058],[145,-72.81996],[145.5,-72.99673],[146,-73.17091],[146.5,-73.34252],[147,-73.51158],[147.5,-73.67812],[148,-73.84215],[148.5,-74.0037],[149,-74.1628],[149.5,-74.31946],[150,-74.47372],[150.5,-74.6256],[151,-74.77512],[151.5,-74.92232],[152,-75.06721],[152.5,-75.20983],[153,-75.3502],[153.5,-75.48835],[154,-75.62431],[154.5,-75.7581],[155,-75.88976],[155.5,-76.01931],[156,-76.14677],[156.5,-76.27219],[157,-76.39558],[157.5,-76.51697],[158,-76.63639],[158.5,-76.75387],[159,-76.86944],[159.5,-76.98312],[160,-77.09494],[160.5,-77.20493],[161,-77.31311],[161.5,-77.41951],[161.5,-77.41952],[162,-77.52416],[162.5,-77.62709],[163,-77.72831],[163.5,-77.82786],[164,-77.92576],[164.5,-78.02203],[165,-78.1167],[165,-78.11671],[165.5,-78.2098],[166,-78.30135],[166.5,-78.39137],[167,-78.47989],[167.5,-78.56693],[168,-78.65252],[168,-78.65251],[168.5,-78.73666],[169,-78.8194],[169.5,-78.90075],[170,-78.98073],[170.5,-79.05936],[171,-79.13667],[171.5,-79.21267],[172,-79.2874],[172.5,-79.36085],[173,-79.43306],[173.5,-79.50405],[174,-79.57383],[174,-79.57384],[174.5,-79.64243],[175,-79.70986],[175.5,-79.77614],[176,-79.84129],[176.5,-79.90532],[177,-79.96826],[177.5,-80.03011],[178,-80.09091],[178.5,-80.15065],[179,-80.20937],[179.5,-80.26707],[180,-80.32377]]}},{"type":"Feature","id":"+01160924:south:1","properties":{"id":"+01160924","year":116,"month":9,"day":24,"time_tdt":"04:27:28","type":"개기일식","type_code":"T","saros":65,"gamma":-0.895,"magnitude":1.02385,"greatest":{"lat":-58.62434,"lng":118.24243},"path_width_km":181.9,"duration":"01m39s","delta_t_seconds":9392,"catalog_number":5062,"source":"NASA Five Millennium Canon of Solar Eclipses","source_url":"https://eclipse.gsfc.nasa.gov/SEsearch/SEsearchmap.php?Ecl=%2B01160924","boundary":"south","name":"116-09-24 개기일식"},"geometry":{"type":"LineString","coordinates":[[-179.5,-80.37948],[-179,-80.43423],[-178.5,-80.48802],[-178,-80.54087],[-177.5,-80.5928],[-177,-80.64381],[-176.5,-80.69392],[-176,-80.74315],[-175.5,-80.7915],[-175,-80.839],[-174.5,-80.88565],[-174,-80.93146],[-173.5,-80.97644],[-173,-81.02062],[-172.5,-81.06399],[-172.5,-81.064],[-172,-81.10658],[-171.5,-81.14839],[-171,-81.18943],[-170.5,-81.22972],[-170,-81.26926],[-169.5,-81.30806],[-169,-81.34614],[-168.5,-81.3835],[-168,-81.42015],[-167.5,-81.45611],[-167,-81.49138],[-166.5,-81.52597],[-166,-81.55989],[-165.5,-81.59314],[-165,-81.62575],[-164.5,-81.6577],[-164,-81.68902],[-163.5,-81.71971],[-163,-81.74978],[-162.5,-81.77923],[-162,-81.80808],[-161.5,-81.83632],[-161,-81.86397],[-160.5,-81.89104],[-160,-81.91752],[-159.5,-81.94343],[-159,-81.96877],[-158.5,-81.99356],[-158,-82.01778],[-157.5,-82.04146],[-157,-82.06459],[-156.5,-82.08719],[-156,-82.10925],[-155.5,-82.13079],[-155,-82.1518],[-154.5,-82.1723],[-154,-82.19228],[-153.5,-82.21176],[-153,-82.23073],[-152.5,-82.24921],[-152,-82.26719],[-151.5,-82.28468],[-151,-82.30169],[-150.5,-82.31821],[-150,-82.33426],[-149.5,-82.34983],[-149,-82.36493],[-148.5,-82.37957],[-148,-82.39374],[-147.5,-82.40745],[-147,-82.42071],[-146.5,-82.43351],[-146,-82.44586],[-145.5,-82.45776],[-145,-82.46922],[-144.5,-82.48024],[-144,-82.49081],[-143.5,-82.50095],[-143,-82.51066],[-142.5,-82.51993],[-142,-82.52877],[-141.5,-82.53718],[-141,-82.54517],[-140.5,-82.55273],[-140,-82.55987],[-139.5,-82.56659],[-139,-82.57288],[-138.5,-82.57876],[-138,-82.58423],[-137.5,-82.58928],[-137,-82.59392],[-136.5,-82.59814],[-136,-82.60195],[-135.5,-82.60535],[-135,-82.60834],[-134.5,-82.61093],[-134,-82.6131],[-133.5,-82.61487],[-133,-82.61623],[-132.5,-82.61718],[-132,-82.61773],[-131.5,-82.61787],[-131.5,-82.61788],[-132.5,-82.61712]]}}],"attribution":"Eclipse Predictions by Fred Espenak and Jean Meeus (NASA's GSFC)","generated_at":"2026-09-23T01:44:45.142Z"}
