{"type":"FeatureCollection","year":1165,"events":[{"id":"+11650512","year":1165,"month":5,"day":12,"time_tdt":"00:33:05","type":"금환일식","type_code":"A","saros":95,"gamma":-0.93491,"magnitude":0.99456,"greatest":{"lat":-46.00576,"lng":-160.38531},"path_width_km":53.4,"duration":"00m28s","delta_t_seconds":836.7,"catalog_number":7527,"source":"NASA Five Millennium Canon of Solar Eclipses","source_url":"https://eclipse.gsfc.nasa.gov/SEsearch/SEsearchmap.php?Ecl=%2B11650512"},{"id":"+11651105","year":1165,"month":11,"day":5,"time_tdt":"19:19:17","type":"금환일식","type_code":"A","saros":100,"gamma":0.73789,"magnitude":0.95443,"greatest":{"lat":26.73748,"lng":-92.5705},"path_width_km":241.6,"duration":"04m55s","delta_t_seconds":835.1,"catalog_number":7528,"source":"NASA Five Millennium Canon of Solar Eclipses","source_url":"https://eclipse.gsfc.nasa.gov/SEsearch/SEsearchmap.php?Ecl=%2B11651105"}],"features":[{"type":"Feature","id":"+11650512:north:0","properties":{"id":"+11650512","year":1165,"month":5,"day":12,"time_tdt":"00:33:05","type":"금환일식","type_code":"A","saros":95,"gamma":-0.93491,"magnitude":0.99456,"greatest":{"lat":-46.00576,"lng":-160.38531},"path_width_km":53.4,"duration":"00m28s","delta_t_seconds":836.7,"catalog_number":7527,"source":"NASA Five Millennium Canon of Solar Eclipses","source_url":"https://eclipse.gsfc.nasa.gov/SEsearch/SEsearchmap.php?Ecl=%2B11650512","boundary":"north","name":"1165-05-12 금환일식"},"geometry":{"type":"LineString","coordinates":[[177.84375,-70.25983],[178,-69.80072],[178.5,-68.55806],[179,-67.5051],[179.5,-66.55929],[180,-65.68464]]}},{"type":"Feature","id":"+11650512:north:1","properties":{"id":"+11650512","year":1165,"month":5,"day":12,"time_tdt":"00:33:05","type":"금환일식","type_code":"A","saros":95,"gamma":-0.93491,"magnitude":0.99456,"greatest":{"lat":-46.00576,"lng":-160.38531},"path_width_km":53.4,"duration":"00m28s","delta_t_seconds":836.7,"catalog_number":7527,"source":"NASA Five Millennium Canon of Solar Eclipses","source_url":"https://eclipse.gsfc.nasa.gov/SEsearch/SEsearchmap.php?Ecl=%2B11650512","boundary":"north","name":"1165-05-12 금환일식"},"geometry":{"type":"LineString","coordinates":[[-179.5,-64.86172],[-179,-64.0787],[-178.5,-63.3278],[-178,-62.60362],[-177.5,-61.90227],[-177,-61.22085],[-176.5,-60.5572],[-176,-59.90963],[-175.5,-59.27686],[-175,-58.65788],[-174.5,-58.05191],[-174,-57.45835],[-173.5,-56.87674],[-173,-56.30673],[-172.5,-55.74808],[-172,-55.20062],[-171.5,-54.66423],[-171,-54.13886],[-170.5,-53.62451],[-170,-53.12118],[-169.5,-52.62895],[-169,-52.14787],[-168.5,-51.67803],[-168,-51.21954],[-167.5,-50.77251],[-167,-50.33704],[-166.5,-49.91324],[-166,-49.50123],[-165.5,-49.10109],[-165,-48.71293],[-164.5,-48.33682],[-164,-47.97284],[-163.5,-47.62104],[-163,-47.28145],[-162.5,-46.95412],[-162,-46.63903],[-161.5,-46.3362],[-161,-46.04559],[-160.5,-45.76717],[-160,-45.50087],[-159.5,-45.24663],[-159,-45.00437],[-158.5,-44.77397],[-158,-44.55533],[-157.5,-44.34833],[-157,-44.15282],[-156.5,-43.96865],[-156,-43.79567],[-155.5,-43.63372],[-155,-43.48261],[-154.5,-43.34218],[-154,-43.21223],[-153.5,-43.09257],[-153,-42.98302],[-152.5,-42.88337],[-152,-42.79342],[-151.5,-42.71298],[-151,-42.64185],[-150.5,-42.57982],[-150,-42.5267],[-149.5,-42.48229],[-149,-42.44638],[-148.5,-42.41878],[-148,-42.39931],[-147.5,-42.38776],[-147,-42.38396],[-146.5,-42.38771],[-146,-42.39883],[-145.5,-42.41715],[-145,-42.44249],[-144.5,-42.47468],[-144,-42.51355],[-143.5,-42.55894],[-143,-42.61069],[-142.5,-42.66865],[-142,-42.73266],[-141.5,-42.80258],[-141,-42.87826],[-140.5,-42.95956],[-140,-43.04635],[-139.5,-43.1385],[-139,-43.23587],[-138.5,-43.33835],[-138,-43.44582],[-137.5,-43.55815],[-137,-43.67524],[-136.5,-43.79697],[-136,-43.92324],[-135.5,-44.05395],[-135,-44.189],[-134.5,-44.32829],[-134,-44.47173],[-133.5,-44.61922],[-133,-44.77069],[-132.5,-44.92605],[-132,-45.08522],[-131.5,-45.24812],[-131,-45.41467],[-130.5,-45.58481],[-130,-45.75846],[-129.5,-45.93555],[-129,-46.11603],[-128.5,-46.29983],[-128.05664,-46.46553]]}},{"type":"Feature","id":"+11650512:center:0","properties":{"id":"+11650512","year":1165,"month":5,"day":12,"time_tdt":"00:33:05","type":"금환일식","type_code":"A","saros":95,"gamma":-0.93491,"magnitude":0.99456,"greatest":{"lat":-46.00576,"lng":-160.38531},"path_width_km":53.4,"duration":"00m28s","delta_t_seconds":836.7,"catalog_number":7527,"source":"NASA Five Millennium Canon of Solar Eclipses","source_url":"https://eclipse.gsfc.nasa.gov/SEsearch/SEsearchmap.php?Ecl=%2B11650512","boundary":"center","name":"1165-05-12 금환일식"},"geometry":{"type":"LineString","coordinates":[[179.5,-68.78771],[180,-67.50744]]}},{"type":"Feature","id":"+11650512:center:1","properties":{"id":"+11650512","year":1165,"month":5,"day":12,"time_tdt":"00:33:05","type":"금환일식","type_code":"A","saros":95,"gamma":-0.93491,"magnitude":0.99456,"greatest":{"lat":-46.00576,"lng":-160.38531},"path_width_km":53.4,"duration":"00m28s","delta_t_seconds":836.7,"catalog_number":7527,"source":"NASA Five Millennium Canon of Solar Eclipses","source_url":"https://eclipse.gsfc.nasa.gov/SEsearch/SEsearchmap.php?Ecl=%2B11650512","boundary":"center","name":"1165-05-12 금환일식"},"geometry":{"type":"LineString","coordinates":[[-179.5,-66.42918],[-179,-65.46427],[-178.5,-64.57456],[-178,-63.73963],[-177.5,-62.94708],[-177,-62.1888],[-176.5,-61.45917],[-176,-60.75416],[-175.5,-60.07079],[-175,-59.40682],[-174.5,-58.76052],[-174,-58.13057],[-173.5,-57.51595],[-173,-56.91586],[-172.5,-56.32968],[-172,-55.75695],[-171.5,-55.19731],[-171,-54.65049],[-170.5,-54.11631],[-170,-53.59465],[-169.5,-53.08543],[-169,-52.58862],[-168.5,-52.1042],[-168,-51.63219],[-167.5,-51.17263],[-167,-50.72557],[-166.5,-50.29104],[-166,-49.86912],[-165.5,-49.45984],[-165,-49.06326],[-164.5,-48.67942],[-164,-48.30835],[-163.5,-47.95008],[-163,-47.60461],[-162.5,-47.27193],[-162,-46.95204],[-161.5,-46.64489],[-161,-46.35044],[-160.5,-46.06862],[-160,-45.79936],[-159.5,-45.54256],[-159,-45.29812],[-158.5,-45.06592],[-158,-44.84582],[-157.5,-44.63769],[-157,-44.44136],[-156.5,-44.25668],[-156,-44.08348],[-155.5,-43.92156],[-155,-43.77075],[-154.5,-43.63086],[-154,-43.50168],[-153.5,-43.38302],[-153,-43.27467],[-152.5,-43.17642],[-152,-43.08807],[-151.5,-43.00941],[-151,-42.94023],[-150.5,-42.88032],[-150,-42.82947],[-149.5,-42.78748],[-149,-42.75414],[-148.5,-42.72926],[-148,-42.71263],[-147.5,-42.70405],[-147,-42.70334],[-146.5,-42.7103],[-146,-42.72474],[-145.5,-42.7465],[-145,-42.77537],[-144.5,-42.8112],[-144,-42.85382],[-143.5,-42.90305],[-143,-42.95873],[-142.5,-43.02071],[-142,-43.08883],[-141.5,-43.16294],[-141,-43.2429],[-140.5,-43.32857],[-140,-43.41981],[-139.5,-43.51648],[-139,-43.61846],[-138.5,-43.72563],[-138,-43.83786],[-137.5,-43.95503],[-137,-44.07703],[-136.5,-44.20375],[-136,-44.33509],[-135.5,-44.47094],[-135,-44.6112],[-134.5,-44.75578],[-134,-44.90459],[-133.5,-45.05753],[-133,-45.21452],[-132.5,-45.37547],[-132,-45.54031],[-131.5,-45.70897],[-131,-45.88135],[-130.5,-46.0574],[-130,-46.23705],[-129.5,-46.42023],[-129,-46.60687],[-128.5,-46.79692],[-128.21142,-46.85544]]}},{"type":"Feature","id":"+11650512:south:0","properties":{"id":"+11650512","year":1165,"month":5,"day":12,"time_tdt":"00:33:05","type":"금환일식","type_code":"A","saros":95,"gamma":-0.93491,"magnitude":0.99456,"greatest":{"lat":-46.00576,"lng":-160.38531},"path_width_km":53.4,"duration":"00m28s","delta_t_seconds":836.7,"catalog_number":7527,"source":"NASA Five Millennium Canon of Solar Eclipses","source_url":"https://eclipse.gsfc.nasa.gov/SEsearch/SEsearchmap.php?Ecl=%2B11650512","boundary":"south","name":"1165-05-12 금환일식"},"geometry":{"type":"LineString","coordinates":[[-179.67188,-70.32692],[-179.5,-69.29318],[-179,-67.56018],[-178.5,-66.29867],[-178,-65.22557],[-177.5,-64.26205],[-177,-63.37279],[-176.5,-62.53842],[-176,-61.74706],[-175.5,-60.99088],[-175,-60.26441],[-174.5,-59.56373],[-174,-58.88592],[-173.5,-58.22878],[-173,-57.59064],[-172.5,-56.97019],[-172,-56.36643],[-171.5,-55.77857],[-171,-55.206],[-170.5,-54.64825],[-170,-54.10497],[-169.5,-53.57587],[-169,-53.06075],[-168.5,-52.55947],[-168,-52.07191],[-167.5,-51.59802],[-167,-51.13772],[-166.5,-50.69101],[-166,-50.25786],[-165.5,-49.83825],[-165,-49.43218],[-164.5,-49.03964],[-164,-48.66061],[-163.5,-48.29506],[-163,-47.94298],[-162.5,-47.60431],[-162,-47.279],[-161.5,-46.967],[-161,-46.66821],[-160.5,-46.38255],[-160,-46.10991],[-159.5,-45.85018],[-159,-45.60323],[-158.5,-45.36892],[-158,-45.14708],[-157.5,-44.93757],[-157,-44.74021],[-156.5,-44.55481],[-156,-44.38119],[-155.5,-44.21915],[-155,-44.0685],[-154.5,-43.92902],[-154,-43.8005],[-153.5,-43.68273],[-153,-43.57551],[-152.5,-43.4786],[-152,-43.39178],[-151.5,-43.31486],[-151,-43.24759],[-150.5,-43.18977],[-150,-43.14119],[-149.5,-43.10162],[-149,-43.07086],[-148.5,-43.0487],[-148,-43.03493],[-147.5,-43.02936],[-147,-43.03177],[-146.5,-43.04199],[-146,-43.05982],[-145.5,-43.08507],[-145,-43.11755],[-144.5,-43.1571],[-144,-43.20354],[-143.5,-43.2567],[-143,-43.31641],[-142.5,-43.38251],[-142,-43.45486],[-141.5,-43.53329],[-141,-43.61766],[-140.5,-43.70782],[-140,-43.80365],[-139.5,-43.905],[-139,-44.01174],[-138.5,-44.12375],[-138,-44.24091],[-137.5,-44.3631],[-137,-44.4902],[-136.5,-44.62211],[-136,-44.75872],[-135.5,-44.89992],[-135,-45.04562],[-134.5,-45.19572],[-134,-45.35014],[-133.5,-45.50877],[-133,-45.67154],[-132.5,-45.83836],[-132,-46.00915],[-131.5,-46.18385],[-131,-46.36237],[-130.5,-46.54465],[-130,-46.73062],[-129.5,-46.92022],[-129,-47.11338],[-128.5,-47.31005]]}},{"type":"Feature","id":"+11651105:north:0","properties":{"id":"+11651105","year":1165,"month":11,"day":5,"time_tdt":"19:19:17","type":"금환일식","type_code":"A","saros":100,"gamma":0.73789,"magnitude":0.95443,"greatest":{"lat":26.73748,"lng":-92.5705},"path_width_km":241.6,"duration":"04m55s","delta_t_seconds":835.1,"catalog_number":7528,"source":"NASA Five Millennium Canon of Solar Eclipses","source_url":"https://eclipse.gsfc.nasa.gov/SEsearch/SEsearchmap.php?Ecl=%2B11651105","boundary":"north","name":"1165-11-05 금환일식"},"geometry":{"type":"LineString","coordinates":[[-140,63.60176],[-139.5,63.38102],[-139,63.15731],[-138.5,62.93062],[-138,62.70091],[-137.5,62.46813],[-137,62.23227],[-136.5,61.99327],[-136,61.75112],[-135.5,61.50576],[-135,61.25717],[-134.5,61.00532],[-134,60.75015],[-133.5,60.49164],[-133,60.22975],[-132.5,59.96445],[-132,59.69569],[-131.5,59.42344],[-131,59.14767],[-130.5,58.86833],[-130,58.58538],[-129.5,58.2988],[-129,58.00854],[-128.5,57.71457],[-128,57.41685],[-127.5,57.11534],[-127,56.81],[-126.5,56.5008],[-126,56.18771],[-125.5,55.87068],[-125,55.54968],[-124.5,55.22468],[-124,54.89564],[-123.5,54.56253],[-123,54.22532],[-122.5,53.88397],[-122,53.53846],[-121.5,53.18876],[-121,52.83483],[-120.5,52.47666],[-120,52.11422],[-119.5,51.74749],[-119,51.37646],[-118.5,51.0011],[-118,50.6214],[-117.5,50.23735],[-117,49.84895],[-116.5,49.4562],[-116,49.0591],[-115.5,48.65766],[-115,48.25189],[-114.5,47.84181],[-114,47.42746],[-113.5,47.00885],[-113,46.58605],[-112.5,46.15909],[-112,45.72804],[-111.5,45.29297],[-111,44.85396],[-110.5,44.41111],[-110,43.96452],[-109.5,43.51431],[-109,43.06063],[-108.5,42.60361],[-108,42.14344],[-107.5,41.68029],[-107,41.21437],[-106.5,40.7459],[-106,40.27513],[-105.5,39.80233],[-105,39.32777],[-104.5,38.85178],[-104,38.37467],[-103.5,37.89681],[-103,37.41857],[-102.5,36.94035],[-102,36.46256],[-101.5,35.98566],[-101,35.51009],[-100.5,35.03633],[-100,34.56488],[-99.5,34.09624],[-99,33.63093],[-98.5,33.16947],[-98,32.71239],[-97.5,32.26021],[-97,31.81348],[-96.5,31.3727],[-96,30.93838],[-95.5,30.51103],[-95,30.09113],[-94.5,29.67913],[-94,29.27547],[-93.5,28.88055],[-93,28.49477],[-92.5,28.11846],[-92,27.75195],[-91.5,27.39551],[-91,27.04939],[-90.5,26.7138],[-90,26.38893],[-89.5,26.0749],[-89,25.77184],[-88.5,25.47982],[-88,25.19888],[-87.5,24.92903],[-87,24.67028],[-86.5,24.42257],[-86,24.18585],[-85.5,23.96004],[-85,23.74504],[-84.5,23.54071],[-84,23.34694],[-83.5,23.16358],[-83,22.99045],[-82.5,22.8274],[-82,22.67424],[-81.5,22.5308],[-81,22.39687],[-80.5,22.27226],[-80,22.15679],[-79.5,22.05023],[-79,21.9524],[-78.5,21.8631],[-78,21.78211],[-77.5,21.70924],[-77,21.6443],[-76.5,21.58708],[-76,21.53738],[-75.5,21.49503],[-75,21.45983],[-74.5,21.43159],[-74,21.41014],[-73.5,21.39529],[-73,21.38687],[-72.5,21.38471],[-72,21.38865],[-71.5,21.39852],[-71,21.41416],[-70.5,21.43542],[-70,21.46216],[-69.5,21.49421],[-69,21.53145],[-68.5,21.57372],[-68,21.62091],[-67.5,21.67287],[-67,21.72948],[-66.5,21.79061],[-66,21.85615],[-65.5,21.92598],[-65,21.99998],[-64.5,22.07804],[-64,22.16006],[-63.5,22.24594],[-63,22.33556],[-62.5,22.42884],[-62,22.52568],[-61.5,22.62598],[-61,22.72965],[-60.5,22.83662],[-60,22.94678],[-59.5,23.06007],[-59,23.17639],[-58.5,23.29568],[-58,23.41785],[-57.5,23.54284],[-57,23.67057],[-56.5,23.80096],[-56,23.93396],[-55.5,24.0695],[-55,24.20751],[-54.5,24.34794],[-54,24.49071],[-53.5,24.63577],[-53,24.78307],[-52.5,24.93255],[-52,25.08415],[-51.5,25.23783],[-51,25.39352],[-50.5,25.55118],[-50,25.71076],[-49.5,25.87222],[-49,26.0355],[-48.5,26.20056],[-48,26.36736]]}},{"type":"Feature","id":"+11651105:center:0","properties":{"id":"+11651105","year":1165,"month":11,"day":5,"time_tdt":"19:19:17","type":"금환일식","type_code":"A","saros":100,"gamma":0.73789,"magnitude":0.95443,"greatest":{"lat":26.73748,"lng":-92.5705},"path_width_km":241.6,"duration":"04m55s","delta_t_seconds":835.1,"catalog_number":7528,"source":"NASA Five Millennium Canon of Solar Eclipses","source_url":"https://eclipse.gsfc.nasa.gov/SEsearch/SEsearchmap.php?Ecl=%2B11651105","boundary":"center","name":"1165-11-05 금환일식"},"geometry":{"type":"LineString","coordinates":[[-141.80575,62.87906],[-142,62.72904],[-141.5,62.51969],[-141,62.30757],[-140.5,62.09265],[-140,61.8749],[-139.5,61.65428],[-139,61.43076],[-138.5,61.20431],[-138,60.97489],[-137.5,60.74246],[-137,60.50699],[-136.5,60.26845],[-136,60.02681],[-135.5,59.78201],[-135,59.53404],[-134.5,59.28284],[-134,59.02839],[-133.5,58.77066],[-133,58.50959],[-132.5,58.24515],[-132,57.97732],[-131.5,57.70604],[-131,57.43128],[-130.5,57.15301],[-130,56.87118],[-129.5,56.58576],[-129,56.2967],[-128.5,56.00397],[-128,55.70754],[-127.5,55.40736],[-127,55.1034],[-126.5,54.79561],[-126,54.48397],[-125.5,54.16842],[-125,53.84895],[-124.5,53.52551],[-124,53.19806],[-123.5,52.86657],[-123,52.53102],[-122.5,52.19136],[-122,51.84756],[-121.5,51.4996],[-121,51.14745],[-120.5,50.79108],[-120,50.43047],[-119.5,50.0656],[-119,49.69644],[-118.5,49.32298],[-118,48.94521],[-117.5,48.56312],[-117,48.17671],[-116.5,47.78597],[-116,47.3909],[-115.5,46.99153],[-115,46.58786],[-114.5,46.17991],[-114,45.76772],[-113.5,45.35133],[-113,44.93077],[-112.5,44.5061],[-112,44.0774],[-111.5,43.64473],[-111,43.20818],[-110.5,42.76787],[-110,42.32388],[-109.5,41.87637],[-109,41.42546],[-108.5,40.97133],[-108,40.51415],[-107.5,40.05411],[-107,39.59144],[-106.5,39.12636],[-106,38.65914],[-105.5,38.19005],[-105,37.7194],[-104.5,37.24749],[-104,36.77468],[-103.5,36.30134],[-103,35.82785],[-102.5,35.35462],[-102,34.88209],[-101.5,34.4107],[-101,33.94092],[-100.5,33.47323],[-100,33.00813],[-99.5,32.54613],[-99,32.08774],[-98.5,31.63349],[-98,31.18389],[-97.5,30.73947],[-97,30.30075],[-96.5,29.86823],[-96,29.44241],[-95.5,29.02376],[-95,28.61274],[-94.5,28.20978],[-94,27.81531],[-93.5,27.42969],[-93,27.05327],[-92.5,26.68639],[-92,26.32932],[-91.5,25.98232],[-91,25.64559],[-90.5,25.31934],[-90,25.0037],[-89.5,24.69878],[-89,24.40469],[-88.5,24.12146],[-88,23.84912],[-87.5,23.58767],[-87,23.33708],[-86.5,23.09729],[-86,22.86824],[-85.5,22.64983],[-85,22.44195],[-84.5,22.24447],[-84,22.05726],[-83.5,21.88015],[-83,21.71299],[-82.5,21.55561],[-82,21.40783],[-81.5,21.26946],[-81,21.14031],[-80.5,21.02021],[-80,20.90894],[-79.5,20.80632],[-79,20.71214],[-78.5,20.62622],[-78,20.54835],[-77.5,20.47834],[-77,20.41601],[-76.5,20.36115],[-76,20.31359],[-75.5,20.27313],[-75,20.2396],[-74.5,20.21281],[-74,20.1926],[-73.5,20.17879],[-73,20.17121],[-72.5,20.1697],[-72,20.1741],[-71.5,20.18426],[-71,20.20001],[-70.5,20.22122],[-70,20.24774],[-69.5,20.27943],[-69,20.31615],[-68.5,20.35777],[-68,20.40416],[-67.5,20.45519],[-67,20.51074],[-66.5,20.57069],[-66,20.63492],[-65.5,20.70333],[-65,20.7758],[-64.5,20.85223],[-64,20.93251],[-63.5,21.01655],[-63,21.10424],[-62.5,21.19549],[-62,21.29021],[-61.5,21.38831],[-61,21.4897],[-60.5,21.5943],[-60,21.70202],[-59.5,21.81279],[-59,21.92653],[-58.5,22.04316],[-58,22.16261],[-57.5,22.28481],[-57,22.40969],[-56.5,22.53718],[-56,22.66721],[-55.5,22.79972],[-55,22.93465],[-54.5,23.07195],[-54,23.21154],[-53.5,23.35337],[-53,23.49739],[-52.5,23.64354],[-52,23.79177],[-51.5,23.94203],[-51,24.09427],[-50.5,24.24843],[-50,24.40448],[-49.5,24.56236],[-49,24.72203],[-48.5,24.88344],[-48,25.04656],[-47.87736,25.07394]]}},{"type":"Feature","id":"+11651105:south:0","properties":{"id":"+11651105","year":1165,"month":11,"day":5,"time_tdt":"19:19:17","type":"금환일식","type_code":"A","saros":100,"gamma":0.73789,"magnitude":0.95443,"greatest":{"lat":26.73748,"lng":-92.5705},"path_width_km":241.6,"duration":"04m55s","delta_t_seconds":835.1,"catalog_number":7528,"source":"NASA Five Millennium Canon of Solar Eclipses","source_url":"https://eclipse.gsfc.nasa.gov/SEsearch/SEsearchmap.php?Ecl=%2B11651105","boundary":"south","name":"1165-11-05 금환일식"},"geometry":{"type":"LineString","coordinates":[[-143.58789,61.7442],[-143.5,61.70907],[-143,61.50772],[-142.5,61.30373],[-142,61.09708],[-141.5,60.88773],[-141,60.67565],[-140.5,60.4608],[-140,60.24317],[-139.5,60.0227],[-139,59.79937],[-138.5,59.57315],[-138,59.34399],[-137.5,59.11187],[-137,58.87675],[-136.5,58.6386],[-136,58.39737],[-135.5,58.15304],[-135,57.90556],[-134.5,57.6549],[-134,57.40102],[-133.5,57.14389],[-133,56.88346],[-132.5,56.61971],[-132,56.35259],[-131.5,56.08205],[-131,55.80808],[-130.5,55.53061],[-130,55.24963],[-129.5,54.96508],[-129,54.67693],[-128.5,54.38514],[-128,54.08967],[-127.5,53.79048],[-127,53.48753],[-126.5,53.18079],[-126,52.87022],[-125.5,52.55577],[-125,52.23741],[-124.5,51.91511],[-124,51.58882],[-123.5,51.25852],[-123,50.92417],[-122.5,50.58573],[-122,50.24318],[-121.5,49.89648],[-121,49.54561],[-120.5,49.19053],[-120,48.83123],[-119.5,48.46769],[-119,48.09988],[-118.5,47.72779],[-118,47.35141],[-117.5,46.97072],[-117,46.58573],[-116.5,46.19644],[-116,45.80285],[-115.5,45.40497],[-115,45.00282],[-114.5,44.59643],[-114,44.18583],[-113.5,43.77105],[-113,43.35216],[-112.5,42.92921],[-112,42.50227],[-111.5,42.07142],[-111,41.63676],[-110.5,41.19839],[-110,40.75645],[-109.5,40.31105],[-109,39.86237],[-108.5,39.41056],[-108,38.95582],[-107.5,38.49836],[-107,38.03839],[-106.5,37.57618],[-106,37.11198],[-105.5,36.6461],[-105,36.17883],[-104.5,35.71052],[-104,35.24153],[-103.5,34.77223],[-103,34.30302],[-102.5,33.83433],[-102,33.36659],[-101.5,32.90026],[-101,32.43582],[-100.5,31.97375],[-100,31.51456],[-99.5,31.05875],[-99,30.60684],[-98.5,30.15934],[-98,29.71677],[-97.5,29.27965],[-97,28.84846],[-96.5,28.42371],[-96,28.00588],[-95.5,27.5954],[-95,27.19273],[-94.5,26.79828],[-94,26.41241],[-93.5,26.0355],[-93,25.66786],[-92.5,25.30978],[-92,24.96152],[-91.5,24.6233],[-91,24.29532],[-90.5,23.97772],[-90,23.67063],[-89.5,23.37414],[-89,23.08831],[-88.5,22.81318],[-88,22.54875],[-87.5,22.295],[-87,22.05189],[-86.5,21.81934],[-86,21.59728],[-85.5,21.3856],[-85,21.18419],[-84.5,20.99291],[-84,20.81161],[-83.5,20.64015],[-83,20.47835],[-82.5,20.32605],[-82,20.18307],[-81.5,20.04923],[-81,19.92433],[-80.5,19.80821],[-80,19.70065],[-79.5,19.60148],[-79,19.51049],[-78.5,19.42751],[-78,19.35233],[-77.5,19.28478],[-77,19.22466],[-76.5,19.1718],[-76,19.126],[-75.5,19.0871],[-75,19.05491],[-74.5,19.02927],[-74,19.01001],[-73.5,18.99696],[-73,18.98995],[-72.5,18.98885],[-72,18.99348],[-71.5,19.0037],[-71,19.01936],[-70.5,19.04032],[-70,19.06645],[-69.5,19.0976],[-69,19.13364],[-68.5,19.17445],[-68,19.21991],[-67.5,19.26988],[-67,19.32425],[-66.5,19.38291],[-66,19.44575],[-65.5,19.51265],[-65,19.58351],[-64.5,19.65823],[-64,19.73671],[-63.5,19.81886],[-63,19.90457],[-62.5,19.99376],[-62,20.08633],[-61.5,20.18221],[-61,20.2813],[-60.5,20.38353],[-60,20.48881],[-59.5,20.59707],[-59,20.70824],[-58.5,20.82223],[-58,20.93898],[-57.5,21.05842],[-57,21.18049],[-56.5,21.30511],[-56,21.43222],[-55.5,21.56176],[-55,21.69368],[-54.5,21.8279],[-54,21.96438],[-53.5,22.10306],[-53,22.24388],[-52.5,22.38679],[-52,22.53174],[-51.5,22.67869],[-51,22.82757],[-50.5,22.97834],[-50,23.13096],[-49.5,23.28538],[-49,23.44156],[-48.5,23.59945],[-48,23.75901],[-47.79492,23.82493]]}}],"attribution":"Eclipse Predictions by Fred Espenak and Jean Meeus (NASA's GSFC)","generated_at":"2026-09-23T03:35:43.722Z"}
