{"type":"FeatureCollection","year":1169,"events":[{"id":"+11690228","year":1169,"month":2,"day":28,"time_tdt":"18:38:38","type":"금환일식","type_code":"A","saros":97,"gamma":-0.6431,"magnitude":0.94732,"greatest":{"lat":-39.32664,"lng":-69.73407},"path_width_km":247.8,"duration":"04m55s","delta_t_seconds":824.2,"catalog_number":7537,"source":"NASA Five Millennium Canon of Solar Eclipses","source_url":"https://eclipse.gsfc.nasa.gov/SEsearch/SEsearchmap.php?Ecl=%2B11690228"},{"id":"+11690824","year":1169,"month":8,"day":24,"time_tdt":"03:56:00","type":"개기일식","type_code":"T","saros":102,"gamma":0.65613,"magnitude":1.06123,"greatest":{"lat":44.069,"lng":149.21448},"path_width_km":263,"duration":"04m15s","delta_t_seconds":822.6,"catalog_number":7538,"source":"NASA Five Millennium Canon of Solar Eclipses","source_url":"https://eclipse.gsfc.nasa.gov/SEsearch/SEsearchmap.php?Ecl=%2B11690824"}],"features":[{"type":"Feature","id":"+11690228:north:0","properties":{"id":"+11690228","year":1169,"month":2,"day":28,"time_tdt":"18:38:38","type":"금환일식","type_code":"A","saros":97,"gamma":-0.6431,"magnitude":0.94732,"greatest":{"lat":-39.32664,"lng":-69.73407},"path_width_km":247.8,"duration":"04m55s","delta_t_seconds":824.2,"catalog_number":7537,"source":"NASA Five Millennium Canon of Solar Eclipses","source_url":"https://eclipse.gsfc.nasa.gov/SEsearch/SEsearchmap.php?Ecl=%2B11690228","boundary":"north","name":"1169-02-28 금환일식"},"geometry":{"type":"LineString","coordinates":[[-173.06445,-67.05492],[-173,-67.06107],[-172.5,-67.10813],[-172,-67.15406],[-171.5,-67.19886],[-171,-67.24255],[-170.5,-67.28512],[-170,-67.32657],[-169.5,-67.36692],[-169,-67.40615],[-168.5,-67.44428],[-168,-67.4813],[-167.5,-67.51722],[-167,-67.55204],[-166.5,-67.58577],[-166,-67.61839],[-165.5,-67.64993],[-165,-67.68037],[-164.5,-67.70972],[-164,-67.73799],[-163.5,-67.76517],[-163,-67.79126],[-162.5,-67.81627],[-162,-67.84019],[-161.5,-67.86303],[-161,-67.88479],[-160.5,-67.90547],[-160,-67.92506],[-159.5,-67.94358],[-159,-67.96101],[-158.5,-67.97737],[-158,-67.99264],[-157.5,-68.00684],[-157,-68.01995],[-156.5,-68.03198],[-156,-68.04293],[-155.5,-68.0528],[-155,-68.06157],[-154.5,-68.06927],[-154,-68.07587],[-153.5,-68.08139],[-153,-68.08582],[-152.5,-68.08915],[-152,-68.09139],[-151.5,-68.09253],[-151,-68.09257],[-150.5,-68.09151],[-150,-68.08934],[-149.5,-68.08606],[-149,-68.08167],[-148.5,-68.07616],[-148,-68.06954],[-147.5,-68.06179],[-147,-68.05291],[-146.5,-68.0429],[-146,-68.03175],[-145.5,-68.01946],[-145,-68.00602],[-144.5,-67.99143],[-144,-67.97569],[-143.5,-67.95878],[-143,-67.94069],[-142.5,-67.92144],[-142,-67.90099],[-141.5,-67.87936],[-141,-67.85653],[-140.5,-67.8325],[-140,-67.80726],[-139.5,-67.78079],[-139,-67.7531],[-138.5,-67.72417],[-138,-67.69399],[-137.5,-67.66256],[-137,-67.62986],[-136.5,-67.59589],[-136,-67.56063],[-135.5,-67.52408],[-135,-67.48623],[-134.5,-67.44705],[-134,-67.40655],[-133.5,-67.36471],[-133,-67.32152],[-132.5,-67.27696],[-132,-67.23102],[-131.5,-67.18369],[-131,-67.13496],[-130.5,-67.08481],[-130,-67.03322],[-129.5,-66.98019],[-129,-66.92568],[-128.5,-66.8697],[-128,-66.81223],[-127.5,-66.75323],[-127,-66.69271],[-126.5,-66.63064],[-126,-66.567],[-125.5,-66.50178],[-125,-66.43494],[-124.5,-66.36649],[-124,-66.29638],[-123.5,-66.22461],[-123,-66.15115],[-122.5,-66.07598],[-122,-65.99908],[-121.5,-65.92041],[-121,-65.83997],[-120.5,-65.75771],[-120,-65.67363],[-119.5,-65.58768],[-119,-65.49985],[-118.5,-65.4101],[-118,-65.31841],[-117.5,-65.22474],[-117,-65.12908],[-116.5,-65.03138],[-116,-64.93161],[-115.5,-64.82974],[-115,-64.72574],[-114.5,-64.61957],[-114,-64.5112],[-113.5,-64.40059],[-113,-64.28769],[-112.5,-64.17248],[-112,-64.05491],[-111.5,-63.93495],[-111,-63.81254],[-110.5,-63.68764],[-110,-63.56022],[-109.5,-63.43021],[-109,-63.29758],[-108.5,-63.16228],[-108,-63.02425],[-107.5,-62.88345],[-107,-62.73982],[-106.5,-62.5933],[-106,-62.44384],[-105.5,-62.29138],[-105,-62.13585],[-104.5,-61.97721],[-104,-61.81538],[-103.5,-61.65029],[-103,-61.48188],[-102.5,-61.31009],[-102,-61.13483],[-101.5,-60.95603],[-101,-60.77362],[-100.5,-60.58751],[-100,-60.39764],[-99.5,-60.2039],[-99,-60.00622],[-98.5,-59.8045],[-98,-59.59866],[-97.5,-59.3886],[-97,-59.17422],[-96.5,-58.95542],[-96,-58.7321],[-95.5,-58.50415],[-95,-58.27146],[-94.5,-58.03392],[-94,-57.79141],[-93.5,-57.5438],[-93,-57.29098],[-92.5,-57.03282],[-92,-56.76919],[-91.5,-56.49995],[-91,-56.22496],[-90.5,-55.94408],[-90,-55.65717],[-89.5,-55.36407],[-89,-55.06463],[-88.5,-54.75869],[-88,-54.4461],[-87.5,-54.12669],[-87,-53.80028],[-86.5,-53.46672],[-86,-53.12583],[-85.5,-52.77743],[-85,-52.42135],[-84.5,-52.05741],[-84,-51.68543],[-83.5,-51.30523],[-83,-50.91664],[-82.5,-50.51948],[-82,-50.11358],[-81.5,-49.69879],[-81,-49.27492],[-80.5,-48.84185],[-80,-48.39942],[-79.5,-47.94751],[-79,-47.48602],[-78.5,-47.01484],[-78,-46.53391],[-77.5,-46.04318],[-77,-45.54264],[-76.5,-45.03231],[-76,-44.51224],[-75.5,-43.98252],[-75,-43.44332],[-74.5,-42.89481],[-74,-42.33726],[-73.5,-41.77097],[-73,-41.19632],[-72.5,-40.61374],[-72,-40.02376],[-71.5,-39.42694],[-71,-38.82393],[-70.5,-38.21544],[-70,-37.60227],[-69.5,-36.98524],[-69,-36.36524],[-68.5,-35.74321],[-68,-35.12012],[-67.5,-34.49696],[-67,-33.87474],[-66.5,-33.25447],[-66,-32.63714],[-65.5,-32.02372],[-65,-31.41515],[-64.5,-30.81231],[-64,-30.21606],[-63.5,-29.62715],[-63,-29.0463],[-62.5,-28.47414],[-62,-27.91125],[-61.5,-27.35811],[-61,-26.81514],[-60.5,-26.28269],[-60,-25.76105],[-59.5,-25.25043],[-59,-24.751],[-58.5,-24.26285],[-58,-23.78605],[-57.5,-23.32061],[-57,-22.8665],[-56.5,-22.42366],[-56,-21.992],[-55.5,-21.5714],[-55,-21.16173],[-54.5,-20.76283],[-54,-20.37452],[-53.5,-19.99662],[-53,-19.62893],[-52.5,-19.27127],[-52,-18.92341],[-51.5,-18.58516],[-51,-18.25629],[-50.5,-17.93661],[-50,-17.62588],[-49.5,-17.32391],[-49,-17.03049],[-48.5,-16.7454],[-48,-16.46845],[-47.5,-16.19945],[-47,-15.93818],[-46.5,-15.68447],[-46,-15.43813],[-45.5,-15.19897],[-45,-14.96683],[-44.5,-14.74152],[-44,-14.52289],[-43.5,-14.31076],[-43,-14.10499],[-42.5,-13.90542],[-42,-13.7119],[-41.5,-13.52428],[-41,-13.34244],[-40.5,-13.16624],[-40,-12.99553],[-39.5,-12.83021],[-39,-12.67015],[-38.5,-12.51522],[-38,-12.36531],[-37.5,-12.22032],[-37,-12.08013],[-36.5,-11.94465],[-36,-11.81376],[-35.5,-11.68738],[-35,-11.56541],[-34.5,-11.44776],[-34,-11.33433],[-33.5,-11.22505],[-33,-11.11983],[-32.5,-11.01858],[-32,-10.92124],[-31.5,-10.82773],[-31,-10.73797],[-30.5,-10.65189],[-30,-10.56942],[-29.5,-10.4905],[-29,-10.41506],[-28.5,-10.34304],[-28,-10.27437],[-27.5,-10.20901],[-27,-10.14688],[-26.5,-10.08793],[-26,-10.03211],[-25.5,-9.97937],[-25.01953,-9.93155]]}},{"type":"Feature","id":"+11690228:center:0","properties":{"id":"+11690228","year":1169,"month":2,"day":28,"time_tdt":"18:38:38","type":"금환일식","type_code":"A","saros":97,"gamma":-0.6431,"magnitude":0.94732,"greatest":{"lat":-39.32664,"lng":-69.73407},"path_width_km":247.8,"duration":"04m55s","delta_t_seconds":824.2,"catalog_number":7537,"source":"NASA Five Millennium Canon of Solar Eclipses","source_url":"https://eclipse.gsfc.nasa.gov/SEsearch/SEsearchmap.php?Ecl=%2B11690228","boundary":"center","name":"1169-02-28 금환일식"},"geometry":{"type":"LineString","coordinates":[[-174.48493,-68.62874],[-174,-68.45333],[-173.5,-68.49852],[-173,-68.54261],[-172.5,-68.58562],[-172,-68.62754],[-171.5,-68.66839],[-171,-68.70816],[-170.5,-68.74686],[-170,-68.78449],[-169.5,-68.82105],[-169,-68.85655],[-168.5,-68.89099],[-168,-68.92437],[-167.5,-68.95669],[-167,-68.98796],[-166.5,-69.01818],[-166,-69.04736],[-165.5,-69.07548],[-165,-69.10256],[-164.5,-69.1286],[-164,-69.1536],[-163.5,-69.17756],[-163,-69.20048],[-162.5,-69.22236],[-162,-69.24321],[-161.5,-69.26303],[-161,-69.28181],[-160.5,-69.29955],[-160,-69.31627],[-159.5,-69.33195],[-159,-69.3466],[-158.5,-69.36022],[-158,-69.37281],[-157.5,-69.38436],[-157,-69.39489],[-156.5,-69.40437],[-156,-69.41283],[-155.5,-69.42025],[-155,-69.42664],[-154.5,-69.43198],[-154,-69.43629],[-153.5,-69.43956],[-153,-69.44179],[-152.5,-69.44297],[-152,-69.44311],[-151.5,-69.4422],[-151,-69.44024],[-150.5,-69.43722],[-150,-69.43315],[-149.5,-69.42802],[-149,-69.42183],[-148.5,-69.41457],[-148,-69.40624],[-147.5,-69.39683],[-147,-69.38635],[-146.5,-69.37478],[-146,-69.36213],[-145.5,-69.34838],[-145,-69.33354],[-144.5,-69.31759],[-144,-69.30054],[-143.5,-69.28237],[-143,-69.26308],[-142.5,-69.24267],[-142,-69.22112],[-141.5,-69.19843],[-141,-69.1746],[-140.5,-69.14961],[-140,-69.12346],[-139.5,-69.09615],[-139,-69.06765],[-138.5,-69.03797],[-138,-69.00709],[-137.5,-68.97501],[-137,-68.94172],[-136.5,-68.90721],[-136,-68.87146],[-135.5,-68.83447],[-135,-68.79622],[-134.5,-68.75671],[-134,-68.71593],[-133.5,-68.67386],[-133,-68.63049],[-132.5,-68.5858],[-132,-68.5398],[-131.5,-68.49245],[-131,-68.44375],[-130.5,-68.39369],[-130,-68.34225],[-129.5,-68.28942],[-129,-68.23517],[-128.5,-68.1795],[-128,-68.12239],[-127.5,-68.06382],[-127,-68.00378],[-126.5,-67.94225],[-126,-67.8792],[-125.5,-67.81463],[-125,-67.74851],[-124.5,-67.68082],[-124,-67.61154],[-123.5,-67.54066],[-123,-67.46815],[-122.5,-67.39399],[-122,-67.31815],[-121.5,-67.24062],[-121,-67.16137],[-120.5,-67.08037],[-120,-66.9976],[-119.5,-66.91304],[-119,-66.82666],[-118.5,-66.73843],[-118,-66.64832],[-117.5,-66.55631],[-117,-66.46236],[-116.5,-66.36645],[-116,-66.26854],[-115.5,-66.1686],[-115,-66.0666],[-114.5,-65.96251],[-114,-65.85629],[-113.5,-65.7479],[-113,-65.6373],[-112.5,-65.52447],[-112,-65.40936],[-111.5,-65.29193],[-111,-65.17214],[-110.5,-65.04994],[-110,-64.9253],[-109.5,-64.79817],[-109,-64.66849],[-108.5,-64.53624],[-108,-64.40135],[-107.5,-64.26378],[-107,-64.12347],[-106.5,-63.98037],[-106,-63.83443],[-105.5,-63.68558],[-105,-63.53378],[-104.5,-63.37896],[-104,-63.22106],[-103.5,-63.06002],[-103,-62.89577],[-102.5,-62.72824],[-102,-62.55736],[-101.5,-62.38307],[-101,-62.20529],[-100.5,-62.02394],[-100,-61.83895],[-99.5,-61.65023],[-99,-61.45771],[-98.5,-61.26129],[-98,-61.06088],[-97.5,-60.85641],[-97,-60.64777],[-96.5,-60.43486],[-96,-60.2176],[-95.5,-59.99587],[-95,-59.76956],[-94.5,-59.53858],[-94,-59.30281],[-93.5,-59.06213],[-93,-58.81642],[-92.5,-58.56557],[-92,-58.30944],[-91.5,-58.04791],[-91,-57.78085],[-90.5,-57.50811],[-90,-57.22956],[-89.5,-56.94505],[-89,-56.65443],[-88.5,-56.35756],[-88,-56.05427],[-87.5,-55.74442],[-87,-55.42783],[-86.5,-55.10435],[-86,-54.7738],[-85.5,-54.43601],[-85,-54.09082],[-84.5,-53.73804],[-84,-53.37749],[-83.5,-53.00901],[-83,-52.63242],[-82.5,-52.24754],[-82,-51.85419],[-81.5,-51.4522],[-81,-51.04141],[-80.5,-50.62165],[-80,-50.19278],[-79.5,-49.75464],[-79,-49.30711],[-78.5,-48.85007],[-78,-48.38341],[-77.5,-47.90706],[-77,-47.42097],[-76.5,-46.92509],[-76,-46.41944],[-75.5,-45.90404],[-75,-45.37899],[-74.5,-44.84439],[-74,-44.30042],[-73.5,-43.7473],[-73,-43.18531],[-72.5,-42.61479],[-72,-42.03615],[-71.5,-41.44987],[-71,-40.85647],[-70.5,-40.25658],[-70,-39.65088],[-69.5,-39.0401],[-69,-38.42506],[-68.5,-37.80663],[-68,-37.18571],[-67.5,-36.56326],[-67,-35.94027],[-66.5,-35.31773],[-66,-34.69667],[-65.5,-34.07808],[-65,-33.46295],[-64.5,-32.85224],[-64,-32.24687],[-63.5,-31.64772],[-63,-31.05559],[-62.5,-30.47123],[-62,-29.89533],[-61.5,-29.32848],[-61,-28.77122],[-60.5,-28.22402],[-60,-27.68726],[-59.5,-27.16126],[-59,-26.64626],[-58.5,-26.14248],[-58,-25.65003],[-57.5,-25.169],[-57,-24.69942],[-56.5,-24.2413],[-56,-23.79457],[-55.5,-23.35916],[-55,-22.93498],[-54.5,-22.52188],[-54,-22.11972],[-53.5,-21.72833],[-53,-21.34753],[-52.5,-20.97713],[-52,-20.61692],[-51.5,-20.26671],[-51,-19.92628],[-50.5,-19.59541],[-50,-19.2739],[-49.5,-18.96152],[-49,-18.65807],[-48.5,-18.36333],[-48,-18.07708],[-47.5,-17.79913],[-47,-17.52928],[-46.5,-17.26731],[-46,-17.01304],[-45.5,-16.76628],[-45,-16.52684],[-44.5,-16.29454],[-44,-16.0692],[-43.5,-15.85066],[-43,-15.63874],[-42.5,-15.43329],[-42,-15.23415],[-41.5,-15.04117],[-41,-14.85419],[-40.5,-14.67308],[-40,-14.4977],[-39.5,-14.32792],[-39,-14.1636],[-38.5,-14.00462],[-38,-13.85086],[-37.5,-13.7022],[-37,-13.55853],[-36.5,-13.41974],[-36,-13.28572],[-35.5,-13.15637],[-35,-13.03158],[-34.5,-12.91127],[-34,-12.79533],[-33.5,-12.68368],[-33,-12.57623],[-32.5,-12.47289],[-32,-12.37358],[-31.5,-12.27823],[-31,-12.18675],[-30.5,-12.09907],[-30,-12.01511],[-29.5,-11.93481],[-29,-11.8581],[-28.5,-11.78491],[-28,-11.71517],[-27.5,-11.64883],[-27,-11.58583],[-26.5,-11.52609],[-26,-11.46958],[-25.5,-11.41622],[-25,-11.36598],[-24.5,-11.31879],[-24.43189,-11.31016]]}},{"type":"Feature","id":"+11690228:south:0","properties":{"id":"+11690228","year":1169,"month":2,"day":28,"time_tdt":"18:38:38","type":"금환일식","type_code":"A","saros":97,"gamma":-0.6431,"magnitude":0.94732,"greatest":{"lat":-39.32664,"lng":-69.73407},"path_width_km":247.8,"duration":"04m55s","delta_t_seconds":824.2,"catalog_number":7537,"source":"NASA Five Millennium Canon of Solar Eclipses","source_url":"https://eclipse.gsfc.nasa.gov/SEsearch/SEsearchmap.php?Ecl=%2B11690228","boundary":"south","name":"1169-02-28 금환일식"},"geometry":{"type":"LineString","coordinates":[[-175,-69.88036],[-174.5,-69.92351],[-175.5,-69.83615],[-174,-69.96562],[-173.5,-70.00668],[-173,-70.0467],[-172.5,-70.08569],[-172,-70.12363],[-171.5,-70.16055],[-171,-70.19644],[-170.5,-70.23131],[-170,-70.26515],[-169.5,-70.29798],[-169,-70.3298],[-168.5,-70.3606],[-168,-70.3904],[-167.5,-70.41919],[-167,-70.44697],[-166.5,-70.47376],[-166,-70.49955],[-165.5,-70.52434],[-165,-70.54814],[-164.5,-70.57095],[-164,-70.59277],[-163.5,-70.61359],[-163,-70.63343],[-162.5,-70.65229],[-162,-70.67016],[-161.5,-70.68705],[-161,-70.70295],[-160.5,-70.71788],[-160,-70.73182],[-159.5,-70.74478],[-159,-70.75676],[-158.5,-70.76776],[-158,-70.77778],[-157.5,-70.78682],[-157,-70.79487],[-156.5,-70.80195],[-156,-70.80804],[-155.5,-70.81315],[-155,-70.81727],[-154.5,-70.82041],[-154,-70.82256],[-153.5,-70.82372],[-153,-70.8239],[-152.5,-70.82307],[-152,-70.82126],[-151.5,-70.81845],[-151,-70.81464],[-150.5,-70.80981],[-150,-70.804],[-149.5,-70.79717],[-149,-70.78934],[-148.5,-70.78048],[-148,-70.77061],[-147.5,-70.75972],[-147,-70.74779],[-146.5,-70.73484],[-146,-70.72085],[-145.5,-70.70582],[-145,-70.68974],[-144.5,-70.67262],[-144,-70.65444],[-143.5,-70.63519],[-143,-70.61488],[-142.5,-70.59349],[-142,-70.57102],[-141.5,-70.54747],[-141,-70.52282],[-140.5,-70.49707],[-140,-70.47021],[-139.5,-70.44223],[-139,-70.41313],[-138.5,-70.38289],[-138,-70.35151],[-137.5,-70.31898],[-137,-70.2853],[-136.5,-70.25044],[-136,-70.2144],[-135.5,-70.17717],[-135,-70.13875],[-134.5,-70.09911],[-134,-70.05825],[-133.5,-70.01616],[-133,-69.97282],[-132.5,-69.92823],[-132,-69.88236],[-131.5,-69.83522],[-131,-69.78677],[-130.5,-69.73702],[-130,-69.68594],[-129.5,-69.63353],[-129,-69.57976],[-128.5,-69.52463],[-128,-69.46811],[-127.5,-69.41019],[-127,-69.35085],[-126.5,-69.29008],[-126,-69.22786],[-125.5,-69.16417],[-125,-69.09899],[-124.5,-69.0323],[-124,-68.96409],[-123.5,-68.89433],[-123,-68.823],[-122.5,-68.75008],[-122,-68.67555],[-121.5,-68.59938],[-121,-68.52156],[-120.5,-68.44206],[-120,-68.36085],[-119.5,-68.27792],[-119,-68.19323],[-118.5,-68.10675],[-118,-68.01847],[-117.5,-67.92834],[-117,-67.83636],[-116.5,-67.74247],[-116,-67.64666],[-115.5,-67.5489],[-115,-67.44914],[-114.5,-67.34736],[-114,-67.24353],[-113.5,-67.1376],[-113,-67.02955],[-112.5,-66.91933],[-112,-66.80692],[-111.5,-66.69226],[-111,-66.57532],[-110.5,-66.45606],[-110,-66.33444],[-109.5,-66.21041],[-109,-66.08393],[-108.5,-65.95496],[-108,-65.82343],[-107.5,-65.68932],[-107,-65.55256],[-106.5,-65.41311],[-106,-65.27091],[-105.5,-65.1259],[-105,-64.97804],[-104.5,-64.82726],[-104,-64.67351],[-103.5,-64.51672],[-103,-64.35682],[-102.5,-64.19377],[-102,-64.02748],[-101.5,-63.85789],[-101,-63.68493],[-100.5,-63.50852],[-100,-63.3286],[-99.5,-63.14508],[-99,-62.95788],[-98.5,-62.76692],[-98,-62.57211],[-97.5,-62.37338],[-97,-62.17062],[-96.5,-61.96375],[-96,-61.75267],[-95.5,-61.53728],[-95,-61.31748],[-94.5,-61.09317],[-94,-60.86424],[-93.5,-60.63058],[-93,-60.39207],[-92.5,-60.14859],[-92,-59.90003],[-91.5,-59.64627],[-91,-59.38717],[-90.5,-59.1226],[-90,-58.85243],[-89.5,-58.57651],[-89,-58.29472],[-88.5,-58.00689],[-88,-57.71289],[-87.5,-57.41255],[-87,-57.10572],[-86.5,-56.79225],[-86,-56.47196],[-85.5,-56.14469],[-85,-55.81028],[-84.5,-55.46854],[-84,-55.11932],[-83.5,-54.76242],[-83,-54.39768],[-82.5,-54.02492],[-82,-53.64397],[-81.5,-53.25464],[-81,-52.85676],[-80.5,-52.45018],[-80,-52.03472],[-79.5,-51.61022],[-79,-51.17654],[-78.5,-50.73354],[-78,-50.2811],[-77.5,-49.81911],[-77,-49.34747],[-76.5,-48.86611],[-76,-48.375],[-75.5,-47.87412],[-75,-47.36348],[-74.5,-46.84315],[-74,-46.31321],[-73.5,-45.77382],[-73,-45.22515],[-72.5,-44.66748],[-72,-44.10109],[-71.5,-43.52637],[-71,-42.94374],[-70.5,-42.35372],[-70,-41.75687],[-69.5,-41.15384],[-69,-40.54534],[-68.5,-39.93214],[-68,-39.31508],[-67.5,-38.69506],[-67,-38.073],[-66.5,-37.44988],[-66,-36.82669],[-65.5,-36.20445],[-65,-35.58418],[-64.5,-34.96687],[-64,-34.35352],[-63.5,-33.74507],[-63,-33.14243],[-62.5,-32.54644],[-62,-31.9579],[-61.5,-31.37753],[-61,-30.80599],[-60.5,-30.24385],[-60,-29.69162],[-59.5,-29.14973],[-59,-28.61855],[-58.5,-28.09835],[-58,-27.58938],[-57.5,-27.09179],[-57,-26.60569],[-56.5,-26.13116],[-56,-25.66819],[-55.5,-25.21676],[-55,-24.77682],[-54.5,-24.34826],[-54,-23.93098],[-53.5,-23.52482],[-53,-23.12962],[-52.5,-22.74521],[-52,-22.3714],[-51.5,-22.008],[-51,-21.65478],[-50.5,-21.31155],[-50,-20.97808],[-49.5,-20.65416],[-49,-20.33957],[-48.5,-20.03409],[-48,-19.7375],[-47.5,-19.4496],[-47,-19.17017],[-46.5,-18.89899],[-46,-18.63588],[-45.5,-18.38062],[-45,-18.13303],[-44.5,-17.8929],[-44,-17.66006],[-43.5,-17.43433],[-43,-17.21552],[-42.5,-17.00348],[-42,-16.79802],[-41.5,-16.59899],[-41,-16.40624],[-40.5,-16.21961],[-40,-16.03896],[-39.5,-15.86414],[-39,-15.69502],[-38.5,-15.53146],[-38,-15.37333],[-37.5,-15.22051],[-37,-15.07288],[-36.5,-14.93033],[-36,-14.79273],[-35.5,-14.65998],[-35,-14.53197],[-34.5,-14.4086],[-34,-14.28977],[-33.5,-14.17539],[-33,-14.06536],[-32.5,-13.95959],[-32,-13.85799],[-31.5,-13.76048],[-31,-13.66698],[-30.5,-13.57741],[-30,-13.49168],[-29.5,-13.40974],[-29,-13.3315],[-28.5,-13.25689],[-28,-13.18585],[-27.5,-13.1183],[-27,-13.0542],[-26.5,-12.99346],[-26,-12.93604],[-25.5,-12.88188],[-25,-12.83091],[-24.5,-12.78308],[-24,-12.73835],[-23.81445,-12.72252]]}},{"type":"Feature","id":"+11690824:north:0","properties":{"id":"+11690824","year":1169,"month":8,"day":24,"time_tdt":"03:56:00","type":"개기일식","type_code":"T","saros":102,"gamma":0.65613,"magnitude":1.06123,"greatest":{"lat":44.069,"lng":149.21448},"path_width_km":263,"duration":"04m15s","delta_t_seconds":822.6,"catalog_number":7538,"source":"NASA Five Millennium Canon of Solar Eclipses","source_url":"https://eclipse.gsfc.nasa.gov/SEsearch/SEsearchmap.php?Ecl=%2B11690824","boundary":"north","name":"1169-08-24 개기일식"},"geometry":{"type":"LineString","coordinates":[[30.625,67.87018],[31,67.93509],[31.5,68.02047],[32,68.10452],[32.5,68.18724],[33,68.26865],[33.5,68.34875],[34,68.42755],[34.5,68.50506],[35,68.58127],[35.5,68.65621],[36,68.72988],[36.5,68.80228],[37,68.87343],[37.5,68.94333],[38,69.01199],[38.5,69.07941],[39,69.14561],[39.5,69.21058],[40,69.27435],[40.5,69.33691],[41,69.39826],[41.5,69.45843],[42,69.51741],[42.5,69.57521],[43,69.63185],[43.5,69.68731],[44,69.74162],[44.5,69.79477],[45,69.84678],[45.5,69.89765],[46,69.94738],[46.5,69.99599],[47,70.04347],[47.5,70.08984],[48,70.13509],[48.5,70.17924],[49,70.22229],[49.5,70.26424],[50,70.3051],[50.5,70.34488],[51,70.38357],[51.5,70.42119],[52,70.45773],[52.5,70.49321],[53,70.52763],[53.5,70.56098],[54,70.59328],[54.5,70.62453],[55,70.65472],[55.5,70.68388],[56,70.71199],[56.5,70.73906],[57,70.7651],[57.5,70.79011],[58,70.81408],[58.5,70.83703],[59,70.85895],[59.5,70.87985],[60,70.89973],[60.5,70.91858],[61,70.93642],[61.5,70.95325],[62,70.96906],[62.5,70.98385],[63,70.99763],[63.5,71.01041],[64,71.02216],[64.5,71.03291],[65,71.04265],[65.5,71.05138],[66,71.05909],[66.5,71.0658],[67,71.07149],[67.5,71.07617],[68,71.07984],[68.5,71.08249],[69,71.08413],[69.5,71.08475],[70,71.08436],[70.5,71.08294],[71,71.0805],[71.5,71.07703],[72,71.07254],[72.5,71.06702],[73,71.06047],[73.5,71.05287],[74,71.04424],[74.5,71.03457],[75,71.02385],[75.5,71.01208],[76,70.99926],[76.5,70.98537],[77,70.97042],[77.5,70.95441],[78,70.93731],[78.5,70.91914],[79,70.89989],[79.5,70.87954],[80,70.85809],[80.5,70.83554],[81,70.81188],[81.5,70.7871],[82,70.7612],[82.5,70.73416],[83,70.70598],[83.5,70.67666],[84,70.64617],[84.5,70.61453],[85,70.5817],[85.5,70.54769],[86,70.51249],[86.5,70.47609],[87,70.43847],[87.5,70.39962],[88,70.35954],[88.5,70.31821],[89,70.27562],[89.5,70.23176],[90,70.18662],[90.5,70.14018],[91,70.09243],[91.5,70.04336],[92,69.99295],[92.5,69.94119],[93,69.88807],[93.5,69.83356],[94,69.77765],[94.5,69.72033],[95,69.66158],[95.5,69.60138],[96,69.53972],[96.5,69.47658],[97,69.41193],[97.5,69.34576],[98,69.27806],[98.5,69.20879],[99,69.13794],[99.5,69.06549],[100,68.99141],[100.5,68.91569],[101,68.8383],[101.5,68.75921],[102,68.67841],[102.5,68.59587],[103,68.51155],[103.5,68.42545],[104,68.33752],[104.5,68.24774],[105,68.15608],[105.5,68.06252],[106,67.96702],[106.5,67.86955],[107,67.77008],[107.5,67.66858],[108,67.56502],[108.5,67.45935],[109,67.35155],[109.5,67.24158],[110,67.1294],[110.5,67.01497],[111,66.89826],[111.5,66.77922],[112,66.65782],[112.5,66.534],[113,66.40774],[113.5,66.27897],[114,66.14766],[114.5,66.01377],[115,65.87723],[115.5,65.738],[116,65.59604],[116.5,65.45128],[117,65.30368],[117.5,65.15318],[118,64.99973],[118.5,64.84326],[119,64.68371],[119.5,64.52103],[120,64.35515],[120.5,64.18601],[121,64.01354],[121.5,63.83768],[122,63.65835],[122.5,63.47548],[123,63.289],[123.5,63.09884],[124,62.90492],[124.5,62.70716],[125,62.50548],[125.5,62.29979],[126,62.09002],[126.5,61.87608],[127,61.65787],[127.5,61.43531],[128,61.2083],[128.5,60.97676],[129,60.74058],[129.5,60.49967],[130,60.25392],[130.5,60.00324],[131,59.74752],[131.5,59.48665],[132,59.22054],[132.5,58.94906],[133,58.67212],[133.5,58.38959],[134,58.10137],[134.5,57.80735],[135,57.50741],[135.5,57.20144],[136,56.88932],[136.5,56.57095],[137,56.24622],[137.5,55.915],[138,55.5772],[138.5,55.23271],[139,54.88143],[139.5,54.52325],[140,54.1581],[140.5,53.78587],[141,53.40649],[141.5,53.01989],[142,52.62601],[142.5,52.22478],[143,51.81618],[143.5,51.40017],[144,50.97673],[144.5,50.54588],[145,50.10763],[145.5,49.66203],[146,49.20913],[146.5,48.74902],[147,48.28181],[147.5,47.80765],[148,47.32668],[148.5,46.83912],[149,46.34518],[149.5,45.84512],[150,45.33924],[150.5,44.82785],[151,44.3113],[151.5,43.79],[152,43.26436],[152.5,42.73483],[153,42.20189],[153.5,41.66605],[154,41.12784],[154.5,40.5878],[155,40.0465],[155.5,39.50453],[156,38.96246],[156.5,38.4209],[157,37.88042],[157.5,37.34161],[158,36.80505],[158.5,36.2713],[159,35.74089],[159.5,35.21436],[160,34.69218],[160.5,34.17483],[161,33.66276],[161.5,33.15635],[162,32.65599],[162.5,32.16201],[163,31.67473],[163.5,31.19441],[164,30.72129],[164.5,30.25558],[165,29.79747],[165.5,29.34708],[166,28.90455],[166.5,28.46997],[167,28.0434],[167.5,27.62489],[168,27.21447],[168.5,26.81215],[169,26.4179],[169.5,26.03171],[170,25.65353],[170.5,25.28332],[171,24.921],[171.5,24.5665],[172,24.21975],[172.5,23.88064],[173,23.54909],[173.5,23.225],[174,22.90825],[174.5,22.59875],[175,22.29638],[175.5,22.00103],[176,21.71259],[176.5,21.43093],[177,21.15594],[177.5,20.88752],[178,20.62553],[178.5,20.36988],[179,20.12043],[179.5,19.87709],[180,19.63973]]}},{"type":"Feature","id":"+11690824:north:1","properties":{"id":"+11690824","year":1169,"month":8,"day":24,"time_tdt":"03:56:00","type":"개기일식","type_code":"T","saros":102,"gamma":0.65613,"magnitude":1.06123,"greatest":{"lat":44.069,"lng":149.21448},"path_width_km":263,"duration":"04m15s","delta_t_seconds":822.6,"catalog_number":7538,"source":"NASA Five Millennium Canon of Solar Eclipses","source_url":"https://eclipse.gsfc.nasa.gov/SEsearch/SEsearchmap.php?Ecl=%2B11690824","boundary":"north","name":"1169-08-24 개기일식"},"geometry":{"type":"LineString","coordinates":[[-179.5,19.40825],[-179,19.18254],[-178.5,18.96249],[-178,18.748],[-177.5,18.53896],[-177,18.33527],[-176.5,18.13684],[-176,17.94356],[-175.5,17.75534],[-175,17.57209],[-174.5,17.39372],[-174,17.22013],[-173.5,17.05124],[-173,16.88697],[-172.5,16.72722],[-172,16.57193],[-171.5,16.42101],[-171,16.27439],[-170.5,16.13198],[-170,15.99373],[-169.5,15.85954],[-169,15.72936],[-168.5,15.60312],[-168,15.48075],[-167.5,15.36219],[-167,15.24736],[-166.5,15.13622],[-166,15.02871],[-165.5,14.92475],[-165,14.8243],[-164.5,14.72731],[-164,14.63371],[-163.5,14.54346],[-163,14.45649],[-162.53125,14.37791]]}},{"type":"Feature","id":"+11690824:center:0","properties":{"id":"+11690824","year":1169,"month":8,"day":24,"time_tdt":"03:56:00","type":"개기일식","type_code":"T","saros":102,"gamma":0.65613,"magnitude":1.06123,"greatest":{"lat":44.069,"lng":149.21448},"path_width_km":263,"duration":"04m15s","delta_t_seconds":822.6,"catalog_number":7538,"source":"NASA Five Millennium Canon of Solar Eclipses","source_url":"https://eclipse.gsfc.nasa.gov/SEsearch/SEsearchmap.php?Ecl=%2B11690824","boundary":"center","name":"1169-08-24 개기일식"},"geometry":{"type":"LineString","coordinates":[[31.89466,67.04541],[32,67.01889],[32.5,67.10299],[33,67.18577],[33.5,67.26724],[34,67.34741],[34.5,67.42628],[35,67.50386],[35.5,67.58015],[36,67.65517],[36.5,67.72891],[37,67.80139],[37.5,67.87261],[38,67.94259],[38.5,68.01131],[39,68.0788],[39.5,68.14505],[40,68.21008],[40.5,68.27389],[41,68.33649],[41.5,68.39788],[42,68.45807],[42.5,68.51707],[43,68.57487],[43.5,68.6315],[44,68.68694],[44.5,68.74122],[45,68.79432],[45.5,68.84627],[46,68.89706],[46.5,68.94671],[47,68.99521],[47.5,69.04257],[48,69.08879],[48.5,69.13389],[49,69.17786],[49.5,69.22071],[50,69.26245],[50.5,69.30307],[51,69.34259],[51.5,69.38101],[52,69.41832],[52.5,69.45454],[53,69.48968],[53.5,69.52372],[54,69.55668],[54.5,69.58856],[55,69.61936],[55.5,69.64909],[56,69.67774],[56.5,69.70533],[57,69.73185],[57.5,69.75731],[58,69.78171],[58.5,69.80504],[59,69.82732],[59.5,69.84855],[60,69.86872],[60.5,69.88784],[61,69.9059],[61.5,69.92292],[62,69.93889],[62.5,69.95381],[63,69.96768],[63.5,69.98051],[64,69.99229],[64.5,70.00302],[65,70.01271],[65.5,70.02135],[66,70.02894],[66.5,70.03548],[67,70.04098],[67.5,70.04543],[68,70.04882],[68.5,70.05116],[69,70.05245],[69.5,70.05268],[70,70.05186],[70.5,70.04997],[71,70.04703],[71.5,70.04302],[72,70.03794],[72.5,70.03179],[73,70.02456],[73.5,70.01626],[74,70.00688],[74.5,69.99641],[75,69.98485],[75.5,69.9722],[76,69.95845],[76.5,69.9436],[77,69.92764],[77.5,69.91056],[78,69.89237],[78.5,69.87305],[79,69.8526],[79.5,69.83101],[80,69.80828],[80.5,69.7844],[81,69.75936],[81.5,69.73315],[82,69.70577],[82.5,69.67721],[83,69.64746],[83.5,69.61651],[84,69.58435],[84.5,69.55097],[85,69.51637],[85.5,69.48054],[86,69.44345],[86.5,69.40511],[87,69.36551],[87.5,69.32462],[88,69.28244],[88.5,69.23896],[89,69.19417],[89.5,69.14805],[90,69.10058],[90.5,69.05177],[91,69.00158],[91.5,68.95001],[92,68.89705],[92.5,68.84267],[93,68.78687],[93.5,68.72962],[94,68.67091],[94.5,68.61073],[95,68.54905],[95.5,68.48585],[96,68.42113],[96.5,68.35486],[97,68.28701],[97.5,68.21758],[98,68.14654],[98.5,68.07387],[99,67.99954],[99.5,67.92354],[100,67.84584],[100.5,67.76642],[101,67.68526],[101.5,67.60232],[102,67.5176],[102.5,67.43104],[103,67.34264],[103.5,67.25237],[104,67.16019],[104.5,67.06608],[105,66.97],[105.5,66.87193],[106,66.77184],[106.5,66.66968],[107,66.56544],[107.5,66.45907],[108,66.35055],[108.5,66.23982],[109,66.12687],[109.5,66.01165],[110,65.89411],[110.5,65.77423],[111,65.65196],[111.5,65.52726],[112,65.40009],[112.5,65.27039],[113,65.13813],[113.5,65.00327],[114,64.86574],[114.5,64.7255],[115,64.58251],[115.5,64.43671],[116,64.28805],[116.5,64.13646],[117,63.98191],[117.5,63.82432],[118,63.66365],[118.5,63.49982],[119,63.33279],[119.5,63.16247],[120,62.98882],[120.5,62.81176],[121,62.63122],[121.5,62.44714],[122,62.25943],[122.5,62.06804],[123,61.87288],[123.5,61.67386],[124,61.47093],[124.5,61.26398],[125,61.05295],[125.5,60.83774],[126,60.61827],[126.5,60.39445],[127,60.16618],[127.5,59.93338],[128,59.69595],[128.5,59.45379],[129,59.20681],[129.5,58.9549],[130,58.69797],[130.5,58.43591],[131,58.16861],[131.5,57.89597],[132,57.61788],[132.5,57.33424],[133,57.04493],[133.5,56.74984],[134,56.44887],[134.5,56.1419],[135,55.82883],[135.5,55.50954],[136,55.18393],[136.5,54.85189],[137,54.51333],[137.5,54.16812],[138,53.81619],[138.5,53.45743],[139,53.09176],[139.5,52.7191],[140,52.33936],[140.5,51.9525],[141,51.55843],[141.5,51.15713],[142,50.74855],[142.5,50.33268],[143,49.9095],[143.5,49.47903],[144,49.04129],[144.5,48.59633],[145,48.14423],[145.5,47.68506],[146,47.21896],[146.5,46.74605],[147,46.26652],[147.5,45.78057],[148,45.28841],[148.5,44.79032],[149,44.28659],[149.5,43.77755],[150,43.26354],[150.5,42.74496],[151,42.22224],[151.5,41.69581],[152,41.16616],[152.5,40.63378],[153,40.0992],[153.5,39.56296],[154,39.02562],[154.5,38.48774],[155,37.9499],[155.5,37.41268],[156,36.87666],[156.5,36.34239],[157,35.81045],[157.5,35.28137],[158,34.75569],[158.5,34.2339],[159,33.71648],[159.5,33.2039],[160,32.69656],[160.5,32.19487],[161,31.69918],[161.5,31.20982],[162,30.72709],[162.5,30.25125],[163,29.78253],[163.5,29.32112],[164,28.86721],[164.5,28.42093],[165,27.9824],[165.5,27.5517],[166,27.12891],[166.5,26.71406],[167,26.30718],[167.5,25.90827],[168,25.51733],[168.5,25.13433],[169,24.75922],[169.5,24.39196],[170,24.03248],[170.5,23.68071],[171,23.33657],[171.5,22.99998],[172,22.67083],[172.5,22.34904],[173,22.0345],[173.5,21.72711],[174,21.42675],[174.5,21.13332],[175,20.8467],[175.5,20.56679],[176,20.29347],[176.5,20.02662],[177,19.76614],[177.5,19.51191],[178,19.26381],[178.5,19.02175],[179,18.78561],[179.5,18.55528],[180,18.33065]]}},{"type":"Feature","id":"+11690824:center:1","properties":{"id":"+11690824","year":1169,"month":8,"day":24,"time_tdt":"03:56:00","type":"개기일식","type_code":"T","saros":102,"gamma":0.65613,"magnitude":1.06123,"greatest":{"lat":44.069,"lng":149.21448},"path_width_km":263,"duration":"04m15s","delta_t_seconds":822.6,"catalog_number":7538,"source":"NASA Five Millennium Canon of Solar Eclipses","source_url":"https://eclipse.gsfc.nasa.gov/SEsearch/SEsearchmap.php?Ecl=%2B11690824","boundary":"center","name":"1169-08-24 개기일식"},"geometry":{"type":"LineString","coordinates":[[-179.5,18.11163],[-179,17.8981],[-178.5,17.68997],[-178,17.48713],[-177.5,17.2895],[-177,17.09697],[-176.5,16.90945],[-176,16.72685],[-175.5,16.54908],[-175,16.37604],[-174.5,16.20767],[-174,16.04387],[-173.5,15.88456],[-173,15.72966],[-172.5,15.5791],[-172,15.43279],[-171.5,15.29067],[-171,15.15266],[-170.5,15.01869],[-170,14.88869],[-169.5,14.7626],[-169,14.64035],[-168.5,14.52187],[-168,14.40711],[-167.5,14.29601],[-167,14.18849],[-166.5,14.08452],[-166,13.98402],[-165.5,13.88696],[-165,13.79326],[-164.5,13.70289],[-164,13.61578],[-163.5,13.5319],[-163,13.45119],[-162.97816,13.45124]]}},{"type":"Feature","id":"+11690824:south:0","properties":{"id":"+11690824","year":1169,"month":8,"day":24,"time_tdt":"03:56:00","type":"개기일식","type_code":"T","saros":102,"gamma":0.65613,"magnitude":1.06123,"greatest":{"lat":44.069,"lng":149.21448},"path_width_km":263,"duration":"04m15s","delta_t_seconds":822.6,"catalog_number":7538,"source":"NASA Five Millennium Canon of Solar Eclipses","source_url":"https://eclipse.gsfc.nasa.gov/SEsearch/SEsearchmap.php?Ecl=%2B11690824","boundary":"south","name":"1169-08-24 개기일식"},"geometry":{"type":"LineString","coordinates":[[33.1875,66.15723],[33.5,66.20872],[34,66.29005],[34.5,66.37008],[35,66.44881],[35.5,66.52625],[36,66.60242],[36.5,66.67731],[37,66.75092],[37.5,66.82328],[38,66.89437],[38.5,66.96421],[39,67.0328],[39.5,67.10015],[40,67.16627],[40.5,67.23115],[41,67.29481],[41.5,67.35725],[42,67.41848],[42.5,67.4785],[43,67.53731],[43.5,67.59493],[44,67.65135],[44.5,67.70658],[45,67.76064],[45.5,67.81351],[46,67.86521],[46.5,67.91574],[47,67.96511],[47.5,68.01332],[48,68.06038],[48.5,68.10628],[49,68.15104],[49.5,68.19466],[50,68.23714],[50.5,68.27849],[51,68.3187],[51.5,68.35779],[52,68.39576],[52.5,68.4326],[53,68.46834],[53.5,68.50295],[54,68.53646],[54.5,68.56886],[55,68.60016],[55.5,68.63036],[56,68.65945],[56.5,68.68745],[57,68.71436],[57.5,68.74017],[58,68.76489],[58.5,68.78853],[59,68.81107],[59.5,68.83253],[60,68.85291],[60.5,68.8722],[61,68.89041],[61.5,68.90754],[62,68.92359],[62.5,68.93856],[63,68.95245],[63.5,68.96525],[64,68.97698],[64.5,68.98763],[65,68.9972],[65.5,69.00568],[66,69.01308],[66.5,69.01941],[67,69.02464],[67.5,69.02879],[68,69.03185],[68.5,69.03383],[69,69.03471],[69.5,69.0345],[70,69.0332],[70.5,69.0308],[71,69.02729],[71.5,69.02269],[72,69.01697],[72.5,69.01015],[73,69.00221],[73.5,68.99316],[74,68.98298],[74.5,68.97168],[75,68.95925],[75.5,68.94568],[76,68.93097],[76.5,68.91512],[77,68.89812],[77.5,68.87995],[78,68.86063],[78.5,68.84014],[79,68.81847],[79.5,68.79562],[80,68.77158],[80.5,68.74634],[81,68.7199],[81.5,68.69224],[82,68.66337],[82.5,68.63326],[83,68.60192],[83.5,68.56933],[84,68.53548],[84.5,68.50037],[85,68.46398],[85.5,68.4263],[86,68.38733],[86.5,68.34705],[87,68.30544],[87.5,68.26251],[88,68.21823],[88.5,68.17259],[89,68.12559],[89.5,68.0772],[90,68.02741],[90.5,67.97621],[91,67.92359],[91.5,67.86953],[92,67.81401],[92.5,67.75702],[93,67.69854],[93.5,67.63855],[94,67.57704],[94.5,67.51399],[95,67.44939],[95.5,67.38321],[96,67.31543],[96.5,67.24603],[97,67.175],[97.5,67.10231],[98,67.02794],[98.5,66.95187],[99,66.87408],[99.5,66.79453],[100,66.71322],[100.5,66.63012],[101,66.54519],[101.5,66.45841],[102,66.36977],[102.5,66.27922],[103,66.18674],[103.5,66.09231],[104,65.99589],[104.5,65.89745],[105,65.79696],[105.5,65.69439],[106,65.58971],[106.5,65.48289],[107,65.37388],[107.5,65.26265],[108,65.14917],[108.5,65.0334],[109,64.9153],[109.5,64.79483],[110,64.67195],[110.5,64.54662],[111,64.4188],[111.5,64.28844],[112,64.15549],[112.5,64.01992],[113,63.88167],[113.5,63.74069],[114,63.59694],[114.5,63.45037],[115,63.30092],[115.5,63.14853],[116,62.99315],[116.5,62.83473],[117,62.67321],[117.5,62.50853],[118,62.34062],[118.5,62.16942],[119,61.99487],[119.5,61.8169],[120,61.63545],[120.5,61.45044],[121,61.26181],[121.5,61.06947],[122,60.87336],[122.5,60.6734],[123,60.46951],[123.5,60.26161],[124,60.04961],[124.5,59.83344],[125,59.61301],[125.5,59.38822],[126,59.159],[126.5,58.92525],[127,58.68687],[127.5,58.44377],[128,58.19585],[128.5,57.94302],[129,57.68517],[129.5,57.42221],[130,57.15403],[130.5,56.88052],[131,56.60159],[131.5,56.31712],[132,56.027],[132.5,55.73114],[133,55.42943],[133.5,55.12174],[134,54.80799],[134.5,54.48806],[135,54.16185],[135.5,53.82926],[136,53.49018],[136.5,53.14451],[137,52.79218],[137.5,52.43307],[138,52.06712],[138.5,51.69424],[139,51.31437],[139.5,50.92743],[140,50.53339],[140.5,50.13219],[141,49.72381],[141.5,49.30822],[142,48.88544],[142.5,48.45547],[143,48.01836],[143.5,47.57414],[144,47.12289],[144.5,46.66472],[145,46.19975],[145.5,45.72812],[146,45.25],[146.5,44.76561],[147,44.27518],[147.5,43.77897],[148,43.27727],[148.5,42.77043],[149,42.25878],[149.5,41.74272],[150,41.22268],[150.5,40.69908],[151,40.17242],[151.5,39.64318],[152,39.11188],[152.5,38.57906],[153,38.04526],[153.5,37.51104],[154,36.97697],[154.5,36.4436],[155,35.91152],[155.5,35.38127],[156,34.85339],[156.5,34.32842],[157,33.80688],[157.5,33.28924],[158,32.77599],[158.5,32.26755],[159,31.76434],[159.5,31.26675],[160,30.77511],[160.5,30.28975],[161,29.81095],[161.5,29.33898],[162,28.87404],[162.5,28.41635],[163,27.96605],[163.5,27.52329],[164,27.08818],[164.5,26.66081],[165,26.24124],[165.5,25.82951],[166,25.42564],[166.5,25.02964],[167,24.64151],[167.5,24.2612],[168,23.88869],[168.5,23.52392],[169,23.16684],[169.5,22.81736],[170,22.47542],[170.5,22.14093],[171,21.81379],[171.5,21.49392],[172,21.18121],[172.5,20.87556],[173,20.57687],[173.5,20.28502],[174,19.99991],[174.5,19.72142],[175,19.44945],[175.5,19.18389],[176,18.92462],[176.5,18.67154],[177,18.42453],[177.5,18.18349],[178,17.94831],[178.5,17.71889],[179,17.49511],[179.5,17.27688],[180,17.0641]]}},{"type":"Feature","id":"+11690824:south:1","properties":{"id":"+11690824","year":1169,"month":8,"day":24,"time_tdt":"03:56:00","type":"개기일식","type_code":"T","saros":102,"gamma":0.65613,"magnitude":1.06123,"greatest":{"lat":44.069,"lng":149.21448},"path_width_km":263,"duration":"04m15s","delta_t_seconds":822.6,"catalog_number":7538,"source":"NASA Five Millennium Canon of Solar Eclipses","source_url":"https://eclipse.gsfc.nasa.gov/SEsearch/SEsearchmap.php?Ecl=%2B11690824","boundary":"south","name":"1169-08-24 개기일식"},"geometry":{"type":"LineString","coordinates":[[-179.5,16.85667],[-179,16.65448],[-178.5,16.45744],[-178,16.26547],[-177.5,16.07846],[-177,15.89632],[-176.5,15.71898],[-176,15.54634],[-175.5,15.37832],[-175,15.21483],[-174.5,15.0558],[-174,14.90115],[-173.5,14.75079],[-173,14.60467],[-172.5,14.46269],[-172,14.3248],[-171.5,14.19092],[-171,14.06098],[-170.5,13.93493],[-170,13.81268],[-169.5,13.69419],[-169,13.57938],[-168.5,13.4682],[-168,13.3606],[-167.5,13.25651],[-167,13.15588],[-166.5,13.05865],[-166,12.96477],[-165.5,12.8742],[-165,12.78687],[-164.5,12.70274],[-164,12.62177],[-163.5,12.5439]]}}],"attribution":"Eclipse Predictions by Fred Espenak and Jean Meeus (NASA's GSFC)","generated_at":"2026-09-23T03:35:43.728Z"}
