{"type":"FeatureCollection","year":1173,"events":[{"id":"+11730612","year":1173,"month":6,"day":12,"time_tdt":"05:22:44","type":"금환일식","type_code":"A","saros":104,"gamma":0.3966,"magnitude":0.95313,"greatest":{"lat":47.02299,"lng":105.09344},"path_width_km":187,"duration":"04m51s","delta_t_seconds":810.3,"catalog_number":7547,"source":"NASA Five Millennium Canon of Solar Eclipses","source_url":"https://eclipse.gsfc.nasa.gov/SEsearch/SEsearchmap.php?Ecl=%2B11730612"},{"id":"+11731206","year":1173,"month":12,"day":6,"time_tdt":"20:29:30","type":"개기일식","type_code":"T","saros":109,"gamma":0.00341,"magnitude":1.02336,"greatest":{"lat":-23.24253,"lng":-124.95593},"path_width_km":79.6,"duration":"02m17s","delta_t_seconds":808.8,"catalog_number":7548,"source":"NASA Five Millennium Canon of Solar Eclipses","source_url":"https://eclipse.gsfc.nasa.gov/SEsearch/SEsearchmap.php?Ecl=%2B11731206"}],"features":[{"type":"Feature","id":"+11730612:north:0","properties":{"id":"+11730612","year":1173,"month":6,"day":12,"time_tdt":"05:22:44","type":"금환일식","type_code":"A","saros":104,"gamma":0.3966,"magnitude":0.95313,"greatest":{"lat":47.02299,"lng":105.09344},"path_width_km":187,"duration":"04m51s","delta_t_seconds":810.3,"catalog_number":7547,"source":"NASA Five Millennium Canon of Solar Eclipses","source_url":"https://eclipse.gsfc.nasa.gov/SEsearch/SEsearchmap.php?Ecl=%2B11730612","boundary":"north","name":"1173-06-12 금환일식"},"geometry":{"type":"LineString","coordinates":[[26.7168,26.43827],[27,26.56352],[27.5,26.78519],[28,27.00755],[28.5,27.23058],[29,27.45425],[29.5,27.67855],[30,27.90346],[30.5,28.12894],[31,28.35497],[31.5,28.58154],[32,28.8086],[32.5,29.03614],[33,29.26413],[33.5,29.49253],[34,29.72133],[34.5,29.95048],[35,30.17995],[35.5,30.40972],[36,30.63975],[36.5,30.87],[37,31.10045],[37.5,31.33105],[38,31.56177],[38.5,31.79257],[39,32.02341],[39.5,32.25425],[40,32.48506],[40.5,32.71579],[41,32.94639],[41.5,33.17684],[42,33.40708],[42.5,33.63706],[43,33.86676],[43.5,34.09611],[44,34.32508],[44.5,34.55362],[45,34.78168],[45.5,35.00921],[46,35.23617],[46.5,35.4625],[47,35.68816],[47.5,35.9131],[48,36.13727],[48.5,36.36062],[49,36.5831],[49.5,36.80466],[50,37.02525],[50.5,37.24482],[51,37.46332],[51.5,37.6807],[52,37.89691],[52.5,38.1119],[53,38.32562],[53.5,38.53801],[54,38.74905],[54.5,38.95866],[55,39.16681],[55.5,39.37345],[56,39.57853],[56.5,39.78201],[57,39.98383],[57.5,40.18396],[58,40.38235],[58.5,40.57895],[59,40.77373],[59.5,40.96664],[60,41.15763],[60.5,41.34668],[61,41.53375],[61.5,41.71878],[62,41.90175],[62.5,42.08262],[63,42.26136],[63.5,42.43792],[64,42.61229],[64.5,42.78442],[65,42.95428],[65.5,43.12185],[66,43.2871],[66.5,43.44999],[67,43.61051],[67.5,43.76863],[68,43.92431],[68.5,44.07755],[69,44.22831],[69.5,44.37658],[70,44.52233],[70.5,44.66555],[71,44.80621],[71.5,44.9443],[72,45.07981],[72.5,45.21271],[73,45.343],[73.5,45.47065],[74,45.59566],[74.5,45.71801],[75,45.83769],[75.5,45.95469],[76,46.069],[76.5,46.18061],[77,46.28951],[77.5,46.39569],[78,46.49914],[78.5,46.59986],[79,46.69783],[79.5,46.79306],[80,46.88554],[80.5,46.97525],[81,47.0622],[81.5,47.14637],[82,47.22777],[82.5,47.30639],[83,47.38223],[83.5,47.45527],[84,47.52552],[84.5,47.59298],[85,47.65763],[85.5,47.71947],[86,47.77851],[86.5,47.83473],[87,47.88813],[87.5,47.93872],[88,47.98647],[88.5,48.0314],[89,48.0735],[89.5,48.11276],[90,48.14917],[90.5,48.18274],[91,48.21346],[91.5,48.24132],[92,48.26633],[92.5,48.28846],[93,48.30773],[93.5,48.32411],[94,48.33762],[94.5,48.34823],[95,48.35595],[95.5,48.36076],[96,48.36267],[96.5,48.36165],[97,48.35771],[97.5,48.35083],[98,48.34102],[98.5,48.32825],[99,48.31252],[99.5,48.29382],[100,48.27214],[100.5,48.24747],[101,48.2198],[101.5,48.18912],[102,48.15541],[102.5,48.11867],[103,48.07889],[103.5,48.03604],[104,47.99013],[104.5,47.94113],[105,47.88904],[105.5,47.83383],[106,47.77551],[106.5,47.71404],[107,47.64943],[107.5,47.58165],[108,47.51069],[108.5,47.43654],[109,47.35918],[109.5,47.2786],[110,47.19478],[110.5,47.10771],[111,47.01738],[111.5,46.92376],[112,46.82685],[112.5,46.72664],[113,46.6231],[113.5,46.51623],[114,46.40601],[114.5,46.29243],[115,46.17548],[115.5,46.05514],[116,45.93141],[116.5,45.80427],[117,45.67371],[117.5,45.53974],[118,45.40233],[118.5,45.26148],[119,45.11719],[119.5,44.96945],[120,44.81826],[120.5,44.66361],[121,44.50551],[121.5,44.34396],[122,44.17896],[122.5,44.01051],[123,43.83862],[123.5,43.6633],[124,43.48456],[124.5,43.30242],[125,43.11688],[125.5,42.92796],[126,42.73569],[126.5,42.54008],[127,42.34116],[127.5,42.13896],[128,41.9335],[128.5,41.72483],[129,41.51297],[129.5,41.29796],[130,41.07985],[130.5,40.85867],[131,40.63449],[131.5,40.40734],[132,40.17728],[132.5,39.94437],[133,39.70866],[133.5,39.47022],[134,39.22911],[134.5,38.98541],[135,38.73918],[135.5,38.49049],[136,38.23943],[136.5,37.98606],[137,37.73048],[137.5,37.47276],[138,37.21299],[138.5,36.95125],[139,36.68764],[139.5,36.42225],[140,36.15516],[140.5,35.88648],[141,35.61628],[141.5,35.34468],[142,35.07177],[142.5,34.79763],[143,34.52238],[143.5,34.24609],[144,33.96888],[144.5,33.69084],[145,33.41206],[145.5,33.13263],[146,32.85266],[146.5,32.57223],[147,32.29144],[147.5,32.01038],[148,31.72914],[148.5,31.44779],[149,31.16644],[149.5,30.88517],[150,30.60405],[150.5,30.32316],[151,30.04259],[151.5,29.76241],[152,29.4827],[152.5,29.20352],[153,28.92495],[153.5,28.64704],[154,28.36987],[154.5,28.0935],[155,27.81799],[155.5,27.5434],[156,27.26977],[156.5,26.99716],[157,26.72562],[157.5,26.45521],[158,26.18595],[158.5,25.91791],[159,25.65111],[159.5,25.3856],[160,25.12142],[160.5,24.85859],[161,24.59716],[161.5,24.33715],[162,24.07859],[162.5,23.8215],[163,23.56592],[163.5,23.31187],[164,23.05936],[164.5,22.80842],[165,22.55907],[165.5,22.31132],[166,22.06519],[166.5,21.82069],[167,21.57784],[167.5,21.33665],[168,21.09713],[168.5,20.85928],[169,20.62312],[169.5,20.38865],[170,20.15588],[170.5,19.92482],[171,19.69546],[171.5,19.46782],[172,19.24189],[172.5,19.01768],[173,18.79518],[173.5,18.57441],[174,18.35535]]}},{"type":"Feature","id":"+11730612:center:0","properties":{"id":"+11730612","year":1173,"month":6,"day":12,"time_tdt":"05:22:44","type":"금환일식","type_code":"A","saros":104,"gamma":0.3966,"magnitude":0.95313,"greatest":{"lat":47.02299,"lng":105.09344},"path_width_km":187,"duration":"04m51s","delta_t_seconds":810.3,"catalog_number":7547,"source":"NASA Five Millennium Canon of Solar Eclipses","source_url":"https://eclipse.gsfc.nasa.gov/SEsearch/SEsearchmap.php?Ecl=%2B11730612","boundary":"center","name":"1173-06-12 금환일식"},"geometry":{"type":"LineString","coordinates":[[27.58007,25.46566],[28,25.65757],[28.5,25.88214],[29,26.1074],[29.5,26.33335],[30,26.55995],[30.5,26.78718],[31,27.01502],[31.5,27.24345],[32,27.47244],[32.5,27.70196],[33,27.93199],[33.5,28.1625],[34,28.39346],[34.5,28.62484],[35,28.85662],[35.5,29.08875],[36,29.32121],[36.5,29.55397],[37,29.78698],[37.5,30.02023],[38,30.25366],[38.5,30.48724],[39,30.72094],[39.5,30.95472],[40,31.18853],[40.5,31.42234],[41,31.65611],[41.5,31.88979],[42,32.12334],[42.5,32.35671],[43,32.58987],[43.5,32.82277],[44,33.05536],[44.5,33.28759],[45,33.51942],[45.5,33.7508],[46,33.98168],[46.5,34.21202],[47,34.44175],[47.5,34.67084],[48,34.89924],[48.5,35.12688],[49,35.35373],[49.5,35.57973],[50,35.80482],[50.5,36.02896],[51,36.2521],[51.5,36.47418],[52,36.69515],[52.5,36.91497],[53,37.13357],[53.5,37.35091],[54,37.56693],[54.5,37.78159],[55,37.99483],[55.5,38.20661],[56,38.41687],[56.5,38.62557],[57,38.83266],[57.5,39.03808],[58,39.2418],[58.5,39.44377],[59,39.64393],[59.5,39.84225],[60,40.03868],[60.5,40.23317],[61,40.42569],[61.5,40.6162],[62,40.80465],[62.5,40.991],[63,41.17522],[63.5,41.35726],[64,41.5371],[64.5,41.71469],[65,41.89001],[65.5,42.06302],[66,42.23368],[66.5,42.40197],[67,42.56786],[67.5,42.73131],[68,42.89231],[68.5,43.05082],[69,43.20682],[69.5,43.36029],[70,43.5112],[70.5,43.65953],[71,43.80525],[71.5,43.94836],[72,44.08882],[72.5,44.22663],[73,44.36176],[73.5,44.4942],[74,44.62393],[74.5,44.75094],[75,44.87521],[75.5,44.99673],[76,45.11549],[76.5,45.23148],[77,45.34468],[77.5,45.45509],[78,45.56269],[78.5,45.66748],[79,45.76945],[79.5,45.86858],[80,45.96488],[80.5,46.05833],[81,46.14893],[81.5,46.23668],[82,46.32155],[82.5,46.40356],[83,46.48269],[83.5,46.55894],[84,46.6323],[84.5,46.70277],[85,46.77034],[85.5,46.83501],[86,46.89677],[86.5,46.95563],[87,47.01157],[87.5,47.06459],[88,47.11468],[88.5,47.16184],[89,47.20607],[89.5,47.24737],[90,47.28571],[90.5,47.32111],[91,47.35356],[91.5,47.38304],[92,47.40956],[92.5,47.43311],[93,47.45368],[93.5,47.47127],[94,47.48587],[94.5,47.49747],[95,47.50606],[95.5,47.51165],[96,47.51422],[96.5,47.51375],[97,47.51026],[97.5,47.50371],[98,47.49412],[98.5,47.48146],[99,47.46573],[99.5,47.44692],[100,47.42501],[100.5,47.4],[101,47.37188],[101.5,47.34063],[102,47.30624],[102.5,47.2687],[103,47.228],[103.5,47.18413],[104,47.13706],[104.5,47.0868],[105,47.03332],[105.5,46.97661],[106,46.91666],[106.5,46.85346],[107,46.78698],[107.5,46.71722],[108,46.64416],[108.5,46.56779],[109,46.48808],[109.5,46.40504],[110,46.31863],[110.5,46.22885],[111,46.13568],[111.5,46.03912],[112,45.93913],[112.5,45.83572],[113,45.72886],[113.5,45.61855],[114,45.50476],[114.5,45.38749],[115,45.26674],[115.5,45.14247],[116,45.01469],[116.5,44.88339],[117,44.74855],[117.5,44.61018],[118,44.46825],[118.5,44.32278],[119,44.17375],[119.5,44.02115],[120,43.865],[120.5,43.70529],[121,43.54201],[121.5,43.37519],[122,43.20481],[122.5,43.03089],[123,42.85343],[123.5,42.67246],[124,42.48797],[124.5,42.3],[125,42.10855],[125.5,41.91364],[126,41.71531],[126.5,41.51358],[127,41.30848],[127.5,41.10003],[128,40.88828],[128.5,40.67326],[129,40.45501],[129.5,40.23358],[130,40.00902],[130.5,39.78137],[131,39.55069],[131.5,39.31703],[132,39.08046],[132.5,38.84104],[133,38.59883],[133.5,38.3539],[134,38.10632],[134.5,37.85617],[135,37.60353],[135.5,37.34847],[136,37.09108],[136.5,36.83145],[137,36.56965],[137.5,36.30578],[138,36.03993],[138.5,35.77219],[139,35.50265],[139.5,35.23142],[140,34.95859],[140.5,34.68425],[141,34.40851],[141.5,34.13146],[142,33.85321],[142.5,33.57385],[143,33.29348],[143.5,33.0122],[144,32.73011],[144.5,32.44731],[145,32.1639],[145.5,31.87997],[146,31.59562],[146.5,31.31094],[147,31.02602],[147.5,30.74096],[148,30.45584],[148.5,30.17076],[149,29.88579],[149.5,29.60102],[150,29.31653],[150.5,29.03241],[151,28.74871],[151.5,28.46553],[152,28.18293],[152.5,27.90099],[153,27.61976],[153.5,27.33931],[154,27.05971],[154.5,26.78101],[155,26.50327],[155.5,26.22654],[156,25.95089],[156.5,25.67635],[157,25.40297],[157.5,25.1308],[158,24.85989],[158.5,24.59026],[159,24.32197],[159.5,24.05503],[160,23.7895],[160.5,23.5254],[161,23.26277],[161.5,23.00162],[162,22.74198],[162.5,22.48388],[163,22.22735],[163.5,21.9724],[164,21.71905],[164.5,21.46731],[165,21.21722],[165.5,20.96877],[166,20.72199],[166.5,20.47689],[167,20.23347],[167.5,19.99174],[168,19.75172],[168.5,19.51342],[169,19.27683],[169.5,19.04197],[170,18.80883],[170.5,18.57743],[171,18.34776],[171.5,18.11982],[172,17.89363],[172.5,17.66917],[173,17.44646],[173.26013,17.33277]]}},{"type":"Feature","id":"+11730612:south:0","properties":{"id":"+11730612","year":1173,"month":6,"day":12,"time_tdt":"05:22:44","type":"금환일식","type_code":"A","saros":104,"gamma":0.3966,"magnitude":0.95313,"greatest":{"lat":47.02299,"lng":105.09344},"path_width_km":187,"duration":"04m51s","delta_t_seconds":810.3,"catalog_number":7547,"source":"NASA Five Millennium Canon of Solar Eclipses","source_url":"https://eclipse.gsfc.nasa.gov/SEsearch/SEsearchmap.php?Ecl=%2B11730612","boundary":"south","name":"1173-06-12 금환일식"},"geometry":{"type":"LineString","coordinates":[[28.39453,24.49603],[28.5,24.54377],[29,24.77056],[29.5,24.99807],[30,25.22629],[30.5,25.4552],[31,25.68477],[31.5,25.91498],[32,26.14581],[32.5,26.37723],[33,26.60922],[33.5,26.84175],[34,27.07478],[34.5,27.30831],[35,27.54228],[35.5,27.77669],[36,28.01148],[36.5,28.24664],[37,28.48212],[37.5,28.7179],[38,28.95394],[38.5,29.1902],[39,29.42665],[39.5,29.66325],[40,29.89996],[40.5,30.13674],[41,30.37355],[41.5,30.61035],[42,30.8471],[42.5,31.08374],[43,31.32025],[43.5,31.55658],[44,31.79267],[44.5,32.02848],[45,32.26397],[45.5,32.49908],[46,32.73378],[46.5,32.968],[47,33.2017],[47.5,33.43483],[48,33.66734],[48.5,33.89917],[49,34.13028],[49.5,34.36061],[50,34.59012],[50.5,34.81873],[51,35.04642],[51.5,35.27311],[52,35.49876],[52.5,35.72331],[53,35.94671],[53.5,36.16891],[54,36.38985],[54.5,36.60949],[55,36.82776],[55.5,37.04462],[56,37.26001],[56.5,37.47388],[57,37.68618],[57.5,37.89686],[58,38.10587],[58.5,38.31316],[59,38.51868],[59.5,38.72238],[60,38.92422],[60.5,39.12415],[61,39.32212],[61.5,39.51809],[62,39.71202],[62.5,39.90386],[63,40.09357],[63.5,40.28111],[64,40.46644],[64.5,40.64952],[65,40.83031],[65.5,41.00879],[66,41.1849],[66.5,41.35863],[67,41.52993],[67.5,41.69878],[68,41.86513],[68.5,42.02898],[69,42.19027],[69.5,42.349],[70,42.50513],[70.5,42.65863],[71,42.80949],[71.5,42.95768],[72,43.10318],[72.5,43.24596],[73,43.38602],[73.5,43.52332],[74,43.65785],[74.5,43.7896],[75,43.91855],[75.5,44.04467],[76,44.16797],[76.5,44.28842],[77,44.40601],[77.5,44.52074],[78,44.63257],[78.5,44.74152],[79,44.84756],[79.5,44.95069],[80,45.0509],[80.5,45.14818],[81,45.24252],[81.5,45.33391],[82,45.42234],[82.5,45.50782],[83,45.59032],[83.5,45.66985],[84,45.7464],[84.5,45.81996],[85,45.89053],[85.5,45.9581],[86,46.02267],[86.5,46.08423],[87,46.14277],[87.5,46.19829],[88,46.25078],[88.5,46.30024],[89,46.34667],[89.5,46.39005],[90,46.43038],[90.5,46.46766],[91,46.50188],[91.5,46.53304],[92,46.56112],[92.5,46.58612],[93,46.60804],[93.5,46.62686],[94,46.64259],[94.5,46.65521],[95,46.66471],[95.5,46.67109],[96,46.67434],[96.5,46.67445],[97,46.67142],[97.5,46.66522],[98,46.65586],[98.5,46.64332],[99,46.62759],[99.5,46.60866],[100,46.58653],[100.5,46.56117],[101,46.53258],[101.5,46.50075],[102,46.46566],[102.5,46.4273],[103,46.38567],[103.5,46.34073],[104,46.29249],[104.5,46.24093],[105,46.18603],[105.5,46.12778],[106,46.06616],[106.5,46.00117],[107,45.93278],[107.5,45.86098],[108,45.78576],[108.5,45.7071],[109,45.62499],[109.5,45.53941],[110,45.45034],[110.5,45.35778],[111,45.2617],[111.5,45.1621],[112,45.05895],[112.5,44.95225],[113,44.84198],[113.5,44.72813],[114,44.61069],[114.5,44.48964],[115,44.36497],[115.5,44.23668],[116,44.10475],[116.5,43.96917],[117,43.82994],[117.5,43.68706],[118,43.5405],[118.5,43.39029],[119,43.2364],[119.5,43.07884],[120,42.91761],[120.5,42.75271],[121,42.58414],[121.5,42.41192],[122,42.23605],[122.5,42.05655],[123,41.87341],[123.5,41.68667],[124,41.49633],[124.5,41.30241],[125,41.10495],[125.5,40.90396],[126,40.69947],[126.5,40.49152],[127,40.28014],[127.5,40.06537],[128,39.84724],[128.5,39.6258],[129,39.4011],[129.5,39.17318],[130,38.94211],[130.5,38.70794],[131,38.47072],[131.5,38.23052],[132,37.98741],[132.5,37.74145],[133,37.49273],[133.5,37.2413],[134,36.98726],[134.5,36.73069],[135,36.47166],[135.5,36.21026],[136,35.94658],[136.5,35.68072],[137,35.41277],[137.5,35.14281],[138,34.87096],[138.5,34.5973],[139,34.32193],[139.5,34.04496],[140,33.76648],[140.5,33.48661],[141,33.20544],[141.5,32.92307],[142,32.63961],[142.5,32.35515],[143,32.06981],[143.5,31.78368],[144,31.49687],[144.5,31.20947],[145,30.92159],[145.5,30.63331],[146,30.34474],[146.5,30.05597],[147,29.76709],[147.5,29.4782],[148,29.18938],[148.5,28.90071],[149,28.61229],[149.5,28.3242],[150,28.0365],[150.5,27.74929],[151,27.46264],[151.5,27.17661],[152,26.89128],[152.5,26.60671],[153,26.32298],[153.5,26.04013],[154,25.75823],[154.5,25.47734],[155,25.19751],[155.5,24.91879],[156,24.64123],[156.5,24.36488],[157,24.08978],[157.5,23.81597],[158,23.5435],[158.5,23.2724],[159,23.00271],[159.5,22.73445],[160,22.46766],[160.5,22.20238],[161,21.93862],[161.5,21.67641],[162,21.41577],[162.5,21.15673],[163,20.89931],[163.5,20.64352],[164,20.38939],[164.5,20.13692],[165,19.88613],[165.5,19.63704],[166,19.38965],[166.5,19.14397],[167,18.90002],[167.5,18.6578],[168,18.41732],[168.5,18.17858],[169,17.9416],[169.5,17.70636],[170,17.47288],[170.5,17.24115],[171,17.01118],[171.5,16.78298],[172,16.55653],[172.47461,16.3432]]}},{"type":"Feature","id":"+11731206:north:0","properties":{"id":"+11731206","year":1173,"month":12,"day":6,"time_tdt":"20:29:30","type":"개기일식","type_code":"T","saros":109,"gamma":0.00341,"magnitude":1.02336,"greatest":{"lat":-23.24253,"lng":-124.95593},"path_width_km":79.6,"duration":"02m17s","delta_t_seconds":808.8,"catalog_number":7548,"source":"NASA Five Millennium Canon of Solar Eclipses","source_url":"https://eclipse.gsfc.nasa.gov/SEsearch/SEsearchmap.php?Ecl=%2B11731206","boundary":"north","name":"1173-12-06 개기일식"},"geometry":{"type":"LineString","coordinates":[[170.68164,-1.73914],[171,-1.87549],[171.5,-2.09028],[172,-2.30587],[172.5,-2.52223],[173,-2.73935],[173.5,-2.95723],[174,-3.17584],[174.5,-3.39517],[175,-3.61521],[175.5,-3.83593],[176,-4.05733],[176.5,-4.27939],[177,-4.50208],[177.5,-4.72539],[178,-4.94929],[178.5,-5.17377],[179,-5.39881],[179.5,-5.62438],[180,-5.85046]]}},{"type":"Feature","id":"+11731206:north:1","properties":{"id":"+11731206","year":1173,"month":12,"day":6,"time_tdt":"20:29:30","type":"개기일식","type_code":"T","saros":109,"gamma":0.00341,"magnitude":1.02336,"greatest":{"lat":-23.24253,"lng":-124.95593},"path_width_km":79.6,"duration":"02m17s","delta_t_seconds":808.8,"catalog_number":7548,"source":"NASA Five Millennium Canon of Solar Eclipses","source_url":"https://eclipse.gsfc.nasa.gov/SEsearch/SEsearchmap.php?Ecl=%2B11731206","boundary":"north","name":"1173-12-06 개기일식"},"geometry":{"type":"LineString","coordinates":[[-179.5,-6.07703],[-179,-6.30406],[-178.5,-6.53152],[-178,-6.75939],[-177.5,-6.98764],[-177,-7.21625],[-176.5,-7.44517],[-176,-7.67439],[-175.5,-7.90387],[-175,-8.13357],[-174.5,-8.36347],[-174,-8.59353],[-173.5,-8.82371],[-173,-9.05397],[-172.5,-9.28428],[-172,-9.5146],[-171.5,-9.74488],[-171,-9.97509],[-170.5,-10.20518],[-170,-10.43512],[-169.5,-10.66484],[-169,-10.89431],[-168.5,-11.12348],[-168,-11.3523],[-167.5,-11.58072],[-167,-11.80869],[-166.5,-12.03616],[-166,-12.26307],[-165.5,-12.48937],[-165,-12.71501],[-164.5,-12.93992],[-164,-13.16405],[-163.5,-13.38734],[-163,-13.60972],[-162.5,-13.83115],[-162,-14.05156],[-161.5,-14.27087],[-161,-14.48904],[-160.5,-14.70599],[-160,-14.92166],[-159.5,-15.13598],[-159,-15.34889],[-158.5,-15.56031],[-158,-15.77018],[-157.5,-15.97843],[-157,-16.18499],[-156.5,-16.38978],[-156,-16.59275],[-155.5,-16.79381],[-155,-16.99289],[-154.5,-17.18993],[-154,-17.38485],[-153.5,-17.57757],[-153,-17.76804],[-152.5,-17.95616],[-152,-18.14188],[-151.5,-18.32512],[-151,-18.5058],[-150.5,-18.68386],[-150,-18.85923],[-149.5,-19.03183],[-149,-19.2016],[-148.5,-19.36845],[-148,-19.53234],[-147.5,-19.69318],[-147,-19.85091],[-146.5,-20.00546],[-146,-20.15677],[-145.5,-20.30476],[-145,-20.44939],[-144.5,-20.59057],[-144,-20.72826],[-143.5,-20.86238],[-143,-20.99289],[-142.5,-21.11971],[-142,-21.2428],[-141.5,-21.36209],[-141,-21.47753],[-140.5,-21.58908],[-140,-21.69666],[-139.5,-21.80024],[-139,-21.89977],[-138.5,-21.99519],[-138,-22.08646],[-137.5,-22.17354],[-137,-22.25637],[-136.5,-22.33492],[-136,-22.40915],[-135.5,-22.47902],[-135,-22.54449],[-134.5,-22.60552],[-134,-22.66207],[-133.5,-22.71413],[-133,-22.76164],[-132.5,-22.80459],[-132,-22.84295],[-131.5,-22.87668],[-131,-22.90577],[-130.5,-22.93019],[-130,-22.94991],[-129.5,-22.96492],[-129,-22.97521],[-128.5,-22.98074],[-128,-22.98151],[-127.5,-22.9775],[-127,-22.96871],[-126.5,-22.95511],[-126,-22.93671],[-125.5,-22.9135],[-125,-22.88547],[-124.5,-22.85262],[-124,-22.81495],[-123.5,-22.77247],[-123,-22.72516],[-122.5,-22.67305],[-122,-22.61613],[-121.5,-22.55443],[-121,-22.48794],[-120.5,-22.41668],[-120,-22.34067],[-119.5,-22.25993],[-119,-22.17447],[-118.5,-22.08433],[-118,-21.98952],[-117.5,-21.89007],[-117,-21.78602],[-116.5,-21.67739],[-116,-21.56422],[-115.5,-21.44655],[-115,-21.32442],[-114.5,-21.19786],[-114,-21.06693],[-113.5,-20.93167],[-113,-20.79213],[-112.5,-20.64837],[-112,-20.50043],[-111.5,-20.34838],[-111,-20.19227],[-110.5,-20.03216],[-110,-19.86813],[-109.5,-19.70024],[-109,-19.52855],[-108.5,-19.35314],[-108,-19.17407],[-107.5,-18.99144],[-107,-18.8053],[-106.5,-18.61575],[-106,-18.42285],[-105.5,-18.2267],[-105,-18.02738],[-104.5,-17.82497],[-104,-17.61957],[-103.5,-17.41125],[-103,-17.2001],[-102.5,-16.98623],[-102,-16.76971],[-101.5,-16.55064],[-101,-16.32911],[-100.5,-16.10521],[-100,-15.87904],[-99.5,-15.65069],[-99,-15.42025],[-98.5,-15.18782],[-98,-14.95348],[-97.5,-14.71734],[-97,-14.47948],[-96.5,-14.23999],[-96,-13.99896],[-95.5,-13.75649],[-95,-13.51266],[-94.5,-13.26756],[-94,-13.02128],[-93.5,-12.7739],[-93,-12.5255],[-92.5,-12.27618],[-92,-12.02601],[-91.5,-11.77507],[-91,-11.52343],[-90.5,-11.27119],[-90,-11.0184],[-89.5,-10.76515],[-89,-10.5115],[-88.5,-10.25753],[-88,-10.00331],[-87.5,-9.74889],[-87,-9.49436],[-86.5,-9.23975],[-86,-8.98515],[-85.5,-8.7306],[-85,-8.47617],[-84.5,-8.2219],[-84,-7.96786],[-83.5,-7.7141],[-83,-7.46065],[-82.5,-7.20758],[-82,-6.95493],[-81.5,-6.70274],[-81,-6.45106],[-80.5,-6.19993],[-80,-5.94938],[-79.5,-5.69946],[-79,-5.4502],[-78.5,-5.20164],[-78,-4.95381],[-77.5,-4.70674],[-77,-4.46046],[-76.5,-4.21501],[-76,-3.9704],[-75.5,-3.72667],[-75,-3.48384],[-74.5,-3.24194],[-74,-3.00099],[-73.5,-2.76101],[-73,-2.52201],[-72.5,-2.28403],[-72,-2.04708],[-71.5,-1.81117],[-71,-1.57633],[-70.5,-1.34257],[-70,-1.10989],[-69.5,-0.87833],[-69,-0.64788],[-68.5,-0.41857],[-68,-0.1904],[-67.5,0.03662],[-67,0.26247],[-66.5,0.48715],[-66,0.71065],[-65.5,0.93296],[-65,1.15407],[-64.5,1.37398],[-64,1.59268],[-63.5,1.81017],[-63,2.02643],[-62.5,2.24147],[-62.32422,2.31678]]}},{"type":"Feature","id":"+11731206:center:0","properties":{"id":"+11731206","year":1173,"month":12,"day":6,"time_tdt":"20:29:30","type":"개기일식","type_code":"T","saros":109,"gamma":0.00341,"magnitude":1.02336,"greatest":{"lat":-23.24253,"lng":-124.95593},"path_width_km":79.6,"duration":"02m17s","delta_t_seconds":808.8,"catalog_number":7548,"source":"NASA Five Millennium Canon of Solar Eclipses","source_url":"https://eclipse.gsfc.nasa.gov/SEsearch/SEsearchmap.php?Ecl=%2B11731206","boundary":"center","name":"1173-12-06 개기일식"},"geometry":{"type":"LineString","coordinates":[[170.64201,-1.81053],[171,-1.96539],[171.5,-2.18313],[172,-2.40167],[172.5,-2.62101],[173,-2.84112],[173.5,-3.062],[174,-3.28363],[174.5,-3.506],[175,-3.72909],[175.5,-3.95288],[176,-4.17735],[176.5,-4.4025],[177,-4.62829],[177.5,-4.85471],[178,-5.08174],[178.5,-5.30936],[179,-5.53755],[179.5,-5.76627],[180,-5.99552]]}},{"type":"Feature","id":"+11731206:center:1","properties":{"id":"+11731206","year":1173,"month":12,"day":6,"time_tdt":"20:29:30","type":"개기일식","type_code":"T","saros":109,"gamma":0.00341,"magnitude":1.02336,"greatest":{"lat":-23.24253,"lng":-124.95593},"path_width_km":79.6,"duration":"02m17s","delta_t_seconds":808.8,"catalog_number":7548,"source":"NASA Five Millennium Canon of Solar Eclipses","source_url":"https://eclipse.gsfc.nasa.gov/SEsearch/SEsearchmap.php?Ecl=%2B11731206","boundary":"center","name":"1173-12-06 개기일식"},"geometry":{"type":"LineString","coordinates":[[-179.5,-6.22526],[-179,-6.45547],[-178.5,-6.68612],[-178,-6.91719],[-177.5,-7.14864],[-177,-7.38045],[-176.5,-7.61259],[-176,-7.84502],[-175.5,-8.07771],[-175,-8.31063],[-174.5,-8.54374],[-174,-8.77701],[-173.5,-9.01041],[-173,-9.24388],[-172.5,-9.4774],[-172,-9.71092],[-171.5,-9.9444],[-171,-10.1778],[-170.5,-10.41107],[-170,-10.64418],[-169.5,-10.87706],[-169,-11.10968],[-168.5,-11.34199],[-168,-11.57393],[-167.5,-11.80546],[-167,-12.03652],[-166.5,-12.26706],[-166,-12.49702],[-165.5,-12.72636],[-165,-12.955],[-164.5,-13.1829],[-164,-13.40999],[-163.5,-13.63621],[-163,-13.86151],[-162.5,-14.08582],[-162,-14.30907],[-161.5,-14.5312],[-161,-14.75216],[-160.5,-14.97186],[-160,-15.19025],[-159.5,-15.40725],[-159,-15.6228],[-158.5,-15.83683],[-158,-16.04926],[-157.5,-16.26004],[-157,-16.46908],[-156.5,-16.67632],[-156,-16.88168],[-155.5,-17.0851],[-155,-17.28649],[-154.5,-17.48579],[-154,-17.68293],[-153.5,-17.87783],[-153,-18.07042],[-152.5,-18.26062],[-152,-18.44837],[-151.5,-18.63359],[-151,-18.81621],[-150.5,-18.99615],[-150,-19.17336],[-149.5,-19.34775],[-149,-19.51925],[-148.5,-19.68781],[-148,-19.85334],[-147.5,-20.01577],[-147,-20.17505],[-146.5,-20.33111],[-146,-20.48387],[-145.5,-20.63328],[-145,-20.77928],[-144.5,-20.92179],[-144,-21.06076],[-143.5,-21.19612],[-143,-21.32782],[-142.5,-21.45581],[-142,-21.58001],[-141.5,-21.70039],[-141,-21.81688],[-140.5,-21.92943],[-140,-22.03799],[-139.5,-22.14251],[-139,-22.24295],[-138.5,-22.33925],[-138,-22.43136],[-137.5,-22.51926],[-137,-22.60288],[-136.5,-22.6822],[-136,-22.75717],[-135.5,-22.82775],[-135,-22.89391],[-134.5,-22.95561],[-134,-23.01281],[-133.5,-23.0655],[-133,-23.11363],[-132.5,-23.15717],[-132,-23.1961],[-131.5,-23.23039],[-131,-23.26002],[-130.5,-23.28497],[-130,-23.30521],[-129.5,-23.32072],[-129,-23.33149],[-128.5,-23.3375],[-128,-23.33873],[-127.5,-23.33517],[-127,-23.32681],[-126.5,-23.31364],[-126,-23.29565],[-125.5,-23.27284],[-125,-23.2452],[-124.5,-23.21272],[-124,-23.17541],[-123.5,-23.13327],[-123,-23.08629],[-122.5,-23.0345],[-122,-22.97788],[-121.5,-22.91645],[-121,-22.85022],[-120.5,-22.77921],[-120,-22.70342],[-119.5,-22.62288],[-119,-22.5376],[-118.5,-22.44761],[-118,-22.35292],[-117.5,-22.25358],[-117,-22.14959],[-116.5,-22.041],[-116,-21.92784],[-115.5,-21.81014],[-115,-21.68794],[-114.5,-21.56128],[-114,-21.43021],[-113.5,-21.29476],[-113,-21.155],[-112.5,-21.01096],[-112,-20.8627],[-111.5,-20.71028],[-111,-20.55375],[-110.5,-20.39318],[-110,-20.22862],[-109.5,-20.06014],[-109,-19.88781],[-108.5,-19.7117],[-108,-19.53188],[-107.5,-19.34843],[-107,-19.16141],[-106.5,-18.97091],[-106,-18.77701],[-105.5,-18.57978],[-105,-18.37932],[-104.5,-18.1757],[-104,-17.96901],[-103.5,-17.75935],[-103,-17.54679],[-102.5,-17.33142],[-102,-17.11335],[-101.5,-16.89266],[-101,-16.66944],[-100.5,-16.44378],[-100,-16.21578],[-99.5,-15.98554],[-99,-15.75313],[-98.5,-15.51867],[-98,-15.28224],[-97.5,-15.04394],[-97,-14.80385],[-96.5,-14.56208],[-96,-14.31871],[-95.5,-14.07383],[-95,-13.82754],[-94.5,-13.57993],[-94,-13.33107],[-93.5,-13.08107],[-93,-12.83],[-92.5,-12.57795],[-92,-12.325],[-91.5,-12.07124],[-91,-11.81674],[-90.5,-11.56159],[-90,-11.30586],[-89.5,-11.04962],[-89,-10.79296],[-88.5,-10.53594],[-88,-10.27862],[-87.5,-10.02109],[-87,-9.76341],[-86.5,-9.50563],[-86,-9.24783],[-85.5,-8.99006],[-85,-8.73239],[-84.5,-8.47487],[-84,-8.21755],[-83.5,-7.96049],[-83,-7.70373],[-82.5,-7.44734],[-82,-7.19136],[-81.5,-6.93583],[-81,-6.6808],[-80.5,-6.42631],[-80,-6.1724],[-79.5,-5.91912],[-79,-5.66649],[-78.5,-5.41456],[-78,-5.16336],[-77.5,-4.91292],[-77,-4.66327],[-76.5,-4.41446],[-76,-4.16649],[-75.5,-3.91941],[-75,-3.67324],[-74.5,-3.428],[-74,-3.18371],[-73.5,-2.94041],[-73,-2.6981],[-72.5,-2.45682],[-72,-2.21658],[-71.5,-1.97739],[-71,-1.73928],[-70.5,-1.50226],[-70,-1.26635],[-69.5,-1.03156],[-69,-0.7979],[-68.5,-0.56539],[-68,-0.33404],[-67.5,-0.10386],[-67,0.12514],[-66.5,0.35295],[-66,0.57957],[-65.5,0.80498],[-65,1.02917],[-64.5,1.25214],[-64,1.47389],[-63.5,1.6944],[-63,1.91367],[-62.5,2.1317],[-62.27815,2.22863]]}},{"type":"Feature","id":"+11731206:south:0","properties":{"id":"+11731206","year":1173,"month":12,"day":6,"time_tdt":"20:29:30","type":"개기일식","type_code":"T","saros":109,"gamma":0.00341,"magnitude":1.02336,"greatest":{"lat":-23.24253,"lng":-124.95593},"path_width_km":79.6,"duration":"02m17s","delta_t_seconds":808.8,"catalog_number":7548,"source":"NASA Five Millennium Canon of Solar Eclipses","source_url":"https://eclipse.gsfc.nasa.gov/SEsearch/SEsearchmap.php?Ecl=%2B11731206","boundary":"south","name":"1173-12-06 개기일식"},"geometry":{"type":"LineString","coordinates":[[170.60742,-1.88307],[171,-2.05577],[171.5,-2.27646],[172,-2.49798],[172.5,-2.72031],[173,-2.94343],[173.5,-3.16734],[174,-3.39201],[174.5,-3.61743],[175,-3.84359],[175.5,-4.07046],[176,-4.29803],[176.5,-4.52629],[177,-4.7552],[177.5,-4.98476],[178,-5.21494],[178.5,-5.44571],[179,-5.67706],[179.5,-5.90897],[180,-6.1414]]}},{"type":"Feature","id":"+11731206:south:1","properties":{"id":"+11731206","year":1173,"month":12,"day":6,"time_tdt":"20:29:30","type":"개기일식","type_code":"T","saros":109,"gamma":0.00341,"magnitude":1.02336,"greatest":{"lat":-23.24253,"lng":-124.95593},"path_width_km":79.6,"duration":"02m17s","delta_t_seconds":808.8,"catalog_number":7548,"source":"NASA Five Millennium Canon of Solar Eclipses","source_url":"https://eclipse.gsfc.nasa.gov/SEsearch/SEsearchmap.php?Ecl=%2B11731206","boundary":"south","name":"1173-12-06 개기일식"},"geometry":{"type":"LineString","coordinates":[[-179.5,-6.37434],[-179,-6.60775],[-178.5,-6.84161],[-178,-7.07589],[-177.5,-7.31056],[-177,-7.5456],[-176.5,-7.78096],[-176,-8.01662],[-175.5,-8.25255],[-175,-8.4887],[-174.5,-8.72505],[-174,-8.96156],[-173.5,-9.19818],[-173,-9.43489],[-172.5,-9.67163],[-172,-9.90837],[-171.5,-10.14506],[-171,-10.38167],[-170.5,-10.61814],[-170,-10.85443],[-169.5,-11.09049],[-169,-11.32627],[-168.5,-11.56173],[-168,-11.7968],[-167.5,-12.03145],[-167,-12.26561],[-166.5,-12.49923],[-166,-12.73225],[-165.5,-12.96463],[-165,-13.19628],[-164.5,-13.42717],[-164,-13.65723],[-163.5,-13.88639],[-163,-14.1146],[-162.5,-14.34178],[-162,-14.56789],[-161.5,-14.79284],[-161,-15.01657],[-160.5,-15.23902],[-160,-15.46012],[-159.5,-15.6798],[-159,-15.89799],[-158.5,-16.11461],[-158,-16.32961],[-157.5,-16.5429],[-157,-16.75441],[-156.5,-16.96408],[-156,-17.17183],[-155.5,-17.37758],[-155,-17.58127],[-154.5,-17.78282],[-154,-17.98216],[-153.5,-18.17921],[-153,-18.3739],[-152.5,-18.56616],[-152,-18.75592],[-151.5,-18.9431],[-151,-19.12763],[-150.5,-19.30943],[-150,-19.48845],[-149.5,-19.6646],[-149,-19.83782],[-148.5,-20.00804],[-148,-20.17519],[-147.5,-20.3392],[-147,-20.5],[-146.5,-20.65753],[-146,-20.81173],[-145.5,-20.96252],[-145,-21.10985],[-144.5,-21.25366],[-144,-21.39388],[-143.5,-21.53046],[-143,-21.66333],[-142.5,-21.79245],[-142,-21.91775],[-141.5,-22.03918],[-141,-22.15668],[-140.5,-22.27022],[-140,-22.37973],[-139.5,-22.48516],[-139,-22.58648],[-138.5,-22.68363],[-138,-22.77657],[-137.5,-22.86526],[-137,-22.94965],[-136.5,-23.02971],[-136,-23.1054],[-135.5,-23.17667],[-135,-23.2435],[-134.5,-23.30585],[-134,-23.36369],[-133.5,-23.41699],[-133,-23.46571],[-132.5,-23.50983],[-132,-23.54932],[-131.5,-23.58416],[-131,-23.61432],[-130.5,-23.63978],[-130,-23.66052],[-129.5,-23.67653],[-129,-23.68777],[-128.5,-23.69424],[-128,-23.69593],[-127.5,-23.69281],[-127,-23.68489],[-126.5,-23.67214],[-126,-23.65456],[-125.5,-23.63214],[-125,-23.60488],[-124.5,-23.57278],[-124,-23.53583],[-123.5,-23.49404],[-123,-23.4474],[-122.5,-23.39592],[-122,-23.33961],[-121.5,-23.27847],[-121,-23.21251],[-120.5,-23.14175],[-120,-23.06619],[-119.5,-22.98586],[-119,-22.90078],[-118.5,-22.81095],[-118,-22.71641],[-117.5,-22.61718],[-117,-22.51328],[-116.5,-22.40475],[-116,-22.29162],[-115.5,-22.17391],[-115,-22.05167],[-114.5,-21.92494],[-114,-21.79375],[-113.5,-21.65815],[-113,-21.51818],[-112.5,-21.3739],[-112,-21.22535],[-111.5,-21.07259],[-111,-20.91568],[-110.5,-20.75467],[-110,-20.58962],[-109.5,-20.42059],[-109,-20.24766],[-108.5,-20.07089],[-108,-19.89035],[-107.5,-19.70612],[-107,-19.51825],[-106.5,-19.32685],[-106,-19.13197],[-105.5,-18.93371],[-105,-18.73214],[-104.5,-18.52734],[-104,-18.31942],[-103.5,-18.10844],[-103,-17.8945],[-102.5,-17.67769],[-102,-17.4581],[-101.5,-17.23582],[-101,-17.01094],[-100.5,-16.78355],[-100,-16.55376],[-99.5,-16.32164],[-99,-16.08731],[-98.5,-15.85085],[-98,-15.61235],[-97.5,-15.37191],[-97,-15.12963],[-96.5,-14.88559],[-96,-14.6399],[-95.5,-14.39264],[-95,-14.1439],[-94.5,-13.89379],[-94,-13.64237],[-93.5,-13.38976],[-93,-13.13602],[-92.5,-12.88125],[-92,-12.62554],[-91.5,-12.36897],[-91,-12.11161],[-90.5,-11.85356],[-90,-11.59489],[-89.5,-11.33567],[-89,-11.07598],[-88.5,-10.8159],[-88,-10.5555],[-87.5,-10.29485],[-87,-10.03401],[-86.5,-9.77305],[-86,-9.51205],[-85.5,-9.25105],[-85,-8.99012],[-84.5,-8.72932],[-84,-8.46871],[-83.5,-8.20834],[-83,-7.94827],[-82.5,-7.68854],[-82,-7.42921],[-81.5,-7.17032],[-81,-6.91192],[-80.5,-6.65406],[-80,-6.39677],[-79.5,-6.14009],[-79,-5.88408],[-78.5,-5.62876],[-78,-5.37416],[-77.5,-5.12034],[-77,-4.86731],[-76.5,-4.6151],[-76,-4.36376],[-75.5,-4.1133],[-75,-3.86376],[-74.5,-3.61515],[-74,-3.36752],[-73.5,-3.12087],[-73,-2.87523],[-72.5,-2.63062],[-72,-2.38706],[-71.5,-2.14457],[-71,-1.90317],[-70.5,-1.66287],[-70,-1.4237],[-69.5,-1.18566],[-69,-0.94877],[-68.5,-0.71304],[-68,-0.47848],[-67.5,-0.24511],[-67,-0.01294],[-66.5,0.21803],[-66,0.44778],[-65.5,0.6763],[-65,0.9036],[-64.5,1.12965],[-64,1.35446],[-63.5,1.57802],[-63,1.80032],[-62.5,2.02136],[-62.23242,2.13913]]}}],"attribution":"Eclipse Predictions by Fred Espenak and Jean Meeus (NASA's GSFC)","generated_at":"2026-09-23T03:35:43.764Z"}
