{"type":"FeatureCollection","year":1184,"events":[{"id":"+11840511","year":1184,"month":5,"day":11,"time_tdt":"20:39:04","type":"개기일식","type_code":"T","saros":105,"gamma":-0.20943,"magnitude":1.06088,"greatest":{"lat":8.26696,"lng":-123.88348},"path_width_km":204.2,"duration":"05m35s","delta_t_seconds":776,"catalog_number":7575,"source":"NASA Five Millennium Canon of Solar Eclipses","source_url":"https://eclipse.gsfc.nasa.gov/SEsearch/SEsearchmap.php?Ecl=%2B11840511"},{"id":"+11841105","year":1184,"month":11,"day":5,"time_tdt":"05:09:12","type":"금환일식","type_code":"A","saros":110,"gamma":0.06585,"magnitude":0.92244,"greatest":{"lat":-14.41479,"lng":103.68011},"path_width_km":293.6,"duration":"09m45s","delta_t_seconds":774.5,"catalog_number":7576,"source":"NASA Five Millennium Canon of Solar Eclipses","source_url":"https://eclipse.gsfc.nasa.gov/SEsearch/SEsearchmap.php?Ecl=%2B11841105"}],"features":[{"type":"Feature","id":"+11840511:north:0","properties":{"id":"+11840511","year":1184,"month":5,"day":11,"time_tdt":"20:39:04","type":"개기일식","type_code":"T","saros":105,"gamma":-0.20943,"magnitude":1.06088,"greatest":{"lat":8.26696,"lng":-123.88348},"path_width_km":204.2,"duration":"05m35s","delta_t_seconds":776,"catalog_number":7575,"source":"NASA Five Millennium Canon of Solar Eclipses","source_url":"https://eclipse.gsfc.nasa.gov/SEsearch/SEsearchmap.php?Ecl=%2B11840511","boundary":"north","name":"1184-05-11 개기일식"},"geometry":{"type":"LineString","coordinates":[[178.9375,-28.47897],[179,-28.45575],[179.5,-28.2687],[180,-28.07933]]}},{"type":"Feature","id":"+11840511:north:1","properties":{"id":"+11840511","year":1184,"month":5,"day":11,"time_tdt":"20:39:04","type":"개기일식","type_code":"T","saros":105,"gamma":-0.20943,"magnitude":1.06088,"greatest":{"lat":8.26696,"lng":-123.88348},"path_width_km":204.2,"duration":"05m35s","delta_t_seconds":776,"catalog_number":7575,"source":"NASA Five Millennium Canon of Solar Eclipses","source_url":"https://eclipse.gsfc.nasa.gov/SEsearch/SEsearchmap.php?Ecl=%2B11840511","boundary":"north","name":"1184-05-11 개기일식"},"geometry":{"type":"LineString","coordinates":[[-179.5,-27.88761],[-179,-27.69352],[-178.5,-27.49704],[-178,-27.29813],[-177.5,-27.09678],[-177,-26.89295],[-176.5,-26.68662],[-176,-26.47776],[-175.5,-26.26635],[-175,-26.05235],[-174.5,-25.83573],[-174,-25.61648],[-173.5,-25.39455],[-173,-25.16993],[-172.5,-24.94257],[-172,-24.71245],[-171.5,-24.47954],[-171,-24.24381],[-170.5,-24.00523],[-170,-23.76376],[-169.5,-23.51937],[-169,-23.27204],[-168.5,-23.02172],[-168,-22.76839],[-167.5,-22.51202],[-167,-22.25256],[-166.5,-21.98999],[-166,-21.72428],[-165.5,-21.45539],[-165,-21.18329],[-164.5,-20.90794],[-164,-20.62931],[-163.5,-20.34738],[-163,-20.0621],[-162.5,-19.77345],[-162,-19.4814],[-161.5,-19.18591],[-161,-18.88695],[-160.5,-18.58449],[-160,-18.27851],[-159.5,-17.96897],[-159,-17.65586],[-158.5,-17.33914],[-158,-17.01879],[-157.5,-16.6948],[-157,-16.36713],[-156.5,-16.03577],[-156,-15.7007],[-155.5,-15.36192],[-155,-15.0194],[-154.5,-14.67315],[-154,-14.32316],[-153.5,-13.96942],[-153,-13.61195],[-152.5,-13.25074],[-152,-12.88582],[-151.5,-12.5172],[-151,-12.14489],[-150.5,-11.76894],[-150,-11.38937],[-149.5,-11.00624],[-149,-10.61957],[-148.5,-10.22945],[-148,-9.83593],[-147.5,-9.43908],[-147,-9.03899],[-146.5,-8.63576],[-146,-8.22948],[-145.5,-7.82027],[-145,-7.40825],[-144.5,-6.99358],[-144,-6.57638],[-143.5,-6.15683],[-143,-5.73509],[-142.5,-5.31136],[-142,-4.88584],[-141.5,-4.45873],[-141,-4.03026],[-140.5,-3.60067],[-140,-3.17022],[-139.5,-2.73915],[-139,-2.30775],[-138.5,-1.8763],[-138,-1.44509],[-137.5,-1.01443],[-137,-0.58463],[-136.5,-0.15601],[-136,0.27111],[-135.5,0.6964],[-135,1.11953],[-134.5,1.54017],[-134,1.95798],[-133.5,2.37264],[-133,2.78382],[-132.5,3.1912],[-132,3.59447],[-131.5,3.99331],[-131,4.38745],[-130.5,4.77658],[-130,5.16044],[-129.5,5.53877],[-129,5.91132],[-128.5,6.27786],[-128,6.63819],[-127.5,6.99209],[-127,7.3394],[-126.5,7.67994],[-126,8.01356],[-125.5,8.34014],[-125,8.65956],[-124.5,8.97172],[-124,9.27653],[-123.5,9.57393],[-123,9.86385],[-122.5,10.14627],[-122,10.42114],[-121.5,10.68846],[-121,10.94822],[-120.5,11.20042],[-120,11.44509],[-119.5,11.68224],[-119,11.91192],[-118.5,12.13416],[-118,12.34901],[-117.5,12.55652],[-117,12.75677],[-116.5,12.94981],[-116,13.13571],[-115.5,13.31454],[-115,13.4864],[-114.5,13.65135],[-114,13.80948],[-113.5,13.96087],[-113,14.10562],[-112.5,14.24381],[-112,14.37552],[-111.5,14.50086],[-111,14.61991],[-110.5,14.73276],[-110,14.8395],[-109.5,14.94023],[-109,15.03504],[-108.5,15.12401],[-108,15.20724],[-107.5,15.28481],[-107,15.35682],[-106.5,15.42335],[-106,15.48449],[-105.5,15.54032],[-105,15.59093],[-104.5,15.63641],[-104,15.67684],[-103.5,15.71229],[-103,15.74285],[-102.5,15.7686],[-102,15.78961],[-101.5,15.80597],[-101,15.81775],[-100.5,15.82502],[-100,15.82787],[-99.5,15.82635],[-99,15.82054],[-98.5,15.81051],[-98,15.79634],[-97.5,15.77808],[-97,15.75581],[-96.5,15.72959],[-96,15.69949],[-95.5,15.66557],[-95,15.62789],[-94.5,15.58652],[-94,15.54152],[-93.5,15.49294],[-93,15.44086],[-92.5,15.38531],[-92,15.32637],[-91.5,15.26409],[-91,15.19852],[-90.5,15.12972],[-90,15.05775],[-89.5,14.98266],[-89,14.9045],[-88.5,14.82333],[-88,14.73919],[-87.5,14.65213],[-87,14.56222],[-86.5,14.46949],[-86,14.37399],[-85.5,14.27578],[-85,14.1749],[-84.5,14.0714],[-84,13.96533],[-83.5,13.85673],[-83,13.74564],[-82.5,13.63212],[-82,13.5162],[-81.5,13.39793],[-81,13.27736],[-80.5,13.15452],[-80,13.02947],[-79.5,12.90223],[-79,12.77286],[-78.5,12.64139],[-78,12.50786],[-77.5,12.37232],[-77,12.23481],[-76.5,12.09535],[-76,11.954],[-75.5,11.81079],[-75,11.66575],[-74.5,11.51893],[-74,11.37036],[-73.5,11.22009],[-73,11.06813],[-72.5,10.91454],[-72,10.75934],[-71.5,10.60257],[-71,10.44427],[-70.5,10.28447],[-70,10.1232],[-69.5,9.9605],[-69,9.7964],[-68.5,9.63093],[-68,9.46412],[-67.5,9.29601],[-67,9.12663],[-66.5,8.956],[-66,8.78417],[-65.5,8.61115],[-65,8.43698],[-64.5,8.26169],[-64,8.08531],[-63.5,7.90786],[-63,7.72938],[-62.5,7.54989],[-62,7.36941],[-61.5,7.18799],[-61,7.00564],[-60.85938,6.95419]]}},{"type":"Feature","id":"+11840511:center:0","properties":{"id":"+11840511","year":1184,"month":5,"day":11,"time_tdt":"20:39:04","type":"개기일식","type_code":"T","saros":105,"gamma":-0.20943,"magnitude":1.06088,"greatest":{"lat":8.26696,"lng":-123.88348},"path_width_km":204.2,"duration":"05m35s","delta_t_seconds":776,"catalog_number":7575,"source":"NASA Five Millennium Canon of Solar Eclipses","source_url":"https://eclipse.gsfc.nasa.gov/SEsearch/SEsearchmap.php?Ecl=%2B11840511","boundary":"center","name":"1184-05-11 개기일식"},"geometry":{"type":"LineString","coordinates":[[179.22773,-29.09901],[179.5,-28.9813],[180,-28.79544]]}},{"type":"Feature","id":"+11840511:center:1","properties":{"id":"+11840511","year":1184,"month":5,"day":11,"time_tdt":"20:39:04","type":"개기일식","type_code":"T","saros":105,"gamma":-0.20943,"magnitude":1.06088,"greatest":{"lat":8.26696,"lng":-123.88348},"path_width_km":204.2,"duration":"05m35s","delta_t_seconds":776,"catalog_number":7575,"source":"NASA Five Millennium Canon of Solar Eclipses","source_url":"https://eclipse.gsfc.nasa.gov/SEsearch/SEsearchmap.php?Ecl=%2B11840511","boundary":"center","name":"1184-05-11 개기일식"},"geometry":{"type":"LineString","coordinates":[[-179.5,-28.60728],[-179,-28.41679],[-178.5,-28.22395],[-178,-28.02873],[-177.5,-27.83111],[-177,-27.63106],[-176.5,-27.42856],[-176,-27.22358],[-175.5,-27.0161],[-175,-26.80608],[-174.5,-26.59349],[-174,-26.37832],[-173.5,-26.16053],[-173,-25.94009],[-172.5,-25.71698],[-172,-25.49116],[-171.5,-25.2626],[-171,-25.03128],[-170.5,-24.79716],[-170,-24.56022],[-169.5,-24.32042],[-169,-24.07773],[-168.5,-23.83211],[-168,-23.58355],[-167.5,-23.332],[-167,-23.07743],[-166.5,-22.81982],[-166,-22.55912],[-165.5,-22.29531],[-165,-22.02835],[-164.5,-21.75821],[-164,-21.48486],[-163.5,-21.20827],[-163,-20.9284],[-162.5,-20.64523],[-162,-20.35871],[-161.5,-20.06882],[-161,-19.77554],[-160.5,-19.47882],[-160,-19.17864],[-159.5,-18.87497],[-159,-18.56779],[-158.5,-18.25706],[-158,-17.94277],[-157.5,-17.62489],[-157,-17.30339],[-156.5,-16.97826],[-156,-16.64949],[-155.5,-16.31704],[-155,-15.98091],[-154.5,-15.64109],[-154,-15.29758],[-153.5,-14.95036],[-153,-14.59943],[-152.5,-14.2448],[-152,-13.88648],[-151.5,-13.52447],[-151,-13.1588],[-150.5,-12.78948],[-150,-12.41654],[-149.5,-12.04003],[-149,-11.65997],[-148.5,-11.27641],[-148,-10.88942],[-147.5,-10.49905],[-147,-10.10537],[-146.5,-9.70847],[-146,-9.30844],[-145.5,-8.90538],[-145,-8.4994],[-144.5,-8.09062],[-144,-7.67917],[-143.5,-7.26521],[-143,-6.84888],[-142.5,-6.43036],[-142,-6.00982],[-141.5,-5.58747],[-141,-5.16351],[-140.5,-4.73817],[-140,-4.31166],[-139.5,-3.88425],[-139,-3.45618],[-138.5,-3.02773],[-138,-2.59918],[-137.5,-2.17081],[-137,-1.74292],[-136.5,-1.31583],[-136,-0.88985],[-135.5,-0.4653],[-135,-0.0425],[-134.5,0.37822],[-134,0.79652],[-133.5,1.21208],[-133,1.62456],[-132.5,2.03365],[-132,2.43901],[-131.5,2.84034],[-131,3.23732],[-130.5,3.62966],[-130,4.01707],[-129.5,4.39928],[-129,4.77601],[-128.5,5.14703],[-128,5.5121],[-127.5,5.87099],[-127,6.22351],[-126.5,6.56947],[-126,6.9087],[-125.5,7.24105],[-125,7.56637],[-124.5,7.88455],[-124,8.19548],[-123.5,8.49908],[-123,8.79527],[-122.5,9.08399],[-122,9.3652],[-121.5,9.63886],[-121,9.90495],[-120.5,10.16348],[-120,10.41444],[-119.5,10.65784],[-119,10.89371],[-118.5,11.12208],[-118,11.343],[-117.5,11.5565],[-117,11.76265],[-116.5,11.9615],[-116,12.15311],[-115.5,12.33757],[-115,12.51494],[-114.5,12.68531],[-114,12.84874],[-113.5,13.00534],[-113,13.15517],[-112.5,13.29834],[-112,13.43493],[-111.5,13.56502],[-111,13.68872],[-110.5,13.80612],[-110,13.9173],[-109.5,14.02236],[-109,14.1214],[-108.5,14.2145],[-108,14.30176],[-107.5,14.38327],[-107,14.45912],[-106.5,14.5294],[-106,14.5942],[-105.5,14.65361],[-105,14.70771],[-104.5,14.7566],[-104,14.80035],[-103.5,14.83906],[-103,14.8728],[-102.5,14.90166],[-102,14.92573],[-101.5,14.94507],[-101,14.95976],[-100.5,14.96989],[-100,14.97554],[-99.5,14.97677],[-99,14.97366],[-98.5,14.96628],[-98,14.9547],[-97.5,14.939],[-97,14.91925],[-96.5,14.8955],[-96,14.86784],[-95.5,14.83632],[-95,14.80101],[-94.5,14.76198],[-94,14.71929],[-93.5,14.67299],[-93,14.62316],[-92.5,14.56984],[-92,14.51311],[-91.5,14.45302],[-91,14.38962],[-90.5,14.32298],[-90,14.25314],[-89.5,14.18018],[-89,14.10413],[-88.5,14.02505],[-88,13.943],[-87.5,13.85802],[-87,13.77017],[-86.5,13.67951],[-86,13.58607],[-85.5,13.48991],[-85,13.39108],[-84.5,13.28963],[-84,13.1856],[-83.5,13.07904],[-83,12.97],[-82.5,12.85851],[-82,12.74464],[-81.5,12.62842],[-81,12.50989],[-80.5,12.3891],[-80,12.2661],[-79.5,12.14092],[-79,12.0136],[-78.5,11.8842],[-78,11.75274],[-77.5,11.61927],[-77,11.48383],[-76.5,11.34646],[-76,11.2072],[-75.5,11.06608],[-75,10.92315],[-74.5,10.77843],[-74,10.63198],[-73.5,10.48382],[-73,10.33399],[-72.5,10.18253],[-72,10.02948],[-71.5,9.87486],[-71,9.71871],[-70.5,9.56107],[-70,9.40196],[-69.5,9.24144],[-69,9.07951],[-68.5,8.91623],[-68,8.75161],[-67.5,8.5857],[-67,8.41851],[-66.5,8.2501],[-66,8.08047],[-65.5,7.90967],[-65,7.73772],[-64.5,7.56466],[-64,7.39051],[-63.5,7.2153],[-63,7.03905],[-62.5,6.8618],[-62,6.68358],[-61.5,6.5044],[-61.06494,6.34782]]}},{"type":"Feature","id":"+11840511:south:0","properties":{"id":"+11840511","year":1184,"month":5,"day":11,"time_tdt":"20:39:04","type":"개기일식","type_code":"T","saros":105,"gamma":-0.20943,"magnitude":1.06088,"greatest":{"lat":8.26696,"lng":-123.88348},"path_width_km":204.2,"duration":"05m35s","delta_t_seconds":776,"catalog_number":7575,"source":"NASA Five Millennium Canon of Solar Eclipses","source_url":"https://eclipse.gsfc.nasa.gov/SEsearch/SEsearchmap.php?Ecl=%2B11840511","boundary":"south","name":"1184-05-11 개기일식"},"geometry":{"type":"LineString","coordinates":[[179.5,-29.69185],[180,-29.50942]]}},{"type":"Feature","id":"+11840511:south:1","properties":{"id":"+11840511","year":1184,"month":5,"day":11,"time_tdt":"20:39:04","type":"개기일식","type_code":"T","saros":105,"gamma":-0.20943,"magnitude":1.06088,"greatest":{"lat":8.26696,"lng":-123.88348},"path_width_km":204.2,"duration":"05m35s","delta_t_seconds":776,"catalog_number":7575,"source":"NASA Five Millennium Canon of Solar Eclipses","source_url":"https://eclipse.gsfc.nasa.gov/SEsearch/SEsearchmap.php?Ecl=%2B11840511","boundary":"south","name":"1184-05-11 개기일식"},"geometry":{"type":"LineString","coordinates":[[-179.5,-29.32474],[-179,-29.13777],[-178.5,-28.9485],[-178,-28.75689],[-177.5,-28.56293],[-177,-28.36658],[-176.5,-28.16783],[-176,-27.96664],[-175.5,-27.763],[-175,-27.55687],[-174.5,-27.34823],[-174,-27.13705],[-173.5,-26.9233],[-173,-26.70695],[-172.5,-26.48798],[-172,-26.26636],[-171.5,-26.04206],[-171,-25.81505],[-170.5,-25.58529],[-170,-25.35277],[-169.5,-25.11744],[-169,-24.87928],[-168.5,-24.63826],[-168,-24.39435],[-167.5,-24.14751],[-167,-23.89772],[-166.5,-23.64494],[-166,-23.38914],[-165.5,-23.13029],[-165,-22.86835],[-164.5,-22.6033],[-164,-22.3351],[-163.5,-22.06372],[-163,-21.78913],[-162.5,-21.51129],[-162,-21.23018],[-161.5,-20.94577],[-161,-20.65802],[-160.5,-20.3669],[-160,-20.07239],[-159.5,-19.77445],[-159,-19.47306],[-158.5,-19.1682],[-158,-18.85982],[-157.5,-18.54792],[-157,-18.23246],[-156.5,-17.91343],[-156,-17.5908],[-155.5,-17.26456],[-155,-16.9347],[-154.5,-16.60118],[-154,-16.26402],[-153.5,-15.92319],[-153,-15.5787],[-152.5,-15.23054],[-152,-14.87871],[-151.5,-14.52322],[-151,-14.16409],[-150.5,-13.80132],[-150,-13.43495],[-149.5,-13.06498],[-149,-12.69147],[-148.5,-12.31444],[-148,-11.93394],[-147.5,-11.55003],[-147,-11.16277],[-146.5,-10.77223],[-146,-10.37848],[-145.5,-9.98161],[-145,-9.58173],[-144.5,-9.17893],[-144,-8.77335],[-143.5,-8.3651],[-143,-7.95433],[-142.5,-7.54119],[-142,-7.12585],[-141.5,-6.70849],[-141,-6.28929],[-140.5,-5.86846],[-140,-5.44621],[-139.5,-5.02277],[-139,-4.59839],[-138.5,-4.17331],[-138,-3.74781],[-137.5,-3.32215],[-137,-2.89662],[-136.5,-2.47151],[-136,-2.04714],[-135.5,-1.62381],[-135,-1.20184],[-134.5,-0.78155],[-134,-0.36327],[-133.5,0.05267],[-133,0.46594],[-132.5,0.87622],[-132,1.28318],[-131.5,1.68649],[-131,2.08583],[-130.5,2.48091],[-130,2.87142],[-129.5,3.25706],[-129,3.63757],[-128.5,4.01267],[-128,4.3821],[-127.5,4.74564],[-127,5.10306],[-126.5,5.45415],[-126,5.79871],[-125.5,6.13658],[-125,6.46759],[-124.5,6.79161],[-124,7.1085],[-123.5,7.41817],[-123,7.72051],[-122.5,8.01544],[-122,8.30292],[-121.5,8.58287],[-121,8.85528],[-120.5,9.12012],[-120,9.37737],[-119.5,9.62704],[-119,9.86915],[-118.5,10.1037],[-118,10.33074],[-117.5,10.5503],[-117,10.76243],[-116.5,10.96718],[-116,11.16462],[-115.5,11.3548],[-115,11.53779],[-114.5,11.71368],[-114,11.88254],[-113.5,12.04445],[-113,12.1995],[-112.5,12.34777],[-112,12.48935],[-111.5,12.62433],[-111,12.75281],[-110.5,12.87488],[-110,12.99063],[-109.5,13.10016],[-109,13.20355],[-108.5,13.30091],[-108,13.39232],[-107.5,13.47789],[-107,13.5577],[-106.5,13.63185],[-106,13.70043],[-105.5,13.76353],[-105,13.82124],[-104.5,13.87365],[-104,13.92085],[-103.5,13.96293],[-103,13.99997],[-102.5,14.03205],[-102,14.05926],[-101.5,14.08169],[-101,14.09941],[-100.5,14.1125],[-100,14.12105],[-99.5,14.12512],[-99,14.12481],[-98.5,14.12017],[-98,14.11129],[-97.5,14.09824],[-97,14.08109],[-96.5,14.05991],[-96,14.03478],[-95.5,14.00575],[-95,13.97289],[-94.5,13.93628],[-94,13.89598],[-93.5,13.85204],[-93,13.80454],[-92.5,13.75354],[-92,13.6991],[-91.5,13.64127],[-91,13.58012],[-90.5,13.5157],[-90,13.44808],[-89.5,13.3773],[-89,13.30343],[-88.5,13.22652],[-88,13.14662],[-87.5,13.06379],[-87,12.97808],[-86.5,12.88954],[-86,12.79822],[-85.5,12.70418],[-85,12.60746],[-84.5,12.50811],[-84,12.40618],[-83.5,12.30172],[-83,12.19477],[-82.5,12.08538],[-82,11.97361],[-81.5,11.85948],[-81,11.74305],[-80.5,11.62436],[-80,11.50345],[-79.5,11.38037],[-79,11.25516],[-78.5,11.12786],[-78,10.99851],[-77.5,10.86716],[-77,10.73384],[-76.5,10.59859],[-76,10.46145],[-75.5,10.32246],[-75,10.18167],[-74.5,10.03909],[-74,9.89479],[-73.5,9.74878],[-73,9.60111],[-72.5,9.45181],[-72,9.30092],[-71.5,9.14847],[-71,8.9945],[-70.5,8.83904],[-70,8.68213],[-69.5,8.52379],[-69,8.36407],[-68.5,8.20298],[-68,8.04058],[-67.5,7.87687],[-67,7.71191],[-66.5,7.54571],[-66,7.37831],[-65.5,7.20974],[-65,7.04003],[-64.5,6.8692],[-64,6.69729],[-63.5,6.52432],[-63,6.35032],[-62.5,6.17532],[-62,5.99935],[-61.5,5.82243],[-61.26758,5.73987]]}},{"type":"Feature","id":"+11841105:north:0","properties":{"id":"+11841105","year":1184,"month":11,"day":5,"time_tdt":"05:09:12","type":"금환일식","type_code":"A","saros":110,"gamma":0.06585,"magnitude":0.92244,"greatest":{"lat":-14.41479,"lng":103.68011},"path_width_km":293.6,"duration":"09m45s","delta_t_seconds":774.5,"catalog_number":7576,"source":"NASA Five Millennium Canon of Solar Eclipses","source_url":"https://eclipse.gsfc.nasa.gov/SEsearch/SEsearchmap.php?Ecl=%2B11841105","boundary":"north","name":"1184-11-05 금환일식"},"geometry":{"type":"LineString","coordinates":[[51,25.47593],[51.5,25.30779],[52,25.13716],[52.5,24.964],[53,24.78829],[53.5,24.60998],[54,24.42905],[54.5,24.24545],[55,24.05915],[55.5,23.87012],[56,23.6783],[56.5,23.48366],[57,23.28617],[57.5,23.08577],[58,22.88242],[58.5,22.67609],[59,22.46673],[59.5,22.25428],[60,22.03871],[60.5,21.81997],[61,21.59799],[61.5,21.37275],[62,21.14418],[62.5,20.91223],[63,20.67684],[63.5,20.43797],[64,20.19555],[64.5,19.94953],[65,19.69985],[65.5,19.44644],[66,19.18925],[66.5,18.92821],[67,18.66325],[67.5,18.39432],[68,18.12134],[68.5,17.84425],[69,17.56297],[69.5,17.27744],[70,16.98758],[70.5,16.69332],[71,16.39458],[71.5,16.09129],[72,15.78337],[72.5,15.47074],[73,15.15332],[73.5,14.83104],[74,14.50381],[74.5,14.17155],[75,13.83419],[75.5,13.49163],[76,13.14381],[76.5,12.79063],[77,12.43203],[77.5,12.06791],[78,11.69821],[78.5,11.32286],[79,10.94177],[79.5,10.55488],[80,10.16213],[80.5,9.76345],[81,9.35879],[81.5,8.94811],[82,8.53136],[82.5,8.10851],[83,7.67954],[83.5,7.24443],[84,6.8032],[84.5,6.35584],[85,5.90239],[85.5,5.44291],[86,4.97745],[86.5,4.5061],[87,4.02898],[87.5,3.54622],[88,3.05798],[88.5,2.56445],[89,2.06585],[89.5,1.56244],[90,1.0545],[90.5,0.54236],[91,0.02638],[91.5,-0.49305],[92,-1.0155],[92.5,-1.5405],[93,-2.06754],[93.5,-2.59608],[94,-3.12557],[94.5,-3.65538],[95,-4.18491],[95.5,-4.71351],[96,-5.24052],[96.5,-5.76527],[97,-6.28708],[97.5,-6.80528],[98,-7.3192],[98.5,-7.82819],[99,-8.33162],[99.5,-8.82887],[100,-9.31938],[100.5,-9.80259],[101,-10.278],[101.5,-10.74514],[102,-11.20359],[102.5,-11.65298],[103,-12.09297],[103.5,-12.52327],[104,-12.94365],[104.5,-13.3539],[105,-13.75386],[105.5,-14.14342],[106,-14.5225],[106.5,-14.89105],[107,-15.24905],[107.5,-15.59652],[108,-15.9335],[108.5,-16.26005],[109,-16.57625],[109.5,-16.88221],[110,-17.17804],[110.5,-17.46387],[111,-17.73984],[111.5,-18.00611],[112,-18.26284],[112.5,-18.51018],[113,-18.7483],[113.5,-18.97739],[114,-19.1976],[114.5,-19.40913],[115,-19.61214],[115.5,-19.80682],[116,-19.99332],[116.5,-20.17184],[117,-20.34253],[117.5,-20.50558],[118,-20.66113],[118.5,-20.80937],[119,-20.95044],[119.5,-21.0845],[120,-21.21172],[120.5,-21.33223],[121,-21.44618],[121.5,-21.55371],[122,-21.65498],[122.5,-21.7501],[123,-21.83921],[123.5,-21.92244],[124,-21.99991],[124.5,-22.07175],[125,-22.13808],[125.5,-22.199],[126,-22.25463],[126.5,-22.30508],[127,-22.35045],[127.5,-22.39085],[128,-22.42637],[128.5,-22.45712],[129,-22.48319],[129.5,-22.50466],[130,-22.52163],[130.5,-22.53419],[131,-22.54242],[131.5,-22.5464],[132,-22.54621],[132.5,-22.54194],[133,-22.53365],[133.5,-22.52143],[134,-22.50534],[134.5,-22.48545],[135,-22.46184],[135.5,-22.43457],[136,-22.40371],[136.5,-22.36932],[137,-22.33147],[137.5,-22.29022],[138,-22.24562],[138.5,-22.19774],[139,-22.14663],[139.5,-22.09235],[140,-22.03496],[140.5,-21.97451],[141,-21.91106],[141.5,-21.84465],[142,-21.77534],[142.5,-21.70317],[143,-21.62821],[143.5,-21.55049],[144,-21.47006],[144.5,-21.38698],[145,-21.30128],[145.5,-21.21301],[146,-21.12222],[146.5,-21.02895],[147,-20.93325],[147.5,-20.83515],[148,-20.73471],[148.5,-20.63195],[149,-20.52692],[149.5,-20.41967],[150,-20.31023],[150.5,-20.19863],[151,-20.08493],[151.5,-19.96915],[152,-19.85134],[152.5,-19.73153],[153,-19.60975],[153.5,-19.48605],[154,-19.36046],[154.5,-19.23302],[155,-19.10375],[155.5,-18.9727],[156,-18.8399],[156.5,-18.70537],[157,-18.56917],[157.5,-18.43131],[158,-18.29183],[158.5,-18.15076],[159,-18.00813],[159.5,-17.86398],[160,-17.71833],[160.5,-17.57122],[161,-17.42267],[161.5,-17.27272],[162,-17.12139],[162.5,-16.96872],[163,-16.81473],[163.5,-16.65945],[164,-16.5029],[164.5,-16.34513],[165,-16.18614],[165.5,-16.02598],[166,-15.86466],[166.5,-15.70222],[167,-15.53868],[167.5,-15.37406],[167.60156,-15.34049]]}},{"type":"Feature","id":"+11841105:center:0","properties":{"id":"+11841105","year":1184,"month":11,"day":5,"time_tdt":"05:09:12","type":"금환일식","type_code":"A","saros":110,"gamma":0.06585,"magnitude":0.92244,"greatest":{"lat":-14.41479,"lng":103.68011},"path_width_km":293.6,"duration":"09m45s","delta_t_seconds":774.5,"catalog_number":7576,"source":"NASA Five Millennium Canon of Solar Eclipses","source_url":"https://eclipse.gsfc.nasa.gov/SEsearch/SEsearchmap.php?Ecl=%2B11841105","boundary":"center","name":"1184-11-05 금환일식"},"geometry":{"type":"LineString","coordinates":[[50.17433,24.0607],[50.5,23.94175],[51,23.7755],[51.5,23.60676],[52,23.43547],[52.5,23.26161],[53,23.08514],[53.5,22.90603],[54,22.72424],[54.5,22.53973],[55,22.35246],[55.5,22.16239],[56,21.96948],[56.5,21.7737],[57,21.57499],[57.5,21.37332],[58,21.16864],[58.5,20.9609],[59,20.75006],[59.5,20.53607],[60,20.31888],[60.5,20.09844],[61,19.8747],[61.5,19.64761],[62,19.41711],[62.5,19.18315],[63,18.94568],[63.5,18.70463],[64,18.45994],[64.5,18.21157],[65,17.95943],[65.5,17.70348],[66,17.44365],[66.5,17.17987],[67,16.91208],[67.5,16.64021],[68,16.36418],[68.5,16.08394],[69,15.7994],[69.5,15.51049],[70,15.21714],[70.5,14.91928],[71,14.61682],[71.5,14.30969],[72,13.99781],[72.5,13.6811],[73,13.35948],[73.5,13.03288],[74,12.7012],[74.5,12.36437],[75,12.02231],[75.5,11.67494],[76,11.32218],[76.5,10.96394],[77,10.60016],[77.5,10.23076],[78,9.85566],[78.5,9.4748],[79,9.08811],[79.5,8.69553],[80,8.297],[80.5,7.89247],[81,7.4819],[81.5,7.06526],[82,6.64251],[82.5,6.21365],[83,5.77866],[83.5,5.33756],[84,4.89038],[84.5,4.43715],[85,3.97793],[85.5,3.51281],[86,3.04188],[86.5,2.56527],[87,2.08313],[87.5,1.59563],[88,1.103],[88.5,0.60545],[89,0.10327],[89.5,-0.40323],[90,-0.91373],[90.5,-1.42784],[91,-1.94514],[91.5,-2.4652],[92,-2.98753],[92.5,-3.51161],[93,-4.0369],[93.5,-4.56282],[94,-5.08877],[94.5,-5.61412],[95,-6.13824],[95.5,-6.66047],[96,-7.18017],[96.5,-7.69666],[97,-8.2093],[97.5,-8.71744],[98,-9.22047],[98.5,-9.71777],[99,-10.20878],[99.5,-10.69295],[100,-11.16978],[100.5,-11.63878],[101,-12.09955],[101.5,-12.55168],[102,-12.99484],[102.5,-13.42873],[103,-13.8531],[103.5,-14.26772],[104,-14.67244],[104.5,-15.06711],[105,-15.45164],[105.5,-15.82596],[106,-16.19005],[106.5,-16.5439],[107,-16.88753],[107.5,-17.22099],[108,-17.54436],[108.5,-17.85771],[109,-18.16115],[109.5,-18.4548],[110,-18.73878],[110.5,-19.01323],[111,-19.27831],[111.5,-19.53416],[112,-19.78093],[112.5,-20.01881],[113,-20.24794],[113.5,-20.4685],[114,-20.68065],[114.5,-20.88456],[115,-21.0804],[115.5,-21.26834],[116,-21.44854],[116.5,-21.62116],[117,-21.78636],[117.5,-21.9443],[118,-22.09513],[118.5,-22.23902],[119,-22.3761],[119.5,-22.50651],[120,-22.63042],[120.5,-22.74794],[121,-22.85922],[121.5,-22.96439],[122,-23.06358],[122.5,-23.15691],[123,-23.2445],[123.5,-23.32648],[124,-23.40295],[124.5,-23.47403],[125,-23.53983],[125.5,-23.60046],[126,-23.65602],[126.5,-23.7066],[127,-23.75231],[127.5,-23.79324],[128,-23.82949],[128.5,-23.86113],[129,-23.88827],[129.5,-23.91098],[130,-23.92936],[130.5,-23.94347],[131,-23.9534],[131.5,-23.95922],[132,-23.96101],[132.5,-23.95884],[133,-23.95279],[133.5,-23.94292],[134,-23.92929],[134.5,-23.91199],[135,-23.89106],[135.5,-23.86657],[136,-23.83859],[136.5,-23.80717],[137,-23.77238],[137.5,-23.73426],[138,-23.69288],[138.5,-23.6483],[139,-23.60056],[139.5,-23.54971],[140,-23.49582],[140.5,-23.43894],[141,-23.3791],[141.5,-23.31636],[142,-23.25077],[142.5,-23.18238],[143,-23.11123],[143.5,-23.03737],[144,-22.96085],[144.5,-22.8817],[145,-22.79997],[145.5,-22.71571],[146,-22.62895],[146.5,-22.53974],[147,-22.44812],[147.5,-22.35412],[148,-22.2578],[148.5,-22.15918],[149,-22.05831],[149.5,-21.95523],[150,-21.84997],[150.5,-21.74256],[151,-21.63306],[151.5,-21.52148],[152,-21.40788],[152.5,-21.29228],[153,-21.17471],[153.5,-21.05522],[154,-20.93384],[154.5,-20.81059],[155,-20.68552],[155.5,-20.55866],[156,-20.43004],[156.5,-20.29969],[157,-20.16764],[157.5,-20.03393],[158,-19.89858],[158.5,-19.76163],[159,-19.62311],[159.5,-19.48305],[160,-19.34147],[160.5,-19.19841],[161,-19.05389],[161.5,-18.90795],[162,-18.76061],[162.5,-18.6119],[163,-18.46186],[163.5,-18.31049],[164,-18.15785],[164.5,-18.00394],[165,-17.8488],[165.5,-17.69246],[166,-17.53493],[166.5,-17.37625],[167,-17.21644],[167.5,-17.05553],[168,-16.89354],[168.18876,-16.83485]]}},{"type":"Feature","id":"+11841105:south:0","properties":{"id":"+11841105","year":1184,"month":11,"day":5,"time_tdt":"05:09:12","type":"금환일식","type_code":"A","saros":110,"gamma":0.06585,"magnitude":0.92244,"greatest":{"lat":-14.41479,"lng":103.68011},"path_width_km":293.6,"duration":"09m45s","delta_t_seconds":774.5,"catalog_number":7576,"source":"NASA Five Millennium Canon of Solar Eclipses","source_url":"https://eclipse.gsfc.nasa.gov/SEsearch/SEsearchmap.php?Ecl=%2B11841105","boundary":"south","name":"1184-11-05 금환일식"},"geometry":{"type":"LineString","coordinates":[[49.50391,22.56721],[50,22.4066],[50.5,22.24225],[51,22.07539],[51.5,21.90596],[52,21.73395],[52.5,21.55931],[53,21.38202],[53.5,21.20202],[54,21.01928],[54.5,20.83377],[55,20.64545],[55.5,20.45426],[56,20.26017],[56.5,20.06315],[57,19.86313],[57.5,19.66008],[58,19.45395],[58.5,19.2447],[59,19.03227],[59.5,18.81662],[60,18.5977],[60.5,18.37544],[61,18.14981],[61.5,17.92075],[62,17.68819],[62.5,17.45209],[63,17.21238],[63.5,16.969],[64,16.72191],[64.5,16.47102],[65,16.21628],[65.5,15.95763],[66,15.695],[66.5,15.42831],[67,15.15751],[67.5,14.88252],[68,14.60327],[68.5,14.31969],[69,14.0317],[69.5,13.73923],[70,13.4422],[70.5,13.14053],[71,12.83416],[71.5,12.52299],[72,12.20695],[72.5,11.88596],[73,11.55993],[73.5,11.2288],[74,10.89247],[74.5,10.55086],[75,10.20391],[75.5,9.85152],[76,9.49362],[76.5,9.13014],[77,8.761],[77.5,8.38613],[78,8.00547],[78.5,7.61895],[79,7.22652],[79.5,6.82812],[80,6.42371],[80.5,6.01324],[81,5.5967],[81.5,5.17406],[82,4.74532],[82.5,4.31047],[83,3.86954],[83.5,3.42257],[84,2.9696],[84.5,2.51072],[85,2.046],[85.5,1.57556],[86,1.09956],[86.5,0.61814],[87,0.13152],[87.5,-0.3601],[88,-0.85644],[88.5,-1.35722],[89,-1.86212],[89.5,-2.37078],[90,-2.88281],[90.5,-3.39778],[91,-3.91522],[91.5,-4.43465],[92,-4.95553],[92.5,-5.47732],[93,-5.99943],[93.5,-6.52126],[94,-7.04219],[94.5,-7.56159],[95,-8.07882],[95.5,-8.59324],[96,-9.10421],[96.5,-9.6111],[97,-10.1133],[97.5,-10.61021],[98,-11.10125],[98.5,-11.5859],[99,-12.06364],[99.5,-12.534],[100,-12.99655],[100.5,-13.45089],[101,-13.89667],[101.5,-14.3336],[102,-14.76139],[102.5,-15.17983],[103,-15.58872],[103.5,-15.98792],[104,-16.37732],[104.5,-16.75684],[105,-17.12643],[105.5,-17.48607],[106,-17.83578],[106.5,-18.17558],[107,-18.50553],[107.5,-18.8257],[108,-19.13618],[108.5,-19.43708],[109,-19.7285],[109.5,-20.01059],[110,-20.28346],[110.5,-20.54727],[111,-20.80216],[111.5,-21.04829],[112,-21.28581],[112.5,-21.51487],[113,-21.73565],[113.5,-21.94829],[114,-22.15297],[114.5,-22.34983],[115,-22.53904],[115.5,-22.72075],[116,-22.89512],[116.5,-23.0623],[117,-23.22245],[117.5,-23.3757],[118,-23.5222],[118.5,-23.66209],[119,-23.79552],[119.5,-23.92261],[120,-24.0435],[120.5,-24.15832],[121,-24.26719],[121.5,-24.37023],[122,-24.46756],[122.5,-24.55931],[123,-24.64557],[123.5,-24.72646],[124,-24.80209],[124.5,-24.87257],[125,-24.93798],[125.5,-24.99843],[126,-25.05402],[126.5,-25.10484],[127,-25.15097],[127.5,-25.19251],[128,-25.22955],[128.5,-25.26216],[129,-25.29042],[129.5,-25.31442],[130,-25.33423],[130.5,-25.34993],[131,-25.36159],[131.5,-25.36927],[132,-25.37306],[132.5,-25.37302],[133,-25.36921],[133.5,-25.36169],[134,-25.35054],[134.5,-25.33581],[135,-25.31756],[135.5,-25.29585],[136,-25.27074],[136.5,-25.24228],[137,-25.21054],[137.5,-25.17555],[138,-25.13738],[138.5,-25.09608],[139,-25.05169],[139.5,-25.00427],[140,-24.95386],[140.5,-24.90052],[141,-24.84429],[141.5,-24.78521],[142,-24.72333],[142.5,-24.6587],[143,-24.59136],[143.5,-24.52134],[144,-24.44871],[144.5,-24.37348],[145,-24.29572],[145.5,-24.21545],[146,-24.13272],[146.5,-24.04756],[147,-23.96002],[147.5,-23.87013],[148,-23.77793],[148.5,-23.68345],[149,-23.58674],[149.5,-23.48783],[150,-23.38676],[150.5,-23.28355],[151,-23.17825],[151.5,-23.07089],[152,-22.9615],[152.5,-22.85013],[153,-22.73679],[153.5,-22.62152],[154,-22.50436],[154.5,-22.38534],[155,-22.26449],[155.5,-22.14184],[156,-22.01742],[156.5,-21.89127],[157,-21.76341],[157.5,-21.63387],[158,-21.50269],[158.5,-21.36989],[159,-21.23551],[159.5,-21.09956],[160,-20.96209],[160.5,-20.82312],[161,-20.68267],[161.5,-20.54078],[162,-20.39747],[162.5,-20.25277],[163,-20.1067],[163.5,-19.9593],[164,-19.81059],[164.5,-19.6606],[165,-19.50935],[165.5,-19.35687],[166,-19.20318],[166.5,-19.04831],[167,-18.89228],[167.5,-18.73513],[168,-18.57686],[168.5,-18.41751]]}}],"attribution":"Eclipse Predictions by Fred Espenak and Jean Meeus (NASA's GSFC)","generated_at":"2026-09-23T03:35:44.006Z"}
