{"type":"FeatureCollection","year":1197,"events":[{"id":"+11970218","year":1197,"month":2,"day":18,"time_tdt":"21:23:51","type":"부분일식","type_code":"P","saros":88,"gamma":1.4855,"magnitude":0.13899,"greatest":{"lat":71.46558,"lng":163.36224},"path_width_km":0,"duration":"00m00s","delta_t_seconds":737.5,"catalog_number":7606,"source":"NASA Five Millennium Canon of Solar Eclipses","source_url":"https://eclipse.gsfc.nasa.gov/SEsearch/SEsearchmap.php?Ecl=%2B11970218"},{"id":"+11970320","year":1197,"month":3,"day":20,"time_tdt":"14:48:56","type":"부분일식","type_code":"P","saros":126,"gamma":-1.48799,"magnitude":0.13268,"greatest":{"lat":-71.96866,"lng":43.80597},"path_width_km":0,"duration":"00m00s","delta_t_seconds":737.2,"catalog_number":7607,"source":"NASA Five Millennium Canon of Solar Eclipses","source_url":"https://eclipse.gsfc.nasa.gov/SEsearch/SEsearchmap.php?Ecl=%2B11970320"},{"id":"+11970815","year":1197,"month":8,"day":15,"time_tdt":"04:16:07","type":"부분일식","type_code":"P","saros":93,"gamma":-1.31608,"magnitude":0.4129,"greatest":{"lat":-70.95751,"lng":67.62787},"path_width_km":0,"duration":"00m00s","delta_t_seconds":736,"catalog_number":7608,"source":"NASA Five Millennium Canon of Solar Eclipses","source_url":"https://eclipse.gsfc.nasa.gov/SEsearch/SEsearchmap.php?Ecl=%2B11970815"},{"id":"+11970913","year":1197,"month":9,"day":13,"time_tdt":"12:45:54","type":"부분일식","type_code":"P","saros":131,"gamma":1.26953,"magnitude":0.50092,"greatest":{"lat":71.90273,"lng":83.14691},"path_width_km":0,"duration":"00m00s","delta_t_seconds":735.8,"catalog_number":7609,"source":"NASA Five Millennium Canon of Solar Eclipses","source_url":"https://eclipse.gsfc.nasa.gov/SEsearch/SEsearchmap.php?Ecl=%2B11970913"}],"features":[],"attribution":"Eclipse Predictions by Fred Espenak and Jean Meeus (NASA's GSFC)","generated_at":"2026-09-23T03:35:43.857Z"}
