{"type":"FeatureCollection","year":1204,"events":[{"id":"+12040402","year":1204,"month":4,"day":2,"time_tdt":"03:06:26","type":"부분일식","type_code":"P","saros":87,"gamma":-1.42528,"magnitude":0.21957,"greatest":{"lat":-61.17629,"lng":-147.38214},"path_width_km":0,"duration":"00m00s","delta_t_seconds":716.8,"catalog_number":7624,"source":"NASA Five Millennium Canon of Solar Eclipses","source_url":"https://eclipse.gsfc.nasa.gov/SEsearch/SEsearchmap.php?Ecl=%2B12040402"},{"id":"+12040501","year":1204,"month":5,"day":1,"time_tdt":"13:01:38","type":"부분일식","type_code":"P","saros":125,"gamma":1.22496,"magnitude":0.5852,"greatest":{"lat":62.51982,"lng":-140.07135},"path_width_km":0,"duration":"00m00s","delta_t_seconds":716.5,"catalog_number":7625,"source":"NASA Five Millennium Canon of Solar Eclipses","source_url":"https://eclipse.gsfc.nasa.gov/SEsearch/SEsearchmap.php?Ecl=%2B12040501"},{"id":"+12040925","year":1204,"month":9,"day":25,"time_tdt":"05:01:33","type":"부분일식","type_code":"P","saros":92,"gamma":1.48691,"magnitude":0.10206,"greatest":{"lat":61.14325,"lng":-171.75714},"path_width_km":0,"duration":"00m00s","delta_t_seconds":715.4,"catalog_number":7626,"source":"NASA Five Millennium Canon of Solar Eclipses","source_url":"https://eclipse.gsfc.nasa.gov/SEsearch/SEsearchmap.php?Ecl=%2B12040925"},{"id":"+12041024","year":1204,"month":10,"day":24,"time_tdt":"17:16:40","type":"부분일식","type_code":"P","saros":130,"gamma":-1.26501,"magnitude":0.5097,"greatest":{"lat":-61.8791,"lng":161.19287},"path_width_km":0,"duration":"00m00s","delta_t_seconds":715.2,"catalog_number":7627,"source":"NASA Five Millennium Canon of Solar Eclipses","source_url":"https://eclipse.gsfc.nasa.gov/SEsearch/SEsearchmap.php?Ecl=%2B12041024"}],"features":[],"attribution":"Eclipse Predictions by Fred Espenak and Jean Meeus (NASA's GSFC)","generated_at":"2026-09-23T03:35:44.035Z"}
