{"type":"FeatureCollection","year":1208,"events":[{"id":"+12080119","year":1208,"month":1,"day":19,"time_tdt":"07:39:49","type":"부분일식","type_code":"P","saros":89,"gamma":-1.35508,"magnitude":0.34313,"greatest":{"lat":-62.94168,"lng":-156.50677},"path_width_km":0,"duration":"00m00s","delta_t_seconds":706,"catalog_number":7634,"source":"NASA Five Millennium Canon of Solar Eclipses","source_url":"https://eclipse.gsfc.nasa.gov/SEsearch/SEsearchmap.php?Ecl=%2B12080119"},{"id":"+12080217","year":1208,"month":2,"day":17,"time_tdt":"19:06:58","type":"부분일식","type_code":"P","saros":127,"gamma":1.3664,"magnitude":0.32568,"greatest":{"lat":61.31847,"lng":-172.30511},"path_width_km":0,"duration":"00m00s","delta_t_seconds":705.7,"catalog_number":7635,"source":"NASA Five Millennium Canon of Solar Eclipses","source_url":"https://eclipse.gsfc.nasa.gov/SEsearch/SEsearchmap.php?Ecl=%2B12080217"},{"id":"+12080714","year":1208,"month":7,"day":14,"time_tdt":"17:44:19","type":"부분일식","type_code":"P","saros":94,"gamma":1.32429,"magnitude":0.40776,"greatest":{"lat":63.33794,"lng":56.15771},"path_width_km":0,"duration":"00m00s","delta_t_seconds":704.6,"catalog_number":7636,"source":"NASA Five Millennium Canon of Solar Eclipses","source_url":"https://eclipse.gsfc.nasa.gov/SEsearch/SEsearchmap.php?Ecl=%2B12080714"},{"id":"+12080813","year":1208,"month":8,"day":13,"time_tdt":"08:26:52","type":"부분일식","type_code":"Pb","saros":132,"gamma":-1.5227,"magnitude":0.06394,"greatest":{"lat":-61.71515,"lng":-8.78143},"path_width_km":0,"duration":"00m00s","delta_t_seconds":704.4,"catalog_number":7637,"source":"NASA Five Millennium Canon of Solar Eclipses","source_url":"https://eclipse.gsfc.nasa.gov/SEsearch/SEsearchmap.php?Ecl=%2B12080813"}],"features":[],"attribution":"Eclipse Predictions by Fred Espenak and Jean Meeus (NASA's GSFC)","generated_at":"2026-09-23T03:35:44.092Z"}
