{"type":"FeatureCollection","year":1213,"events":[{"id":"+12130422","year":1213,"month":4,"day":22,"time_tdt":"12:06:14","type":"개기일식","type_code":"T","saros":106,"gamma":0.10902,"magnitude":1.02386,"greatest":{"lat":20.74901,"lng":-1.065},"path_width_km":81.7,"duration":"02m23s","delta_t_seconds":691.3,"catalog_number":7647,"source":"NASA Five Millennium Canon of Solar Eclipses","source_url":"https://eclipse.gsfc.nasa.gov/SEsearch/SEsearchmap.php?Ecl=%2B12130422"},{"id":"+12131015","year":1213,"month":10,"day":15,"time_tdt":"14:54:53","type":"혼성일식","type_code":"H","saros":111,"gamma":-0.15189,"magnitude":1.00288,"greatest":{"lat":-19.81668,"lng":-47.01221},"path_width_km":10.1,"duration":"00m18s","delta_t_seconds":689.9,"catalog_number":7648,"source":"NASA Five Millennium Canon of Solar Eclipses","source_url":"https://eclipse.gsfc.nasa.gov/SEsearch/SEsearchmap.php?Ecl=%2B12131015"}],"features":[{"type":"Feature","id":"+12130422:north:0","properties":{"id":"+12130422","year":1213,"month":4,"day":22,"time_tdt":"12:06:14","type":"개기일식","type_code":"T","saros":106,"gamma":0.10902,"magnitude":1.02386,"greatest":{"lat":20.74901,"lng":-1.065},"path_width_km":81.7,"duration":"02m23s","delta_t_seconds":691.3,"catalog_number":7647,"source":"NASA Five Millennium Canon of Solar Eclipses","source_url":"https://eclipse.gsfc.nasa.gov/SEsearch/SEsearchmap.php?Ecl=%2B12130422","boundary":"north","name":"1213-04-22 개기일식"},"geometry":{"type":"LineString","coordinates":[[-60.96094,-6.53702],[-60.5,-6.41388],[-60,-6.27866],[-59.5,-6.14173],[-59,-6.00308],[-58.5,-5.86268],[-58,-5.72052],[-57.5,-5.57658],[-57,-5.43086],[-56.5,-5.28333],[-56,-5.13398],[-55.5,-4.98279],[-55,-4.82974],[-54.5,-4.67483],[-54,-4.51803],[-53.5,-4.35933],[-53,-4.19871],[-52.5,-4.03616],[-52,-3.87166],[-51.5,-3.70519],[-51,-3.53673],[-50.5,-3.36627],[-50,-3.1938],[-49.5,-3.0193],[-49,-2.84274],[-48.5,-2.66412],[-48,-2.48342],[-47.5,-2.30062],[-47,-2.1157],[-46.5,-1.92866],[-46,-1.73947],[-45.5,-1.54813],[-45,-1.3546],[-44.5,-1.1589],[-44,-0.96098],[-43.5,-0.76085],[-43,-0.5585],[-42.5,-0.3539],[-42,-0.14704],[-41.5,0.06208],[-41,0.27347],[-40.5,0.48715],[-40,0.70313],[-39.5,0.9214],[-39,1.14199],[-38.5,1.36489],[-38,1.59011],[-37.5,1.81766],[-37,2.04753],[-36.5,2.27973],[-36,2.51425],[-35.5,2.75109],[-35,2.99025],[-34.5,3.23172],[-34,3.47549],[-33.5,3.72156],[-33,3.9699],[-32.5,4.2205],[-32,4.47334],[-31.5,4.72841],[-31,4.98567],[-30.5,5.2451],[-30,5.50667],[-29.5,5.77035],[-29,6.03609],[-28.5,6.30386],[-28,6.57361],[-27.5,6.84529],[-27,7.11884],[-26.5,7.39421],[-26,7.67133],[-25.5,7.95014],[-25,8.23057],[-24.5,8.51253],[-24,8.79594],[-23.5,9.08073],[-23,9.36679],[-22.5,9.65402],[-22,9.94233],[-21.5,10.23161],[-21,10.52173],[-20.5,10.8126],[-20,11.10407],[-19.5,11.39603],[-19,11.68834],[-18.5,11.98086],[-18,12.27346],[-17.5,12.56598],[-17,12.85828],[-16.5,13.15021],[-16,13.44161],[-15.5,13.73232],[-15,14.02219],[-14.5,14.31105],[-14,14.59875],[-13.5,14.88511],[-13,15.16997],[-12.5,15.45318],[-12,15.73457],[-11.5,16.01397],[-11,16.29124],[-10.5,16.56621],[-10,16.83873],[-9.5,17.10866],[-9,17.37584],[-8.5,17.64013],[-8,17.9014],[-7.5,18.15952],[-7,18.41435],[-6.5,18.66578],[-6,18.9137],[-5.5,19.15798],[-5,19.39854],[-4.5,19.63528],[-4,19.86809],[-3.5,20.09691],[-3,20.32166],[-2.5,20.54226],[-2,20.75865],[-1.5,20.97078],[-1,21.17859],[-0.5,21.38204],[0,21.58109],[0.5,21.77571],[1,21.96587],[1.5,22.15154],[2,22.33272],[2.5,22.50939],[3,22.68154],[3.5,22.84916],[4,23.01227],[4.5,23.17087],[5,23.32497],[5.5,23.47457],[6,23.6197],[6.5,23.76037],[7,23.89662],[7.5,24.02845],[8,24.1559],[8.5,24.27901],[9,24.39779],[9.5,24.51228],[10,24.62253],[10.5,24.72855],[11,24.8304],[11.5,24.92812],[12,25.02173],[12.5,25.11129],[13,25.19683],[13.5,25.2784],[14,25.35604],[14.5,25.42979],[15,25.4997],[15.5,25.56582],[16,25.62818],[16.5,25.68683],[17,25.74183],[17.5,25.7932],[18,25.841],[18.5,25.88528],[19,25.92607],[19.5,25.96342],[20,25.99738],[20.5,26.028],[21,26.05531],[21.5,26.07936],[22,26.10019],[22.5,26.11786],[23,26.13239],[23.5,26.14383],[24,26.15224],[24.5,26.15764],[25,26.16008],[25.5,26.1596],[26,26.15625],[26.5,26.15006],[27,26.14107],[27.5,26.12933],[28,26.11487],[28.5,26.09774],[29,26.07796],[29.5,26.05559],[30,26.03065],[30.5,26.0032],[31,25.97325],[31.5,25.94085],[32,25.90605],[32.5,25.86886],[33,25.82934],[33.5,25.7875],[34,25.7434],[34.5,25.69706],[35,25.64853],[35.5,25.59782],[36,25.54498],[36.5,25.49004],[37,25.43303],[37.5,25.37399],[38,25.31295],[38.5,25.24994],[39,25.18499],[39.5,25.11813],[40,25.0494],[40.5,24.97883],[41,24.90643],[41.5,24.83226],[42,24.75633],[42.5,24.67868],[43,24.59933],[43.5,24.51832],[44,24.43567],[44.5,24.35141],[45,24.26557],[45.5,24.17818],[46,24.08926],[46.5,23.99885],[47,23.90696],[47.5,23.81364],[48,23.71889],[48.5,23.62276],[49,23.52526],[49.5,23.42642],[50,23.32626],[50.5,23.22482],[51,23.12212],[51.5,23.01818],[52,22.91302],[52.5,22.80668],[53,22.69916],[53.5,22.59051],[54,22.48074],[54.5,22.36987],[55,22.25793],[55.5,22.14494],[56,22.03093],[56.5,21.91591],[57,21.79991],[57.5,21.68294],[58,21.56504],[58.5,21.44622],[59,21.3265],[59.5,21.2059],[60,21.08445],[60.5,20.96216],[61,20.83906],[61.5,20.71517],[62,20.59049],[62.5,20.46506],[63,20.3389],[63.5,20.21201],[64,20.08443],[64.5,19.95616],[65,19.82723],[65.5,19.69766],[66,19.56746],[66.5,19.43664],[67,19.30524],[67.5,19.17326],[68,19.04072],[68.5,18.90765],[68.64844,18.86804]]}},{"type":"Feature","id":"+12130422:center:0","properties":{"id":"+12130422","year":1213,"month":4,"day":22,"time_tdt":"12:06:14","type":"개기일식","type_code":"T","saros":106,"gamma":0.10902,"magnitude":1.02386,"greatest":{"lat":20.74901,"lng":-1.065},"path_width_km":81.7,"duration":"02m23s","delta_t_seconds":691.3,"catalog_number":7647,"source":"NASA Five Millennium Canon of Solar Eclipses","source_url":"https://eclipse.gsfc.nasa.gov/SEsearch/SEsearchmap.php?Ecl=%2B12130422","boundary":"center","name":"1213-04-22 개기일식"},"geometry":{"type":"LineString","coordinates":[[-60.9314,-6.62632],[-60.5,-6.51511],[-60,-6.38257],[-59.5,-6.24833],[-59,-6.11238],[-58.5,-5.97472],[-58,-5.83531],[-57.5,-5.69415],[-57,-5.55123],[-56.5,-5.40652],[-56,-5.26002],[-55.5,-5.1117],[-55,-4.96155],[-54.5,-4.80955],[-54,-4.65569],[-53.5,-4.49996],[-53,-4.34233],[-52.5,-4.18279],[-52,-4.02132],[-51.5,-3.85791],[-51,-3.69254],[-50.5,-3.5252],[-50,-3.35586],[-49.5,-3.18451],[-49,-3.01115],[-48.5,-2.83574],[-48,-2.65827],[-47.5,-2.47873],[-47,-2.2971],[-46.5,-2.11337],[-46,-1.92752],[-45.5,-1.73954],[-45,-1.5494],[-44.5,-1.3571],[-44,-1.16263],[-43.5,-0.96596],[-43,-0.76709],[-42.5,-0.566],[-42,-0.36268],[-41.5,-0.15712],[-41,0.0507],[-40.5,0.26078],[-40,0.47313],[-39.5,0.68776],[-39,0.90468],[-38.5,1.1239],[-38,1.34541],[-37.5,1.56923],[-37,1.79536],[-36.5,2.0238],[-36,2.25455],[-35.5,2.4876],[-35,2.72296],[-34.5,2.96062],[-34,3.20057],[-33.5,3.44281],[-33,3.68731],[-32.5,3.93407],[-32,4.18307],[-31.5,4.4343],[-31,4.68772],[-30.5,4.94331],[-30,5.20105],[-29.5,5.46091],[-29,5.72285],[-28.5,5.98682],[-28,6.25279],[-27.5,6.52072],[-27,6.79055],[-26.5,7.06222],[-26,7.33568],[-25.5,7.61086],[-25,7.8877],[-24.5,8.16612],[-24,8.44604],[-23.5,8.72739],[-23,9.01007],[-22.5,9.29398],[-22,9.57904],[-21.5,9.86514],[-21,10.15216],[-20.5,10.44],[-20,10.72853],[-19.5,11.01764],[-19,11.3072],[-18.5,11.59706],[-18,11.8871],[-17.5,12.17718],[-17,12.46714],[-16.5,12.75685],[-16,13.04614],[-15.5,13.33487],[-15,13.62287],[-14.5,13.90999],[-14,14.19607],[-13.5,14.48094],[-13,14.76445],[-12.5,15.04643],[-12,15.32672],[-11.5,15.60516],[-11,15.88159],[-10.5,16.15586],[-10,16.4278],[-9.5,16.69727],[-9,16.96412],[-8.5,17.22821],[-8,17.48939],[-7.5,17.74754],[-7,18.00252],[-6.5,18.2542],[-6,18.50247],[-5.5,18.74722],[-5,18.98834],[-4.5,19.22573],[-4,19.45929],[-3.5,19.68893],[-3,19.91459],[-2.5,20.13617],[-2,20.35362],[-1.5,20.56687],[-1,20.77587],[-0.5,20.98057],[0,21.18092],[0.5,21.37688],[1,21.56844],[1.5,21.75556],[2,21.93821],[2.5,22.1164],[3,22.29009],[3.5,22.4593],[4,22.62402],[4.5,22.78424],[5,22.93999],[5.5,23.09126],[6,23.23808],[6.5,23.38046],[7,23.51841],[7.5,23.65197],[8,23.78116],[8.5,23.90601],[9,24.02654],[9.5,24.14279],[10,24.2548],[10.5,24.36259],[11,24.46621],[11.5,24.5657],[12,24.66108],[12.5,24.75241],[13,24.83973],[13.5,24.92307],[14,25.00249],[14.5,25.07802],[15,25.14971],[15.5,25.2176],[16,25.28174],[16.5,25.34217],[17,25.39893],[17.5,25.45209],[18,25.50166],[18.5,25.54772],[19,25.59029],[19.5,25.62942],[20,25.66517],[20.5,25.69757],[21,25.72666],[21.5,25.7525],[22,25.77512],[22.5,25.79458],[23,25.81091],[23.5,25.82416],[24,25.83436],[24.5,25.84157],[25,25.84583],[25.5,25.84717],[26,25.84564],[26.5,25.84128],[27,25.83413],[27.5,25.82423],[28,25.81162],[28.5,25.79634],[29,25.77843],[29.5,25.75793],[30,25.73487],[30.5,25.7093],[31,25.68125],[31.5,25.65076],[32,25.61786],[32.5,25.5826],[33,25.54501],[33.5,25.50511],[34,25.46296],[34.5,25.41858],[35,25.37201],[35.5,25.32329],[36,25.27244],[36.5,25.2195],[37,25.1645],[37.5,25.10748],[38,25.04847],[38.5,24.9875],[39,24.9246],[39.5,24.8598],[40,24.79314],[40.5,24.72465],[41,24.65435],[41.5,24.58228],[42,24.50847],[42.5,24.43294],[43,24.35572],[43.5,24.27685],[44,24.19636],[44.5,24.11426],[45,24.0306],[45.5,23.94539],[46,23.85867],[46.5,23.77045],[47,23.68078],[47.5,23.58967],[48,23.49716],[48.5,23.40326],[49,23.30801],[49.5,23.21142],[50,23.11353],[50.5,23.01436],[51,22.91394],[51.5,22.81228],[52,22.70942],[52.5,22.60538],[53,22.50017],[53.5,22.39383],[54,22.28638],[54.5,22.17784],[55,22.06823],[55.5,21.95758],[56,21.84591],[56.5,21.73324],[57,21.61958],[57.5,21.50498],[58,21.38944],[58.5,21.27298],[59,21.15563],[59.5,21.03741],[60,20.91833],[60.5,20.79842],[61,20.6777],[61.5,20.55618],[62,20.4339],[62.5,20.31085],[63,20.18707],[63.5,20.06258],[64,19.93738],[64.5,19.8115],[65,19.68497],[65.5,19.55778],[66,19.42997],[66.5,19.30155],[67,19.17253],[67.5,19.04294],[68,18.91279],[68.5,18.7821],[68.59696,18.75864]]}},{"type":"Feature","id":"+12130422:south:0","properties":{"id":"+12130422","year":1213,"month":4,"day":22,"time_tdt":"12:06:14","type":"개기일식","type_code":"T","saros":106,"gamma":0.10902,"magnitude":1.02386,"greatest":{"lat":20.74901,"lng":-1.065},"path_width_km":81.7,"duration":"02m23s","delta_t_seconds":691.3,"catalog_number":7647,"source":"NASA Five Millennium Canon of Solar Eclipses","source_url":"https://eclipse.gsfc.nasa.gov/SEsearch/SEsearchmap.php?Ecl=%2B12130422","boundary":"south","name":"1213-04-22 개기일식"},"geometry":{"type":"LineString","coordinates":[[-60.89453,-6.71728],[-60.5,-6.61596],[-60,-6.48606],[-59.5,-6.3545],[-59,-6.22125],[-58.5,-6.08629],[-58,-5.94963],[-57.5,-5.81123],[-57,-5.67109],[-56.5,-5.52919],[-56,-5.38551],[-55.5,-5.24004],[-55,-5.09277],[-54.5,-4.94367],[-54,-4.79273],[-53.5,-4.63994],[-53,-4.48527],[-52.5,-4.32872],[-52,-4.17027],[-51.5,-4.0099],[-51,-3.84759],[-50.5,-3.68334],[-50,-3.51711],[-49.5,-3.3489],[-49,-3.17869],[-48.5,-3.00647],[-48,-2.83221],[-47.5,-2.65591],[-47,-2.47754],[-46.5,-2.2971],[-46,-2.11456],[-45.5,-1.92991],[-45,-1.74313],[-44.5,-1.55422],[-44,-1.36315],[-43.5,-1.16991],[-43,-0.9745],[-42.5,-0.77689],[-42,-0.57707],[-41.5,-0.37503],[-41,-0.17077],[-40.5,0.03574],[-40,0.2445],[-39.5,0.45552],[-39,0.6688],[-38.5,0.88436],[-38,1.1022],[-37.5,1.32233],[-37,1.54475],[-36.5,1.76946],[-36,1.99647],[-35.5,2.22577],[-35,2.45736],[-34.5,2.69123],[-34,2.92739],[-33.5,3.16582],[-33,3.40652],[-32.5,3.64947],[-32,3.89465],[-31.5,4.14206],[-31,4.39166],[-30.5,4.64344],[-30,4.89738],[-29.5,5.15343],[-29,5.41158],[-28.5,5.67178],[-28,5.93399],[-27.5,6.19818],[-27,6.46429],[-26.5,6.73228],[-26,7.00208],[-25.5,7.27364],[-25,7.54689],[-24.5,7.82177],[-24,8.0982],[-23.5,8.3761],[-23,8.65538],[-22.5,8.93597],[-22,9.21776],[-21.5,9.50065],[-21,9.78455],[-20.5,10.06934],[-20,10.3549],[-19.5,10.64113],[-19,10.92789],[-18.5,11.21506],[-18,11.5025],[-17.5,11.79008],[-17,12.07766],[-16.5,12.36509],[-16,12.65221],[-15.5,12.93889],[-15,13.22497],[-14.5,13.51028],[-14,13.79468],[-13.5,14.078],[-13,14.36008],[-12.5,14.64076],[-12,14.91989],[-11.5,15.19729],[-11,15.47281],[-10.5,15.74629],[-10,16.01758],[-9.5,16.28653],[-9,16.55298],[-8.5,16.81679],[-8,17.07782],[-7.5,17.33593],[-7,17.59098],[-6.5,17.84285],[-6,18.09142],[-5.5,18.33657],[-5,18.57819],[-4.5,18.81617],[-4,19.05042],[-3.5,19.28085],[-3,19.50736],[-2.5,19.72988],[-2,19.94835],[-1.5,20.16268],[-1,20.37283],[-0.5,20.57874],[0,20.78036],[0.5,20.97765],[1,21.17057],[1.5,21.35911],[2,21.54323],[2.5,21.72291],[3,21.89814],[3.5,22.06891],[4,22.23522],[4.5,22.39707],[5,22.55446],[5.5,22.7074],[6,22.8559],[6.5,22.99998],[7,23.13965],[7.5,23.27494],[8,23.40587],[8.5,23.53247],[9,23.65476],[9.5,23.77277],[10,23.88655],[10.5,23.99612],[11,24.10151],[11.5,24.20278],[12,24.29995],[12.5,24.39307],[13,24.48218],[13.5,24.56731],[14,24.64852],[14.5,24.72584],[15,24.79932],[15.5,24.869],[16,24.93493],[16.5,24.99716],[17,25.05572],[17.5,25.11067],[18,25.16204],[18.5,25.20989],[19,25.25426],[19.5,25.29519],[20,25.33274],[20.5,25.36694],[21,25.39784],[21.5,25.42549],[22,25.44992],[22.5,25.47119],[23,25.48933],[23.5,25.5044],[24,25.51643],[24.5,25.52547],[25,25.53156],[25.5,25.53474],[26,25.53505],[26.5,25.53254],[27,25.52725],[27.5,25.51921],[28,25.50847],[28.5,25.49506],[29,25.47904],[29.5,25.46042],[30,25.43926],[30.5,25.4156],[31,25.38946],[31.5,25.36089],[32,25.32992],[32.5,25.2966],[33,25.26095],[33.5,25.22301],[34,25.18283],[34.5,25.14042],[35,25.09584],[35.5,25.04911],[36,25.00026],[36.5,24.94933],[37,24.89636],[37.5,24.84137],[38,24.7844],[38.5,24.72549],[39,24.66465],[39.5,24.60193],[40,24.53735],[40.5,24.47095],[41,24.40276],[41.5,24.3328],[42,24.26111],[42.5,24.18771],[43,24.11264],[43.5,24.03592],[44,23.95759],[44.5,23.87767],[45,23.79618],[45.5,23.71316],[46,23.62864],[46.5,23.54263],[47,23.45518],[47.5,23.3663],[48,23.27601],[48.5,23.18436],[49,23.09136],[49.5,22.99703],[50,22.90141],[50.5,22.80451],[51,22.70637],[51.5,22.607],[52,22.50643],[52.5,22.40469],[53,22.30179],[53.5,22.19777],[54,22.09264],[54.5,21.98642],[55,21.87914],[55.5,21.77083],[56,21.6615],[56.5,21.55117],[57,21.43987],[57.5,21.32762],[58,21.21443],[58.5,21.10034],[59,20.98535],[59.5,20.8695],[60,20.75279],[60.5,20.63526],[61,20.51691],[61.5,20.39778],[62,20.27787],[62.5,20.1572],[63,20.03581],[63.5,19.91369],[64,19.79088],[64.5,19.66739],[65,19.54323],[65.5,19.41843],[66,19.293],[66.5,19.16696],[67,19.04033],[67.5,18.91312],[68,18.78534],[68.5,18.65703]]}},{"type":"Feature","id":"+12131015:north:0","properties":{"id":"+12131015","year":1213,"month":10,"day":15,"time_tdt":"14:54:53","type":"혼성일식","type_code":"H","saros":111,"gamma":-0.15189,"magnitude":1.00288,"greatest":{"lat":-19.81668,"lng":-47.01221},"path_width_km":10.1,"duration":"00m18s","delta_t_seconds":689.9,"catalog_number":7648,"source":"NASA Five Millennium Canon of Solar Eclipses","source_url":"https://eclipse.gsfc.nasa.gov/SEsearch/SEsearchmap.php?Ecl=%2B12131015","boundary":"north","name":"1213-10-15 혼성일식"},"geometry":{"type":"LineString","coordinates":[[-106.41797,6.51482],[-106,6.42848],[-105.5,6.32364],[-105,6.21711],[-104.5,6.10886],[-104,5.99887],[-103.5,5.88714],[-103,5.77363],[-102.5,5.65834],[-102,5.54124],[-101.5,5.42232],[-101,5.30156],[-100.5,5.17893],[-100,5.05442],[-99.5,4.92801],[-99,4.79968],[-98.5,4.66941],[-98,4.53718],[-97.5,4.40297],[-97,4.26675],[-96.5,4.12851],[-96,3.98823],[-95.5,3.84588],[-95,3.70144],[-94.5,3.5549],[-94,3.40622],[-93.5,3.25539],[-93,3.10239],[-92.5,2.94719],[-92,2.78976],[-91.5,2.6301],[-91,2.46817],[-90.5,2.30395],[-90,2.13742],[-89.5,1.96855],[-89,1.79733],[-88.5,1.62373],[-88,1.44772],[-87.5,1.26929],[-87,1.08842],[-86.5,0.90507],[-86,0.71923],[-85.5,0.53088],[-85,0.33999],[-84.5,0.14655],[-84,-0.04947],[-83.5,-0.24808],[-83,-0.44931],[-82.5,-0.65317],[-82,-0.85969],[-81.5,-1.06887],[-81,-1.28074],[-80.5,-1.4953],[-80,-1.71258],[-79.5,-1.93258],[-79,-2.15532],[-78.5,-2.38081],[-78,-2.60904],[-77.5,-2.84004],[-77,-3.0738],[-76.5,-3.31032],[-76,-3.5496],[-75.5,-3.79165],[-75,-4.03644],[-74.5,-4.28398],[-74,-4.53426],[-73.5,-4.78725],[-73,-5.04294],[-72.5,-5.3013],[-72,-5.56231],[-71.5,-5.82594],[-71,-6.09215],[-70.5,-6.36091],[-70,-6.63215],[-69.5,-6.90585],[-69,-7.18194],[-68.5,-7.46036],[-68,-7.74104],[-67.5,-8.02391],[-67,-8.3089],[-66.5,-8.59361],[-66,-8.87717],[-65.5,-9.16266],[-65,-9.44997],[-64.5,-9.739],[-64,-10.02964],[-63.5,-10.32177],[-63,-10.61527],[-62.5,-10.91001],[-62,-11.20584],[-61.5,-11.50264],[-61,-11.80024],[-60.5,-12.0985],[-60,-12.39726],[-59.5,-12.69636],[-59,-12.99562],[-58.5,-13.29487],[-58,-13.59395],[-57.5,-13.89266],[-57,-14.19084],[-56.5,-14.4883],[-56,-14.78485],[-55.5,-15.08031],[-55,-15.37451],[-54.5,-15.66726],[-54,-15.95837],[-53.5,-16.24768],[-53,-16.535],[-52.5,-16.82016],[-52,-17.10301],[-51.5,-17.38337],[-51,-17.6611],[-50.5,-17.93603],[-50,-18.20803],[-49.5,-18.47696],[-49,-18.74268],[-48.5,-19.00507],[-48,-19.26403],[-47.5,-19.51942],[-47,-19.77117],[-46.5,-20.01916],[-46,-20.26332],[-45.5,-20.50357],[-45,-20.73984],[-44.5,-20.97205],[-44,-21.20017],[-43.5,-21.42413],[-43,-21.6439],[-42.5,-21.85944],[-42,-22.07072],[-41.5,-22.27772],[-41,-22.48041],[-40.5,-22.6788],[-40,-22.87287],[-39.5,-23.06261],[-39,-23.24804],[-38.5,-23.42916],[-38,-23.60598],[-37.5,-23.77851],[-37,-23.94678],[-36.5,-24.1108],[-36,-24.2706],[-35.5,-24.42621],[-35,-24.57765],[-34.5,-24.72496],[-34,-24.86818],[-33.5,-25.00733],[-33,-25.14245],[-32.5,-25.27359],[-32,-25.40077],[-31.5,-25.52405],[-31,-25.64347],[-30.5,-25.75906],[-30,-25.87087],[-29.5,-25.97894],[-29,-26.08333],[-28.5,-26.18406],[-28,-26.28119],[-27.5,-26.37144],[-27,-26.45763],[-26.5,-26.5403],[-26,-26.61952],[-25.5,-26.69533],[-25,-26.76778],[-24.5,-26.8369],[-24,-26.90274],[-23.5,-26.96536],[-23,-27.02478],[-22.5,-27.08106],[-22,-27.13424],[-21.5,-27.18436],[-21,-27.23146],[-20.5,-27.27559],[-20,-27.31678],[-19.5,-27.35508],[-19,-27.39053],[-18.5,-27.42316],[-18,-27.45303],[-17.5,-27.48015],[-17,-27.50459],[-16.5,-27.52636],[-16,-27.54551],[-15.5,-27.56208],[-15,-27.5761],[-14.5,-27.58761],[-14,-27.59665],[-13.5,-27.60324],[-13,-27.60742],[-12.5,-27.60923],[-12,-27.60871],[-11.5,-27.60587],[-11,-27.60076],[-10.5,-27.5934],[-10,-27.58384],[-9.5,-27.5721],[-9,-27.5582],[-8.5,-27.54219],[-8,-27.52409],[-7.5,-27.50393],[-7,-27.48174],[-6.5,-27.45755],[-6,-27.43138],[-5.5,-27.40327],[-5,-27.37324],[-4.5,-27.34132],[-4,-27.30754],[-3.5,-27.27192],[-3,-27.23449],[-2.5,-27.19528],[-2,-27.1543],[-1.5,-27.11159],[-1,-27.06717],[-0.5,-27.02107],[0,-26.97331],[0.5,-26.9239],[1,-26.87289],[1.5,-26.82029],[2,-26.76612],[2.5,-26.71041],[3,-26.65317],[3.5,-26.59444],[4,-26.53423],[4.5,-26.47257],[5,-26.40948],[5.5,-26.34497],[6,-26.27907],[6.5,-26.21181],[7,-26.14319],[7.5,-26.07325],[8,-26.002],[8.5,-25.92946],[9,-25.85565],[9.5,-25.78059],[10,-25.70431],[10.5,-25.62681],[11,-25.54812],[11.5,-25.46826],[12,-25.38725],[12.5,-25.3051],[13,-25.22184],[13.5,-25.13747],[14,-25.05202],[14.5,-24.96551],[15,-24.87796],[15.5,-24.78937],[16,-24.69977],[16.5,-24.60918],[17,-24.51761],[17.5,-24.42508],[18,-24.3316],[18.5,-24.23719],[19,-24.14187],[19.5,-24.04566],[20,-23.94856],[20.5,-23.8506],[21,-23.75178],[21.5,-23.65214],[22,-23.55167],[22.5,-23.4504],[23,-23.34833],[23.44727,-23.25638]]}},{"type":"Feature","id":"+12131015:center:0","properties":{"id":"+12131015","year":1213,"month":10,"day":15,"time_tdt":"14:54:53","type":"혼성일식","type_code":"H","saros":111,"gamma":-0.15189,"magnitude":1.00288,"greatest":{"lat":-19.81668,"lng":-47.01221},"path_width_km":10.1,"duration":"00m18s","delta_t_seconds":689.9,"catalog_number":7648,"source":"NASA Five Millennium Canon of Solar Eclipses","source_url":"https://eclipse.gsfc.nasa.gov/SEsearch/SEsearchmap.php?Ecl=%2B12131015","boundary":"center","name":"1213-10-15 혼성일식"},"geometry":{"type":"LineString","coordinates":[[-106.48258,6.31001],[-106,6.21241],[-105.5,6.10989],[-105,6.00569],[-104.5,5.89978],[-104,5.79215],[-103.5,5.68278],[-103,5.57165],[-102.5,5.45875],[-102,5.34405],[-101.5,5.22755],[-101,5.10921],[-100.5,4.98902],[-100,4.86697],[-99.5,4.74303],[-99,4.61717],[-98.5,4.4894],[-98,4.35967],[-97.5,4.22797],[-97,4.09429],[-96.5,3.9586],[-96,3.82087],[-95.5,3.6811],[-95,3.53924],[-94.5,3.3953],[-94,3.24923],[-93.5,3.10103],[-93,2.95067],[-92.5,2.79812],[-92,2.64336],[-91.5,2.48638],[-91,2.32714],[-90.5,2.16563],[-90,2.00182],[-89.5,1.83569],[-89,1.66722],[-88.5,1.49638],[-88,1.32315],[-87.5,1.14751],[-87,0.96944],[-86.5,0.78891],[-86,0.6059],[-85.5,0.42039],[-85,0.23236],[-84.5,0.04178],[-84,-0.15135],[-83.5,-0.34708],[-83,-0.5454],[-82.5,-0.74635],[-82,-0.94994],[-81.5,-1.15618],[-81,-1.3651],[-80.5,-1.57671],[-80,-1.79102],[-79.5,-2.00805],[-79,-2.22781],[-78.5,-2.45031],[-78,-2.67555],[-77.5,-2.90354],[-77,-3.1343],[-76.5,-3.36781],[-76,-3.60408],[-75.5,-3.84311],[-75,-4.0849],[-74.5,-4.32943],[-74,-4.57669],[-73.5,-4.82667],[-73,-5.07936],[-72.5,-5.33473],[-72,-5.59276],[-71.5,-5.85342],[-71,-6.11667],[-70.5,-6.38248],[-70,-6.6508],[-69.5,-6.92159],[-69,-7.19479],[-68.5,-7.47035],[-68,-7.7482],[-67.5,-8.02827],[-67,-8.31048],[-66.5,-8.59476],[-66,-8.88101],[-65.5,-9.16915],[-65,-9.45906],[-64.5,-9.75065],[-64,-10.04379],[-63.5,-10.33837],[-63,-10.63426],[-62.5,-10.93133],[-62,-11.22943],[-61.5,-11.52843],[-61,-11.82816],[-60.5,-12.12848],[-60,-12.42922],[-59.5,-12.73022],[-59,-13.0313],[-58.5,-13.33229],[-58,-13.63301],[-57.5,-13.93329],[-57,-14.23294],[-56.5,-14.53177],[-56,-14.82961],[-55.5,-15.12626],[-55,-15.42155],[-54.5,-15.71529],[-54,-16.0073],[-53.5,-16.2974],[-53,-16.58543],[-52.5,-16.8712],[-52,-17.15456],[-51.5,-17.43534],[-51,-17.71338],[-50.5,-17.98854],[-50,-18.26067],[-49.5,-18.52964],[-49,-18.79532],[-48.5,-19.05759],[-48,-19.31633],[-47.5,-19.57143],[-47,-19.8228],[-46.5,-20.07035],[-46,-20.31398],[-45.5,-20.55363],[-45,-20.78923],[-44.5,-21.02072],[-44,-21.24804],[-43.5,-21.47114],[-43,-21.68999],[-42.5,-21.90455],[-42,-22.1148],[-41.5,-22.32072],[-41,-22.52228],[-40.5,-22.71949],[-40,-22.91233],[-39.5,-23.1008],[-39,-23.28492],[-38.5,-23.46468],[-38,-23.64011],[-37.5,-23.81121],[-37,-23.97802],[-36.5,-24.14054],[-36,-24.29882],[-35.5,-24.45287],[-35,-24.60272],[-34.5,-24.74841],[-34,-24.88998],[-33.5,-25.02746],[-33,-25.16089],[-32.5,-25.2903],[-32,-25.41574],[-31.5,-25.53726],[-31,-25.65488],[-30.5,-25.76867],[-30,-25.87865],[-29.5,-25.98487],[-29,-26.08738],[-28.5,-26.18623],[-28,-26.28145],[-27.5,-26.3731],[-27,-26.46122],[-26.5,-26.54585],[-26,-26.62704],[-25.5,-26.70484],[-25,-26.77928],[-24.5,-26.85042],[-24,-26.9183],[-23.5,-26.98296],[-23,-27.04444],[-22.5,-27.1028],[-22,-27.15807],[-21.5,-27.21029],[-21,-27.25951],[-20.5,-27.30576],[-20,-27.3491],[-19.5,-27.38956],[-19,-27.42717],[-18.5,-27.46199],[-18,-27.49405],[-17.5,-27.52338],[-17,-27.55003],[-16.5,-27.57403],[-16,-27.59543],[-15.5,-27.61425],[-15,-27.63053],[-14.5,-27.64432],[-14,-27.65563],[-13.5,-27.66452],[-13,-27.67101],[-12.5,-27.67513],[-12,-27.67693],[-11.5,-27.67643],[-11,-27.67366],[-10.5,-27.66866],[-10,-27.66146],[-9.5,-27.65209],[-9,-27.64058],[-8.5,-27.62695],[-8,-27.61125],[-7.5,-27.5935],[-7,-27.57372],[-6.5,-27.55195],[-6,-27.52821],[-5.5,-27.50254],[-5,-27.47496],[-4.5,-27.44549],[-4,-27.41416],[-3.5,-27.38101],[-3,-27.34605],[-2.5,-27.30931],[-2,-27.27082],[-1.5,-27.2306],[-1,-27.18867],[-0.5,-27.14507],[0,-27.09981],[0.5,-27.05291],[1,-27.00441],[1.5,-26.95433],[2,-26.90268],[2.5,-26.84949],[3,-26.79479],[3.5,-26.73859],[4,-26.68091],[4.5,-26.62179],[5,-26.56123],[5.5,-26.49927],[6,-26.43592],[6.5,-26.3712],[7,-26.30513],[7.5,-26.23774],[8,-26.16904],[8.5,-26.09905],[9,-26.02779],[9.5,-25.95529],[10,-25.88155],[10.5,-25.80661],[11,-25.73047],[11.5,-25.65317],[12,-25.5747],[12.5,-25.4951],[13,-25.41438],[13.5,-25.33256],[14,-25.24966],[14.5,-25.16569],[15,-25.08068],[15.5,-24.99463],[16,-24.90756],[16.5,-24.8195],[17,-24.73046],[17.5,-24.64045],[18,-24.54949],[18.5,-24.4576],[19,-24.36479],[19.5,-24.27109],[20,-24.17649],[20.5,-24.08103],[21,-23.98471],[21.5,-23.88754],[22,-23.78956],[22.5,-23.69076],[23,-23.59117],[23.5,-23.4908],[23.52147,-23.49054]]}},{"type":"Feature","id":"+12131015:south:0","properties":{"id":"+12131015","year":1213,"month":10,"day":15,"time_tdt":"14:54:53","type":"혼성일식","type_code":"H","saros":111,"gamma":-0.15189,"magnitude":1.00288,"greatest":{"lat":-19.81668,"lng":-47.01221},"path_width_km":10.1,"duration":"00m18s","delta_t_seconds":689.9,"catalog_number":7648,"source":"NASA Five Millennium Canon of Solar Eclipses","source_url":"https://eclipse.gsfc.nasa.gov/SEsearch/SEsearchmap.php?Ecl=%2B12131015","boundary":"south","name":"1213-10-15 혼성일식"},"geometry":{"type":"LineString","coordinates":[[-106.5,6.09529],[-106,5.99675],[-105.5,5.89655],[-105,5.79468],[-104.5,5.69111],[-104,5.58584],[-103.5,5.47883],[-103,5.37009],[-102.5,5.25958],[-102,5.14728],[-101.5,5.03319],[-101,4.91729],[-100.5,4.79954],[-100,4.67994],[-99.5,4.55846],[-99,4.43509],[-98.5,4.30981],[-98,4.18258],[-97.5,4.05341],[-97,3.92225],[-96.5,3.78911],[-96,3.65394],[-95.5,3.51673],[-95,3.37747],[-94.5,3.23612],[-94,3.09266],[-93.5,2.94708],[-93,2.79936],[-92.5,2.64946],[-92,2.49737],[-91.5,2.34306],[-91,2.18652],[-90.5,2.02771],[-90,1.86662],[-89.5,1.70322],[-89,1.53749],[-88.5,1.36941],[-88,1.19896],[-87.5,1.0261],[-87,0.85083],[-86.5,0.67311],[-86,0.49292],[-85.5,0.31025],[-85,0.12507],[-84.5,-0.06264],[-84,-0.25291],[-83.5,-0.44575],[-83,-0.64117],[-82.5,-0.83921],[-82,-1.03988],[-81.5,-1.2432],[-81,-1.44918],[-80.5,-1.65784],[-80,-1.8692],[-79.5,-2.08326],[-79,-2.30005],[-78.5,-2.51956],[-78,-2.74182],[-77.5,-2.96683],[-77,-3.19458],[-76.5,-3.4251],[-76,-3.65837],[-75.5,-3.8944],[-75,-4.13318],[-74.5,-4.37471],[-74,-4.61897],[-73.5,-4.86596],[-73,-5.11566],[-72.5,-5.36805],[-72,-5.6231],[-71.5,-5.8808],[-71,-6.1411],[-70.5,-6.40397],[-70,-6.66938],[-69.5,-6.93727],[-69,-7.2076],[-68.5,-7.4803],[-68,-7.75533],[-67.5,-8.0326],[-67,-8.31206],[-66.5,-8.59591],[-66,-8.88486],[-65.5,-9.17565],[-65,-9.46818],[-64.5,-9.76232],[-64,-10.05798],[-63.5,-10.35501],[-63,-10.6533],[-62.5,-10.9527],[-62,-11.25307],[-61.5,-11.55427],[-61,-11.85614],[-60.5,-12.15852],[-60,-12.46124],[-59.5,-12.76413],[-59,-13.06703],[-58.5,-13.36976],[-58,-13.67213],[-57.5,-13.97396],[-57,-14.27507],[-56.5,-14.57527],[-56,-14.87439],[-55.5,-15.17222],[-55,-15.4686],[-54.5,-15.76332],[-54,-16.05623],[-53.5,-16.34712],[-53,-16.63584],[-52.5,-16.92221],[-52,-17.20607],[-51.5,-17.48726],[-51,-17.76561],[-50.5,-18.04099],[-50,-18.31325],[-49.5,-18.58226],[-49,-18.84789],[-48.5,-19.11003],[-48,-19.36855],[-47.5,-19.62335],[-47,-19.87434],[-46.5,-20.12143],[-46,-20.36454],[-45.5,-20.60359],[-45,-20.83852],[-44.5,-21.06927],[-44,-21.29579],[-43.5,-21.51803],[-43,-21.73597],[-42.5,-21.94955],[-42,-22.15877],[-41.5,-22.36361],[-41,-22.56404],[-40.5,-22.76006],[-40,-22.95168],[-39.5,-23.13889],[-39,-23.32169],[-38.5,-23.50011],[-38,-23.67415],[-37.5,-23.84383],[-37,-24.00917],[-36.5,-24.17021],[-36,-24.32696],[-35.5,-24.47945],[-35,-24.62772],[-34.5,-24.7718],[-34,-24.91173],[-33.5,-25.04754],[-33,-25.17927],[-32.5,-25.30697],[-32,-25.43068],[-31.5,-25.55043],[-31,-25.66627],[-30.5,-25.77825],[-30,-25.8864],[-29.5,-25.99078],[-29,-26.09143],[-28.5,-26.18839],[-28,-26.28172],[-27.5,-26.37476],[-27,-26.46482],[-26.5,-26.55141],[-26,-26.63457],[-25.5,-26.71436],[-25,-26.79081],[-24.5,-26.86397],[-24,-26.93388],[-23.5,-27.00059],[-23,-27.06414],[-22.5,-27.12457],[-22,-27.18193],[-21.5,-27.23626],[-21,-27.2876],[-20.5,-27.33599],[-20,-27.38147],[-19.5,-27.42408],[-19,-27.46387],[-18.5,-27.50087],[-18,-27.53512],[-17.5,-27.56666],[-17,-27.59552],[-16.5,-27.62176],[-16,-27.64539],[-15.5,-27.66646],[-15,-27.68501],[-14.5,-27.70106],[-14,-27.71466],[-13.5,-27.72584],[-13,-27.73463],[-12.5,-27.74107],[-12,-27.74519],[-11.5,-27.74702],[-11,-27.74659],[-10.5,-27.74395],[-10,-27.7391],[-9.5,-27.7321],[-9,-27.72296],[-8.5,-27.71173],[-8,-27.69842],[-7.5,-27.68306],[-7,-27.6657],[-6.5,-27.64634],[-6,-27.62503],[-5.5,-27.60179],[-5,-27.57664],[-4.5,-27.54962],[-4,-27.52075],[-3.5,-27.49005],[-3,-27.45755],[-2.5,-27.42328],[-2,-27.38727],[-1.5,-27.34952],[-1,-27.31009],[-0.5,-27.26897],[0,-27.22621],[0.5,-27.18182],[1,-27.13582],[1.5,-27.08824],[2,-27.03911],[2.5,-26.98844],[3,-26.93625],[3.5,-26.88257],[4,-26.82743],[4.5,-26.77083],[5,-26.71281],[5.5,-26.65337],[6,-26.59256],[6.5,-26.53037],[7,-26.46685],[7.5,-26.40199],[8,-26.33583],[8.5,-26.26838],[9,-26.19967],[9.5,-26.12971],[10,-26.05852],[10.5,-25.98611],[11,-25.91252],[11.5,-25.83775],[12,-25.76183],[12.5,-25.68477],[13,-25.60659],[13.5,-25.5273],[14,-25.44694],[14.5,-25.3655],[15,-25.28301],[15.5,-25.19949],[16,-25.11495],[16.5,-25.02941],[17,-24.94288],[17.5,-24.85539],[18,-24.76694],[18.5,-24.67756],[19,-24.58726],[19.5,-24.49605],[20,-24.40394],[20.5,-24.31097],[21,-24.21713],[21.5,-24.12245],[22,-24.02694],[22.5,-23.93061],[23,-23.83348],[23.5,-23.73556]]}}],"attribution":"Eclipse Predictions by Fred Espenak and Jean Meeus (NASA's GSFC)","generated_at":"2026-09-23T03:35:44.419Z"}
