{"type":"FeatureCollection","year":1216,"events":[{"id":"+12160219","year":1216,"month":2,"day":19,"time_tdt":"07:37:26","type":"금환일식","type_code":"A","saros":98,"gamma":0.7663,"magnitude":0.96406,"greatest":{"lat":39.12185,"lng":56.00494},"path_width_km":200.2,"duration":"03m33s","delta_t_seconds":683.5,"catalog_number":7655,"source":"NASA Five Millennium Canon of Solar Eclipses","source_url":"https://eclipse.gsfc.nasa.gov/SEsearch/SEsearchmap.php?Ecl=%2B12160219"},{"id":"+12160814","year":1216,"month":8,"day":14,"time_tdt":"23:48:35","type":"금환일식","type_code":"A","saros":103,"gamma":-0.68323,"magnitude":0.98989,"greatest":{"lat":-29.90372,"lng":174.60413},"path_width_km":48.3,"duration":"01m02s","delta_t_seconds":682.1,"catalog_number":7656,"source":"NASA Five Millennium Canon of Solar Eclipses","source_url":"https://eclipse.gsfc.nasa.gov/SEsearch/SEsearchmap.php?Ecl=%2B12160814"}],"features":[{"type":"Feature","id":"+12160219:north:0","properties":{"id":"+12160219","year":1216,"month":2,"day":19,"time_tdt":"07:37:26","type":"금환일식","type_code":"A","saros":98,"gamma":0.7663,"magnitude":0.96406,"greatest":{"lat":39.12185,"lng":56.00494},"path_width_km":200.2,"duration":"03m33s","delta_t_seconds":683.5,"catalog_number":7655,"source":"NASA Five Millennium Canon of Solar Eclipses","source_url":"https://eclipse.gsfc.nasa.gov/SEsearch/SEsearchmap.php?Ecl=%2B12160219","boundary":"north","name":"1216-02-19 금환일식"},"geometry":{"type":"LineString","coordinates":[[6,34.71927],[6.5,34.63758],[7,34.55725],[7.5,34.47829],[8,34.40074],[8.5,34.32462],[9,34.24996],[9.5,34.17679],[10,34.10515],[10.5,34.03506],[11,33.96655],[11.5,33.89967],[12,33.83443],[12.5,33.77088],[13,33.70906],[13.5,33.64898],[14,33.59071],[14.5,33.53426],[15,33.47967],[15.5,33.427],[16,33.37627],[16.5,33.32753],[17,33.28082],[17.5,33.23618],[18,33.19365],[18.5,33.15328],[19,33.11512],[19.5,33.0792],[20,33.04558],[20.5,33.01431],[21,32.98544],[21.5,32.959],[22,32.93507],[22.5,32.91368],[23,32.89489],[23.5,32.87876],[24,32.86534],[24.5,32.85469],[25,32.84686],[25.5,32.84192],[26,32.83992],[26.5,32.84092],[27,32.84498],[27.5,32.85218],[28,32.86256],[28.5,32.8762],[29,32.89316],[29.5,32.9135],[30,32.93729],[30.5,32.9646],[31,32.9955],[31.5,33.03006],[32,33.06833],[32.5,33.1104],[33,33.15634],[33.5,33.2062],[34,33.26006],[34.5,33.31799],[35,33.38006],[35.5,33.44634],[36,33.51689],[36.5,33.59178],[37,33.67107],[37.5,33.75484],[38,33.84313],[38.5,33.93602],[39,34.03356],[39.5,34.1358],[40,34.2428],[40.5,34.3546],[41,34.47126],[41.5,34.59281],[42,34.7193],[42.5,34.85075],[43,34.9872],[43.5,35.12866],[44,35.27516],[44.5,35.4267],[45,35.58329],[45.5,35.74493],[46,35.9116],[46.5,36.08329],[47,36.25997],[47.5,36.44162],[48,36.62818],[48.5,36.81961],[49,37.01584],[49.5,37.21682],[50,37.42246],[50.5,37.63267],[51,37.84737],[51.5,38.06645],[52,38.2898],[52.5,38.51729],[53,38.7488],[53.5,38.98419],[54,39.22332],[54.5,39.46605],[55,39.71221],[55.5,39.96164],[56,40.21418],[56.5,40.46965],[57,40.72788],[57.5,40.9887],[58,41.25192],[58.5,41.51737],[59,41.78485],[59.5,42.05419],[60,42.32521],[60.5,42.59772],[61,42.87155],[61.5,43.14651],[62,43.42243],[62.5,43.69915],[63,43.97649],[63.5,44.25428],[64,44.53239],[64.5,44.81063],[65,45.08888],[65.5,45.36698],[66,45.64479],[66.5,45.92219],[67,46.19904],[67.5,46.47523],[68,46.75064],[68.5,47.02515],[69,47.29867],[69.5,47.5711],[70,47.84234],[70.5,48.1123],[71,48.38091],[71.5,48.64809],[72,48.91376],[72.5,49.17785],[73,49.44032],[73.5,49.70109],[74,49.96012],[74.5,50.21735],[75,50.47275],[75.5,50.72626],[76,50.97786],[76.5,51.22751],[77,51.47517],[77.5,51.72083],[78,51.96445],[78.5,52.20602],[79,52.44552],[79.5,52.68292],[80,52.91822],[80.5,53.1514],[81,53.38246],[81.5,53.61138],[82,53.83816],[82.5,54.0628],[83,54.2853],[83.5,54.50564],[84,54.72384],[84.5,54.93989],[85,55.1538],[85.5,55.36558],[86,55.57522],[86.5,55.78273],[87,55.98812],[87.5,56.1914],[88,56.39258],[88.5,56.59166],[89,56.78866],[89.5,56.98358],[90,57.17644],[90.5,57.36725],[91,57.55602],[91.5,57.74276],[92,57.92749],[92.5,58.11021],[93,58.29095],[93.5,58.46972],[94,58.64653],[94.5,58.82139],[95,58.99432],[95.5,59.16533],[96,59.33445],[96.5,59.50167],[97,59.66702],[97.5,59.83052],[98,59.99218],[98.5,60.152],[99,60.31002],[99.5,60.46624],[100,60.62068],[100.5,60.77335],[101,60.92427],[101.5,61.07346],[102,61.22092],[102.5,61.36668],[103,61.51075],[103.5,61.65315],[104,61.79388],[104.5,61.93297],[105,62.07043],[105.5,62.20627],[106,62.3405],[106.5,62.47315],[107,62.60423],[107.5,62.73375],[108,62.86172],[108.5,62.98817],[109,63.1131],[109.5,63.23652],[110,63.35845],[110.5,63.47891],[111,63.59791],[111.5,63.71546],[112,63.83157],[112.5,63.94626],[113,64.05954],[113.5,64.17143],[114,64.28193],[114.5,64.39106],[115,64.49883],[115.5,64.60525],[116,64.71034],[116.5,64.8141],[117,64.91656],[117.5,65.01772],[118,65.11759],[118.5,65.21618],[119,65.31351],[119.5,65.40959],[120,65.50442],[120.5,65.59803],[121,65.69041],[121.5,65.78159],[122,65.87156],[122.5,65.96035],[123.5,66.13441],[123,66.04796]]}},{"type":"Feature","id":"+12160219:center:0","properties":{"id":"+12160219","year":1216,"month":2,"day":19,"time_tdt":"07:37:26","type":"금환일식","type_code":"A","saros":98,"gamma":0.7663,"magnitude":0.96406,"greatest":{"lat":39.12185,"lng":56.00494},"path_width_km":200.2,"duration":"03m33s","delta_t_seconds":683.5,"catalog_number":7655,"source":"NASA Five Millennium Canon of Solar Eclipses","source_url":"https://eclipse.gsfc.nasa.gov/SEsearch/SEsearchmap.php?Ecl=%2B12160219","boundary":"center","name":"1216-02-19 금환일식"},"geometry":{"type":"LineString","coordinates":[[6.1346,33.55327],[6.5,33.50241],[7,33.42467],[7.5,33.34829],[8,33.2733],[8.5,33.19971],[9,33.12757],[9.5,33.0569],[10,32.98773],[10.5,32.92009],[11,32.85401],[11.5,32.78953],[12,32.72667],[12.5,32.66547],[13,32.60597],[13.5,32.5482],[14,32.49219],[14.5,32.43798],[15,32.38561],[15.5,32.33512],[16,32.28654],[16.5,32.23992],[17,32.19529],[17.5,32.1527],[18,32.11218],[18.5,32.07379],[19,32.03757],[19.5,32.00355],[20,31.9718],[20.5,31.94235],[21,31.91525],[21.5,31.89055],[22,31.86831],[22.5,31.84857],[23,31.83138],[23.5,31.8168],[24,31.80488],[24.5,31.79568],[25,31.78925],[25.5,31.78566],[26,31.78495],[26.5,31.78719],[27,31.79243],[27.5,31.80075],[28,31.81219],[28.5,31.82683],[29,31.84472],[29.5,31.86594],[30,31.89054],[30.5,31.9186],[31,31.95017],[31.5,31.98533],[32,32.02414],[32.5,32.06667],[33,32.113],[33.5,32.16318],[34,32.21728],[34.5,32.27538],[35,32.33754],[35.5,32.40383],[36,32.47432],[36.5,32.54906],[37,32.62814],[37.5,32.7116],[38,32.79952],[38.5,32.89194],[39,32.98894],[39.5,33.09057],[40,33.19687],[40.5,33.30791],[41,33.42372],[41.5,33.54435],[42,33.66984],[42.5,33.80022],[43,33.93553],[43.5,34.07578],[44,34.22101],[44.5,34.37121],[45,34.52641],[45.5,34.68659],[46,34.85176],[46.5,35.02189],[47,35.19697],[47.5,35.37697],[48,35.56184],[48.5,35.75155],[49,35.94604],[49.5,36.14525],[50,36.34909],[50.5,36.5575],[51,36.77037],[51.5,36.98762],[52,37.20913],[52.5,37.43479],[53,37.66448],[53.5,37.89806],[54,38.13539],[54.5,38.37633],[55,38.62073],[55.5,38.86842],[56,39.11924],[56.5,39.37303],[57,39.62962],[57.5,39.88882],[58,40.15045],[58.5,40.41435],[59,40.68032],[59.5,40.94819],[60,41.21777],[60.5,41.48888],[61,41.76133],[61.5,42.03497],[62,42.3096],[62.5,42.58506],[63,42.86117],[63.5,43.13777],[64,43.41471],[64.5,43.69182],[65,43.96896],[65.5,44.24598],[66,44.52273],[66.5,44.79909],[67,45.07492],[67.5,45.35011],[68,45.62453],[68.5,45.89808],[69,46.17064],[69.5,46.44212],[70,46.71242],[70.5,46.98145],[71,47.24914],[71.5,47.5154],[72,47.78015],[72.5,48.04334],[73,48.3049],[73.5,48.56476],[74,48.82288],[74.5,49.07921],[75,49.33369],[75.5,49.5863],[76,49.83698],[76.5,50.08572],[77,50.33246],[77.5,50.5772],[78,50.81989],[78.5,51.06053],[79,51.29909],[79.5,51.53556],[80,51.76991],[80.5,52.00215],[81,52.23226],[81.5,52.46023],[82,52.68605],[82.5,52.90973],[83,53.13126],[83.5,53.35064],[84,53.56787],[84.5,53.78295],[85,53.99588],[85.5,54.20668],[86,54.41534],[86.5,54.62187],[87,54.82628],[87.5,55.02857],[88,55.22877],[88.5,55.42686],[89,55.62287],[89.5,55.81681],[90,56.00868],[90.5,56.19851],[91,56.38629],[91.5,56.57205],[92,56.7558],[92.5,56.93755],[93,57.11731],[93.5,57.2951],[94,57.47094],[94.5,57.64483],[95,57.81679],[95.5,57.98684],[96,58.15499],[96.5,58.32126],[97,58.48566],[97.5,58.6482],[98,58.80891],[98.5,58.9678],[99,59.12487],[99.5,59.28016],[100,59.43367],[100.5,59.58542],[101,59.73542],[101.5,59.88369],[102,60.03024],[102.5,60.17509],[103,60.31826],[103.5,60.45976],[104,60.5996],[104.5,60.7378],[105,60.87437],[105.5,61.00933],[106,61.1427],[106.5,61.27448],[107,61.40469],[107.5,61.53335],[108,61.66047],[108.5,61.78606],[109,61.91014],[109.5,62.03272],[110,62.15382],[110.5,62.27345],[111,62.39162],[111.5,62.50834],[112,62.62363],[112.5,62.7375],[113,62.84997],[113.5,62.96104],[114,63.07074],[114.5,63.17906],[115,63.28603],[115.5,63.39166],[116,63.49595],[116.5,63.59892],[117,63.70059],[117.5,63.80096],[118,63.90004],[118.5,63.99786],[119,64.0944],[119.5,64.1897],[120,64.28376],[120.5,64.37659],[123,64.82266],[121,64.4682],[121.5,64.5586],[122,64.6478],[122.5,64.73582],[123.5,64.90833],[124,64.99284],[124.25325,65.08138]]}},{"type":"Feature","id":"+12160219:south:0","properties":{"id":"+12160219","year":1216,"month":2,"day":19,"time_tdt":"07:37:26","type":"금환일식","type_code":"A","saros":98,"gamma":0.7663,"magnitude":0.96406,"greatest":{"lat":39.12185,"lng":56.00494},"path_width_km":200.2,"duration":"03m33s","delta_t_seconds":683.5,"catalog_number":7655,"source":"NASA Five Millennium Canon of Solar Eclipses","source_url":"https://eclipse.gsfc.nasa.gov/SEsearch/SEsearchmap.php?Ecl=%2B12160219","boundary":"south","name":"1216-02-19 금환일식"},"geometry":{"type":"LineString","coordinates":[[6.2832,32.42577],[6.5,32.39276],[7,32.31757],[7.5,32.24372],[8,32.17125],[8.5,32.10016],[9,32.0305],[9.5,31.9623],[10,31.89557],[10.5,31.83035],[11,31.76668],[11.5,31.70457],[12,31.64407],[12.5,31.58521],[13,31.52802],[13.5,31.47253],[14,31.41879],[14.5,31.36681],[15,31.31665],[15.5,31.26834],[16,31.22191],[16.5,31.17741],[17,31.13487],[17.5,31.09434],[18,31.05585],[18.5,31.01945],[19,30.98518],[19.5,30.9531],[20,30.92323],[20.5,30.89562],[21,30.87034],[21.5,30.84741],[22,30.8269],[22.5,30.80884],[23,30.7933],[23.5,30.78032],[24,30.76996],[24.5,30.76226],[25,30.7573],[25.5,30.75511],[26,30.75576],[26.5,30.75931],[27,30.76581],[27.5,30.77532],[28,30.78791],[28.5,30.80364],[29,30.82256],[29.5,30.84475],[30,30.87026],[30.5,30.89916],[31,30.93151],[31.5,30.96739],[32,31.00686],[32.5,31.04998],[33,31.09682],[33.5,31.14744],[34,31.20193],[34.5,31.26033],[35,31.32273],[35.5,31.38918],[36,31.45976],[36.5,31.53452],[37,31.61354],[37.5,31.69687],[38,31.78457],[38.5,31.87672],[39,31.97336],[39.5,32.07455],[40,32.18035],[40.5,32.2908],[41,32.40596],[41.5,32.52586],[42,32.65055],[42.5,32.78007],[43,32.91445],[43.5,33.0537],[44,33.19787],[44.5,33.34695],[45,33.50096],[45.5,33.65991],[46,33.82378],[46.5,33.99258],[47,34.16628],[47.5,34.34485],[48,34.52826],[48.5,34.71647],[49,34.90943],[49.5,35.10708],[50,35.30935],[50.5,35.51616],[51,35.72743],[51.5,35.94307],[52,36.16296],[52.5,36.387],[53,36.61507],[53.5,36.84705],[54,37.08279],[54.5,37.32215],[55,37.56498],[55.5,37.81114],[56,38.06045],[56.5,38.31275],[57,38.56788],[57.5,38.82565],[58,39.08589],[58.5,39.34843],[59,39.61308],[59.5,39.87965],[60,40.14797],[60.5,40.41786],[61,40.68914],[61.5,40.96162],[62,41.23514],[62.5,41.50951],[63,41.78457],[63.5,42.06015],[64,42.33609],[64.5,42.61224],[65,42.88843],[65.5,43.16453],[66,43.44038],[66.5,43.71586],[67,43.99084],[67.5,44.26518],[68,44.53877],[68.5,44.81149],[69,45.08325],[69.5,45.35393],[70,45.62344],[70.5,45.89168],[71,46.15859],[71.5,46.42407],[72,46.68805],[72.5,46.95046],[73,47.21124],[73.5,47.47032],[74,47.72766],[74.5,47.9832],[75,48.2369],[75.5,48.48871],[76,48.7386],[76.5,48.98653],[77,49.23247],[77.5,49.47638],[78,49.71826],[78.5,49.95806],[79,50.19579],[79.5,50.43141],[80,50.66491],[80.5,50.89629],[81,51.12553],[81.5,51.35263],[82,51.57757],[82.5,51.80036],[83,52.021],[83.5,52.23947],[84,52.4558],[84.5,52.66996],[85,52.88198],[85.5,53.09185],[86,53.29958],[86.5,53.50517],[87,53.70864],[87.5,53.90999],[88,54.10923],[88.5,54.30638],[89,54.50143],[89.5,54.69441],[90,54.88532],[90.5,55.07417],[91,55.26099],[91.5,55.44578],[92,55.62855],[92.5,55.80932],[93,55.98811],[93.5,56.16492],[94,56.33978],[94.5,56.51269],[95,56.68367],[95.5,56.85274],[96,57.01992],[96.5,57.1852],[97,57.34862],[97.5,57.51019],[98,57.66992],[98.5,57.82783],[99,57.98393],[99.5,58.13824],[100,58.29078],[100.5,58.44155],[101,58.59058],[101.5,58.73788],[102,58.88347],[102.5,59.02735],[103,59.16956],[103.5,59.31009],[104,59.44897],[104.5,59.58622],[105,59.72183],[105.5,59.85584],[106,59.98826],[106.5,60.11909],[107,60.24836],[107.5,60.37607],[108,60.50225],[108.5,60.6269],[109,60.75004],[109.5,60.87169],[110,60.99185],[110.5,61.11054],[111,61.22778],[111.5,61.34358],[112,61.45794],[112.5,61.57089],[113,61.68243],[113.5,61.79259],[114,61.90136],[114.5,62.00877],[115,62.11482],[115.5,62.21953],[116,62.32291],[116.5,62.42497],[117,62.52572],[117.5,62.62518],[118,62.72335],[118.5,62.82025],[119,62.91589],[119.5,63.01028],[120,63.10342],[120.5,63.19534],[121,63.28604],[121.5,63.37553],[122,63.46382],[122.5,63.55093],[123,63.63686],[123.5,63.72161],[124,63.80521],[124.5,63.88766],[124.87109,63.94812]]}},{"type":"Feature","id":"+12160814:north:0","properties":{"id":"+12160814","year":1216,"month":8,"day":14,"time_tdt":"23:48:35","type":"금환일식","type_code":"A","saros":103,"gamma":-0.68323,"magnitude":0.98989,"greatest":{"lat":-29.90372,"lng":174.60413},"path_width_km":48.3,"duration":"01m02s","delta_t_seconds":682.1,"catalog_number":7656,"source":"NASA Five Millennium Canon of Solar Eclipses","source_url":"https://eclipse.gsfc.nasa.gov/SEsearch/SEsearchmap.php?Ecl=%2B12160814","boundary":"north","name":"1216-08-14 금환일식"},"geometry":{"type":"LineString","coordinates":[[122.9707,-27.38832],[123,-27.38221],[123.5,-27.27845],[124,-27.17569],[124.5,-27.07397],[125,-26.9733],[125.5,-26.87372],[126,-26.77523],[126.5,-26.67788],[127,-26.58169],[127.5,-26.48669],[128,-26.39291],[128.5,-26.30037],[129,-26.2091],[129.5,-26.11914],[130,-26.03052],[130.5,-25.94326],[131,-25.85741],[131.5,-25.77299],[132,-25.69004],[132.5,-25.60859],[133,-25.52869],[133.5,-25.45035],[134,-25.37364],[134.5,-25.29857],[135,-25.2252],[135.5,-25.15356],[136,-25.08369],[136.5,-25.01563],[137,-24.94944],[137.5,-24.88514],[138,-24.82279],[138.5,-24.76244],[139,-24.70413],[139.5,-24.6479],[140,-24.59382],[140.5,-24.54192],[141,-24.49227],[141.5,-24.4449],[142,-24.39989],[142.5,-24.35728],[143,-24.31713],[143.5,-24.2795],[144,-24.24444],[144.5,-24.21202],[145,-24.18229],[145.5,-24.15533],[146,-24.13119],[146.5,-24.10994],[147,-24.09165],[147.5,-24.07638],[148,-24.0642],[148.5,-24.05518],[149,-24.0494],[149.5,-24.04692],[150,-24.04781],[150.5,-24.05217],[151,-24.06004],[151.5,-24.07153],[152,-24.08669],[152.5,-24.10561],[153,-24.12837],[153.5,-24.15504],[154,-24.1857],[154.5,-24.22044],[155,-24.25933],[155.5,-24.30246],[156,-24.34989],[156.5,-24.40172],[157,-24.45801],[157.5,-24.51884],[158,-24.5843],[158.5,-24.65445],[159,-24.72937],[159.5,-24.80913],[160,-24.89379],[160.5,-24.98342],[161,-25.07809],[161.5,-25.17784],[162,-25.28275],[162.5,-25.39285],[163,-25.5082],[163.5,-25.62882],[164,-25.75477],[164.5,-25.88606],[165,-26.02272],[165.5,-26.16477],[166,-26.31221],[166.5,-26.46504],[167,-26.62325],[167.5,-26.78683],[168,-26.95575],[168.5,-27.12998],[169,-27.30946],[169.5,-27.49416],[170,-27.684],[170.5,-27.87891],[171,-28.0788],[171.5,-28.28359],[172,-28.49317],[172.5,-28.70742],[173,-28.92622],[173.5,-29.14945],[174,-29.37697],[174.5,-29.60861],[175,-29.84424],[175.5,-30.08369],[176,-30.32678],[176.5,-30.57335],[177,-30.82321],[177.5,-31.07619],[178,-31.33209],[178.5,-31.59072],[179,-31.8519],[179.5,-32.11543],[180,-32.38112]]}},{"type":"Feature","id":"+12160814:north:1","properties":{"id":"+12160814","year":1216,"month":8,"day":14,"time_tdt":"23:48:35","type":"금환일식","type_code":"A","saros":103,"gamma":-0.68323,"magnitude":0.98989,"greatest":{"lat":-29.90372,"lng":174.60413},"path_width_km":48.3,"duration":"01m02s","delta_t_seconds":682.1,"catalog_number":7656,"source":"NASA Five Millennium Canon of Solar Eclipses","source_url":"https://eclipse.gsfc.nasa.gov/SEsearch/SEsearchmap.php?Ecl=%2B12160814","boundary":"north","name":"1216-08-14 금환일식"},"geometry":{"type":"LineString","coordinates":[[-179.5,-32.64877],[-179,-32.9182],[-178.5,-33.18922],[-178,-33.46163],[-177.5,-33.73526],[-177,-34.00992],[-176.5,-34.28544],[-176,-34.56164],[-175.5,-34.83837],[-175,-35.11544],[-174.5,-35.39272],[-174,-35.67005],[-173.5,-35.94729],[-173,-36.22429],[-172.5,-36.50092],[-172,-36.77706],[-171.5,-37.05259],[-171,-37.32739],[-170.5,-37.60135],[-170,-37.87437],[-169.5,-38.14636],[-169,-38.41722],[-168.5,-38.68687],[-168,-38.95524],[-167.5,-39.22223],[-167,-39.4878],[-166.5,-39.75186],[-166,-40.01437],[-165.5,-40.27527],[-165,-40.5345],[-164.5,-40.79202],[-164,-41.0478],[-163.5,-41.30178],[-163,-41.55393],[-162.5,-41.80423],[-162,-42.05264],[-161.5,-42.29914],[-161,-42.54371],[-160.5,-42.78632],[-160,-43.02696],[-159.5,-43.26561],[-159,-43.50226],[-158.5,-43.73691],[-158,-43.96953],[-157.5,-44.20013],[-157,-44.42869],[-156.5,-44.65522],[-156,-44.87971],[-155.5,-45.10217],[-155,-45.32258],[-154.5,-45.54096],[-154,-45.75731],[-153.5,-45.97163],[-153,-46.18392],[-152.5,-46.3942],[-152,-46.60246],[-151.5,-46.80872],[-151,-47.01297],[-150.5,-47.21525],[-150,-47.41554],[-149.5,-47.61386],[-149,-47.81022],[-148.5,-48.00463],[-148,-48.19711],[-147.5,-48.38765],[-147,-48.57628],[-146.5,-48.76301],[-146,-48.94785],[-145.5,-49.1308],[-145,-49.3119],[-144.5,-49.49113],[-144,-49.66853],[-143.5,-49.84409],[-143,-50.01785],[-142.5,-50.1898],[-142,-50.35996],[-141.5,-50.52835],[-141,-50.69498],[-140.5,-50.85985],[-140,-51.023],[-139.5,-51.18442],[-139,-51.34413],[-138.5,-51.50215],[-138,-51.65849],[-137.5,-51.81316],[-137,-51.96618],[-136.5,-52.11755],[-136,-52.2673],[-135.5,-52.41543],[-135,-52.56196],[-134.5,-52.7069],[-134,-52.85026],[-133.5,-52.99206],[-133,-53.13231],[-132.5,-53.27102],[-132,-53.4082],[-131.5,-53.54387],[-131,-53.67804],[-130.5,-53.81072],[-130,-53.94192],[-129.5,-54.07166],[-129,-54.19995],[-128.5,-54.32679],[-128,-54.45221],[-127.5,-54.5762],[-127,-54.69879],[-126.5,-54.81999],[-126,-54.9398],[-125.5,-55.05824],[-125,-55.17531],[-124.5,-55.29103],[-124,-55.40541],[-123.5,-55.51847],[-123,-55.6302],[-122.5,-55.74062],[-122.33398,-55.777]]}},{"type":"Feature","id":"+12160814:center:0","properties":{"id":"+12160814","year":1216,"month":8,"day":14,"time_tdt":"23:48:35","type":"금환일식","type_code":"A","saros":103,"gamma":-0.68323,"magnitude":0.98989,"greatest":{"lat":-29.90372,"lng":174.60413},"path_width_km":48.3,"duration":"01m02s","delta_t_seconds":682.1,"catalog_number":7656,"source":"NASA Five Millennium Canon of Solar Eclipses","source_url":"https://eclipse.gsfc.nasa.gov/SEsearch/SEsearchmap.php?Ecl=%2B12160814","boundary":"center","name":"1216-08-14 금환일식"},"geometry":{"type":"LineString","coordinates":[[122.95864,-27.86232],[123,-27.85747],[123.5,-27.75096],[124,-27.64544],[124.5,-27.54094],[125,-27.43749],[125.5,-27.33512],[126,-27.23384],[126.5,-27.1337],[127,-27.0347],[127.5,-26.93689],[128,-26.84029],[128.5,-26.74494],[129,-26.65085],[129.5,-26.55806],[130,-26.4666],[130.5,-26.37651],[131,-26.28782],[131.5,-26.20056],[132,-26.11476],[132.5,-26.03047],[133,-25.94771],[133.5,-25.86652],[134,-25.78695],[134.5,-25.70903],[135,-25.6328],[135.5,-25.5583],[136,-25.48557],[136.5,-25.41465],[137,-25.3456],[137.5,-25.27844],[138,-25.21324],[138.5,-25.15003],[139,-25.08887],[139.5,-25.02979],[140,-24.97286],[140.5,-24.91812],[141,-24.86562],[141.5,-24.81543],[142,-24.76759],[142.5,-24.72215],[143,-24.67919],[143.5,-24.63874],[144,-24.60088],[144.5,-24.56567],[145,-24.53317],[145.5,-24.50343],[146,-24.47653],[146.5,-24.45253],[147,-24.4315],[147.5,-24.41351],[148,-24.39862],[148.5,-24.38691],[149,-24.37844],[149.5,-24.37331],[150,-24.37156],[150.5,-24.37329],[151,-24.37857],[151.5,-24.38747],[152,-24.40008],[152.5,-24.41646],[153,-24.43671],[153.5,-24.4609],[154,-24.48912],[154.5,-24.52143],[155,-24.55793],[155.5,-24.59869],[156,-24.6438],[156.5,-24.69333],[157,-24.74737],[157.5,-24.80599],[158,-24.86927],[158.5,-24.93728],[159,-25.01011],[159.5,-25.08781],[160,-25.17047],[160.5,-25.25815],[161,-25.35092],[161.5,-25.44882],[162,-25.55193],[162.5,-25.66029],[163,-25.77395],[163.5,-25.89295],[164,-26.01733],[164.5,-26.14712],[165,-26.28235],[165.5,-26.42302],[166,-26.56915],[166.5,-26.72075],[167,-26.8778],[167.5,-27.04028],[168,-27.20819],[168.5,-27.38147],[169,-27.56009],[169.5,-27.744],[170,-27.93313],[170.5,-28.12741],[171,-28.32675],[171.5,-28.53107],[172,-28.74026],[172.5,-28.95421],[173,-29.17279],[173.5,-29.39588],[174,-29.62334],[174.5,-29.85501],[175,-30.09074],[175.5,-30.33038],[176,-30.57374],[176.5,-30.82066],[177,-31.07095],[177.5,-31.32443],[178,-31.58091],[178.5,-31.8402],[179,-32.10211],[179.5,-32.36644],[180,-32.633]]}},{"type":"Feature","id":"+12160814:center:1","properties":{"id":"+12160814","year":1216,"month":8,"day":14,"time_tdt":"23:48:35","type":"금환일식","type_code":"A","saros":103,"gamma":-0.68323,"magnitude":0.98989,"greatest":{"lat":-29.90372,"lng":174.60413},"path_width_km":48.3,"duration":"01m02s","delta_t_seconds":682.1,"catalog_number":7656,"source":"NASA Five Millennium Canon of Solar Eclipses","source_url":"https://eclipse.gsfc.nasa.gov/SEsearch/SEsearchmap.php?Ecl=%2B12160814","boundary":"center","name":"1216-08-14 금환일식"},"geometry":{"type":"LineString","coordinates":[[-179.5,-32.90159],[-179,-33.17203],[-178.5,-33.44412],[-178,-33.71766],[-177.5,-33.99249],[-177,-34.2684],[-176.5,-34.54523],[-176,-34.8228],[-175.5,-35.10094],[-175,-35.37949],[-174.5,-35.65828],[-174,-35.93717],[-173.5,-36.21601],[-173,-36.49466],[-172.5,-36.77298],[-172,-37.05085],[-171.5,-37.32813],[-171,-37.60473],[-170.5,-37.88051],[-170,-38.15539],[-169.5,-38.42927],[-169,-38.70204],[-168.5,-38.97363],[-168,-39.24395],[-167.5,-39.51293],[-167,-39.7805],[-166.5,-40.04658],[-166,-40.31113],[-165.5,-40.57408],[-165,-40.83539],[-164.5,-41.09499],[-164,-41.35286],[-163.5,-41.60895],[-163,-41.86322],[-162.5,-42.11565],[-162,-42.3662],[-161.5,-42.61484],[-161,-42.86156],[-160.5,-43.10632],[-160,-43.34912],[-159.5,-43.58994],[-159,-43.82876],[-158.5,-44.06557],[-158,-44.30036],[-157.5,-44.53313],[-157,-44.76387],[-156.5,-44.99257],[-156,-45.21924],[-155.5,-45.44386],[-155,-45.66645],[-154.5,-45.887],[-154,-46.10551],[-153.5,-46.32199],[-153,-46.53644],[-152.5,-46.74887],[-152,-46.95929],[-151.5,-47.16769],[-151,-47.37409],[-150.5,-47.5785],[-150,-47.78092],[-149.5,-47.98137],[-149,-48.17985],[-148.5,-48.37638],[-148,-48.57096],[-147.5,-48.7636],[-147,-48.95433],[-146.5,-49.14314],[-146,-49.33006],[-145.5,-49.51508],[-145,-49.69824],[-144.5,-49.87953],[-144,-50.05898],[-143.5,-50.23658],[-143,-50.41237],[-142.5,-50.58635],[-142,-50.75853],[-141.5,-50.92892],[-141,-51.09755],[-140.5,-51.26442],[-140,-51.42954],[-139.5,-51.59294],[-139,-51.75462],[-138.5,-51.91459],[-138,-52.07288],[-137.5,-52.22949],[-137,-52.38443],[-136.5,-52.53773],[-136,-52.68939],[-135.5,-52.83942],[-135,-52.98784],[-134.5,-53.13467],[-134,-53.27991],[-133.5,-53.42357],[-133,-53.56568],[-132.5,-53.70624],[-132,-53.84527],[-131.5,-53.98277],[-131,-54.11876],[-130.5,-54.25326],[-130,-54.38627],[-129.5,-54.5178],[-129,-54.64788],[-128.5,-54.7765],[-128,-54.90369],[-127.5,-55.02945],[-127,-55.15379],[-126.5,-55.27673],[-126,-55.39828],[-125.5,-55.51845],[-125,-55.63724],[-124.5,-55.75468],[-124,-55.87077],[-123.5,-55.98552],[-123,-56.09894],[-122.5,-56.21104],[-122.54844,-56.2391]]}},{"type":"Feature","id":"+12160814:south:0","properties":{"id":"+12160814","year":1216,"month":8,"day":14,"time_tdt":"23:48:35","type":"금환일식","type_code":"A","saros":103,"gamma":-0.68323,"magnitude":0.98989,"greatest":{"lat":-29.90372,"lng":174.60413},"path_width_km":48.3,"duration":"01m02s","delta_t_seconds":682.1,"catalog_number":7656,"source":"NASA Five Millennium Canon of Solar Eclipses","source_url":"https://eclipse.gsfc.nasa.gov/SEsearch/SEsearchmap.php?Ecl=%2B12160814","boundary":"south","name":"1216-08-14 금환일식"},"geometry":{"type":"LineString","coordinates":[[123,-28.33601],[123.5,-28.22671],[124,-28.11841],[124.5,-28.01112],[125,-27.90488],[125.5,-27.7997],[126,-27.69562],[126.5,-27.59265],[127,-27.49084],[127.5,-27.3902],[128,-27.29077],[128.5,-27.19258],[129,-27.09565],[129.5,-27.00001],[130,-26.90571],[130.5,-26.81277],[131,-26.72122],[131.5,-26.63109],[132,-26.54243],[132.5,-26.45527],[133,-26.36965],[133.5,-26.28559],[134,-26.20315],[134.5,-26.12235],[135,-26.04325],[135.5,-25.96587],[136,-25.89027],[136.5,-25.81648],[137,-25.74455],[137.5,-25.67452],[138,-25.60645],[138.5,-25.54037],[139,-25.47633],[139.5,-25.41439],[140,-25.3546],[140.5,-25.297],[141,-25.24166],[141.5,-25.18861],[142,-25.13793],[142.5,-25.08966],[143,-25.04386],[143.5,-25.0006],[144,-24.95993],[144.5,-24.92191],[145,-24.88661],[145.5,-24.85409],[146,-24.82442],[146.5,-24.79766],[147,-24.77388],[147.5,-24.75315],[148,-24.73555],[148.5,-24.72113],[149,-24.70998],[149.5,-24.70218],[150,-24.69778],[150.5,-24.69688],[151,-24.69955],[151.5,-24.70587],[152,-24.71591],[152.5,-24.72976],[153,-24.7475],[153.5,-24.7692],[154,-24.79496],[154.5,-24.82485],[155,-24.85895],[155.5,-24.89735],[156,-24.94013],[156.5,-24.98737],[157,-25.03915],[157.5,-25.09555],[158,-25.15665],[158.5,-25.22253],[159,-25.29327],[159.5,-25.36893],[160,-25.44959],[160.5,-25.53533],[161,-25.62619],[161.5,-25.72225],[162,-25.82357],[162.5,-25.9302],[163,-26.04218],[163.5,-26.15957],[164,-26.2824],[164.5,-26.4107],[165,-26.5445],[165.5,-26.68382],[166,-26.82866],[166.5,-26.97904],[167,-27.13494],[167.5,-27.29636],[168,-27.46326],[168.5,-27.63563],[169,-27.8134],[169.5,-27.99655],[170,-28.18499],[170.5,-28.37866],[171,-28.57749],[171.5,-28.78136],[172,-28.9902],[172.5,-29.20387],[173,-29.42226],[173.5,-29.64524],[174,-29.87267],[174.5,-30.1044],[175,-30.34028],[175.5,-30.58013],[176,-30.8238],[176.5,-31.0711],[177,-31.32185],[177.5,-31.57587],[178,-31.83297],[178.5,-32.09296],[179,-32.35563],[179.5,-32.62081],[180,-32.88828]]}},{"type":"Feature","id":"+12160814:south:1","properties":{"id":"+12160814","year":1216,"month":8,"day":14,"time_tdt":"23:48:35","type":"금환일식","type_code":"A","saros":103,"gamma":-0.68323,"magnitude":0.98989,"greatest":{"lat":-29.90372,"lng":174.60413},"path_width_km":48.3,"duration":"01m02s","delta_t_seconds":682.1,"catalog_number":7656,"source":"NASA Five Millennium Canon of Solar Eclipses","source_url":"https://eclipse.gsfc.nasa.gov/SEsearch/SEsearchmap.php?Ecl=%2B12160814","boundary":"south","name":"1216-08-14 금환일식"},"geometry":{"type":"LineString","coordinates":[[-179.5,-33.15785],[-179,-33.42934],[-178.5,-33.70254],[-178,-33.97726],[-177.5,-34.25332],[-177,-34.53053],[-176.5,-34.80871],[-176,-35.08768],[-175.5,-35.36728],[-175,-35.64734],[-174.5,-35.92769],[-174,-36.20818],[-173.5,-36.48867],[-173,-36.769],[-172.5,-37.04905],[-172,-37.32868],[-171.5,-37.60777],[-171,-37.8862],[-170.5,-38.16385],[-170,-38.44063],[-169.5,-38.71642],[-169,-38.99115],[-168.5,-39.26471],[-168,-39.53703],[-167.5,-39.80803],[-167,-40.07764],[-166.5,-40.34578],[-166,-40.6124],[-165.5,-40.87745],[-165,-41.14086],[-164.5,-41.40258],[-164,-41.66258],[-163.5,-41.92081],[-163,-42.17724],[-162.5,-42.43183],[-162,-42.68454],[-161.5,-42.93536],[-161,-43.18426],[-160.5,-43.43121],[-160,-43.6762],[-159.5,-43.91921],[-159,-44.16023],[-158.5,-44.39924],[-158,-44.63623],[-157.5,-44.8712],[-157,-45.10414],[-156.5,-45.33504],[-156,-45.56391],[-155.5,-45.79073],[-155,-46.01551],[-154.5,-46.23825],[-154,-46.45895],[-153.5,-46.67762],[-153,-46.89425],[-152.5,-47.10886],[-152,-47.32145],[-151.5,-47.53202],[-151,-47.74058],[-150.5,-47.94715],[-150,-48.15172],[-149.5,-48.35431],[-149,-48.55493],[-148.5,-48.75359],[-148,-48.95029],[-147.5,-49.14506],[-147,-49.33789],[-146.5,-49.5288],[-146,-49.71781],[-145.5,-49.90493],[-145,-50.09016],[-144.5,-50.27352],[-144,-50.45503],[-143.5,-50.63469],[-143,-50.81252],[-142.5,-50.98853],[-142,-51.16274],[-141.5,-51.33515],[-141,-51.50578],[-140.5,-51.67465],[-140,-51.84177],[-139.5,-52.00714],[-139,-52.17079],[-138.5,-52.33273],[-138,-52.49297],[-137.5,-52.65152],[-137,-52.8084],[-136.5,-52.96362],[-136,-53.1172],[-135.5,-53.26914],[-135,-53.41946],[-134.5,-53.56817],[-134,-53.71528],[-133.5,-53.86082],[-133,-54.00478],[-132.5,-54.14719],[-132,-54.28806],[-131.5,-54.42739],[-131,-54.56521],[-130.5,-54.70151],[-130,-54.83632],[-129.5,-54.96965],[-129,-55.10151],[-128.5,-55.23191],[-128,-55.36086],[-127.5,-55.48838],[-127,-55.61447],[-126.5,-55.73915],[-126,-55.86243],[-125.5,-55.98431],[-125,-56.10482],[-124.5,-56.22396],[-124,-56.34174],[-123.5,-56.45818],[-123,-56.57328]]}}],"attribution":"Eclipse Predictions by Fred Espenak and Jean Meeus (NASA's GSFC)","generated_at":"2026-09-23T03:35:44.458Z"}
