{"type":"FeatureCollection","year":1217,"events":[{"id":"+12170207","year":1217,"month":2,"day":7,"time_tdt":"17:30:25","type":"개기일식","type_code":"T","saros":108,"gamma":0.0204,"magnitude":1.02257,"greatest":{"lat":-11.73973,"lng":-76.17999},"path_width_km":76.9,"duration":"02m15s","delta_t_seconds":680.8,"catalog_number":7657,"source":"NASA Five Millennium Canon of Solar Eclipses","source_url":"https://eclipse.gsfc.nasa.gov/SEsearch/SEsearchmap.php?Ecl=%2B12170207"},{"id":"+12170804","year":1217,"month":8,"day":4,"time_tdt":"04:30:50","type":"금환일식","type_code":"Am","saros":113,"gamma":0.06863,"magnitude":0.952,"greatest":{"lat":19.42387,"lng":116.99573},"path_width_km":176.1,"duration":"06m01s","delta_t_seconds":679.5,"catalog_number":7658,"source":"NASA Five Millennium Canon of Solar Eclipses","source_url":"https://eclipse.gsfc.nasa.gov/SEsearch/SEsearchmap.php?Ecl=%2B12170804"}],"features":[{"type":"Feature","id":"+12170207:north:0","properties":{"id":"+12170207","year":1217,"month":2,"day":7,"time_tdt":"17:30:25","type":"개기일식","type_code":"T","saros":108,"gamma":0.0204,"magnitude":1.02257,"greatest":{"lat":-11.73973,"lng":-76.17999},"path_width_km":76.9,"duration":"02m15s","delta_t_seconds":680.8,"catalog_number":7657,"source":"NASA Five Millennium Canon of Solar Eclipses","source_url":"https://eclipse.gsfc.nasa.gov/SEsearch/SEsearchmap.php?Ecl=%2B12170207","boundary":"north","name":"1217-02-07 개기일식"},"geometry":{"type":"LineString","coordinates":[[-142.24805,-12.71758],[-142,-12.77317],[-141.5,-12.88473],[-141,-12.99558],[-140.5,-13.10571],[-140,-13.21511],[-139.5,-13.32375],[-139,-13.43163],[-138.5,-13.53872],[-138,-13.64501],[-137.5,-13.75048],[-137,-13.85511],[-136.5,-13.95888],[-136,-14.06177],[-135.5,-14.16377],[-135,-14.26485],[-134.5,-14.365],[-134,-14.4642],[-133.5,-14.56242],[-133,-14.65965],[-132.5,-14.75586],[-132,-14.85104],[-131.5,-14.94516],[-131,-15.0382],[-130.5,-15.13014],[-130,-15.22096],[-129.5,-15.31064],[-129,-15.39914],[-128.5,-15.48646],[-128,-15.57256],[-127.5,-15.65743],[-127,-15.74103],[-126.5,-15.82335],[-126,-15.90436],[-125.5,-15.98403],[-125,-16.06234],[-124.5,-16.13926],[-124,-16.21477],[-123.5,-16.28883],[-123,-16.36143],[-122.5,-16.43254],[-122,-16.50212],[-121.5,-16.57015],[-121,-16.6366],[-120.5,-16.70144],[-120,-16.76465],[-119.5,-16.82618],[-119,-16.88602],[-118.5,-16.94413],[-118,-17.00047],[-117.5,-17.05503],[-117,-17.10776],[-116.5,-17.15863],[-116,-17.20761],[-115.5,-17.25467],[-115,-17.29977],[-114.5,-17.34287],[-114,-17.38395],[-113.5,-17.42297],[-113,-17.45988],[-112.5,-17.49466],[-112,-17.52726],[-111.5,-17.55765],[-111,-17.58579],[-110.5,-17.61164],[-110,-17.63516],[-109.5,-17.65631],[-109,-17.67506],[-108.5,-17.69135],[-108,-17.70514],[-107.5,-17.71641],[-107,-17.72509],[-106.5,-17.73115],[-106,-17.73455],[-105.5,-17.73524],[-105,-17.73316],[-104.5,-17.72829],[-104,-17.72056],[-103.5,-17.70994],[-103,-17.69638],[-102.5,-17.67982],[-102,-17.66022],[-101.5,-17.63754],[-101,-17.61171],[-100.5,-17.58269],[-100,-17.55043],[-99.5,-17.51487],[-99,-17.47597],[-98.5,-17.43368],[-98,-17.38793],[-97.5,-17.33869],[-97,-17.28588],[-96.5,-17.22948],[-96,-17.1694],[-95.5,-17.10562],[-95,-17.03807],[-94.5,-16.96669],[-94,-16.89144],[-93.5,-16.81227],[-93,-16.72911],[-92.5,-16.64192],[-92,-16.55065],[-91.5,-16.45525],[-91,-16.35566],[-90.5,-16.25185],[-90,-16.14375],[-89.5,-16.03132],[-89,-15.91453],[-88.5,-15.79332],[-88,-15.66766],[-87.5,-15.53751],[-87,-15.40283],[-86.5,-15.26359],[-86,-15.11975],[-85.5,-14.9713],[-85,-14.8182],[-84.5,-14.66044],[-84,-14.49799],[-83.5,-14.33086],[-83,-14.15902],[-82.5,-13.98249],[-82,-13.80126],[-81.5,-13.61533],[-81,-13.42474],[-80.5,-13.22949],[-80,-13.02961],[-79.5,-12.82513],[-79,-12.61611],[-78.5,-12.40258],[-78,-12.1846],[-77.5,-11.96223],[-77,-11.73554],[-76.5,-11.50461],[-76,-11.26953],[-75.5,-11.03039],[-75,-10.78729],[-74.5,-10.54033],[-74,-10.28964],[-73.5,-10.03534],[-73,-9.77756],[-72.5,-9.51643],[-72,-9.25211],[-71.5,-8.98473],[-71,-8.71446],[-70.5,-8.44145],[-70,-8.16587],[-69.5,-7.88789],[-69,-7.60768],[-68.5,-7.32542],[-68,-7.04128],[-67.5,-6.75544],[-67,-6.46808],[-66.5,-6.17939],[-66,-5.88953],[-65.5,-5.59869],[-65,-5.30705],[-64.5,-5.01479],[-64,-4.72206],[-63.5,-4.42904],[-63,-4.13591],[-62.5,-3.84281],[-62,-3.5499],[-61.5,-3.25735],[-61,-2.96528],[-60.5,-2.67385],[-60,-2.38319],[-59.5,-2.09344],[-59,-1.8047],[-58.5,-1.51711],[-58,-1.23078],[-57.5,-0.9458],[-57,-0.6623],[-56.5,-0.38034],[-56,-0.10004],[-55.5,0.17854],[-55,0.45531],[-54.5,0.73021],[-54,1.00316],[-53.5,1.2741],[-53,1.54298],[-52.5,1.80975],[-52,2.07435],[-51.5,2.33675],[-51,2.59691],[-50.5,2.8548],[-50,3.11037],[-49.5,3.36362],[-49,3.6145],[-48.5,3.86301],[-48,4.10912],[-47.5,4.35283],[-47,4.59411],[-46.5,4.83296],[-46,5.06938],[-45.5,5.30336],[-45,5.53489],[-44.5,5.76398],[-44,5.99063],[-43.5,6.21484],[-43,6.43662],[-42.5,6.65597],[-42,6.8729],[-41.5,7.08741],[-41,7.29952],[-40.5,7.50925],[-40,7.71659],[-39.5,7.92156],[-39,8.12418],[-38.5,8.32446],[-38,8.52241],[-37.5,8.71805],[-37,8.9114],[-36.5,9.10247],[-36,9.29127],[-35.5,9.47783],[-35,9.66216],[-34.5,9.84428],[-34,10.0242],[-33.5,10.20195],[-33,10.37755],[-32.5,10.551],[-32,10.72233],[-31.5,10.89155],[-31,11.05869],[-30.5,11.22377],[-30,11.38679],[-29.5,11.54778],[-29,11.70676],[-28.5,11.86375],[-28,12.01876],[-27.5,12.17181],[-27,12.32292],[-26.5,12.47211],[-26,12.6194],[-25.5,12.76479],[-25,12.90832],[-24.5,13.04999],[-24,13.18983],[-23.5,13.32785],[-23,13.46406],[-22.5,13.59849],[-22,13.73115],[-21.5,13.86206],[-21,13.99124],[-20.5,14.11869],[-20,14.24443],[-19.5,14.36849],[-19,14.49087],[-18.5,14.6116],[-18,14.73068],[-17.5,14.84813],[-17,14.96397],[-16.5,15.0782],[-16,15.19086]]}},{"type":"Feature","id":"+12170207:center:0","properties":{"id":"+12170207","year":1217,"month":2,"day":7,"time_tdt":"17:30:25","type":"개기일식","type_code":"T","saros":108,"gamma":0.0204,"magnitude":1.02257,"greatest":{"lat":-11.73973,"lng":-76.17999},"path_width_km":76.9,"duration":"02m15s","delta_t_seconds":680.8,"catalog_number":7657,"source":"NASA Five Millennium Canon of Solar Eclipses","source_url":"https://eclipse.gsfc.nasa.gov/SEsearch/SEsearchmap.php?Ecl=%2B12170207","boundary":"center","name":"1217-02-07 개기일식"},"geometry":{"type":"LineString","coordinates":[[-142.27144,-12.8045],[-142,-12.86622],[-141.5,-12.98018],[-141,-13.09344],[-140.5,-13.20599],[-140,-13.31781],[-139.5,-13.42888],[-139,-13.53919],[-138.5,-13.64871],[-138,-13.75743],[-137.5,-13.86534],[-137,-13.9724],[-136.5,-14.07861],[-136,-14.18395],[-135.5,-14.28839],[-135,-14.39192],[-134.5,-14.49451],[-134,-14.59616],[-133.5,-14.69683],[-133,-14.79651],[-132.5,-14.89517],[-132,-14.9928],[-131.5,-15.08937],[-131,-15.18486],[-130.5,-15.27925],[-130,-15.37252],[-129.5,-15.46465],[-129,-15.5556],[-128.5,-15.64537],[-128,-15.73392],[-127.5,-15.82123],[-127,-15.90728],[-126.5,-15.99203],[-126,-16.07548],[-125.5,-16.15759],[-125,-16.23833],[-124.5,-16.31769],[-124,-16.39562],[-123.5,-16.47212],[-123,-16.54714],[-122.5,-16.62067],[-122,-16.69267],[-121.5,-16.76311],[-121,-16.83197],[-120.5,-16.89922],[-120,-16.96483],[-119.5,-17.02877],[-119,-17.091],[-118.5,-17.1515],[-118,-17.21023],[-117.5,-17.26717],[-117,-17.32228],[-116.5,-17.37552],[-116,-17.42687],[-115.5,-17.4763],[-115,-17.52376],[-114.5,-17.56922],[-114,-17.61265],[-113.5,-17.65401],[-113,-17.69326],[-112.5,-17.73037],[-112,-17.76531],[-111.5,-17.79802],[-111,-17.82848],[-110.5,-17.85665],[-110,-17.88248],[-109.5,-17.90594],[-109,-17.92698],[-108.5,-17.94557],[-108,-17.96166],[-107.5,-17.97521],[-107,-17.98618],[-106.5,-17.99452],[-106,-18.00019],[-105.5,-18.00314],[-105,-18.00333],[-104.5,-18.00072],[-104,-17.99525],[-103.5,-17.98689],[-103,-17.97557],[-102.5,-17.96126],[-102,-17.9439],[-101.5,-17.92345],[-101,-17.89986],[-100.5,-17.87307],[-100,-17.84304],[-99.5,-17.80971],[-99,-17.77303],[-98.5,-17.73295],[-98,-17.68942],[-97.5,-17.64239],[-97,-17.5918],[-96.5,-17.53759],[-96,-17.47973],[-95.5,-17.41814],[-95,-17.35279],[-94.5,-17.28361],[-94,-17.21055],[-93.5,-17.13356],[-93,-17.05258],[-92.5,-16.96757],[-92,-16.87847],[-91.5,-16.78523],[-91,-16.68781],[-90.5,-16.58614],[-90,-16.48018],[-89.5,-16.36989],[-89,-16.25522],[-88.5,-16.13613],[-88,-16.01257],[-87.5,-15.88451],[-87,-15.7519],[-86.5,-15.61471],[-86,-15.47291],[-85.5,-15.32647],[-85,-15.17536],[-84.5,-15.01956],[-84,-14.85905],[-83.5,-14.69382],[-83,-14.52386],[-82.5,-14.34916],[-82,-14.16972],[-81.5,-13.98555],[-81,-13.79665],[-80.5,-13.60305],[-80,-13.40477],[-79.5,-13.20183],[-79,-12.99428],[-78.5,-12.78215],[-78,-12.5655],[-77.5,-12.34439],[-77,-12.11887],[-76.5,-11.88903],[-76,-11.65495],[-75.5,-11.41671],[-75,-11.17441],[-74.5,-10.92815],[-74,-10.67805],[-73.5,-10.42423],[-73,-10.1668],[-72.5,-9.90592],[-72,-9.64171],[-71.5,-9.37432],[-71,-9.10391],[-70.5,-8.83063],[-70,-8.55465],[-69.5,-8.27613],[-69,-7.99525],[-68.5,-7.71218],[-68,-7.42709],[-67.5,-7.14017],[-67,-6.8516],[-66.5,-6.56155],[-66,-6.27021],[-65.5,-5.97776],[-65,-5.68438],[-64.5,-5.39024],[-64,-5.09553],[-63.5,-4.8004],[-63,-4.50504],[-62.5,-4.2096],[-62,-3.91425],[-61.5,-3.61915],[-61,-3.32444],[-60.5,-3.03027],[-60,-2.73678],[-59.5,-2.44411],[-59,-2.15238],[-58.5,-1.86172],[-58,-1.57225],[-57.5,-1.28407],[-57,-0.9973],[-56.5,-0.71203],[-56,-0.42835],[-55.5,-0.14635],[-55,0.13388],[-54.5,0.41227],[-54,0.68875],[-53.5,0.96326],[-53,1.23573],[-52.5,1.50612],[-52,1.77436],[-51.5,2.04041],[-51,2.30424],[-50.5,2.5658],[-50,2.82506],[-49.5,3.08199],[-49,3.33657],[-48.5,3.58878],[-48,3.83859],[-47.5,4.08598],[-47,4.33095],[-46.5,4.57348],[-46,4.81357],[-45.5,5.05121],[-45,5.2864],[-44.5,5.51913],[-44,5.7494],[-43.5,5.97722],[-43,6.20259],[-42.5,6.42552],[-42,6.64601],[-41.5,6.86407],[-41,7.0797],[-40.5,7.29293],[-40,7.50376],[-39.5,7.71219],[-39,7.91826],[-38.5,8.12196],[-38,8.32331],[-37.5,8.52233],[-37,8.71904],[-36.5,8.91344],[-36,9.10556],[-35.5,9.29541],[-35,9.48301],[-34.5,9.66837],[-34,9.85152],[-33.5,10.03247],[-33,10.21124],[-32.5,10.38784],[-32,10.5623],[-31.5,10.73464],[-31,10.90487],[-30.5,11.073],[-30,11.23907],[-29.5,11.40308],[-29,11.56506],[-28.5,11.72502],[-28,11.88299],[-27.5,12.03897],[-27,12.19299],[-26.5,12.34507],[-26,12.49522],[-25.5,12.64346],[-25,12.78981],[-24.5,12.93429],[-24,13.07691],[-23.5,13.21769],[-23,13.35665],[-22.5,13.4938],[-22,13.62917],[-21.5,13.76276],[-21,13.8946],[-20.5,14.02469],[-20,14.15307],[-19.5,14.27973],[-19,14.4047],[-18.5,14.52799],[-18,14.64962],[-17.5,14.76961],[-17,14.88796],[-16.5,15.00469],[-16,15.11982],[-15.97666,15.12387]]}},{"type":"Feature","id":"+12170207:south:0","properties":{"id":"+12170207","year":1217,"month":2,"day":7,"time_tdt":"17:30:25","type":"개기일식","type_code":"T","saros":108,"gamma":0.0204,"magnitude":1.02257,"greatest":{"lat":-11.73973,"lng":-76.17999},"path_width_km":76.9,"duration":"02m15s","delta_t_seconds":680.8,"catalog_number":7657,"source":"NASA Five Millennium Canon of Solar Eclipses","source_url":"https://eclipse.gsfc.nasa.gov/SEsearch/SEsearchmap.php?Ecl=%2B12170207","boundary":"south","name":"1217-02-07 개기일식"},"geometry":{"type":"LineString","coordinates":[[-142.29492,-12.89054],[-142,-12.9595],[-141.5,-13.07588],[-141,-13.19156],[-140.5,-13.30654],[-140,-13.42078],[-139.5,-13.53428],[-139,-13.64702],[-138.5,-13.75898],[-138,-13.87014],[-137.5,-13.98048],[-137,-14.08999],[-136.5,-14.19864],[-136,-14.30642],[-135.5,-14.41331],[-135,-14.51929],[-134.5,-14.62434],[-134,-14.72843],[-133.5,-14.83155],[-133,-14.93368],[-132.5,-15.0348],[-132,-15.13488],[-131.5,-15.2339],[-131,-15.33185],[-130.5,-15.42869],[-130,-15.52441],[-129.5,-15.61899],[-129,-15.71239],[-128.5,-15.80461],[-128,-15.8956],[-127.5,-15.98536],[-127,-16.07385],[-126.5,-16.16105],[-126,-16.24693],[-125.5,-16.33148],[-125,-16.41465],[-124.5,-16.49644],[-124,-16.5768],[-123.5,-16.65572],[-123,-16.73317],[-122.5,-16.80911],[-122,-16.88353],[-121.5,-16.95638],[-121,-17.02765],[-120.5,-17.0973],[-120,-17.16531],[-119.5,-17.23164],[-119,-17.29626],[-118.5,-17.35915],[-118,-17.42026],[-117.5,-17.47957],[-117,-17.53705],[-116.5,-17.59267],[-116,-17.64638],[-115.5,-17.69816],[-115,-17.74797],[-114.5,-17.79578],[-114,-17.84154],[-113.5,-17.88524],[-113,-17.92683],[-112.5,-17.96626],[-112,-18.00352],[-111.5,-18.03855],[-111,-18.07132],[-110.5,-18.10179],[-110,-18.12992],[-109.5,-18.15567],[-109,-18.179],[-108.5,-18.19988],[-108,-18.21824],[-107.5,-18.23407],[-107,-18.2473],[-106.5,-18.25791],[-106,-18.26583],[-105.5,-18.27104],[-105,-18.27349],[-104.5,-18.27312],[-104,-18.26989],[-103.5,-18.26376],[-103,-18.25468],[-102.5,-18.2426],[-102,-18.22747],[-101.5,-18.20924],[-101,-18.18786],[-100.5,-18.16329],[-100,-18.13546],[-99.5,-18.10434],[-99,-18.06987],[-98.5,-18.032],[-98,-17.99067],[-97.5,-17.94583],[-97,-17.89743],[-96.5,-17.84542],[-96,-17.78974],[-95.5,-17.73034],[-95,-17.66716],[-94.5,-17.60016],[-94,-17.52927],[-93.5,-17.45445],[-93,-17.37564],[-92.5,-17.29279],[-92,-17.20585],[-91.5,-17.11477],[-91,-17.01949],[-90.5,-16.91996],[-90,-16.81614],[-89.5,-16.70797],[-89,-16.59542],[-88.5,-16.47843],[-88,-16.35696],[-87.5,-16.23098],[-87,-16.10044],[-86.5,-15.9653],[-86,-15.82553],[-85.5,-15.6811],[-85,-15.53199],[-84.5,-15.37816],[-84,-15.21959],[-83.5,-15.05627],[-83,-14.88819],[-82.5,-14.71534],[-82,-14.5377],[-81.5,-14.3553],[-81,-14.16812],[-80.5,-13.97619],[-80,-13.77953],[-79.5,-13.57816],[-79,-13.3721],[-78.5,-13.16141],[-78,-12.94613],[-77.5,-12.72631],[-77,-12.50201],[-76.5,-12.2733],[-76,-12.04026],[-75.5,-11.80296],[-75,-11.56151],[-74.5,-11.31601],[-74,-11.06655],[-73.5,-10.81326],[-73,-10.55626],[-72.5,-10.29568],[-72,-10.03165],[-71.5,-9.76432],[-71,-9.49383],[-70.5,-9.22035],[-70,-8.94404],[-69.5,-8.66505],[-69,-8.38356],[-68.5,-8.09975],[-68,-7.81378],[-67.5,-7.52585],[-67,-7.23612],[-66.5,-6.94479],[-66,-6.65203],[-65.5,-6.35802],[-65,-6.06295],[-64.5,-5.767],[-64,-5.47034],[-63.5,-5.17316],[-63,-4.87561],[-62.5,-4.57788],[-62,-4.28013],[-61.5,-3.98251],[-61,-3.68519],[-60.5,-3.38831],[-60,-3.09202],[-59.5,-2.79646],[-59,-2.50176],[-58.5,-2.20805],[-58,-1.91545],[-57.5,-1.62409],[-57,-1.33406],[-56.5,-1.04547],[-56,-0.75843],[-55.5,-0.47301],[-55,-0.18932],[-54.5,0.09258],[-54,0.37261],[-53.5,0.65069],[-53,0.92676],[-52.5,1.20077],[-52,1.47267],[-51.5,1.74239],[-51,2.0099],[-50.5,2.27516],[-50,2.53813],[-49.5,2.79877],[-49,3.05707],[-48.5,3.31299],[-48,3.56652],[-47.5,3.81763],[-47,4.06631],[-46.5,4.31255],[-46,4.55634],[-45.5,4.79767],[-45,5.03653],[-44.5,5.27293],[-44,5.50686],[-43.5,5.73832],[-43,5.96731],[-42.5,6.19384],[-42,6.41792],[-41.5,6.63955],[-41,6.85874],[-40.5,7.0755],[-40,7.28984],[-39.5,7.50177],[-39,7.7113],[-38.5,7.91845],[-38,8.12323],[-37.5,8.32566],[-37,8.52575],[-36.5,8.72351],[-36,8.91897],[-35.5,9.11213],[-35,9.30303],[-34.5,9.49166],[-34,9.67805],[-33.5,9.86223],[-33,10.04419],[-32.5,10.22398],[-32,10.40159],[-31.5,10.57706],[-31,10.75039],[-30.5,10.92162],[-30,11.09074],[-29.5,11.2578],[-29,11.42279],[-28.5,11.58575],[-28,11.74668],[-27.5,11.90562],[-27,12.06257],[-26.5,12.21755],[-26,12.37059],[-25.5,12.52169],[-25,12.67088],[-24.5,12.81818],[-24,12.9636],[-23.5,13.10716],[-23,13.24888],[-22.5,13.38877],[-22,13.52685],[-21.5,13.66314],[-21,13.79765],[-20.5,13.93041],[-20,14.06142],[-19.5,14.1907],[-19,14.31827],[-18.5,14.44414],[-18,14.56833],[-17.5,14.69086],[-17,14.81174],[-16.5,14.93098],[-16,15.0486],[-15.96094,15.05772]]}},{"type":"Feature","id":"+12170804:north:0","properties":{"id":"+12170804","year":1217,"month":8,"day":4,"time_tdt":"04:30:50","type":"금환일식","type_code":"Am","saros":113,"gamma":0.06863,"magnitude":0.952,"greatest":{"lat":19.42387,"lng":116.99573},"path_width_km":176.1,"duration":"06m01s","delta_t_seconds":679.5,"catalog_number":7658,"source":"NASA Five Millennium Canon of Solar Eclipses","source_url":"https://eclipse.gsfc.nasa.gov/SEsearch/SEsearchmap.php?Ecl=%2B12170804","boundary":"north","name":"1217-08-04 금환일식"},"geometry":{"type":"LineString","coordinates":[[50.55859,16.64496],[51,16.76607],[51.5,16.90288],[52,17.03928],[52.5,17.17525],[53,17.31077],[53.5,17.44582],[54,17.58039],[54.5,17.71446],[55,17.84801],[55.5,17.98102],[56,18.11347],[56.5,18.24535],[57,18.37663],[57.5,18.50729],[58,18.63732],[58.5,18.76669],[59,18.89538],[59.5,19.02337],[60,19.15065],[60.5,19.27718],[61,19.40294],[61.5,19.52792],[62,19.65209],[62.5,19.77543],[63,19.89791],[63.5,20.0195],[64,20.1402],[64.5,20.25996],[65,20.37877],[65.5,20.49659],[66,20.61341],[66.5,20.72919],[67,20.84392],[67.5,20.95756],[68,21.07008],[68.5,21.18146],[69,21.29167],[69.5,21.40068],[70,21.50846],[70.5,21.61499],[71,21.72022],[71.5,21.82414],[72,21.92671],[72.5,22.02789],[73,22.12767],[73.5,22.226],[74,22.32285],[74.5,22.41819],[75,22.51198],[75.5,22.6042],[76,22.6948],[76.5,22.78376],[77,22.87103],[77.5,22.95659],[78,23.04039],[78.5,23.12239],[79,23.20257],[79.5,23.28088],[80,23.35728],[80.5,23.43173],[81,23.5042],[81.5,23.57464],[82,23.64302],[82.5,23.70929],[83,23.77341],[83.5,23.83533],[84,23.89503],[84.5,23.95244],[85,24.00753],[85.5,24.06026],[86,24.11057],[86.5,24.15843],[87,24.20378],[87.5,24.24658],[88,24.28678],[88.5,24.32433],[89,24.35918],[89.5,24.39129],[90,24.4206],[90.5,24.44706],[91,24.47062],[91.5,24.49123],[92,24.50883],[92.5,24.52338],[93,24.53481],[93.5,24.54308],[94,24.54812],[94.5,24.54988],[95,24.5483],[95.5,24.54333],[96,24.53491],[96.5,24.52298],[97,24.50748],[97.5,24.48835],[98,24.46553],[98.5,24.43896],[99,24.40858],[99.5,24.37433],[100,24.33614],[100.5,24.29396],[101,24.24772],[101.5,24.19736],[102,24.14281],[102.5,24.08402],[103,24.02092],[103.5,23.95346],[104,23.88156],[104.5,23.80517],[105,23.72422],[105.5,23.63867],[106,23.54844],[106.5,23.45348],[107,23.35374],[107.5,23.24916],[108,23.13969],[108.5,23.02528],[109,22.90587],[109.5,22.78143],[110,22.65191],[110.5,22.51727],[111,22.37747],[111.5,22.23248],[112,22.08228],[112.5,21.92684],[113,21.76614],[113.5,21.60017],[114,21.42891],[114.5,21.25238],[115,21.07057],[115.5,20.88349],[116,20.69117],[116.5,20.49363],[117,20.29091],[117.5,20.08304],[118,19.87009],[118.5,19.6521],[119,19.42916],[119.5,19.20133],[120,18.96871],[120.5,18.73139],[121,18.48948],[121.5,18.2431],[122,17.99237],[122.5,17.73743],[123,17.47842],[123.5,17.21549],[124,16.9488],[124.5,16.67851],[125,16.40482],[125.5,16.12788],[126,15.8479],[126.5,15.56506],[127,15.27956],[127.5,14.99159],[128,14.70137],[128.5,14.40909],[129,14.11497],[129.5,13.8192],[130,13.522],[130.5,13.22356],[131,12.92409],[131.5,12.62379],[132,12.32285],[132.5,12.02148],[133,11.71984],[133.5,11.41813],[134,11.11653],[134.5,10.8152],[135,10.5143],[135.5,10.214],[136,9.91445],[136.5,9.61579],[137,9.31815],[137.5,9.02167],[138,8.72647],[138.5,8.43267],[139,8.14037],[139.5,7.84967],[140,7.56067],[140.5,7.27345],[141,6.98811],[141.5,6.7047],[142,6.42331],[142.5,6.14399],[143,5.8668],[143.5,5.5918],[144,5.31903],[144.5,5.04853],[145,4.78034],[145.5,4.51449],[146,4.25101],[146.5,3.98993],[147,3.73127],[147.5,3.47504],[148,3.22126],[148.5,2.96995],[149,2.7211],[149.5,2.47473],[150,2.23084],[150.5,1.98943],[151,1.75051],[151.5,1.51406],[152,1.28008],[152.5,1.04857],[153,0.81952],[153.5,0.59292],[154,0.36876],[154.5,0.14703],[155,-0.07229],[155.5,-0.2892],[156,-0.50372],[156.5,-0.71587],[157,-0.92566],[157.5,-1.1331],[158,-1.33823],[158.5,-1.54104],[159,-1.74157],[159.5,-1.93982],[160,-2.13582],[160.5,-2.32958],[161,-2.52113],[161.5,-2.71048],[162,-2.89766],[162.5,-3.08267],[163,-3.26555],[163.5,-3.4463],[164,-3.62496],[164.5,-3.80154],[165,-3.97605],[165.5,-4.14853],[166,-4.31898],[166.5,-4.48742],[167,-4.65389],[167.5,-4.81839],[168,-4.98094],[168.5,-5.14156],[169,-5.30028],[169.5,-5.45711],[170,-5.61206],[170.5,-5.76516],[171,-5.91642],[171.5,-6.06587],[172,-6.21351],[172.5,-6.35938],[173,-6.50347],[173.5,-6.64582],[174,-6.78644],[174.5,-6.92533],[174.95508,-7.05028]]}},{"type":"Feature","id":"+12170804:center:0","properties":{"id":"+12170804","year":1217,"month":8,"day":4,"time_tdt":"04:30:50","type":"금환일식","type_code":"Am","saros":113,"gamma":0.06863,"magnitude":0.952,"greatest":{"lat":19.42387,"lng":116.99573},"path_width_km":176.1,"duration":"06m01s","delta_t_seconds":679.5,"catalog_number":7658,"source":"NASA Five Millennium Canon of Solar Eclipses","source_url":"https://eclipse.gsfc.nasa.gov/SEsearch/SEsearchmap.php?Ecl=%2B12170804","boundary":"center","name":"1217-08-04 금환일식"},"geometry":{"type":"LineString","coordinates":[[50.97455,15.62855],[51,15.63629],[51.5,15.77586],[52,15.91503],[52.5,16.0538],[53,16.19213],[53.5,16.33003],[54,16.46746],[54.5,16.60442],[55,16.74087],[55.5,16.87681],[56,17.01222],[56.5,17.14706],[57,17.28134],[57.5,17.41502],[58,17.54808],[58.5,17.68051],[59,17.81228],[59.5,17.94337],[60,18.07377],[60.5,18.20344],[61,18.33236],[61.5,18.46052],[62,18.58788],[62.5,18.71443],[63,18.84015],[63.5,18.96499],[64,19.08895],[64.5,19.212],[65,19.33411],[65.5,19.45525],[66,19.5754],[66.5,19.69453],[67,19.81261],[67.5,19.92962],[68,20.04553],[68.5,20.16031],[69,20.27394],[69.5,20.38637],[70,20.49758],[70.5,20.60754],[71,20.71623],[71.5,20.8236],[72,20.92963],[72.5,21.03429],[73,21.13754],[73.5,21.23934],[74,21.33968],[74.5,21.4385],[75,21.53578],[75.5,21.63149],[76,21.72557],[76.5,21.81801],[77,21.90877],[77.5,21.99779],[78,22.08506],[78.5,22.17053],[79,22.25415],[79.5,22.3359],[80,22.41573],[80.5,22.49361],[81,22.56948],[81.5,22.64331],[82,22.71506],[82.5,22.78468],[83,22.85213],[83.5,22.91737],[84,22.98035],[84.5,23.04102],[85,23.09935],[85.5,23.15528],[86,23.20876],[86.5,23.25975],[87,23.30821],[87.5,23.35407],[88,23.39729],[88.5,23.43783],[89,23.47562],[89.5,23.51062],[90,23.54278],[90.5,23.57204],[91,23.59834],[91.5,23.62163],[92,23.64187],[92.5,23.65898],[93,23.67292],[93.5,23.68362],[94,23.69103],[94.5,23.6951],[95,23.69575],[95.5,23.69293],[96,23.68658],[96.5,23.67664],[97,23.66304],[97.5,23.64572],[98,23.62463],[98.5,23.59969],[99,23.57084],[99.5,23.53802],[100,23.50116],[100.5,23.4602],[101,23.41508],[101.5,23.36571],[102,23.31206],[102.5,23.25403],[103,23.19158],[103.5,23.12463],[104,23.05313],[104.5,22.977],[105,22.89619],[105.5,22.81063],[106,22.72026],[106.5,22.62502],[107,22.52485],[107.5,22.4197],[108,22.30951],[108.5,22.19423],[109,22.07381],[109.5,21.9482],[110,21.81735],[110.5,21.68124],[111,21.53981],[111.5,21.39304],[112,21.24091],[112.5,21.08338],[113,20.92043],[113.5,20.75207],[114,20.57828],[114.5,20.39906],[115,20.21443],[115.5,20.02439],[116,19.82897],[116.5,19.6282],[117,19.42212],[117.5,19.21079],[118,18.99425],[118.5,18.77257],[119,18.54583],[119.5,18.31413],[120,18.07754],[120.5,17.83619],[121,17.59018],[121.5,17.33964],[122,17.08471],[122.5,16.82553],[123,16.56225],[123.5,16.29503],[124,16.02405],[124.5,15.74948],[125,15.4715],[125.5,15.19031],[126,14.90611],[126.5,14.61908],[127,14.32944],[127.5,14.03739],[128,13.74315],[128.5,13.44692],[129,13.14891],[129.5,12.84935],[130,12.54843],[130.5,12.24637],[131,11.94336],[131.5,11.63962],[132,11.33534],[132.5,11.03072],[133,10.72594],[133.5,10.42118],[134,10.11662],[134.5,9.81244],[135,9.50879],[135.5,9.20583],[136,8.90371],[136.5,8.60257],[137,8.30254],[137.5,8.00376],[138,7.70633],[138.5,7.41039],[139,7.11602],[139.5,6.82332],[140,6.5324],[140.5,6.24332],[141,5.95618],[141.5,5.67103],[142,5.38796],[142.5,5.10701],[143,4.82824],[143.5,4.5517],[144,4.27743],[144.5,4.00548],[145,3.73587],[145.5,3.46864],[146,3.20381],[146.5,2.94141],[147,2.68145],[147.5,2.42395],[148,2.16893],[148.5,1.91638],[149,1.66632],[149.5,1.41876],[150,1.17369],[150.5,0.93112],[151,0.69103],[151.5,0.45344],[152,0.21833],[152.5,-0.01431],[153,-0.24448],[153.5,-0.4722],[154,-0.69747],[154.5,-0.9203],[155,-1.14072],[155.5,-1.35874],[156,-1.57436],[156.5,-1.78761],[157,-1.9985],[157.5,-2.20704],[158,-2.41327],[158.5,-2.61719],[159,-2.81882],[159.5,-3.01818],[160,-3.21528],[160.5,-3.41016],[161,-3.60282],[161.5,-3.79329],[162,-3.98159],[162.5,-4.16773],[163,-4.35173],[163.5,-4.53362],[164,-4.71342],[164.5,-4.89113],[165,-5.06679],[165.5,-5.24042],[166,-5.41202],[166.5,-5.58163],[167,-5.74925],[167.5,-5.91491],[168,-6.07864],[168.5,-6.24044],[169,-6.40033],[169.5,-6.55834],[170,-6.71448],[170.5,-6.86877],[171,-7.02123],[171.5,-7.17187],[172,-7.32072],[172.5,-7.46779],[173,-7.61309],[173.5,-7.75665],[174,-7.89848],[174.5,-8.0386],[174.5629,-8.05541]]}},{"type":"Feature","id":"+12170804:south:0","properties":{"id":"+12170804","year":1217,"month":8,"day":4,"time_tdt":"04:30:50","type":"금환일식","type_code":"Am","saros":113,"gamma":0.06863,"magnitude":0.952,"greatest":{"lat":19.42387,"lng":116.99573},"path_width_km":176.1,"duration":"06m01s","delta_t_seconds":679.5,"catalog_number":7658,"source":"NASA Five Millennium Canon of Solar Eclipses","source_url":"https://eclipse.gsfc.nasa.gov/SEsearch/SEsearchmap.php?Ecl=%2B12170804","boundary":"south","name":"1217-08-04 금환일식"},"geometry":{"type":"LineString","coordinates":[[51.38672,14.61687],[51.5,14.64908],[52,14.79101],[52.5,14.93255],[53,15.07369],[53.5,15.21441],[54,15.35469],[54.5,15.49451],[55,15.63386],[55.5,15.77271],[56,15.91105],[56.5,16.04885],[57,16.18611],[57.5,16.32279],[58,16.45887],[58.5,16.59435],[59,16.72918],[59.5,16.86336],[60,16.99686],[60.5,17.12965],[61,17.26173],[61.5,17.39305],[62,17.5236],[62.5,17.65335],[63,17.78229],[63.5,17.91038],[64,18.0376],[64.5,18.16392],[65,18.28932],[65.5,18.41377],[66,18.53725],[66.5,18.65972],[67,18.78117],[67.5,18.90155],[68,19.02084],[68.5,19.13902],[69,19.25605],[69.5,19.37191],[70,19.48655],[70.5,19.59996],[71,19.7121],[71.5,19.82294],[72,19.93244],[72.5,20.04057],[73,20.1473],[73.5,20.2526],[74,20.35642],[74.5,20.45874],[75,20.55952],[75.5,20.65873],[76,20.75631],[76.5,20.85225],[77,20.9465],[77.5,21.03902],[78,21.12977],[78.5,21.21872],[79,21.30582],[79.5,21.39104],[80,21.47432],[80.5,21.55564],[81,21.63494],[81.5,21.71219],[82,21.78733],[82.5,21.86033],[83,21.93115],[83.5,21.99972],[84,22.06602],[84.5,22.12998],[85,22.19157],[85.5,22.25074],[86,22.30743],[86.5,22.36159],[87,22.41318],[87.5,22.46214],[88,22.50843],[88.5,22.55198],[89,22.59275],[89.5,22.63068],[90,22.66572],[90.5,22.69781],[91,22.72689],[91.5,22.75291],[92,22.7758],[92.5,22.79552],[93,22.81199],[93.5,22.82517],[94,22.83499],[94.5,22.84138],[95,22.84429],[95.5,22.84365],[96,22.8394],[96.5,22.83147],[97,22.8198],[97.5,22.80432],[98,22.78497],[98.5,22.76168],[99,22.73439],[99.5,22.70301],[100,22.6675],[100.5,22.62777],[101,22.58377],[101.5,22.53541],[102,22.48264],[102.5,22.42538],[103,22.36357],[103.5,22.29714],[104,22.22602],[104.5,22.15014],[105,22.06944],[105.5,21.98385],[106,21.89331],[106.5,21.79776],[107,21.69713],[107.5,21.59137],[108,21.48041],[108.5,21.36422],[109,21.24273],[109.5,21.11589],[110,20.98366],[110.5,20.84601],[111,20.70288],[111.5,20.55426],[112,20.40011],[112.5,20.24041],[113,20.07515],[113.5,19.90431],[114,19.72789],[114.5,19.5459],[115,19.35835],[115.5,19.16525],[116,18.96664],[116.5,18.76255],[117,18.55303],[117.5,18.33812],[118,18.11791],[118.5,17.89245],[119,17.66184],[119.5,17.42617],[120,17.18554],[120.5,16.94007],[121,16.68989],[121.5,16.43513],[122,16.17593],[122.5,15.91245],[123,15.64485],[123.5,15.37331],[124,15.098],[124.5,14.81912],[125,14.53685],[125.5,14.25139],[126,13.96295],[126.5,13.67174],[127,13.37797],[127.5,13.08185],[128,12.78361],[128.5,12.48345],[129,12.1816],[129.5,11.87828],[130,11.57369],[130.5,11.26804],[131,10.96156],[131.5,10.65444],[132,10.34687],[132.5,10.03906],[133,9.7312],[133.5,9.42346],[134,9.11602],[134.5,8.80905],[135,8.50271],[135.5,8.19716],[136,7.89254],[136.5,7.58899],[137,7.28664],[137.5,6.98562],[138,6.68604],[138.5,6.38801],[139,6.09163],[139.5,5.797],[140,5.50421],[140.5,5.21333],[141,4.92444],[141.5,4.63761],[142,4.3529],[142.5,4.07037],[143,3.79006],[143.5,3.51203],[144,3.23631],[144.5,2.96294],[145,2.69195],[145.5,2.42337],[146,2.15722],[146.5,1.89353],[147,1.6323],[147.5,1.37356],[148,1.11731],[148.5,0.86356],[149,0.61232],[149.5,0.36358],[150,0.11735],[150.5,-0.12637],[151,-0.36759],[151.5,-0.60631],[152,-0.84254],[152.5,-1.0763],[153,-1.30757],[153.5,-1.53639],[154,-1.76276],[154.5,-1.9867],[155,-2.20821],[155.5,-2.42732],[156,-2.64404],[156.5,-2.85838],[157,-3.07036],[157.5,-3.28],[158,-3.48732],[158.5,-3.69234],[159,-3.89507],[159.5,-4.09553],[160,-4.29374],[160.5,-4.48973],[161,-4.6835],[161.5,-4.87509],[162,-5.0645],[162.5,-5.25176],[163,-5.4369],[163.5,-5.61992],[164,-5.80084],[164.5,-5.9797],[165,-6.1565],[165.5,-6.33127],[166,-6.50403],[166.5,-6.67479],[167,-6.84357],[167.5,-7.0104],[168,-7.17529],[168.5,-7.33827],[169,-7.49934],[169.5,-7.65853],[170,-7.81585],[170.5,-7.97133],[171,-8.12499],[171.5,-8.27683],[172,-8.42687],[172.5,-8.57515],[173,-8.72166],[173.5,-8.86643],[174,-9.00948]]}}],"attribution":"Eclipse Predictions by Fred Espenak and Jean Meeus (NASA's GSFC)","generated_at":"2026-09-23T03:35:44.487Z"}
