{"type":"FeatureCollection","year":1229,"events":[{"id":"+12290622","year":1229,"month":6,"day":22,"time_tdt":"18:50:32","type":"개기일식","type_code":"T","saros":124,"gamma":-0.88857,"magnitude":1.04961,"greatest":{"lat":-38.98107,"lng":-109.69879},"path_width_km":359.7,"duration":"04m10s","delta_t_seconds":647.8,"catalog_number":7689,"source":"NASA Five Millennium Canon of Solar Eclipses","source_url":"https://eclipse.gsfc.nasa.gov/SEsearch/SEsearchmap.php?Ecl=%2B12290622"},{"id":"+12291217","year":1229,"month":12,"day":17,"time_tdt":"10:40:21","type":"부분일식","type_code":"P","saros":129,"gamma":1.44309,"magnitude":0.21316,"greatest":{"lat":65.54893,"lng":6.06335},"path_width_km":0,"duration":"00m00s","delta_t_seconds":646.5,"catalog_number":7690,"source":"NASA Five Millennium Canon of Solar Eclipses","source_url":"https://eclipse.gsfc.nasa.gov/SEsearch/SEsearchmap.php?Ecl=%2B12291217"}],"features":[{"type":"Feature","id":"+12290622:north:0","properties":{"id":"+12290622","year":1229,"month":6,"day":22,"time_tdt":"18:50:32","type":"개기일식","type_code":"T","saros":124,"gamma":-0.88857,"magnitude":1.04961,"greatest":{"lat":-38.98107,"lng":-109.69879},"path_width_km":359.7,"duration":"04m10s","delta_t_seconds":647.8,"catalog_number":7689,"source":"NASA Five Millennium Canon of Solar Eclipses","source_url":"https://eclipse.gsfc.nasa.gov/SEsearch/SEsearchmap.php?Ecl=%2B12290622","boundary":"north","name":"1229-06-22 개기일식"},"geometry":{"type":"LineString","coordinates":[[-149.49219,-47.00395],[-149,-46.76034],[-149.5,-47.00782],[-148.5,-46.51405],[-148,-46.26902],[-147.5,-46.02527],[-147,-45.78287],[-146.5,-45.54186],[-146,-45.3023],[-145.5,-45.06423],[-145,-44.82771],[-144.5,-44.59279],[-144,-44.35954],[-143.5,-44.12802],[-143,-43.89827],[-142.5,-43.67037],[-142,-43.44438],[-141.5,-43.22036],[-141,-42.99838],[-140.5,-42.77851],[-140,-42.56083],[-139.5,-42.34539],[-139,-42.13229],[-138.5,-41.92159],[-138,-41.71338],[-137.5,-41.50773],[-137,-41.30473],[-136.5,-41.10447],[-136,-40.90702],[-135.5,-40.71248],[-135,-40.52095],[-134.5,-40.33251],[-134,-40.14726],[-133.5,-39.9653],[-133,-39.78672],[-132.5,-39.61164],[-132,-39.44016],[-131.5,-39.27238],[-131,-39.10841],[-130.5,-38.94836],[-130,-38.79235],[-129.5,-38.64048],[-129,-38.49289],[-128.5,-38.34968],[-128,-38.21098],[-127.5,-38.0769],[-127,-37.94758],[-126.5,-37.82314],[-126,-37.7037],[-125.5,-37.58939],[-125,-37.48034],[-124.5,-37.37668],[-124,-37.27854],[-123.5,-37.18605],[-123,-37.09934],[-122.5,-37.01854],[-122,-36.94377],[-121.5,-36.87518],[-121,-36.81287],[-120.5,-36.75699],[-120,-36.70765],[-119.5,-36.66498],[-119,-36.62909],[-118.5,-36.6001],[-118,-36.57813],[-117.5,-36.56329],[-117,-36.55567],[-116.5,-36.55538],[-116,-36.56252],[-115.5,-36.57717],[-115,-36.59941],[-114.5,-36.62933],[-114,-36.66699],[-113.5,-36.71245],[-113,-36.76576],[-112.5,-36.82698],[-112,-36.89614],[-111.5,-36.97327],[-111,-37.05838],[-110.5,-37.15148],[-110,-37.25258],[-109.5,-37.36165],[-109,-37.47869],[-108.5,-37.60365],[-108,-37.7365],[-107.5,-37.87719],[-107,-38.02564],[-106.5,-38.18179],[-106,-38.34555],[-105.5,-38.51683],[-105,-38.69552],[-104.5,-38.88152],[-104,-39.07471],[-103.5,-39.27495],[-103,-39.4821],[-102.5,-39.69602],[-102,-39.91657],[-101.5,-40.14357],[-101,-40.37687],[-100.5,-40.6163],[-100,-40.86168],[-99.5,-41.11284],[-99,-41.36958],[-98.5,-41.63174],[-98,-41.89911],[-97.5,-42.17152],[-97,-42.44877],[-96.5,-42.73067],[-96,-43.01703],[-95.5,-43.30767],[-95,-43.60239],[-94.5,-43.901],[-94,-44.20332],[-93.5,-44.50917],[-93,-44.81837],[-92.5,-45.13073],[-92,-45.44608],[-91.5,-45.76426],[-91,-46.08508],[-90.5,-46.40839],[-90,-46.73403],[-89.5,-47.06184],[-89,-47.39166],[-88.5,-47.72335],[-88,-48.05676],[-87.5,-48.39176],[-87,-48.72821],[-86.5,-49.06597],[-86,-49.40492],[-85.5,-49.74494],[-85,-50.08591],[-84.5,-50.42771],[-84,-50.77023],[-83.5,-51.11336],[-83,-51.45701],[-82.5,-51.80107],[-82,-52.14545],[-81.5,-52.49005],[-81,-52.83479],[-80.5,-53.17958],[-80,-53.52434],[-79.5,-53.869],[-79,-54.21346],[-78.5,-54.55767],[-78,-54.90155],[-77.5,-55.24503],[-77,-55.58805],[-76.5,-55.93054],[-76,-56.27245],[-75.5,-56.61371],[-75,-56.95428],[-74.5,-57.29408],[-74,-57.63308],[-73.5,-57.97122],[-73,-58.30845],[-72.5,-58.64473],[-72,-58.98001],[-71.5,-59.31423],[-71,-59.64737],[-70.5,-59.97938]]}},{"type":"Feature","id":"+12290622:center:0","properties":{"id":"+12290622","year":1229,"month":6,"day":22,"time_tdt":"18:50:32","type":"개기일식","type_code":"T","saros":124,"gamma":-0.88857,"magnitude":1.04961,"greatest":{"lat":-38.98107,"lng":-109.69879},"path_width_km":359.7,"duration":"04m10s","delta_t_seconds":647.8,"catalog_number":7689,"source":"NASA Five Millennium Canon of Solar Eclipses","source_url":"https://eclipse.gsfc.nasa.gov/SEsearch/SEsearchmap.php?Ecl=%2B12290622","boundary":"center","name":"1229-06-22 개기일식"},"geometry":{"type":"LineString","coordinates":[[-148.81306,-48.05306],[-148.5,-47.92244],[-148,-47.67757],[-147.5,-47.43409],[-147,-47.19205],[-146.5,-46.95151],[-146,-46.7125],[-145.5,-46.47509],[-145,-46.23933],[-144.5,-46.00527],[-144,-45.77297],[-143.5,-45.54249],[-143,-45.31389],[-142.5,-45.08722],[-142,-44.86256],[-141.5,-44.63997],[-141,-44.41951],[-140.5,-44.20125],[-140,-43.98527],[-139.5,-43.77164],[-139,-43.56043],[-138.5,-43.35171],[-138,-43.14557],[-137.5,-42.94209],[-137,-42.74134],[-136.5,-42.54342],[-136,-42.34841],[-135.5,-42.1564],[-135,-41.96748],[-134.5,-41.78174],[-134,-41.59928],[-133.5,-41.4202],[-133,-41.24459],[-132.5,-41.07257],[-132,-40.90422],[-131.5,-40.73966],[-131,-40.579],[-130.5,-40.42234],[-130,-40.2698],[-129.5,-40.1215],[-129,-39.97754],[-128.5,-39.83805],[-128,-39.70314],[-127.5,-39.57294],[-127,-39.44758],[-126.5,-39.32716],[-126,-39.21182],[-125.5,-39.10169],[-125,-38.99688],[-124.5,-38.89753],[-124,-38.80377],[-123.5,-38.71573],[-123,-38.63352],[-122.5,-38.55728],[-122,-38.48714],[-121.5,-38.42322],[-121,-38.36564],[-120.5,-38.31453],[-120,-38.27002],[-119.5,-38.2322],[-119,-38.20121],[-118.5,-38.17716],[-118,-38.16015],[-117.5,-38.15029],[-117,-38.14767],[-116.5,-38.1524],[-116,-38.16456],[-115.5,-38.18424],[-115,-38.21151],[-114.5,-38.24644],[-114,-38.28911],[-113.5,-38.33955],[-113,-38.39783],[-112.5,-38.46398],[-112,-38.53803],[-111.5,-38.62],[-111,-38.70991],[-110.5,-38.80775],[-110,-38.91352],[-109.5,-39.02721],[-109,-39.14878],[-108.5,-39.2782],[-108,-39.41542],[-107.5,-39.56038],[-107,-39.71302],[-106.5,-39.87325],[-106,-40.041],[-105.5,-40.21616],[-105,-40.39862],[-104.5,-40.58828],[-104,-40.78501],[-103.5,-40.98868],[-103,-41.19914],[-102.5,-41.41627],[-102,-41.6399],[-101.5,-41.86987],[-101,-42.10603],[-100.5,-42.3482],[-100,-42.59622],[-99.5,-42.84991],[-99,-43.10909],[-98.5,-43.37357],[-98,-43.64319],[-97.5,-43.91775],[-97,-44.19707],[-96.5,-44.48096],[-96,-44.76925],[-95.5,-45.06174],[-95,-45.35826],[-94.5,-45.65862],[-94,-45.96264],[-93.5,-46.27015],[-93,-46.58098],[-92.5,-46.89495],[-92,-47.21189],[-91.5,-47.53165],[-91,-47.85405],[-90.5,-48.17894],[-90,-48.50617],[-89.5,-48.83559],[-89,-49.16705],[-88.5,-49.50041],[-88,-49.83553],[-87.5,-50.17228],[-87,-50.51052],[-86.5,-50.85014],[-86,-51.19102],[-85.5,-51.53303],[-85,-51.87606],[-84.5,-52.22],[-84,-52.56475],[-83.5,-52.91021],[-83,-53.25627],[-82.5,-53.60284],[-82,-53.94984],[-81.5,-54.29717],[-81,-54.64475],[-80.5,-54.99249],[-80,-55.34033],[-79.5,-55.68818],[-79,-56.03597],[-78.5,-56.38363],[-78,-56.73109],[-77.5,-57.0783],[-77,-57.42517],[-76.5,-57.77167],[-76,-58.11772],[-75.5,-58.46328],[-75,-58.80828],[-74.5,-59.15267],[-74,-59.49641],[-73.5,-59.83944],[-73,-60.18172],[-72.5,-60.52319],[-72.40983,-60.94255]]}},{"type":"Feature","id":"+12290622:south:0","properties":{"id":"+12290622","year":1229,"month":6,"day":22,"time_tdt":"18:50:32","type":"개기일식","type_code":"T","saros":124,"gamma":-0.88857,"magnitude":1.04961,"greatest":{"lat":-38.98107,"lng":-109.69879},"path_width_km":359.7,"duration":"04m10s","delta_t_seconds":647.8,"catalog_number":7689,"source":"NASA Five Millennium Canon of Solar Eclipses","source_url":"https://eclipse.gsfc.nasa.gov/SEsearch/SEsearchmap.php?Ecl=%2B12290622","boundary":"south","name":"1229-06-22 개기일식"},"geometry":{"type":"LineString","coordinates":[[-148.13867,-49.22711],[-148,-49.15921],[-147.5,-48.91539],[-147,-48.67313],[-146.5,-48.43248],[-146,-48.19349],[-145.5,-47.95621],[-145,-47.7207],[-144.5,-47.487],[-144,-47.25518],[-143.5,-47.02529],[-143,-46.7974],[-142.5,-46.57155],[-142,-46.34782],[-141.5,-46.12627],[-141,-45.90697],[-140.5,-45.68998],[-140,-45.47538],[-139.5,-45.26323],[-139,-45.05361],[-138.5,-44.84659],[-138,-44.64226],[-137.5,-44.4407],[-137,-44.24197],[-136.5,-44.04618],[-136,-43.8534],[-135.5,-43.66373],[-135,-43.47725],[-134.5,-43.29406],[-134,-43.11425],[-133.5,-42.93791],[-133,-42.76516],[-132.5,-42.59608],[-132,-42.43078],[-131.5,-42.26937],[-131,-42.11196],[-130.5,-41.95865],[-130,-41.80955],[-129.5,-41.66478],[-129,-41.52445],[-128.5,-41.38869],[-128,-41.2576],[-127.5,-41.1313],[-127,-41.00993],[-126.5,-40.89359],[-126,-40.78242],[-125.5,-40.67654],[-125,-40.57607],[-124.5,-40.48113],[-124,-40.39186],[-123.5,-40.30837],[-123,-40.2308],[-122.5,-40.15927],[-122,-40.0939],[-121.5,-40.03482],[-121,-39.98213],[-120.5,-39.93598],[-120,-39.89646],[-119.5,-39.86371],[-119,-39.83781],[-118.5,-39.8189],[-118,-39.80706],[-117.5,-39.8024],[-117,-39.80502],[-116.5,-39.81499],[-116,-39.83242],[-115.5,-39.85737],[-115,-39.88992],[-114.5,-39.93014],[-114,-39.97807],[-113.5,-40.03377],[-113,-40.09728],[-112.5,-40.16864],[-112,-40.24787],[-111.5,-40.33498],[-111,-40.42998],[-110.5,-40.53287],[-110,-40.64363],[-109.5,-40.76225],[-109,-40.88868],[-108.5,-41.02289],[-108,-41.16483],[-107.5,-41.31443],[-107,-41.47162],[-106.5,-41.63632],[-106,-41.80843],[-105.5,-41.98787],[-105,-42.17452],[-104.5,-42.36827],[-104,-42.56899],[-103.5,-42.77656],[-103,-42.99082],[-102.5,-43.21165],[-102,-43.43889],[-101.5,-43.67238],[-101,-43.91196],[-100.5,-44.15747],[-100,-44.40875],[-99.5,-44.66561],[-99,-44.92789],[-98.5,-45.19541],[-98,-45.46799],[-97.5,-45.74546],[-97,-46.02764],[-96.5,-46.31435],[-96,-46.60541],[-95.5,-46.90065],[-95,-47.19989],[-94.5,-47.50295],[-94,-47.80968],[-93.5,-48.11989],[-93,-48.43342],[-92.5,-48.75011],[-92,-49.0698],[-91.5,-49.39233],[-91,-49.71755],[-90.5,-50.04531],[-90,-50.37546],[-89.5,-50.70787],[-89,-51.04238],[-88.5,-51.37888],[-88,-51.71722],[-87.5,-52.05729],[-87,-52.39896],[-86.5,-52.74212],[-86,-53.08664],[-85.5,-53.43243],[-85,-53.77936],[-84.5,-54.12735],[-84,-54.47629],[-83.5,-54.82609],[-83,-55.17665],[-82.5,-55.52789],[-82,-55.87972],[-81.5,-56.23206],[-81,-56.58484],[-80.5,-56.93797],[-80,-57.29139],[-79.5,-57.64502],[-79,-57.9988],[-78.5,-58.35267],[-78,-58.70655],[-77.5,-59.0604],[-77,-59.41416],[-76.5,-59.76776],[-76,-60.12116],[-75.5,-60.47431],[-75,-60.82716],[-74.5,-61.17965],[-74,-61.53175],[-73.8457,-61.64031]]}}],"attribution":"Eclipse Predictions by Fred Espenak and Jean Meeus (NASA's GSFC)","generated_at":"2026-09-23T03:35:44.671Z"}
