{"type":"FeatureCollection","year":1236,"events":[{"id":"+12360208","year":1236,"month":2,"day":8,"time_tdt":"17:07:28","type":"개기일식","type_code":"T","saros":118,"gamma":-0.64538,"magnitude":1.05013,"greatest":{"lat":-51.3034,"lng":-55.54742},"path_width_km":217.4,"duration":"03m36s","delta_t_seconds":630.7,"catalog_number":7705,"source":"NASA Five Millennium Canon of Solar Eclipses","source_url":"https://eclipse.gsfc.nasa.gov/SEsearch/SEsearchmap.php?Ecl=%2B12360208"},{"id":"+12360803","year":1236,"month":8,"day":3,"time_tdt":"11:33:03","type":"금환일식","type_code":"A","saros":123,"gamma":0.74411,"magnitude":0.94318,"greatest":{"lat":61.93045,"lng":29.79376},"path_width_km":314.5,"duration":"04m57s","delta_t_seconds":629.5,"catalog_number":7706,"source":"NASA Five Millennium Canon of Solar Eclipses","source_url":"https://eclipse.gsfc.nasa.gov/SEsearch/SEsearchmap.php?Ecl=%2B12360803"},{"id":"+12361229","year":1236,"month":12,"day":29,"time_tdt":"20:49:58","type":"부분일식","type_code":"P","saros":90,"gamma":1.40687,"magnitude":0.25368,"greatest":{"lat":67.39738,"lng":-131.44421},"path_width_km":0,"duration":"00m00s","delta_t_seconds":628.4,"catalog_number":7707,"source":"NASA Five Millennium Canon of Solar Eclipses","source_url":"https://eclipse.gsfc.nasa.gov/SEsearch/SEsearchmap.php?Ecl=%2B12361229"}],"features":[{"type":"Feature","id":"+12360208:north:0","properties":{"id":"+12360208","year":1236,"month":2,"day":8,"time_tdt":"17:07:28","type":"개기일식","type_code":"T","saros":118,"gamma":-0.64538,"magnitude":1.05013,"greatest":{"lat":-51.3034,"lng":-55.54742},"path_width_km":217.4,"duration":"03m36s","delta_t_seconds":630.7,"catalog_number":7705,"source":"NASA Five Millennium Canon of Solar Eclipses","source_url":"https://eclipse.gsfc.nasa.gov/SEsearch/SEsearchmap.php?Ecl=%2B12360208","boundary":"north","name":"1236-02-08 개기일식"},"geometry":{"type":"LineString","coordinates":[[-157.375,-52.24715],[-157,-52.33353],[-156.5,-52.44799],[-156,-52.56164],[-155.5,-52.67446],[-155,-52.78645],[-154.5,-52.89759],[-154,-53.00787],[-153.5,-53.1173],[-153,-53.22585],[-152.5,-53.33351],[-152,-53.44029],[-151.5,-53.54617],[-151,-53.65115],[-150.5,-53.7552],[-150,-53.85834],[-149.5,-53.96054],[-149,-54.06181],[-148.5,-54.16213],[-148,-54.26149],[-147.5,-54.35989],[-147,-54.45732],[-146.5,-54.55378],[-146,-54.64925],[-145.5,-54.74373],[-145,-54.83722],[-144.5,-54.9297],[-144,-55.02117],[-143.5,-55.11163],[-143,-55.20106],[-142.5,-55.28946],[-142,-55.37683],[-141.5,-55.46316],[-141,-55.54844],[-140.5,-55.63267],[-140,-55.71585],[-139.5,-55.79796],[-139,-55.879],[-138.5,-55.95896],[-138,-56.03785],[-137.5,-56.11566],[-137,-56.19238],[-136.5,-56.268],[-136,-56.34253],[-135.5,-56.41596],[-135,-56.48827],[-134.5,-56.55948],[-134,-56.62958],[-133.5,-56.69855],[-133,-56.7664],[-132.5,-56.83312],[-132,-56.89871],[-131.5,-56.96317],[-131,-57.02648],[-130.5,-57.08865],[-130,-57.14968],[-129.5,-57.20956],[-129,-57.26828],[-128.5,-57.32584],[-128,-57.38224],[-127.5,-57.43748],[-127,-57.49155],[-126.5,-57.54445],[-126,-57.59617],[-125.5,-57.64671],[-125,-57.69608],[-124.5,-57.74425],[-124,-57.79124],[-123.5,-57.83704],[-123,-57.88164],[-122.5,-57.92505],[-122,-57.96725],[-121.5,-58.00824],[-121,-58.04803],[-120.5,-58.08661],[-120,-58.12397],[-119.5,-58.16011],[-119,-58.19503],[-118.5,-58.22873],[-118,-58.26119],[-117.5,-58.29243],[-117,-58.32242],[-116.5,-58.35118],[-116,-58.37869],[-115.5,-58.40496],[-115,-58.42997],[-114.5,-58.45373],[-114,-58.47624],[-113.5,-58.49747],[-113,-58.51745],[-112.5,-58.53615],[-112,-58.55357],[-111.5,-58.56971],[-111,-58.58457],[-110.5,-58.59815],[-110,-58.61042],[-109.5,-58.6214],[-109,-58.63108],[-108.5,-58.63945],[-108,-58.64651],[-107.5,-58.65224],[-107,-58.65666],[-106.5,-58.65974],[-106,-58.66149],[-105.5,-58.6619],[-105,-58.66097],[-104.5,-58.65868],[-104,-58.65503],[-103.5,-58.65002],[-103.5,-58.65003],[-103,-58.64364],[-102.5,-58.63589],[-102,-58.62674],[-101.5,-58.61621],[-101,-58.60428],[-100.5,-58.59094],[-100,-58.57619],[-99.5,-58.56002],[-99,-58.54243],[-98.5,-58.52339],[-98,-58.50291],[-97.5,-58.48098],[-97,-58.45759],[-96.5,-58.43273],[-96,-58.40639],[-95.5,-58.37857],[-95,-58.34924],[-94.5,-58.31842],[-94,-58.28607],[-93.5,-58.2522],[-93,-58.21679],[-92.5,-58.17984],[-92.5,-58.17983],[-92,-58.14132],[-91.5,-58.10124],[-91,-58.05958],[-90.5,-58.01633],[-90,-57.97148],[-89.5,-57.92502],[-89,-57.87692],[-88.5,-57.8272],[-88,-57.77582],[-87.5,-57.72277],[-87,-57.66806],[-86.5,-57.61165],[-86,-57.55354],[-85.5,-57.49371],[-85,-57.43215],[-84.5,-57.36885],[-84,-57.30379],[-83.5,-57.23696],[-83,-57.16834],[-82.5,-57.09791],[-82,-57.02567],[-81.5,-56.95159],[-81,-56.87566],[-80.5,-56.79786],[-80,-56.71819],[-79.5,-56.63661],[-79,-56.55312],[-78.5,-56.46769],[-78,-56.38032],[-77.5,-56.29098],[-77,-56.19965],[-76.5,-56.10632],[-76,-56.01097],[-75.5,-55.91359],[-75,-55.81415],[-74.5,-55.71263],[-74,-55.60902],[-73.5,-55.5033],[-73,-55.39545],[-72.5,-55.28545],[-72,-55.17329],[-71.5,-55.05894],[-71,-54.94238],[-70.5,-54.82361],[-70,-54.70259],[-69.5,-54.57931],[-69,-54.45376],[-68.5,-54.32591],[-68,-54.19574],[-67.5,-54.06325],[-67,-53.9284],[-66.5,-53.79119],[-66,-53.65159],[-65.5,-53.5096],[-65,-53.36519],[-64.5,-53.21834],[-64,-53.06905],[-63.5,-52.9173],[-63,-52.76308],[-62.5,-52.60637],[-62,-52.44716],[-61.5,-52.28543],[-61,-52.12119],[-60.5,-51.95441],[-60.5,-51.95442],[-60,-51.7851],[-59.5,-51.61324],[-59,-51.43883],[-58.5,-51.26186],[-58,-51.08233],[-57.5,-50.90024],[-57,-50.71559],[-56.5,-50.52838],[-56,-50.33862],[-55.5,-50.1463],[-55,-49.95144],[-54.5,-49.75405],[-54,-49.55413],[-53.5,-49.35171],[-53,-49.14679],[-52.5,-48.9394],[-52,-48.72956],[-51.5,-48.51729],[-51.5,-48.51728],[-51,-48.30261],[-50.5,-48.08557],[-50,-47.86618],[-49.5,-47.64449],[-49,-47.42054],[-48.5,-47.19435],[-48,-46.96599],[-47.5,-46.73549],[-47,-46.50291],[-46.5,-46.2683],[-46,-46.03172],[-45.5,-45.79323],[-45,-45.55289],[-44.5,-45.31076],[-44,-45.06692],[-43.5,-44.82144],[-43,-44.5744],[-42.5,-44.32587],[-42,-44.07593],[-41.5,-43.82466],[-41,-43.57216],[-40.5,-43.31851],[-40,-43.0638],[-39.5,-42.80812],[-39,-42.55157],[-38.5,-42.29424],[-38,-42.03623],[-37.5,-41.77763],[-37,-41.51855],[-36.5,-41.25909],[-36,-40.99934],[-35.5,-40.73941],[-35,-40.47939],[-34.5,-40.21938],[-34,-39.9595],[-33.5,-39.69982],[-33,-39.44046],[-32.5,-39.18151],[-32,-38.92307],[-31.5,-38.66522],[-31,-38.40807],[-31,-38.40806],[-30.5,-38.15169],[-30,-37.89619],[-29.5,-37.64165],[-29,-37.38815],[-29,-37.38814],[-28.5,-37.13577],[-28,-36.88459],[-27.5,-36.63469],[-27,-36.38614],[-26.5,-36.13902],[-26,-35.89339],[-25.5,-35.64932],[-25,-35.40686],[-24.5,-35.16609],[-24,-34.92705],[-23.5,-34.68979],[-23,-34.45438],[-22.5,-34.22085],[-22,-33.98925],[-21.5,-33.75963],[-21,-33.53202],[-20.5,-33.30645],[-20,-33.08297],[-19.5,-32.86161],[-19,-32.64238],[-18.5,-32.42532],[-18,-32.21046],[-17.5,-31.9978],[-17,-31.78738],[-16.5,-31.57921],[-16,-31.3733],[-15.5,-31.16967],[-15,-30.96833],[-14.5,-30.76928],[-14,-30.57254],[-13.5,-30.37811],[-13,-30.186],[-12.5,-29.9962],[-12,-29.80872],[-11.5,-29.62356],[-11,-29.44072],[-10.5,-29.2602],[-10,-29.08199],[-9.5,-28.90608],[-9,-28.73248],[-8.5,-28.56117],[-8,-28.39216],[-7.5,-28.22542],[-7,-28.06095],[-6.5,-27.89875],[-6,-27.73879],[-5.5,-27.58108],[-5,-27.4256],[-4.5,-27.27233],[-4,-27.12127],[-3.5,-26.9724],[-3,-26.82571],[-2.5,-26.68119],[-2,-26.53882],[-1.5,-26.39858],[-1,-26.26047],[-0.5,-26.12447],[0,-25.99056],[0.5,-25.85873],[1,-25.72896],[1.5,-25.60125],[2,-25.47556],[2.5,-25.35189],[2.5,-25.3519],[3,-25.23023],[3.5,-25.11056],[3.5,-25.11055],[4,-24.99285],[4.5,-24.8771],[5,-24.76329],[5.5,-24.6514]]}},{"type":"Feature","id":"+12360208:center:0","properties":{"id":"+12360208","year":1236,"month":2,"day":8,"time_tdt":"17:07:28","type":"개기일식","type_code":"T","saros":118,"gamma":-0.64538,"magnitude":1.05013,"greatest":{"lat":-51.3034,"lng":-55.54742},"path_width_km":217.4,"duration":"03m36s","delta_t_seconds":630.7,"catalog_number":7705,"source":"NASA Five Millennium Canon of Solar Eclipses","source_url":"https://eclipse.gsfc.nasa.gov/SEsearch/SEsearchmap.php?Ecl=%2B12360208","boundary":"center","name":"1236-02-08 개기일식"},"geometry":{"type":"LineString","coordinates":[[-158.0915,-52.88584],[-158,-52.91316],[-157.5,-53.03074],[-157,-53.14749],[-156.5,-53.26341],[-156,-53.37849],[-155.5,-53.49272],[-155,-53.60608],[-154.5,-53.71858],[-154,-53.83019],[-153.5,-53.94092],[-153,-54.05075],[-152.5,-54.15967],[-152,-54.26768],[-151.5,-54.37477],[-151,-54.48093],[-150.5,-54.58614],[-150,-54.69041],[-149.5,-54.79373],[-149,-54.89608],[-148.5,-54.99746],[-148,-55.09787],[-147.5,-55.19729],[-147,-55.29572],[-146.5,-55.39315],[-146,-55.48957],[-145.5,-55.58499],[-145,-55.67939],[-144.5,-55.77276],[-144,-55.8651],[-143.5,-55.95641],[-143,-56.04667],[-142.5,-56.13589],[-142,-56.22405],[-141.5,-56.31116],[-141,-56.3972],[-140.5,-56.48217],[-140,-56.56607],[-139.5,-56.64889],[-139,-56.73062],[-138.5,-56.81126],[-138,-56.89082],[-137.5,-56.96927],[-137,-57.04662],[-136.5,-57.12287],[-136,-57.198],[-135.5,-57.27203],[-135,-57.34493],[-134.5,-57.41671],[-134,-57.48736],[-133.5,-57.55689],[-133,-57.62528],[-132.5,-57.69253],[-132,-57.75865],[-131.5,-57.82362],[-131,-57.88744],[-130.5,-57.95012],[-130,-58.01164],[-129.5,-58.072],[-129,-58.13121],[-128.5,-58.18925],[-128,-58.24613],[-127.5,-58.30184],[-127,-58.35637],[-126.5,-58.40974],[-126,-58.46192],[-125.5,-58.51293],[-125,-58.56275],[-124.5,-58.61139],[-124,-58.65884],[-123.5,-58.7051],[-123,-58.75017],[-122.5,-58.79404],[-122,-58.83671],[-121.5,-58.87817],[-121,-58.91844],[-120.5,-58.95749],[-120,-58.99533],[-120,-58.99534],[-119.5,-59.03197],[-119,-59.06738],[-118.5,-59.10158],[-118,-59.13455],[-117.5,-59.1663],[-117,-59.19682],[-116.5,-59.2261],[-116,-59.25416],[-115.5,-59.28097],[-115,-59.30655],[-114.5,-59.33088],[-114,-59.35396],[-113.5,-59.37579],[-113,-59.39637],[-112.5,-59.41568],[-112,-59.43374],[-111.5,-59.45053],[-111,-59.46605],[-110.5,-59.48029],[-110,-59.49326],[-109.5,-59.50494],[-109,-59.51534],[-108.5,-59.52445],[-108,-59.53226],[-107.5,-59.53877],[-107,-59.54397],[-106.5,-59.54786],[-106,-59.55044],[-105.5,-59.5517],[-105,-59.55163],[-104.5,-59.55024],[-104,-59.5475],[-103.5,-59.54342],[-103,-59.53799],[-102.5,-59.53121],[-102,-59.52307],[-101.5,-59.51356],[-101,-59.50267],[-100.5,-59.49041],[-100,-59.47676],[-99.5,-59.46171],[-99,-59.44526],[-98.5,-59.4274],[-98,-59.40813],[-97.5,-59.38743],[-97,-59.36529],[-96.5,-59.34172],[-96,-59.31669],[-95.5,-59.29021],[-95,-59.26226],[-94.5,-59.23284],[-94,-59.20192],[-93.5,-59.16952],[-93,-59.13561],[-92.5,-59.10018],[-92,-59.06323],[-91.5,-59.02475],[-91,-58.98472],[-90.5,-58.94313],[-90,-58.89998],[-89.5,-58.85524],[-89,-58.80892],[-88.5,-58.76099],[-88,-58.71145],[-87.5,-58.66029],[-87,-58.60748],[-86.5,-58.55303],[-86,-58.49691],[-85.5,-58.43911],[-85,-58.37961],[-84.5,-58.31842],[-84,-58.2555],[-83.5,-58.19085],[-83,-58.12446],[-82.5,-58.0563],[-82,-57.98636],[-81.5,-57.91463],[-81,-57.84109],[-80.5,-57.76573],[-80,-57.68852],[-79.5,-57.60947],[-79,-57.52853],[-78.5,-57.44571],[-78,-57.36098],[-77.5,-57.27433],[-77,-57.18574],[-76.5,-57.09519],[-76,-57.00266],[-75.5,-56.90814],[-75,-56.81161],[-74.5,-56.71304],[-74,-56.61243],[-73.5,-56.50975],[-73,-56.40499],[-72.5,-56.29812],[-72,-56.18913],[-71.5,-56.078],[-71,-55.9647],[-70.5,-55.84923],[-70,-55.73156],[-69.5,-55.61167],[-69,-55.48954],[-68.5,-55.36516],[-68,-55.2385],[-67.5,-55.10955],[-67,-54.97829],[-66.5,-54.8447],[-66,-54.70876],[-65.5,-54.57046],[-65,-54.42978],[-64.5,-54.28669],[-64,-54.1412],[-63.5,-53.99327],[-63,-53.84289],[-62.5,-53.69005],[-62,-53.53473],[-61.5,-53.37693],[-61,-53.21662],[-60.5,-53.05379],[-60,-52.88844],[-59.5,-52.72056],[-59,-52.55013],[-58.5,-52.37715],[-58,-52.20161],[-57.5,-52.02351],[-57,-51.84284],[-56.5,-51.6596],[-56,-51.47379],[-55.5,-51.28541],[-55,-51.09446],[-54.5,-50.90095],[-54,-50.70489],[-53.5,-50.50628],[-53,-50.30513],[-52.5,-50.10146],[-52,-49.89529],[-52,-49.89528],[-51.5,-49.68662],[-51,-49.47549],[-50.5,-49.26191],[-50,-49.04591],[-49.5,-48.82752],[-49,-48.60678],[-48.5,-48.38371],[-48,-48.15835],[-47.5,-47.93075],[-47,-47.70094],[-46.5,-47.46899],[-46,-47.23492],[-45.5,-46.99881],[-45,-46.7607],[-44.5,-46.52065],[-44,-46.27873],[-43.5,-46.03501],[-43,-45.78955],[-42.5,-45.54243],[-42,-45.29372],[-41.5,-45.04349],[-41,-44.79184],[-40.5,-44.53884],[-40,-44.28458],[-39.5,-44.02915],[-39,-43.77263],[-38.5,-43.51513],[-38,-43.25673],[-37.5,-42.99753],[-37,-42.73763],[-36.5,-42.47713],[-36,-42.21612],[-35.5,-41.95471],[-35,-41.693],[-34.5,-41.43109],[-34,-41.16908],[-33.5,-40.90708],[-33.5,-40.90707],[-33,-40.64517],[-32.5,-40.38347],[-32,-40.12207],[-31.5,-39.86107],[-31,-39.60056],[-30.5,-39.34065],[-30,-39.08142],[-29.5,-38.82298],[-29,-38.5654],[-28.5,-38.30877],[-28,-38.05318],[-27.5,-37.79872],[-27,-37.54546],[-26.5,-37.29349],[-26,-37.04287],[-25.5,-36.79367],[-25,-36.54598],[-24.5,-36.29985],[-24,-36.05534],[-23.5,-35.81252],[-23,-35.57145],[-22.5,-35.33218],[-22,-35.09475],[-21.5,-34.85923],[-21,-34.62565],[-20.5,-34.39405],[-20,-34.16449],[-19.5,-33.93698],[-19,-33.71158],[-18.5,-33.4883],[-18,-33.26718],[-17.5,-33.04825],[-17,-32.83153],[-16.5,-32.61704],[-16,-32.4048],[-15.5,-32.19483],[-15,-31.98714],[-14.5,-31.78175],[-14,-31.57867],[-13.5,-31.37791],[-13,-31.17947],[-12.5,-30.98336],[-12,-30.78959],[-11.5,-30.59815],[-11,-30.40906],[-10.5,-30.22231],[-10,-30.03789],[-9.5,-29.85582],[-9,-29.67607],[-8.5,-29.49866],[-8,-29.32357],[-7.5,-29.1508],[-7,-28.98033],[-6.5,-28.81217],[-6,-28.6463],[-5.5,-28.48271],[-5,-28.3214],[-5,-28.32139],[-4.5,-28.16234],[-4,-28.00554],[-3.5,-27.85097],[-3,-27.69863],[-2.5,-27.5485],[-2,-27.40057],[-1.5,-27.25483],[-1,-27.11126],[-0.5,-26.96985],[0,-26.83058],[0.5,-26.69343],[1,-26.5584],[1.5,-26.42547],[2,-26.29463],[2,-26.29462],[2.5,-26.16584],[3,-26.03912],[3.5,-25.91442],[4,-25.79175],[4.5,-25.67109],[5,-25.55241],[5.5,-25.43571],[6,-25.32097],[6,-25.32096],[6.09643,-25.30514]]}},{"type":"Feature","id":"+12360208:south:0","properties":{"id":"+12360208","year":1236,"month":2,"day":8,"time_tdt":"17:07:28","type":"개기일식","type_code":"T","saros":118,"gamma":-0.64538,"magnitude":1.05013,"greatest":{"lat":-51.3034,"lng":-55.54742},"path_width_km":217.4,"duration":"03m36s","delta_t_seconds":630.7,"catalog_number":7705,"source":"NASA Five Millennium Canon of Solar Eclipses","source_url":"https://eclipse.gsfc.nasa.gov/SEsearch/SEsearchmap.php?Ecl=%2B12360208","boundary":"south","name":"1236-02-08 개기일식"},"geometry":{"type":"LineString","coordinates":[[-158.75391,-53.55911],[-158.5,-53.6203],[-158,-53.74017],[-157.5,-53.8592],[-157,-53.97738],[-156.5,-54.0947],[-156,-54.21115],[-155.5,-54.32673],[-155,-54.44141],[-154.5,-54.5552],[-154,-54.66808],[-153.5,-54.78005],[-153,-54.89109],[-152.5,-55.0012],[-152,-55.11037],[-151.5,-55.21859],[-151,-55.32585],[-150.5,-55.43215],[-150,-55.53748],[-149.5,-55.64183],[-149,-55.74519],[-148.5,-55.84755],[-148,-55.94892],[-147.5,-56.04928],[-147,-56.14862],[-146.5,-56.24694],[-146,-56.34424],[-145.5,-56.4405],[-145,-56.53572],[-144.5,-56.62989],[-144,-56.72302],[-143.5,-56.81509],[-143,-56.90609],[-142.5,-56.99603],[-142,-57.0849],[-141.5,-57.17269],[-141,-57.25939],[-140.5,-57.34501],[-140,-57.42954],[-139.5,-57.51298],[-139,-57.59531],[-138.5,-57.67654],[-138,-57.75666],[-137.5,-57.83567],[-137,-57.91356],[-136.5,-57.99033],[-136,-58.06598],[-135.5,-58.1405],[-135,-58.21389],[-134.5,-58.28615],[-134,-58.35727],[-133.5,-58.42726],[-133,-58.4961],[-132.5,-58.56379],[-132,-58.63033],[-131.5,-58.69573],[-131,-58.75997],[-130.5,-58.82305],[-130,-58.88498],[-129.5,-58.94574],[-129,-59.00534],[-128.5,-59.06377],[-128,-59.12103],[-127.5,-59.17712],[-127,-59.23204],[-126.5,-59.28578],[-126,-59.33834],[-125.5,-59.38972],[-125,-59.43992],[-124.5,-59.48894],[-124,-59.53676],[-123.5,-59.5834],[-123,-59.62885],[-122.5,-59.6731],[-122,-59.71615],[-121.5,-59.75801],[-121,-59.79867],[-120.5,-59.83812],[-120,-59.87637],[-119.5,-59.91341],[-119,-59.94925],[-118.5,-59.98387],[-118,-60.01727],[-117.5,-60.04946],[-117,-60.08043],[-116.5,-60.11017],[-116,-60.1387],[-115.5,-60.16599],[-115,-60.19205],[-114.5,-60.21689],[-114,-60.24048],[-113.5,-60.26284],[-113,-60.28395],[-112.5,-60.30382],[-112,-60.32244],[-111.5,-60.33981],[-111,-60.35593],[-110.5,-60.37078],[-110.5,-60.37079],[-110,-60.38438],[-109.5,-60.39671],[-109,-60.40777],[-108.5,-60.41755],[-108,-60.42606],[-107.5,-60.43328],[-107,-60.43922],[-106.5,-60.44387],[-106,-60.44722],[-105.5,-60.44928],[-105,-60.45002],[-104.5,-60.44946],[-104,-60.44759],[-103.5,-60.44439],[-103,-60.43987],[-102.5,-60.43401],[-102,-60.42682],[-101.5,-60.41829],[-101,-60.4084],[-100.5,-60.39717],[-100,-60.38457],[-100,-60.38456],[-99.5,-60.3706],[-99,-60.35525],[-98.5,-60.33853],[-98,-60.32041],[-97.5,-60.3009],[-97,-60.27998],[-96.5,-60.25765],[-96,-60.2339],[-95.5,-60.20872],[-95,-60.18211],[-94.5,-60.15405],[-94,-60.12454],[-93.5,-60.09356],[-93,-60.06111],[-92.5,-60.02718],[-92,-59.99176],[-91.5,-59.95483],[-91,-59.9164],[-90.5,-59.87644],[-90,-59.83495],[-89.5,-59.79192],[-89,-59.74733],[-88.5,-59.70118],[-88,-59.65345],[-87.5,-59.60413],[-87,-59.55321],[-86.5,-59.50067],[-86,-59.44651],[-85.5,-59.39071],[-85,-59.33326],[-84.5,-59.27414],[-84,-59.21335],[-83.5,-59.15086],[-83,-59.08666],[-82.5,-59.02074],[-82,-58.95308],[-81.5,-58.88368],[-81,-58.81251],[-80.5,-58.73955],[-80,-58.6648],[-79.5,-58.58824],[-79,-58.50984],[-78.5,-58.4296],[-78,-58.3475],[-77.5,-58.26352],[-77,-58.17764],[-76.5,-58.08985],[-76,-58.00013],[-75.5,-57.90846],[-75,-57.81482],[-74.5,-57.7192],[-74,-57.62157],[-73.5,-57.52192],[-73,-57.42023],[-72.5,-57.31648],[-72,-57.21066],[-71.5,-57.10273],[-71,-56.99269],[-70.5,-56.88052],[-70,-56.76619],[-69.5,-56.64968],[-69,-56.53098],[-68.5,-56.41007],[-68,-56.28693],[-67.5,-56.16153],[-67,-56.03386],[-66.5,-55.90391],[-66,-55.77165],[-65.5,-55.63705],[-65,-55.50012],[-64.5,-55.36082],[-64,-55.21913],[-63.5,-55.07505],[-63,-54.92856],[-62.5,-54.77963],[-62,-54.62825],[-61.5,-54.4744],[-61,-54.31808],[-60.5,-54.15927],[-60,-53.99794],[-59.5,-53.8341],[-59,-53.66773],[-58.5,-53.49881],[-58,-53.32735],[-57.5,-53.15332],[-57,-52.97673],[-56.5,-52.79756],[-56,-52.61582],[-55.5,-52.4315],[-55,-52.24459],[-54.5,-52.05511],[-54,-51.86304],[-53.5,-51.6684],[-53,-51.47119],[-52.5,-51.27141],[-52,-51.06909],[-51.5,-50.86422],[-51,-50.65683],[-50.5,-50.44694],[-50,-50.23455],[-49.5,-50.0197],[-49,-49.80241],[-48.5,-49.58271],[-48,-49.36063],[-47.5,-49.1362],[-47,-48.90946],[-46.5,-48.68045],[-46,-48.44921],[-45.5,-48.2158],[-45,-47.98025],[-44.5,-47.74262],[-44,-47.50298],[-43.5,-47.26137],[-43,-47.01786],[-42.5,-46.77252],[-42,-46.52542],[-41.5,-46.27662],[-41,-46.0262],[-40.5,-45.77425],[-40,-45.52084],[-39.5,-45.26605],[-39,-45.00998],[-38.5,-44.75271],[-38.5,-44.7527],[-38,-44.49432],[-37.5,-44.23493],[-37,-43.97461],[-36.5,-43.71347],[-36,-43.4516],[-35.5,-43.18911],[-35,-42.92609],[-34.5,-42.66265],[-34,-42.39888],[-33.5,-42.1349],[-33,-41.87079],[-32.5,-41.60668],[-32,-41.34265],[-31.5,-41.0788],[-31,-40.81525],[-30.5,-40.55208],[-30,-40.2894],[-29.5,-40.0273],[-29,-39.76588],[-28.5,-39.50523],[-28,-39.24544],[-27.5,-38.98661],[-27,-38.72881],[-26.5,-38.47214],[-26,-38.21667],[-25.5,-37.96248],[-25,-37.70965],[-24.5,-37.45825],[-24,-37.20836],[-23.5,-36.96003],[-23,-36.71335],[-22.5,-36.46835],[-22,-36.22511],[-21.5,-35.98369],[-21,-35.74412],[-20.5,-35.50647],[-20,-35.27077],[-19.5,-35.03708],[-19,-34.80543],[-18.5,-34.57586],[-18,-34.3484],[-17.5,-34.1231],[-17,-33.89997],[-16.5,-33.67904],[-16,-33.46034],[-15.5,-33.2439],[-15,-33.02972],[-14.5,-32.81784],[-14,-32.60826],[-13.5,-32.401],[-13,-32.19607],[-13,-32.19606],[-12.5,-31.99347],[-12,-31.79323],[-11.5,-31.59534],[-11,-31.39981],[-10.5,-31.20664],[-10,-31.01583],[-9.5,-30.82739],[-9,-30.64131],[-8.5,-30.45759],[-8,-30.27622],[-7.5,-30.09721],[-7,-29.92055],[-6.5,-29.74622],[-6,-29.57423],[-5.5,-29.40456],[-5,-29.23721],[-4.5,-29.07216],[-4,-28.90941],[-3.5,-28.74894],[-3,-28.59075],[-2.5,-28.43481],[-2,-28.28113],[-1.5,-28.12968],[-1.5,-28.12967],[-1,-27.98044],[-0.5,-27.83342],[0,-27.68859],[0.5,-27.54594],[1,-27.40546],[1.5,-27.26712],[2,-27.13092],[2.5,-26.99683],[3,-26.86485],[3.5,-26.73496],[4,-26.60714],[4.5,-26.48138],[5,-26.35766],[5.5,-26.23596],[6,-26.11628],[6.5,-25.99858],[6.50586,-25.99722]]}},{"type":"Feature","id":"+12360803:north:0","properties":{"id":"+12360803","year":1236,"month":8,"day":3,"time_tdt":"11:33:03","type":"금환일식","type_code":"A","saros":123,"gamma":0.74411,"magnitude":0.94318,"greatest":{"lat":61.93045,"lng":29.79376},"path_width_km":314.5,"duration":"04m57s","delta_t_seconds":629.5,"catalog_number":7706,"source":"NASA Five Millennium Canon of Solar Eclipses","source_url":"https://eclipse.gsfc.nasa.gov/SEsearch/SEsearchmap.php?Ecl=%2B12360803","boundary":"north","name":"1236-08-03 금환일식"},"geometry":{"type":"LineString","coordinates":[[-87.5,58.55669],[-87,58.7098],[-86.5,58.86221],[-86,59.01391],[-85.5,59.16488],[-85,59.3151],[-84.5,59.46455],[-84,59.61322],[-83.5,59.76109],[-83,59.90814],[-82.5,60.05435],[-82,60.19971],[-81.5,60.3442],[-81,60.4878],[-80.5,60.6305],[-80,60.77229],[-79.5,60.91314],[-79,61.05305],[-78.5,61.192],[-78,61.32997],[-77.5,61.46695],[-77,61.60294],[-76.5,61.7379],[-76,61.87185],[-75.5,62.00475],[-75,62.1366],[-74.5,62.26739],[-74,62.39711],[-73.5,62.52575],[-73,62.65329],[-72.5,62.77974],[-72,62.90507],[-72,62.90506],[-71.5,63.02927],[-71,63.15235],[-70.5,63.2743],[-70,63.3951],[-69.5,63.51474],[-69,63.63323],[-68.5,63.75055],[-68,63.86671],[-68,63.8667],[-67.5,63.98168],[-67,64.09547],[-66.5,64.20808],[-66,64.31949],[-65.5,64.42971],[-65,64.53873],[-64.5,64.64654],[-64.5,64.64655],[-64,64.75315],[-63.5,64.85855],[-63,64.96274],[-62.5,65.06571],[-62,65.16747],[-61.5,65.26801],[-61,65.36733],[-60.5,65.46543],[-60,65.56231],[-59.5,65.65797],[-59,65.75241],[-58.5,65.84563],[-58,65.93762],[-57.5,66.0284],[-57,66.11795],[-56.5,66.20629],[-56,66.2934],[-55.5,66.3793],[-55,66.46399],[-54.5,66.54746],[-54,66.62972],[-53.5,66.71077],[-53,66.79061],[-52.5,66.86924],[-52,66.94667],[-51.5,67.02291],[-51,67.09794],[-50.5,67.17178],[-50,67.24442],[-49.5,67.31588],[-49,67.38615],[-48.5,67.45523],[-48,67.52314],[-47.5,67.58986],[-47.5,67.58987],[-47,67.65542],[-46.5,67.7198],[-46,67.78302],[-45.5,67.84507],[-45,67.90596],[-44.5,67.96569],[-44.5,67.9657],[-44,68.02427],[-44,68.02428],[-43.5,68.0817],[-43,68.13799],[-42.5,68.19313],[-42,68.24713],[-41.5,68.29999],[-41,68.35172],[-40.5,68.40232],[-40,68.45179],[-39.5,68.50014],[-39,68.54737],[-38.5,68.59348],[-38,68.63848],[-37.5,68.68237],[-37,68.72515],[-36.5,68.76682],[-36,68.80739],[-35.5,68.84687],[-35,68.88525],[-34.5,68.92253],[-34,68.95872],[-33.5,68.99382],[-33.5,68.99383],[-33,69.02784],[-32.5,69.06078],[-32,69.09263],[-31.5,69.1234],[-31,69.15309],[-30.5,69.18171],[-30,69.20925],[-29.5,69.23572],[-29,69.26112],[-28.5,69.28545],[-28,69.30871],[-27.5,69.3309],[-27,69.35203],[-26.5,69.37209],[-26,69.39109],[-25.5,69.40902],[-25,69.42589],[-24.5,69.44169],[-24,69.45643],[-23.5,69.47011],[-23,69.48272],[-22.5,69.49427],[-22,69.50476],[-21.5,69.51418],[-21,69.52253],[-20.5,69.52982],[-20,69.53604],[-19.5,69.5412],[-19.5,69.54119],[-19,69.54528],[-18.5,69.54829],[-18,69.55022],[-17.5,69.55108],[-17,69.55086],[-16.5,69.54956],[-16,69.54718],[-15.5,69.54371],[-15,69.53916],[-14.5,69.53351],[-14,69.52677],[-13.5,69.51893],[-13.5,69.51892],[-13,69.50998],[-12.5,69.49993],[-12,69.48877],[-11.5,69.4765],[-11,69.46311],[-10.5,69.44859],[-10,69.43294],[-9.5,69.41616],[-9,69.39824],[-8.5,69.37918],[-8,69.35896],[-7.5,69.33759],[-7,69.31506],[-6.5,69.29135],[-6,69.26647],[-5.5,69.2404],[-5,69.21314],[-4.5,69.18469],[-4,69.15502],[-3.5,69.12415],[-3,69.09205],[-2.5,69.05871],[-2,69.02414],[-1.5,68.98832],[-1,68.95124],[-0.5,68.91288],[0,68.87326],[0.5,68.83234],[1,68.79012],[1.5,68.74659],[2,68.70174],[2.5,68.65556],[2.5,68.65555],[3,68.60803],[3.5,68.55914],[4,68.50888],[4.5,68.45725],[5,68.40421],[5,68.40422],[5.5,68.34977],[6,68.29391],[6.5,68.23661],[7,68.17786],[7.5,68.11765],[8,68.05595],[8.5,67.99276],[9,67.92806],[9.5,67.86184],[10,67.79406],[10.5,67.72473],[11,67.65383],[11.5,67.58132],[12,67.50721],[12.5,67.43147],[12.5,67.43146],[13,67.35407],[13.5,67.27501],[14,67.19426],[14.5,67.11181],[15,67.02763],[15.5,66.94171],[16,66.85401],[16.5,66.76454],[17,66.67325],[17.5,66.58013],[18,66.48516],[18.5,66.38832],[19,66.28958],[19.5,66.18892],[20,66.08632],[20.5,65.98175],[21,65.8752],[21.5,65.76663],[22,65.65602],[22.5,65.54336],[23,65.4286],[23.5,65.31174],[24,65.19274],[24.5,65.07159],[25,64.94825],[25,64.94824],[25.5,64.82269],[26,64.69491],[26.5,64.56486],[27,64.43253],[27.5,64.29788],[28,64.16091],[28,64.1609],[28.5,64.02157],[29,63.87985],[29.5,63.73572],[30,63.58915],[30.5,63.44014],[30.5,63.44013],[31,63.28864],[31.5,63.13464],[32,62.97812],[32.5,62.81905],[33,62.65742],[33.5,62.49321],[34,62.32639],[34.5,62.15695],[35,61.98487],[35.5,61.81014],[36,61.63275],[36.5,61.45267],[37,61.26991],[37.5,61.08444],[38,60.89627],[38.5,60.70539],[39,60.51179],[39.5,60.31548],[40,60.11644],[40,60.11645],[40.5,59.9147],[41,59.71025],[41.5,59.50311],[42,59.29328],[42.5,59.08078],[43,58.86563],[43.5,58.64785],[44,58.42746],[44.5,58.20449],[45,57.97898],[45.5,57.75096],[46,57.52047],[46.5,57.28755],[47,57.05225],[47.5,56.81462],[48,56.57472],[48.5,56.33261],[49,56.08835],[49.5,55.842],[50,55.59364],[50.5,55.34335],[51,55.09121],[51.5,54.83729],[52,54.58168],[52.5,54.32449],[53,54.06579],[53.5,53.80569],[54,53.54429],[54.5,53.28169],[55,53.01799],[55.5,52.7533],[55.5,52.75331],[56,52.48775],[56.5,52.22143],[57,51.95446],[57.5,51.68695],[58,51.41902],[58.5,51.15078],[59,50.88235],[59.5,50.61384],[60,50.34538],[60.5,50.07707],[61,49.80903],[61.5,49.54137],[62,49.27419],[62.5,49.00762],[63,48.74175],[63.5,48.47669],[64,48.21254],[64.5,47.9494],[65,47.68736],[65.5,47.42652],[66,47.16697],[66.5,46.90879],[67,46.65206],[67.5,46.39687],[68,46.14328],[68.5,45.89138],[69,45.64122],[69.5,45.39288],[70,45.14641],[70.5,44.90187],[71,44.65932],[71.5,44.4188],[72,44.18036],[72.5,43.94405],[73,43.7099],[73.5,43.47796],[74,43.24824],[74.5,43.0208],[75,42.79564],[75.5,42.5728],[76,42.3523],[76.5,42.13416],[77,41.91839],[77.5,41.70502],[78,41.49404],[78.5,41.28548],[79,41.07933],[79.5,40.87562],[80,40.67433],[80.5,40.47547],[81,40.27905],[81,40.27904],[81.5,40.08505],[82,39.89349],[82.5,39.70435],[83,39.51763],[83.5,39.33333],[84,39.15144],[84.5,38.97194],[85,38.79484],[85.5,38.62011],[86,38.44776],[86.5,38.27776],[87,38.11011],[87.5,37.94479],[88,37.78178],[88.5,37.62109],[88.5,37.62108],[89,37.46268],[89.5,37.30654],[90,37.15267],[90.5,37.00104],[91,36.85164],[91.5,36.70445],[92,36.55946],[92.5,36.41665],[93,36.276]]}},{"type":"Feature","id":"+12360803:center:0","properties":{"id":"+12360803","year":1236,"month":8,"day":3,"time_tdt":"11:33:03","type":"금환일식","type_code":"A","saros":123,"gamma":0.74411,"magnitude":0.94318,"greatest":{"lat":61.93045,"lng":29.79376},"path_width_km":314.5,"duration":"04m57s","delta_t_seconds":629.5,"catalog_number":7706,"source":"NASA Five Millennium Canon of Solar Eclipses","source_url":"https://eclipse.gsfc.nasa.gov/SEsearch/SEsearchmap.php?Ecl=%2B12360803","boundary":"center","name":"1236-08-03 금환일식"},"geometry":{"type":"LineString","coordinates":[[-85.42783,57.00347],[-85,57.14629],[-84.5,57.29986],[-84,57.45273],[-83.5,57.6049],[-83,57.75635],[-82.5,57.90704],[-82.5,57.90705],[-82,58.05698],[-81.5,58.20614],[-81,58.3545],[-80.5,58.50205],[-80,58.64876],[-79.5,58.79462],[-79.5,58.79463],[-79,58.93963],[-78.5,59.08374],[-78.5,59.08375],[-78,59.22697],[-77.5,59.36928],[-77,59.51066],[-76.5,59.6511],[-76,59.79058],[-75.5,59.92909],[-75,60.06662],[-74.5,60.20315],[-74,60.33866],[-73.5,60.47315],[-73,60.60661],[-72.5,60.73901],[-72,60.87035],[-71.5,61.00063],[-71,61.12981],[-70.5,61.25791],[-70,61.3849],[-69.5,61.51078],[-69,61.63553],[-68.5,61.75916],[-68,61.88164],[-67.5,62.00298],[-67,62.12315],[-67,62.12316],[-66.5,62.24217],[-66,62.36001],[-65.5,62.47668],[-65,62.59216],[-65,62.59217],[-64.5,62.70646],[-64,62.81956],[-63.5,62.93145],[-63,63.04215],[-62.5,63.15163],[-62,63.2599],[-61.5,63.36695],[-61,63.47277],[-60.5,63.57738],[-60,63.68075],[-59.5,63.7829],[-59,63.88381],[-58.5,63.98348],[-58,64.08192],[-57.5,64.17912],[-57,64.27509],[-57,64.27508],[-56.5,64.36981],[-56,64.46328],[-55.5,64.55552],[-55,64.64652],[-54.5,64.73627],[-54,64.82478],[-53.5,64.91205],[-53,64.99807],[-52.5,65.08286],[-52,65.16641],[-51.5,65.24871],[-51,65.32978],[-50.5,65.40962],[-50,65.48821],[-49.5,65.56558],[-49,65.64171],[-48.5,65.71662],[-48,65.79029],[-47.5,65.86275],[-47.5,65.86274],[-47,65.93397],[-46.5,66.00398],[-46,66.07277],[-45.5,66.14034],[-45,66.2067],[-45,66.20669],[-44.5,66.27184],[-44,66.33578],[-43.5,66.39851],[-43,66.46003],[-42.5,66.52036],[-42,66.57949],[-41.5,66.63742],[-41,66.69416],[-41,66.69415],[-40.5,66.7497],[-40,66.80406],[-39.5,66.85724],[-39,66.90923],[-38.5,66.96004],[-38,67.00968],[-37.5,67.05814],[-37,67.10543],[-36.5,67.15155],[-36,67.1965],[-35.5,67.24029],[-35,67.28292],[-34.5,67.32438],[-34,67.36469],[-33.5,67.40384],[-33,67.44184],[-32.5,67.47869],[-32,67.51439],[-31.5,67.54894],[-31,67.58234],[-30.5,67.6146],[-30,67.64571],[-29.5,67.67568],[-29,67.70451],[-28.5,67.73221],[-28,67.75876],[-27.5,67.78418],[-27,67.80845],[-26.5,67.8316],[-26,67.85361],[-25.5,67.87448],[-25,67.89422],[-24.5,67.91282],[-24,67.93029],[-23.5,67.94662],[-23,67.96182],[-22.5,67.97588],[-22,67.98881],[-21.5,68.0006],[-21,68.01125],[-20.5,68.02076],[-20,68.02913],[-19.5,68.03636],[-19,68.04244],[-18.5,68.04739],[-18,68.05118],[-17.5,68.05382],[-17,68.05532],[-16.5,68.05565],[-16,68.05483],[-15.5,68.05286],[-15,68.04971],[-14.5,68.04541],[-14,68.03993],[-13.5,68.03328],[-13,68.02545],[-12.5,68.01644],[-12,68.00624],[-11.5,67.99485],[-11,67.98227],[-10.5,67.96849],[-10,67.9535],[-9.5,67.9373],[-9,67.91988],[-8.5,67.90124],[-8,67.88137],[-7.5,67.86026],[-7,67.83792],[-6.5,67.81432],[-6,67.78947],[-5.5,67.76335],[-5,67.73597],[-4.5,67.7073],[-4,67.67735],[-4,67.67734],[-3.5,67.64609],[-3,67.61354],[-2.5,67.57967],[-2,67.54447],[-1.5,67.50795],[-1,67.47008],[-0.5,67.43085],[0,67.39027],[0.5,67.3483],[1,67.30496],[1.5,67.26021],[2,67.21406],[2.5,67.16648],[3,67.11748],[3.5,67.06702],[4,67.01511],[4.5,66.96172],[5,66.90685],[5.5,66.85048],[6,66.79259],[6.5,66.73318],[7,66.67222],[7.5,66.6097],[8,66.5456],[8.5,66.47991],[9,66.41262],[9.5,66.3437],[10,66.27314],[10.5,66.20092],[11,66.12702],[11.5,66.05143],[12,65.97412],[12.5,65.89508],[13,65.81429],[13.5,65.73172],[14,65.64737],[14.5,65.5612],[15,65.4732],[15.5,65.38334],[16,65.29161],[16.5,65.19798],[17,65.10243],[17.5,65.00495],[18,64.90549],[18.5,64.80405],[19,64.7006],[19.5,64.59512],[20,64.48758],[20.5,64.37796],[21,64.26623],[21.5,64.15237],[22,64.03636],[22.5,63.91816],[23,63.79776],[23.5,63.67514],[24,63.55025],[24.5,63.42309],[25,63.29362],[25.5,63.16182],[26,63.02767],[26.5,62.89114],[27,62.7522],[27.5,62.61083],[28,62.467],[28.5,62.3207],[29,62.17189],[29.5,62.02056],[30,61.86668],[30.5,61.71023],[31,61.55119],[31.5,61.38954],[32,61.22525],[32.5,61.05831],[33,60.8887],[33.5,60.7164],[34,60.5414],[34.5,60.36368],[35,60.18323],[35.5,60.00004],[36,59.8141],[36.5,59.6254],[37,59.43394],[37.5,59.2397],[38,59.0427],[38.5,58.84292],[39,58.64038],[39.5,58.43507],[40,58.22701],[40.5,58.01621],[41,57.80268],[41.5,57.58645],[42,57.36752],[42.5,57.14593],[43,56.9217],[43.5,56.69486],[44,56.46546],[44.5,56.23352],[45,55.9991],[45.5,55.76223],[46,55.52298],[46.5,55.28138],[47,55.03752],[47.5,54.79144],[48,54.54321],[48.5,54.29292],[49,54.04062],[49.5,53.78642],[49.5,53.78641],[50,53.53037],[50.5,53.27258],[51,53.01314],[51.5,52.75213],[52,52.48967],[52.5,52.22584],[53,51.96075],[53.5,51.69452],[54,51.42724],[54.5,51.15903],[55,50.89],[55.5,50.62027],[56,50.34995],[56.5,50.07915],[57,49.80801],[57.5,49.53662],[58,49.26511],[58.5,48.99359],[59,48.72219],[59.5,48.45101],[60,48.18018],[60.5,47.90979],[61,47.63996],[61.5,47.37081],[62,47.10243],[62.5,46.83492],[63,46.5684],[63.5,46.30295],[64,46.03867],[64,46.03866],[64.5,45.77564],[65,45.51397],[65.5,45.25373],[66,44.995],[66.5,44.73786],[67,44.48238],[67.5,44.22863],[68,43.97667],[68.5,43.72658],[69,43.4784],[69.5,43.2322],[70,42.98802],[70.5,42.7459],[71,42.50591],[71.5,42.26806],[72,42.03241],[72.5,41.79899],[73,41.56783],[73,41.56782],[73.5,41.33895],[74,41.11238],[74.5,40.88815],[75,40.66627],[75.5,40.44677],[76,40.22965],[76.5,40.01493],[77,39.80262],[77.5,39.59273],[78,39.38526],[78.5,39.18022],[79,38.97762],[79.5,38.77745],[80,38.57971],[80,38.5797],[80.5,38.38439],[81,38.19151],[81.5,38.00105],[82,37.81301],[82.5,37.62737],[83,37.44414],[83.5,37.2633],[84,37.08484],[84.5,36.90875],[85,36.73502],[85.5,36.56364],[86,36.3946],[86.5,36.22787],[87,36.06346],[87.5,35.90134],[87.5,35.90133],[88,35.74149],[88.5,35.58391],[89,35.42858],[89.5,35.27547],[90,35.12459],[90.5,34.9759],[91,34.82939],[91.5,34.68505],[91.74977,34.61844]]}},{"type":"Feature","id":"+12360803:south:0","properties":{"id":"+12360803","year":1236,"month":8,"day":3,"time_tdt":"11:33:03","type":"금환일식","type_code":"A","saros":123,"gamma":0.74411,"magnitude":0.94318,"greatest":{"lat":61.93045,"lng":29.79376},"path_width_km":314.5,"duration":"04m57s","delta_t_seconds":629.5,"catalog_number":7706,"source":"NASA Five Millennium Canon of Solar Eclipses","source_url":"https://eclipse.gsfc.nasa.gov/SEsearch/SEsearchmap.php?Ecl=%2B12360803","boundary":"south","name":"1236-08-03 금환일식"},"geometry":{"type":"LineString","coordinates":[[-83.31641,55.57729],[-83,55.67553],[-82.5,55.83025],[-82,55.98429],[-81.5,56.13764],[-81,56.29028],[-80.5,56.44219],[-80,56.59335],[-79.5,56.74375],[-79,56.89336],[-78.5,57.04218],[-78,57.19017],[-77.5,57.33733],[-77,57.48364],[-76.5,57.62908],[-76,57.77363],[-75.5,57.91728],[-75,58.06001],[-74.5,58.20182],[-74,58.34267],[-73.5,58.48256],[-73,58.62148],[-72.5,58.75941],[-72,58.89633],[-71.5,59.03223],[-71,59.1671],[-70.5,59.30093],[-70,59.4337],[-69.5,59.5654],[-69,59.69603],[-68.5,59.82556],[-68,59.95399],[-67.5,60.08131],[-67,60.2075],[-66.5,60.33256],[-66,60.45649],[-66,60.45648],[-65.5,60.57926],[-65.5,60.57925],[-65,60.70087],[-64.5,60.82131],[-64,60.94058],[-64,60.94057],[-63.5,61.05866],[-63,61.17555],[-62.5,61.29125],[-62,61.40574],[-61.5,61.51902],[-61,61.63108],[-60.5,61.74193],[-60,61.85155],[-60,61.85154],[-59.5,61.95993],[-59,62.06708],[-58.5,62.17299],[-58,62.27766],[-57.5,62.38108],[-57,62.48324],[-56.5,62.58416],[-56,62.68382],[-55.5,62.78222],[-55,62.87935],[-54.5,62.97523],[-54,63.06984],[-53.5,63.16318],[-53,63.25526],[-52.5,63.34607],[-52,63.43561],[-51.5,63.52388],[-51,63.61088],[-50.5,63.69661],[-50,63.78107],[-49.5,63.86426],[-49,63.94618],[-48.5,64.02683],[-48,64.10622],[-47.5,64.18433],[-47,64.26118],[-46.5,64.33677],[-46,64.41109],[-45.5,64.48414],[-45,64.55594],[-44.5,64.62647],[-44,64.69575],[-43.5,64.76377],[-43,64.83053],[-42.5,64.89604],[-42,64.9603],[-41.5,65.02331],[-41,65.08507],[-40.5,65.14558],[-40,65.20485],[-39.5,65.26288],[-39,65.31967],[-39,65.31966],[-38.5,65.37521],[-38,65.42953],[-38,65.42952],[-37.5,65.4826],[-37,65.53445],[-36.5,65.58506],[-36,65.63445],[-35.5,65.68261],[-35,65.72954],[-34.5,65.77526],[-34.5,65.77525],[-34,65.81975],[-34,65.81974],[-33.5,65.86302],[-33,65.90507],[-32.5,65.9459],[-32,65.98552],[-31.5,66.02393],[-31,66.06113],[-30.5,66.09711],[-30,66.13188],[-29.5,66.16545],[-29,66.19781],[-28.5,66.22896],[-28,66.2589],[-27.5,66.28764],[-27,66.31517],[-26.5,66.3415],[-26,66.36663],[-25.5,66.39055],[-25,66.41326],[-24.5,66.43478],[-24,66.45508],[-23.5,66.47419],[-23,66.49208],[-22.5,66.50877],[-22,66.52426],[-21.5,66.53854],[-21,66.5516],[-20.5,66.56346],[-20,66.57411],[-19.5,66.58354],[-19,66.59176],[-19,66.59175],[-18.5,66.59875],[-18,66.60453],[-17.5,66.60909],[-17,66.61243],[-17,66.61242],[-16.5,66.61453],[-16,66.61541],[-15.5,66.61505],[-15,66.61346],[-14.5,66.61062],[-14,66.60654],[-13.5,66.60122],[-13,66.59464],[-12.5,66.5868],[-12,66.57771],[-11.5,66.56735],[-11,66.55571],[-10.5,66.5428],[-10,66.52861],[-9.5,66.51313],[-9,66.49636],[-8.5,66.47828],[-8,66.4589],[-7.5,66.4382],[-7,66.41619],[-6.5,66.39285],[-6,66.36817],[-5.5,66.34214],[-5,66.31477],[-4.5,66.28603],[-4,66.25593],[-3.5,66.22445],[-3,66.19158],[-2.5,66.15732],[-2,66.12165],[-1.5,66.08456],[-1,66.04605],[-0.5,66.00609],[0,65.96469],[0.5,65.92183],[1,65.8775],[1.5,65.83168],[2,65.78436],[2.5,65.73554],[3,65.6852],[3,65.68519],[3.5,65.63331],[4,65.57988],[4.5,65.52489],[5,65.46832],[5.5,65.41015],[6,65.35038],[6.5,65.28898],[7,65.22595],[7.5,65.16126],[8,65.0949],[8.5,65.02685],[9,64.95709],[9,64.9571],[9.5,64.88562],[10,64.81239],[10,64.8124],[10.5,64.73742],[11,64.66066],[11.5,64.5821],[12,64.50173],[12.5,64.41951],[13,64.33545],[13.5,64.2495],[14,64.16165],[14.5,64.07189],[15,63.98018],[15.5,63.88651],[16,63.79086],[16.5,63.69319],[17,63.5935],[17.5,63.49175],[18,63.38792],[18.5,63.28199],[19,63.17393],[19.5,63.06373],[20,62.95135],[20.5,62.83676],[20.5,62.83677],[21,62.71996],[21.5,62.60091],[22,62.47958],[22.5,62.35595],[23,62.22999],[23.5,62.10169],[24,61.97101],[24.5,61.83792],[25,61.70241],[25.5,61.56445],[26,61.42401],[26.5,61.28107],[27,61.1356],[27.5,60.98758],[28,60.83699],[28.5,60.6838],[29,60.52798],[29.5,60.36953],[30,60.20841],[30.5,60.0446],[31,59.87809],[31.5,59.70886],[32,59.53689],[32.5,59.36215],[33,59.18465],[33.5,59.00436],[34,58.82127],[34.5,58.63537],[35,58.44665],[35.5,58.2551],[36,58.06072],[36,58.06073],[36.5,57.86352],[37,57.66347],[37.5,57.4606],[38,57.2549],[38.5,57.04637],[39,56.83504],[39.5,56.62091],[40,56.40401],[40.5,56.18434],[41,55.96193],[41.5,55.73682],[42,55.50902],[42.5,55.27858],[43,55.04553],[43.5,54.80992],[44,54.57179],[44.5,54.33118],[44.5,54.33119],[45,54.08817],[45.5,53.8428],[46,53.59513],[46.5,53.34524],[47,53.0932],[47.5,52.83908],[48,52.58296],[48.5,52.32492],[49,52.06506],[49.5,51.80345],[50,51.54021],[50.5,51.27543],[51,51.0092],[51.5,50.74164],[52,50.47284],[52.5,50.20293],[53,49.93201],[53.5,49.66019],[54,49.3876],[54.5,49.11434],[55,48.84055],[55.5,48.56632],[56,48.2918],[56.5,48.01708],[57,47.7423],[57.5,47.46756],[58,47.19299],[58.5,46.91871],[59,46.64482],[59.5,46.37144],[60,46.09868],[60.5,45.82665],[60.5,45.82664],[61,45.55544],[61.5,45.28518],[62,45.01594],[62.5,44.74784],[63,44.48096],[63.5,44.2154],[64,43.95124],[64.5,43.68855],[65,43.42743],[65.5,43.16795],[66,42.91017],[66.5,42.65417],[67,42.4],[67.5,42.14774],[68,41.89743],[68.5,41.64913],[69,41.40288],[69.5,41.15875],[69.5,41.15874],[70,40.91675],[70.5,40.67694],[71,40.43935],[71.5,40.20401],[72,39.97096],[72.5,39.74021],[73,39.51179],[73.5,39.28573],[74,39.06204],[74.5,38.84074],[75,38.62183],[75.5,38.40534],[76,38.19127],[76.5,37.97963],[76.5,37.97962],[77,37.77041],[77.5,37.56364],[78,37.3593],[78.5,37.1574],[79,36.95794],[79.5,36.76091],[80,36.56631],[80.5,36.37413],[81,36.18437],[81,36.18436],[81.5,35.99701],[82,35.81206],[82.5,35.62949],[83,35.44931],[83.5,35.27149],[84,35.09603],[84.5,34.92291],[85,34.75213],[85.5,34.58365],[86,34.41749],[86.5,34.2536],[87,34.09199],[87.5,33.93264],[88,33.77552],[88.5,33.62063],[89,33.46795],[89.5,33.31746],[90,33.16914],[90.41992,33.04625]]}}],"attribution":"Eclipse Predictions by Fred Espenak and Jean Meeus (NASA's GSFC)","generated_at":"2026-09-23T03:35:44.841Z"}
