{"type":"FeatureCollection","year":1249,"events":[{"id":"+12490514","year":1249,"month":5,"day":14,"time_tdt":"02:41:14","type":"개기일식","type_code":"T","saros":106,"gamma":0.24819,"magnitude":1.02035,"greatest":{"lat":34.67924,"lng":138.98474},"path_width_km":71.8,"duration":"01m56s","delta_t_seconds":597.8,"catalog_number":7739,"source":"NASA Five Millennium Canon of Solar Eclipses","source_url":"https://eclipse.gsfc.nasa.gov/SEsearch/SEsearchmap.php?Ecl=%2B12490514"},{"id":"+12491106","year":1249,"month":11,"day":6,"time_tdt":"07:41:11","type":"혼성일식","type_code":"H","saros":111,"gamma":-0.1817,"magnitude":1.00407,"greatest":{"lat":-28.67686,"lng":61.58685},"path_width_km":14.4,"duration":"00m24s","delta_t_seconds":596.7,"catalog_number":7740,"source":"NASA Five Millennium Canon of Solar Eclipses","source_url":"https://eclipse.gsfc.nasa.gov/SEsearch/SEsearchmap.php?Ecl=%2B12491106"}],"features":[{"type":"Feature","id":"+12490514:north:0","properties":{"id":"+12490514","year":1249,"month":5,"day":14,"time_tdt":"02:41:14","type":"개기일식","type_code":"T","saros":106,"gamma":0.24819,"magnitude":1.02035,"greatest":{"lat":34.67924,"lng":138.98474},"path_width_km":71.8,"duration":"01m56s","delta_t_seconds":597.8,"catalog_number":7739,"source":"NASA Five Millennium Canon of Solar Eclipses","source_url":"https://eclipse.gsfc.nasa.gov/SEsearch/SEsearchmap.php?Ecl=%2B12490514","boundary":"north","name":"1249-05-14 개기일식"},"geometry":{"type":"LineString","coordinates":[[74.65625,7.33485],[75,7.46467],[75.5,7.65483],[76,7.84655],[76.5,8.03984],[77,8.23471],[77.5,8.43116],[78,8.62919],[78.5,8.8288],[79,9.02999],[79.5,9.23277],[80,9.43714],[80.5,9.6431],[81,9.85065],[81.5,10.05978],[82,10.2705],[82.5,10.4828],[83,10.69669],[83.5,10.91216],[84,11.1292],[84.5,11.34781],[85,11.56798],[85.5,11.78971],[86,12.013],[86.5,12.23782],[87,12.46418],[87.5,12.69206],[88,12.92146],[88.5,13.15235],[89,13.38472],[89.5,13.61857],[90,13.85387],[90.5,14.09061],[91,14.32876],[91.5,14.56831],[92,14.80923],[92.5,15.0515],[93,15.2951],[93.5,15.53999],[94,15.78616],[94.5,16.03356],[95,16.28217],[95.5,16.53195],[96,16.78287],[96.5,17.03488],[97,17.28795],[97.5,17.54204],[98,17.7971],[98.5,18.05308],[99,18.30993],[99.5,18.56761],[100,18.82606],[100.5,19.08522],[101,19.34504],[101.5,19.60546],[102,19.86642],[102.5,20.12784],[103,20.38966],[103.5,20.65182],[104,20.91424],[104.5,21.17685],[105,21.43957],[105.5,21.70232],[106,21.96503],[106.5,22.22761],[107,22.48998],[107.5,22.75206],[108,23.01374],[108.5,23.27496],[109,23.53562],[109.5,23.79562],[110,24.05487],[110.5,24.31328],[111,24.57076],[111.5,24.8272],[112,25.08252],[112.5,25.33662],[113,25.58939],[113.5,25.84076],[114,26.0906],[114.5,26.33885],[115,26.58538],[115.5,26.83012],[116,27.07297],[116.5,27.31383],[117,27.55262],[117.5,27.78923],[118,28.0236],[118.5,28.25561],[119,28.48521],[119.5,28.71229],[120,28.93677],[120.5,29.15859],[121,29.37766],[121.5,29.59391],[122,29.80727],[122.5,30.01767],[123,30.22504],[123.5,30.42932],[124,30.63045],[124.5,30.82837],[125,31.02303],[125.5,31.21438],[126,31.40237],[126.5,31.58694],[127,31.76806],[127.5,31.9457],[128,32.1198],[128.5,32.29033],[129,32.45728],[129.5,32.62059],[130,32.78026],[130.5,32.93625],[131,33.08854],[131.5,33.23711],[132,33.38195],[132.5,33.52304],[133,33.66037],[133.5,33.79393],[134,33.9237],[134.5,34.0497],[135,34.1719],[135.5,34.2903],[136,34.40491],[136.5,34.51573],[137,34.62275],[137.5,34.72598],[138,34.82542],[138.5,34.92109],[139,35.01298],[139.5,35.1011],[140,35.18547],[140.5,35.2661],[141,35.34298],[141.5,35.41615],[142,35.4856],[142.5,35.55136],[143,35.61343],[143.5,35.67183],[144,35.72658],[144.5,35.77769],[145,35.82518],[145.5,35.86907],[146,35.90936],[146.5,35.94609],[147,35.97927],[147.5,36.00891],[148,36.03503],[148.5,36.05766],[149,36.07682],[149.5,36.09251],[150,36.10477],[150.5,36.11361],[151,36.11906],[151.5,36.12113],[152,36.11984],[152.5,36.11521],[153,36.10728],[153.5,36.09605],[154,36.08154],[154.5,36.06379],[155,36.04281],[155.5,36.01862],[156,35.99125],[156.5,35.96072],[157,35.92705],[157.5,35.89027],[158,35.85039],[158.5,35.80744],[159,35.76144],[159.5,35.71243],[160,35.66041],[160.5,35.60542],[161,35.54748],[161.5,35.48662],[162,35.42286],[162.5,35.35622],[163,35.28673],[163.5,35.21442],[164,35.13931],[164.5,35.06144],[165,34.98082],[165.5,34.89748],[166,34.81146],[166.5,34.72277],[167,34.63146],[167.5,34.53753],[168,34.44104],[168.5,34.342],[169,34.24044],[169.5,34.1364],[170,34.0299],[170.5,33.92098],[171,33.80967],[171.5,33.696],[172,33.57999],[172.5,33.46169],[173,33.34112],[173.5,33.21833],[174,33.09333],[174.5,32.96617],[175,32.83688],[175.5,32.70549],[176,32.57205],[176.5,32.43657],[177,32.29911],[177.5,32.15969],[178,32.01835],[178.5,31.87512],[179,31.73005],[179.5,31.58317],[180,31.43452]]}},{"type":"Feature","id":"+12490514:north:1","properties":{"id":"+12490514","year":1249,"month":5,"day":14,"time_tdt":"02:41:14","type":"개기일식","type_code":"T","saros":106,"gamma":0.24819,"magnitude":1.02035,"greatest":{"lat":34.67924,"lng":138.98474},"path_width_km":71.8,"duration":"01m56s","delta_t_seconds":597.8,"catalog_number":7739,"source":"NASA Five Millennium Canon of Solar Eclipses","source_url":"https://eclipse.gsfc.nasa.gov/SEsearch/SEsearchmap.php?Ecl=%2B12490514","boundary":"north","name":"1249-05-14 개기일식"},"geometry":{"type":"LineString","coordinates":[[-179.5,31.28413],[-179,31.13204],[-178.5,30.97829],[-178,30.82291],[-177.5,30.66594],[-177,30.50743],[-176.5,30.3474],[-176,30.1859],[-175.5,30.02297],[-175,29.85863],[-174.5,29.69294],[-174,29.52592],[-173.5,29.35762],[-173,29.18807],[-172.5,29.01731],[-172,28.84538],[-171.5,28.67231],[-171,28.49815],[-170.5,28.32293],[-170,28.14668],[-169.5,27.96945],[-169,27.79127],[-168.5,27.61217],[-168,27.4322],[-167.5,27.25139],[-167,27.06977],[-166.5,26.88737],[-166,26.70424],[-165.5,26.52041],[-165,26.33592],[-164.5,26.15078],[-164,25.96505],[-163.5,25.77875],[-163,25.59191],[-162.5,25.40457],[-162,25.21676],[-161.5,25.02851],[-161,24.83985],[-160.5,24.65081],[-160,24.46142],[-159.5,24.27171],[-159,24.08172],[-158.5,23.89146],[-158,23.70096],[-157.5,23.51026],[-157,23.31938],[-156.5,23.12835],[-156,22.93719],[-155.5,22.74593],[-155,22.5546],[-154.5,22.36321],[-154,22.1718],[-153.5,21.98038],[-153,21.78898],[-152.5,21.59763],[-152,21.40633],[-151.5,21.21513],[-151,21.02403],[-150.5,20.83306],[-150,20.64224],[-149.5,20.45158],[-149,20.26111],[-148.5,20.07085],[-148,19.88081],[-147.77539,19.79552]]}},{"type":"Feature","id":"+12490514:center:0","properties":{"id":"+12490514","year":1249,"month":5,"day":14,"time_tdt":"02:41:14","type":"개기일식","type_code":"T","saros":106,"gamma":0.24819,"magnitude":1.02035,"greatest":{"lat":34.67924,"lng":138.98474},"path_width_km":71.8,"duration":"01m56s","delta_t_seconds":597.8,"catalog_number":7739,"source":"NASA Five Millennium Canon of Solar Eclipses","source_url":"https://eclipse.gsfc.nasa.gov/SEsearch/SEsearchmap.php?Ecl=%2B12490514","boundary":"center","name":"1249-05-14 개기일식"},"geometry":{"type":"LineString","coordinates":[[74.67508,7.28986],[75,7.4069],[75.5,7.5941],[76,7.78284],[76.5,7.97314],[77,8.16498],[77.5,8.35838],[78,8.55333],[78.5,8.74985],[79,8.94792],[79.5,9.14756],[80,9.34876],[80.5,9.55153],[81,9.75586],[81.5,9.96176],[82,10.16922],[82.5,10.37824],[83,10.58883],[83.5,10.80097],[84,11.01466],[84.5,11.22991],[85,11.44669],[85.5,11.66502],[86,11.88488],[86.5,12.10626],[87,12.32915],[87.5,12.55355],[88,12.77945],[88.5,13.00682],[89,13.23567],[89.5,13.46597],[90,13.69771],[90.5,13.93087],[91,14.16544],[91.5,14.4014],[92,14.63872],[92.5,14.87738],[93,15.11735],[93.5,15.35862],[94,15.60116],[94.5,15.84493],[95,16.0899],[95.5,16.33605],[96,16.58334],[96.5,16.83172],[97,17.08117],[97.5,17.33164],[98,17.58309],[98.5,17.83548],[99,18.08875],[99.5,18.34287],[100,18.59777],[100.5,18.85341],[101,19.10972],[101.5,19.36666],[102,19.62416],[102.5,19.88216],[103,20.14059],[103.5,20.39939],[104,20.65849],[104.5,20.91781],[105,21.17729],[105.5,21.43685],[106,21.69642],[106.5,21.9559],[107,22.21522],[107.5,22.47431],[108,22.73306],[108.5,22.9914],[109,23.24924],[109.5,23.50649],[110,23.76306],[110.5,24.01886],[111,24.27379],[111.5,24.52776],[112,24.78068],[112.5,25.03245],[113,25.28298],[113.5,25.53217],[114,25.77992],[114.5,26.02615],[115,26.27075],[115.5,26.51364],[116,26.75471],[116.5,26.99388],[117,27.23106],[117.5,27.46615],[118,27.69907],[118.5,27.92972],[119,28.15803],[119.5,28.38391],[120,28.60727],[120.5,28.82804],[121,29.04614],[121.5,29.2615],[122,29.47404],[122.5,29.68369],[123,29.89038],[123.5,30.09405],[124,30.29464],[124.5,30.49209],[125,30.68634],[125.5,30.87734],[126,31.06503],[126.5,31.24937],[127,31.43032],[127.5,31.60782],[128,31.78185],[128.5,31.95236],[129,32.11932],[129.5,32.2827],[130,32.44247],[130.5,32.59861],[131,32.75108],[131.5,32.89987],[132,33.04496],[132.5,33.18633],[133,33.32398],[133.5,33.45787],[134,33.58802],[134.5,33.7144],[135,33.83701],[135.5,33.95585],[136,34.07091],[136.5,34.1822],[137,34.28971],[137.5,34.39344],[138,34.4934],[138.5,34.58959],[139,34.68203],[139.5,34.7707],[140,34.85563],[140.5,34.93683],[141,35.01429],[141.5,35.08804],[142,35.15809],[142.5,35.22444],[143,35.28712],[143.5,35.34613],[144,35.40149],[144.5,35.45322],[145,35.50133],[145.5,35.54584],[146,35.58677],[146.5,35.62413],[147,35.65794],[147.5,35.68822],[148,35.71499],[148.5,35.73827],[149,35.75808],[149.5,35.77443],[150,35.78735],[150.5,35.79686],[151,35.80297],[151.5,35.80571],[152,35.80511],[152.5,35.80117],[153,35.79392],[153.5,35.78339],[154,35.7696],[154.5,35.75256],[155,35.7323],[155.5,35.70885],[156,35.68222],[156.5,35.65244],[157,35.61954],[157.5,35.58352],[158,35.54443],[158.5,35.50228],[159,35.4571],[159.5,35.40891],[160,35.35774],[160.5,35.3036],[161,35.24654],[161.5,35.18656],[162,35.1237],[162.5,35.05799],[163,34.98945],[163.5,34.9181],[164,34.84398],[164.5,34.76711],[165,34.68751],[165.5,34.60523],[166,34.52027],[166.5,34.43268],[167,34.34249],[167.5,34.24971],[168,34.15438],[168.5,34.05654],[169,33.9562],[169.5,33.85341],[170,33.74819],[170.5,33.64057],[171,33.53059],[171.5,33.41828],[172,33.30367],[172.5,33.18678],[173,33.06767],[173.5,32.94635],[174,32.82287],[174.5,32.69725],[175,32.56953],[175.5,32.43975],[176,32.30794],[176.5,32.17414],[177,32.03837],[177.5,31.90069],[178,31.76111],[178.5,31.61968],[179,31.47644],[179.5,31.33142],[180,31.18466]]}},{"type":"Feature","id":"+12490514:center:1","properties":{"id":"+12490514","year":1249,"month":5,"day":14,"time_tdt":"02:41:14","type":"개기일식","type_code":"T","saros":106,"gamma":0.24819,"magnitude":1.02035,"greatest":{"lat":34.67924,"lng":138.98474},"path_width_km":71.8,"duration":"01m56s","delta_t_seconds":597.8,"catalog_number":7739,"source":"NASA Five Millennium Canon of Solar Eclipses","source_url":"https://eclipse.gsfc.nasa.gov/SEsearch/SEsearchmap.php?Ecl=%2B12490514","boundary":"center","name":"1249-05-14 개기일식"},"geometry":{"type":"LineString","coordinates":[[-179.5,31.03619],[-179,30.88606],[-178.5,30.73429],[-178,30.58093],[-177.5,30.42601],[-177,30.26957],[-176.5,30.11166],[-176,29.95229],[-175.5,29.79152],[-175,29.62938],[-174.5,29.46591],[-174,29.30115],[-173.5,29.13513],[-173,28.96788],[-172.5,28.79946],[-172,28.62989],[-171.5,28.4592],[-171,28.28745],[-170.5,28.11466],[-170,27.94087],[-169.5,27.76612],[-169,27.59044],[-168.5,27.41387],[-168,27.23644],[-167.5,27.05819],[-167,26.87915],[-166.5,26.69936],[-166,26.51884],[-165.5,26.33765],[-165,26.1558],[-164.5,25.97334],[-164,25.79028],[-163.5,25.60668],[-163,25.42255],[-162.5,25.23793],[-162,25.05285],[-161.5,24.86734],[-161,24.68144],[-160.5,24.49516],[-160,24.30854],[-159.5,24.12162],[-159,23.9344],[-158.5,23.74694],[-158,23.55924],[-157.5,23.37135],[-157,23.18327],[-156.5,22.99505],[-156,22.80671],[-155.5,22.61827],[-155,22.42975],[-154.5,22.24118],[-154,22.05259],[-153.5,21.86399],[-153,21.67541],[-152.5,21.48687],[-152,21.29839],[-151.5,21.11],[-151,20.9217],[-150.5,20.73354],[-150,20.54552],[-149.5,20.35765],[-149,20.16998],[-148.5,19.9825],[-148,19.79524],[-147.8252,19.72906]]}},{"type":"Feature","id":"+12490514:south:0","properties":{"id":"+12490514","year":1249,"month":5,"day":14,"time_tdt":"02:41:14","type":"개기일식","type_code":"T","saros":106,"gamma":0.24819,"magnitude":1.02035,"greatest":{"lat":34.67924,"lng":138.98474},"path_width_km":71.8,"duration":"01m56s","delta_t_seconds":597.8,"catalog_number":7739,"source":"NASA Five Millennium Canon of Solar Eclipses","source_url":"https://eclipse.gsfc.nasa.gov/SEsearch/SEsearchmap.php?Ecl=%2B12490514","boundary":"south","name":"1249-05-14 개기일식"},"geometry":{"type":"LineString","coordinates":[[74.70898,7.24291],[75,7.34946],[75.5,7.53373],[76,7.71952],[76.5,7.90683],[77,8.09567],[77.5,8.28604],[78,8.47794],[78.5,8.67139],[79,8.86636],[79.5,9.06288],[80,9.26094],[80.5,9.46054],[81,9.66169],[81.5,9.86437],[82,10.0686],[82.5,10.27437],[83,10.48168],[83.5,10.69052],[84,10.9009],[84.5,11.1128],[85,11.32623],[85.5,11.54117],[86,11.75763],[86.5,11.97559],[87,12.19505],[87.5,12.416],[88,12.63842],[88.5,12.86231],[89,13.08766],[89.5,13.31444],[90,13.54265],[90.5,13.77227],[91,14.00329],[91.5,14.23567],[92,14.46942],[92.5,14.70449],[93,14.94088],[93.5,15.17855],[94,15.41748],[94.5,15.65765],[95,15.89901],[95.5,16.14155],[96,16.38523],[96.5,16.63001],[97,16.87586],[97.5,17.12274],[98,17.37061],[98.5,17.61942],[99,17.86913],[99.5,18.11969],[100,18.37107],[100.5,18.62319],[101,18.87601],[101.5,19.12948],[102,19.38354],[102.5,19.63812],[103,19.89317],[103.5,20.14862],[104,20.4044],[104.5,20.66045],[105,20.91669],[105.5,21.17305],[106,21.42946],[106.5,21.68584],[107,21.94211],[107.5,22.19819],[108,22.454],[108.5,22.70946],[109,22.96447],[109.5,23.21895],[110,23.47282],[110.5,23.72597],[111,23.97833],[111.5,24.22981],[112,24.48029],[112.5,24.72971],[113,24.97795],[113.5,25.22494],[114,25.47056],[114.5,25.71474],[115,25.95737],[115.5,26.19836],[116,26.43762],[116.5,26.67506],[117,26.91059],[117.5,27.14411],[118,27.37554],[118.5,27.60478],[119,27.83176],[119.5,28.05639],[120,28.27858],[120.5,28.49826],[121,28.71535],[121.5,28.92976],[122,29.14143],[122.5,29.35029],[123,29.55626],[123.5,29.75928],[124,29.95929],[124.5,30.15622],[125,30.35001],[125.5,30.54062],[126,30.72798],[126.5,30.91205],[127,31.09278],[127.5,31.27012],[128,31.44404],[128.5,31.61448],[129,31.78143],[129.5,31.94484],[130,32.10469],[130.5,32.26093],[131,32.41356],[131.5,32.56254],[132,32.70786],[132.5,32.84949],[133,32.98742],[133.5,33.12164],[134,33.25213],[134.5,33.37888],[135,33.50189],[135.5,33.62114],[136,33.73664],[136.5,33.84839],[137,33.95637],[137.5,34.06059],[138,34.16106],[138.5,34.25777],[139,34.35073],[139.5,34.43996],[140,34.52544],[140.5,34.6072],[141,34.68524],[141.5,34.75957],[142,34.8302],[142.5,34.89715],[143,34.96043],[143.5,35.02005],[144,35.07603],[144.5,35.12838],[145,35.17712],[145.5,35.22226],[146,35.26382],[146.5,35.30182],[147,35.33627],[147.5,35.3672],[148,35.39462],[148.5,35.41856],[149,35.43902],[149.5,35.45604],[150,35.46963],[150.5,35.47981],[151,35.48661],[151.5,35.49004],[152,35.49012],[152.5,35.48688],[153,35.48034],[153.5,35.47053],[154,35.45745],[154.5,35.44114],[155,35.42163],[155.5,35.39892],[156,35.37305],[156.5,35.34404],[157,35.31191],[157.5,35.27669],[158,35.2384],[158.5,35.19707],[159,35.15272],[159.5,35.10538],[160,35.05506],[160.5,35.00181],[161,34.94563],[161.5,34.88657],[162,34.82464],[162.5,34.75987],[163,34.69229],[163.5,34.62193],[164,34.54881],[164.5,34.47297],[165,34.39442],[165.5,34.31321],[166,34.22935],[166.5,34.14288],[167,34.05382],[167.5,33.96221],[168,33.86808],[168.5,33.77145],[169,33.67236],[169.5,33.57084],[170,33.46692],[170.5,33.36063],[171,33.252],[171.5,33.14107],[172,33.02787],[172.5,32.91243],[173,32.79479],[173.5,32.67498],[174,32.55302],[174.5,32.42897],[175,32.30285],[175.5,32.17469],[176,32.04454],[176.5,31.91242],[177,31.77838],[177.5,31.64244],[178,31.50465],[178.5,31.36503],[179,31.22364],[179.5,31.08049],[180,30.93563]]}},{"type":"Feature","id":"+12490514:south:1","properties":{"id":"+12490514","year":1249,"month":5,"day":14,"time_tdt":"02:41:14","type":"개기일식","type_code":"T","saros":106,"gamma":0.24819,"magnitude":1.02035,"greatest":{"lat":34.67924,"lng":138.98474},"path_width_km":71.8,"duration":"01m56s","delta_t_seconds":597.8,"catalog_number":7739,"source":"NASA Five Millennium Canon of Solar Eclipses","source_url":"https://eclipse.gsfc.nasa.gov/SEsearch/SEsearchmap.php?Ecl=%2B12490514","boundary":"south","name":"1249-05-14 개기일식"},"geometry":{"type":"LineString","coordinates":[[-179.5,30.78911],[-179,30.64094],[-178.5,30.49117],[-178,30.33984],[-177.5,30.18698],[-177,30.03263],[-176.5,29.87683],[-176,29.71962],[-175.5,29.56103],[-175,29.40109],[-174.5,29.23985],[-174,29.07735],[-173.5,28.91361],[-173,28.74868],[-172.5,28.58259],[-172,28.41538],[-171.5,28.24709],[-171,28.07775],[-170.5,27.90739],[-170,27.73606],[-169.5,27.56379],[-169,27.39061],[-168.5,27.21655],[-168,27.04167],[-167.5,26.86597],[-167,26.68951],[-166.5,26.51232],[-166,26.33442],[-165.5,26.15585],[-165,25.97665],[-164.5,25.79685],[-164,25.61647],[-163.5,25.43555],[-163,25.25412],[-162.5,25.07221],[-162,24.88986],[-161.5,24.70708],[-161,24.52392],[-160.5,24.34039],[-160,24.15654],[-159.5,23.97238],[-159,23.78794],[-158.5,23.60325],[-158,23.41834],[-157.5,23.23323],[-157,23.04796],[-156.5,22.86253],[-156,22.67699],[-155.5,22.49135],[-155,22.30563],[-154.5,22.11987],[-154,21.93407],[-153.5,21.74828],[-153,21.5625],[-152.5,21.37676],[-152,21.19108],[-151.5,21.00548],[-151,20.81998],[-150.5,20.6346],[-150,20.44936],[-149.5,20.26428],[-149,20.07937],[-148.5,19.89466],[-148,19.71016]]}},{"type":"Feature","id":"+12491106:north:0","properties":{"id":"+12491106","year":1249,"month":11,"day":6,"time_tdt":"07:41:11","type":"혼성일식","type_code":"H","saros":111,"gamma":-0.1817,"magnitude":1.00407,"greatest":{"lat":-28.67686,"lng":61.58685},"path_width_km":14.4,"duration":"00m24s","delta_t_seconds":596.7,"catalog_number":7740,"source":"NASA Five Millennium Canon of Solar Eclipses","source_url":"https://eclipse.gsfc.nasa.gov/SEsearch/SEsearchmap.php?Ecl=%2B12491106","boundary":"north","name":"1249-11-06 혼성일식"},"geometry":{"type":"LineString","coordinates":[[-0.10352,-0.7177],[0,-0.75252],[0.5,-0.92171],[1,-1.09257],[1.5,-1.2651],[2,-1.43931],[2.5,-1.61521],[3,-1.79281],[3.5,-1.97212],[4,-2.15315],[4.5,-2.33591],[5,-2.5204],[5.5,-2.70664],[6,-2.89464],[6.5,-3.08439],[7,-3.27591],[7.5,-3.46921],[8,-3.6643],[8.5,-3.86117],[9,-4.05984],[9.5,-4.26031],[10,-4.46259],[10.5,-4.66668],[11,-4.87258],[11.5,-5.08031],[12,-5.28986],[12.5,-5.50124],[13,-5.71445],[13.5,-5.92948],[14,-6.14634],[14.5,-6.36503],[15,-6.58555],[15.5,-6.8079],[16,-7.03206],[16.5,-7.25805],[17,-7.48584],[17.5,-7.71544],[18,-7.94683],[18.5,-8.18001],[19,-8.41497],[19.5,-8.65169],[20,-8.89016],[20.5,-9.13037],[21,-9.37229],[21.5,-9.61591],[22,-9.86121],[22.5,-10.10816],[23,-10.35675],[23.5,-10.60693],[24,-10.85869],[24.5,-11.11199],[25,-11.3668],[25.5,-11.62308],[26,-11.8808],[26.5,-12.1399],[27,-12.40036],[27.5,-12.66211],[28,-12.92511],[28.5,-13.18931],[29,-13.45465],[29.5,-13.72108],[30,-13.98853],[30.5,-14.25693],[31,-14.52622],[31.5,-14.79632],[32,-15.06717],[32.5,-15.33869],[33,-15.61078],[33.5,-15.88338],[34,-16.15638],[34.5,-16.42971],[35,-16.70327],[35.5,-16.97258],[36,-17.24057],[36.5,-17.50858],[37,-17.7765],[37.5,-18.04422],[38,-18.31166],[38.5,-18.57869],[39,-18.84522],[39.5,-19.11112],[40,-19.37629],[40.5,-19.64061],[41,-19.90397],[41.5,-20.16625],[42,-20.42734],[42.5,-20.68711],[43,-20.94545],[43.5,-21.20225],[44,-21.45738],[44.5,-21.71073],[45,-21.96219],[45.5,-22.21163],[46,-22.45895],[46.5,-22.70403],[47,-22.94677],[47.5,-23.18705],[48,-23.42478],[48.5,-23.65985],[49,-23.89216],[49.5,-24.12161],[50,-24.34811],[50.5,-24.57158],[51,-24.79191],[51.5,-25.00904],[52,-25.22288],[52.5,-25.43336],[53,-25.64041],[53.5,-25.84395],[54,-26.04392],[54.5,-26.24028],[55,-26.43295],[55.5,-26.62189],[56,-26.80705],[56.5,-26.98839],[57,-27.16586],[57.5,-27.33944],[58,-27.50909],[58.5,-27.67478],[59,-27.83648],[59.5,-27.99418],[60,-28.14785],[60.5,-28.29749],[61,-28.44307],[61.5,-28.5846],[62,-28.72206],[62.5,-28.85545],[63,-28.98477],[63.5,-29.11002],[64,-29.23121],[64.5,-29.34834],[65,-29.46142],[65.5,-29.57047],[66,-29.67549],[66.5,-29.77649],[67,-29.8735],[67.5,-29.96653],[68,-30.0556],[68.5,-30.14073],[69,-30.22194],[69.5,-30.29926],[70,-30.3727],[70.5,-30.44229],[71,-30.50806],[71.5,-30.57004],[72,-30.62825],[72.5,-30.68271],[73,-30.73346],[73.5,-30.78053],[74,-30.82394],[74.5,-30.86373],[75,-30.89993],[75.5,-30.93256],[76,-30.96166],[76.5,-30.98726],[77,-31.00939],[77.5,-31.02809],[78,-31.04338],[78.5,-31.0553],[79,-31.06388],[79.5,-31.06916],[80,-31.07117],[80.5,-31.06993],[81,-31.06549],[81.5,-31.05788],[82,-31.04712],[82.5,-31.03326],[83,-31.01633],[83.5,-30.99636],[84,-30.97338],[84.5,-30.94743],[85,-30.91854],[85.5,-30.88675],[86,-30.85208],[86.5,-30.81458],[87,-30.77428],[87.5,-30.7312],[88,-30.68539],[88.5,-30.63687],[89,-30.58198],[89.5,-30.52408],[90,-30.46352],[90.5,-30.40036],[91,-30.3346],[91.5,-30.2663],[92,-30.19548],[92.5,-30.12217],[93,-30.04642],[93.5,-29.96825],[94,-29.88771],[94.5,-29.80481],[95,-29.71961],[95.5,-29.63212],[96,-29.54239],[96.5,-29.45045],[97,-29.35634],[97.5,-29.26008],[98,-29.16171],[98.5,-29.06127],[99,-28.95879],[99.5,-28.8543],[100,-28.74784],[100.5,-28.63944],[101,-28.52914],[101.5,-28.41696],[102,-28.30295],[102.5,-28.18713],[103,-28.06955],[103.5,-27.95022],[104,-27.8292],[104.5,-27.7065],[105,-27.58217],[105.5,-27.45623],[106,-27.32872],[106.5,-27.19968],[107,-27.06913],[107.5,-26.93711],[108,-26.80365],[108.5,-26.66878],[109,-26.53254],[109.5,-26.39495],[110,-26.25606],[110.5,-26.11588],[111,-25.97446],[111.5,-25.83182],[112,-25.688],[112.5,-25.54303],[113,-25.39693],[113.5,-25.24974],[114,-25.10148],[114.5,-24.9522],[115,-24.80191],[115.5,-24.65065],[116,-24.49844],[116.5,-24.34532],[117,-24.19132],[117.5,-24.03645],[118,-23.88075],[118.5,-23.72426],[119,-23.567],[119.5,-23.40898],[120,-23.25024],[120.5,-23.09082],[121,-22.93072],[121.5,-22.76998],[122,-22.60863],[122.5,-22.44669],[123,-22.28418],[123.5,-22.12114],[124,-21.95758],[124.5,-21.79352],[125,-21.629],[125.5,-21.46404],[126,-21.29865],[126.5,-21.13286],[127,-20.9667],[127.5,-20.80018],[128,-20.63333],[128.5,-20.46617],[129,-20.29871],[129.5,-20.13099],[130,-19.96302],[130.5,-19.79482],[131,-19.6264],[131.5,-19.4578],[132,-19.28902],[132.5,-19.12009],[133,-18.95103],[133.39844,-18.81622]]}},{"type":"Feature","id":"+12491106:center:0","properties":{"id":"+12491106","year":1249,"month":11,"day":6,"time_tdt":"07:41:11","type":"혼성일식","type_code":"H","saros":111,"gamma":-0.1817,"magnitude":1.00407,"greatest":{"lat":-28.67686,"lng":61.58685},"path_width_km":14.4,"duration":"00m24s","delta_t_seconds":596.7,"catalog_number":7740,"source":"NASA Five Millennium Canon of Solar Eclipses","source_url":"https://eclipse.gsfc.nasa.gov/SEsearch/SEsearchmap.php?Ecl=%2B12491106","boundary":"center","name":"1249-11-06 혼성일식"},"geometry":{"type":"LineString","coordinates":[[-0.1943,-0.89905],[0,-0.96199],[0.5,-1.12868],[1,-1.29702],[1.5,-1.46701],[2,-1.63867],[2.5,-1.812],[3,-1.98701],[3.5,-2.16372],[4,-2.34213],[4.5,-2.52224],[5,-2.70408],[5.5,-2.88764],[6,-3.07294],[6.5,-3.25998],[7,-3.44877],[7.5,-3.63932],[8,-3.83163],[8.5,-4.02572],[9,-4.22158],[9.5,-4.41923],[10,-4.61867],[10.5,-4.8199],[11,-5.02293],[11.5,-5.22776],[12,-5.4344],[12.5,-5.64285],[13,-5.85311],[13.5,-6.06518],[14,-6.27906],[14.5,-6.49475],[15,-6.71225],[15.5,-6.93157],[16,-7.15268],[16.5,-7.3756],[17,-7.60032],[17.5,-7.82682],[18,-8.05511],[18.5,-8.28517],[19,-8.51699],[19.5,-8.75056],[20,-8.98588],[20.5,-9.22291],[21,-9.46165],[21.5,-9.70208],[22,-9.94418],[22.5,-10.18792],[23,-10.43329],[23.5,-10.68025],[24,-10.92878],[24.5,-11.17885],[25,-11.43042],[25.5,-11.68347],[26,-11.93794],[26.5,-12.19381],[27,-12.45103],[27.5,-12.70955],[28,-12.96933],[28.5,-13.23032],[29,-13.49245],[29.5,-13.75568],[30,-14.01994],[30.5,-14.28517],[31,-14.55131],[31.5,-14.81828],[32,-15.08601],[32.5,-15.35444],[33,-15.62347],[33.5,-15.89302],[34,-16.16302],[34.5,-16.43337],[35,-16.70398],[35.5,-16.97476],[36,-17.24561],[36.5,-17.51644],[37,-17.78713],[37.5,-18.05759],[38,-18.32771],[38.5,-18.59738],[39,-18.86648],[39.5,-19.13491],[40,-19.40255],[40.5,-19.66929],[41,-19.935],[41.5,-20.19957],[42,-20.46289],[42.5,-20.72482],[43,-20.98526],[43.5,-21.24409],[44,-21.50118],[44.5,-21.75642],[45,-22.00969],[45.5,-22.26087],[46,-22.50986],[46.5,-22.75654],[47,-23.0008],[47.5,-23.24253],[48,-23.48163],[48.5,-23.718],[49,-23.95153],[49.5,-24.18213],[50,-24.40971],[50.5,-24.63418],[51,-24.85544],[51.5,-25.07343],[52,-25.28806],[52.5,-25.49925],[53,-25.70694],[53.5,-25.91106],[54,-26.11155],[54.5,-26.30834],[55,-26.50139],[55.5,-26.69065],[56,-26.87606],[56.5,-27.0576],[57,-27.23521],[57.5,-27.40886],[58,-27.57852],[58.5,-27.74418],[59,-27.90579],[59.5,-28.06335],[60,-28.21683],[60.5,-28.36622],[61,-28.51152],[61.5,-28.6527],[62,-28.78978],[62.5,-28.92274],[63,-29.05159],[63.5,-29.17633],[64,-29.29696],[64.5,-29.4135],[65,-29.52595],[65.5,-29.63432],[66,-29.73862],[66.5,-29.83888],[67,-29.93511],[67.5,-30.02732],[68,-30.11554],[68.5,-30.19978],[69,-30.28008],[69.5,-30.35644],[70,-30.4289],[70.5,-30.49748],[71,-30.56221],[71.5,-30.62311],[72,-30.68021],[72.5,-30.73354],[73,-30.78313],[73.5,-30.82901],[74,-30.8712],[74.5,-30.90974],[75,-30.94466],[75.5,-30.97599],[76,-31.00376],[76.5,-31.028],[77,-31.04874],[77.5,-31.06603],[78,-31.07988],[78.5,-31.09033],[79,-31.09742],[79.5,-31.10118],[80,-31.10164],[80.5,-31.09883],[81,-31.09278],[81.5,-31.08354],[82,-31.07114],[82.5,-31.0556],[83,-31.03696],[83.5,-31.01526],[84,-30.99052],[84.5,-30.96279],[85,-30.93209],[85.5,-30.89846],[86,-30.86193],[86.5,-30.82254],[87,-30.78033],[87.5,-30.73531],[88,-30.68753],[88.5,-30.63703],[89,-30.58383],[89.5,-30.52797],[90,-30.46948],[90.5,-30.4084],[91,-30.34476],[91.5,-30.2786],[92,-30.20994],[92.5,-30.13882],[93,-30.06528],[93.5,-29.98935],[94,-29.91107],[94.5,-29.83046],[95,-29.74756],[95.5,-29.6624],[96,-29.57502],[96.5,-29.48546],[97,-29.39374],[97.5,-29.2999],[98,-29.20397],[98.5,-29.10598],[99,-29.00598],[99.5,-28.90399],[100,-28.80005],[100.5,-28.69419],[101,-28.58644],[101.5,-28.47684],[102,-28.36542],[102.5,-28.25222],[103,-28.13726],[103.5,-28.02058],[104,-27.90221],[104.5,-27.78219],[105,-27.66054],[105.5,-27.53731],[106,-27.41252],[106.5,-27.28621],[107,-27.1584],[107.5,-27.02914],[108,-26.89845],[108.5,-26.76636],[109,-26.63291],[109.5,-26.49813],[110,-26.36204],[110.5,-26.22469],[111,-26.08609],[111.5,-25.94629],[112,-25.80531],[112.5,-25.66318],[113,-25.51994],[113.5,-25.37561],[114,-25.23022],[114.5,-25.0838],[115,-24.93638],[115.5,-24.788],[116,-24.63867],[116.5,-24.48843],[117,-24.33731],[117.5,-24.18533],[118,-24.03252],[118.5,-23.8789],[119,-23.72452],[119.5,-23.56938],[120,-23.41353],[120.5,-23.25697],[121,-23.09975],[121.5,-22.94189],[122,-22.7834],[122.5,-22.62433],[123,-22.46468],[123.5,-22.30448],[124,-22.14377],[124.5,-21.98256],[125,-21.82087],[125.5,-21.65873],[126,-21.49617],[126.5,-21.3332],[127,-21.16984],[127.5,-21.00612],[128,-20.84205],[128.5,-20.67767],[129,-20.51299],[129.5,-20.34802],[130,-20.1828],[130.5,-20.01733],[131,-19.85165],[131.5,-19.68576],[132,-19.51969],[132.5,-19.35345],[133,-19.18707],[133.5,-19.02056],[133.50669,-19.01829]]}},{"type":"Feature","id":"+12491106:south:0","properties":{"id":"+12491106","year":1249,"month":11,"day":6,"time_tdt":"07:41:11","type":"혼성일식","type_code":"H","saros":111,"gamma":-0.1817,"magnitude":1.00407,"greatest":{"lat":-28.67686,"lng":61.58685},"path_width_km":14.4,"duration":"00m24s","delta_t_seconds":596.7,"catalog_number":7740,"source":"NASA Five Millennium Canon of Solar Eclipses","source_url":"https://eclipse.gsfc.nasa.gov/SEsearch/SEsearchmap.php?Ecl=%2B12491106","boundary":"south","name":"1249-11-06 혼성일식"},"geometry":{"type":"LineString","coordinates":[[-0.2793,-1.07978],[0,-1.1708],[0.5,-1.33499],[1,-1.50081],[1.5,-1.66827],[2,-1.83738],[2.5,-2.00814],[3,-2.18057],[3.5,-2.35467],[4,-2.53046],[4.5,-2.70793],[5,-2.88711],[5.5,-3.068],[6,-3.25061],[6.5,-3.43494],[7,-3.621],[7.5,-3.8088],[8,-3.99836],[8.5,-4.18966],[9,-4.38272],[9.5,-4.57756],[10,-4.77416],[10.5,-4.97254],[11,-5.1727],[11.5,-5.37464],[12,-5.57837],[12.5,-5.7839],[13,-5.99122],[13.5,-6.20033],[14,-6.41124],[14.5,-6.62394],[15,-6.83844],[15.5,-7.05473],[16,-7.27281],[16.5,-7.49267],[17,-7.71432],[17.5,-7.93774],[18,-8.16293],[18.5,-8.38988],[19,-8.61858],[19.5,-8.84902],[20,-9.08118],[20.5,-9.31505],[21,-9.55063],[21.5,-9.78788],[22,-10.02679],[22.5,-10.26733],[23,-10.5095],[23.5,-10.75325],[24,-10.99857],[24.5,-11.24542],[25,-11.49377],[25.5,-11.74359],[26,-11.99484],[26.5,-12.24749],[27,-12.50149],[27.5,-12.7568],[28,-13.01337],[28.5,-13.27115],[29,-13.53009],[29.5,-13.79013],[30,-14.05123],[30.5,-14.3133],[31,-14.5763],[31.5,-14.84015],[32,-15.10478],[32.5,-15.37013],[33,-15.6361],[33.5,-15.90263],[34,-16.16963],[34.5,-16.43701],[35,-16.70469],[35.5,-16.97696],[36,-17.25068],[36.5,-17.52433],[37,-17.79781],[37.5,-18.071],[38,-18.34381],[38.5,-18.61612],[39,-18.88781],[39.5,-19.15877],[40,-19.42889],[40.5,-19.69804],[41,-19.96611],[41.5,-20.23297],[42,-20.49851],[42.5,-20.76261],[43,-21.02515],[43.5,-21.286],[44,-21.54504],[44.5,-21.80217],[45,-22.05725],[45.5,-22.31017],[46,-22.56083],[46.5,-22.8091],[47,-23.05488],[47.5,-23.29805],[48,-23.53852],[48.5,-23.77618],[49,-24.01093],[49.5,-24.24269],[50,-24.47132],[50.5,-24.69678],[51,-24.91897],[51.5,-25.1378],[52,-25.35321],[52.5,-25.56511],[53,-25.77343],[53.5,-25.97812],[54,-26.17911],[54.5,-26.37635],[55,-26.56977],[55.5,-26.75934],[56,-26.945],[56.5,-27.12672],[57,-27.30446],[57.5,-27.47818],[58,-27.64786],[58.5,-27.81347],[59,-27.97499],[59.5,-28.1324],[60,-28.28569],[60.5,-28.43484],[61,-28.57984],[61.5,-28.72068],[62,-28.85737],[62.5,-28.9899],[63,-29.11828],[63.5,-29.2425],[64,-29.36258],[64.5,-29.47852],[65,-29.59033],[65.5,-29.69803],[66,-29.80163],[66.5,-29.90114],[67,-29.99659],[67.5,-30.08799],[68,-30.17535],[68.5,-30.25872],[69,-30.33809],[69.5,-30.41351],[70,-30.48499],[70.5,-30.55256],[71,-30.61625],[71.5,-30.67608],[72,-30.73208],[72.5,-30.78428],[73,-30.83271],[73.5,-30.8774],[74,-30.91838],[74.5,-30.95567],[75,-30.98932],[75.5,-31.01935],[76,-31.04579],[76.5,-31.06867],[77,-31.08804],[77.5,-31.10391],[78,-31.11633],[78.5,-31.12532],[79,-31.13091],[79.5,-31.13315],[80,-31.13207],[80.5,-31.12769],[81,-31.12005],[81.5,-31.10918],[82,-31.09513],[82.5,-31.07791],[83,-31.05757],[83.5,-31.03414],[84,-31.00765],[84.5,-30.97813],[85,-30.94563],[85.5,-30.91016],[86,-30.87178],[86.5,-30.8305],[87,-30.78637],[87.5,-30.73942],[88,-30.68968],[88.5,-30.63719],[89,-30.58569],[89.5,-30.53186],[90,-30.47544],[90.5,-30.41645],[91,-30.35492],[91.5,-30.29089],[92,-30.2244],[92.5,-30.15547],[93,-30.08414],[93.5,-30.01044],[94,-29.93441],[94.5,-29.85608],[95,-29.77548],[95.5,-29.69265],[96,-29.60761],[96.5,-29.52042],[97,-29.43109],[97.5,-29.33966],[98,-29.24616],[98.5,-29.15063],[99,-29.0531],[99.5,-28.9536],[100,-28.85217],[100.5,-28.74884],[101,-28.64364],[101.5,-28.53661],[102,-28.42777],[102.5,-28.31716],[103,-28.20482],[103.5,-28.09078],[104,-27.97506],[104.5,-27.8577],[105,-27.73874],[105.5,-27.6182],[106,-27.49612],[106.5,-27.37253],[107,-27.24745],[107.5,-27.12094],[108,-26.993],[108.5,-26.86368],[109,-26.73301],[109.5,-26.60101],[110,-26.46772],[110.5,-26.33317],[111,-26.19739],[111.5,-26.06041],[112,-25.92226],[112.5,-25.78297],[113,-25.64257],[113.5,-25.50108],[114,-25.35855],[114.5,-25.21498],[115,-25.07043],[115.5,-24.9249],[116,-24.77844],[116.5,-24.63107],[117,-24.48281],[117.5,-24.3337],[118,-24.18376],[118.5,-24.03302],[119,-23.8815],[119.5,-23.72923],[120,-23.57624],[120.5,-23.42256],[121,-23.2682],[121.5,-23.11319],[122,-22.95756],[122.5,-22.80133],[123,-22.64453],[123.5,-22.48718],[124,-22.3293],[124.5,-22.17092],[125,-22.01206],[125.5,-21.85274],[126,-21.69298],[126.5,-21.53281],[127,-21.37225],[127.5,-21.21131],[128,-21.05003],[128.5,-20.88841],[129,-20.72649],[129.5,-20.56428],[130,-20.40179],[130.5,-20.23906],[131,-20.07609],[131.5,-19.91291],[132,-19.74954],[132.5,-19.58599],[133,-19.42228],[133.5,-19.25842]]}}],"attribution":"Eclipse Predictions by Fred Espenak and Jean Meeus (NASA's GSFC)","generated_at":"2026-09-23T03:35:44.967Z"}
