{"type":"FeatureCollection","year":125,"events":[{"id":"+01250421","year":125,"month":4,"day":21,"time_tdt":"10:04:01","type":"혼성일식","type_code":"H","saros":79,"gamma":0.47449,"magnitude":1.00627,"greatest":{"lat":36.33163,"lng":51.84882},"path_width_km":24.4,"duration":"00m32s","delta_t_seconds":9310.2,"catalog_number":5083,"source":"NASA Five Millennium Canon of Solar Eclipses","source_url":"https://eclipse.gsfc.nasa.gov/SEsearch/SEsearchmap.php?Ecl=%2B01250421"},{"id":"+01251014","year":125,"month":10,"day":14,"time_tdt":"14:08:53","type":"혼성일식","type_code":"H2","saros":84,"gamma":-0.45318,"magnitude":1.01528,"greatest":{"lat":-31.47589,"lng":-10.9436},"path_width_km":58.3,"duration":"01m16s","delta_t_seconds":9305.6,"catalog_number":5084,"source":"NASA Five Millennium Canon of Solar Eclipses","source_url":"https://eclipse.gsfc.nasa.gov/SEsearch/SEsearchmap.php?Ecl=%2B01251014"}],"features":[{"type":"Feature","id":"+01250421:north:0","properties":{"id":"+01250421","year":125,"month":4,"day":21,"time_tdt":"10:04:01","type":"혼성일식","type_code":"H","saros":79,"gamma":0.47449,"magnitude":1.00627,"greatest":{"lat":36.33163,"lng":51.84882},"path_width_km":24.4,"duration":"00m32s","delta_t_seconds":9310.2,"catalog_number":5083,"source":"NASA Five Millennium Canon of Solar Eclipses","source_url":"https://eclipse.gsfc.nasa.gov/SEsearch/SEsearchmap.php?Ecl=%2B01250421","boundary":"north","name":"125-04-21 혼성일식"},"geometry":{"type":"LineString","coordinates":[[1,1.89648],[1.5,1.99613],[2,2.09867],[2.5,2.20415],[3,2.3126],[3.5,2.42407],[4,2.53861],[4.5,2.65627],[5,2.77709],[5.5,2.90112],[6,3.02842],[6.5,3.15904],[7,3.29303],[7.5,3.43045],[8,3.57135],[8.5,3.71579],[9,3.86384],[9.5,4.01555],[10,4.17099],[10.5,4.33022],[11,4.49331],[11.5,4.66033],[12,4.83135],[12.5,5.00643],[13,5.18565],[13.5,5.3691],[14,5.55683],[14.5,5.74895],[15,5.94552],[15.5,6.14662],[16,6.35236],[16.5,6.56281],[17,6.77805],[17.5,6.9982],[18,7.22333],[18.5,7.45355],[19,7.68894],[19.5,7.92962],[20,8.17569],[20.5,8.42724],[21,8.68439],[21.5,8.94724],[22,9.2159],[22.5,9.49048],[23,9.7711],[23.5,10.05786],[24,10.35088],[24.5,10.65028],[25,10.95617],[25.5,11.26867],[26,11.58789],[26.5,11.91395],[27,12.24695],[27.5,12.58701],[28,12.94332],[28.5,13.30731],[29,13.67879],[29.5,14.05787],[30,14.44462],[30.5,14.83911],[31,15.24143],[31.5,15.6516],[32,16.06969],[32.5,16.49572],[33,16.92968],[33.5,17.37158],[34,17.82139],[34.5,18.27904],[35,18.74447],[35.5,19.21756],[36,19.69819],[36.5,20.18618],[37,20.68134],[37.5,21.18343],[38,21.69219],[38.5,22.2073],[39,22.72842],[39.5,23.25518],[40,23.78714],[40.5,24.32385],[41,24.86481],[41.5,25.40951],[42,25.95738],[42.5,26.50785],[43,27.0603],[43.5,27.61411],[44,28.16865],[44.5,28.72327],[45,29.27733],[45.5,29.83017],[46,30.38118],[46.5,30.92972],[47,31.47519],[47.5,32.01703],[48,32.55469],[48.5,33.08764],[49,33.6154],[49.5,34.13754],[50,34.65363],[50.5,35.16332],[51,35.66627],[51.5,36.1622],[52,36.65084],[52.5,37.13199],[53,37.60546],[53.5,38.0711],[54,38.52881],[54.5,38.97849],[55,39.42009],[55.5,39.85357],[56,40.27892],[56.5,40.69615],[57,41.1053],[57.5,41.5064],[58,41.89951],[58.5,42.28471],[59,42.66208],[59.5,43.03171],[60,43.39371],[60.5,43.74818],[61,44.09523],[61.5,44.43499],[62,44.76758],[62.5,45.09311],[63,45.41172],[63.5,45.72354],[64,46.02868],[64.5,46.32729],[65,46.61949],[65.5,46.9054],[66,47.18516],[66.5,47.45889],[67,47.72671],[67.5,47.98874],[68,48.24511],[68.5,48.49592],[69,48.74131],[69.5,48.98138],[70,49.21624],[70.5,49.446],[71,49.67076],[71.5,49.89064],[72,50.10573],[72.5,50.31613],[73,50.52193],[73.5,50.72323],[74,50.92013],[74.5,51.1127],[75,51.30104],[75.5,51.48523],[76,51.66535],[76.5,51.84148],[77,52.0137],[77.5,52.18209],[78,52.34671],[78.5,52.50764],[79,52.66494],[79.5,52.81869],[80,52.96895],[80.5,53.11578],[81,53.25924],[81.5,53.39939],[82,53.5363],[82.5,53.67001],[83,53.80058],[83.5,53.92807],[84,54.05252],[84.5,54.17399],[85,54.29252],[85.5,54.40816],[86,54.52097],[86.5,54.63097],[87,54.73822],[87.5,54.84275],[88,54.94461],[88.5,55.04384],[89,55.14047],[89.5,55.23454],[90,55.3261],[90.5,55.41516],[91,55.50178],[91.5,55.58597],[92,55.66778],[92.5,55.74723],[93,55.82435],[93.5,55.89918],[94,55.97173],[94.5,56.04205],[95,56.11016],[95.5,56.17607],[96,56.23982],[96.5,56.30144],[97,56.36094],[97.5,56.41835],[98,56.47369],[98.5,56.52698],[99,56.57825],[99.5,56.62751],[100,56.67479],[100.5,56.7201],[101,56.76346],[101.5,56.80489],[102,56.84441],[102.5,56.88362],[103,56.92209],[103.5,56.95869],[104,56.99345],[104.5,57.02639],[105,57.0575],[105.5,57.08682],[106,57.11435],[106.5,57.1401],[107,57.1641],[107.5,57.18634],[108,57.20685],[108.5,57.22564],[109,57.24272],[109.5,57.2581],[110,57.27178],[110.5,57.28379],[111,57.29413],[111.5,57.3028],[112,57.30983],[112.5,57.31522],[113,57.31897],[113.5,57.3211],[114,57.32161],[114.5,57.32052],[115,57.31782],[115.5,57.31353],[116,57.30766],[116.5,57.3002],[117,57.29118],[117.5,57.28058],[118,57.26843],[118.5,57.25472],[119,57.23946],[119.5,57.22265],[120,57.20431],[120.5,57.18443],[121,57.16303],[121.5,57.14009],[122,57.11564],[122.5,57.08967],[123,57.06219],[123.5,57.0332],[124,57.00271],[124.5,56.97071],[125,56.93722],[125.5,56.90223],[126,56.86575],[126.5,56.82778],[127,56.78832],[127.5,56.74738],[128,56.70496],[128.5,56.66106],[129,56.61569],[129.5,56.56884],[130,56.52052],[130.5,56.47073],[131,56.41948],[131.5,56.36675],[132,56.31257],[132.5,56.25692],[133,56.19981],[133.5,56.14124],[134,56.08122],[134.5,56.01974],[135,55.95681],[135.5,55.89243],[136,55.82659],[136.5,55.75931],[137,55.69058],[137.5,55.62041],[138,55.54879],[138.5,55.47573],[139,55.40122],[139.5,55.32528],[140,55.2479],[140.5,55.16909],[141,55.08884],[141.5,55.00715],[142,54.92404],[142.5,54.83949],[143,54.75352],[143.5,54.66613],[144,54.57731],[144.5,54.48707],[145,54.39541],[145.5,54.30233],[146,54.20784],[146.5,54.11194],[147,54.01463],[147.5,53.91591],[148,53.81579],[148.5,53.71427]]}},{"type":"Feature","id":"+01250421:center:0","properties":{"id":"+01250421","year":125,"month":4,"day":21,"time_tdt":"10:04:01","type":"혼성일식","type_code":"H","saros":79,"gamma":0.47449,"magnitude":1.00627,"greatest":{"lat":36.33163,"lng":51.84882},"path_width_km":24.4,"duration":"00m32s","delta_t_seconds":9310.2,"catalog_number":5083,"source":"NASA Five Millennium Canon of Solar Eclipses","source_url":"https://eclipse.gsfc.nasa.gov/SEsearch/SEsearchmap.php?Ecl=%2B01250421","boundary":"center","name":"125-04-21 혼성일식"},"geometry":{"type":"LineString","coordinates":[[1.03553,1.73438],[1.5,1.82318],[2,1.92819],[2.5,2.03615],[3,2.1471],[3.5,2.26111],[4,2.3782],[4.5,2.49843],[5,2.62185],[5.5,2.7485],[6,2.87845],[6.5,3.01174],[7,3.14843],[7.5,3.28858],[8,3.43224],[8.5,3.57946],[9,3.73032],[9.5,3.88488],[10,4.04319],[10.5,4.20532],[11,4.37135],[11.5,4.54134],[12,4.71535],[12.5,4.89347],[13,5.07577],[13.5,5.26233],[14,5.45321],[14.5,5.64851],[15,5.84831],[15.5,6.05268],[16,6.26173],[16.5,6.47553],[17,6.69417],[17.5,6.91776],[18,7.14638],[18.5,7.38014],[19,7.61912],[19.5,7.86344],[20,8.11319],[20.5,8.36849],[21,8.62943],[21.5,8.89613],[22,9.1687],[22.5,9.44725],[23,9.73189],[23.5,10.02274],[24,10.31991],[24.5,10.62352],[25,10.93369],[25.5,11.25053],[26,11.57415],[26.5,11.90467],[27,12.24221],[27.5,12.58687],[28,12.93876],[28.5,13.29798],[29,13.66463],[29.5,14.03881],[30,14.4206],[30.5,14.81008],[31,15.20731],[31.5,15.61236],[32,16.02526],[32.5,16.44605],[33,16.87474],[33.5,17.31133],[34,17.7558],[34.5,18.2081],[35,18.66816],[35.5,19.13589],[36,19.61115],[36.5,20.09381],[37,20.58367],[37.5,21.08052],[38,21.5841],[38.5,22.09411],[39,22.61023],[39.5,23.1321],[40,23.65932],[40.5,24.19143],[41,24.72797],[41.5,25.26843],[42,25.81226],[42.5,26.35891],[43,26.90778],[43.5,27.45826],[44,28.00972],[44.5,28.56152],[45,29.11304],[45.5,29.66363],[46,30.21266],[46.5,30.75951],[47,31.30358],[47.5,31.84429],[48,32.38108],[48.5,32.91343],[49,33.44085],[49.5,33.96289],[50,34.47912],[50.5,34.98916],[51,35.49267],[51.5,35.98935],[52,36.47892],[52.5,36.96116],[53,37.43588],[53.5,37.9029],[54,38.36212],[54.5,38.81342],[55,39.25673],[55.5,39.69202],[56,40.11925],[56.5,40.53844],[57,40.94959],[57.5,41.35275],[58,41.74796],[58.5,42.1353],[59,42.51483],[59.5,42.88665],[60,43.25085],[60.5,43.60754],[61,43.95682],[61.5,44.2988],[62,44.63361],[62.5,44.96137],[63,45.2822],[63.5,45.59623],[64,45.90357],[64.5,46.20437],[65,46.49874],[65.5,46.78681],[66,47.06871],[66.5,47.34457],[67,47.61449],[67.5,47.87862],[68,48.13705],[68.5,48.38992],[69,48.63734],[69.5,48.87942],[70,49.11627],[70.5,49.34801],[71,49.57473],[71.5,49.79653],[72,50.01354],[72.5,50.22583],[73,50.4335],[73.5,50.63666],[74,50.83539],[74.5,51.02978],[75,51.21992],[75.5,51.40589],[76,51.58778],[76.5,51.76565],[77,51.93961],[77.5,52.1097],[78,52.27602],[78.5,52.43863],[79,52.5976],[79.5,52.753],[80,52.9049],[80.5,53.05335],[81,53.19842],[81.5,53.34017],[82,53.47866],[82.5,53.61395],[83,53.74608],[83.5,53.87511],[84,54.0011],[84.5,54.1241],[85,54.24415],[85.5,54.3613],[86,54.47559],[86.5,54.58708],[87,54.69581],[87.5,54.80181],[88,54.90514],[88.5,55.00582],[89,55.1039],[89.5,55.19941],[90,55.29239],[90.5,55.38289],[91,55.47092],[91.5,55.55653],[92,55.63974],[92.5,55.72059],[93,55.79911],[93.5,55.87533],[94,55.94928],[94.5,56.02099],[95,56.09047],[95.5,56.15776],[96,56.22289],[96.5,56.28588],[97,56.34675],[97.5,56.40553],[98,56.46223],[98.5,56.51689],[99,56.56952],[99.5,56.62015],[100,56.66878],[100.5,56.71545],[101,56.76017],[101.5,56.80296],[102,56.84384],[102.5,56.88283],[103,56.91993],[103.5,56.95517],[104,56.98857],[104.5,57.02013],[105,57.04988],[105.5,57.07783],[106,57.10399],[106.5,57.12837],[107,57.15099],[107.5,57.17186],[108,57.19099],[108.5,57.20839],[109,57.22408],[109.5,57.23807],[110,57.25036],[110.5,57.26097],[111,57.26991],[111.5,57.27718],[112,57.28279],[112.5,57.28677],[113,57.2891],[113.5,57.2898],[114,57.28889],[114.5,57.28636],[115,57.28222],[115.5,57.27649],[116,57.26916],[116.5,57.26025],[117,57.24975],[117.5,57.23769],[118,57.22406],[118.5,57.20886],[119,57.19211],[119.5,57.1738],[120,57.15396],[120.5,57.13256],[121,57.10964],[121.5,57.08517],[122,57.05918],[122.5,57.03167],[123,57.00263],[123.5,56.97208],[124,56.94002],[124.5,56.90644],[125,56.87136],[125.5,56.83477],[126,56.79668],[126.5,56.75709],[127,56.71601],[127.5,56.67343],[128,56.62937],[128.5,56.58381],[129,56.53677],[129.5,56.48825],[130,56.43824],[130.5,56.38675],[131,56.33379],[131.5,56.27935],[132,56.22343],[132.5,56.16604],[133,56.10719],[133.5,56.04686],[134,55.98506],[134.5,55.9218],[135,55.85707],[135.5,55.79088],[136,55.72323],[136.5,55.65412],[137,55.58355],[137.5,55.51153],[138,55.43804],[138.5,55.36311],[139,55.28672],[139.5,55.20888],[140,55.12959],[140.5,55.04885],[141,54.96667],[141.5,54.88304],[142,54.79797],[142.5,54.71146],[143,54.62351],[143.5,54.53412],[144,54.4433],[144.5,54.35105],[145,54.25737],[145.5,54.16226],[146,54.06572],[146.5,53.96776],[147,53.86838],[147.5,53.76758],[148,53.66537],[148.5,53.56175],[148.66995,53.61034]]}},{"type":"Feature","id":"+01250421:south:0","properties":{"id":"+01250421","year":125,"month":4,"day":21,"time_tdt":"10:04:01","type":"혼성일식","type_code":"H","saros":79,"gamma":0.47449,"magnitude":1.00627,"greatest":{"lat":36.33163,"lng":51.84882},"path_width_km":24.4,"duration":"00m32s","delta_t_seconds":9310.2,"catalog_number":5083,"source":"NASA Five Millennium Canon of Solar Eclipses","source_url":"https://eclipse.gsfc.nasa.gov/SEsearch/SEsearchmap.php?Ecl=%2B01250421","boundary":"south","name":"125-04-21 혼성일식"},"geometry":{"type":"LineString","coordinates":[[1.11719,1.56942],[1.5,1.64971],[2,1.75718],[2.5,1.86762],[3,1.98109],[3.5,2.09762],[4,2.21726],[4.5,2.34006],[5,2.46608],[5.5,2.59536],[6,2.72796],[6.5,2.86392],[7,3.00331],[7.5,3.14619],[8,3.2926],[8.5,3.44261],[9,3.59628],[9.5,3.75368],[10,3.91487],[10.5,4.07991],[11,4.24888],[11.5,4.42184],[12,4.59886],[12.5,4.78002],[13,4.9654],[13.5,5.15507],[14,5.34911],[14.5,5.54761],[15,5.75064],[15.5,5.95829],[16,6.17065],[16.5,6.38781],[17,6.60987],[17.5,6.83691],[18,7.06903],[18.5,7.30633],[19,7.54892],[19.5,7.79689],[20,8.05035],[20.5,8.3094],[21,8.57415],[21.5,8.84472],[22,9.12122],[22.5,9.40376],[23,9.69244],[23.5,9.9874],[24,10.28875],[24.5,10.59659],[25,10.91106],[25.5,11.23226],[26,11.56031],[26.5,11.89534],[27,12.23744],[27.5,12.58673],[28,12.93423],[28.5,13.28872],[29,13.65057],[29.5,14.01989],[30,14.39676],[30.5,14.78125],[31,15.17344],[31.5,15.57338],[32,15.98114],[32.5,16.39673],[33,16.82019],[33.5,17.25151],[34,17.69067],[34.5,18.13765],[35,18.59237],[35.5,19.05476],[36,19.5247],[36.5,20.00205],[37,20.48664],[37.5,20.97825],[38,21.47666],[38.5,21.98159],[39,22.49272],[39.5,23.0097],[40,23.53216],[40.5,24.05966],[41,24.59175],[41.5,25.12794],[42,25.66771],[42.5,26.2105],[43,26.75574],[43.5,27.30283],[44,27.85116],[44.5,28.4001],[45,28.94902],[45.5,29.49729],[46,30.04427],[46.5,30.58936],[47,31.13195],[47.5,31.67145],[48,32.20731],[48.5,32.739],[49,33.26601],[49.5,33.78788],[50,34.30417],[50.5,34.81451],[51,35.31852],[51.5,35.81589],[52,36.30634],[52.5,36.78963],[53,37.26555],[53.5,37.73393],[54,38.19461],[54.5,38.6475],[55,39.09251],[55.5,39.52958],[56,39.95868],[56.5,40.3798],[57,40.79295],[57.5,41.19816],[58,41.59547],[58.5,41.98494],[59,42.36664],[59.5,42.74065],[60,43.10705],[60.5,43.46596],[61,43.81747],[61.5,44.16169],[62,44.49873],[62.5,44.82873],[63,45.15178],[63.5,45.46803],[64,45.77759],[64.5,46.08059],[65,46.37715],[65.5,46.66739],[66,46.95145],[66.5,47.22945],[67,47.5015],[67.5,47.76773],[68,48.02825],[68.5,48.28319],[69,48.53266],[69.5,48.77676],[70,49.01562],[70.5,49.24934],[71,49.47803],[71.5,49.70179],[72,49.92072],[72.5,50.13492],[73,50.34449],[73.5,50.54951],[74,50.7501],[74.5,50.94632],[75,51.13827],[75.5,51.32604],[76,51.5097],[76.5,51.68934],[77,51.86504],[77.5,52.03686],[78,52.20489],[78.5,52.3692],[79,52.52985],[79.5,52.68692],[80,52.84046],[80.5,52.99055],[81,53.13725],[81.5,53.28061],[82,53.42069],[82.5,53.55756],[83,53.69127],[83.5,53.82186],[84,53.9494],[84.5,54.07393],[85,54.19551],[85.5,54.31418],[86,54.42998],[86.5,54.54297],[87,54.65318],[87.5,54.76067],[88,54.86546],[88.5,54.96761],[89,55.06714],[89.5,55.1641],[90,55.25853],[90.5,55.35045],[91,55.43992],[91.5,55.52695],[92,55.61158],[92.5,55.69384],[93,55.77377],[93.5,55.85139],[94,55.92674],[94.5,55.99983],[95,56.0707],[95.5,56.13938],[96,56.20589],[96.5,56.27026],[97,56.33251],[97.5,56.39266],[98,56.45073],[98.5,56.50676],[99,56.56076],[99.5,56.61275],[100,56.66275],[100.5,56.71079],[101,56.75687],[101.5,56.80103],[102,56.84327],[102.5,56.88204],[103,56.91778],[103.5,56.95167],[104,56.9837],[104.5,57.0139],[105,57.04228],[105.5,57.06886],[106,57.09365],[106.5,57.11666],[107,57.13791],[107.5,57.1574],[108,57.17515],[108.5,57.19118],[109,57.20548],[109.5,57.21808],[110,57.22898],[110.5,57.23819],[111,57.24573],[111.5,57.25159],[112,57.2558],[112.5,57.25836],[113,57.25927],[113.5,57.25855],[114,57.25621],[114.5,57.25224],[115,57.24666],[115.5,57.23948],[116,57.2307],[116.5,57.22033],[117,57.20837],[117.5,57.19483],[118,57.17972],[118.5,57.16303],[119,57.14479],[119.5,57.12498],[120,57.10362],[120.5,57.08071],[121,57.05626],[121.5,57.03026],[122,57.00273],[122.5,56.97367],[123,56.94307],[123.5,56.91095],[124,56.87731],[124.5,56.84215],[125,56.80547],[125.5,56.76728],[126,56.72757],[126.5,56.68636],[127,56.64365],[127.5,56.59943],[128,56.55371],[128.5,56.50649],[129,56.45777],[129.5,56.40756],[130,56.35586],[130.5,56.30267],[131,56.24799],[131.5,56.19182],[132,56.13417],[132.5,56.07503],[133,56.01441],[133.5,55.95231],[134,55.88874],[134.5,55.82368],[135,55.75715],[135.5,55.68914],[136,55.61966],[136.5,55.54871],[137,55.47629],[137.5,55.4024],[138,55.32704],[138.5,55.25022],[139,55.17193],[139.5,55.09218],[140,55.01097],[140.5,54.9283],[141,54.84417],[141.5,54.75859],[142,54.67155],[142.5,54.58306],[143,54.49312],[143.5,54.40173],[144,54.30889],[144.5,54.21461],[145,54.11889],[145.5,54.02173],[146,53.92313],[146.5,53.8231],[147,53.72163],[147.5,53.61874],[148,53.51443],[148.5,53.40869],[148.56055,53.39579]]}},{"type":"Feature","id":"+01251014:north:0","properties":{"id":"+01251014","year":125,"month":10,"day":14,"time_tdt":"14:08:53","type":"혼성일식","type_code":"H2","saros":84,"gamma":-0.45318,"magnitude":1.01528,"greatest":{"lat":-31.47589,"lng":-10.9436},"path_width_km":58.3,"duration":"01m16s","delta_t_seconds":9305.6,"catalog_number":5084,"source":"NASA Five Millennium Canon of Solar Eclipses","source_url":"https://eclipse.gsfc.nasa.gov/SEsearch/SEsearchmap.php?Ecl=%2B01251014","boundary":"north","name":"125-10-14 혼성일식"},"geometry":{"type":"LineString","coordinates":[[-62.5,1.12891],[-62,1.0602],[-61.5,0.98877],[-61,0.91457],[-60.5,0.83756],[-60,0.7577],[-59.5,0.67496],[-59,0.58928],[-58.5,0.50063],[-58,0.40895],[-57.5,0.31421],[-57,0.21635],[-56.5,0.11533],[-56,0.0111],[-55.5,-0.09639],[-55,-0.20721],[-54.5,-0.32139],[-54,-0.439],[-53.5,-0.56009],[-53,-0.68472],[-52.5,-0.81295],[-52,-0.94485],[-51.5,-1.08046],[-51,-1.21987],[-50.5,-1.36313],[-50,-1.51032],[-49.5,-1.6615],[-49,-1.81674],[-48.5,-1.97613],[-48,-2.13973],[-47.5,-2.30763],[-47,-2.47989],[-46.5,-2.65662],[-46,-2.83788],[-45.5,-3.02377],[-45,-3.21437],[-44.5,-3.40978],[-44,-3.61009],[-43.5,-3.81539],[-43,-4.02579],[-42.5,-4.24137],[-42,-4.46225],[-41.5,-4.68853],[-41,-4.92032],[-40.5,-5.15772],[-40,-5.40085],[-39.5,-5.64983],[-39,-5.90476],[-38.5,-6.16577],[-38,-6.43297],[-37.5,-6.70649],[-37,-6.98645],[-36.5,-7.27298],[-36,-7.56619],[-35.5,-7.86622],[-35,-8.17319],[-34.5,-8.48724],[-34,-8.80847],[-33.5,-9.13703],[-33,-9.47302],[-32.5,-9.81658],[-32,-10.16781],[-31.5,-10.52683],[-31,-10.89376],[-30.5,-11.26868],[-30,-11.65169],[-29.5,-12.04288],[-29,-12.44232],[-28.5,-12.85007],[-28,-13.26618],[-27.5,-13.69069],[-27,-14.12361],[-26.5,-14.56492],[-26,-15.01462],[-25.5,-15.47265],[-25,-15.93892],[-24.5,-16.41334],[-24,-16.89577],[-23.5,-17.38604],[-23,-17.88396],[-22.5,-18.38927],[-22,-18.9017],[-21.5,-19.42094],[-21,-19.94664],[-20.5,-20.47838],[-20,-21.01576],[-19.5,-21.55828],[-19,-22.10545],[-18.5,-22.65672],[-18,-23.21152],[-17.5,-23.76925],[-17,-24.32929],[-16.5,-24.891],[-16,-25.45373],[-15.5,-26.01681],[-15,-26.57959],[-14.5,-27.1414],[-14,-27.70161],[-13.5,-28.25959],[-13,-28.81471],[-12.5,-29.3664],[-12,-29.9141],[-11.5,-30.45728],[-11,-30.99546],[-10.5,-31.52819],[-10,-32.05504],[-9.5,-32.57565],[-9,-33.08968],[-8.5,-33.59683],[-8,-34.09685],[-7.5,-34.58951],[-7,-35.07463],[-6.5,-35.55205],[-6,-36.02166],[-5.5,-36.48336],[-5,-36.93709],[-4.5,-37.3828],[-4,-37.82049],[-3.5,-38.25015],[-3,-38.67181],[-2.5,-39.0855],[-2,-39.49128],[-1.5,-39.88922],[-1,-40.27939],[-0.5,-40.66187],[0,-41.03677],[0.5,-41.40419],[1,-41.76423],[1.5,-42.117],[2,-42.46263],[2.5,-42.80123],[3,-43.13292],[3.5,-43.45783],[4,-43.77608],[4.5,-44.08779],[5,-44.3931],[5.5,-44.69211],[6,-44.98496],[6.5,-45.27177],[7,-45.55266],[7.5,-45.82774],[8,-46.09714],[8.5,-46.36097],[9,-46.61933],[9.5,-46.87236],[10,-47.12014],[10.5,-47.3628],[11,-47.60043],[11.5,-47.83313],[12,-48.06101],[12.5,-48.28417],[13,-48.50269],[13.5,-48.71667],[14,-48.9262],[14.5,-49.13137],[15,-49.33226],[15.5,-49.52896],[16,-49.72156],[16.5,-49.91012],[17,-50.09472],[17.5,-50.27545],[18,-50.45237],[18.5,-50.62555],[19,-50.79507],[19.5,-50.96098],[20,-51.12337],[20.5,-51.28228],[21,-51.43778],[21.5,-51.58993],[22,-51.7388],[22.5,-51.88442],[23,-52.02687],[23.5,-52.1662],[24,-52.30245],[24.5,-52.43568],[25,-52.56593],[25.5,-52.69326],[26,-52.81771],[26.5,-52.93932],[27,-53.05815],[27.5,-53.17423],[28,-53.2876],[28.5,-53.39831],[29,-53.50639],[29.5,-53.61189],[30,-53.71483],[30.5,-53.81526],[31,-53.91321],[31.5,-54.00871],[32,-54.10181],[32.5,-54.19252],[33,-54.28089],[33.5,-54.36693],[34,-54.45069],[34.5,-54.53219],[35,-54.61146],[35.5,-54.68852],[36,-54.76341],[36.5,-54.83615],[37,-54.90675],[37.5,-54.97526],[38,-55.04169],[38.5,-55.10606],[39,-55.16839],[39.5,-55.22872],[40,-55.28706],[40.5,-55.34342],[41,-55.39784],[41.5,-55.45032],[42,-55.50089],[42.5,-55.54957],[43,-55.59638],[43.5,-55.64132],[44,-55.68443],[44.5,-55.72571],[45,-55.76518],[45.5,-55.80285],[46,-55.83875],[46.5,-55.87288],[47,-55.90526],[47.5,-55.93591],[48,-55.96483],[48.5,-55.99204],[49,-56.01755],[49.5,-56.04138],[50,-56.06353],[50.5,-56.08402],[51,-56.10286],[51.5,-56.12006],[52,-56.13562],[52.5,-56.14957],[53,-56.1619],[53.5,-56.17264],[54,-56.18178],[54.5,-56.18934],[55,-56.19533],[55.5,-56.19974],[56,-56.2026],[56.5,-56.20391],[57,-56.20368],[57.5,-56.20191],[58,-56.19861],[58.5,-56.1938],[59,-56.18746],[59.5,-56.17962],[60,-56.17028],[60.5,-56.15943],[61,-56.1471],[61.5,-56.13328],[62,-56.11799],[62.5,-56.10121],[63,-56.08297],[63.5,-56.06326],[64,-56.0421],[64.5,-56.01947],[65,-55.9954],[65.5,-55.96988],[66,-55.94291],[66.5,-55.91451],[67,-55.88467],[67.5,-55.85339],[68,-55.82069],[68.5,-55.78656],[69,-55.75102],[69.5,-55.71405],[70,-55.67566],[70.5,-55.63587],[71,-55.59466],[71.5,-55.55205],[72,-55.50803],[72.5,-55.46261],[73,-55.41578],[73.5,-55.36757],[74,-55.31795],[74.5,-55.26695],[75,-55.21455],[75.5,-55.16076],[76,-55.10559],[76.5,-55.04901],[77,-54.98777],[77.5,-54.92514],[78,-54.86111],[78.5,-54.7957],[79,-54.7289],[79.5,-54.66071],[80,-54.59114],[80.5,-54.52019],[81,-54.44785],[81.07031,-54.43757]]}},{"type":"Feature","id":"+01251014:center:0","properties":{"id":"+01251014","year":125,"month":10,"day":14,"time_tdt":"14:08:53","type":"혼성일식","type_code":"H2","saros":84,"gamma":-0.45318,"magnitude":1.01528,"greatest":{"lat":-31.47589,"lng":-10.9436},"path_width_km":58.3,"duration":"01m16s","delta_t_seconds":9305.6,"catalog_number":5084,"source":"NASA Five Millennium Canon of Solar Eclipses","source_url":"https://eclipse.gsfc.nasa.gov/SEsearch/SEsearchmap.php?Ecl=%2B01251014","boundary":"center","name":"125-10-14 혼성일식"},"geometry":{"type":"LineString","coordinates":[[-62.5267,1.12185],[-62.5,1.12045],[-62,1.04893],[-61.5,0.97466],[-61,0.89759],[-60.5,0.81769],[-60,0.73492],[-59.5,0.64923],[-59,0.56058],[-58.5,0.46892],[-58,0.37421],[-57.5,0.27641],[-57,0.17546],[-56.5,0.07132],[-56,-0.03607],[-55.5,-0.14675],[-55,-0.26079],[-54.5,-0.37823],[-54,-0.49913],[-53.5,-0.62355],[-53,-0.75155],[-52.5,-0.88319],[-52,-1.01853],[-51.5,-1.15763],[-51,-1.30057],[-50.5,-1.4474],[-50,-1.5982],[-49.5,-1.75304],[-49,-1.912],[-48.5,-2.07514],[-48,-2.24254],[-47.5,-2.41429],[-47,-2.59046],[-46.5,-2.77114],[-46,-2.95642],[-45.5,-3.14638],[-45,-3.34111],[-44.5,-3.5407],[-44,-3.74525],[-43.5,-3.95486],[-43,-4.16962],[-42.5,-4.38964],[-42,-4.61502],[-41.5,-4.84587],[-41,-5.08229],[-40.5,-5.32441],[-40,-5.57232],[-39.5,-5.82615],[-39,-6.08601],[-38.5,-6.35202],[-38,-6.62431],[-37.5,-6.90299],[-37,-7.1882],[-36.5,-7.48004],[-36,-7.77867],[-35.5,-8.08418],[-35,-8.39673],[-34.5,-8.71642],[-34,-9.04339],[-33.5,-9.37776],[-33,-9.71965],[-32.5,-10.06918],[-32,-10.42646],[-31.5,-10.79161],[-31,-11.16472],[-30.5,-11.5459],[-30,-11.93523],[-29.5,-12.33279],[-29,-12.73865],[-28.5,-13.15286],[-28,-13.57546],[-27.5,-14.00647],[-27,-14.4459],[-26.5,-14.89372],[-26,-15.34991],[-25.5,-15.81438],[-25,-16.28705],[-24.5,-16.76779],[-24,-17.25645],[-23.5,-17.75283],[-23,-18.25672],[-22.5,-18.76784],[-22,-19.28589],[-21.5,-19.81054],[-21,-20.34139],[-20.5,-20.87804],[-20,-21.42002],[-19.5,-21.96683],[-19,-22.51794],[-18.5,-23.0728],[-18,-23.6308],[-17.5,-24.19134],[-17,-24.75377],[-16.5,-25.31744],[-16,-25.8817],[-15.5,-26.44588],[-15,-27.00932],[-14.5,-27.57136],[-14,-28.13137],[-13.5,-28.68873],[-13,-29.24284],[-12.5,-29.79312],[-12,-30.33905],[-11.5,-30.88011],[-11,-31.41584],[-10.5,-31.94581],[-10,-32.46964],[-9.5,-32.98696],[-9,-33.49748],[-8.5,-34.00091],[-8,-34.49702],[-7.5,-34.98562],[-7,-35.46654],[-6.5,-35.93965],[-6,-36.40484],[-5.5,-36.86205],[-5,-37.31122],[-4.5,-37.75233],[-4,-38.18538],[-3.5,-38.61038],[-3,-39.02737],[-2.5,-39.4364],[-2,-39.83753],[-1.5,-40.23083],[-1,-40.61639],[-0.5,-40.9943],[0,-41.36467],[0.5,-41.72759],[1,-42.08318],[1.5,-42.43157],[2,-42.77285],[2.5,-43.10717],[3,-43.43464],[3.5,-43.75538],[4,-44.06953],[4.5,-44.3772],[5,-44.67852],[5.5,-44.97361],[6,-45.26261],[6.5,-45.54562],[7,-45.82277],[7.5,-46.09418],[8,-46.35997],[8.5,-46.62024],[9,-46.87511],[9.5,-47.1247],[10,-47.36911],[10.5,-47.60844],[11,-47.8428],[11.5,-48.07229],[12,-48.29701],[12.5,-48.51705],[13,-48.73251],[13.5,-48.94348],[14,-49.15005],[14.5,-49.3523],[15,-49.55033],[15.5,-49.7442],[16,-49.93401],[16.5,-50.11983],[17,-50.30174],[17.5,-50.47981],[18,-50.65411],[18.5,-50.82472],[19,-50.99169],[19.5,-51.1551],[20,-51.31502],[20.5,-51.47149],[21,-51.62459],[21.5,-51.77438],[22,-51.9209],[22.5,-52.06422],[23,-52.20439],[23.5,-52.34147],[24,-52.4755],[24.5,-52.60653],[25,-52.73462],[25.5,-52.85981],[26,-52.98215],[26.5,-53.10167],[27,-53.21843],[27.5,-53.33247],[28,-53.44382],[28.5,-53.55253],[29,-53.65863],[29.5,-53.76217],[30,-53.86317],[30.5,-53.96168],[31,-54.05773],[31.5,-54.15136],[32,-54.24259],[32.5,-54.33145],[33,-54.41799],[33.5,-54.50222],[34,-54.58418],[34.5,-54.66389],[35,-54.74139],[35.5,-54.8167],[36,-54.88984],[36.5,-54.96085],[37,-55.02974],[37.5,-55.09654],[38,-55.16127],[38.5,-55.22396],[39,-55.28463],[39.5,-55.3433],[40,-55.39998],[40.5,-55.45471],[41,-55.50749],[41.5,-55.55835],[42,-55.60731],[42.5,-55.65439],[43,-55.6996],[43.5,-55.74295],[44,-55.78447],[44.5,-55.82418],[45,-55.86208],[45.5,-55.89819],[46,-55.93253],[46.5,-55.96511],[47,-55.99595],[47.5,-56.02505],[48,-56.05243],[48.5,-56.07811],[49,-56.1021],[49.5,-56.1244],[50,-56.14503],[50.5,-56.16401],[51,-56.18133],[51.5,-56.19702],[52,-56.21107],[52.5,-56.22351],[53,-56.23434],[53.5,-56.24358],[54,-56.25122],[54.5,-56.25728],[55,-56.26176],[55.5,-56.26468],[56,-56.26604],[56.5,-56.26585],[57,-56.26412],[57.5,-56.26086],[58,-56.25606],[58.5,-56.24974],[59,-56.24191],[59.5,-56.23257],[60,-56.22172],[60.5,-56.20937],[61,-56.19554],[61.5,-56.18021],[62,-56.16341],[62.5,-56.14512],[63,-56.12537],[63.5,-56.10414],[64,-56.08146],[64.5,-56.05731],[65,-56.03171],[65.5,-56.00466],[66,-55.97616],[66.5,-55.94622],[67,-55.91484],[67.5,-55.88202],[68,-55.84777],[68.5,-55.81209],[69,-55.77499],[69.5,-55.73646],[70,-55.69651],[70.5,-55.65514],[71,-55.61236],[71.5,-55.56816],[72,-55.52255],[72.5,-55.47554],[73,-55.42712],[73.5,-55.3773],[74,-55.32608],[74.5,-55.27345],[75,-55.21944],[75.5,-55.16402],[76,-55.10722],[76.5,-55.04902],[77,-54.98944],[77.5,-54.92846],[78,-54.86611],[78.5,-54.80237],[79,-54.73725],[79.5,-54.67075],[80,-54.60287],[80.5,-54.53361],[81,-54.46299],[81.06336,-54.55585]]}},{"type":"Feature","id":"+01251014:south:0","properties":{"id":"+01251014","year":125,"month":10,"day":14,"time_tdt":"14:08:53","type":"혼성일식","type_code":"H2","saros":84,"gamma":-0.45318,"magnitude":1.01528,"greatest":{"lat":-31.47589,"lng":-10.9436},"path_width_km":58.3,"duration":"01m16s","delta_t_seconds":9305.6,"catalog_number":5084,"source":"NASA Five Millennium Canon of Solar Eclipses","source_url":"https://eclipse.gsfc.nasa.gov/SEsearch/SEsearchmap.php?Ecl=%2B01251014","boundary":"south","name":"125-10-14 혼성일식"},"geometry":{"type":"LineString","coordinates":[[-62.52734,1.11595],[-62.5,1.11196],[-62,1.03762],[-61.5,0.96049],[-61,0.88055],[-60.5,0.79775],[-60,0.71204],[-59.5,0.62339],[-59,0.53175],[-58.5,0.43708],[-58,0.33933],[-57.5,0.23844],[-57,0.13439],[-56.5,0.0271],[-56,-0.08346],[-55.5,-0.19735],[-55,-0.31463],[-54.5,-0.43535],[-54,-0.55956],[-53.5,-0.68734],[-53,-0.81873],[-52.5,-0.95379],[-52,-1.0926],[-51.5,-1.23522],[-51,-1.3817],[-50.5,-1.53214],[-50,-1.68658],[-49.5,-1.84511],[-49,-2.0078],[-48.5,-2.17472],[-48,-2.34596],[-47.5,-2.5216],[-47,-2.70171],[-46.5,-2.88638],[-46,-3.0757],[-45.5,-3.26977],[-45,-3.46866],[-44.5,-3.67248],[-44,-3.88131],[-43.5,-4.09527],[-43,-4.31444],[-42.5,-4.53894],[-42,-4.76887],[-41.5,-5.00433],[-41,-5.24544],[-40.5,-5.49231],[-40,-5.74506],[-39.5,-6.0038],[-39,-6.26864],[-38.5,-6.53972],[-38,-6.81715],[-37.5,-7.10105],[-37,-7.39156],[-36.5,-7.68879],[-36,-7.99288],[-35.5,-8.30395],[-35,-8.62213],[-34.5,-8.94754],[-34,-9.28031],[-33.5,-9.62056],[-33,-9.96841],[-32.5,-10.32397],[-32,-10.68737],[-31.5,-11.0587],[-31,-11.43807],[-30.5,-11.82556],[-30,-12.22127],[-29.5,-12.62525],[-29,-13.03758],[-28.5,-13.4583],[-28,-13.88742],[-27.5,-14.32498],[-27,-14.77095],[-26.5,-15.22531],[-26,-15.68799],[-25.5,-16.15892],[-25,-16.63797],[-24.5,-17.12502],[-24,-17.61988],[-23.5,-18.12233],[-23,-18.63212],[-22.5,-19.14898],[-22,-19.67257],[-21.5,-20.20251],[-21,-20.73841],[-20.5,-21.27982],[-20,-21.82626],[-19.5,-22.37719],[-19,-22.93208],[-18.5,-23.49033],[-18,-24.05133],[-17.5,-24.61446],[-17,-25.17906],[-16.5,-25.74447],[-16,-26.31003],[-15.5,-26.87507],[-15,-27.43894],[-14.5,-28.00098],[-14,-28.56056],[-13.5,-29.11708],[-13,-29.66996],[-12.5,-30.21863],[-12,-30.76259],[-11.5,-31.30135],[-11,-31.83447],[-10.5,-32.36154],[-10,-32.8822],[-9.5,-33.39611],[-9,-33.903],[-8.5,-34.40261],[-8,-34.89474],[-7.5,-35.3792],[-7,-35.85586],[-6.5,-36.3246],[-6,-36.78534],[-5.5,-37.23803],[-5,-37.68262],[-4.5,-38.11912],[-4,-38.54753],[-3.5,-38.96788],[-3,-39.38021],[-2.5,-39.78459],[-2,-40.18109],[-1.5,-40.56978],[-1,-40.95076],[-0.5,-41.32413],[0,-41.69],[0.5,-42.04847],[1,-42.39966],[1.5,-42.74369],[2,-43.08068],[2.5,-43.41076],[3,-43.73405],[3.5,-44.05067],[4,-44.36076],[4.5,-44.66443],[5,-44.96182],[5.5,-45.25304],[6,-45.53822],[6.5,-45.81748],[7,-46.09095],[7.5,-46.35873],[8,-46.62094],[8.5,-46.87771],[9,-47.12913],[9.5,-47.37532],[10,-47.61639],[10.5,-47.85244],[11,-48.08358],[11.5,-48.30989],[12,-48.53148],[12.5,-48.74845],[13,-48.96089],[13.5,-49.16889],[14,-49.37253],[14.5,-49.57191],[15,-49.7671],[15.5,-49.95818],[16,-50.14525],[16.5,-50.32836],[17,-50.5076],[17.5,-50.68305],[18,-50.85476],[18.5,-51.02282],[19,-51.18728],[19.5,-51.34822],[20,-51.50569],[20.5,-51.65975],[21,-51.81048],[21.5,-51.95792],[22,-52.10213],[22.5,-52.24317],[23,-52.38109],[23.5,-52.51594],[24,-52.64778],[24.5,-52.77664],[25,-52.90259],[25.5,-53.02566],[26,-53.1459],[26.5,-53.26336],[27,-53.37807],[27.5,-53.49008],[28,-53.59943],[28.5,-53.70616],[29,-53.81031],[29.5,-53.91191],[30,-54.01099],[30.5,-54.1076],[31,-54.20177],[31.5,-54.29353],[32,-54.38291],[32.5,-54.46995],[33,-54.55467],[33.5,-54.6371],[34,-54.71728],[34.5,-54.79522],[35,-54.87097],[35.5,-54.94453],[36,-55.01595],[36.5,-55.08524],[37,-55.15243],[37.5,-55.21754],[38,-55.28059],[38.5,-55.34161],[39,-55.40062],[39.5,-55.45764],[40,-55.51269],[40.5,-55.56578],[41,-55.61695],[41.5,-55.6662],[42,-55.71356],[42.5,-55.75904],[43,-55.80266],[43.5,-55.84443],[44,-55.88438],[44.5,-55.92252],[45,-55.95886],[45.5,-55.99342],[46,-56.02621],[46.5,-56.05725],[47,-56.08655],[47.5,-56.11412],[48,-56.13998],[48.5,-56.16413],[49,-56.1866],[49.5,-56.20738],[50,-56.2265],[50.5,-56.24396],[51,-56.25978],[51.5,-56.27396],[52,-56.28652],[52.5,-56.29746],[53,-56.30679],[53.5,-56.31452],[54,-56.32066],[54.5,-56.32523],[55,-56.32822],[55.5,-56.32964],[56,-56.32951],[56.5,-56.32783],[57,-56.32461],[57.5,-56.31984],[58,-56.31355],[58.5,-56.30574],[59,-56.29641],[59.5,-56.28557],[60,-56.27322],[60.5,-56.25937],[61,-56.24403],[61.5,-56.2272],[62,-56.20889],[62.5,-56.18909],[63,-56.16783],[63.5,-56.14509],[64,-56.12088],[64.5,-56.09521],[65,-56.06809],[65.5,-56.03951],[66,-56.00948],[66.5,-55.978],[67,-55.94508],[67.5,-55.91071],[68,-55.87491],[68.5,-55.83768],[69,-55.79902],[69.5,-55.75892],[70,-55.7174],[70.5,-55.67446],[71,-55.6301],[71.5,-55.58432],[72,-55.53712],[72.5,-55.48851],[73,-55.43849],[73.5,-55.38706],[74,-55.33423],[74.5,-55.27998],[75,-55.22434],[75.5,-55.16729],[76,-55.10885],[76.5,-55.04903],[77,-54.9911],[77.5,-54.93178],[78,-54.87108],[78.5,-54.80901],[79,-54.74556],[79.5,-54.68074],[80,-54.61455],[80.5,-54.54699],[81,-54.47806]]}}],"attribution":"Eclipse Predictions by Fred Espenak and Jean Meeus (NASA's GSFC)","generated_at":"2026-09-23T01:44:45.272Z"}
