{"type":"FeatureCollection","year":1260,"events":[{"id":"+12600412","year":1260,"month":4,"day":12,"time_tdt":"06:51:59","type":"금환일식","type_code":"A","saros":107,"gamma":-0.1907,"magnitude":0.94259,"greatest":{"lat":1.52831,"lng":83.89471},"path_width_km":215.6,"duration":"06m48s","delta_t_seconds":572,"catalog_number":7765,"source":"NASA Five Millennium Canon of Solar Eclipses","source_url":"https://eclipse.gsfc.nasa.gov/SEsearch/SEsearchmap.php?Ecl=%2B12600412"},{"id":"+12601006","year":1260,"month":10,"day":6,"time_tdt":"12:50:25","type":"개기일식","type_code":"T","saros":112,"gamma":0.1527,"magnitude":1.03897,"greatest":{"lat":-0.37495,"lng":-9.55298},"path_width_km":132,"duration":"03m25s","delta_t_seconds":570.8,"catalog_number":7766,"source":"NASA Five Millennium Canon of Solar Eclipses","source_url":"https://eclipse.gsfc.nasa.gov/SEsearch/SEsearchmap.php?Ecl=%2B12601006"}],"features":[{"type":"Feature","id":"+12600412:north:0","properties":{"id":"+12600412","year":1260,"month":4,"day":12,"time_tdt":"06:51:59","type":"금환일식","type_code":"A","saros":107,"gamma":-0.1907,"magnitude":0.94259,"greatest":{"lat":1.52831,"lng":83.89471},"path_width_km":215.6,"duration":"06m48s","delta_t_seconds":572,"catalog_number":7765,"source":"NASA Five Millennium Canon of Solar Eclipses","source_url":"https://eclipse.gsfc.nasa.gov/SEsearch/SEsearchmap.php?Ecl=%2B12600412","boundary":"north","name":"1260-04-12 금환일식"},"geometry":{"type":"LineString","coordinates":[[26.40039,-35.64318],[26.5,-35.62322],[27,-35.52178],[27.5,-35.41821],[28,-35.31249],[28.5,-35.20458],[29,-35.09446],[29.5,-34.98211],[30,-34.86749],[30.5,-34.75057],[31,-34.63132],[31.5,-34.50972],[32,-34.38573],[32.5,-34.25931],[33,-34.13044],[33.5,-33.99908],[34,-33.8652],[34.5,-33.72875],[35,-33.58971],[35.5,-33.44803],[36,-33.30368],[36.5,-33.15661],[37,-33.00678],[37.5,-32.85416],[38,-32.69869],[38.5,-32.54034],[39,-32.37905],[39.5,-32.21478],[40,-32.04749],[40.5,-31.87712],[41,-31.70361],[41.5,-31.52693],[42,-31.34701],[42.5,-31.16379],[43,-30.97723],[43.5,-30.78726],[44,-30.59382],[44.5,-30.39684],[45,-30.19627],[45.5,-29.99204],[46,-29.78408],[46.5,-29.57231],[47,-29.35667],[47.5,-29.13708],[48,-28.91347],[48.5,-28.68575],[49,-28.45385],[49.5,-28.21768],[50,-27.97715],[50.5,-27.73217],[51,-27.48266],[51.5,-27.22852],[52,-26.96964],[52.5,-26.70594],[53,-26.43731],[53.5,-26.16363],[54,-25.88481],[54.5,-25.60073],[55,-25.31127],[55.5,-25.01631],[56,-24.71574],[56.5,-24.40942],[57,-24.09723],[57.5,-23.77903],[58,-23.4547],[58.5,-23.12408],[59,-22.78705],[59.5,-22.44345],[60,-22.09314],[60.5,-21.73597],[61,-21.37178],[61.5,-21.00042],[62,-20.62174],[62.5,-20.23558],[63,-19.84178],[63.5,-19.44018],[64,-19.03064],[64.5,-18.61299],[65,-18.18708],[65.5,-17.75278],[66,-17.30994],[66.5,-16.85843],[67,-16.39813],[67.5,-15.92892],[68,-15.45072],[68.5,-14.96345],[69,-14.46705],[69.5,-13.96149],[70,-13.44676],[70.5,-12.92289],[71,-12.38995],[71.5,-11.84805],[72,-11.29732],[72.5,-10.73798],[73,-10.17029],[73.5,-9.59455],[74,-9.01115],[74.5,-8.42055],[75,-7.82325],[75.5,-7.21987],[76,-6.61105],[76.5,-5.99755],[77,-5.38017],[77.5,-4.75978],[78,-4.13733],[78.5,-3.51379],[79,-2.89019],[79.5,-2.26759],[80,-1.64706],[80.5,-1.02967],[81,-0.41648],[81.5,0.19147],[82,0.79318],[82.5,1.3877],[83,1.97414],[83.5,2.55169],[84,3.11961],[84.5,3.67723],[85,4.22398],[85.5,4.75936],[86,5.28297],[86.5,5.79446],[87,6.29358],[87.5,6.78015],[88,7.25405],[88.5,7.71522],[89,8.16364],[89.5,8.59937],[90,9.02249],[90.5,9.4331],[91,9.83137],[91.5,10.21747],[92,10.59159],[92.5,10.95395],[93,11.30477],[93.5,11.64429],[94,11.97276],[94.5,12.29042],[95,12.59753],[95.5,12.89435],[96,13.18111],[96.5,13.45809],[97,13.72552],[97.5,13.98365],[98,14.23272],[98.5,14.47298],[99,14.70464],[99.5,14.92794],[100,15.14309],[100.5,15.35032],[101,15.54981],[101.5,15.74179],[102,15.92643],[102.5,16.10394],[103,16.27449],[103.5,16.43825],[104,16.59541],[104.5,16.74613],[105,16.89057],[105.5,17.02887],[106,17.16119],[106.5,17.28768],[107,17.40848],[107.5,17.52371],[108,17.6335],[108.5,17.738],[109,17.8373],[109.5,17.93154],[110,18.02082],[110.5,18.10526],[111,18.18496],[111.5,18.26002],[112,18.33054],[112.5,18.39662],[113,18.45835],[113.5,18.51582],[114,18.56912],[114.5,18.61832],[115,18.66352],[115.5,18.70479],[116,18.74221],[116.5,18.77585],[117,18.80579],[117.5,18.83209],[118,18.85482],[118.5,18.87405],[119,18.88984],[119.5,18.90225],[120,18.91135],[120.5,18.9172],[121,18.91984],[121.5,18.91934],[122,18.91575],[122.5,18.90912],[123,18.89951],[123.5,18.88697],[124,18.87154],[124.5,18.85326],[125,18.8322],[125.5,18.80839],[126,18.78188],[126.5,18.75271],[127,18.72092],[127.5,18.68656],[128,18.64966],[128.5,18.61026],[129,18.56841],[129.5,18.52414],[130,18.47749],[130.5,18.42849],[131,18.37718],[131.5,18.32359],[132,18.26777],[132.5,18.20973],[133,18.14952],[133.5,18.08717],[134,18.02271],[134.5,17.95616],[135,17.88757],[135.5,17.81695],[136,17.74435],[136.5,17.66978],[137,17.59328],[137.5,17.51487],[138,17.43459],[138.5,17.35245],[139,17.26849],[139.5,17.18274],[140,17.09521],[140.5,17.00593],[141,16.91493],[141.5,16.82224],[142,16.72787],[142.5,16.63185],[143,16.5342]]}},{"type":"Feature","id":"+12600412:center:0","properties":{"id":"+12600412","year":1260,"month":4,"day":12,"time_tdt":"06:51:59","type":"금환일식","type_code":"A","saros":107,"gamma":-0.1907,"magnitude":0.94259,"greatest":{"lat":1.52831,"lng":83.89471},"path_width_km":215.6,"duration":"06m48s","delta_t_seconds":572,"catalog_number":7765,"source":"NASA Five Millennium Canon of Solar Eclipses","source_url":"https://eclipse.gsfc.nasa.gov/SEsearch/SEsearchmap.php?Ecl=%2B12600412","boundary":"center","name":"1260-04-12 금환일식"},"geometry":{"type":"LineString","coordinates":[[26.75951,-36.86495],[27,-36.77361],[27.5,-36.66932],[28,-36.56291],[28.5,-36.45434],[29,-36.34359],[29.5,-36.23064],[30,-36.11545],[30.5,-35.998],[31,-35.87825],[31.5,-35.75619],[32,-35.63176],[32.5,-35.50496],[33,-35.37573],[33.5,-35.24406],[34,-35.1099],[34.5,-34.97321],[35,-34.83398],[35.5,-34.69214],[36,-34.54768],[36.5,-34.40055],[37,-34.2507],[37.5,-34.09811],[38,-33.94272],[38.5,-33.78449],[39,-33.62339],[39.5,-33.45935],[40,-33.29235],[40.5,-33.12232],[41,-32.94922],[41.5,-32.77299],[42,-32.59359],[42.5,-32.41096],[43,-32.22505],[43.5,-32.03579],[44,-31.84314],[44.5,-31.64702],[45,-31.44738],[45.5,-31.24415],[46,-31.03727],[46.5,-30.82667],[47,-30.61228],[47.5,-30.39402],[48,-30.17183],[48.5,-29.94562],[49,-29.71533],[49.5,-29.48086],[50,-29.24213],[50.5,-28.99906],[51,-28.75156],[51.5,-28.49954],[52,-28.2429],[52.5,-27.98155],[53,-27.71539],[53.5,-27.44431],[54,-27.16822],[54.5,-26.88699],[55,-26.60053],[55.5,-26.30871],[56,-26.01142],[56.5,-25.70853],[57,-25.39993],[57.5,-25.08548],[58,-24.76505],[58.5,-24.43851],[59,-24.10572],[59.5,-23.76654],[60,-23.42083],[60.5,-23.06844],[61,-22.70922],[61.5,-22.34302],[62,-21.96969],[62.5,-21.58908],[63,-21.20102],[63.5,-20.80537],[64,-20.40196],[64.5,-19.99064],[65,-19.57127],[65.5,-19.14368],[66,-18.70774],[66.5,-18.2633],[67,-17.81024],[67.5,-17.34843],[68,-16.87777],[68.5,-16.39815],[69,-15.9095],[69.5,-15.41176],[70,-14.90489],[70.5,-14.38889],[71,-13.86379],[71.5,-13.32964],[72,-12.78653],[72.5,-12.23463],[73,-11.67412],[73.5,-11.10525],[74,-10.52834],[74.5,-9.94375],[75,-9.35194],[75.5,-8.7534],[76,-8.14873],[76.5,-7.53859],[77,-6.92371],[77.5,-6.3049],[78,-5.68302],[78.5,-5.05901],[79,-4.43385],[79.5,-3.80857],[80,-3.18424],[80.5,-2.56194],[81,-1.94273],[81.5,-1.32772],[82,-0.71793],[82.5,-0.1144],[83,0.48192],[83.5,1.07011],[84,1.64934],[84.5,2.21885],[85,2.77796],[85.5,3.32607],[86,3.86267],[86.5,4.38734],[87,4.89974],[87.5,5.39959],[88,5.8867],[88.5,6.36095],[89,6.82227],[89.5,7.27064],[90,7.70612],[90.5,8.12878],[91,8.53875],[91.5,8.93616],[92,9.32121],[92.5,9.69409],[93,10.05502],[93.5,10.40424],[94,10.74197],[94.5,11.06848],[95,11.38403],[95.5,11.68886],[96,11.98324],[96.5,12.26743],[97,12.54169],[97.5,12.80627],[98,13.06142],[98.5,13.3074],[99,13.54444],[99.5,13.77277],[100,13.99264],[100.5,14.20426],[101,14.40785],[101.5,14.60362],[102,14.79179],[102.5,14.97254],[103,15.14608],[103.5,15.31259],[104,15.47224],[104.5,15.62522],[105,15.7717],[105.5,15.91183],[106,16.04577],[106.5,16.17368],[107,16.2957],[107.5,16.41198],[108,16.52264],[108.5,16.62784],[109,16.72768],[109.5,16.8223],[110,16.91182],[110.5,16.99635],[111,17.076],[111.5,17.15088],[112,17.22109],[112.5,17.28674],[113,17.34792],[113.5,17.40472],[114,17.45725],[114.5,17.50558],[115,17.5498],[115.5,17.58999],[116,17.62625],[116.5,17.65863],[117,17.68722],[117.5,17.7121],[118,17.73333],[118.5,17.75098],[119,17.76511],[119.5,17.77581],[120,17.78312],[120.5,17.78711],[121,17.78783],[121.5,17.78536],[122,17.77974],[122.5,17.77102],[123,17.75927],[123.5,17.74454],[124,17.72687],[124.5,17.70631],[125,17.68292],[125.5,17.65674],[126,17.62782],[126.5,17.59619],[127,17.56192],[127.5,17.52504],[128,17.48558],[128.5,17.4436],[129,17.39913],[129.5,17.35221],[130,17.30289],[130.5,17.25119],[131,17.19716],[131.5,17.14082],[132,17.08223],[132.5,17.0214],[133,16.95838],[133.5,16.8932],[134,16.82589],[134.5,16.75649],[135,16.68502],[135.5,16.61151],[136,16.536],[136.5,16.45852],[137,16.3791],[137.5,16.29775],[138,16.21453],[138.5,16.12944],[139,16.04252],[139.5,15.9538],[140,15.86329],[140.5,15.77104],[141,15.67706],[141.5,15.58138],[142,15.48403],[142.5,15.38502],[143,15.28439],[143.08613,15.27073]]}},{"type":"Feature","id":"+12600412:south:0","properties":{"id":"+12600412","year":1260,"month":4,"day":12,"time_tdt":"06:51:59","type":"금환일식","type_code":"A","saros":107,"gamma":-0.1907,"magnitude":0.94259,"greatest":{"lat":1.52831,"lng":83.89471},"path_width_km":215.6,"duration":"06m48s","delta_t_seconds":572,"catalog_number":7765,"source":"NASA Five Millennium Canon of Solar Eclipses","source_url":"https://eclipse.gsfc.nasa.gov/SEsearch/SEsearchmap.php?Ecl=%2B12600412","boundary":"south","name":"1260-04-12 금환일식"},"geometry":{"type":"LineString","coordinates":[[27.5,-37.92576],[28,-37.81867],[28.5,-37.70945],[29,-37.59808],[29.5,-37.48454],[30,-37.3688],[30.5,-37.25082],[31,-37.13058],[31.5,-37.00806],[32,-36.88321],[32.5,-36.75602],[33,-36.62645],[33.5,-36.49446],[34,-36.36002],[34.5,-36.2231],[35,-36.08367],[35.5,-35.94168],[36,-35.79711],[36.5,-35.6499],[37,-35.50004],[37.5,-35.34746],[38,-35.19214],[38.5,-35.03404],[39,-34.8731],[39.5,-34.70928],[40,-34.54255],[40.5,-34.37284],[41,-34.20012],[41.5,-34.02434],[42,-33.84543],[42.5,-33.66336],[43,-33.47807],[43.5,-33.2895],[44,-33.0976],[44.5,-32.9023],[45,-32.70355],[45.5,-32.50129],[46,-32.29544],[46.5,-32.08596],[47,-31.87276],[47.5,-31.65578],[48,-31.43495],[48.5,-31.21019],[49,-30.98143],[49.5,-30.74859],[50,-30.51159],[50.5,-30.27035],[51,-30.02478],[51.5,-29.77479],[52,-29.5203],[52.5,-29.2612],[53,-28.99741],[53.5,-28.72883],[54,-28.45535],[54.5,-28.17687],[55,-27.89328],[55.5,-27.60447],[56,-27.31032],[56.5,-27.01073],[57,-26.70557],[57.5,-26.39471],[58,-26.07803],[58.5,-25.7554],[59,-25.42669],[59.5,-25.09176],[60,-24.75047],[60.5,-24.40267],[61,-24.04824],[61.5,-23.687],[62,-23.31883],[62.5,-22.94356],[63,-22.56104],[63.5,-22.17111],[64,-21.77364],[64.5,-21.36844],[65,-20.95539],[65.5,-20.53431],[66,-20.10507],[66.5,-19.66752],[67,-19.22152],[67.5,-18.76694],[68,-18.30365],[68.5,-17.83155],[69,-17.35054],[69.5,-16.86055],[70,-16.3615],[70.5,-15.85336],[71,-15.33613],[71.5,-14.80982],[72,-14.27448],[72.5,-13.73023],[73,-13.17718],[73.5,-12.61554],[74,-12.04555],[74.5,-11.4675],[75,-10.88177],[75.5,-10.28879],[76,-9.68906],[76.5,-9.08316],[77,-8.47174],[77.5,-7.85554],[78,-7.23534],[78.5,-6.61202],[79,-5.98651],[79.5,-5.35979],[80,-4.73289],[80.5,-4.10688],[81,-3.48284],[81.5,-2.86187],[82,-2.24507],[82.5,-1.63349],[83,-1.02817],[83.5,-0.43009],[84,0.15982],[84.5,0.7407],[85,1.31178],[85.5,1.87235],[86,2.4218],[86.5,2.95961],[87,3.48533],[87.5,3.9986],[88,4.49915],[88.5,4.98678],[89,5.46135],[89.5,5.92278],[90,6.37108],[90.5,6.80627],[91,7.22843],[91.5,7.63769],[92,8.03421],[92.5,8.41816],[93,8.78974],[93.5,9.14918],[94,9.49672],[94.5,9.83261],[95,10.15709],[95.5,10.47044],[96,10.77292],[96.5,11.06479],[97,11.34633],[97.5,11.61779],[98,11.87943],[98.5,12.13152],[99,12.37431],[99.5,12.60804],[100,12.83295],[100.5,13.04929],[101,13.25728],[101.5,13.45715],[102,13.64911],[102.5,13.83337],[103,14.01014],[103.5,14.17961],[104,14.34198],[104.5,14.49743],[105,14.64613],[105.5,14.78826],[106,14.92399],[106.5,15.05348],[107,15.17688],[107.5,15.29434],[108,15.40601],[108.5,15.51203],[109,15.61252],[109.5,15.70763],[110,15.79748],[110.5,15.88219],[111,15.96187],[111.5,16.03665],[112,16.10663],[112.5,16.17191],[113,16.2326],[113.5,16.2888],[114,16.34061],[114.5,16.38811],[115,16.4314],[115.5,16.47056],[116,16.50568],[116.5,16.53685],[117,16.56413],[117.5,16.58761],[118,16.60736],[118.5,16.62345],[119,16.63596],[119.5,16.64494],[120,16.65048],[120.5,16.65263],[121,16.65145],[121.5,16.64701],[122,16.63937],[122.5,16.62857],[123,16.61469],[123.5,16.59777],[124,16.57786],[124.5,16.55503],[125,16.52931],[125.5,16.50076],[126,16.46943],[126.5,16.43536],[127,16.3986],[127.5,16.35919],[128,16.31718],[128.5,16.27261],[129,16.22552],[129.5,16.17595],[130,16.12395],[130.5,16.06955],[131,16.01279],[131.5,15.9537],[132,15.89234],[132.5,15.82872],[133,15.76288],[133.5,15.69487],[134,15.62471],[134.5,15.55244],[135,15.47809],[135.5,15.40169],[136,15.32328],[136.5,15.24288],[137,15.16052],[137.5,15.07624],[138,14.99006],[138.5,14.90202],[139,14.81214],[139.5,14.72045],[140,14.62697],[140.5,14.53174],[141,14.43477],[141.5,14.33611],[142,14.23577],[142.5,14.13377],[142.89062,14.05295]]}},{"type":"Feature","id":"+12601006:north:0","properties":{"id":"+12601006","year":1260,"month":10,"day":6,"time_tdt":"12:50:25","type":"개기일식","type_code":"T","saros":112,"gamma":0.1527,"magnitude":1.03897,"greatest":{"lat":-0.37495,"lng":-9.55298},"path_width_km":132,"duration":"03m25s","delta_t_seconds":570.8,"catalog_number":7766,"source":"NASA Five Millennium Canon of Solar Eclipses","source_url":"https://eclipse.gsfc.nasa.gov/SEsearch/SEsearchmap.php?Ecl=%2B12601006","boundary":"north","name":"1260-10-06 개기일식"},"geometry":{"type":"LineString","coordinates":[[-71.66406,36.69929],[-71.5,36.67616],[-71,36.60436],[-70.5,36.53061],[-70,36.45487],[-69.5,36.37714],[-69,36.29738],[-68.5,36.21559],[-68,36.13172],[-67.5,36.04577],[-67,35.95772],[-66.5,35.86753],[-66,35.77518],[-65.5,35.68065],[-65,35.58392],[-64.5,35.48495],[-64,35.38373],[-63.5,35.28022],[-63,35.1744],[-62.5,35.06625],[-62,34.95572],[-61.5,34.8428],[-61,34.72745],[-60.5,34.60964],[-60,34.48934],[-59.5,34.36652],[-59,34.24115],[-58.5,34.11319],[-58,33.9826],[-57.5,33.84936],[-57,33.71342],[-56.5,33.57475],[-56,33.4333],[-55.5,33.28905],[-55,33.14195],[-54.5,32.99195],[-54,32.83903],[-53.5,32.68312],[-53,32.5242],[-52.5,32.36221],[-52,32.19711],[-51.5,32.02885],[-51,31.85738],[-50.5,31.68265],[-50,31.50461],[-49.5,31.3232],[-49,31.13838],[-48.5,30.95008],[-48,30.75826],[-47.5,30.56285],[-47,30.36378],[-46.5,30.16101],[-46,29.95447],[-45.5,29.74409],[-45,29.52981],[-44.5,29.31156],[-44,29.08927],[-43.5,28.86287],[-43,28.63229],[-42.5,28.39745],[-42,28.15828],[-41.5,27.91469],[-41,27.66661],[-40.5,27.41396],[-40,27.15666],[-39.5,26.89461],[-39,26.62774],[-38.5,26.35595],[-38,26.07915],[-37.5,25.79725],[-37,25.51016],[-36.5,25.21778],[-36,24.92002],[-35.5,24.61677],[-35,24.30795],[-34.5,23.99343],[-34,23.67314],[-33.5,23.34696],[-33,23.01479],[-32.5,22.67653],[-32,22.33208],[-31.5,21.98133],[-31,21.62418],[-30.5,21.26054],[-30,20.89031],[-29.5,20.51339],[-29,20.12968],[-28.5,19.73911],[-28,19.34159],[-27.5,18.93703],[-27,18.52538],[-26.5,18.10656],[-26,17.68053],[-25.5,17.24724],[-25,16.80666],[-24.5,16.35877],[-24,15.90357],[-23.5,15.44108],[-23,14.97132],[-22.5,14.49435],[-22,14.01025],[-21.5,13.51912],[-21,13.02109],[-20.5,12.5163],[-20,12.00496],[-19.5,11.48728],[-19,10.96352],[-18.5,10.43396],[-18,9.89894],[-17.5,9.35881],[-17,8.81397],[-16.5,8.26487],[-16,7.71198],[-15.5,7.15581],[-15,6.59691],[-14.5,6.03584],[-14,5.4732],[-13.5,4.90963],[-13,4.34576],[-12.5,3.78225],[-12,3.21977],[-11.5,2.65896],[-11,2.10051],[-10.5,1.54507],[-10,0.99327],[-9.5,0.44574],[-9,-0.09694],[-8.5,-0.63418],[-8,-1.16547],[-7.5,-1.6903],[-7,-2.20821],[-6.5,-2.71879],[-6,-3.22165],[-5.5,-3.71646],[-5,-4.20293],[-4.5,-4.68079],[-4,-5.14984],[-3.5,-5.60989],[-3,-6.06081],[-2.5,-6.50248],[-2,-6.93484],[-1.5,-7.35783],[-1,-7.77143],[-0.5,-8.17565],[0,-8.57052],[0.5,-8.95608],[1,-9.3324],[1.5,-9.69955],[2,-10.05762],[2.5,-10.40673],[3,-10.74698],[3.5,-11.0785],[4,-11.40142],[4.5,-11.71586],[5,-12.02197],[5.5,-12.3199],[6,-12.60978],[6.5,-12.89176],[7,-13.16599],[7.5,-13.43262],[8,-13.6918],[8.5,-13.94366],[9,-14.18836],[9.5,-14.42604],[10,-14.65683],[10.5,-14.88089],[11,-15.09835],[11.5,-15.30934],[12,-15.514],[12.5,-15.71245],[13,-15.90482],[13.5,-16.09124],[14,-16.27182],[14.5,-16.44669],[15,-16.61596],[15.5,-16.77974],[16,-16.93815],[16.5,-17.09129],[17,-17.23926],[17.5,-17.38216],[18,-17.5201],[18.5,-17.65317],[19,-17.78146],[19.5,-17.90506],[20,-18.02406],[20.5,-18.13856],[21,-18.24862],[21.5,-18.35433],[22,-18.45578],[22.5,-18.55303],[23,-18.64617],[23.5,-18.73526],[24,-18.82038],[24.5,-18.90159],[25,-18.97896],[25.5,-19.05256],[26,-19.12245],[26.5,-19.18869],[27,-19.25134],[27.5,-19.31046],[28,-19.36611],[28.5,-19.41834],[29,-19.4672],[29.5,-19.51275],[30,-19.55504],[30.5,-19.59412],[31,-19.63004],[31.5,-19.66284],[32,-19.69257],[32.5,-19.71928],[33,-19.74301],[33.5,-19.76381],[34,-19.78171],[34.5,-19.79676],[35,-19.80899],[35.5,-19.81845],[36,-19.82517],[36.5,-19.82919],[37,-19.83055],[37.5,-19.82929],[38,-19.82543],[38.5,-19.81902],[39,-19.81008],[39.5,-19.79865],[40,-19.78476],[40.5,-19.76844],[41,-19.74973],[41.5,-19.72865],[42,-19.70523],[42.5,-19.6795],[43,-19.6515],[43.5,-19.62124],[44,-19.58876],[44.5,-19.55408],[45,-19.51723],[45.5,-19.47824],[46,-19.43712],[46.5,-19.39392],[47,-19.34864],[47.5,-19.30132],[48,-19.25197],[48.5,-19.20063],[49,-19.14732],[49.5,-19.09205],[50,-19.03485],[50.5,-18.97575],[51,-18.91476],[51.5,-18.8519],[52,-18.78721],[52.5,-18.72069],[53,-18.65237],[53.24805,-18.61781]]}},{"type":"Feature","id":"+12601006:center:0","properties":{"id":"+12601006","year":1260,"month":10,"day":6,"time_tdt":"12:50:25","type":"개기일식","type_code":"T","saros":112,"gamma":0.1527,"magnitude":1.03897,"greatest":{"lat":-0.37495,"lng":-9.55298},"path_width_km":132,"duration":"03m25s","delta_t_seconds":570.8,"catalog_number":7766,"source":"NASA Five Millennium Canon of Solar Eclipses","source_url":"https://eclipse.gsfc.nasa.gov/SEsearch/SEsearchmap.php?Ecl=%2B12601006","boundary":"center","name":"1260-10-06 개기일식"},"geometry":{"type":"LineString","coordinates":[[-71.68792,36.41762],[-71.5,36.35181],[-71,36.27784],[-70.5,36.20188],[-70,36.12392],[-69.5,36.04394],[-69,35.96191],[-68.5,35.87782],[-68,35.79164],[-67.5,35.70336],[-67,35.61293],[-66.5,35.52035],[-66,35.42559],[-65.5,35.32862],[-65,35.22942],[-64.5,35.12796],[-64,35.02422],[-63.5,34.91816],[-63,34.80976],[-62.5,34.69899],[-62,34.58582],[-61.5,34.47023],[-61,34.35217],[-60.5,34.23163],[-60,34.10856],[-59.5,33.98293],[-59,33.85471],[-58.5,33.72387],[-58,33.59037],[-57.5,33.45417],[-57,33.31524],[-56.5,33.17353],[-56,33.02902],[-55.5,32.88165],[-55,32.73139],[-54.5,32.57819],[-54,32.42201],[-53.5,32.26281],[-53,32.10055],[-52.5,31.93516],[-52,31.76662],[-51.5,31.59486],[-51,31.41984],[-50.5,31.24151],[-50,31.05981],[-49.5,30.8747],[-49,30.6861],[-48.5,30.49397],[-48,30.29825],[-47.5,30.09888],[-47,29.8958],[-46.5,29.68894],[-46,29.47823],[-45.5,29.26363],[-45,29.04505],[-44.5,28.82242],[-44,28.59568],[-43.5,28.36475],[-43,28.12956],[-42.5,27.89003],[-42,27.64608],[-41.5,27.39763],[-41,27.14461],[-40.5,26.88692],[-40,26.62448],[-39.5,26.35721],[-39,26.08501],[-38.5,25.8078],[-38,25.52548],[-37.5,25.23795],[-37,24.94513],[-36.5,24.64691],[-36,24.3432],[-35.5,24.03389],[-35,23.71889],[-34.5,23.39809],[-34,23.0714],[-33.5,22.7387],[-33,22.39989],[-32.5,22.05487],[-32,21.70354],[-31.5,21.34579],[-31,20.98153],[-30.5,20.61066],[-30,20.23308],[-29.5,19.84869],[-29,19.45741],[-28.5,19.05915],[-28,18.65384],[-27.5,18.2414],[-27,17.82177],[-26.5,17.3949],[-26,16.96073],[-25.5,16.51924],[-25,16.07041],[-24.5,15.61423],[-24,15.15072],[-23.5,14.67991],[-23,14.20185],[-22.5,13.71662],[-22,13.22432],[-21.5,12.72507],[-21,12.21903],[-20.5,11.70639],[-20,11.18736],[-19.5,10.66221],[-19,10.13123],[-18.5,9.59473],[-18,9.05308],[-17.5,8.50669],[-17,7.956],[-16.5,7.40147],[-16,6.84364],[-15.5,6.28303],[-15,5.72023],[-14.5,5.15584],[-14,4.59048],[-13.5,4.02481],[-13,3.45948],[-12.5,2.89515],[-12,2.33251],[-11.5,1.77221],[-11,1.21491],[-10.5,0.66126],[-10,0.11187],[-9.5,-0.43264],[-9,-0.97172],[-8.5,-1.50482],[-8,-2.03145],[-7.5,-2.55115],[-7,-3.06349],[-6.5,-3.56809],[-6,-4.06462],[-5.5,-4.55278],[-5,-5.03231],[-4.5,-5.50299],[-4,-5.96466],[-3.5,-6.41717],[-3,-6.8604],[-2.5,-7.29429],[-2,-7.71879],[-1.5,-8.13387],[-1,-8.53955],[-0.5,-8.93584],[0,-9.3228],[0.5,-9.70049],[1,-10.06899],[1.5,-10.42838],[2,-10.77879],[2.5,-11.12031],[3,-11.45308],[3.5,-11.77722],[4,-12.09286],[4.5,-12.40015],[5,-12.69923],[5.5,-12.99024],[6,-13.27334],[6.5,-13.54866],[7,-13.81635],[7.5,-14.07657],[8,-14.32946],[8.5,-14.57516],[9,-14.81382],[9.5,-15.04558],[10,-15.27059],[10.5,-15.48897],[11,-15.70087],[11.5,-15.90641],[12,-16.10572],[12.5,-16.29894],[13,-16.48619],[13.5,-16.66759],[14,-16.84325],[14.5,-17.0133],[15,-17.17784],[15.5,-17.33699],[16,-17.49085],[16.5,-17.63952],[17,-17.78311],[17.5,-17.92172],[18,-18.05544],[18.5,-18.18437],[19,-18.30859],[19.5,-18.4282],[20,-18.54328],[20.5,-18.65392],[21,-18.76019],[21.5,-18.86217],[22,-18.95995],[22.5,-19.05359],[23,-19.14317],[23.5,-19.22876],[24,-19.31043],[24.5,-19.38825],[25,-19.46227],[25.5,-19.53257],[26,-19.59921],[26.5,-19.66224],[27,-19.72172],[27.5,-19.77772],[28,-19.83028],[28.5,-19.87946],[29,-19.92531],[29.5,-19.96789],[30,-20.00724],[30.5,-20.04342],[31,-20.07646],[31.5,-20.10642],[32,-20.13335],[32.5,-20.15728],[33,-20.17825],[33.5,-20.19632],[34,-20.21152],[34.5,-20.22389],[35,-20.23347],[35.5,-20.2403],[36,-20.24442],[36.5,-20.24586],[37,-20.24466],[37.5,-20.24085],[38,-20.23447],[38.5,-20.22556],[39,-20.21413],[39.5,-20.20024],[40,-20.1839],[40.5,-20.16515],[41,-20.14401],[41.5,-20.12053],[42,-20.09473],[42.5,-20.06663],[43,-20.03626],[43.5,-20.00366],[44,-19.96885],[44.5,-19.93185],[45,-19.89269],[45.5,-19.8514],[46,-19.808],[46.5,-19.76252],[47,-19.71498],[47.5,-19.6654],[48,-19.61381],[48.5,-19.56024],[49,-19.50469],[49.5,-19.44721],[50,-19.38781],[50.5,-19.3265],[51,-19.26332],[51.5,-19.19828],[52,-19.13141],[52.5,-19.06272],[53,-18.99224],[53.28214,-18.95978]]}},{"type":"Feature","id":"+12601006:south:0","properties":{"id":"+12601006","year":1260,"month":10,"day":6,"time_tdt":"12:50:25","type":"개기일식","type_code":"T","saros":112,"gamma":0.1527,"magnitude":1.03897,"greatest":{"lat":-0.37495,"lng":-9.55298},"path_width_km":132,"duration":"03m25s","delta_t_seconds":570.8,"catalog_number":7766,"source":"NASA Five Millennium Canon of Solar Eclipses","source_url":"https://eclipse.gsfc.nasa.gov/SEsearch/SEsearchmap.php?Ecl=%2B12601006","boundary":"south","name":"1260-10-06 개기일식"},"geometry":{"type":"LineString","coordinates":[[-71.77734,36.06859],[-71.5,36.02719],[-71,35.95101],[-70.5,35.87282],[-70,35.79261],[-69.5,35.71036],[-69,35.62604],[-68.5,35.53963],[-68,35.45111],[-67.5,35.36046],[-67,35.26764],[-66.5,35.17264],[-66,35.07544],[-65.5,34.976],[-65,34.8743],[-64.5,34.77031],[-64,34.66401],[-63.5,34.55537],[-63,34.44435],[-62.5,34.33094],[-62,34.2151],[-61.5,34.09679],[-61,33.97599],[-60.5,33.85267],[-60,33.72679],[-59.5,33.59831],[-59,33.46721],[-58.5,33.33345],[-58,33.19699],[-57.5,33.05779],[-57,32.91582],[-56.5,32.77104],[-56,32.6234],[-55.5,32.47286],[-55,32.31939],[-54.5,32.16294],[-54,32.00346],[-53.5,31.84091],[-53,31.67524],[-52.5,31.50641],[-52,31.33436],[-51.5,31.15905],[-51,30.98043],[-50.5,30.79843],[-50,30.61301],[-49.5,30.42411],[-49,30.23167],[-48.5,30.03564],[-48,29.83595],[-47.5,29.63255],[-47,29.42536],[-46.5,29.21433],[-46,28.99939],[-45.5,28.78047],[-45,28.55751],[-44.5,28.33042],[-44,28.09914],[-43.5,27.86359],[-43,27.62369],[-42.5,27.37937],[-42,27.13055],[-41.5,26.87714],[-41,26.61906],[-40.5,26.35623],[-40,26.08855],[-39.5,25.81594],[-39,25.5383],[-38.5,25.25554],[-38,24.96758],[-37.5,24.6743],[-37,24.37562],[-36.5,24.07143],[-36,23.76164],[-35.5,23.44614],[-35,23.12482],[-34.5,22.7976],[-34,22.46435],[-33.5,22.12498],[-33,21.77939],[-32.5,21.42746],[-32,21.06911],[-31.5,20.70421],[-31,20.33269],[-30.5,19.95443],[-30,19.56934],[-29.5,19.17734],[-29,18.77833],[-28.5,18.37225],[-28,17.95901],[-27.5,17.53854],[-27,17.1108],[-26.5,16.67574],[-26,16.23333],[-25.5,15.78353],[-25,15.32635],[-24.5,14.86181],[-24,14.38992],[-23.5,13.91075],[-23,13.42436],[-22.5,12.93086],[-22,12.43037],[-21.5,11.92304],[-21,11.40907],[-20.5,10.88868],[-20,10.36211],[-19.5,9.82966],[-19,9.29166],[-18.5,8.74847],[-18,8.20049],[-17.5,7.64816],[-17,7.09197],[-16.5,6.53243],[-16,5.97009],[-15.5,5.40552],[-15,4.83934],[-14.5,4.27216],[-14,3.70465],[-13.5,3.13746],[-13,2.57126],[-12.5,2.00674],[-12,1.44455],[-11.5,0.88536],[-11,0.32982],[-10.5,-0.22145],[-10,-0.76783],[-9.5,-1.30878],[-9,-1.84373],[-8.5,-2.37219],[-8,-2.8937],[-7.5,-3.40783],[-7,-3.91421],[-6.5,-4.41248],[-6,-4.90236],[-5.5,-5.38359],[-5,-5.85595],[-4.5,-6.31926],[-4,-6.77338],[-3.5,-7.2182],[-3,-7.65365],[-2.5,-8.07967],[-2,-8.49626],[-1.5,-8.90341],[-1,-9.30115],[-0.5,-9.68953],[0,-10.06862],[0.5,-10.43849],[1,-10.79923],[1.5,-11.15095],[2,-11.49377],[2.5,-11.82781],[3,-12.15319],[3.5,-12.47006],[4,-12.77855],[4.5,-13.0788],[5,-13.37097],[5.5,-13.65519],[6,-13.93163],[6.5,-14.20041],[7,-14.4617],[7.5,-14.71563],[8,-14.96236],[8.5,-15.20203],[9,-15.43478],[9.5,-15.66075],[10,-15.88008],[10.5,-16.09291],[11,-16.29936],[11.5,-16.49957],[12,-16.69366],[12.5,-16.88177],[13,-17.064],[13.5,-17.24048],[14,-17.41133],[14.5,-17.57665],[15,-17.73657],[15.5,-17.89117],[16,-18.04058],[16.5,-18.18489],[17,-18.32419],[17.5,-18.4586],[18,-18.58819],[18.5,-18.71306],[19,-18.8333],[19.5,-18.94899],[20,-19.06022],[20.5,-19.16708],[21,-19.26963],[21.5,-19.36795],[22,-19.46213],[22.5,-19.55223],[23,-19.63832],[23.5,-19.72048],[24,-19.79876],[24.5,-19.87324],[25,-19.94398],[25.5,-20.01104],[26,-20.07448],[26.5,-20.13436],[27,-20.19073],[27.5,-20.24365],[28,-20.29318],[28.5,-20.33937],[29,-20.38226],[29.5,-20.42192],[30,-20.45838],[30.5,-20.49169],[31,-20.52191],[31.5,-20.54908],[32,-20.57323],[32.5,-20.59442],[33,-20.61268],[33.5,-20.62806],[34,-20.6406],[34.5,-20.65033],[35,-20.6573],[35.5,-20.66154],[36,-20.66309],[36.5,-20.66198],[37,-20.65825],[37.5,-20.65193],[38,-20.64306],[38.5,-20.63167],[39,-20.6178],[39.5,-20.60146],[40,-20.5827],[40.5,-20.56154],[41,-20.53802],[41.5,-20.51216],[42,-20.484],[42.5,-20.45355],[43,-20.42085],[43.5,-20.38593],[44,-20.3488],[44.5,-20.3095],[45,-20.26806],[45.5,-20.22449],[46,-20.17883],[46.5,-20.13109],[47,-20.08131],[47.5,-20.0295],[48,-19.97568],[48.5,-19.91989],[49,-19.86214],[49.5,-19.80246],[50,-19.74086],[50.5,-19.67737],[51,-19.61202],[51.5,-19.54481],[52,-19.47578],[52.5,-19.40493],[53,-19.3323],[53.32812,-19.28368]]}}],"attribution":"Eclipse Predictions by Fred Espenak and Jean Meeus (NASA's GSFC)","generated_at":"2026-09-23T03:35:45.163Z"}
