{"type":"FeatureCollection","year":1261,"events":[{"id":"+12610401","year":1261,"month":4,"day":1,"time_tdt":"09:30:56","type":"금환일식","type_code":"A","saros":117,"gamma":0.55602,"magnitude":0.97235,"greatest":{"lat":36.61358,"lng":21.00665},"path_width_km":117.4,"duration":"02m31s","delta_t_seconds":569.7,"catalog_number":7767,"source":"NASA Five Millennium Canon of Solar Eclipses","source_url":"https://eclipse.gsfc.nasa.gov/SEsearch/SEsearchmap.php?Ecl=%2B12610401"},{"id":"+12610926","year":1261,"month":9,"day":26,"time_tdt":"00:48:31","type":"금환일식","type_code":"A","saros":122,"gamma":-0.58779,"magnitude":0.98626,"greatest":{"lat":-34.98962,"lng":147.2699},"path_width_km":59,"duration":"01m12s","delta_t_seconds":568.6,"catalog_number":7768,"source":"NASA Five Millennium Canon of Solar Eclipses","source_url":"https://eclipse.gsfc.nasa.gov/SEsearch/SEsearchmap.php?Ecl=%2B12610926"}],"features":[{"type":"Feature","id":"+12610401:north:0","properties":{"id":"+12610401","year":1261,"month":4,"day":1,"time_tdt":"09:30:56","type":"금환일식","type_code":"A","saros":117,"gamma":0.55602,"magnitude":0.97235,"greatest":{"lat":36.61358,"lng":21.00665},"path_width_km":117.4,"duration":"02m31s","delta_t_seconds":569.7,"catalog_number":7767,"source":"NASA Five Millennium Canon of Solar Eclipses","source_url":"https://eclipse.gsfc.nasa.gov/SEsearch/SEsearchmap.php?Ecl=%2B12610401","boundary":"north","name":"1261-04-01 금환일식"},"geometry":{"type":"LineString","coordinates":[[-27.40625,6.43321],[-27,6.48468],[-26.5,6.55068],[-26,6.61965],[-25.5,6.69163],[-25,6.76668],[-24.5,6.84485],[-24,6.92618],[-23.5,7.01074],[-23,7.09858],[-22.5,7.18975],[-22,7.28431],[-21.5,7.38233],[-21,7.48386],[-20.5,7.58897],[-20,7.69773],[-19.5,7.8102],[-19,7.92645],[-18.5,8.04655],[-18,8.17057],[-17.5,8.2986],[-17,8.43071],[-16.5,8.56698],[-16,8.70749],[-15.5,8.85233],[-15,9.00159],[-14.5,9.15535],[-14,9.31372],[-13.5,9.47678],[-13,9.64464],[-12.5,9.8174],[-12,9.99516],[-11.5,10.17803],[-11,10.36612],[-10.5,10.55956],[-10,10.75845],[-9.5,10.96292],[-9,11.17309],[-8.5,11.38909],[-8,11.61106],[-7.5,11.83913],[-7,12.07344],[-6.5,12.31413],[-6,12.56135],[-5.5,12.81525],[-5,13.07598],[-4.5,13.3437],[-4,13.61857],[-3.5,13.90075],[-3,14.1904],[-2.5,14.4877],[-2,14.79281],[-1.5,15.1059],[-1,15.42714],[-0.5,15.75671],[0,16.09477],[0.5,16.44148],[1,16.79703],[1.5,17.16156],[2,17.53524],[2.5,17.9182],[3,18.3106],[3.5,18.71255],[4,19.12418],[4.5,19.54558],[5,19.97684],[5.5,20.41801],[6,20.86913],[6.5,21.33021],[7,21.80123],[7.5,22.28213],[8,22.77281],[8.5,23.27313],[9,23.78291],[9.5,24.30192],[10,24.82988],[10.5,25.36644],[11,25.91122],[11.5,26.46377],[12,27.02357],[12.5,27.59007],[13,28.16264],[13.5,28.74063],[14,29.32331],[14.5,29.90993],[15,30.49969],[15.5,31.09179],[16,31.68539],[16.5,32.27964],[17,32.87369],[17.5,33.4667],[18,34.05785],[18.5,34.64635],[19,35.23144],[19.5,35.81237],[20,36.38848],[20.5,36.95914],[21,37.52376],[21.5,38.08183],[22,38.63286],[22.5,39.17645],[23,39.71223],[23.5,40.2399],[24,40.75921],[24.5,41.26994],[25,41.77192],[25.5,42.26504],[26,42.74921],[26.5,43.22438],[27,43.69053],[27.5,44.14766],[28,44.59582],[28.5,45.03506],[29,45.46545],[29.5,45.88708],[30,46.30005],[30.5,46.70449],[31,47.10052],[31.5,47.48827],[32,47.86789],[32.5,48.23951],[33,48.6033],[33.5,48.95939],[34,49.30796],[34.5,49.64914],[35,49.9831],[35.5,50.30999],[36,50.62996],[36.5,50.94317],[37,51.24977],[37.5,51.5499],[38,51.84372],[38.5,52.13136],[39,52.41297],[39.5,52.68868],[40,52.95863],[40.5,53.22295],[41,53.48176],[41.5,53.73521],[42,53.9834],[42.5,54.22645],[43,54.46449],[43.5,54.69763],[44,54.92597],[44.5,55.14962],[45,55.36868],[45.5,55.58327],[46,55.79347],[46.5,55.99937],[47,56.20109],[47.5,56.39869],[48,56.59227],[48.5,56.78192],[49,56.96772],[49.5,57.14974],[50,57.32807],[50.5,57.50278],[51,57.67394],[51.5,57.84162],[52,58.0059],[52.5,58.16684],[53,58.3245],[53.5,58.47895],[54,58.63025],[54.5,58.77845],[55,58.92362],[55.5,59.06582],[56,59.20509],[56.5,59.34149],[57,59.47507],[57.5,59.60588],[58,59.73397],[58.5,59.85938],[59,59.98217],[59.5,60.10237],[60,60.22003],[60.5,60.3352],[61,60.4479],[61.5,60.55818],[62,60.66609],[62.5,60.77165],[63,60.8749],[63.5,60.97589],[64,61.07463],[64.5,61.17117],[65,61.26554],[65.5,61.35777],[66,61.44789],[66.5,61.53593],[67,61.62192],[67.5,61.70589],[68,61.78786],[68.5,61.86786],[69,61.94592],[69.5,62.02206],[70,62.09631],[70.5,62.16869],[71,62.23922],[71.5,62.30792],[72,62.37482],[72.5,62.43995],[73,62.50331],[73.5,62.56492],[74,62.62482],[74.5,62.68301],[75,62.73952],[75.5,62.79436],[76,62.84756],[76.5,62.89911],[77,62.94906],[77.5,62.9974],[78,63.04415],[78.5,63.08934],[79,63.13297],[79.5,63.17505],[80,63.21561],[80.5,63.25465],[81,63.29219],[81.5,63.32824],[82,63.36281],[82.5,63.39591],[83,63.42756],[83.5,63.45776],[84,63.48653],[84.5,63.51388],[85,63.53981],[85.5,63.56433],[86,63.58746],[86.5,63.60921],[87,63.62957],[87.5,63.64857],[88,63.6662],[88.5,63.68248],[89,63.69741],[89.5,63.711],[90,63.72326],[90.5,63.7342],[91,63.74381],[91.5,63.75211],[92,63.7591],[92.5,63.76479],[93,63.76918],[93.5,63.77228],[94,63.77409],[94.5,63.77462],[95,63.77387],[95.5,63.77185],[96,63.76856],[96.5,63.764],[97,63.75818],[97.5,63.7511],[98,63.74276],[98.5,63.73317],[99,63.72232],[99.5,63.71023],[100,63.6969],[100.5,63.68232],[101,63.6665],[101.5,63.64944],[102,63.63114],[102.5,63.61161],[103,63.59084],[103.5,63.56884],[104,63.54561],[104.5,63.52114],[105,63.49545],[105.5,63.46852],[106,63.44037],[106.5,63.41098],[107,63.38037],[107.5,63.34853],[108,63.31546],[108.5,63.28116],[109,63.24563],[109.5,63.20888],[110,63.17089],[110.5,63.13167],[111,63.09123],[111.5,63.04955],[112,63.00664],[112.5,62.96249],[113,62.91712],[113.5,62.8705],[114,62.82265],[114.5,62.77357],[115,62.72324],[115.5,62.67168],[116,62.61887],[116.5,62.56482],[117,62.50952],[117.5,62.45298],[118,62.39519],[118.5,62.33615],[119,62.27586],[119.5,62.21432],[120,62.15152],[120.5,62.08747]]}},{"type":"Feature","id":"+12610401:center:0","properties":{"id":"+12610401","year":1261,"month":4,"day":1,"time_tdt":"09:30:56","type":"금환일식","type_code":"A","saros":117,"gamma":0.55602,"magnitude":0.97235,"greatest":{"lat":36.61358,"lng":21.00665},"path_width_km":117.4,"duration":"02m31s","delta_t_seconds":569.7,"catalog_number":7767,"source":"NASA Five Millennium Canon of Solar Eclipses","source_url":"https://eclipse.gsfc.nasa.gov/SEsearch/SEsearchmap.php?Ecl=%2B12610401","boundary":"center","name":"1261-04-01 금환일식"},"geometry":{"type":"LineString","coordinates":[[-27.07063,5.64745],[-27,5.6533],[-26.5,5.72027],[-26,5.79018],[-25.5,5.86308],[-25,5.93901],[-24.5,6.01803],[-24,6.10018],[-23.5,6.18552],[-23,6.2741],[-22.5,6.36598],[-22,6.46122],[-21.5,6.55987],[-21,6.662],[-20.5,6.76766],[-20,6.87693],[-19.5,6.98986],[-19,7.10653],[-18.5,7.227],[-18,7.35135],[-17.5,7.47965],[-17,7.61198],[-16.5,7.74842],[-16,7.88904],[-15.5,8.03394],[-15,8.18319],[-14.5,8.33689],[-14,8.49512],[-13.5,8.65799],[-13,8.82559],[-12.5,8.99801],[-12,9.17537],[-11.5,9.35776],[-11,9.5453],[-10.5,9.7381],[-10,9.93627],[-9.5,10.13994],[-9,10.34923],[-8.5,10.56425],[-8,10.78515],[-7.5,11.01206],[-7,11.2451],[-6.5,11.48443],[-6,11.73019],[-5.5,11.98252],[-5,12.24157],[-4.5,12.50751],[-4,12.78047],[-3.5,13.06064],[-3,13.34816],[-2.5,13.6432],[-2,13.94593],[-1.5,14.25653],[-1,14.57515],[-0.5,14.90197],[0,15.23716],[0.5,15.58089],[1,15.93332],[1.5,16.29462],[2,16.66495],[2.5,17.04445],[3,17.43328],[3.5,17.83157],[4,18.23944],[4.5,18.657],[5,19.08434],[5.5,19.52154],[6,19.96865],[6.5,20.4257],[7,20.89267],[7.5,21.36954],[8,21.85623],[8.5,22.35263],[9,22.85859],[9.5,23.37391],[10,23.89832],[10.5,24.43154],[11,24.9732],[11.5,25.52289],[12,26.08013],[12.5,26.64439],[13,27.21509],[13.5,27.7916],[14,28.37322],[14.5,28.95922],[15,29.54883],[15.5,30.14124],[16,30.73564],[16.5,31.33116],[17,31.92696],[17.5,32.5222],[18,33.11604],[18.5,33.70765],[19,34.29626],[19.5,34.88111],[20,35.46148],[20.5,36.03672],[21,36.6062],[21.5,37.16938],[22,37.72574],[22.5,38.27483],[23,38.81626],[23.5,39.34969],[24,39.87483],[24.5,40.39145],[25,40.89935],[25.5,41.39839],[26,41.88846],[26.5,42.36949],[27,42.84144],[27.5,43.30431],[28,43.75812],[28.5,44.20291],[29,44.63875],[29.5,45.06572],[30,45.48392],[30.5,45.89346],[31,46.29447],[31.5,46.68707],[32,47.0714],[32.5,47.44761],[33,47.81585],[33.5,48.17627],[34,48.52903],[34.5,48.87427],[35,49.21217],[35.5,49.54287],[36,49.86653],[36.5,50.1833],[37,50.49335],[37.5,50.79681],[38,51.09384],[38.5,51.38458],[39,51.66919],[39.5,51.94779],[40,52.22052],[40.5,52.48753],[41,52.74893],[41.5,53.00487],[42,53.25546],[42.5,53.50083],[43,53.74109],[43.5,53.97636],[44,54.20676],[44.5,54.43238],[45,54.65335],[45.5,54.86975],[46,55.08169],[46.5,55.28928],[47,55.49259],[47.5,55.69173],[48,55.88678],[48.5,56.07783],[49,56.26497],[49.5,56.44827],[50,56.62782],[50.5,56.80368],[51,56.97595],[51.5,57.14468],[52,57.30994],[52.5,57.47182],[53,57.63037],[53.5,57.78565],[54,57.93773],[54.5,58.08667],[55,58.23253],[55.5,58.37537],[56,58.51523],[56.5,58.65218],[57,58.78627],[57.5,58.91754],[58,59.04605],[58.5,59.17184],[59,59.29496],[59.5,59.41546],[60,59.53338],[60.5,59.64875],[61,59.76163],[61.5,59.87206],[62,59.98006],[62.5,60.08569],[63,60.18897],[63.5,60.28995],[64,60.38865],[64.5,60.48511],[65,60.57937],[65.5,60.67145],[66,60.76139],[66.5,60.84922],[67,60.93496],[67.5,61.01864],[68,61.1003],[68.5,61.17996],[69,61.25764],[69.5,61.33337],[70,61.40718],[70.5,61.47908],[71,61.54911],[71.5,61.61728],[72,61.68362],[72.5,61.74815],[73,61.81088],[73.5,61.87184],[74,61.93106],[74.5,61.98854],[75,62.0443],[75.5,62.09837],[76,62.15076],[76.5,62.20149],[77,62.25057],[77.5,62.29802],[78,62.34386],[78.5,62.3881],[79,62.43076],[79.5,62.47184],[80,62.51137],[80.5,62.54935],[81,62.5858],[81.5,62.62073],[82,62.65416],[82.5,62.68609],[83,62.71654],[83.5,62.74552],[84,62.77303],[84.5,62.79909],[85,62.82371],[85.5,62.8469],[86,62.86866],[86.5,62.88901],[87,62.90796],[87.5,62.9255],[88,62.94166],[88.5,62.95644],[89,62.96984],[89.5,62.98187],[90,62.99255],[90.5,63.00187],[91,63.00984],[91.5,63.01647],[92,63.02177],[92.5,63.02573],[93,63.02838],[93.5,63.0297],[94,63.02971],[94.5,63.0284],[95,63.0258],[95.5,63.02189],[96,63.01668],[96.5,63.01018],[97,63.00239],[97.5,62.99331],[98,62.98295],[98.5,62.97131],[99,62.95839],[99.5,62.9442],[100,62.92873],[100.5,62.912],[101,62.89399],[101.5,62.87472],[102,62.85419],[102.5,62.83239],[103,62.80933],[103.5,62.78501],[104,62.75943],[104.5,62.73259],[105,62.7045],[105.5,62.67515],[106,62.64454],[106.5,62.61268],[107,62.57957],[107.5,62.5452],[108,62.50957],[108.5,62.47269],[109,62.43456],[109.5,62.39517],[110,62.35453],[110.5,62.31263],[111,62.26947],[111.5,62.22506],[112,62.17939],[112.5,62.13247],[113,62.08428],[113.5,62.03484],[114,61.98413],[114.5,61.93216],[115,61.87893],[115.5,61.82444],[116,61.76868],[116.5,61.71166],[117,61.65337],[117.5,61.59381],[118,61.53298],[118.5,61.47088],[119,61.4075],[119.5,61.34285],[120,61.27693],[120.23021,61.38154]]}},{"type":"Feature","id":"+12610401:south:0","properties":{"id":"+12610401","year":1261,"month":4,"day":1,"time_tdt":"09:30:56","type":"금환일식","type_code":"A","saros":117,"gamma":0.55602,"magnitude":0.97235,"greatest":{"lat":36.61358,"lng":21.00665},"path_width_km":117.4,"duration":"02m31s","delta_t_seconds":569.7,"catalog_number":7767,"source":"NASA Five Millennium Canon of Solar Eclipses","source_url":"https://eclipse.gsfc.nasa.gov/SEsearch/SEsearchmap.php?Ecl=%2B12610401","boundary":"south","name":"1261-04-01 금환일식"},"geometry":{"type":"LineString","coordinates":[[-26.73438,4.86357],[-26.5,4.89578],[-26,4.96665],[-25.5,5.04048],[-25,5.11731],[-24.5,5.1972],[-24,5.28019],[-23.5,5.36634],[-23,5.45569],[-22.5,5.54831],[-22,5.64425],[-21.5,5.74357],[-21,5.84632],[-20.5,5.95257],[-20,6.06238],[-19.5,6.17581],[-19,6.29293],[-18.5,6.41382],[-18,6.53853],[-17.5,6.66715],[-17,6.79975],[-16.5,6.9364],[-16,7.07718],[-15.5,7.22219],[-15,7.37149],[-14.5,7.52518],[-14,7.68334],[-13.5,7.84608],[-13,8.01348],[-12.5,8.18564],[-12,8.36266],[-11.5,8.54465],[-11,8.73171],[-10.5,8.92395],[-10,9.12149],[-9.5,9.32445],[-9,9.53294],[-8.5,9.74708],[-8,9.96701],[-7.5,10.19285],[-7,10.42474],[-6.5,10.66282],[-6,10.90723],[-5.5,11.1581],[-5,11.4156],[-4.5,11.67987],[-4,11.95107],[-3.5,12.22934],[-3,12.51487],[-2.5,12.8078],[-2,13.10831],[-1.5,13.41655],[-1,13.73271],[-0.5,14.05694],[0,14.38943],[0.5,14.73033],[1,15.07981],[1.5,15.43805],[2,15.8052],[2.5,16.18141],[3,16.56684],[3.5,16.96163],[4,17.36591],[4.5,17.77979],[5,18.20339],[5.5,18.63678],[6,19.08002],[6.5,19.53317],[7,19.99624],[7.5,20.4692],[8,20.95202],[8.5,21.4446],[9,21.94681],[9.5,22.45849],[10,22.97942],[10.5,23.50931],[11,24.04786],[11.5,24.59467],[12,25.14931],[12.5,25.71128],[13,26.28003],[13.5,26.85496],[14,27.4354],[14.5,28.02065],[15,28.60996],[15.5,29.20253],[16,29.79755],[16.5,30.39418],[17,30.99157],[17.5,31.58887],[18,32.18522],[18.5,32.7798],[19,33.37179],[19.5,33.96041],[20,34.54493],[20.5,35.12464],[21,35.6989],[21.5,36.26711],[22,36.82874],[22.5,37.38329],[23,37.93034],[23.5,38.46952],[24,39.0005],[24.5,39.52302],[25,40.03686],[25.5,40.54185],[26,41.03785],[26.5,41.52479],[27,42.00259],[27.5,42.47125],[28,42.93077],[28.5,43.38118],[29,43.82253],[29.5,44.2549],[30,44.67838],[30.5,45.09309],[31,45.49913],[31.5,45.89663],[32,46.28573],[32.5,46.66658],[33,47.03932],[33.5,47.40411],[34,47.76111],[34.5,48.11046],[35,48.45232],[35.5,48.78687],[36,49.11425],[36.5,49.43461],[37,49.74813],[37.5,50.05494],[38,50.35521],[38.5,50.64907],[39,50.93668],[39.5,51.21818],[40,51.49371],[40.5,51.76341],[41,52.0274],[41.5,52.28583],[42,52.53882],[42.5,52.78649],[43,53.02897],[43.5,53.26637],[44,53.49881],[44.5,53.72639],[45,53.94924],[45.5,54.16744],[46,54.38111],[46.5,54.59035],[47,54.79524],[47.5,54.99589],[48,55.19238],[48.5,55.38481],[49,55.57325],[49.5,55.7578],[50,55.93853],[50.5,56.11552],[51,56.28885],[51.5,56.45859],[52,56.62481],[52.5,56.78759],[53,56.94698],[53.5,57.10306],[54,57.25588],[54.5,57.40552],[55,57.55202],[55.5,57.69545],[56,57.83587],[56.5,57.97332],[57,58.10786],[57.5,58.23955],[58,58.36843],[58.5,58.49455],[59,58.61796],[59.5,58.7387],[60,58.85683],[60.5,58.97237],[61,59.08538],[61.5,59.19589],[62,59.30394],[62.5,59.40958],[63,59.51284],[63.5,59.61376],[64,59.71236],[64.5,59.80869],[65,59.90278],[65.5,59.99466],[66,60.08436],[66.5,60.17192],[67,60.25736],[67.5,60.3407],[68,60.42199],[68.5,60.50125],[69,60.57849],[69.5,60.65376],[70,60.72707],[70.5,60.79844],[71,60.86791],[71.5,60.93549],[72,61.00121],[72.5,61.06508],[73,61.12713],[73.5,61.18738],[74,61.24585],[74.5,61.30256],[75,61.35752],[75.5,61.41076],[76,61.46229],[76.5,61.51213],[77,61.56029],[77.5,61.6068],[78,61.65166],[78.5,61.69489],[79,61.73651],[79.5,61.77654],[80,61.81497],[80.5,61.85184],[81,61.88714],[81.5,61.9209],[82,61.95312],[82.5,61.98383],[83,62.01301],[83.5,62.0407],[84,62.0669],[84.5,62.09162],[85,62.11487],[85.5,62.13666],[86,62.157],[86.5,62.1759],[87,62.19336],[87.5,62.2094],[88,62.22403],[88.5,62.23724],[89,62.24905],[89.5,62.25947],[90,62.2685],[90.5,62.27615],[91,62.28242],[91.5,62.28733],[92,62.29087],[92.5,62.29306],[93,62.29389],[93.5,62.29338],[94,62.29153],[94.5,62.28833],[95,62.28381],[95.5,62.27796],[96,62.27078],[96.5,62.26229],[97,62.25247],[97.5,62.24135],[98,62.22891],[98.5,62.21516],[99,62.20011],[99.5,62.18376],[100,62.16611],[100.5,62.14717],[101,62.12692],[101.5,62.10539],[102,62.08256],[102.5,62.05845],[103,62.03305],[103.5,62.00636],[104,61.97839],[104.5,61.94913],[105,61.91859],[105.5,61.88676],[106,61.85366],[106.5,61.81927],[107,61.78361],[107.5,61.74666],[108,61.70844],[108.5,61.66893],[109,61.62815],[109.5,61.58608],[110,61.54274],[110.5,61.49811],[111,61.45221],[111.5,61.40502],[112,61.35656],[112.5,61.30681],[113,61.25578],[113.5,61.20347],[114,61.14987],[114.5,61.09499],[115,61.03882],[115.5,60.98137],[116,60.92263],[116.5,60.8626],[117,60.80128],[117.5,60.73868],[118,60.67478],[118.5,60.60959],[119,60.5431],[119.5,60.47533],[119.54102,60.46971]]}},{"type":"Feature","id":"+12610926:north:0","properties":{"id":"+12610926","year":1261,"month":9,"day":26,"time_tdt":"00:48:31","type":"금환일식","type_code":"A","saros":122,"gamma":-0.58779,"magnitude":0.98626,"greatest":{"lat":-34.98962,"lng":147.2699},"path_width_km":59,"duration":"01m12s","delta_t_seconds":568.6,"catalog_number":7768,"source":"NASA Five Millennium Canon of Solar Eclipses","source_url":"https://eclipse.gsfc.nasa.gov/SEsearch/SEsearchmap.php?Ecl=%2B12610926","boundary":"north","name":"1261-09-26 금환일식"},"geometry":{"type":"LineString","coordinates":[[99.64062,-6.62607],[100,-6.6542],[100.5,-6.6958],[101,-6.74029],[101.5,-6.78771],[102,-6.83812],[102.5,-6.89156],[103,-6.94808],[103.5,-7.00774],[104,-7.07059],[104.5,-7.13668],[105,-7.20606],[105.5,-7.2788],[106,-7.35495],[106.5,-7.43458],[107,-7.51774],[107.5,-7.60451],[108,-7.69494],[108.5,-7.7891],[109,-7.88707],[109.5,-7.98892],[110,-8.09472],[110.5,-8.20455],[111,-8.31848],[111.5,-8.43661],[112,-8.559],[112.5,-8.68575],[113,-8.81695],[113.5,-8.95269],[114,-9.09306],[114.5,-9.23816],[115,-9.38809],[115.5,-9.54295],[116,-9.70285],[116.5,-9.8679],[117,-10.03822],[117.5,-10.21391],[118,-10.3951],[118.5,-10.58191],[119,-10.77446],[119.5,-10.9729],[120,-11.17735],[120.5,-11.38795],[121,-11.60484],[121.5,-11.82817],[122,-12.05808],[122.5,-12.29473],[123,-12.53828],[123.5,-12.78889],[124,-13.04671],[124.5,-13.31191],[125,-13.58467],[125.5,-13.86515],[126,-14.15354],[126.5,-14.44999],[127,-14.7547],[127.5,-15.06784],[128,-15.38959],[128.5,-15.72012],[129,-16.0596],[129.5,-16.40822],[130,-16.76613],[130.5,-17.1335],[131,-17.51048],[131.5,-17.89722],[132,-18.29384],[132.5,-18.70047],[133,-19.11721],[133.5,-19.54413],[134,-19.98132],[134.5,-20.42878],[135,-20.88655],[135.5,-21.35458],[136,-21.83282],[136.5,-22.32117],[137,-22.81948],[137.5,-23.32756],[138,-23.84518],[138.5,-24.37205],[139,-24.90782],[139.5,-25.45208],[140,-26.00438],[140.5,-26.56421],[141,-27.13099],[141.5,-27.70411],[142,-28.28289],[142.5,-28.86661],[143,-29.45452],[143.5,-30.04582],[144,-30.63971],[144.5,-31.23535],[145,-31.8319],[145.5,-32.42852],[146,-33.02438],[146.5,-33.61866],[147,-34.21059],[147.5,-34.7994],[148,-35.38438],[148.5,-35.96486],[149,-36.54021],[149.5,-37.10985],[150,-37.67327],[150.5,-38.22999],[151,-38.7796],[151.5,-39.32174],[152,-39.8561],[152.5,-40.3824],[153,-40.90045],[153.5,-41.41005],[154,-41.91109],[154.5,-42.40346],[155,-42.88709],[155.5,-43.36197],[156,-43.82807],[156.5,-44.28543],[157,-44.73408],[157.5,-45.17409],[158,-45.60552],[158.5,-46.02848],[159,-46.44306],[159.5,-46.84938],[160,-47.24756],[160.5,-47.63772],[161,-48.02001],[161.5,-48.39455],[162,-48.7615],[162.5,-49.12099],[163,-49.47318],[163.5,-49.8182],[164,-50.1562],[164.5,-50.48734],[165,-50.81174],[165.5,-51.12956],[166,-51.44094],[166.5,-51.74602],[167,-52.04494],[167.5,-52.33783],[168,-52.62482],[168.5,-52.90605],[169,-53.18164],[169.5,-53.45172],[170,-53.71641],[170.5,-53.97583],[171,-54.23009],[171.5,-54.47931],[172,-54.7236],[172.5,-54.96307],[173,-55.19782],[173.5,-55.42795],[174,-55.65357],[174.5,-55.87476],[175,-56.09163],[175.5,-56.30427],[176,-56.51276],[176.5,-56.7172],[177,-56.91766],[177.5,-57.11423],[178,-57.30698],[178.5,-57.496],[179,-57.68136],[179.5,-57.86314],[180,-58.0414]]}},{"type":"Feature","id":"+12610926:north:1","properties":{"id":"+12610926","year":1261,"month":9,"day":26,"time_tdt":"00:48:31","type":"금환일식","type_code":"A","saros":122,"gamma":-0.58779,"magnitude":0.98626,"greatest":{"lat":-34.98962,"lng":147.2699},"path_width_km":59,"duration":"01m12s","delta_t_seconds":568.6,"catalog_number":7768,"source":"NASA Five Millennium Canon of Solar Eclipses","source_url":"https://eclipse.gsfc.nasa.gov/SEsearch/SEsearchmap.php?Ecl=%2B12610926","boundary":"north","name":"1261-09-26 금환일식"},"geometry":{"type":"LineString","coordinates":[[-179.5,-58.21621],[-179,-58.38764],[-178.5,-58.55576],[-178,-58.72063],[-177.5,-58.8823],[-177,-59.04085],[-176.5,-59.19633],[-176,-59.34879],[-175.5,-59.4983],[-175,-59.64489],[-174.5,-59.78864],[-174,-59.92958],[-173.5,-60.06777],[-173,-60.20325],[-172.5,-60.33608],[-172,-60.46629],[-171.5,-60.59393],[-171,-60.71904],[-170.5,-60.84167],[-170,-60.96185],[-169.5,-61.07963],[-169,-61.19504],[-168.5,-61.30812],[-168,-61.4189],[-167.5,-61.52743],[-167,-61.63374],[-166.5,-61.73786],[-166,-61.83982],[-165.5,-61.93965],[-165,-62.03739],[-164.5,-62.13307],[-164,-62.22671],[-163.5,-62.31834],[-163,-62.40799],[-162.5,-62.49569],[-162,-62.58147],[-161.5,-62.66535],[-161,-62.74735],[-160.5,-62.8275],[-160,-62.90582],[-159.5,-62.98233],[-159,-63.05707],[-158.5,-63.13004],[-158,-63.20128],[-157.5,-63.27079],[-157,-63.33861],[-156.5,-63.40474],[-156,-63.46922],[-155.5,-63.53206],[-155,-63.59327],[-154.5,-63.65287],[-154,-63.71089],[-153.5,-63.76733],[-153,-63.82221],[-152.5,-63.87556],[-152,-63.92738],[-151.5,-63.97768],[-151,-64.02649],[-150.5,-64.07382],[-150,-64.11968],[-149.5,-64.16408],[-149,-64.20703],[-148.5,-64.24856],[-148,-64.28867],[-147.5,-64.32737],[-147,-64.36467],[-146.5,-64.40059],[-146,-64.43513],[-145.5,-64.46831],[-145,-64.50014],[-144.5,-64.53062],[-144,-64.55977],[-143.5,-64.58759],[-143,-64.6141],[-142.5,-64.63929],[-142,-64.66319],[-141.5,-64.68579],[-141,-64.70711],[-140.5,-64.72716],[-140,-64.74593],[-139.5,-64.76344],[-139,-64.7797],[-138.5,-64.7947],[-138,-64.80846],[-137.5,-64.82099],[-137,-64.83228],[-136.5,-64.84235],[-136,-64.85119],[-135.5,-64.85882],[-135,-64.86524],[-134.5,-64.87045],[-134,-64.87446],[-133.5,-64.87727],[-133,-64.87888],[-132.5,-64.87931],[-132,-64.87855],[-131.5,-64.8766],[-131,-64.87348],[-130.5,-64.86918],[-130,-64.8637],[-129.5,-64.85706],[-129,-64.84924],[-128.5,-64.84026],[-128,-64.83012],[-127.5,-64.81881],[-127,-64.80634],[-126.5,-64.79271],[-126,-64.77793],[-125.5,-64.76198],[-125,-64.74489],[-124.5,-64.72664],[-124,-64.70724],[-123.5,-64.68668],[-123,-64.66498],[-122.5,-64.64212],[-122,-64.61812],[-121.5,-64.59296],[-121,-64.56666],[-120.5,-64.5392],[-120,-64.5106],[-119.5,-64.48084],[-119,-64.44994],[-118.5,-64.41788],[-118,-64.38467],[-117.5,-64.35031],[-117,-64.3148],[-116.55859,-64.28249]]}},{"type":"Feature","id":"+12610926:center:0","properties":{"id":"+12610926","year":1261,"month":9,"day":26,"time_tdt":"00:48:31","type":"금환일식","type_code":"A","saros":122,"gamma":-0.58779,"magnitude":0.98626,"greatest":{"lat":-34.98962,"lng":147.2699},"path_width_km":59,"duration":"01m12s","delta_t_seconds":568.6,"catalog_number":7768,"source":"NASA Five Millennium Canon of Solar Eclipses","source_url":"https://eclipse.gsfc.nasa.gov/SEsearch/SEsearchmap.php?Ecl=%2B12610926","boundary":"center","name":"1261-09-26 금환일식"},"geometry":{"type":"LineString","coordinates":[[99.43656,-7.1776],[99.5,-7.1777],[100,-7.21463],[100.5,-7.25442],[101,-7.2971],[101.5,-7.34272],[102,-7.39134],[102.5,-7.443],[103,-7.49776],[103.5,-7.55565],[104,-7.61674],[104.5,-7.68109],[105,-7.74874],[105.5,-7.81976],[106,-7.8942],[106.5,-7.97213],[107,-8.0536],[107.5,-8.1387],[108,-8.22747],[108.5,-8.31998],[109,-8.41632],[109.5,-8.51655],[110,-8.62075],[110.5,-8.72899],[111,-8.84136],[111.5,-8.95793],[112,-9.07879],[112.5,-9.20402],[113,-9.33373],[113.5,-9.46799],[114,-9.6069],[114.5,-9.75057],[115,-9.89908],[115.5,-10.05255],[116,-10.21109],[116.5,-10.3748],[117,-10.5438],[117.5,-10.7182],[118,-10.89812],[118.5,-11.0837],[119,-11.27505],[119.5,-11.47231],[120,-11.67561],[120.5,-11.8851],[121,-12.10091],[121.5,-12.32319],[122,-12.55209],[122.5,-12.78776],[123,-13.03037],[123.5,-13.28007],[124,-13.53702],[124.5,-13.8014],[125,-14.07337],[125.5,-14.3531],[126,-14.64078],[126.5,-14.93657],[127,-15.24065],[127.5,-15.55321],[128,-15.87441],[128.5,-16.20444],[129,-16.54346],[129.5,-16.89166],[130,-17.24919],[130.5,-17.61622],[131,-17.9929],[131.5,-18.37936],[132,-18.77575],[132.5,-19.18217],[133,-19.59873],[133.5,-20.0255],[134,-20.46254],[134.5,-20.90988],[135,-21.36752],[135.5,-21.83543],[136,-22.31355],[136.5,-22.80176],[137,-23.29991],[137.5,-23.80781],[138,-24.32521],[138.5,-24.85181],[139,-25.38725],[139.5,-25.93112],[140,-26.48296],[140.5,-27.04224],[141,-27.60839],[141.5,-28.18078],[142,-28.75873],[142.5,-29.34152],[143,-29.92838],[143.5,-30.51853],[144,-31.11116],[144.5,-31.70542],[145,-32.3005],[145.5,-32.89554],[146,-33.48973],[146.5,-34.08227],[147,-34.67237],[147.5,-35.25928],[148,-35.84231],[148.5,-36.42078],[149,-36.99409],[149.5,-37.56166],[150,-38.123],[150.5,-38.67764],[151,-39.22516],[151.5,-39.76523],[152,-40.29754],[152.5,-40.82183],[153,-41.33788],[153.5,-41.84554],[154,-42.34467],[154.5,-42.83518],[155,-43.31702],[155.5,-43.79015],[156,-44.25456],[156.5,-44.71029],[157,-45.15737],[157.5,-45.59586],[158,-46.02585],[158.5,-46.44742],[159,-46.86067],[159.5,-47.26572],[160,-47.66269],[160.5,-48.05171],[161,-48.4329],[161.5,-48.80641],[162,-49.17238],[162.5,-49.53094],[163,-49.88225],[163.5,-50.22644],[164,-50.56366],[164.5,-50.89406],[165,-51.21778],[165.5,-51.53496],[166,-51.84575],[166.5,-52.15027],[167,-52.44867],[167.5,-52.74108],[168,-53.02763],[168.5,-53.30845],[169,-53.58368],[169.5,-53.85342],[170,-54.1178],[170.5,-54.37695],[171,-54.63097],[171.5,-54.87998],[172,-55.12408],[172.5,-55.36339],[173,-55.59801],[173.5,-55.82804],[174,-56.05358],[174.5,-56.27472],[175,-56.49156],[175.5,-56.70419],[176,-56.91269],[176.5,-57.11716],[177,-57.31768],[177.5,-57.51432],[178,-57.70717],[178.5,-57.89631],[179,-58.08181],[179.5,-58.26373],[180,-58.44216]]}},{"type":"Feature","id":"+12610926:center:1","properties":{"id":"+12610926","year":1261,"month":9,"day":26,"time_tdt":"00:48:31","type":"금환일식","type_code":"A","saros":122,"gamma":-0.58779,"magnitude":0.98626,"greatest":{"lat":-34.98962,"lng":147.2699},"path_width_km":59,"duration":"01m12s","delta_t_seconds":568.6,"catalog_number":7768,"source":"NASA Five Millennium Canon of Solar Eclipses","source_url":"https://eclipse.gsfc.nasa.gov/SEsearch/SEsearchmap.php?Ecl=%2B12610926","boundary":"center","name":"1261-09-26 금환일식"},"geometry":{"type":"LineString","coordinates":[[-179.5,-58.61716],[-179,-58.7888],[-178.5,-58.95714],[-178,-59.12225],[-177.5,-59.28418],[-177,-59.443],[-176.5,-59.59877],[-176,-59.75154],[-175.5,-59.90136],[-175,-60.04829],[-174.5,-60.19238],[-174,-60.33369],[-173.5,-60.47225],[-173,-60.60813],[-172.5,-60.74136],[-172,-60.87199],[-171.5,-61.00006],[-171,-61.12562],[-170.5,-61.24871],[-170,-61.36936],[-169.5,-61.48763],[-169,-61.60354],[-168.5,-61.71713],[-168,-61.82845],[-167.5,-61.93752],[-167,-62.04438],[-166.5,-62.14906],[-166,-62.2516],[-165.5,-62.35203],[-165,-62.45037],[-164.5,-62.54667],[-164,-62.64094],[-163.5,-62.73321],[-163,-62.82352],[-162.5,-62.91189],[-162,-62.99835],[-161.5,-63.08292],[-161,-63.16563],[-160.5,-63.2465],[-160,-63.32555],[-159.5,-63.40282],[-159,-63.47831],[-158.5,-63.55206],[-158,-63.62408],[-157.5,-63.69439],[-157,-63.76302],[-156.5,-63.82998],[-156,-63.89529],[-155.5,-63.95898],[-155,-64.02105],[-154.5,-64.08154],[-154,-64.14044],[-153.5,-64.19779],[-153,-64.25359],[-152.5,-64.30786],[-152,-64.36063],[-151.5,-64.41189],[-151,-64.46167],[-150.5,-64.50998],[-150,-64.55684],[-149.5,-64.60225],[-149,-64.64624],[-148.5,-64.6888],[-148,-64.72997],[-147.5,-64.76973],[-147,-64.80812],[-146.5,-64.84514],[-146,-64.8808],[-145.5,-64.9151],[-145,-64.94807],[-144.5,-64.97971],[-144,-65.01003],[-143.5,-65.03903],[-143,-65.06674],[-142.5,-65.09315],[-142,-65.11828],[-141.5,-65.14213],[-141,-65.16471],[-140.5,-65.18603],[-140,-65.2061],[-139.5,-65.22491],[-139,-65.24249],[-138.5,-65.25883],[-138,-65.27395],[-137.5,-65.28784],[-137,-65.30052],[-136.5,-65.31199],[-136,-65.32225],[-135.5,-65.33131],[-135,-65.33918],[-134.5,-65.34585],[-134,-65.35134],[-133.5,-65.35565],[-133,-65.35878],[-132.5,-65.36074],[-132,-65.36153],[-131.5,-65.36115],[-131,-65.35961],[-130.5,-65.35691],[-130,-65.35305],[-129.5,-65.34803],[-129,-65.34187],[-128.5,-65.33455],[-128,-65.32609],[-127.5,-65.31649],[-127,-65.30573],[-126.5,-65.29384],[-126,-65.28081],[-125.5,-65.26664],[-125,-65.25133],[-124.5,-65.23489],[-124,-65.21731],[-123.5,-65.1986],[-123,-65.17875],[-122.5,-65.15778],[-122,-65.13566],[-121.5,-65.11242],[-121,-65.08805],[-120.5,-65.06254],[-120,-65.0359],[-119.5,-65.00813],[-119,-64.97923],[-118.5,-64.94919],[-118,-64.91802],[-117.5,-64.88572],[-117,-64.85228],[-116.5,-64.8177],[-116.20948,-64.92392]]}},{"type":"Feature","id":"+12610926:south:0","properties":{"id":"+12610926","year":1261,"month":9,"day":26,"time_tdt":"00:48:31","type":"금환일식","type_code":"A","saros":122,"gamma":-0.58779,"magnitude":0.98626,"greatest":{"lat":-34.98962,"lng":147.2699},"path_width_km":59,"duration":"01m12s","delta_t_seconds":568.6,"catalog_number":7768,"source":"NASA Five Millennium Canon of Solar Eclipses","source_url":"https://eclipse.gsfc.nasa.gov/SEsearch/SEsearchmap.php?Ecl=%2B12610926","boundary":"south","name":"1261-09-26 금환일식"},"geometry":{"type":"LineString","coordinates":[[99.24023,-7.72486],[99.5,-7.74198],[100,-7.77708],[100.5,-7.81504],[101,-7.8559],[101.5,-7.89972],[102,-7.94654],[102.5,-7.99641],[103,-8.04938],[103.5,-8.10551],[104,-8.16484],[104.5,-8.22743],[105,-8.29334],[105.5,-8.36263],[106,-8.43536],[106.5,-8.51158],[107,-8.59136],[107.5,-8.67477],[108,-8.76188],[108.5,-8.85274],[109,-8.94745],[109.5,-9.04605],[110,-9.14865],[110.5,-9.2553],[111,-9.36609],[111.5,-9.4811],[112,-9.60043],[112.5,-9.72415],[113,-9.85235],[113.5,-9.98513],[114,-10.12259],[114.5,-10.26482],[115,-10.41193],[115.5,-10.56401],[116,-10.72118],[116.5,-10.88356],[117,-11.05124],[117.5,-11.22436],[118,-11.40303],[118.5,-11.58737],[119,-11.77753],[119.5,-11.97362],[120,-12.17579],[120.5,-12.38417],[121,-12.59891],[121.5,-12.82015],[122,-13.04805],[122.5,-13.28276],[123,-13.52444],[123.5,-13.77325],[124,-14.02936],[124.5,-14.29293],[125,-14.56413],[125.5,-14.84314],[126,-15.13013],[126.5,-15.42528],[127,-15.72876],[127.5,-16.04076],[128,-16.36145],[128.5,-16.69101],[129,-17.02961],[129.5,-17.37742],[130,-17.73461],[130.5,-18.10133],[131,-18.47775],[131.5,-18.86398],[132,-19.26018],[132.5,-19.66644],[133,-20.08286],[133.5,-20.50952],[134,-20.94647],[134.5,-21.39373],[135,-21.8513],[135.5,-22.31915],[136,-22.7972],[136.5,-23.28532],[137,-23.78338],[137.5,-24.29115],[138,-24.80838],[138.5,-25.33476],[139,-25.86993],[139.5,-26.41347],[140,-26.96491],[140.5,-27.52371],[141,-28.08929],[141.5,-28.66101],[142,-29.23819],[142.5,-29.8201],[143,-30.40599],[143.5,-30.99505],[144,-31.58648],[144.5,-32.17944],[145,-32.7731],[145.5,-33.36664],[146,-33.95923],[146.5,-34.55008],[147,-35.13841],[147.5,-35.7235],[148,-36.30463],[148.5,-36.88117],[149,-37.45251],[149.5,-38.01809],[150,-38.57741],[150.5,-39.13003],[151,-39.67554],[151.5,-40.2136],[152,-40.74392],[152.5,-41.26625],[153,-41.78037],[153.5,-42.28614],[154,-42.78342],[154.5,-43.27214],[155,-43.75222],[155.5,-44.22365],[156,-44.68642],[156.5,-45.14056],[157,-45.58611],[157.5,-46.02314],[158,-46.45172],[158.5,-46.87193],[159,-47.28389],[159.5,-47.68771],[160,-48.0835],[160.5,-48.47139],[161,-48.85152],[161.5,-49.22401],[162,-49.58902],[162.5,-49.94667],[163,-50.29712],[163.5,-50.6405],[164,-50.97697],[164.5,-51.30665],[165,-51.6297],[165.5,-51.94625],[166,-52.25644],[166.5,-52.56041],[167,-52.8583],[167.5,-53.15024],[168,-53.43635],[168.5,-53.71677],[169,-53.99163],[169.5,-54.26103],[170,-54.52511],[170.5,-54.78398],[171,-55.03776],[171.5,-55.28655],[172,-55.53047],[172.5,-55.76962],[173,-56.0041],[173.5,-56.23402],[174,-56.45947],[174.5,-56.68054],[175,-56.89734],[175.5,-57.10995],[176,-57.31846],[176.5,-57.52295],[177,-57.72351],[177.5,-57.92022],[178,-58.11316],[178.5,-58.30239],[179,-58.48801],[179.5,-58.67007],[180,-58.84866]]}},{"type":"Feature","id":"+12610926:south:1","properties":{"id":"+12610926","year":1261,"month":9,"day":26,"time_tdt":"00:48:31","type":"금환일식","type_code":"A","saros":122,"gamma":-0.58779,"magnitude":0.98626,"greatest":{"lat":-34.98962,"lng":147.2699},"path_width_km":59,"duration":"01m12s","delta_t_seconds":568.6,"catalog_number":7768,"source":"NASA Five Millennium Canon of Solar Eclipses","source_url":"https://eclipse.gsfc.nasa.gov/SEsearch/SEsearchmap.php?Ecl=%2B12610926","boundary":"south","name":"1261-09-26 금환일식"},"geometry":{"type":"LineString","coordinates":[[-179.5,-59.02383],[-179,-59.19566],[-178.5,-59.36421],[-178,-59.52953],[-177.5,-59.6917],[-177,-59.85078],[-176.5,-60.00681],[-176,-60.15986],[-175.5,-60.30998],[-175,-60.45723],[-174.5,-60.60165],[-174,-60.74329],[-173.5,-60.88221],[-173,-61.01846],[-172.5,-61.15207],[-172,-61.28309],[-171.5,-61.41158],[-171,-61.53756],[-170.5,-61.66108],[-170,-61.78219],[-169.5,-61.90092],[-169,-62.0173],[-168.5,-62.13139],[-168,-62.2432],[-167.5,-62.35279],[-167,-62.46018],[-166.5,-62.5654],[-166,-62.66849],[-165.5,-62.76948],[-165,-62.8684],[-164.5,-62.96529],[-164,-63.06016],[-163.5,-63.15305],[-163,-63.24399],[-162.5,-63.333],[-162,-63.42011],[-161.5,-63.50535],[-161,-63.58873],[-160.5,-63.67029],[-160,-63.75005],[-159.5,-63.82803],[-159,-63.90425],[-158.5,-63.97874],[-158,-64.05152],[-157.5,-64.1226],[-157,-64.19201],[-156.5,-64.25976],[-156,-64.32588],[-155.5,-64.39039],[-155,-64.45329],[-154.5,-64.51462],[-154,-64.57439],[-153.5,-64.6326],[-153,-64.68929],[-152.5,-64.74446],[-152,-64.79814],[-151.5,-64.85033],[-151,-64.90105],[-150.5,-64.95031],[-150,-64.99814],[-149.5,-65.04453],[-149,-65.08951],[-148.5,-65.13308],[-148,-65.17527],[-147.5,-65.21607],[-147,-65.25551],[-146.5,-65.29359],[-146,-65.33033],[-145.5,-65.36573],[-145,-65.3998],[-144.5,-65.43256],[-144,-65.46402],[-143.5,-65.49418],[-143,-65.52305],[-142.5,-65.55064],[-142,-65.57697],[-141.5,-65.60203],[-141,-65.62584],[-140.5,-65.6484],[-140,-65.66972],[-139.5,-65.68981],[-139,-65.70867],[-138.5,-65.72632],[-138,-65.74275],[-137.5,-65.75798],[-137,-65.77201],[-136.5,-65.78484],[-136,-65.79649],[-135.5,-65.80695],[-135,-65.81623],[-134.5,-65.82434],[-134,-65.83127],[-133.5,-65.83705],[-133,-65.84166],[-132.5,-65.84511],[-132,-65.84741],[-131.5,-65.84856],[-131,-65.84857],[-130.5,-65.84743],[-130,-65.84515],[-129.5,-65.84174],[-129,-65.83718],[-128.5,-65.8315],[-128,-65.82469],[-127.5,-65.81675],[-127,-65.80768],[-126.5,-65.79749],[-126,-65.78618],[-125.5,-65.77374],[-125,-65.76019],[-124.5,-65.74552],[-124,-65.72973],[-123.5,-65.71282],[-123,-65.6948],[-122.5,-65.67566],[-122,-65.65541],[-121.5,-65.63405],[-121,-65.61157],[-120.5,-65.58797],[-120,-65.56327],[-119.5,-65.53745],[-119,-65.51051],[-118.5,-65.48246],[-118,-65.4533],[-117.5,-65.42301],[-117,-65.39162],[-116,-65.32547],[-116.5,-65.3591]]}}],"attribution":"Eclipse Predictions by Fred Espenak and Jean Meeus (NASA's GSFC)","generated_at":"2026-09-23T03:35:45.155Z"}
