{"type":"FeatureCollection","year":1280,"events":[{"id":"+12800302","year":1280,"month":3,"day":2,"time_tdt":"17:25:39","type":"부분일식","type_code":"P","saros":89,"gamma":-1.42506,"magnitude":0.20839,"greatest":{"lat":-61.14672,"lng":20.68079},"path_width_km":0,"duration":"00m00s","delta_t_seconds":527.5,"catalog_number":7813,"source":"NASA Five Millennium Canon of Solar Eclipses","source_url":"https://eclipse.gsfc.nasa.gov/SEsearch/SEsearchmap.php?Ecl=%2B12800302"},{"id":"+12800401","year":1280,"month":4,"day":1,"time_tdt":"02:54:21","type":"부분일식","type_code":"P","saros":127,"gamma":1.20076,"magnitude":0.62976,"greatest":{"lat":61.15358,"lng":35.35876},"path_width_km":0,"duration":"00m00s","delta_t_seconds":527.3,"catalog_number":7814,"source":"NASA Five Millennium Canon of Solar Eclipses","source_url":"https://eclipse.gsfc.nasa.gov/SEsearch/SEsearchmap.php?Ecl=%2B12800401"},{"id":"+12800925","year":1280,"month":9,"day":25,"time_tdt":"13:06:53","type":"부분일식","type_code":"P","saros":132,"gamma":-1.32182,"magnitude":0.41314,"greatest":{"lat":-60.97057,"lng":-114.38696},"path_width_km":0,"duration":"00m00s","delta_t_seconds":526.3,"catalog_number":7815,"source":"NASA Five Millennium Canon of Solar Eclipses","source_url":"https://eclipse.gsfc.nasa.gov/SEsearch/SEsearchmap.php?Ecl=%2B12800925"}],"features":[],"attribution":"Eclipse Predictions by Fred Espenak and Jean Meeus (NASA's GSFC)","generated_at":"2026-09-23T03:35:45.184Z"}
