{"type":"FeatureCollection","year":1286,"events":[{"id":"+12860524","year":1286,"month":5,"day":24,"time_tdt":"23:36:15","type":"금환일식","type_code":"A","saros":116,"gamma":-0.38255,"magnitude":0.96321,"greatest":{"lat":-0.37885,"lng":-171.85999},"path_width_km":144,"duration":"04m55s","delta_t_seconds":514.3,"catalog_number":7828,"source":"NASA Five Millennium Canon of Solar Eclipses","source_url":"https://eclipse.gsfc.nasa.gov/SEsearch/SEsearchmap.php?Ecl=%2B12860524"},{"id":"+12861117","year":1286,"month":11,"day":17,"time_tdt":"15:03:22","type":"개기일식","type_code":"T","saros":121,"gamma":0.4865,"magnitude":1.04415,"greatest":{"lat":8.22001,"lng":-43.93756},"path_width_km":168.5,"duration":"04m17s","delta_t_seconds":513.2,"catalog_number":7829,"source":"NASA Five Millennium Canon of Solar Eclipses","source_url":"https://eclipse.gsfc.nasa.gov/SEsearch/SEsearchmap.php?Ecl=%2B12861117"}],"features":[{"type":"Feature","id":"+12860524:north:0","properties":{"id":"+12860524","year":1286,"month":5,"day":24,"time_tdt":"23:36:15","type":"금환일식","type_code":"A","saros":116,"gamma":-0.38255,"magnitude":0.96321,"greatest":{"lat":-0.37885,"lng":-171.85999},"path_width_km":144,"duration":"04m55s","delta_t_seconds":514.3,"catalog_number":7828,"source":"NASA Five Millennium Canon of Solar Eclipses","source_url":"https://eclipse.gsfc.nasa.gov/SEsearch/SEsearchmap.php?Ecl=%2B12860524","boundary":"north","name":"1286-05-24 금환일식"},"geometry":{"type":"LineString","coordinates":[[133.75586,-22.46286],[134,-22.36292],[134.5,-22.15736],[135,-21.95059],[135.5,-21.74261],[136,-21.53343],[136.5,-21.32305],[137,-21.11147],[137.5,-20.89868],[138,-20.68469],[138.5,-20.46951],[139,-20.25313],[139.5,-20.03556],[140,-19.8168],[140.5,-19.59686],[141,-19.37574],[141.5,-19.15344],[142,-18.92998],[142.5,-18.70535],[143,-18.47957],[143.5,-18.25264],[144,-18.02457],[144.5,-17.79537],[145,-17.56506],[145.5,-17.33364],[146,-17.10112],[146.5,-16.86752],[147,-16.63285],[147.5,-16.39712],[148,-16.16037],[148.5,-15.92259],[149,-15.68381],[149.5,-15.44406],[150,-15.20334],[150.5,-14.96169],[151,-14.71914],[151.5,-14.47569],[152,-14.2314],[152.5,-13.98628],[153,-13.74036],[153.5,-13.49369],[154,-13.24629],[154.5,-12.99821],[155,-12.74948],[155.5,-12.50015],[156,-12.25027],[156.5,-11.99988],[157,-11.74902],[157.5,-11.49777],[158,-11.24616],[158.5,-10.99427],[159,-10.74214],[159.5,-10.48986],[160,-10.23749],[160.5,-9.98509],[161,-9.73275],[161.5,-9.48055],[162,-9.22857],[162.5,-8.9769],[163,-8.72562],[163.5,-8.47484],[164,-8.22465],[164.5,-7.97516],[165,-7.72648],[165.5,-7.47872],[166,-7.23199],[166.5,-6.98642],[167,-6.74214],[167.5,-6.49927],[168,-6.25795],[168.5,-6.01832],[169,-5.78052],[169.5,-5.54471],[170,-5.31102],[170.5,-5.07963],[171,-4.85068],[171.5,-4.62435],[172,-4.40079],[172.5,-4.18019],[173,-3.9627],[173.5,-3.74852],[174,-3.53781],[174.5,-3.33076],[175,-3.12754],[175.5,-2.92834],[176,-2.73334],[176.5,-2.54272],[177,-2.35667],[177.5,-2.17536],[178,-1.99898],[178.5,-1.82769],[179,-1.66168],[179.5,-1.50111],[180,-1.34615]]}},{"type":"Feature","id":"+12860524:north:1","properties":{"id":"+12860524","year":1286,"month":5,"day":24,"time_tdt":"23:36:15","type":"금환일식","type_code":"A","saros":116,"gamma":-0.38255,"magnitude":0.96321,"greatest":{"lat":-0.37885,"lng":-171.85999},"path_width_km":144,"duration":"04m55s","delta_t_seconds":514.3,"catalog_number":7828,"source":"NASA Five Millennium Canon of Solar Eclipses","source_url":"https://eclipse.gsfc.nasa.gov/SEsearch/SEsearchmap.php?Ecl=%2B12860524","boundary":"north","name":"1286-05-24 금환일식"},"geometry":{"type":"LineString","coordinates":[[-179.5,-1.19696],[-179,-1.0537],[-178.5,-0.91652],[-178,-0.78555],[-177.5,-0.66094],[-177,-0.54281],[-176.5,-0.43129],[-176,-0.32649],[-175.5,-0.22851],[-175,-0.13745],[-174.5,-0.05338],[-174,0.02361],[-173.5,0.09347],[-173,0.15613],[-172.5,0.21157],[-172,0.25974],[-171.5,0.30061],[-171,0.3342],[-170.5,0.36048],[-170,0.37948],[-169.5,0.39121],[-169,0.3957],[-168.5,0.39299],[-168,0.38314],[-167.5,0.36621],[-167,0.34225],[-166.5,0.31136],[-166,0.2736],[-165.5,0.22908],[-165,0.1779],[-164.5,0.12016],[-164,0.05597],[-163.5,-0.01455],[-163,-0.09127],[-162.5,-0.17407],[-162,-0.26282],[-161.5,-0.35736],[-161,-0.45758],[-160.5,-0.56333],[-160,-0.67445],[-159.5,-0.79081],[-159,-0.91225],[-158.5,-1.03863],[-158,-1.16979],[-157.5,-1.30559],[-157,-1.44588],[-156.5,-1.59049],[-156,-1.73929],[-155.5,-1.89213],[-155,-2.04885],[-154.5,-2.20931],[-154,-2.37337],[-153.5,-2.54089],[-153,-2.71171],[-152.5,-2.88572],[-152,-3.06275],[-151.5,-3.2427],[-151,-3.42541],[-150.5,-3.61078],[-150,-3.79866],[-149.5,-3.98894],[-149,-4.18149],[-148.5,-4.37621],[-148,-4.57297],[-147.5,-4.77167],[-147,-4.97219],[-146.5,-5.17444],[-146,-5.37832],[-145.5,-5.58371],[-145,-5.79054],[-144.5,-5.9987],[-144,-6.2081],[-143.5,-6.41867],[-143,-6.63031],[-142.5,-6.84294],[-142,-7.05649],[-141.5,-7.27088],[-141,-7.48603],[-140.5,-7.70188],[-140,-7.91837],[-139.5,-8.13541],[-139,-8.35296],[-138.5,-8.57094],[-138,-8.78931],[-137.5,-9.008],[-137,-9.22697],[-136.5,-9.44615],[-136,-9.6655],[-135.5,-9.88498],[-135,-10.10453],[-134.5,-10.32412],[-134,-10.54369],[-133.5,-10.76322],[-133,-10.98265],[-132.5,-11.20196],[-132,-11.4211],[-131.5,-11.64005],[-131,-11.85877],[-130.5,-12.07722],[-130,-12.29539],[-129.5,-12.51323],[-129,-12.73073],[-128.5,-12.94785],[-128,-13.16457],[-127.5,-13.38087],[-127,-13.59673],[-126.5,-13.81211],[-126,-14.02701],[-125.5,-14.24139],[-125,-14.45525],[-124.5,-14.66856],[-124,-14.8813],[-123.5,-15.09346],[-123,-15.30503],[-122.5,-15.51599],[-122,-15.72631],[-121.5,-15.936],[-121,-16.14504],[-120.5,-16.3534],[-120,-16.5611],[-119.5,-16.7681],[-119,-16.9744],[-118.5,-17.17999],[-118,-17.38487],[-117.5,-17.58901],[-117.25,-17.69081]]}},{"type":"Feature","id":"+12860524:center:0","properties":{"id":"+12860524","year":1286,"month":5,"day":24,"time_tdt":"23:36:15","type":"금환일식","type_code":"A","saros":116,"gamma":-0.38255,"magnitude":0.96321,"greatest":{"lat":-0.37885,"lng":-171.85999},"path_width_km":144,"duration":"04m55s","delta_t_seconds":514.3,"catalog_number":7828,"source":"NASA Five Millennium Canon of Solar Eclipses","source_url":"https://eclipse.gsfc.nasa.gov/SEsearch/SEsearchmap.php?Ecl=%2B12860524","boundary":"center","name":"1286-05-24 금환일식"},"geometry":{"type":"LineString","coordinates":[[134.06427,-23.28684],[134.5,-23.1047],[135,-22.89582],[135.5,-22.68572],[136,-22.4744],[136.5,-22.26186],[137,-22.04811],[137.5,-21.83314],[138,-21.61696],[138.5,-21.39956],[139,-21.18095],[139.5,-20.96114],[140,-20.74012],[140.5,-20.5179],[141,-20.29449],[141.5,-20.06988],[142,-19.84409],[142.5,-19.61712],[143,-19.38898],[143.5,-19.15968],[144,-18.92921],[144.5,-18.6976],[145,-18.46486],[145.5,-18.23099],[146,-17.996],[146.5,-17.75991],[147,-17.52274],[147.5,-17.28449],[148,-17.04518],[148.5,-16.80484],[149,-16.56348],[149.5,-16.32111],[150,-16.07777],[150.5,-15.83347],[151,-15.58824],[151.5,-15.3421],[152,-15.09509],[152.5,-14.84723],[153,-14.59855],[153.5,-14.34909],[154,-14.09888],[154.5,-13.84797],[155,-13.59638],[155.5,-13.34417],[156,-13.09137],[156.5,-12.83804],[157,-12.58423],[157.5,-12.32999],[158,-12.07537],[158.5,-11.82043],[159,-11.56525],[159.5,-11.30987],[160,-11.05438],[160.5,-10.79883],[161,-10.54332],[161.5,-10.28792],[162,-10.03271],[162.5,-9.77778],[163,-9.52323],[163.5,-9.26914],[164,-9.01562],[164.5,-8.76278],[165,-8.51072],[165.5,-8.25955],[166,-8.0094],[166.5,-7.76038],[167,-7.51263],[167.5,-7.26628],[168,-7.02145],[168.5,-6.7783],[169,-6.53697],[169.5,-6.29761],[170,-6.06037],[170.5,-5.82542],[171,-5.59291],[171.5,-5.36301],[172,-5.13589],[172.5,-4.91172],[173,-4.69069],[173.5,-4.47297],[174,-4.25874],[174.5,-4.04819],[175,-3.8415],[175.5,-3.63886],[176,-3.44046],[176.5,-3.24648],[177,-3.05711],[177.5,-2.87253],[178,-2.69294],[178.5,-2.51852],[179,-2.34943],[179.5,-2.18587],[180,-2.02799]]}},{"type":"Feature","id":"+12860524:center:1","properties":{"id":"+12860524","year":1286,"month":5,"day":24,"time_tdt":"23:36:15","type":"금환일식","type_code":"A","saros":116,"gamma":-0.38255,"magnitude":0.96321,"greatest":{"lat":-0.37885,"lng":-171.85999},"path_width_km":144,"duration":"04m55s","delta_t_seconds":514.3,"catalog_number":7828,"source":"NASA Five Millennium Canon of Solar Eclipses","source_url":"https://eclipse.gsfc.nasa.gov/SEsearch/SEsearchmap.php?Ecl=%2B12860524","boundary":"center","name":"1286-05-24 금환일식"},"geometry":{"type":"LineString","coordinates":[[-179.5,-1.87598],[-179,-1.72999],[-178.5,-1.59017],[-178,-1.45668],[-177.5,-1.32966],[-177,-1.20924],[-176.5,-1.09555],[-176,-0.98871],[-175.5,-0.88882],[-175,-0.79598],[-174.5,-0.71029],[-174,-0.63181],[-173.5,-0.56062],[-173,-0.49677],[-172.5,-0.44031],[-172,-0.39127],[-171.5,-0.34967],[-171,-0.31554],[-170.5,-0.28886],[-170,-0.26963],[-169.5,-0.25782],[-169,-0.25341],[-168.5,-0.25636],[-168,-0.26661],[-167.5,-0.28409],[-167,-0.30875],[-166.5,-0.3405],[-166,-0.37925],[-165.5,-0.4249],[-165,-0.47736],[-164.5,-0.53651],[-164,-0.60224],[-163.5,-0.67442],[-163,-0.75293],[-162.5,-0.83763],[-162,-0.92838],[-161.5,-1.02505],[-161,-1.12748],[-160.5,-1.23554],[-160,-1.34906],[-159.5,-1.46791],[-159,-1.59192],[-158.5,-1.72095],[-158,-1.85483],[-157.5,-1.99341],[-157,-2.13654],[-156.5,-2.28406],[-156,-2.43581],[-155.5,-2.59165],[-155,-2.75142],[-154.5,-2.91497],[-154,-3.08216],[-153.5,-3.25283],[-153,-3.42684],[-152.5,-3.60406],[-152,-3.78433],[-151.5,-3.96753],[-151,-4.15352],[-150.5,-4.34217],[-150,-4.53335],[-149.5,-4.72694],[-149,-4.92281],[-148.5,-5.12085],[-148,-5.32093],[-147.5,-5.52295],[-147,-5.72681],[-146.5,-5.93238],[-146,-6.13957],[-145.5,-6.34828],[-145,-6.55841],[-144.5,-6.76986],[-144,-6.98256],[-143.5,-7.1964],[-143,-7.41131],[-142.5,-7.62719],[-142,-7.84399],[-141.5,-8.0616],[-141,-8.27998],[-140.5,-8.49903],[-140,-8.7187],[-139.5,-8.93891],[-139,-9.15961],[-138.5,-9.38073],[-138,-9.60222],[-137.5,-9.82402],[-137,-10.04607],[-136.5,-10.26832],[-136,-10.49073],[-135.5,-10.71323],[-135,-10.9358],[-134.5,-11.15838],[-134,-11.38094],[-133.5,-11.60342],[-133,-11.8258],[-132.5,-12.04803],[-132,-12.27007],[-131.5,-12.49191],[-131,-12.71349],[-130.5,-12.9348],[-130,-13.15579],[-129.5,-13.37645],[-129,-13.59674],[-128.5,-13.81664],[-128,-14.03612],[-127.5,-14.25516],[-127,-14.47374],[-126.5,-14.69182],[-126,-14.90941],[-125.5,-15.12646],[-125,-15.34297],[-124.5,-15.55891],[-124,-15.77428],[-123.5,-15.98904],[-123,-16.20319],[-122.5,-16.41671],[-122,-16.62959],[-121.5,-16.84181],[-121,-17.05336],[-120.5,-17.26423],[-120,-17.47441],[-119.5,-17.68388],[-119,-17.89264],[-118.5,-18.10067],[-118,-18.30796],[-117.52892,-18.50291]]}},{"type":"Feature","id":"+12860524:south:0","properties":{"id":"+12860524","year":1286,"month":5,"day":24,"time_tdt":"23:36:15","type":"금환일식","type_code":"A","saros":116,"gamma":-0.38255,"magnitude":0.96321,"greatest":{"lat":-0.37885,"lng":-171.85999},"path_width_km":144,"duration":"04m55s","delta_t_seconds":514.3,"catalog_number":7828,"source":"NASA Five Millennium Canon of Solar Eclipses","source_url":"https://eclipse.gsfc.nasa.gov/SEsearch/SEsearchmap.php?Ecl=%2B12860524","boundary":"south","name":"1286-05-24 금환일식"},"geometry":{"type":"LineString","coordinates":[[134.5,-24.05923],[135,-23.84824],[135.5,-23.63601],[136,-23.42256],[136.5,-23.20786],[137,-22.99194],[137.5,-22.77479],[138,-22.5564],[138.5,-22.33679],[139,-22.11595],[139.5,-21.89389],[140,-21.67061],[140.5,-21.44612],[141,-21.22041],[141.5,-20.99349],[142,-20.76537],[142.5,-20.53606],[143,-20.30556],[143.5,-20.07387],[144,-19.84102],[144.5,-19.60699],[145,-19.37181],[145.5,-19.13549],[146,-18.89804],[146.5,-18.65946],[147,-18.41978],[147.5,-18.179],[148,-17.93715],[148.5,-17.69424],[149,-17.45029],[149.5,-17.20532],[150,-16.95935],[150.5,-16.7124],[151,-16.4645],[151.5,-16.21567],[152,-15.96594],[152.5,-15.71533],[153,-15.46389],[153.5,-15.21165],[154,-14.95863],[154.5,-14.70488],[155,-14.45043],[155.5,-14.19533],[156,-13.93963],[156.5,-13.68337],[157,-13.42659],[157.5,-13.16936],[158,-12.91173],[158.5,-12.65375],[159,-12.3955],[159.5,-12.13703],[160,-11.87841],[160.5,-11.61973],[161,-11.36104],[161.5,-11.10243],[162,-10.844],[162.5,-10.58581],[163,-10.32797],[163.5,-10.07058],[164,-9.81372],[164.5,-9.55752],[165,-9.30207],[165.5,-9.04749],[166,-8.79391],[166.5,-8.54143],[167,-8.2902],[167.5,-8.04035],[168,-7.79201],[168.5,-7.54533],[169,-7.30045],[169.5,-7.05753],[170,-6.81672],[170.5,-6.57818],[171,-6.34208],[171.5,-6.10859],[172,-5.87789],[172.5,-5.65014],[173,-5.42553],[173.5,-5.20424],[174,-4.98646],[174.5,-4.77238],[175,-4.56219],[175.5,-4.35607],[176,-4.15422],[176.5,-3.95684],[177,-3.76411],[177.5,-3.57623],[178,-3.39339],[178.5,-3.21578],[179,-3.04358],[179.5,-2.87697],[180,-2.71614]]}},{"type":"Feature","id":"+12860524:south:1","properties":{"id":"+12860524","year":1286,"month":5,"day":24,"time_tdt":"23:36:15","type":"금환일식","type_code":"A","saros":116,"gamma":-0.38255,"magnitude":0.96321,"greatest":{"lat":-0.37885,"lng":-171.85999},"path_width_km":144,"duration":"04m55s","delta_t_seconds":514.3,"catalog_number":7828,"source":"NASA Five Millennium Canon of Solar Eclipses","source_url":"https://eclipse.gsfc.nasa.gov/SEsearch/SEsearchmap.php?Ecl=%2B12860524","boundary":"south","name":"1286-05-24 금환일식"},"geometry":{"type":"LineString","coordinates":[[-179.5,-2.56125],[-179,-2.41248],[-178.5,-2.26999],[-178,-2.13393],[-177.5,-2.00445],[-177,-1.88169],[-176.5,-1.76578],[-176,-1.65685],[-175.5,-1.55501],[-175,-1.46036],[-174.5,-1.37299],[-174,-1.29299],[-173.5,-1.22043],[-173,-1.15537],[-172.5,-1.09785],[-172,-1.04791],[-171.5,-1.00557],[-171,-0.97086],[-170.5,-0.94376],[-170,-0.92428],[-169.5,-0.91239],[-169,-0.90805],[-168.5,-0.91123],[-168,-0.92187],[-167.5,-0.9399],[-167,-0.96526],[-166.5,-0.99786],[-166,-1.03761],[-165.5,-1.08441],[-165,-1.13816],[-164.5,-1.19873],[-164,-1.26601],[-163.5,-1.33987],[-163,-1.42018],[-162.5,-1.50679],[-162,-1.59958],[-161.5,-1.69838],[-161,-1.80305],[-160.5,-1.91345],[-160,-2.0294],[-159.5,-2.15076],[-159,-2.27737],[-158.5,-2.40906],[-158,-2.54569],[-157.5,-2.68708],[-157,-2.83307],[-156.5,-2.98352],[-156,-3.13825],[-155.5,-3.29712],[-155,-3.45996],[-154.5,-3.62662],[-154,-3.79696],[-153.5,-3.97081],[-153,-4.14803],[-152.5,-4.32848],[-152,-4.51201],[-151.5,-4.69849],[-151,-4.88777],[-150.5,-5.07973],[-150,-5.27423],[-149.5,-5.47114],[-149,-5.67034],[-148.5,-5.87172],[-148,-6.07514],[-147.5,-6.28051],[-147,-6.4877],[-146.5,-6.6966],[-146,-6.90712],[-145.5,-7.11916],[-145,-7.33261],[-144.5,-7.54737],[-144,-7.76337],[-143.5,-7.9805],[-143,-8.19868],[-142.5,-8.41784],[-142,-8.63788],[-141.5,-8.85874],[-141,-9.08033],[-140.5,-9.3026],[-140,-9.52546],[-139.5,-9.74885],[-139,-9.97271],[-138.5,-10.19698],[-138,-10.4216],[-137.5,-10.64651],[-137,-10.87165],[-136.5,-11.09698],[-136,-11.32244],[-135.5,-11.54799],[-135,-11.77358],[-134.5,-11.99916],[-134,-12.2247],[-133.5,-12.45015],[-133,-12.67547],[-132.5,-12.90063],[-132,-13.12559],[-131.5,-13.35032],[-131,-13.57478],[-130.5,-13.79894],[-130,-14.02277],[-129.5,-14.24625],[-129,-14.46934],[-128.5,-14.69202],[-128,-14.91427],[-127.5,-15.13605],[-127,-15.35736],[-126.5,-15.57816],[-126,-15.79843],[-125.5,-16.01817],[-125,-16.23733],[-124.5,-16.45592],[-124,-16.67391],[-123.5,-16.89128],[-123,-17.10802],[-122.5,-17.32412],[-122,-17.53955],[-121.5,-17.75432],[-121,-17.96839],[-120.5,-18.18177],[-120,-18.39444],[-119.5,-18.60639],[-119,-18.8176],[-118.5,-19.02808],[-118,-19.2378],[-117.875,-19.29012]]}},{"type":"Feature","id":"+12861117:north:0","properties":{"id":"+12861117","year":1286,"month":11,"day":17,"time_tdt":"15:03:22","type":"개기일식","type_code":"T","saros":121,"gamma":0.4865,"magnitude":1.04415,"greatest":{"lat":8.22001,"lng":-43.93756},"path_width_km":168.5,"duration":"04m17s","delta_t_seconds":513.2,"catalog_number":7829,"source":"NASA Five Millennium Canon of Solar Eclipses","source_url":"https://eclipse.gsfc.nasa.gov/SEsearch/SEsearchmap.php?Ecl=%2B12861117","boundary":"north","name":"1286-11-17 개기일식"},"geometry":{"type":"LineString","coordinates":[[-100.08203,32.74719],[-100,32.71529],[-99.5,32.52013],[-99,32.32374],[-98.5,32.12612],[-98,31.92726],[-97.5,31.72716],[-97,31.52583],[-96.5,31.32327],[-96,31.11948],[-95.5,30.91445],[-95,30.7082],[-94.5,30.50073],[-94,30.29203],[-93.5,30.08211],[-93,29.87098],[-92.5,29.65863],[-92,29.44508],[-91.5,29.23033],[-91,29.01438],[-90.5,28.79724],[-90,28.57891],[-89.5,28.35942],[-89,28.13875],[-88.5,27.91693],[-88,27.69395],[-87.5,27.46984],[-87,27.2446],[-86.5,27.01825],[-86,26.79079],[-85.5,26.56224],[-85,26.33262],[-84.5,26.10194],[-84,25.87022],[-83.5,25.63748],[-83,25.40373],[-82.5,25.16899],[-82,24.93329],[-81.5,24.69666],[-81,24.4591],[-80.5,24.22066],[-80,23.98136],[-79.5,23.74122],[-79,23.50027],[-78.5,23.25856],[-78,23.0161],[-77.5,22.77295],[-77,22.52913],[-76.5,22.28468],[-76,22.03965],[-75.5,21.79409],[-75,21.54803],[-74.5,21.30152],[-74,21.05462],[-73.5,20.80738],[-73,20.55985],[-72.5,20.31209],[-72,20.06417],[-71.5,19.81614],[-71,19.56808],[-70.5,19.32005],[-70,19.07212],[-69.5,18.82437],[-69,18.57687],[-68.5,18.32972],[-68,18.08298],[-67.5,17.83676],[-67,17.59113],[-66.5,17.3462],[-66,17.10206],[-65.5,16.85881],[-65,16.61655],[-64.5,16.3754],[-64,16.13546],[-63.5,15.89683],[-63,15.65965],[-62.5,15.42403],[-62,15.19009],[-61.5,14.95794],[-61,14.72774],[-60.5,14.49959],[-60,14.27363],[-59.5,14.05],[-59,13.82883],[-58.5,13.61025],[-58,13.39442],[-57.5,13.18146],[-57,12.97152],[-56.5,12.76474],[-56,12.56125],[-55.5,12.36121],[-55,12.16475],[-54.5,11.97202],[-54,11.78314],[-53.5,11.59827],[-53,11.41752],[-52.5,11.24105],[-52,11.06897],[-51.5,10.90142],[-51,10.73851],[-50.5,10.58037],[-50,10.42712],[-49.5,10.27886],[-49,10.1357],[-48.5,9.99774],[-48,9.86508],[-47.5,9.7378],[-47,9.61599],[-46.5,9.49973],[-46,9.38909],[-45.5,9.28413],[-45,9.1849],[-44.5,9.09146],[-44,9.00385],[-43.5,8.92211],[-43,8.84626],[-42.5,8.77633],[-42,8.71233],[-41.5,8.65426],[-41,8.60214],[-40.5,8.55595],[-40,8.51568],[-39.5,8.48131],[-39,8.45281],[-38.5,8.43016],[-38,8.41331],[-37.5,8.40223],[-37,8.39686],[-36.5,8.39716],[-36,8.40305],[-35.5,8.41449],[-35,8.4314],[-34.5,8.45371],[-34,8.48135],[-33.5,8.51424],[-33,8.55229],[-32.5,8.59543],[-32,8.64356],[-31.5,8.69661],[-31,8.75446],[-30.5,8.81704],[-30,8.88425],[-29.5,8.95599],[-29,9.03216],[-28.5,9.11267],[-28,9.19742],[-27.5,9.28631],[-27,9.37924],[-26.5,9.47611],[-26,9.57681],[-25.5,9.68126],[-25,9.78935],[-24.5,9.90099],[-24,10.01607],[-23.5,10.1345],[-23,10.25618],[-22.5,10.38102],[-22,10.50892],[-21.5,10.63979],[-21,10.77354],[-20.5,10.91007],[-20,11.0493],[-19.5,11.19114],[-19,11.3355],[-18.5,11.4823],[-18,11.63145],[-17.5,11.78287],[-17,11.93649],[-16.5,12.09221],[-16,12.24997],[-15.5,12.40968],[-15,12.57128],[-14.5,12.73469],[-14,12.89983],[-13.5,13.06665],[-13,13.23507],[-12.5,13.40502],[-12,13.57645],[-11.5,13.74928],[-11,13.92346],[-10.5,14.09892],[-10,14.27561],[-9.5,14.45346],[-9,14.63243],[-8.5,14.81246],[-8,14.9935],[-7.5,15.17549],[-7,15.35838],[-6.5,15.54214],[-6,15.72669],[-5.5,15.91202],[-5,16.09805],[-4.5,16.28477],[-4,16.47211],[-3.5,16.66004],[-3,16.84853],[-2.5,17.03752],[-2,17.22699],[-1.5,17.41689],[-1,17.6072],[-0.5,17.79787],[0,17.98887],[0.5,18.18017],[1,18.37174],[1.5,18.56355],[2,18.75557],[2.5,18.94776],[3,19.14011],[3.5,19.33257],[4,19.52514],[4.5,19.71777],[5,19.91045],[5.5,20.10315],[6,20.29585],[6.5,20.48853],[7,20.68116],[7.5,20.87372],[8,21.06619],[8.5,21.25856],[9,21.45079],[9.5,21.64288],[10,21.8348],[10.5,22.02654],[11,22.21808],[11.5,22.4094],[11.80859,22.52737]]}},{"type":"Feature","id":"+12861117:center:0","properties":{"id":"+12861117","year":1286,"month":11,"day":17,"time_tdt":"15:03:22","type":"개기일식","type_code":"T","saros":121,"gamma":0.4865,"magnitude":1.04415,"greatest":{"lat":8.22001,"lng":-43.93756},"path_width_km":168.5,"duration":"04m17s","delta_t_seconds":513.2,"catalog_number":7829,"source":"NASA Five Millennium Canon of Solar Eclipses","source_url":"https://eclipse.gsfc.nasa.gov/SEsearch/SEsearchmap.php?Ecl=%2B12861117","boundary":"center","name":"1286-11-17 개기일식"},"geometry":{"type":"LineString","coordinates":[[-100.21898,32.30967],[-100,32.20523],[-99.5,32.00724],[-99,31.80801],[-98.5,31.60751],[-98,31.40576],[-97.5,31.20276],[-97,30.99851],[-96.5,30.793],[-96,30.58624],[-95.5,30.37823],[-95,30.16897],[-94.5,29.95847],[-94,29.74673],[-93.5,29.53375],[-93,29.31953],[-92.5,29.10408],[-92,28.88741],[-91.5,28.66951],[-91,28.45041],[-90.5,28.23009],[-90,28.00857],[-89.5,27.78586],[-89,27.56196],[-88.5,27.33689],[-88,27.11065],[-87.5,26.88326],[-87,26.65473],[-86.5,26.42506],[-86,26.19427],[-85.5,25.96239],[-85,25.72941],[-84.5,25.49536],[-84,25.26026],[-83.5,25.02412],[-83,24.78697],[-82.5,24.54882],[-82,24.3097],[-81.5,24.06963],[-81,23.82863],[-80.5,23.58674],[-80,23.34398],[-79.5,23.10039],[-79,22.85598],[-78.5,22.61081],[-78,22.36489],[-77.5,22.11827],[-77,21.87099],[-76.5,21.62309],[-76,21.37461],[-75.5,21.1256],[-75,20.8761],[-74.5,20.62617],[-74,20.37586],[-73.5,20.12521],[-73,19.8743],[-72.5,19.62318],[-72,19.37192],[-71.5,19.12057],[-71,18.86921],[-70.5,18.61791],[-70,18.36674],[-69.5,18.11579],[-69,17.86512],[-68.5,17.61484],[-68,17.36502],[-67.5,17.11575],[-67,16.86712],[-66.5,16.61924],[-66,16.3722],[-65.5,16.12611],[-65,15.88108],[-64.5,15.6372],[-64,15.3946],[-63.5,15.15339],[-63,14.91369],[-62.5,14.67562],[-62,14.43931],[-61.5,14.20488],[-61,13.97246],[-60.5,13.74219],[-60,13.51419],[-59.5,13.28861],[-59,13.06559],[-58.5,12.84525],[-58,12.62775],[-57.5,12.41322],[-57,12.2018],[-56.5,11.99365],[-56,11.7889],[-55.5,11.58769],[-55,11.39016],[-54.5,11.19646],[-54,11.00673],[-53.5,10.82109],[-53,10.6397],[-52.5,10.46267],[-52,10.29015],[-51.5,10.12224],[-51,9.95909],[-50.5,9.8008],[-50,9.6475],[-49.5,9.49928],[-49,9.35625],[-48.5,9.21852],[-48,9.08618],[-47.5,8.9593],[-47,8.83798],[-46.5,8.72229],[-46,8.61229],[-45.5,8.50805],[-45,8.40962],[-44.5,8.31705],[-44,8.23038],[-43.5,8.14964],[-43,8.07486],[-42.5,8.00605],[-42,7.94323],[-41.5,7.88641],[-41,7.83558],[-40.5,7.79073],[-40,7.75185],[-39.5,7.71893],[-39,7.69192],[-38.5,7.6708],[-38,7.65553],[-37.5,7.64607],[-37,7.64236],[-36.5,7.64435],[-36,7.65198],[-35.5,7.66519],[-35,7.68391],[-34.5,7.70806],[-34,7.73758],[-33.5,7.77238],[-33,7.81238],[-32.5,7.8575],[-32,7.90764],[-31.5,7.96273],[-31,8.02266],[-30.5,8.08735],[-30,8.15669],[-29.5,8.2306],[-29,8.30898],[-28.5,8.39172],[-28,8.47873],[-27.5,8.56991],[-27,8.66515],[-26.5,8.76437],[-26,8.86745],[-25.5,8.97431],[-25,9.08483],[-24.5,9.19893],[-24,9.31649],[-23.5,9.43744],[-23,9.56166],[-22.5,9.68906],[-22,9.81955],[-21.5,9.95304],[-21,10.08942],[-20.5,10.22862],[-20,10.37053],[-19.5,10.51507],[-19,10.66216],[-18.5,10.81171],[-18,10.96362],[-17.5,11.11783],[-17,11.27425],[-16.5,11.43279],[-16,11.59339],[-15.5,11.75595],[-15,11.92042],[-14.5,12.08671],[-14,12.25475],[-13.5,12.42448],[-13,12.59582],[-12.5,12.7687],[-12,12.94307],[-11.5,13.11885],[-11,13.29599],[-10.5,13.47442],[-10,13.65408],[-9.5,13.83492],[-9,14.01688],[-8.5,14.1999],[-8,14.38393],[-7.5,14.56892],[-7,14.75481],[-6.5,14.94157],[-6,15.12913],[-5.5,15.31746],[-5,15.5065],[-4.5,15.69622],[-4,15.88657],[-3.5,16.0775],[-3,16.26899],[-2.5,16.46098],[-2,16.65344],[-1.5,16.84633],[-1,17.03962],[-0.5,17.23327],[0,17.42724],[0.5,17.62151],[1,17.81604],[1.5,18.0108],[2,18.20576],[2.5,18.40089],[3,18.59617],[3.5,18.79155],[4,18.98703],[4.5,19.18256],[5,19.37814],[5.5,19.57372],[6,19.76929],[6.5,19.96482],[7,20.1603],[7.5,20.3557],[8,20.551],[8.5,20.74618],[9,20.94121],[9.5,21.13609],[10,21.33079],[10.5,21.52529],[11,21.71958],[11.5,21.91364],[11.91848,22.07783]]}},{"type":"Feature","id":"+12861117:south:0","properties":{"id":"+12861117","year":1286,"month":11,"day":17,"time_tdt":"15:03:22","type":"개기일식","type_code":"T","saros":121,"gamma":0.4865,"magnitude":1.04415,"greatest":{"lat":8.22001,"lng":-43.93756},"path_width_km":168.5,"duration":"04m17s","delta_t_seconds":513.2,"catalog_number":7829,"source":"NASA Five Millennium Canon of Solar Eclipses","source_url":"https://eclipse.gsfc.nasa.gov/SEsearch/SEsearchmap.php?Ecl=%2B12861117","boundary":"south","name":"1286-11-17 개기일식"},"geometry":{"type":"LineString","coordinates":[[-100.41211,31.86013],[-100,31.69555],[-99.5,31.49472],[-99,31.29261],[-98.5,31.08922],[-98,30.88456],[-97.5,30.67863],[-97,30.47142],[-96.5,30.26294],[-96,30.05319],[-95.5,29.84216],[-95,29.62987],[-94.5,29.41632],[-94,29.2015],[-93.5,28.98543],[-93,28.7681],[-92.5,28.54952],[-92,28.3297],[-91.5,28.10863],[-91,27.88634],[-90.5,27.66281],[-90,27.43807],[-89.5,27.21212],[-89,26.98496],[-88.5,26.75661],[-88,26.52708],[-87.5,26.29638],[-87,26.06452],[-86.5,25.83151],[-86,25.59737],[-85.5,25.36211],[-85,25.12575],[-84.5,24.8883],[-84,24.64979],[-83.5,24.41023],[-83,24.16964],[-82.5,23.92805],[-82,23.68548],[-81.5,23.44195],[-81,23.19749],[-80.5,22.95213],[-80,22.70589],[-79.5,22.45881],[-79,22.21093],[-78.5,21.96226],[-78,21.71286],[-77.5,21.46276],[-77,21.212],[-76.5,20.96062],[-76,20.70867],[-75.5,20.4562],[-75,20.20325],[-74.5,19.94988],[-74,19.69614],[-73.5,19.44209],[-73,19.18779],[-72.5,18.9333],[-72,18.67869],[-71.5,18.42402],[-71,18.16936],[-70.5,17.9148],[-70,17.6604],[-69.5,17.40625],[-69,17.15243],[-68.5,16.89902],[-68,16.64612],[-67.5,16.39383],[-67,16.14222],[-66.5,15.89142],[-66,15.64151],[-65.5,15.39261],[-65,15.14482],[-64.5,14.89826],[-64,14.65304],[-63.5,14.40928],[-63,14.16711],[-62.5,13.92664],[-62,13.68801],[-61.5,13.45134],[-61,13.21677],[-60.5,12.98443],[-60,12.75446],[-59.5,12.52699],[-59,12.30218],[-58.5,12.08014],[-58,11.86104],[-57.5,11.64501],[-57,11.4322],[-56.5,11.22275],[-56,11.0168],[-55.5,10.8145],[-55,10.61598],[-54.5,10.4214],[-54,10.23088],[-53.5,10.04457],[-53,9.8626],[-52.5,9.6851],[-52,9.51221],[-51.5,9.34403],[-51,9.18071],[-50.5,9.02234],[-50,8.86905],[-49.5,8.72095],[-49,8.57813],[-48.5,8.44069],[-48,8.30872],[-47.5,8.1823],[-47,8.06153],[-46.5,7.94645],[-46,7.83715],[-45.5,7.73368],[-45,7.63609],[-44.5,7.54442],[-44,7.45872],[-43.5,7.37901],[-43,7.30531],[-42.5,7.23766],[-42,7.17604],[-41.5,7.12047],[-41,7.07095],[-40.5,7.02745],[-40,6.98998],[-39.5,6.95849],[-39,6.93297],[-38.5,6.91338],[-38,6.89968],[-37.5,6.89182],[-37,6.88975],[-36.5,6.89342],[-36,6.90277],[-35.5,6.91773],[-35,6.93823],[-34.5,6.9642],[-34,6.99557],[-33.5,7.03225],[-33,7.07416],[-32.5,7.12123],[-32,7.17335],[-31.5,7.23044],[-31,7.29241],[-30.5,7.35917],[-30,7.43062],[-29.5,7.50665],[-29,7.58719],[-28.5,7.67212],[-28,7.76135],[-27.5,7.85478],[-27,7.9523],[-26.5,8.05383],[-26,8.15925],[-25.5,8.26847],[-25,8.38138],[-24.5,8.4979],[-24,8.61792],[-23.5,8.74134],[-23,8.86806],[-22.5,8.99799],[-22,9.13104],[-21.5,9.2671],[-21,9.40609],[-20.5,9.54791],[-20,9.69248],[-19.5,9.8397],[-19,9.98948],[-18.5,10.14175],[-18,10.2964],[-17.5,10.45337],[-17,10.61256],[-16.5,10.7739],[-16,10.93731],[-15.5,11.10271],[-15,11.27003],[-14.5,11.43918],[-14,11.6101],[-13.5,11.78272],[-13,11.95696],[-12.5,12.13276],[-12,12.31006],[-11.5,12.48878],[-11,12.66886],[-10.5,12.85025],[-10,13.03288],[-9.5,13.21669],[-9,13.40163],[-8.5,13.58763],[-8,13.77466],[-7.5,13.96264],[-7,14.15153],[-6.5,14.34129],[-6,14.53186],[-5.5,14.72319],[-5,14.91524],[-4.5,15.10796],[-4,15.30131],[-3.5,15.49525],[-3,15.68974],[-2.5,15.88473],[-2,16.08018],[-1.5,16.27607],[-1,16.47235],[-0.5,16.66898],[0,16.86593],[0.5,17.06318],[1,17.26067],[1.5,17.45839],[2,17.65631],[2.5,17.85438],[3,18.05259],[3.5,18.25091],[4,18.4493],[4.5,18.64775],[5,18.84622],[5.5,19.0447],[6,19.24315],[6.5,19.44155],[7,19.63989],[7.5,19.83814],[8,20.03627],[8.5,20.23427],[9,20.43212],[9.5,20.6298],[10,20.82728],[10.5,21.02456],[11,21.22161],[11.5,21.41842],[12,21.61496]]}}],"attribution":"Eclipse Predictions by Fred Espenak and Jean Meeus (NASA's GSFC)","generated_at":"2026-09-23T03:35:45.626Z"}
