{"type":"FeatureCollection","year":1292,"events":[{"id":"+12920121","year":1292,"month":1,"day":21,"time_tdt":"04:58:17","type":"금환일식","type_code":"A","saros":100,"gamma":0.8014,"magnitude":0.93632,"greatest":{"lat":34.58629,"lng":101.98828},"path_width_km":395.1,"duration":"07m17s","delta_t_seconds":502.5,"catalog_number":7843,"source":"NASA Five Millennium Canon of Solar Eclipses","source_url":"https://eclipse.gsfc.nasa.gov/SEsearch/SEsearchmap.php?Ecl=%2B12920121"},{"id":"+12920715","year":1292,"month":7,"day":15,"time_tdt":"17:13:08","type":"개기일식","type_code":"T","saros":105,"gamma":-0.64499,"magnitude":1.06916,"greatest":{"lat":-19.87603,"lng":-79.60187},"path_width_km":294.6,"duration":"06m17s","delta_t_seconds":501.5,"catalog_number":7844,"source":"NASA Five Millennium Canon of Solar Eclipses","source_url":"https://eclipse.gsfc.nasa.gov/SEsearch/SEsearchmap.php?Ecl=%2B12920715"}],"features":[{"type":"Feature","id":"+12920121:north:0","properties":{"id":"+12920121","year":1292,"month":1,"day":21,"time_tdt":"04:58:17","type":"금환일식","type_code":"A","saros":100,"gamma":0.8014,"magnitude":0.93632,"greatest":{"lat":34.58629,"lng":101.98828},"path_width_km":395.1,"duration":"07m17s","delta_t_seconds":502.5,"catalog_number":7843,"source":"NASA Five Millennium Canon of Solar Eclipses","source_url":"https://eclipse.gsfc.nasa.gov/SEsearch/SEsearchmap.php?Ecl=%2B12920121","boundary":"north","name":"1292-01-21 금환일식"},"geometry":{"type":"LineString","coordinates":[[56,43.22651],[56.5,43.04988],[57,42.87382],[57.5,42.69836],[58,42.52353],[58.5,42.34936],[59,42.17588],[59.5,42.00313],[60,41.83114],[60.5,41.65994],[61,41.48956],[61.5,41.32005],[62,41.15144],[62.5,40.98377],[63,40.81708],[63.5,40.65141],[64,40.48679],[64.5,40.32329],[65,40.16092],[65.5,39.99976],[66,39.83983],[66.5,39.68119],[67,39.52389],[67.5,39.36798],[68,39.2135],[68.5,39.06053],[69,38.9091],[69.5,38.75929],[70,38.61114],[70.5,38.46471],[71,38.32008],[71.5,38.1773],[72,38.03644],[72.5,37.89756],[73,37.76075],[73.5,37.62606],[74,37.49357],[74.5,37.36336],[75,37.23551],[75.5,37.11009],[76,36.98718],[76.5,36.86688],[77,36.74926],[77.5,36.63441],[78,36.52243],[78.5,36.4134],[79,36.30742],[79.5,36.20459],[80,36.105],[80.5,36.00875],[81,35.91595],[81.5,35.82671],[82,35.74112],[82.5,35.65929],[83,35.58134],[83.5,35.50738],[84,35.43751],[84.5,35.37185],[85,35.31052],[85.5,35.25364],[86,35.20131],[86.5,35.15365],[87,35.11079],[87.5,35.07283],[88,35.0399],[88.5,35.01211],[89,34.98957],[89.5,34.9724],[90,34.96071],[90.5,34.9546],[91,34.95419],[91.5,34.95957],[92,34.97084],[92.5,34.98811],[93,35.01144],[93.5,35.04094],[94,35.07668],[94.5,35.11873],[95,35.16716],[95.5,35.22202],[96,35.28337],[96.5,35.35123],[97,35.42566],[97.5,35.50666],[98,35.59425],[98.5,35.68844],[99,35.78921],[99.5,35.89655],[100,36.01043],[100.5,36.13081],[101,36.25763],[101.5,36.39083],[102,36.53034],[102.5,36.67608],[103,36.82796],[103.5,36.98585],[104,37.14966],[104.5,37.31926],[105,37.49452],[105.5,37.67529],[106,37.86142],[106.5,38.05277],[107,38.24917],[107.5,38.45045],[108,38.65643],[108.5,38.86696],[109,39.08183],[109.5,39.30088],[110,39.52391],[110.5,39.75074],[111,39.98119],[111.5,40.21506],[112,40.45218],[112.5,40.69236],[113,40.93541],[113.5,41.18115],[114,41.42941],[114.5,41.68001],[115,41.93279],[115.5,42.18756],[116,42.44418],[116.5,42.70247],[117,42.96229],[117.5,43.22348],[118,43.48591],[118.5,43.74942],[119,44.01388],[119.5,44.27916],[120,44.54514],[120.5,44.8117],[121,45.07871],[121.5,45.34606],[122,45.61365],[122.5,45.88138],[123,46.14915],[123.5,46.41686],[124,46.68443],[124.5,46.95177],[125,47.2188],[125.5,47.48545],[126,47.75163],[126.5,48.01729],[127,48.28235],[127.5,48.54675],[128,48.81044],[128.5,49.07335],[129,49.33545],[129.5,49.59666],[130,49.85696],[130.5,50.11628],[131,50.3746],[131.5,50.63187],[132,50.88805],[132.5,51.14312],[133,51.39703],[133.5,51.64975],[134,51.90126],[134.5,52.15152],[135,52.40052],[135.5,52.64823],[136,52.89462],[136.5,53.13968],[137,53.38338],[137.5,53.62571],[138,53.86664],[138.5,54.10617],[139,54.34428],[139.5,54.58096],[140,54.81618],[140.5,55.04995],[141,55.28225],[141.5,55.51307],[142,55.7424],[142.5,55.97023],[143,56.19655],[143.5,56.42137],[144,56.64466],[144.5,56.86644],[145,57.08668],[145.5,57.30539],[146,57.52257],[146.5,57.7382],[147,57.95229],[147.5,58.16484],[148,58.37584],[148.5,58.58529],[149,58.79319],[149.5,58.99954],[150,59.20434],[150.5,59.40759]]}},{"type":"Feature","id":"+12920121:center:0","properties":{"id":"+12920121","year":1292,"month":1,"day":21,"time_tdt":"04:58:17","type":"금환일식","type_code":"A","saros":100,"gamma":0.8014,"magnitude":0.93632,"greatest":{"lat":34.58629,"lng":101.98828},"path_width_km":395.1,"duration":"07m17s","delta_t_seconds":502.5,"catalog_number":7843,"source":"NASA Five Millennium Canon of Solar Eclipses","source_url":"https://eclipse.gsfc.nasa.gov/SEsearch/SEsearchmap.php?Ecl=%2B12920121","boundary":"center","name":"1292-01-21 금환일식"},"geometry":{"type":"LineString","coordinates":[[55.33483,41.39867],[55.5,41.34511],[56,41.17271],[56.5,41.00083],[57,40.82948],[57.5,40.6587],[58,40.48852],[58.5,40.31896],[59,40.15005],[59.5,39.98183],[60,39.81432],[60.5,39.64757],[61,39.48161],[61.5,39.31646],[62,39.15217],[62.5,38.98878],[63,38.82632],[63.5,38.66483],[64,38.50435],[64.5,38.34492],[65,38.18659],[65.5,38.0294],[66,37.8734],[66.5,37.71862],[67,37.56513],[67.5,37.41297],[68,37.26219],[68.5,37.11284],[69,36.96498],[69.5,36.81866],[70,36.67394],[70.5,36.53087],[71,36.38953],[71.5,36.24997],[72,36.11225],[72.5,35.97644],[73,35.84261],[73.5,35.71083],[74,35.58117],[74.5,35.4537],[75,35.3285],[75.5,35.20564],[76,35.0852],[76.5,34.96727],[77,34.85193],[77.5,34.73927],[78,34.62937],[78.5,34.52231],[79,34.41821],[79.5,34.31714],[80,34.2192],[80.5,34.12449],[81,34.03312],[81.5,33.94518],[82,33.86077],[82.5,33.78001],[83,33.703],[83.5,33.62984],[84,33.56066],[84.5,33.49555],[85,33.43464],[85.5,33.37803],[86,33.32584],[86.5,33.27819],[87,33.23519],[87.5,33.19696],[88,33.16361],[88.5,33.13525],[89,33.112],[89.5,33.09398],[90,33.08129],[90.5,33.07404],[91,33.07234],[91.5,33.07629],[92,33.086],[92.5,33.10155],[93,33.12304],[93.5,33.15055],[94,33.18418],[94.5,33.22398],[95,33.27003],[95.5,33.3224],[96,33.38113],[96.5,33.44627],[97,33.51786],[97.5,33.59592],[98,33.68048],[98.5,33.77154],[99,33.8691],[99.5,33.97314],[100,34.08366],[100.5,34.2006],[101,34.32393],[101.5,34.45359],[102,34.58951],[102.5,34.73162],[103,34.87982],[103.5,35.03403],[104,35.19412],[104.5,35.35998],[105,35.53149],[105.5,35.70851],[106,35.89089],[106.5,36.07848],[107,36.27113],[107.5,36.46866],[108,36.67092],[108.5,36.87772],[109,37.08889],[109.5,37.30424],[110,37.5236],[110.5,37.74677],[111,37.97358],[111.5,38.20383],[112,38.43734],[112.5,38.67392],[113,38.91339],[113.5,39.15557],[114,39.40028],[114.5,39.64734],[115,39.89659],[115.5,40.14784],[116,40.40093],[116.5,40.65571],[117,40.91202],[117.5,41.1697],[118,41.4286],[118.5,41.68859],[119,41.94953],[119.5,42.21129],[120,42.47372],[120.5,42.73673],[121,43.00018],[121.5,43.26396],[122,43.52797],[122.5,43.7921],[123,44.05625],[123.5,44.32033],[124,44.58425],[124.5,44.84793],[125,45.11127],[125.5,45.37422],[126,45.63669],[126.5,45.89861],[127,46.15992],[127.5,46.42055],[128,46.68045],[128.5,46.93957],[129,47.19784],[129.5,47.45522],[130,47.71166],[130.5,47.96712],[131,48.22156],[131.5,48.47494],[132,48.72722],[132.5,48.97837],[133,49.22836],[133.5,49.47715],[134,49.72472],[134.5,49.97104],[135,50.21608],[135.5,50.45984],[136,50.70227],[136.5,50.94337],[137,51.18311],[137.5,51.42148],[138,51.65846],[138.5,51.89404],[139,52.1282],[139.5,52.36093],[140,52.59223],[140.5,52.82207],[141,53.05045],[141.5,53.27737],[142,53.50281],[142.5,53.72677],[143,53.94924],[143.5,54.17022],[144,54.38969],[144.5,54.60767],[145,54.82413],[145.5,55.03909],[146,55.25253],[146.5,55.46446],[147,55.67488],[147.5,55.88377],[148,56.09115],[148.5,56.29702],[149,56.50136],[149.5,56.70419],[150,56.9055],[150.5,57.10529],[151,57.30357],[151.5,57.50034],[152,57.6956],[152.30421,57.85997]]}},{"type":"Feature","id":"+12920121:south:0","properties":{"id":"+12920121","year":1292,"month":1,"day":21,"time_tdt":"04:58:17","type":"금환일식","type_code":"A","saros":100,"gamma":0.8014,"magnitude":0.93632,"greatest":{"lat":34.58629,"lng":101.98828},"path_width_km":395.1,"duration":"07m17s","delta_t_seconds":502.5,"catalog_number":7843,"source":"NASA Five Millennium Canon of Solar Eclipses","source_url":"https://eclipse.gsfc.nasa.gov/SEsearch/SEsearchmap.php?Ecl=%2B12920121","boundary":"south","name":"1292-01-21 금환일식"},"geometry":{"type":"LineString","coordinates":[[54.9668,39.57203],[55,39.56082],[55.5,39.39227],[56,39.22418],[56.5,39.05657],[57,38.88948],[57.5,38.72292],[58,38.55694],[58.5,38.39155],[59,38.22679],[59.5,38.06268],[60,37.89926],[60.5,37.73656],[61,37.57461],[61.5,37.41345],[62,37.25311],[62.5,37.09363],[63,36.93505],[63.5,36.7774],[64,36.62072],[64.5,36.46505],[65,36.31044],[65.5,36.15693],[66,36.00455],[66.5,35.85336],[67,35.70341],[67.5,35.55474],[68,35.4074],[68.5,35.26144],[69,35.11691],[69.5,34.97387],[70,34.83238],[70.5,34.69248],[71,34.55425],[71.5,34.41773],[72,34.283],[72.5,34.15011],[73,34.01913],[73.5,33.89014],[74,33.76319],[74.5,33.63836],[75,33.51572],[75.5,33.39535],[76,33.27733],[76.5,33.16173],[77,33.04864],[77.5,32.93813],[78,32.8303],[78.5,32.72523],[79,32.62302],[79.5,32.52374],[80,32.42751],[80.5,32.3344],[81,32.24452],[81.5,32.15798],[82,32.07486],[82.5,31.99527],[83,31.91933],[83.5,31.84713],[84,31.77878],[84.5,31.71439],[85,31.65407],[85.5,31.59794],[86,31.54611],[86.5,31.49869],[87,31.45579],[87.5,31.41752],[88,31.38401],[88.5,31.35536],[89,31.33169],[89.5,31.31311],[90,31.29974],[90.5,31.29166],[91,31.28901],[91.5,31.29187],[92,31.30035],[92.5,31.31455],[93,31.33456],[93.5,31.36047],[94,31.39236],[94.5,31.4303],[95,31.47438],[95.5,31.52465],[96,31.58118],[96.5,31.644],[97,31.71317],[97.5,31.78872],[98,31.87066],[98.5,31.95902],[99,32.0538],[99.5,32.15498],[100,32.26256],[100.5,32.37651],[101,32.49679],[101.5,32.62334],[102,32.75611],[102.5,32.89503],[103,33.04001],[103.5,33.19096],[104,33.34778],[104.5,33.51036],[105,33.67857],[105.5,33.85228],[106,34.03136],[106.5,34.21565],[107,34.405],[107.5,34.59926],[108,34.79824],[108.5,35.00179],[109,35.20973],[109.5,35.42187],[110,35.63804],[110.5,35.85805],[111,36.08171],[111.5,36.30884],[112,36.53926],[112.5,36.77277],[113,37.00919],[113.5,37.24834],[114,37.49004],[114.5,37.73411],[115,37.98037],[115.5,38.22866],[116,38.47881],[116.5,38.73066],[117,38.98404],[117.5,39.23881],[118,39.4948],[118.5,39.75189],[119,40.00993],[119.5,40.26878],[120,40.52832],[120.5,40.78842],[121,41.04896],[121.5,41.30983],[122,41.57092],[122.5,41.83213],[123,42.09334],[123.5,42.35448],[124,42.61545],[124.5,42.87616],[125,43.13653],[125.5,43.39649],[126,43.65595],[126.5,43.91486],[127,44.17314],[127.5,44.43073],[128,44.68758],[128.5,44.94362],[129,45.19881],[129.5,45.4531],[130,45.70644],[130.5,45.95878],[131,46.21009],[131.5,46.46033],[132,46.70946],[132.5,46.95744],[133,47.20426],[133.5,47.44987],[134,47.69425],[134.5,47.93737],[135,48.17922],[135.5,48.41976],[136,48.65899],[136.5,48.89687],[137,49.1334],[137.5,49.36855],[138,49.60231],[138.5,49.83467],[139,50.06561],[139.5,50.29513],[140,50.52322],[140.5,50.74986],[141,50.97504],[141.5,51.19876],[142,51.42102],[142.5,51.6418],[143,51.8611],[143.5,52.07892],[144,52.29525],[144.5,52.5101],[145,52.72344],[145.5,52.9353],[146,53.14566],[146.5,53.35452],[147,53.56188],[147.5,53.76774],[148,53.97211],[148.5,54.17498],[149,54.37635],[149.5,54.57623],[150,54.77461],[150.5,54.97151],[151,55.16691],[151.5,55.36083],[152,55.55327],[152.5,55.74423],[153,55.93371],[153.5,56.12171],[153.73633,56.21006]]}},{"type":"Feature","id":"+12920715:north:0","properties":{"id":"+12920715","year":1292,"month":7,"day":15,"time_tdt":"17:13:08","type":"개기일식","type_code":"T","saros":105,"gamma":-0.64499,"magnitude":1.06916,"greatest":{"lat":-19.87603,"lng":-79.60187},"path_width_km":294.6,"duration":"06m17s","delta_t_seconds":501.5,"catalog_number":7844,"source":"NASA Five Millennium Canon of Solar Eclipses","source_url":"https://eclipse.gsfc.nasa.gov/SEsearch/SEsearchmap.php?Ecl=%2B12920715","boundary":"north","name":"1292-07-15 개기일식"},"geometry":{"type":"LineString","coordinates":[[-132.5,-30.28394],[-132,-30.092],[-131.5,-29.90004],[-131,-29.7081],[-130.5,-29.51618],[-130,-29.32431],[-129.5,-29.13252],[-129,-28.94083],[-128.5,-28.74925],[-128,-28.55782],[-127.5,-28.36655],[-127,-28.17548],[-126.5,-27.98463],[-126,-27.79403],[-125.5,-27.6037],[-125,-27.41367],[-124.5,-27.22398],[-124,-27.03464],[-123.5,-26.84571],[-123,-26.65719],[-122.5,-26.46914],[-122,-26.28158],[-121.5,-26.09454],[-121,-25.90807],[-120.5,-25.7222],[-120,-25.53696],[-119.5,-25.3524],[-119,-25.16856],[-118.5,-24.98547],[-118,-24.80318],[-117.5,-24.62174],[-117,-24.44118],[-116.5,-24.26155],[-116,-24.08291],[-115.5,-23.90529],[-115,-23.72875],[-114.5,-23.55334],[-114,-23.37911],[-113.5,-23.20611],[-113,-23.03441],[-112.5,-22.86405],[-112,-22.6951],[-111.5,-22.52761],[-111,-22.36165],[-110.5,-22.19727],[-110,-22.03455],[-109.5,-21.87354],[-109,-21.71432],[-108.5,-21.55696],[-108,-21.40152],[-107.5,-21.24808],[-107,-21.0967],[-106.5,-20.94748],[-106,-20.80047],[-105.5,-20.65577],[-105,-20.51345],[-104.5,-20.3736],[-104,-20.23629],[-103.5,-20.10161],[-103,-19.96966],[-102.5,-19.84051],[-102,-19.71425],[-101.5,-19.59099],[-101,-19.4708],[-100.5,-19.35378],[-100,-19.24004],[-99.5,-19.12966],[-99,-19.02273],[-98.5,-18.91937],[-98,-18.81966],[-97.5,-18.72371],[-97,-18.63162],[-96.5,-18.54349],[-96,-18.45941],[-95.5,-18.37949],[-95,-18.30383],[-94.5,-18.23253],[-94,-18.16569],[-93.5,-18.10342],[-93,-18.0458],[-92.5,-17.99294],[-92,-17.94493],[-91.5,-17.90188],[-91,-17.86386],[-90.5,-17.83098],[-90,-17.80332],[-89.5,-17.78096],[-89,-17.76399],[-88.5,-17.7525],[-88,-17.74654],[-87.5,-17.74621],[-87,-17.75155],[-86.5,-17.76265],[-86,-17.77955],[-85.5,-17.80231],[-85,-17.83097],[-84.5,-17.86558],[-84,-17.90618],[-83.5,-17.95278],[-83,-18.00542],[-82.5,-18.06411],[-82,-18.12886],[-81.5,-18.19967],[-81,-18.27654],[-80.5,-18.35945],[-80,-18.44837],[-79.5,-18.5433],[-79,-18.64417],[-78.5,-18.75097],[-78,-18.86362],[-77.5,-18.98207],[-77,-19.10627],[-76.5,-19.23612],[-76,-19.37156],[-75.5,-19.51249],[-75,-19.65883],[-74.5,-19.81046],[-74,-19.96729],[-73.5,-20.1292],[-73,-20.29608],[-72.5,-20.4678],[-72,-20.64424],[-71.5,-20.82526],[-71,-21.01073],[-70.5,-21.20051],[-70,-21.39447],[-69.5,-21.59246],[-69,-21.79433],[-68.5,-21.99993],[-68,-22.20913],[-67.5,-22.42177],[-67,-22.6377],[-66.5,-22.85677],[-66,-23.07884],[-65.5,-23.30376],[-65,-23.53139],[-64.5,-23.76157],[-64,-23.99416],[-63.5,-24.22903],[-63,-24.46603],[-62.5,-24.70503],[-62,-24.94589],[-61.5,-25.18849],[-61,-25.43269],[-60.5,-25.67836],[-60,-25.9254],[-59.5,-26.17367],[-59,-26.42307],[-58.5,-26.67347],[-58,-26.92478],[-57.5,-27.17688],[-57,-27.42968],[-56.5,-27.68307],[-56,-27.93696],[-55.5,-28.19127],[-55,-28.44589],[-54.5,-28.70075],[-54,-28.95577],[-53.5,-29.21086],[-53,-29.46595],[-52.5,-29.72098],[-52,-29.97586],[-51.5,-30.23054],[-51,-30.48495],[-50.5,-30.73903],[-50,-30.99272],[-49.5,-31.24597],[-49,-31.49873],[-48.5,-31.75095],[-48,-32.00257],[-47.5,-32.25356],[-47,-32.50386],[-46.5,-32.75345],[-46,-33.00227],[-45.5,-33.2503],[-45,-33.4975],[-44.5,-33.74384],[-44,-33.98928],[-43.5,-34.2338],[-43,-34.47736],[-42.5,-34.71994],[-42,-34.96152],[-41.5,-35.20207],[-41,-35.44158],[-40.5,-35.68001],[-40,-35.91735],[-39.5,-36.15359],[-39,-36.3887],[-38.5,-36.62266],[-38,-36.85547],[-37.5,-37.08711],[-37,-37.31757],[-36.5,-37.54683],[-36,-37.77488],[-35.5,-38.00172],[-35,-38.22732],[-34.5,-38.45169],[-34,-38.67482],[-33.5,-38.89669],[-33,-39.1173],[-32.5,-39.33665],[-32,-39.55473],[-31.5,-39.77152],[-31,-39.98704],[-30.5,-40.20127],[-30,-40.41421],[-29.5,-40.62586],[-29,-40.83621],[-28.5,-41.04526],[-28,-41.25301],[-27.5,-41.45946],[-27,-41.66461],[-26.5,-41.86845],[-26,-42.07099],[-25.5,-42.27222],[-25,-42.47214],[-24.63281,-42.61813]]}},{"type":"Feature","id":"+12920715:center:0","properties":{"id":"+12920715","year":1292,"month":7,"day":15,"time_tdt":"17:13:08","type":"개기일식","type_code":"T","saros":105,"gamma":-0.64499,"magnitude":1.06916,"greatest":{"lat":-19.87603,"lng":-79.60187},"path_width_km":294.6,"duration":"06m17s","delta_t_seconds":501.5,"catalog_number":7844,"source":"NASA Five Millennium Canon of Solar Eclipses","source_url":"https://eclipse.gsfc.nasa.gov/SEsearch/SEsearchmap.php?Ecl=%2B12920715","boundary":"center","name":"1292-07-15 개기일식"},"geometry":{"type":"LineString","coordinates":[[-132.32262,-31.27713],[-132,-31.15379],[-131.5,-30.96431],[-131,-30.77485],[-130.5,-30.58544],[-130,-30.3961],[-129.5,-30.20685],[-129,-30.01771],[-128.5,-29.8287],[-128,-29.63986],[-127.5,-29.4512],[-127,-29.26275],[-126.5,-29.07454],[-126,-28.88659],[-125.5,-28.69893],[-125,-28.51159],[-124.5,-28.32459],[-124,-28.13798],[-123.5,-27.95177],[-123,-27.766],[-122.5,-27.58071],[-122,-27.39592],[-121.5,-27.21167],[-121,-27.028],[-120.5,-26.84494],[-120,-26.66253],[-119.5,-26.48081],[-119,-26.29982],[-118.5,-26.1196],[-118,-25.94019],[-117.5,-25.76164],[-117,-25.58398],[-116.5,-25.40726],[-116,-25.23154],[-115.5,-25.05686],[-115,-24.88326],[-114.5,-24.7108],[-114,-24.53953],[-113.5,-24.36951],[-113,-24.20078],[-112.5,-24.03341],[-112,-23.86745],[-111.5,-23.70296],[-111,-23.54001],[-110.5,-23.37865],[-110,-23.21894],[-109.5,-23.06096],[-109,-22.90477],[-108.5,-22.75044],[-108,-22.59804],[-107.5,-22.44764],[-107,-22.29931],[-106.5,-22.15313],[-106,-22.00918],[-105.5,-21.86752],[-105,-21.72826],[-104.5,-21.59145],[-104,-21.45719],[-103.5,-21.32557],[-103,-21.19666],[-102.5,-21.07056],[-102,-20.94735],[-101.5,-20.82713],[-101,-20.70998],[-100.5,-20.59601],[-100,-20.48529],[-99.5,-20.37794],[-99,-20.27404],[-98.5,-20.17369],[-98,-20.077],[-97.5,-19.98405],[-97,-19.89495],[-96.5,-19.80981],[-96,-19.72871],[-95.5,-19.65175],[-95,-19.57905],[-94.5,-19.5107],[-94,-19.4468],[-93.5,-19.38744],[-93,-19.33273],[-92.5,-19.28276],[-92,-19.23762],[-91.5,-19.19742],[-91,-19.16224],[-90.5,-19.13217],[-90,-19.10729],[-89.5,-19.0877],[-89,-19.07348],[-88.5,-19.06469],[-88,-19.06142],[-87.5,-19.06373],[-87,-19.07169],[-86.5,-19.08535],[-86,-19.10479],[-85.5,-19.13003],[-85,-19.16114],[-84.5,-19.19814],[-84,-19.24107],[-83.5,-19.28996],[-83,-19.34481],[-82.5,-19.40566],[-82,-19.47249],[-81.5,-19.54532],[-81,-19.62412],[-80.5,-19.70888],[-80,-19.79958],[-79.5,-19.89618],[-79,-19.99864],[-78.5,-20.10693],[-78,-20.22097],[-77.5,-20.3407],[-77,-20.46607],[-76.5,-20.59699],[-76,-20.73337],[-75.5,-20.87512],[-75,-21.02216],[-74.5,-21.17437],[-74,-21.33165],[-73.5,-21.49388],[-73,-21.66094],[-72.5,-21.83272],[-72,-22.00907],[-71.5,-22.18988],[-71,-22.375],[-70.5,-22.56429],[-70,-22.75762],[-69.5,-22.95485],[-69,-23.15582],[-68.5,-23.3604],[-68,-23.56844],[-67.5,-23.77979],[-67,-23.99431],[-66.5,-24.21184],[-66,-24.43225],[-65.5,-24.65539],[-65,-24.88111],[-64.5,-25.10928],[-64,-25.33975],[-63.5,-25.5724],[-63,-25.80707],[-62.5,-26.04364],[-62,-26.28198],[-61.5,-26.52197],[-61,-26.76347],[-60.5,-27.00637],[-60,-27.25055],[-59.5,-27.49589],[-59,-27.74228],[-58.5,-27.98962],[-58,-28.2378],[-57.5,-28.48672],[-57,-28.73628],[-56.5,-28.98638],[-56,-29.23694],[-55.5,-29.48786],[-55,-29.73907],[-54.5,-29.99048],[-54,-30.24201],[-53.5,-30.49359],[-53,-30.74514],[-52.5,-30.9966],[-52,-31.2479],[-51.5,-31.49898],[-51,-31.74977],[-50.5,-32.00022],[-50,-32.25027],[-49.5,-32.49988],[-49,-32.74898],[-48.5,-32.99754],[-48,-33.24551],[-47.5,-33.49284],[-47,-33.73949],[-46.5,-33.98542],[-46,-34.2306],[-45.5,-34.47499],[-45,-34.71856],[-44.5,-34.96127],[-44,-35.2031],[-43.5,-35.44401],[-43,-35.68398],[-42.5,-35.92299],[-42,-36.16101],[-41.5,-36.39802],[-41,-36.634],[-40.5,-36.86892],[-40,-37.10277],[-39.5,-37.33553],[-39,-37.56718],[-38.5,-37.79771],[-38,-38.0271],[-37.5,-38.25535],[-37,-38.48243],[-36.5,-38.70833],[-36,-38.93305],[-35.5,-39.15657],[-35,-39.37889],[-34.5,-39.59999],[-34,-39.81987],[-33.5,-40.03852],[-33,-40.25593],[-32.5,-40.47209],[-32,-40.68701],[-31.5,-40.90068],[-31,-41.11308],[-30.5,-41.32422],[-30,-41.5341],[-29.5,-41.7427],[-29,-41.95003],[-28.5,-42.15609],[-28,-42.36087],[-27.5,-42.56436],[-27,-42.76658],[-26.5,-42.96751],[-26,-43.16716],[-25.5,-43.36553],[-25.12212,-43.55994]]}},{"type":"Feature","id":"+12920715:south:0","properties":{"id":"+12920715","year":1292,"month":7,"day":15,"time_tdt":"17:13:08","type":"개기일식","type_code":"T","saros":105,"gamma":-0.64499,"magnitude":1.06916,"greatest":{"lat":-19.87603,"lng":-79.60187},"path_width_km":294.6,"duration":"06m17s","delta_t_seconds":501.5,"catalog_number":7844,"source":"NASA Five Millennium Canon of Solar Eclipses","source_url":"https://eclipse.gsfc.nasa.gov/SEsearch/SEsearchmap.php?Ecl=%2B12920715","boundary":"south","name":"1292-07-15 개기일식"},"geometry":{"type":"LineString","coordinates":[[-132.10352,-32.26755],[-132,-32.22883],[-131.5,-32.0418],[-131,-31.85482],[-130.5,-31.66789],[-130,-31.48106],[-129.5,-31.29433],[-129,-31.10773],[-128.5,-30.92129],[-128,-30.73502],[-127.5,-30.54895],[-127,-30.36312],[-126.5,-30.17753],[-126,-29.99222],[-125.5,-29.80722],[-125,-29.62256],[-124.5,-29.43826],[-124,-29.25435],[-123.5,-29.07087],[-123,-28.88785],[-122.5,-28.70531],[-122,-28.5233],[-121.5,-28.34184],[-121,-28.16097],[-120.5,-27.98073],[-120,-27.80116],[-119.5,-27.62229],[-119,-27.44416],[-118.5,-27.26682],[-118,-27.0903],[-117.5,-26.91464],[-117,-26.7399],[-116.5,-26.56612],[-116,-26.39334],[-115.5,-26.22161],[-115,-26.05098],[-114.5,-25.8815],[-114,-25.71322],[-113.5,-25.5462],[-113,-25.38048],[-112.5,-25.21613],[-112,-25.0532],[-111.5,-24.89175],[-111,-24.73184],[-110.5,-24.57354],[-110,-24.4169],[-109.5,-24.26199],[-109,-24.10888],[-108.5,-23.95764],[-108,-23.80833],[-107.5,-23.66102],[-107,-23.5158],[-106.5,-23.37272],[-106,-23.23188],[-105.5,-23.09335],[-105,-22.95719],[-104.5,-22.82351],[-104,-22.69238],[-103.5,-22.56388],[-103,-22.43809],[-102.5,-22.31512],[-102,-22.19504],[-101.5,-22.07794],[-101,-21.96391],[-100.5,-21.85306],[-100,-21.74546],[-99.5,-21.64122],[-99,-21.54043],[-98.5,-21.44319],[-98,-21.34959],[-97.5,-21.25974],[-97,-21.17373],[-96.5,-21.09165],[-96,-21.01362],[-95.5,-20.93973],[-95,-20.87007],[-94.5,-20.80475],[-94,-20.74387],[-93.5,-20.68751],[-93,-20.63579],[-92.5,-20.58879],[-92,-20.54661],[-91.5,-20.50934],[-91,-20.47707],[-90.5,-20.44988],[-90,-20.42787],[-89.5,-20.41111],[-89,-20.39968],[-88.5,-20.39366],[-88,-20.39312],[-87.5,-20.39812],[-87,-20.40873],[-86.5,-20.425],[-86,-20.447],[-85.5,-20.47475],[-85,-20.50831],[-84.5,-20.54771],[-84,-20.59298],[-83.5,-20.64414],[-83,-20.7012],[-82.5,-20.76418],[-82,-20.83307],[-81.5,-20.90787],[-81,-20.98856],[-80.5,-21.07512],[-80,-21.16753],[-79.5,-21.26574],[-79,-21.36972],[-78.5,-21.47941],[-78,-21.59474],[-77.5,-21.71567],[-77,-21.8421],[-76.5,-21.97397],[-76,-22.11118],[-75.5,-22.25364],[-75,-22.40126],[-74.5,-22.55392],[-74,-22.71151],[-73.5,-22.87392],[-73,-23.04104],[-72.5,-23.21272],[-72,-23.38885],[-71.5,-23.5693],[-71,-23.75392],[-70.5,-23.94259],[-70,-24.13515],[-69.5,-24.33148],[-69,-24.53142],[-68.5,-24.73483],[-68,-24.94158],[-67.5,-25.15151],[-67,-25.36448],[-66.5,-25.58035],[-66,-25.79898],[-65.5,-26.02022],[-65,-26.24393],[-64.5,-26.46998],[-64,-26.69823],[-63.5,-26.92855],[-63,-27.1608],[-62.5,-27.39486],[-62,-27.6306],[-61.5,-27.8679],[-61,-28.10664],[-60.5,-28.34669],[-60,-28.58796],[-59.5,-28.83032],[-59,-29.07366],[-58.5,-29.31789],[-58,-29.56291],[-57.5,-29.80861],[-57,-30.0549],[-56.5,-30.30169],[-56,-30.5489],[-55.5,-30.79643],[-55,-31.04422],[-54.5,-31.29217],[-54,-31.54021],[-53.5,-31.78828],[-53,-32.0363],[-52.5,-32.2842],[-52,-32.53193],[-51.5,-32.77943],[-51,-33.02662],[-50.5,-33.27347],[-50,-33.51991],[-49.5,-33.76589],[-49,-34.01138],[-48.5,-34.25631],[-48,-34.50065],[-47.5,-34.74436],[-47,-34.98739],[-46.5,-35.22971],[-46,-35.47129],[-45.5,-35.71208],[-45,-35.95206],[-44.5,-36.1912],[-44,-36.42946],[-43.5,-36.66682],[-43,-36.90326],[-42.5,-37.13874],[-42,-37.37325],[-41.5,-37.60677],[-41,-37.83927],[-40.5,-38.07073],[-40,-38.30114],[-39.5,-38.53047],[-39,-38.75872],[-38.5,-38.98587],[-38,-39.2119],[-37.5,-39.4368],[-37,-39.66056],[-36.5,-39.88316],[-36,-40.1046],[-35.5,-40.32486],[-35,-40.54394],[-34.5,-40.76183],[-34,-40.97851],[-33.5,-41.19399],[-33,-41.40825],[-32.5,-41.62129],[-32,-41.8331],[-31.5,-42.04369],[-31,-42.25303],[-30.5,-42.46113],[-30,-42.66799],[-29.5,-42.8736],[-29,-43.07796],[-28.5,-43.28107],[-28,-43.48292],[-27.5,-43.68351],[-27,-43.88285],[-26.5,-44.08092],[-26,-44.27773],[-25.5,-44.47328],[-25.49805,-44.47404]]}}],"attribution":"Eclipse Predictions by Fred Espenak and Jean Meeus (NASA's GSFC)","generated_at":"2026-09-23T03:35:45.642Z"}
