{"type":"FeatureCollection","year":13,"events":[{"id":"+00130428","year":13,"month":4,"day":28,"time_tdt":"22:16:18","type":"금환일식","type_code":"A","saros":77,"gamma":0.52928,"magnitude":0.95119,"greatest":{"lat":41.8306,"lng":-129.57611},"path_width_km":208.5,"duration":"04m41s","delta_t_seconds":10400.3,"catalog_number":4804,"source":"NASA Five Millennium Canon of Solar Eclipses","source_url":"https://eclipse.gsfc.nasa.gov/SEsearch/SEsearchmap.php?Ecl=%2B00130428"},{"id":"+00131023","year":13,"month":10,"day":23,"time_tdt":"09:50:43","type":"개기일식","type_code":"T","saros":82,"gamma":-0.63049,"magnitude":1.01857,"greatest":{"lat":-44.69484,"lng":48.88403},"path_width_km":80.9,"duration":"01m23s","delta_t_seconds":10395.4,"catalog_number":4805,"source":"NASA Five Millennium Canon of Solar Eclipses","source_url":"https://eclipse.gsfc.nasa.gov/SEsearch/SEsearchmap.php?Ecl=%2B00131023"}],"features":[{"type":"Feature","id":"+00130428:north:0","properties":{"id":"+00130428","year":13,"month":4,"day":28,"time_tdt":"22:16:18","type":"금환일식","type_code":"A","saros":77,"gamma":0.52928,"magnitude":0.95119,"greatest":{"lat":41.8306,"lng":-129.57611},"path_width_km":208.5,"duration":"04m41s","delta_t_seconds":10400.3,"catalog_number":4804,"source":"NASA Five Millennium Canon of Solar Eclipses","source_url":"https://eclipse.gsfc.nasa.gov/SEsearch/SEsearchmap.php?Ecl=%2B00130428","boundary":"north","name":"13-04-28 금환일식"},"geometry":{"type":"LineString","coordinates":[[-179.15234,7.62338],[-179,7.65951],[-178.5,7.78014],[-178,7.90392],[-177.5,8.03089],[-177,8.16111],[-176.5,8.29464],[-176,8.43152],[-175.5,8.57182],[-175,8.71561],[-174.5,8.86292],[-174,9.01384],[-173.5,9.16842],[-173,9.32674],[-172.5,9.48885],[-172,9.65483],[-171.5,9.82474],[-171,9.99867],[-170.5,10.17669],[-170,10.35887],[-169.5,10.5453],[-169,10.73605],[-168.5,10.93122],[-168,11.13089],[-167.5,11.33514],[-167,11.54407],[-166.5,11.75777],[-166,11.97634],[-165.5,12.19988],[-165,12.42849],[-164.5,12.66226],[-164,12.90131],[-163.5,13.14575],[-163,13.39568],[-162.5,13.65122],[-162,13.91249],[-161.5,14.1796],[-161,14.45267],[-160.5,14.73183],[-160,15.01719],[-159.5,15.30889],[-159,15.60705],[-158.5,15.9118],[-158,16.22327],[-157.5,16.54158],[-157,16.86687],[-156.5,17.19926],[-156,17.53889],[-155.5,17.88587],[-155,18.24033],[-154.5,18.60239],[-154,18.97215],[-153.5,19.34974],[-153,19.73525],[-152.5,20.12877],[-152,20.53039],[-151.5,20.94017],[-151,21.35817],[-150.5,21.78444],[-150,22.219],[-149.5,22.66184],[-149,23.11296],[-148.5,23.5723],[-148,24.0398],[-147.5,24.51534],[-147,24.9988],[-146.5,25.49],[-146,25.98873],[-145.5,26.49475],[-145,27.00776],[-144.5,27.52743],[-144,28.05339],[-143.5,28.5852],[-143,29.1224],[-142.5,29.66448],[-142,30.21089],[-141.5,30.76105],[-141,31.31433],[-140.5,31.87007],[-140,32.4276],[-139.5,32.98623],[-139,33.54523],[-138.5,34.10391],[-138,34.66153],[-137.5,35.21741],[-137,35.77083],[-136.5,36.32114],[-136,36.86769],[-135.5,37.40987],[-135,37.94709],[-134.5,38.47883],[-134,39.0046],[-133.5,39.52393],[-133,40.03644],[-132.5,40.54176],[-132,41.03958],[-131.5,41.52964],[-131,42.0117],[-130.5,42.48559],[-130,42.95116],[-129.5,43.4083],[-129,43.85694],[-128.5,44.29702],[-128,44.72853],[-127.5,45.15149],[-127,45.56591],[-126.5,45.97184],[-126,46.36937],[-125.5,46.75855],[-125,47.1395],[-124.5,47.51232],[-124,47.87712],[-123.5,48.23403],[-123,48.58318],[-122.5,48.9247],[-122,49.25873],[-121.5,49.58542],[-121,49.9049],[-120.5,50.21732],[-120,50.52283],[-119.5,50.82157],[-119,51.11369],[-118.5,51.39933],[-118,51.67864],[-117.5,51.95174],[-117,52.21878],[-116.5,52.4799],[-116,52.73523],[-115.5,52.98489],[-115,53.22902],[-114.5,53.46775],[-114,53.70118],[-113.5,53.92945],[-113,54.15267],[-112.5,54.37095],[-112,54.5844],[-111.5,54.79312],[-111,54.99723],[-110.5,55.19683],[-110,55.39201],[-109.5,55.58286],[-109,55.76949],[-108.5,55.95198],[-108,56.13041],[-107.5,56.30489],[-107,56.47547],[-106.5,56.64226],[-106,56.80532],[-105.5,56.96473],[-105,57.12056],[-104.5,57.27289],[-104,57.42178],[-103.5,57.5673],[-103,57.70951],[-102.5,57.84848],[-102,57.98427],[-101.5,58.11694],[-101,58.24654],[-100.5,58.37313],[-100,58.49677],[-99.5,58.6175],[-99,58.73538],[-98.5,58.85045],[-98,58.96277],[-97.5,59.07238],[-97,59.17932],[-96.5,59.28364],[-96,59.38538],[-95.5,59.48458],[-95,59.58128],[-94.5,59.67552],[-94,59.76733],[-93.5,59.85676],[-93,59.94384],[-92.5,60.02859],[-92,60.11107],[-91.5,60.19128],[-91,60.26928],[-90.5,60.34508],[-90,60.41872],[-89.5,60.49022],[-89,60.55962],[-88.5,60.62693],[-88,60.69219],[-87.5,60.75542],[-87,60.81664],[-86.5,60.87588],[-86,60.93316],[-85.5,60.9885],[-85,61.04192],[-84.5,61.09344],[-84,61.14309],[-83.5,61.19088],[-83,61.23684],[-82.5,61.28097],[-82,61.3233],[-81.5,61.36384],[-81,61.40261],[-80.5,61.43964],[-80,61.47492],[-79.5,61.50847],[-79,61.54032],[-78.5,61.57047],[-78,61.59894],[-77.5,61.62574],[-77,61.65089],[-76.5,61.67438],[-76,61.69625],[-75.5,61.71649],[-75,61.73512],[-74.5,61.75215],[-74,61.76758],[-73.5,61.78144],[-73,61.79372],[-72.5,61.80444],[-72,61.8136],[-71.5,61.82121],[-71,61.82728],[-70.5,61.83182],[-70,61.83484],[-69.5,61.83633],[-69,61.83631],[-68.5,61.83479],[-68,61.83176],[-67.5,61.82724],[-67,61.82123],[-66.5,61.81374],[-66,61.80476],[-65.5,61.79431],[-65,61.78238],[-64.5,61.76899],[-64,61.75413],[-63.5,61.73782],[-63,61.72004],[-62.5,61.70081],[-62,61.68013],[-61.5,61.658],[-61,61.63442],[-60.5,61.6094],[-60,61.58294],[-59.5,61.55503],[-59,61.52568],[-58.5,61.4949],[-58,61.46268],[-57.5,61.42902],[-57,61.39393],[-56.5,61.3574],[-56,61.31944],[-55.5,61.28004],[-55,61.23922],[-54.5,61.19695],[-54,61.15326],[-53.5,61.10813],[-53,61.06157],[-52.5,61.01358],[-52,60.96415],[-51.5,60.91329],[-51,60.86099],[-50.5,60.80726],[-50,60.75209],[-49.5,60.69548],[-49,60.63743],[-48.5,60.57795],[-48,60.51702],[-47.5,60.45466],[-47,60.39085],[-46.5,60.32559],[-46,60.25889],[-45.5,60.19075],[-45,60.12115],[-44.5,60.05011],[-44,59.97762],[-43.5,59.90368],[-43,59.82828],[-42.5,59.75143],[-42,59.67313],[-41.5,59.59337],[-41,59.51216],[-40.5,59.42948],[-40,59.34535],[-39.5,59.25975],[-39,59.1727],[-38.5,59.08419],[-38,58.99421],[-37.5,58.90277],[-37,58.80986],[-36.5,58.7155],[-36,58.61966],[-35.5,58.52237],[-35,58.42361],[-34.5,58.32339],[-34,58.2217],[-33.5,58.11855],[-33,58.01394],[-32.5,57.90786],[-32,57.80033],[-31.5,57.69133],[-31,57.58088],[-30.5,57.46897],[-30,57.3556],[-29.5,57.24079],[-29,57.12452],[-28.5,57.0068],[-28,56.88764],[-27.5,56.76703],[-27,56.64499],[-26.5,56.5215],[-26,56.39659],[-25.5,56.27024]]}},{"type":"Feature","id":"+00130428:center:0","properties":{"id":"+00130428","year":13,"month":4,"day":28,"time_tdt":"22:16:18","type":"금환일식","type_code":"A","saros":77,"gamma":0.52928,"magnitude":0.95119,"greatest":{"lat":41.8306,"lng":-129.57611},"path_width_km":208.5,"duration":"04m41s","delta_t_seconds":10400.3,"catalog_number":4804,"source":"NASA Five Millennium Canon of Solar Eclipses","source_url":"https://eclipse.gsfc.nasa.gov/SEsearch/SEsearchmap.php?Ecl=%2B00130428","boundary":"center","name":"13-04-28 금환일식"},"geometry":{"type":"LineString","coordinates":[[-178.48552,6.44764],[-178,6.56364],[-177.5,6.68941],[-177,6.81836],[-176.5,6.95054],[-176,7.086],[-175.5,7.22479],[-175,7.36699],[-174.5,7.51263],[-174,7.66179],[-173.5,7.81452],[-173,7.97089],[-172.5,8.13097],[-172,8.29481],[-171.5,8.46249],[-171,8.63408],[-170.5,8.80965],[-170,8.98928],[-169.5,9.17305],[-169,9.36102],[-168.5,9.55329],[-168,9.74993],[-167.5,9.95103],[-167,10.15669],[-166.5,10.36698],[-166,10.582],[-165.5,10.80186],[-165,11.02663],[-164.5,11.25643],[-164,11.49136],[-163.5,11.73151],[-163,11.97701],[-162.5,12.22795],[-162,12.48446],[-161.5,12.74664],[-161,13.01461],[-160.5,13.28849],[-160,13.5684],[-159.5,13.85447],[-159,14.14682],[-158.5,14.44558],[-158,14.75087],[-157.5,15.06282],[-157,15.38156],[-156.5,15.70723],[-156,16.03995],[-155.5,16.37984],[-155,16.72704],[-154.5,17.08167],[-154,17.44384],[-153.5,17.81369],[-153,18.19131],[-152.5,18.57681],[-152,18.97029],[-151.5,19.37184],[-151,19.78153],[-150.5,20.19942],[-150,20.62557],[-149.5,21.06001],[-149,21.50275],[-148.5,21.95378],[-148,22.41306],[-147.5,22.88055],[-147,23.35614],[-146.5,23.83971],[-146,24.33112],[-145.5,24.83016],[-145,25.33661],[-144.5,25.85019],[-144,26.37059],[-143.5,26.89743],[-143,27.43032],[-142.5,27.96881],[-142,28.5124],[-141.5,29.06055],[-141,29.61269],[-140.5,30.1682],[-140,30.72643],[-139.5,31.28671],[-139,31.84834],[-138.5,32.41061],[-138,32.9728],[-137.5,33.53418],[-137,34.09404],[-136.5,34.65166],[-136,35.20637],[-135.5,35.75749],[-135,36.30439],[-134.5,36.84648],[-134,37.3832],[-133.5,37.91402],[-133,38.43848],[-132.5,38.95615],[-132,39.46666],[-131.5,39.96966],[-131,40.46488],[-130.5,40.95207],[-130,41.43102],[-129.5,41.90159],[-129,42.36364],[-128.5,42.81709],[-128,43.26189],[-127.5,43.69799],[-127,44.12542],[-126.5,44.54418],[-126,44.95433],[-125.5,45.35593],[-125,45.74905],[-124.5,46.1338],[-124,46.51027],[-123.5,46.87858],[-123,47.23886],[-122.5,47.59123],[-122,47.93584],[-121.5,48.27282],[-121,48.60232],[-120.5,48.92449],[-120,49.23946],[-119.5,49.54739],[-119,49.84843],[-118.5,50.14272],[-118,50.43041],[-117.5,50.71165],[-117,50.98657],[-116.5,51.25533],[-116,51.51804],[-115.5,51.77487],[-115,52.02592],[-114.5,52.27134],[-114,52.51126],[-113.5,52.74579],[-113,52.97506],[-112.5,53.19919],[-112,53.4183],[-111.5,53.63248],[-111,53.84187],[-110.5,54.04655],[-110,54.24664],[-109.5,54.44223],[-109,54.63342],[-108.5,54.82031],[-108,55.00299],[-107.5,55.18155],[-107,55.35607],[-106.5,55.52664],[-106,55.69334],[-105.5,55.85625],[-105,56.01544],[-104.5,56.171],[-104,56.32299],[-103.5,56.47148],[-103,56.61654],[-102.5,56.75823],[-102,56.89663],[-101.5,57.03178],[-101,57.16376],[-100.5,57.29262],[-100,57.41841],[-99.5,57.54119],[-99,57.66102],[-98.5,57.77793],[-98,57.892],[-97.5,58.00325],[-97,58.11175],[-96.5,58.21752],[-96,58.32063],[-95.5,58.42111],[-95,58.51899],[-94.5,58.61433],[-94,58.70717],[-93.5,58.79752],[-93,58.88545],[-92.5,58.97097],[-92,59.05413],[-91.5,59.13496],[-91,59.21348],[-90.5,59.28974],[-90,59.36376],[-89.5,59.43557],[-89,59.50519],[-88.5,59.57267],[-88,59.63802],[-87.5,59.70126],[-87,59.76243],[-86.5,59.82155],[-86,59.87864],[-85.5,59.93373],[-85,59.98683],[-84.5,60.03797],[-84,60.08717],[-83.5,60.13444],[-83,60.17982],[-82.5,60.22331],[-82,60.26494],[-81.5,60.30471],[-81,60.34266],[-80.5,60.37879],[-80,60.41313],[-79.5,60.44568],[-79,60.47646],[-78.5,60.50549],[-78,60.53278],[-77.5,60.55834],[-77,60.58219],[-76.5,60.60433],[-76,60.62478],[-75.5,60.64356],[-75,60.66066],[-74.5,60.67611],[-74,60.68992],[-73.5,60.70208],[-73,60.71262],[-72.5,60.72154],[-72,60.72885],[-71.5,60.73456],[-71,60.73868],[-70.5,60.7412],[-70,60.74215],[-69.5,60.74153],[-69,60.73935],[-68.5,60.7356],[-68,60.7303],[-67.5,60.72346],[-67,60.71507],[-66.5,60.70515],[-66,60.6937],[-65.5,60.68072],[-65,60.66622],[-64.5,60.6502],[-64,60.63266],[-63.5,60.61362],[-63,60.59307],[-62.5,60.57102],[-62,60.54746],[-61.5,60.52241],[-61,60.49586],[-60.5,60.46782],[-60,60.43829],[-59.5,60.40727],[-59,60.37476],[-58.5,60.34077],[-58,60.30529],[-57.5,60.26833],[-57,60.2299],[-56.5,60.18998],[-56,60.14858],[-55.5,60.1057],[-55,60.06135],[-54.5,60.01552],[-54,59.96821],[-53.5,59.91942],[-53,59.86916],[-52.5,59.81743],[-52,59.76421],[-51.5,59.70952],[-51,59.65336],[-50.5,59.59571],[-50,59.53659],[-49.5,59.476],[-49,59.41392],[-48.5,59.35037],[-48,59.28533],[-47.5,59.21882],[-47,59.15083],[-46.5,59.08136],[-46,59.01041],[-45.5,58.93797],[-45,58.86406],[-44.5,58.78866],[-44,58.71178],[-43.5,58.63342],[-43,58.55357],[-42.5,58.47223],[-42,58.38942],[-41.5,58.30511],[-41,58.21933],[-40.5,58.13205],[-40,58.04329],[-39.5,57.95305],[-39,57.86132],[-38.5,57.7681],[-38,57.6734],[-37.5,57.57722],[-37,57.47955],[-36.5,57.3804],[-36,57.27976],[-35.5,57.17765],[-35,57.07405],[-34.5,56.96898],[-34,56.86242],[-33.5,56.75439],[-33,56.64489],[-32.5,56.53392],[-32,56.42147],[-31.5,56.30756],[-31,56.19218],[-30.5,56.07534],[-30,55.95705],[-29.5,55.83729],[-29,55.71609],[-28.5,55.59343],[-28,55.46933],[-27.5,55.3438],[-27,55.21682],[-26.53498,55.16198]]}},{"type":"Feature","id":"+00130428:south:0","properties":{"id":"+00130428","year":13,"month":4,"day":28,"time_tdt":"22:16:18","type":"금환일식","type_code":"A","saros":77,"gamma":0.52928,"magnitude":0.95119,"greatest":{"lat":41.8306,"lng":-129.57611},"path_width_km":208.5,"duration":"04m41s","delta_t_seconds":10400.3,"catalog_number":4804,"source":"NASA Five Millennium Canon of Solar Eclipses","source_url":"https://eclipse.gsfc.nasa.gov/SEsearch/SEsearchmap.php?Ecl=%2B00130428","boundary":"south","name":"13-04-28 금환일식"},"geometry":{"type":"LineString","coordinates":[[-177.83008,5.28328],[-177.5,5.36596],[-177,5.49379],[-176.5,5.62477],[-176,5.75896],[-175.5,5.89642],[-175,6.03719],[-174.5,6.18134],[-174,6.32892],[-173.5,6.47999],[-173,6.63461],[-172.5,6.79285],[-172,6.95476],[-171.5,7.12042],[-171,7.2899],[-170.5,7.46325],[-170,7.64056],[-169.5,7.82189],[-169,8.00733],[-168.5,8.19695],[-168,8.39083],[-167.5,8.58906],[-167,8.79171],[-166.5,8.99888],[-166,9.21066],[-165.5,9.42712],[-165,9.64838],[-164.5,9.87453],[-164,10.10565],[-163.5,10.34187],[-163,10.58327],[-162.5,10.82997],[-162,11.08208],[-161.5,11.3397],[-161,11.60295],[-160.5,11.87195],[-160,12.14681],[-159.5,12.42766],[-159,12.71461],[-158.5,13.0078],[-158,13.30734],[-157.5,13.61337],[-157,13.92601],[-156.5,14.24539],[-156,14.57165],[-155.5,14.9049],[-155,15.24529],[-154.5,15.59294],[-154,15.94796],[-153.5,16.3105],[-153,16.68066],[-152.5,17.05856],[-152,17.4443],[-151.5,17.838],[-151,18.23973],[-150.5,18.64959],[-150,19.06763],[-149.5,19.49393],[-149,19.92851],[-148.5,20.37141],[-148,20.82261],[-147.5,21.28209],[-147,21.74982],[-146.5,22.22571],[-146,22.70965],[-145.5,23.2015],[-145,23.70109],[-144.5,24.2082],[-144,24.72256],[-143.5,25.24388],[-143,25.77182],[-142.5,26.30597],[-142,26.84592],[-141.5,27.39116],[-141,27.94119],[-140.5,28.49543],[-140,29.05328],[-139.5,29.61409],[-139,30.1772],[-138.5,30.7419],[-138,31.30749],[-137.5,31.87323],[-137,32.4384],[-136.5,33.00226],[-136,33.56408],[-135.5,34.12318],[-135,34.67886],[-134.5,35.23046],[-134,35.77738],[-133.5,36.31902],[-133,36.85485],[-132.5,37.38438],[-132,37.90716],[-131.5,38.42277],[-131,38.93088],[-130.5,39.43118],[-130,39.9234],[-129.5,40.40732],[-129,40.88278],[-128.5,41.34964],[-128,41.80779],[-127.5,42.25717],[-127,42.69775],[-126.5,43.12952],[-126,43.55249],[-125.5,43.96671],[-125,44.37223],[-124.5,44.76915],[-124,45.15753],[-123.5,45.5375],[-123,45.90916],[-122.5,46.27265],[-122,46.62808],[-121.5,46.97561],[-121,47.31537],[-120.5,47.64751],[-120,47.97217],[-119.5,48.28952],[-119,48.59969],[-118.5,48.90284],[-118,49.19912],[-117.5,49.48867],[-117,49.77165],[-116.5,50.04821],[-116,50.31848],[-115.5,50.5826],[-115,50.84072],[-114.5,51.09297],[-114,51.33949],[-113.5,51.5804],[-113,51.81583],[-112.5,52.04591],[-112,52.27075],[-111.5,52.49048],[-111,52.7052],[-110.5,52.91504],[-110,53.1201],[-109.5,53.32047],[-109,53.51628],[-108.5,53.70761],[-108,53.89456],[-107.5,54.07723],[-107,54.25571],[-106.5,54.43008],[-106,54.60043],[-105.5,54.76684],[-105,54.9294],[-104.5,55.08818],[-104,55.24326],[-103.5,55.3947],[-103,55.54259],[-102.5,55.68699],[-102,55.82796],[-101.5,55.96558],[-101,56.0999],[-100.5,56.23099],[-100,56.3589],[-99.5,56.48369],[-99,56.60542],[-98.5,56.72414],[-98,56.8399],[-97.5,56.95275],[-97,57.06274],[-96.5,57.16992],[-96,57.27433],[-95.5,57.37603],[-95,57.47504],[-94.5,57.57142],[-94,57.6652],[-93.5,57.75642],[-93,57.84512],[-92.5,57.93134],[-92,58.01512],[-91.5,58.09648],[-91,58.17546],[-90.5,58.2521],[-90,58.32642],[-89.5,58.39845],[-89,58.46823],[-88.5,58.53579],[-88,58.60114],[-87.5,58.66432],[-87,58.72536],[-86.5,58.78427],[-86,58.84109],[-85.5,58.89584],[-85,58.94853],[-84.5,58.9992],[-84,59.04786],[-83.5,59.09453],[-83,59.13924],[-82.5,59.182],[-82,59.22283],[-81.5,59.26176],[-81,59.29879],[-80.5,59.33394],[-80,59.36724],[-79.5,59.39869],[-79,59.42832],[-78.5,59.45613],[-78,59.48214],[-77.5,59.50637],[-77,59.52882],[-76.5,59.54952],[-76,59.56847],[-75.5,59.58568],[-75,59.60118],[-74.5,59.61495],[-74,59.62703],[-73.5,59.63741],[-73,59.64612],[-72.5,59.65315],[-72,59.65851],[-71.5,59.66222],[-71,59.66429],[-70.5,59.66471],[-70,59.66351],[-69.5,59.66068],[-69,59.65623],[-68.5,59.65018],[-68,59.64251],[-67.5,59.63326],[-67,59.62241],[-66.5,59.60997],[-66,59.59595],[-65.5,59.58036],[-65,59.56319],[-64.5,59.54446],[-64,59.52416],[-63.5,59.5023],[-63,59.47889],[-62.5,59.45393],[-62,59.42742],[-61.5,59.39936],[-61,59.36976],[-60.5,59.33862],[-60,59.30594],[-59.5,59.27173],[-59,59.23598],[-58.5,59.19871],[-58,59.1599],[-57.5,59.11957],[-57,59.07772],[-56.5,59.03433],[-56,58.98943],[-55.5,58.943],[-55,58.89505],[-54.5,58.84559],[-54,58.7946],[-53.5,58.7421],[-53,58.68807],[-52.5,58.63254],[-52,58.57548],[-51.5,58.51691],[-51,58.45682],[-50.5,58.39522],[-50,58.3321],[-49.5,58.26746],[-49,58.20132],[-48.5,58.13365],[-48,58.06447],[-47.5,57.99378],[-47,57.92158],[-46.5,57.84785],[-46,57.77262],[-45.5,57.69587],[-45,57.61761],[-44.5,57.53783],[-44,57.45654],[-43.5,57.37374],[-43,57.28943],[-42.5,57.2036],[-42,57.11626],[-41.5,57.02741],[-41,56.93705],[-40.5,56.84518],[-40,56.75181],[-39.5,56.65692],[-39,56.56053],[-38.5,56.46263],[-38,56.36323],[-37.5,56.26232],[-37,56.15992],[-36.5,56.05601],[-36,55.95061],[-35.5,55.84372],[-35,55.73533],[-34.5,55.62545],[-34,55.51408],[-33.5,55.40123],[-33,55.28689],[-32.5,55.17108],[-32,55.05379],[-31.5,54.93503],[-31,54.81481],[-30.5,54.69312],[-30,54.56997],[-29.5,54.44537],[-29,54.31932],[-28.5,54.19183],[-28,54.0629],[-27.75586,53.99942]]}},{"type":"Feature","id":"+00131023:north:0","properties":{"id":"+00131023","year":13,"month":10,"day":23,"time_tdt":"09:50:43","type":"개기일식","type_code":"T","saros":82,"gamma":-0.63049,"magnitude":1.01857,"greatest":{"lat":-44.69484,"lng":48.88403},"path_width_km":80.9,"duration":"01m23s","delta_t_seconds":10395.4,"catalog_number":4805,"source":"NASA Five Millennium Canon of Solar Eclipses","source_url":"https://eclipse.gsfc.nasa.gov/SEsearch/SEsearchmap.php?Ecl=%2B00131023","boundary":"north","name":"13-10-23 개기일식"},"geometry":{"type":"LineString","coordinates":[[0.5957,-12.08255],[1,-12.15958],[1.5,-12.25769],[2,-12.35899],[2.5,-12.46354],[3,-12.57138],[3.5,-12.68257],[4,-12.79716],[4.5,-12.9152],[5,-13.03674],[5.5,-13.16186],[6,-13.29059],[6.5,-13.42301],[7,-13.55918],[7.5,-13.69916],[8,-13.84301],[8.5,-13.9908],[9,-14.1426],[9.5,-14.29847],[10,-14.4585],[10.5,-14.62275],[11,-14.7913],[11.5,-14.96422],[12,-15.1416],[12.5,-15.32351],[13,-15.51005],[13.5,-15.70128],[14,-15.8973],[14.5,-16.0982],[15,-16.30406],[15.5,-16.51499],[16,-16.73107],[16.5,-16.95239],[17,-17.17907],[17.5,-17.41119],[18,-17.64886],[18.5,-17.89217],[19,-18.14125],[19.5,-18.39618],[20,-18.65708],[20.5,-18.92405],[21,-19.1972],[21.5,-19.47665],[22,-19.76249],[22.5,-20.05485],[23,-20.35382],[23.5,-20.65951],[24,-20.97204],[24.5,-21.2915],[25,-21.618],[25.5,-21.95164],[26,-22.2925],[26.5,-22.64068],[27,-22.99626],[27.5,-23.35932],[28,-23.72993],[28.5,-24.10814],[29,-24.49402],[29.5,-24.88758],[30,-25.28887],[30.5,-25.69789],[31,-26.11462],[31.5,-26.53906],[32,-26.97115],[32.5,-27.41083],[33,-27.85801],[33.5,-28.31257],[34,-28.77438],[34.5,-29.24327],[35,-29.71904],[35.5,-30.20145],[36,-30.69026],[36.5,-31.18517],[37,-31.68585],[37.5,-32.19194],[38,-32.70307],[38.5,-33.2188],[39,-33.7387],[39.5,-34.26227],[40,-34.78903],[40.5,-35.31844],[41,-35.84997],[41.5,-36.38306],[42,-36.91714],[42.5,-37.45164],[43,-37.98598],[43.5,-38.51959],[44,-39.05191],[44.5,-39.58237],[45,-40.11043],[45.5,-40.63559],[46,-41.15733],[46.5,-41.67519],[47,-42.18872],[47.5,-42.6975],[48,-43.20116],[48.5,-43.69933],[49,-44.1917],[49.5,-44.67797],[50,-45.15791],[50.5,-45.63127],[51,-46.09788],[51.5,-46.55756],[52,-47.01018],[52.5,-47.45563],[53,-47.89382],[53.5,-48.32471],[54,-48.74824],[54.5,-49.1644],[55,-49.57319],[55.5,-49.97461],[56,-50.36871],[56.5,-50.75552],[57,-51.13509],[57.5,-51.5075],[58,-51.87281],[58.5,-52.23111],[59,-52.58248],[59.5,-52.92701],[60,-53.26482],[60.5,-53.59598],[61,-53.92063],[61.5,-54.23885],[62,-54.55077],[62.5,-54.85648],[63,-55.15612],[63.5,-55.44978],[64,-55.73758],[64.5,-56.01963],[65,-56.29605],[65.5,-56.56694],[66,-56.83242],[66.5,-57.0926],[67,-57.34757],[67.5,-57.59746],[68,-57.84235],[68.5,-58.08236],[69,-58.31758],[69.5,-58.54812],[70,-58.77406],[70.5,-58.99551],[71,-59.21256],[71.5,-59.42529],[72,-59.6338],[72.5,-59.83817],[73,-60.0385],[73.5,-60.23485],[74,-60.42731],[74.5,-60.61596],[75,-60.80088],[75.5,-60.98213],[76,-61.1598],[76.5,-61.33396],[77,-61.50467],[77.5,-61.672],[78,-61.83602],[78.5,-61.9968],[79,-62.15438],[79.5,-62.30884],[80,-62.46023],[80.5,-62.60862],[81,-62.75405],[81.5,-62.89659],[82,-63.03628],[82.5,-63.17317],[83,-63.30733],[83.5,-63.43879],[84,-63.5676],[84.5,-63.69381],[85,-63.81747],[85.5,-63.93862],[86,-64.05731],[86.5,-64.17356],[87,-64.28743],[87.5,-64.39895],[88,-64.50817],[88.5,-64.61512],[89,-64.71983],[89.5,-64.82234],[90,-64.92269],[90.5,-65.02091],[91,-65.11703],[91.5,-65.21108],[92,-65.3031],[92.5,-65.39311],[93,-65.48115],[93.5,-65.56724],[94,-65.65141],[94.5,-65.73368],[95,-65.81409],[95.5,-65.89266],[96,-65.96941],[96.5,-66.04437],[97,-66.11756],[97.5,-66.189],[98,-66.25872],[98.5,-66.32674],[99,-66.39307],[99.5,-66.45775],[100,-66.52078],[100.5,-66.58219],[101,-66.64199],[101.5,-66.70022],[102,-66.75687],[102.5,-66.81197],[103,-66.86554],[103.5,-66.91759],[104,-66.96814],[104.5,-67.0172],[105,-67.06479],[105.5,-67.11093],[106,-67.15562],[106.5,-67.19888],[107,-67.24072],[107.5,-67.28116],[108,-67.3202],[108.5,-67.35787],[109,-67.39416],[109.5,-67.4291],[110,-67.46269],[110.5,-67.49495],[111,-67.52588],[111.5,-67.55549],[112,-67.58379],[112.5,-67.6108],[113,-67.63652],[113.5,-67.66095],[114,-67.68411],[114.5,-67.70601],[115,-67.72665],[115.5,-67.74604],[116,-67.76418],[116.5,-67.78109],[117,-67.79677],[117.5,-67.81122],[118,-67.82445],[118.5,-67.83647],[119,-67.84728],[119.5,-67.85688],[120,-67.86529],[120.5,-67.8725],[121,-67.87852],[121.5,-67.88336],[122,-67.88701],[122.5,-67.88949],[123,-67.89079],[123.5,-67.89091],[124,-67.88987],[124.5,-67.88766],[125,-67.88428],[125.5,-67.87974],[126,-67.87404],[126.5,-67.86718],[127,-67.85917],[127.5,-67.84999],[128,-67.83966],[128.5,-67.82818],[129,-67.81554],[129.5,-67.80175],[130,-67.78681],[130.5,-67.77071],[131,-67.75346],[131.5,-67.73506],[132,-67.7155],[132.5,-67.69479],[133,-67.67292],[133.5,-67.6499],[134,-67.62572],[134.5,-67.60038],[135,-67.57389],[135.5,-67.54623],[136,-67.5174],[136.5,-67.48742],[137,-67.45626],[137.5,-67.42394],[138,-67.39044],[138.5,-67.35577],[139,-67.31992],[139.5,-67.28289],[140,-67.24468],[140.5,-67.20528],[141,-67.1647],[141.5,-67.12292],[142,-67.07994],[142.5,-67.03577],[143,-66.99039],[143.5,-66.94381],[144,-66.89601],[144.5,-66.847],[145,-66.79677],[145.5,-66.74531],[146,-66.69263],[146.5,-66.63871],[147,-66.58356],[147.5,-66.52717],[148,-66.46953],[148.5,-66.41064],[149,-66.35049],[149.5,-66.28908],[150,-66.2264],[150.5,-66.16246],[151,-66.09724],[151.5,-66.03073],[152,-65.96294],[152.5,-65.89386],[153,-65.82348],[153.5,-65.7518],[154,-65.67881],[154.5,-65.60451],[155,-65.52888],[155.5,-65.45194],[156,-65.37366],[156.5,-65.29406],[157,-65.21311],[157.5,-65.13081],[158,-65.04717],[158.5,-64.96216],[159,-64.8758],[159.5,-64.78807],[160,-64.69897],[160.5,-64.60849],[161,-64.51663],[161.5,-64.42339],[162,-64.32875],[162.5,-64.23272],[163,-64.13528],[163.5,-64.03644],[164,-63.93619],[164.5,-63.83453],[164.75,-63.78317]]}},{"type":"Feature","id":"+00131023:center:0","properties":{"id":"+00131023","year":13,"month":10,"day":23,"time_tdt":"09:50:43","type":"개기일식","type_code":"T","saros":82,"gamma":-0.63049,"magnitude":1.01857,"greatest":{"lat":-44.69484,"lng":48.88403},"path_width_km":80.9,"duration":"01m23s","delta_t_seconds":10395.4,"catalog_number":4805,"source":"NASA Five Millennium Canon of Solar Eclipses","source_url":"https://eclipse.gsfc.nasa.gov/SEsearch/SEsearchmap.php?Ecl=%2B00131023","boundary":"center","name":"13-10-23 개기일식"},"geometry":{"type":"LineString","coordinates":[[0.54645,-12.1728],[1,-12.26009],[1.5,-12.36184],[2,-12.46682],[2.5,-12.5751],[3,-12.68672],[3.5,-12.80174],[4,-12.92021],[4.5,-13.04219],[5,-13.16774],[5.5,-13.29691],[6,-13.42977],[6.5,-13.56637],[7,-13.70678],[7.5,-13.85106],[8,-13.99928],[8.5,-14.15151],[9,-14.30783],[9.5,-14.46829],[10,-14.63297],[10.5,-14.80195],[11,-14.97531],[11.5,-15.15313],[12,-15.33547],[12.5,-15.52244],[13,-15.71411],[13.5,-15.91058],[14,-16.11192],[14.5,-16.31822],[15,-16.5296],[15.5,-16.74612],[16,-16.9679],[16.5,-17.19503],[17,-17.42761],[17.5,-17.66575],[18,-17.90954],[18.5,-18.15909],[19,-18.41451],[19.5,-18.6759],[20,-18.94337],[20.5,-19.21704],[21,-19.49701],[21.5,-19.78339],[22,-20.0763],[22.5,-20.37584],[23,-20.68212],[23.5,-20.99525],[24,-21.31533],[24.5,-21.64248],[25,-21.97678],[25.5,-22.31835],[26,-22.66725],[26.5,-23.0236],[27,-23.38745],[27.5,-23.7589],[28,-24.13799],[28.5,-24.52478],[29,-24.91932],[29.5,-25.32163],[30,-25.73172],[30.5,-26.14959],[31,-26.57523],[31.5,-27.00858],[32,-27.4496],[32.5,-27.89819],[33,-28.35425],[33.5,-28.81764],[34,-29.28819],[34.5,-29.76571],[35,-30.24997],[35.5,-30.74072],[36,-31.23767],[36.5,-31.74049],[37,-32.24883],[37.5,-32.76229],[38,-33.28047],[38.5,-33.8029],[39,-34.32911],[39.5,-34.8586],[40,-35.39083],[40.5,-35.92526],[41,-36.46133],[41.5,-36.99846],[42,-37.53607],[42.5,-38.07359],[43,-38.61041],[43.5,-39.14598],[44,-39.67973],[44.5,-40.2111],[45,-40.73957],[45.5,-41.26463],[46,-41.78579],[46.5,-42.30261],[47,-42.81466],[47.5,-43.32154],[48,-43.8229],[48.5,-44.3184],[49,-44.80777],[49.5,-45.29073],[50,-45.76705],[50.5,-46.23655],[51,-46.69905],[51.5,-47.15442],[52,-47.60254],[52.5,-48.04332],[53,-48.47672],[53.5,-48.90268],[54,-49.32119],[54.5,-49.73225],[55,-50.13587],[55.5,-50.53207],[56,-50.92091],[56.5,-51.30244],[57,-51.67673],[57.5,-52.04384],[58,-52.40387],[58.5,-52.7569],[59,-53.10303],[59.5,-53.44236],[60,-53.77499],[60.5,-54.10103],[61,-54.42059],[61.5,-54.73379],[62,-55.04073],[62.5,-55.34153],[63,-55.6363],[63.5,-55.92517],[64,-56.20824],[64.5,-56.48563],[65,-56.75745],[65.5,-57.02381],[66,-57.28483],[66.5,-57.5406],[67,-57.79125],[67.5,-58.03687],[68,-58.27757],[68.5,-58.51345],[69,-58.74461],[69.5,-58.97116],[70,-59.19317],[70.5,-59.41076],[71,-59.62401],[71.5,-59.833],[72,-60.03784],[72.5,-60.2386],[73,-60.43537],[73.5,-60.62823],[74,-60.81726],[74.5,-61.00253],[75,-61.18413],[75.5,-61.36212],[76,-61.53658],[76.5,-61.70759],[77,-61.87519],[77.5,-62.03948],[78,-62.2005],[78.5,-62.35832],[79,-62.513],[79.5,-62.66461],[80,-62.81319],[80.5,-62.95882],[81,-63.10153],[81.5,-63.24139],[82,-63.37845],[82.5,-63.51276],[83,-63.64437],[83.5,-63.77333],[84,-63.89968],[84.5,-64.02346],[85,-64.14473],[85.5,-64.26353],[86,-64.3799],[86.5,-64.49388],[87,-64.6055],[87.5,-64.71482],[88,-64.82186],[88.5,-64.92666],[89,-65.02926],[89.5,-65.1297],[90,-65.228],[90.5,-65.3242],[91,-65.41834],[91.5,-65.51043],[92,-65.60052],[92.5,-65.68863],[93,-65.7748],[93.5,-65.85904],[94,-65.94139],[94.5,-66.02187],[95,-66.10051],[95.5,-66.17733],[96,-66.25236],[96.5,-66.32562],[97,-66.39713],[97.5,-66.46692],[98,-66.53501],[98.5,-66.60142],[99,-66.66617],[99.5,-66.72928],[100,-66.79076],[100.5,-66.85065],[101,-66.90895],[101.5,-66.96569],[102,-67.02087],[102.5,-67.07453],[103,-67.12666],[103.5,-67.1773],[104,-67.22645],[104.5,-67.27414],[105,-67.32037],[105.5,-67.36515],[106,-67.40851],[106.5,-67.45045],[107,-67.491],[107.5,-67.53015],[108,-67.56792],[108.5,-67.60433],[109,-67.63938],[109.5,-67.67309],[110,-67.70547],[110.5,-67.73652],[111,-67.76626],[111.5,-67.79469],[112,-67.82183],[112.5,-67.84768],[113,-67.87225],[113.5,-67.89556],[114,-67.9176],[114.5,-67.93838],[115,-67.95792],[115.5,-67.97622],[116,-67.99328],[116.5,-68.00912],[117,-68.02373],[117.5,-68.03713],[118,-68.04931],[118.5,-68.06029],[119,-68.07007],[119.5,-68.07866],[120,-68.08605],[120.5,-68.09226],[121,-68.09728],[121.5,-68.10113],[122,-68.1038],[122.5,-68.10529],[123,-68.10562],[123.5,-68.10478],[124,-68.10277],[124.5,-68.0996],[125,-68.09527],[125.5,-68.08979],[126,-68.08315],[126.5,-68.07535],[127,-68.0664],[127.5,-68.05629],[128,-68.04504],[128.5,-68.03263],[129,-68.01907],[129.5,-68.00436],[130,-67.98851],[130.5,-67.9715],[131,-67.95334],[131.5,-67.93402],[132,-67.91356],[132.5,-67.89194],[133,-67.86917],[133.5,-67.84524],[134,-67.82016],[134.5,-67.79392],[135,-67.76652],[135.5,-67.73796],[136,-67.70823],[136.5,-67.67734],[137,-67.64528],[137.5,-67.61204],[138,-67.57764],[138.5,-67.54206],[139,-67.5053],[139.5,-67.46735],[140,-67.42823],[140.5,-67.38791],[141,-67.3464],[141.5,-67.30369],[142,-67.25979],[142.5,-67.21468],[143,-67.16836],[143.5,-67.12083],[144,-67.07208],[144.5,-67.02212],[145,-66.97093],[145.5,-66.91851],[146,-66.86485],[146.5,-66.80996],[147,-66.75382],[147.5,-66.69644],[148,-66.6378],[148.5,-66.5779],[149,-66.51674],[149.5,-66.45431],[150,-66.39061],[150.5,-66.32562],[151,-66.25936],[151.5,-66.1918],[152,-66.12294],[152.5,-66.05278],[153,-65.98132],[153.5,-65.90854],[154,-65.83444],[154.5,-65.75902],[155,-65.68227],[155.5,-65.60419],[156,-65.52476],[156.5,-65.44398],[157,-65.36186],[157.5,-65.27837],[158,-65.19352],[158.5,-65.10731],[159,-65.01971],[159.5,-64.93074],[160,-64.84038],[160.5,-64.74863],[161,-64.65548],[161.5,-64.56094],[162,-64.46498],[162.5,-64.36761],[163,-64.26883],[163.5,-64.16863],[164,-64.067],[164.5,-63.96394],[165,-63.85944],[165.26208,-64.02175]]}},{"type":"Feature","id":"+00131023:south:0","properties":{"id":"+00131023","year":13,"month":10,"day":23,"time_tdt":"09:50:43","type":"개기일식","type_code":"T","saros":82,"gamma":-0.63049,"magnitude":1.01857,"greatest":{"lat":-44.69484,"lng":48.88403},"path_width_km":80.9,"duration":"01m23s","delta_t_seconds":10395.4,"catalog_number":4805,"source":"NASA Five Millennium Canon of Solar Eclipses","source_url":"https://eclipse.gsfc.nasa.gov/SEsearch/SEsearchmap.php?Ecl=%2B00131023","boundary":"south","name":"13-10-23 개기일식"},"geometry":{"type":"LineString","coordinates":[[0.50391,-12.26005],[1,-12.36143],[1.5,-12.46684],[2,-12.57555],[2.5,-12.6876],[3,-12.80304],[3.5,-12.92194],[4,-13.04435],[4.5,-13.17032],[5,-13.29992],[5.5,-13.4332],[6,-13.57023],[6.5,-13.71106],[7,-13.85577],[7.5,-14.00442],[8,-14.15708],[8.5,-14.31381],[9,-14.4747],[9.5,-14.63981],[10,-14.80922],[10.5,-14.98301],[11,-15.16125],[11.5,-15.34403],[12,-15.53143],[12.5,-15.72354],[13,-15.92043],[13.5,-16.12221],[14,-16.32896],[14.5,-16.54077],[15,-16.75774],[15.5,-16.97997],[16,-17.20756],[16.5,-17.4406],[17,-17.6792],[17.5,-17.92346],[18,-18.17348],[18.5,-18.42938],[19,-18.69127],[19.5,-18.95925],[20,-19.23343],[20.5,-19.51392],[21,-19.80084],[21.5,-20.0943],[22,-20.39441],[22.5,-20.70128],[23,-21.01502],[23.5,-21.33573],[24,-21.66353],[24.5,-21.99851],[25,-22.34078],[25.5,-22.69042],[26,-23.04753],[26.5,-23.4122],[27,-23.78449],[27.5,-24.16447],[28,-24.55219],[28.5,-24.94771],[29,-25.35106],[29.5,-25.76224],[30,-26.18127],[30.5,-26.60813],[31,-27.04278],[31.5,-27.48516],[32,-27.93519],[32.5,-28.39277],[33,-28.85777],[33.5,-29.33002],[34,-29.80933],[34.5,-30.29548],[35,-30.78822],[35.5,-31.28725],[36,-31.79226],[36.5,-32.3029],[37,-32.81876],[37.5,-33.33944],[38,-33.86447],[38.5,-34.39339],[39,-34.92568],[39.5,-35.4608],[40,-35.99821],[40.5,-36.53734],[41,-37.07761],[41.5,-37.61842],[42,-38.1592],[42.5,-38.69933],[43,-39.23825],[43.5,-39.77537],[44,-40.31014],[44.5,-40.84202],[45,-41.37049],[45.5,-41.89506],[46,-42.41526],[46.5,-42.93066],[47,-43.44087],[47.5,-43.9455],[48,-44.44424],[48.5,-44.93678],[49,-45.42285],[49.5,-45.90222],[50,-46.37469],[50.5,-46.84009],[51,-47.29827],[51.5,-47.74914],[52,-48.19258],[52.5,-48.62856],[53,-49.05701],[53.5,-49.47793],[54,-49.89132],[54.5,-50.29718],[55,-50.69554],[55.5,-51.08646],[56,-51.46999],[56.5,-51.8462],[57,-52.21516],[57.5,-52.57696],[58,-52.93169],[58.5,-53.27944],[59,-53.62033],[59.5,-53.95445],[60,-54.28191],[60.5,-54.60284],[61,-54.91734],[61.5,-55.22552],[62,-55.52751],[62.5,-55.82343],[63,-56.11338],[63.5,-56.39748],[64,-56.67585],[64.5,-56.94861],[65,-57.21587],[65.5,-57.47774],[66,-57.73433],[66.5,-57.98574],[67,-58.2321],[67.5,-58.4735],[68,-58.71005],[68.5,-58.94185],[69,-59.16899],[69.5,-59.39158],[70,-59.60971],[70.5,-59.82348],[71,-60.03296],[71.5,-60.23827],[72,-60.43947],[72.5,-60.63666],[73,-60.82992],[73.5,-61.01933],[74,-61.20496],[74.5,-61.3869],[75,-61.56522],[75.5,-61.73999],[76,-61.91128],[76.5,-62.07916],[77,-62.2437],[77.5,-62.40497],[78,-62.56303],[78.5,-62.71793],[79,-62.86975],[79.5,-63.01854],[80,-63.16435],[80.5,-63.30725],[81,-63.44728],[81.5,-63.58451],[82,-63.71897],[82.5,-63.85073],[83,-63.97982],[83.5,-64.1063],[84,-64.23022],[84.5,-64.35161],[85,-64.47052],[85.5,-64.587],[86,-64.70108],[86.5,-64.81281],[87,-64.92222],[87.5,-65.02936],[88,-65.13425],[88.5,-65.23694],[89,-65.33746],[89.5,-65.43584],[90,-65.53213],[90.5,-65.62634],[91,-65.71851],[91.5,-65.80867],[92,-65.89686],[92.5,-65.98309],[93,-66.06741],[93.5,-66.14983],[94,-66.23038],[94.5,-66.30909],[95,-66.38598],[95.5,-66.46108],[96,-66.53442],[96.5,-66.606],[97,-66.67587],[97.5,-66.74403],[98,-66.81051],[98.5,-66.87533],[99,-66.93852],[99.5,-67.00008],[100,-67.06005],[100.5,-67.11843],[101,-67.17524],[101.5,-67.23051],[102,-67.28425],[102.5,-67.33648],[103,-67.38721],[103.5,-67.43645],[104,-67.48423],[104.5,-67.53055],[105,-67.57544],[105.5,-67.6189],[106,-67.66095],[106.5,-67.7016],[107,-67.74086],[107.5,-67.77874],[108,-67.81527],[108.5,-67.85044],[109,-67.88427],[109.5,-67.91677],[110,-67.94794],[110.5,-67.97781],[111,-68.00638],[111.5,-68.03365],[112,-68.05964],[112.5,-68.08436],[113,-68.1078],[113.5,-68.12999],[114,-68.15093],[114.5,-68.17062],[115,-68.18908],[115.5,-68.2063],[116,-68.2223],[116.5,-68.23708],[117,-68.25065],[117.5,-68.26301],[118,-68.27417],[118.5,-68.28413],[119,-68.2929],[119.5,-68.30049],[120,-68.30688],[120.5,-68.3121],[121,-68.31614],[121.5,-68.31901],[122,-68.32071],[122.5,-68.32125],[123,-68.32062],[123.5,-68.31882],[124,-68.31587],[124.5,-68.31177],[125,-68.3065],[125.5,-68.30009],[126,-68.29252],[126.5,-68.2838],[127,-68.27393],[127.5,-68.26291],[128,-68.25075],[128.5,-68.23743],[129,-68.22297],[129.5,-68.20736],[130,-68.19061],[130.5,-68.1727],[131,-68.15364],[131.5,-68.13344],[132,-68.11208],[132.5,-68.08958],[133,-68.06592],[133.5,-68.0411],[134,-68.01513],[134.5,-67.988],[135,-67.95971],[135.5,-67.93026],[136,-67.89965],[136.5,-67.86787],[137,-67.83491],[137.5,-67.80079],[138,-67.76549],[138.5,-67.72901],[139,-67.69135],[139.5,-67.65251],[140,-67.61248],[140.5,-67.57126],[141,-67.52884],[141.5,-67.48522],[142,-67.44039],[142.5,-67.39436],[143,-67.34712],[143.5,-67.29866],[144,-67.24898],[144.5,-67.19807],[145,-67.14594],[145.5,-67.09257],[146,-67.03795],[146.5,-66.9821],[147,-66.92499],[147.5,-66.86663],[148,-66.807],[148.5,-66.74611],[149,-66.68395],[149.5,-66.62051],[150,-66.55579],[150.5,-66.48978],[151,-66.42247],[151.5,-66.35387],[152,-66.28395],[152.5,-66.21273],[153,-66.14019],[153.5,-66.06632],[154,-65.99113],[154.5,-65.9146],[155,-65.83673],[155.5,-65.75751],[156,-65.67694],[156.5,-65.59501],[157,-65.51171],[157.5,-65.42704],[158,-65.341],[158.5,-65.25357],[159,-65.16475],[159.5,-65.07454],[160,-64.98293],[160.5,-64.88991],[161,-64.79548],[161.5,-64.69963],[162,-64.60236],[162.5,-64.50367],[163,-64.40354],[163.5,-64.30197],[164,-64.19896],[164.5,-64.0945],[165,-63.98859],[165.28125,-63.92838]]}}],"attribution":"Eclipse Predictions by Fred Espenak and Jean Meeus (NASA's GSFC)","generated_at":"2026-09-23T01:44:42.860Z"}
