{"type":"FeatureCollection","year":132,"events":[{"id":"+01320601","year":132,"month":6,"day":1,"time_tdt":"10:57:16","type":"개기일식","type_code":"T","saros":78,"gamma":-0.19321,"magnitude":1.07749,"greatest":{"lat":10.94359,"lng":53.25092},"path_width_km":255.3,"duration":"07m14s","delta_t_seconds":9242.4,"catalog_number":5101,"source":"NASA Five Millennium Canon of Solar Eclipses","source_url":"https://eclipse.gsfc.nasa.gov/SEsearch/SEsearchmap.php?Ecl=%2B01320601"},{"id":"+01321125","year":132,"month":11,"day":25,"time_tdt":"16:42:02","type":"금환일식","type_code":"A","saros":83,"gamma":0.56907,"magnitude":0.91442,"greatest":{"lat":13.63324,"lng":-31.12091},"path_width_km":396.1,"duration":"12m16s","delta_t_seconds":9237.8,"catalog_number":5102,"source":"NASA Five Millennium Canon of Solar Eclipses","source_url":"https://eclipse.gsfc.nasa.gov/SEsearch/SEsearchmap.php?Ecl=%2B01321125"}],"features":[{"type":"Feature","id":"+01320601:north:0","properties":{"id":"+01320601","year":132,"month":6,"day":1,"time_tdt":"10:57:16","type":"개기일식","type_code":"T","saros":78,"gamma":-0.19321,"magnitude":1.07749,"greatest":{"lat":10.94359,"lng":53.25092},"path_width_km":255.3,"duration":"07m14s","delta_t_seconds":9242.4,"catalog_number":5101,"source":"NASA Five Millennium Canon of Solar Eclipses","source_url":"https://eclipse.gsfc.nasa.gov/SEsearch/SEsearchmap.php?Ecl=%2B01320601","boundary":"north","name":"132-06-01 개기일식"},"geometry":{"type":"LineString","coordinates":[[-6.89648,-12.69182],[-6.5,-12.52756],[-6,-12.31932],[-5.5,-12.10986],[-5,-11.89917],[-4.5,-11.68725],[-4,-11.47412],[-3.5,-11.25978],[-3,-11.04423],[-2.5,-10.82747],[-2,-10.60951],[-1.5,-10.39035],[-1,-10.17001],[-0.5,-9.94849],[0,-9.72579],[0.5,-9.50193],[1,-9.2769],[1.5,-9.05074],[2,-8.82343],[2.5,-8.595],[3,-8.36545],[3.5,-8.13479],[4,-7.90305],[4.5,-7.67023],[5,-7.43636],[5.5,-7.20143],[6,-6.96548],[6.5,-6.72852],[7,-6.49057],[7.5,-6.25165],[8,-6.01179],[8.5,-5.77099],[9,-5.52929],[9.5,-5.28672],[10,-5.04329],[10.5,-4.79905],[11,-4.554],[11.5,-4.3082],[12,-4.06166],[12.5,-3.81443],[13,-3.56654],[13.5,-3.31802],[14,-3.06892],[14.5,-2.81927],[15,-2.56912],[15.5,-2.31851],[16,-2.06749],[16.5,-1.81611],[17,-1.56441],[17.5,-1.31245],[18,-1.06028],[18.5,-0.80797],[19,-0.55556],[19.5,-0.30311],[20,-0.0507],[20.5,0.20162],[21,0.45378],[21.5,0.7057],[22,0.95733],[22.5,1.20857],[23,1.45936],[23.5,1.70963],[24,1.95928],[24.5,2.20823],[25,2.45641],[25.5,2.70372],[26,2.95008],[26.5,3.19539],[27,3.43956],[27.5,3.6825],[28,3.92411],[28.5,4.16429],[29,4.40294],[29.5,4.63996],[30,4.87525],[30.5,5.1087],[31,5.34021],[31.5,5.56967],[32,5.79697],[32.5,6.02201],[33,6.24467],[33.5,6.46486],[34,6.68245],[34.5,6.89734],[35,7.10942],[35.5,7.31858],[36,7.52471],[36.5,7.72771],[37,7.92747],[37.5,8.12388],[38,8.31684],[38.5,8.50624],[39,8.69198],[39.5,8.87397],[40,9.0521],[40.5,9.22628],[41,9.39642],[41.5,9.56243],[42,9.72421],[42.5,9.88168],[43,10.03477],[43.5,10.18338],[44,10.32744],[44.5,10.46689],[45,10.60164],[45.5,10.73164],[46,10.85682],[46.5,10.97713],[47,11.09249],[47.5,11.20288],[48,11.30822],[48.5,11.40849],[49,11.50364],[49.5,11.59363],[50,11.67843],[50.5,11.75801],[51,11.83235],[51.5,11.90142],[52,11.9652],[52.5,12.02369],[53,12.07686],[53.5,12.12472],[54,12.16725],[54.5,12.20447],[55,12.23637],[55.5,12.26295],[56,12.28424],[56.5,12.30024],[57,12.31097],[57.5,12.31644],[58,12.31669],[58.5,12.31174],[59,12.30162],[59.5,12.28635],[60,12.26597],[60.5,12.24053],[61,12.21006],[61.5,12.17459],[62,12.13419],[62.5,12.08889],[63,12.03874],[63.5,11.9838],[64,11.92412],[64.5,11.85975],[65,11.79076],[65.5,11.7172],[66,11.63913],[66.5,11.55663],[67,11.46974],[67.5,11.37855],[68,11.28311],[68.5,11.1835],[69,11.07979],[69.5,10.97204],[70,10.86035],[70.5,10.74476],[71,10.62537],[71.5,10.50225],[72,10.37547],[72.5,10.24511],[73,10.11126],[73.5,9.97398],[74,9.83336],[74.5,9.68947],[75,9.5424],[75.5,9.39223],[76,9.23903],[76.5,9.08289],[77,8.92388],[77.5,8.76209],[78,8.5976],[78.5,8.43048],[79,8.26081],[79.5,8.08867],[80,7.91415],[80.5,7.73731],[81,7.55823],[81.5,7.377],[82,7.19368],[82.5,7.00836],[83,6.8211],[83.5,6.63198],[84,6.44107],[84.5,6.24845],[85,6.05417],[85.5,5.85832],[86,5.66097],[86.5,5.46217],[87,5.26199],[87.5,5.06051],[88,4.85778],[88.5,4.65387],[89,4.44884],[89.5,4.24275],[90,4.03566],[90.5,3.82763],[91,3.61871],[91.5,3.40896],[92,3.19843],[92.5,2.98719],[93,2.77527],[93.5,2.56274],[94,2.34964],[94.5,2.13601],[95,1.92192],[95.5,1.7074],[96,1.49249],[96.5,1.27725],[97,1.06171],[97.5,0.84591],[98,0.6299],[98.5,0.41372],[99,0.1974],[99.5,-0.01902],[100,-0.23551],[100.5,-0.45202],[101,-0.66853],[101.5,-0.885],[102,-1.1014],[102.5,-1.3177],[103,-1.53387],[103.5,-1.74988],[104,-1.96571],[104.5,-2.18132],[105,-2.39669],[105.5,-2.61179],[106,-2.8266],[106.5,-3.0411],[107,-3.25526],[107.5,-3.46906],[108,-3.68248],[108.5,-3.89549],[109,-4.10809],[109.5,-4.32024],[110,-4.53193],[110.5,-4.74315],[111,-4.95387],[111.5,-5.16408],[112,-5.37376],[112.5,-5.58289],[113,-5.79147],[113.5,-5.99948],[114,-6.2069],[114.5,-6.41371],[114.66602,-6.48225]]}},{"type":"Feature","id":"+01320601:center:0","properties":{"id":"+01320601","year":132,"month":6,"day":1,"time_tdt":"10:57:16","type":"개기일식","type_code":"T","saros":78,"gamma":-0.19321,"magnitude":1.07749,"greatest":{"lat":10.94359,"lng":53.25092},"path_width_km":255.3,"duration":"07m14s","delta_t_seconds":9242.4,"catalog_number":5101,"source":"NASA Five Millennium Canon of Solar Eclipses","source_url":"https://eclipse.gsfc.nasa.gov/SEsearch/SEsearchmap.php?Ecl=%2B01320601","boundary":"center","name":"132-06-01 개기일식"},"geometry":{"type":"LineString","coordinates":[[-6.55657,-13.50644],[-6.5,-13.48296],[-6,-13.2781],[-5.5,-13.07203],[-5,-12.86476],[-4.5,-12.65629],[-4,-12.44661],[-3.5,-12.23575],[-3,-12.02369],[-2.5,-11.81044],[-2,-11.59601],[-1.5,-11.3804],[-1,-11.16362],[-0.5,-10.94567],[0,-10.72656],[0.5,-10.50631],[1,-10.2849],[1.5,-10.06237],[2,-9.8387],[2.5,-9.61392],[3,-9.38804],[3.5,-9.16106],[4,-8.933],[4.5,-8.70387],[5,-8.47369],[5.5,-8.24246],[6,-8.01021],[6.5,-7.77696],[7,-7.54271],[7.5,-7.3075],[8,-7.07133],[8.5,-6.83424],[9,-6.59623],[9.5,-6.35735],[10,-6.1176],[10.5,-5.87702],[11,-5.63563],[11.5,-5.39347],[12,-5.15056],[12.5,-4.90694],[13,-4.66263],[13.5,-4.41768],[14,-4.17211],[14.5,-3.92598],[15,-3.67931],[15.5,-3.43215],[16,-3.18454],[16.5,-2.93654],[17,-2.68818],[17.5,-2.43951],[18,-2.19059],[18.5,-1.94147],[19,-1.69221],[19.5,-1.44285],[20,-1.19347],[20.5,-0.94413],[21,-0.69489],[21.5,-0.4458],[22,-0.19696],[22.5,0.05159],[23,0.29975],[23.5,0.54746],[24,0.79465],[24.5,1.04122],[25,1.2871],[25.5,1.5322],[26,1.77645],[26.5,2.01974],[27,2.26199],[27.5,2.5031],[28,2.74299],[28.5,2.98155],[29,3.21868],[29.5,3.4543],[30,3.68829],[30.5,3.92055],[31,4.15097],[31.5,4.37946],[32,4.60591],[32.5,4.8302],[33,5.05223],[33.5,5.27188],[34,5.48906],[34.5,5.70364],[35,5.91553],[35.5,6.1246],[36,6.33074],[36.5,6.53386],[37,6.73383],[37.5,6.93055],[38,7.12391],[38.5,7.31381],[39,7.50014],[39.5,7.6828],[40,7.86168],[40.5,8.03668],[41,8.20772],[41.5,8.37468],[42,8.53749],[42.5,8.69604],[43,8.85025],[43.5,9.00004],[44,9.14533],[44.5,9.28603],[45,9.42208],[45.5,9.55339],[46,9.67991],[46.5,9.80156],[47,9.91829],[47.5,10.03004],[48,10.13676],[48.5,10.2384],[49,10.33491],[49.5,10.42625],[50,10.51239],[50.5,10.59329],[51,10.66892],[51.5,10.73926],[52,10.80428],[52.5,10.86398],[53,10.91833],[53.5,10.96733],[54,11.01096],[54.5,11.04924],[55,11.08216],[55.5,11.10973],[56,11.13196],[56.5,11.14886],[57,11.16044],[57.5,11.16673],[58,11.16776],[58.5,11.16354],[59,11.1541],[59.5,11.13949],[60,11.11973],[60.5,11.09487],[61,11.06495],[61.5,11.03],[62,10.99009],[62.5,10.94525],[63,10.89554],[63.5,10.84102],[64,10.78174],[64.5,10.71776],[65,10.64913],[65.5,10.57594],[66,10.49823],[66.5,10.41607],[67,10.32954],[67.5,10.2387],[68,10.14363],[68.5,10.04439],[69,9.94107],[69.5,9.83372],[70,9.72244],[70.5,9.6073],[71,9.48838],[71.5,9.36575],[72,9.23949],[72.5,9.10969],[73,8.97642],[73.5,8.83977],[74,8.69981],[74.5,8.55664],[75,8.41032],[75.5,8.26095],[76,8.10859],[76.5,7.95334],[77,7.79528],[77.5,7.63449],[78,7.47104],[78.5,7.30502],[79,7.1365],[79.5,6.96558],[80,6.79232],[80.5,6.6168],[81,6.4391],[81.5,6.25931],[82,6.07748],[82.5,5.8937],[83,5.70805],[83.5,5.52059],[84,5.33139],[84.5,5.14054],[85,4.94809],[85.5,4.75413],[86,4.5587],[86.5,4.36189],[87,4.16375],[87.5,3.96436],[88,3.76377],[88.5,3.56204],[89,3.35925],[89.5,3.15544],[90,2.95067],[90.5,2.74501],[91,2.5385],[91.5,2.33121],[92,2.12318],[92.5,1.91446],[93,1.70512],[93.5,1.49519],[94,1.28472],[94.5,1.07377],[95,0.86238],[95.5,0.65059],[96,0.43845],[96.5,0.226],[97,0.01327],[97.5,-0.19968],[98,-0.41282],[98.5,-0.62612],[99,-0.83953],[99.5,-1.05303],[100,-1.26657],[100.5,-1.48012],[101,-1.69365],[101.5,-1.90713],[102,-2.12053],[102.5,-2.33381],[103,-2.54696],[103.5,-2.75993],[104,-2.97271],[104.5,-3.18527],[105,-3.39758],[105.5,-3.60962],[106,-3.82136],[106.5,-4.03279],[107,-4.24387],[107.5,-4.45459],[108,-4.66494],[108.5,-4.87488],[109,-5.08439],[109.5,-5.29347],[110,-5.5021],[110.5,-5.71024],[111,-5.9179],[111.5,-6.12505],[112,-6.33167],[112.5,-6.53776],[113,-6.7433],[113.5,-6.94827],[114,-7.15266],[114.34143,-7.29192]]}},{"type":"Feature","id":"+01320601:south:0","properties":{"id":"+01320601","year":132,"month":6,"day":1,"time_tdt":"10:57:16","type":"개기일식","type_code":"T","saros":78,"gamma":-0.19321,"magnitude":1.07749,"greatest":{"lat":10.94359,"lng":53.25092},"path_width_km":255.3,"duration":"07m14s","delta_t_seconds":9242.4,"catalog_number":5101,"source":"NASA Five Millennium Canon of Solar Eclipses","source_url":"https://eclipse.gsfc.nasa.gov/SEsearch/SEsearchmap.php?Ecl=%2B01320601","boundary":"south","name":"132-06-01 개기일식"},"geometry":{"type":"LineString","coordinates":[[-6.21875,-14.32198],[-6,-14.23366],[-5.5,-14.03093],[-5,-13.82701],[-4.5,-13.62191],[-4,-13.41563],[-3.5,-13.20817],[-3,-12.99954],[-2.5,-12.78974],[-2,-12.57877],[-1.5,-12.36664],[-1,-12.15336],[-0.5,-11.93892],[0,-11.72334],[0.5,-11.50663],[1,-11.28878],[1.5,-11.06981],[2,-10.84973],[2.5,-10.62855],[3,-10.40627],[3.5,-10.1829],[4,-9.95847],[4.5,-9.73297],[5,-9.50643],[5.5,-9.27885],[6,-9.05025],[6.5,-8.82065],[7,-8.59007],[7.5,-8.35851],[8,-8.126],[8.5,-7.89257],[9,-7.65822],[9.5,-7.42298],[10,-7.18688],[10.5,-6.94994],[11,-6.71218],[11.5,-6.47363],[12,-6.23432],[12.5,-5.99429],[13,-5.75355],[13.5,-5.51215],[14,-5.27012],[14.5,-5.02749],[15,-4.7843],[15.5,-4.54059],[16,-4.29641],[16.5,-4.05179],[17,-3.80678],[17.5,-3.56143],[18,-3.31579],[18.5,-3.0699],[19,-2.82382],[19.5,-2.5776],[20,-2.3313],[20.5,-2.08499],[21,-1.83871],[21.5,-1.59254],[22,-1.34654],[22.5,-1.10077],[23,-0.85532],[23.5,-0.61024],[24,-0.36562],[24.5,-0.12153],[25,0.12195],[25.5,0.36474],[26,0.60675],[26.5,0.8479],[27,1.0881],[27.5,1.32725],[28,1.56528],[28.5,1.80208],[29,2.03755],[29.5,2.27161],[30,2.50414],[30.5,2.73505],[31,2.96424],[31.5,3.19159],[32,3.417],[32.5,3.64038],[33,3.86159],[33.5,4.08055],[34,4.29713],[34.5,4.51123],[35,4.72274],[35.5,4.93154],[36,5.13752],[36.5,5.34057],[37,5.54058],[37.5,5.73744],[38,5.93104],[38.5,6.12127],[39,6.30801],[39.5,6.49117],[40,6.67064],[40.5,6.84632],[41,7.01809],[41.5,7.18587],[42,7.34956],[42.5,7.50906],[43,7.66427],[43.5,7.81512],[44,7.96151],[44.5,8.10336],[45,8.24058],[45.5,8.37311],[46,8.50087],[46.5,8.62379],[47,8.7418],[47.5,8.85485],[48,8.96288],[48.5,9.06582],[49,9.16364],[49.5,9.25628],[50,9.34371],[50.5,9.42589],[51,9.50279],[51.5,9.57437],[52,9.64062],[52.5,9.70151],[53,9.75702],[53.5,9.80716],[54,9.8519],[54.5,9.89125],[55,9.9252],[55.5,9.95377],[56,9.97696],[56.5,9.99478],[57,10.00725],[57.5,10.01438],[58,10.01622],[58.5,10.01277],[59,10.00407],[59.5,9.99016],[60,9.97108],[60.5,9.94685],[61,9.91754],[61.5,9.88317],[62,9.84381],[62.5,9.79951],[63,9.75031],[63.5,9.69628],[64,9.63748],[64.5,9.57397],[65,9.5058],[65.5,9.43306],[66,9.35579],[66.5,9.27409],[67,9.18801],[67.5,9.09762],[68,9.00302],[68.5,8.90425],[69,8.80142],[69.5,8.69459],[70,8.58384],[70.5,8.46925],[71,8.3509],[71.5,8.22888],[72,8.10326],[72.5,7.97413],[73,7.84158],[73.5,7.70567],[74,7.5665],[74.5,7.42416],[75,7.27871],[75.5,7.13025],[76,6.97887],[76.5,6.82463],[77,6.66763],[77.5,6.50795],[78,6.34567],[78.5,6.18086],[79,6.01362],[79.5,5.84402],[80,5.67214],[80.5,5.49805],[81,5.32184],[81.5,5.14358],[82,4.96335],[82.5,4.78123],[83,4.59727],[83.5,4.41157],[84,4.22419],[84.5,4.0352],[85,3.84466],[85.5,3.65266],[86,3.45925],[86.5,3.26451],[87,3.06848],[87.5,2.87125],[88,2.67287],[88.5,2.4734],[89,2.2729],[89.5,2.07143],[90,1.86904],[90.5,1.6658],[91,1.46176],[91.5,1.25696],[92,1.05147],[92.5,0.84533],[93,0.63859],[93.5,0.4313],[94,0.2235],[94.5,0.01525],[95,-0.19341],[95.5,-0.40244],[96,-0.6118],[96.5,-0.82145],[97,-1.03135],[97.5,-1.24145],[98,-1.45172],[98.5,-1.66213],[99,-1.87263],[99.5,-2.0832],[100,-2.2938],[100.5,-2.50439],[101,-2.71495],[101.5,-2.92545],[102,-3.13586],[102.5,-3.34614],[103,-3.55627],[103.5,-3.76623],[104,-3.97598],[104.5,-4.18551],[105,-4.39478],[105.5,-4.60378],[106,-4.81248],[106.5,-5.02086],[107,-5.2289],[107.5,-5.43658],[108,-5.64388],[108.5,-5.85078],[109,-6.05725],[109.5,-6.26329],[110,-6.46888],[110.5,-6.674],[111,-6.87862],[111.5,-7.08275],[112,-7.28637],[112.5,-7.48945],[113,-7.69198],[113.5,-7.89396],[114,-8.09537]]}},{"type":"Feature","id":"+01321125:north:0","properties":{"id":"+01321125","year":132,"month":11,"day":25,"time_tdt":"16:42:02","type":"금환일식","type_code":"A","saros":83,"gamma":0.56907,"magnitude":0.91442,"greatest":{"lat":13.63324,"lng":-31.12091},"path_width_km":396.1,"duration":"12m16s","delta_t_seconds":9237.8,"catalog_number":5102,"source":"NASA Five Millennium Canon of Solar Eclipses","source_url":"https://eclipse.gsfc.nasa.gov/SEsearch/SEsearchmap.php?Ecl=%2B01321125","boundary":"north","name":"132-11-25 금환일식"},"geometry":{"type":"LineString","coordinates":[[-82,38.92591],[-81.5,38.71939],[-81,38.5115],[-80.5,38.30225],[-80,38.09163],[-79.5,37.87963],[-79,37.66626],[-78.5,37.45151],[-78,37.23538],[-77.5,37.01787],[-77,36.79897],[-76.5,36.57869],[-76,36.35703],[-75.5,36.13399],[-75,35.90956],[-74.5,35.68374],[-74,35.45655],[-73.5,35.22798],[-73,34.99802],[-72.5,34.7667],[-72,34.534],[-71.5,34.29994],[-71,34.06451],[-70.5,33.82773],[-70,33.5896],[-69.5,33.35012],[-69,33.10932],[-68.5,32.86719],[-68,32.62374],[-67.5,32.37899],[-67,32.13295],[-66.5,31.88564],[-66,31.63707],[-65.5,31.38725],[-65,31.13621],[-64.5,30.88396],[-64,30.63052],[-63.5,30.37593],[-63,30.1202],[-62.5,29.86336],[-62,29.60545],[-61.5,29.34648],[-61,29.08651],[-60.5,28.82556],[-60,28.56367],[-59.5,28.30088],[-59,28.03725],[-58.5,27.77282],[-58,27.50763],[-57.5,27.24176],[-57,26.97524],[-56.5,26.70816],[-56,26.44056],[-55.5,26.17253],[-55,25.90415],[-54.5,25.63548],[-54,25.36662],[-53.5,25.09765],[-53,24.82867],[-52.5,24.55979],[-52,24.2911],[-51.5,24.02272],[-51,23.75477],[-50.5,23.48737],[-50,23.22065],[-49.5,22.95475],[-49,22.68982],[-48.5,22.42601],[-48,22.16346],[-47.5,21.90236],[-47,21.64287],[-46.5,21.38516],[-46,21.12943],[-45.5,20.87586],[-45,20.62466],[-44.5,20.37602],[-44,20.13017],[-43.5,19.88731],[-43,19.64768],[-42.5,19.41149],[-42,19.17898],[-41.5,18.95039],[-41,18.72594],[-40.5,18.50589],[-40,18.29047],[-39.5,18.07992],[-39,17.8745],[-38.5,17.67442],[-38,17.47994],[-37.5,17.29128],[-37,17.10868],[-36.5,16.93235],[-36,16.76251],[-35.5,16.59936],[-35,16.4431],[-34.5,16.29391],[-34,16.15196],[-33.5,16.01742],[-33,15.89043],[-32.5,15.77112],[-32,15.65961],[-31.5,15.55599],[-31,15.46036],[-30.5,15.37277],[-30,15.29327],[-29.5,15.22191],[-29,15.15868],[-28.5,15.10361],[-28,15.05666],[-27.5,15.0178],[-27,14.98699],[-26.5,14.96417],[-26,14.94926],[-25.5,14.94216],[-25,14.94279],[-24.5,14.95102],[-24,14.96673],[-23.5,14.9898],[-23,15.02007],[-22.5,15.05741],[-22,15.10165],[-21.5,15.15264],[-21,15.21021],[-20.5,15.27419],[-20,15.3444],[-19.5,15.42069],[-19,15.50285],[-18.5,15.59073],[-18,15.68414],[-17.5,15.7829],[-17,15.88684],[-16.5,15.99578],[-16,16.10954],[-15.5,16.22796],[-15,16.35086],[-14.5,16.47807],[-14,16.60944],[-13.5,16.7448],[-13,16.88399],[-12.5,17.02686],[-12,17.17326],[-11.5,17.32303],[-11,17.47604],[-10.5,17.63214],[-10,17.7912],[-9.5,17.95309],[-9,18.11768],[-8.5,18.28485],[-8,18.45446],[-7.5,18.62642],[-7,18.8006],[-6.5,18.97689],[-6,19.15519],[-5.5,19.3354],[-5,19.51741],[-4.5,19.70114],[-4,19.88648],[-3.5,20.07336],[-3,20.26168],[-2.5,20.45137],[-2,20.64234],[-1.5,20.83451],[-1,21.02782],[-0.5,21.22219],[0,21.41755],[0.5,21.61384],[1,21.81099],[1.5,22.00895],[2,22.20765],[2.5,22.40703],[3,22.60705],[3.5,22.80764],[4,23.00877],[4.5,23.21037],[5,23.41241],[5.5,23.61484],[6,23.81762],[6.5,24.0207],[7,24.22404],[7.5,24.42761],[8,24.63137],[8.5,24.83528],[9,25.03931],[9.5,25.24343],[10,25.44761],[10.5,25.65181],[11,25.856],[11.5,26.06017],[12,26.26427],[12.5,26.46829],[13,26.6722],[13.5,26.87597],[14,27.07959],[14.5,27.28303],[15,27.48626],[15.5,27.68928],[16,27.89205],[16.5,28.09457],[17,28.2968],[17.5,28.49874],[18,28.70037],[18.5,28.90167],[19,29.10262]]}},{"type":"Feature","id":"+01321125:center:0","properties":{"id":"+01321125","year":132,"month":11,"day":25,"time_tdt":"16:42:02","type":"금환일식","type_code":"A","saros":83,"gamma":0.56907,"magnitude":0.91442,"greatest":{"lat":13.63324,"lng":-31.12091},"path_width_km":396.1,"duration":"12m16s","delta_t_seconds":9237.8,"catalog_number":5102,"source":"NASA Five Millennium Canon of Solar Eclipses","source_url":"https://eclipse.gsfc.nasa.gov/SEsearch/SEsearchmap.php?Ecl=%2B01321125","boundary":"center","name":"132-11-25 금환일식"},"geometry":{"type":"LineString","coordinates":[[-82.84917,37.17904],[-82.5,37.01313],[-82,36.80998],[-81.5,36.60547],[-81,36.3996],[-80.5,36.19237],[-80,35.98376],[-79.5,35.77379],[-79,35.56244],[-78.5,35.34971],[-78,35.13561],[-77.5,34.92013],[-77,34.70327],[-76.5,34.48502],[-76,34.26539],[-75.5,34.04438],[-75,33.82198],[-74.5,33.5982],[-74,33.37304],[-73.5,33.1465],[-73,32.91858],[-72.5,32.68929],[-72,32.45862],[-71.5,32.22659],[-71,31.99319],[-70.5,31.75844],[-70,31.52234],[-69.5,31.2849],[-69,31.04612],[-68.5,30.80602],[-68,30.5646],[-67.5,30.32189],[-67,30.07788],[-66.5,29.83259],[-66,29.58605],[-65.5,29.33827],[-65,29.08926],[-64.5,28.83905],[-64,28.58765],[-63.5,28.3351],[-63,28.08142],[-62.5,27.82663],[-62,27.57077],[-61.5,27.31387],[-61,27.05596],[-60.5,26.79709],[-60,26.53729],[-59.5,26.2766],[-59,26.01508],[-58.5,25.75277],[-58,25.48972],[-57.5,25.226],[-57,24.96165],[-56.5,24.69676],[-56,24.43138],[-55.5,24.16558],[-55,23.89946],[-54.5,23.63308],[-54,23.36653],[-53.5,23.09992],[-53,22.83332],[-52.5,22.56686],[-52,22.30063],[-51.5,22.03476],[-51,21.76935],[-50.5,21.50455],[-50,21.24047],[-49.5,20.97727],[-49,20.71509],[-48.5,20.45408],[-48,20.19441],[-47.5,19.93623],[-47,19.67973],[-46.5,19.42507],[-46,19.17246],[-45.5,18.92208],[-45,18.67413],[-44.5,18.42882],[-44,18.18636],[-43.5,17.94696],[-43,17.71084],[-42.5,17.47824],[-42,17.24937],[-41.5,17.02448],[-41,16.80379],[-40.5,16.58754],[-40,16.37596],[-39.5,16.16929],[-39,15.96777],[-38.5,15.77162],[-38,15.58108],[-37.5,15.39636],[-37,15.21769],[-36.5,15.04527],[-36,14.8793],[-35.5,14.71999],[-35,14.56751],[-34.5,14.42203],[-34,14.28372],[-33.5,14.15272],[-33,14.02917],[-32.5,13.91318],[-32,13.80486],[-31.5,13.70429],[-31,13.61155],[-30.5,13.5267],[-30,13.44978],[-29.5,13.38081],[-29,13.3198],[-28.5,13.26675],[-28,13.22163],[-27.5,13.1844],[-27,13.15502],[-26.5,13.13343],[-26,13.11954],[-25.5,13.11326],[-25,13.11451],[-24.5,13.12315],[-24,13.13909],[-23.5,13.16218],[-23,13.19229],[-22.5,13.22928],[-22,13.273],[-21.5,13.32328],[-21,13.37998],[-20.5,13.44293],[-20,13.51197],[-19.5,13.58692],[-19,13.66761],[-18.5,13.75388],[-18,13.84556],[-17.5,13.94246],[-17,14.04443],[-16.5,14.15129],[-16,14.26288],[-15.5,14.37902],[-15,14.49956],[-14.5,14.62433],[-14,14.75317],[-13.5,14.88594],[-13,15.02246],[-12.5,15.1626],[-12,15.30621],[-11.5,15.45315],[-11,15.60327],[-10.5,15.75644],[-10,15.91253],[-9.5,16.07141],[-9,16.23295],[-8.5,16.39703],[-8,16.56354],[-7.5,16.73236],[-7,16.90337],[-6.5,17.07648],[-6,17.25158],[-5.5,17.42857],[-5,17.60735],[-4.5,17.78783],[-4,17.96992],[-3.5,18.15352],[-3,18.33856],[-2.5,18.52496],[-2,18.71264],[-1.5,18.90151],[-1,19.09151],[-0.5,19.28257],[0,19.47462],[0.5,19.6676],[1,19.86144],[1.5,20.05608],[2,20.25146],[2.5,20.44753],[3,20.64423],[3.5,20.84151],[4,21.03933],[4.5,21.23763],[5,21.43636],[5.5,21.63549],[6,21.83497],[6.5,22.03475],[7,22.23481],[7.5,22.43509],[8,22.63557],[8.5,22.83621],[9,23.03697],[9.5,23.23783],[10,23.43875],[10.5,23.63969],[11,23.84064],[11.5,24.04157],[12,24.24243],[12.5,24.44323],[13,24.64391],[13.5,24.84447],[14,25.04488],[14.5,25.24512],[15,25.44516],[15.5,25.64499],[16,25.84459],[16.5,26.04393],[17,26.243],[17.5,26.44179],[18,26.64026],[18.5,26.83842],[19,27.03624],[19.5,27.23371],[19.74487,27.33363]]}},{"type":"Feature","id":"+01321125:south:0","properties":{"id":"+01321125","year":132,"month":11,"day":25,"time_tdt":"16:42:02","type":"금환일식","type_code":"A","saros":83,"gamma":0.56907,"magnitude":0.91442,"greatest":{"lat":13.63324,"lng":-31.12091},"path_width_km":396.1,"duration":"12m16s","delta_t_seconds":9237.8,"catalog_number":5102,"source":"NASA Five Millennium Canon of Solar Eclipses","source_url":"https://eclipse.gsfc.nasa.gov/SEsearch/SEsearchmap.php?Ecl=%2B01321125","boundary":"south","name":"132-11-25 금환일식"},"geometry":{"type":"LineString","coordinates":[[-83.56641,35.37627],[-83.5,35.35],[-83,35.15145],[-82.5,34.95154],[-82,34.75029],[-81.5,34.54767],[-81,34.3437],[-80.5,34.13837],[-80,33.93167],[-79.5,33.72359],[-79,33.51415],[-78.5,33.30333],[-78,33.09114],[-77.5,32.87756],[-77,32.66261],[-76.5,32.44627],[-76,32.22855],[-75.5,32.00945],[-75,31.78896],[-74.5,31.56709],[-74,31.34384],[-73.5,31.11921],[-73,30.89321],[-72.5,30.66582],[-72,30.43707],[-71.5,30.20695],[-71,29.97547],[-70.5,29.74263],[-70,29.50844],[-69.5,29.27291],[-69,29.03605],[-68.5,28.79786],[-68,28.55836],[-67.5,28.31756],[-67,28.07547],[-66.5,27.83211],[-66,27.58749],[-65.5,27.34163],[-65,27.09455],[-64.5,26.84628],[-64,26.59683],[-63.5,26.34622],[-63,26.09449],[-62.5,25.84167],[-62,25.58778],[-61.5,25.33286],[-61,25.07694],[-60.5,24.82007],[-60,24.56228],[-59.5,24.30362],[-59,24.04415],[-58.5,23.7839],[-58,23.52293],[-57.5,23.26131],[-57,22.9991],[-56.5,22.73635],[-56,22.47315],[-55.5,22.20956],[-55,21.94567],[-54.5,21.68157],[-54,21.41733],[-53.5,21.15306],[-53,20.88885],[-52.5,20.62481],[-52,20.36106],[-51.5,20.09771],[-51,19.83487],[-50.5,19.5727],[-50,19.31131],[-49.5,19.05085],[-49,18.79147],[-48.5,18.53332],[-48,18.27658],[-47.5,18.02139],[-47,17.76795],[-46.5,17.51643],[-46,17.26702],[-45.5,17.01992],[-45,16.77531],[-44.5,16.53341],[-44,16.29443],[-43.5,16.05858],[-43,15.82609],[-42.5,15.59716],[-42,15.37203],[-41.5,15.15093],[-41,14.93407],[-40.5,14.72171],[-40,14.51405],[-39.5,14.31133],[-39,14.11378],[-38.5,13.92162],[-38,13.73506],[-37.5,13.55431],[-37,13.3796],[-36.5,13.2111],[-36,13.04902],[-35.5,12.89354],[-35,12.74482],[-34.5,12.60302],[-34,12.4683],[-33.5,12.34079],[-33,12.2206],[-32.5,12.10785],[-32,12.00262],[-31.5,11.90501],[-31,11.81506],[-30.5,11.73282],[-30,11.65834],[-29.5,11.59163],[-29,11.53268],[-28.5,11.4815],[-28,11.43804],[-27.5,11.40228],[-27,11.37416],[-26.5,11.35362],[-26,11.34057],[-25.5,11.33494],[-25,11.33662],[-24.5,11.34551],[-24,11.36148],[-23.5,11.38441],[-23,11.41418],[-22.5,11.45065],[-22,11.49366],[-21.5,11.54307],[-21,11.59873],[-20.5,11.66048],[-20,11.72816],[-19.5,11.80162],[-19,11.88068],[-18.5,11.96518],[-18,12.05497],[-17.5,12.14987],[-17,12.24972],[-16.5,12.35436],[-16,12.46363],[-15.5,12.57737],[-15,12.69542],[-14.5,12.81762],[-14,12.94382],[-13.5,13.07387],[-13,13.20762],[-12.5,13.34493],[-12,13.48565],[-11.5,13.62965],[-11,13.7768],[-10.5,13.92695],[-10,14.07998],[-9.5,14.23577],[-9,14.39419],[-8.5,14.55512],[-8,14.71846],[-7.5,14.88408],[-7,15.05189],[-6.5,15.22177],[-6,15.39362],[-5.5,15.56735],[-5,15.74287],[-4.5,15.92007],[-4,16.09887],[-3.5,16.27919],[-3,16.46094],[-2.5,16.64404],[-2,16.82841],[-1.5,17.01398],[-1,17.20069],[-0.5,17.38845],[0,17.5772],[0.5,17.76688],[1,17.95742],[1.5,18.14877],[2,18.34086],[2.5,18.53365],[3,18.72708],[3.5,18.92109],[4,19.11564],[4.5,19.31068],[5,19.50617],[5.5,19.70205],[6,19.89829],[6.5,20.09485],[7,20.29168],[7.5,20.48875],[8,20.68602],[8.5,20.88346],[9,21.08104],[9.5,21.27871],[10,21.47646],[10.5,21.67424],[11,21.87203],[11.5,22.06981],[12,22.26754],[12.5,22.46521],[13,22.66278],[13.5,22.86023],[14,23.05753],[14.5,23.25468],[15,23.45164],[15.5,23.6484],[16,23.84493],[16.5,24.04122],[17,24.23725],[17.5,24.433],[18,24.62845],[18.5,24.8236],[19,25.01841],[19.5,25.21289],[20,25.407],[20.23242,25.49711]]}}],"attribution":"Eclipse Predictions by Fred Espenak and Jean Meeus (NASA's GSFC)","generated_at":"2026-09-23T01:44:45.345Z"}
