{"type":"FeatureCollection","year":1321,"events":[{"id":"+13210626","year":1321,"month":6,"day":26,"time_tdt":"06:52:55","type":"혼성일식","type_code":"H","saros":106,"gamma":0.5641,"magnitude":1.00557,"greatest":{"lat":56.66059,"lng":90.29065},"path_width_km":23.4,"duration":"00m27s","delta_t_seconds":445,"catalog_number":7911,"source":"NASA Five Millennium Canon of Solar Eclipses","source_url":"https://eclipse.gsfc.nasa.gov/SEsearch/SEsearchmap.php?Ecl=%2B13210626"},{"id":"+13211219","year":1321,"month":12,"day":19,"time_tdt":"18:15:02","type":"혼성일식","type_code":"H","saros":111,"gamma":-0.19875,"magnitude":1.01151,"greatest":{"lat":-34.90385,"lng":-89.16876},"path_width_km":40.5,"duration":"01m04s","delta_t_seconds":444.1,"catalog_number":7912,"source":"NASA Five Millennium Canon of Solar Eclipses","source_url":"https://eclipse.gsfc.nasa.gov/SEsearch/SEsearchmap.php?Ecl=%2B13211219"}],"features":[{"type":"Feature","id":"+13210626:north:0","properties":{"id":"+13210626","year":1321,"month":6,"day":26,"time_tdt":"06:52:55","type":"혼성일식","type_code":"H","saros":106,"gamma":0.5641,"magnitude":1.00557,"greatest":{"lat":56.66059,"lng":90.29065},"path_width_km":23.4,"duration":"00m27s","delta_t_seconds":445,"catalog_number":7911,"source":"NASA Five Millennium Canon of Solar Eclipses","source_url":"https://eclipse.gsfc.nasa.gov/SEsearch/SEsearchmap.php?Ecl=%2B13210626","boundary":"north","name":"1321-06-26 혼성일식"},"geometry":{"type":"LineString","coordinates":[[-9.5,41.00944],[-9,41.23552],[-8.5,41.46148],[-8,41.68728],[-7.5,41.9129],[-7,42.13829],[-6.5,42.36342],[-6,42.58825],[-5.5,42.81276],[-5,43.0369],[-4.5,43.26064],[-4,43.48395],[-3.5,43.70678],[-3,43.9291],[-2.5,44.15088],[-2,44.37207],[-2,44.37206],[-1.5,44.59264],[-1,44.81255],[-0.5,45.03177],[0,45.25026],[0.5,45.46798],[1,45.68489],[1.5,45.90096],[2,46.11615],[2.5,46.33043],[3,46.54375],[3.5,46.75608],[4,46.9674],[4.5,47.17765],[5,47.38681],[5.5,47.59484],[6,47.8017],[6.5,48.00737],[7,48.21181],[7.5,48.41499],[8,48.61687],[8.5,48.81742],[9,49.01661],[9.5,49.21442],[10,49.41081],[10.5,49.60575],[11,49.79921],[11.5,49.99117],[12,50.1816],[12.5,50.37047],[13,50.55776],[13.5,50.74344],[14,50.92749],[14.5,51.10989],[15,51.29061],[15.5,51.46964],[16,51.64694],[16.5,51.82251],[17,51.99632],[17.5,52.16836],[18,52.3386],[18.5,52.50703],[19,52.67364],[19.5,52.83841],[20,53.00133],[20.5,53.16238],[21,53.32155],[21.5,53.47883],[22,53.63421],[22.5,53.78768],[23,53.93923],[23.5,54.08885],[24,54.23653],[24.5,54.38226],[25,54.52605],[25.5,54.66788],[26,54.80774],[26.5,54.94564],[27,55.08157],[27.5,55.21552],[28,55.34749],[28.5,55.47749],[29,55.6055],[29.5,55.73272],[30,55.86049],[30.5,55.98622],[31,56.10991],[31,56.1099],[31.5,56.23155],[32,56.35115],[32.5,56.46871],[33,56.58423],[33.5,56.69772],[34,56.80918],[34.5,56.91861],[35,57.02602],[35.5,57.1314],[36,57.23477],[36.5,57.33613],[37,57.43547],[37.5,57.53282],[38,57.62816],[38.5,57.72151],[39,57.81287],[39.5,57.90225],[40,57.98964],[40.5,58.07506],[41,58.15851],[41.5,58.24],[42,58.31953],[42.5,58.39711],[43,58.47274],[43.5,58.54642],[44,58.61817],[44.5,58.68798],[45,58.75587],[45.5,58.82183],[46,58.88588],[46.5,58.94801],[47,59.00823],[47.5,59.06655],[48,59.12296],[48.5,59.17748],[49,59.23011],[49.5,59.28085],[50,59.3297],[50.5,59.37667],[51,59.42177],[51.5,59.46498],[52,59.50633],[52,59.50632],[52.5,59.5458],[53,59.5834],[53.5,59.61914],[54,59.65301],[54.5,59.68501],[55,59.71516],[55.5,59.74344],[56,59.76986],[56.5,59.79442],[57,59.81711],[57.5,59.83795],[58,59.85692],[58.5,59.87403],[59,59.88927],[59.5,59.90265],[60,59.91415],[60.5,59.92379],[61,59.93155],[61.5,59.93744],[62,59.94144],[62.5,59.94356],[63,59.94378],[63.5,59.94212],[64,59.93855],[64.5,59.93308],[65,59.9257],[65.5,59.9164],[66,59.90518],[66.5,59.89202],[67,59.87693],[67.5,59.85989],[68,59.84089],[68.5,59.81993],[69,59.79699],[69.5,59.77207],[70,59.74516],[70.5,59.71624],[71,59.6853],[71.5,59.65233],[72,59.61732],[72.5,59.58026],[73,59.54113],[73.5,59.49992],[74,59.45661],[74.5,59.41119],[75,59.36364],[75.5,59.31395],[76,59.26209],[76.5,59.20807],[77,59.15184],[77.5,59.09341],[78,59.03274],[78.5,58.96982],[79,58.90463],[79.5,58.83714],[80,58.76734],[80.5,58.69521],[81,58.62072],[81.5,58.54385],[82,58.46457],[82.5,58.38286],[83,58.2987],[83.5,58.21207],[84,58.12292],[84.5,58.03125],[85,57.93701],[85.5,57.84019],[86,57.74075],[86.5,57.63867],[87,57.53392],[87.5,57.42646],[88,57.31627],[88.5,57.20331],[89,57.08755],[89.5,56.96897],[90,56.84752],[90.5,56.72318],[91,56.59591],[91.5,56.46568],[92,56.33245],[92.5,56.19619],[93,56.05686],[93,56.05687],[93.5,55.91444],[94,55.76887],[94.5,55.62014],[95,55.4682],[95.5,55.31301],[96,55.15455],[96.5,54.99277],[97,54.82764],[97.5,54.65913],[98,54.4872],[98.5,54.31182],[99,54.13295],[99.5,53.95056],[100,53.76462],[100.5,53.57509],[101,53.38195],[101.5,53.18517],[102,52.98472],[102.5,52.78058],[103,52.57271],[103.5,52.3611],[104,52.14572],[104.5,51.92657],[105,51.70361],[105.5,51.47683],[106,51.24624],[106.5,51.01181],[107,50.77354],[107.5,50.53143],[108,50.28549],[108.5,50.03572],[109,49.78212],[109.5,49.52471],[110,49.26352],[110.5,48.99856],[111,48.72987],[111.5,48.45747],[112,48.1814],[112.5,47.90171],[113,47.61844],[113.5,47.33166],[114,47.04141],[114.5,46.74778],[115,46.45082],[115.5,46.15062],[116,45.84727],[116.5,45.54084],[117,45.23144],[117.5,44.91917],[118,44.60413],[118.5,44.28644],[119,43.96621],[119.5,43.64357],[119.5,43.64356],[120,43.31863],[120.5,42.99155],[121,42.66244],[121.5,42.33144],[122,41.99871],[122.5,41.66438],[123,41.32861],[123.5,40.99153],[124,40.65331],[124.5,40.31409],[125,39.97403],[125.5,39.63328],[126,39.292],[126.5,38.95032],[127,38.60842],[127.5,38.26643],[128,37.9245],[128.5,37.58277],[129,37.2414],[129.5,36.90051],[130,36.56024],[130.5,36.22073],[131,35.88211],[131,35.8821],[131.5,35.54448],[132,35.20799],[132.5,34.87577],[133,34.55017],[133.5,34.22605],[134,33.9035],[134.5,33.58261],[135,33.26347],[135.5,32.94616],[136,32.63076],[136.5,32.31733],[137,32.00594],[137.5,31.69665],[138,31.38953],[138.5,31.08463],[139,30.78199],[139.5,30.48166],[140,30.1837],[140.5,29.88812],[141,29.59498],[141.5,29.3043],[142,29.01611],[142.5,28.73043],[143,28.4473],[143.5,28.16672],[144,27.88872],[144.5,27.61331],[145,27.3405],[145.5,27.0703],[146,26.80273],[146.5,26.53777],[147,26.27545],[147.5,26.01576],[148,25.7587],[148.5,25.50426],[149,25.25246],[149.5,25.00327],[150,24.75671],[150.5,24.51275],[151,24.2714],[151.5,24.03263],[152,23.79646],[152,23.79645],[152.5,23.56285],[153,23.3318],[153.5,23.10331],[154,22.87735],[154.5,22.65391],[155,22.43298],[155.5,22.21454],[156,21.99858],[156.25,21.89153]]}},{"type":"Feature","id":"+13210626:center:0","properties":{"id":"+13210626","year":1321,"month":6,"day":26,"time_tdt":"06:52:55","type":"혼성일식","type_code":"H","saros":106,"gamma":0.5641,"magnitude":1.00557,"greatest":{"lat":56.66059,"lng":90.29065},"path_width_km":23.4,"duration":"00m27s","delta_t_seconds":445,"catalog_number":7911,"source":"NASA Five Millennium Canon of Solar Eclipses","source_url":"https://eclipse.gsfc.nasa.gov/SEsearch/SEsearchmap.php?Ecl=%2B13210626","boundary":"center","name":"1321-06-26 혼성일식"},"geometry":{"type":"LineString","coordinates":[[-9.40773,40.83576],[-9,41.01881],[-8.5,41.24786],[-8,41.47677],[-7.5,41.7055],[-7,41.93402],[-6.5,42.1623],[-6,42.39029],[-5.5,42.61797],[-5,42.8453],[-4.5,43.07223],[-4,43.29874],[-3.5,43.52478],[-3,43.75032],[-2.5,43.97532],[-2,44.19974],[-1.5,44.42355],[-1,44.6467],[-0.5,44.86916],[0,45.09088],[0.5,45.31184],[1,45.532],[1.5,45.7513],[2,45.96973],[2.5,46.18723],[3,46.40378],[3.5,46.61933],[4,46.83386],[4.5,47.04731],[5,47.25966],[5.5,47.47087],[6,47.6809],[6.5,47.88972],[7,48.0973],[7.5,48.3036],[8,48.50859],[8.5,48.71224],[9,48.9145],[9.5,49.11536],[10,49.31479],[10,49.31478],[10.5,49.51274],[11,49.70919],[11.5,49.90412],[12,50.0975],[12.5,50.28929],[13,50.47947],[13.5,50.66803],[14,50.85492],[14.5,51.04014],[15,51.22365],[15.5,51.40544],[16,51.58547],[16.5,51.76375],[17,51.94023],[17.5,52.11491],[18,52.28777],[18.5,52.45879],[19,52.62795],[19.5,52.79524],[20,52.96065],[20.5,53.12416],[21,53.28576],[21.5,53.44543],[22,53.60318],[22.5,53.75898],[23,53.91282],[23.5,54.06471],[24,54.21462],[24.5,54.36256],[25,54.50852],[25.5,54.65248],[26,54.79446],[26.5,54.93443],[27,55.0724],[27.5,55.20837],[28,55.34232],[28.5,55.47427],[29,55.6042],[29.5,55.73213],[30,55.85803],[30.5,55.98193],[31,56.1038],[31.5,56.22367],[32,56.34152],[32.5,56.45737],[33,56.5712],[33.5,56.68303],[34,56.79286],[34.5,56.90068],[35,57.0065],[35.5,57.11034],[36,57.21217],[36.5,57.31203],[37,57.40989],[37.5,57.50578],[38,57.5997],[38.5,57.69164],[39,57.78161],[39.5,57.86963],[40,57.95568],[40.5,58.03979],[41,58.12194],[41.5,58.20216],[42,58.28043],[42.5,58.35677],[43,58.43118],[43.5,58.50367],[44,58.57424],[44.5,58.64289],[45,58.70963],[45,58.70964],[45.5,58.77447],[46,58.83741],[46.5,58.89845],[47,58.95759],[47.5,59.01485],[48,59.07022],[48.5,59.12371],[49,59.17532],[49.5,59.22505],[50,59.27292],[50.5,59.31891],[51,59.36304],[51.5,59.40531],[52,59.44571],[52.5,59.48426],[52.5,59.48425],[53,59.52094],[53.5,59.55577],[54,59.58875],[54.5,59.61987],[55,59.64914],[55.5,59.67656],[56,59.70213],[56.5,59.72584],[57,59.7477],[57.5,59.76771],[58,59.78586],[58.5,59.80216],[59,59.8166],[59.5,59.82918],[60,59.83989],[60.5,59.84875],[61,59.85573],[61.5,59.86085],[62,59.86408],[62.5,59.86544],[63,59.86492],[63.5,59.86251],[64,59.8582],[64.5,59.85199],[65,59.84388],[65.5,59.83385],[66,59.82191],[66.5,59.80803],[67,59.79222],[67.5,59.77447],[68,59.75477],[68.5,59.7331],[69,59.70947],[69.5,59.68385],[70,59.65624],[70.5,59.62663],[71,59.595],[71.5,59.56135],[72,59.52565],[72.5,59.48791],[73,59.4481],[73.5,59.40621],[74,59.36223],[74.5,59.31613],[75,59.26791],[75.5,59.21755],[76,59.16504],[76.5,59.11034],[77,59.05346],[77.5,58.99436],[78,58.93303],[78.5,58.86946],[79,58.80361],[79.5,58.73547],[80,58.66502],[80.5,58.59224],[81,58.5171],[81.5,58.43958],[82,58.35966],[82.5,58.27732],[83,58.19252],[83.5,58.10524],[84,58.01547],[84.5,57.92316],[85,57.8283],[85.5,57.73086],[86,57.6308],[86.5,57.52811],[87,57.42274],[87.5,57.31468],[88,57.20389],[88.5,57.09034],[89,56.97399],[89.5,56.85483],[90,56.7328],[90.5,56.6079],[91,56.48007],[91.5,56.34928],[92,56.21552],[92.5,56.07872],[93,55.93888],[93.5,55.79594],[94,55.64988],[94.5,55.50067],[95,55.34825],[95.5,55.19262],[96,55.03371],[96.5,54.87152],[97,54.70599],[97.5,54.5371],[98,54.36481],[98.5,54.18909],[99,54.0099],[99.5,53.82723],[100,53.64102],[100.5,53.45127],[101,53.25793],[101.5,53.06098],[102,52.86039],[102.5,52.65615],[103,52.44822],[103.5,52.23658],[104,52.02123],[104.5,51.80213],[105,51.57929],[105.5,51.35267],[106,51.12229],[106.5,50.88812],[107,50.65018],[107.5,50.40845],[108,50.16295],[108.5,49.91368],[109,49.66065],[109.5,49.40389],[110,49.14341],[110.5,48.87924],[111,48.6114],[111.5,48.33994],[112,48.0649],[112.5,47.78632],[113,47.50425],[113.5,47.21875],[114,46.92988],[114.5,46.63771],[115,46.34231],[115.5,46.04376],[116,45.74216],[116.5,45.43758],[117,45.13013],[117.5,44.81991],[118,44.50702],[118.5,44.19157],[119,43.87369],[119.5,43.5535],[120,43.23111],[120.5,42.90667],[121,42.58031],[121.5,42.25215],[122,41.92235],[122.5,41.59105],[123,41.25839],[123.5,40.92452],[124,40.58958],[124.5,40.25373],[125,39.91711],[125.5,39.57988],[126,39.24219],[126.5,38.90417],[127,38.56599],[127.5,38.22778],[128,37.88968],[128.5,37.55184],[129,37.2144],[129.5,36.87749],[130,36.54124],[130.5,36.20579],[131,35.87124],[131.5,35.53773],[132,35.20536],[132.5,34.87426],[133,34.54452],[133.5,34.21625],[134,33.88955],[134.5,33.5645],[135,33.24121],[135.5,32.91974],[136,32.60018],[136.5,32.28261],[137,31.96708],[137.5,31.65368],[138,31.34245],[138.5,31.03346],[139,30.72675],[139.5,30.42238],[140,30.12039],[140.5,29.82082],[141,29.5237],[141.5,29.22908],[142,28.93697],[142.5,28.64741],[143,28.36042],[143,28.36041],[143.5,28.07601],[144,27.79422],[144.5,27.51505],[145,27.23851],[145.5,26.96463],[146,26.69339],[146.5,26.42482],[147,26.15891],[147.5,25.89566],[148,25.63508],[148.5,25.37717],[149,25.12192],[149.5,24.86933],[150,24.61939],[150.5,24.3721],[151,24.12744],[151.5,23.88541],[152,23.646],[152.5,23.4092],[153,23.17499],[153.5,22.94337],[154,22.71432],[154.5,22.48782],[155,22.26386],[155.5,22.04243],[156,21.82352],[156.20339,21.73167]]}},{"type":"Feature","id":"+13210626:south:0","properties":{"id":"+13210626","year":1321,"month":6,"day":26,"time_tdt":"06:52:55","type":"혼성일식","type_code":"H","saros":106,"gamma":0.5641,"magnitude":1.00557,"greatest":{"lat":56.66059,"lng":90.29065},"path_width_km":23.4,"duration":"00m27s","delta_t_seconds":445,"catalog_number":7911,"source":"NASA Five Millennium Canon of Solar Eclipses","source_url":"https://eclipse.gsfc.nasa.gov/SEsearch/SEsearchmap.php?Ecl=%2B13210626","boundary":"south","name":"1321-06-26 혼성일식"},"geometry":{"type":"LineString","coordinates":[[-9.25195,40.68362],[-9,40.80063],[-8.5,41.03278],[-8,41.26481],[-7.5,41.49667],[-7,41.72835],[-6.5,41.95979],[-6,42.19096],[-5.5,42.42183],[-5,42.65236],[-4.5,42.88251],[-4,43.11224],[-3.5,43.34152],[-3,43.5703],[-2.5,43.79855],[-2,44.02622],[-1.5,44.25328],[-1,44.4797],[-0.5,44.70542],[0,44.93041],[0.5,45.15464],[1,45.37806],[1.5,45.60063],[2,45.82231],[2.5,46.04307],[3,46.26287],[3.5,46.48167],[4,46.69943],[4.5,46.91611],[5,47.13167],[5.5,47.34609],[6,47.55932],[6.5,47.77132],[7,47.98207],[7.5,48.19152],[8,48.39964],[8.5,48.6064],[9,48.81177],[9.5,49.01571],[10,49.21819],[10.5,49.41918],[11,49.61865],[11.5,49.81657],[12,50.01292],[12.5,50.20765],[13,50.40076],[13.5,50.59221],[14,50.78197],[14.5,50.97002],[15,51.15634],[15.5,51.34091],[16,51.5237],[16.5,51.7047],[17,51.88388],[17.5,52.06122],[18,52.23671],[18.5,52.41033],[19,52.58206],[19.5,52.75189],[20,52.9198],[20.5,53.08579],[21,53.24983],[21.5,53.41191],[22,53.57203],[22.5,53.73017],[23,53.88633],[23.5,54.04049],[24,54.19265],[24.5,54.3428],[25,54.49094],[25.5,54.63705],[26,54.78114],[26.5,54.92319],[27,55.06322],[27.5,55.2012],[28,55.33714],[28.5,55.47105],[29,55.60291],[29.5,55.73153],[30,55.85558],[30.5,55.97764],[31,56.09771],[31.5,56.21581],[32,56.33191],[32.5,56.44604],[33,56.55819],[33.5,56.66835],[34,56.77654],[34.5,56.88276],[35,56.987],[35.5,57.08928],[36,57.18958],[36.5,57.28793],[37,57.38431],[37,57.38432],[37.5,57.47875],[38,57.57122],[38,57.57123],[38.5,57.66176],[39,57.75034],[39.5,57.83699],[40,57.9217],[40.5,58.00449],[41,58.08534],[41.5,58.16427],[42,58.24128],[42.5,58.31638],[43,58.38957],[43.5,58.46086],[44,58.53024],[44.5,58.59773],[45,58.66332],[45.5,58.72703],[46,58.78885],[46.5,58.84879],[47,58.90685],[47.5,58.96304],[48,59.01735],[48.5,59.0698],[49,59.12039],[49.5,59.16912],[50,59.21598],[50.5,59.26099],[50.5,59.261],[51,59.30415],[51.5,59.34546],[52,59.38492],[52.5,59.42253],[53,59.45829],[53.5,59.49221],[54,59.52429],[54.5,59.55452],[55,59.58291],[55.5,59.60945],[56,59.63416],[56.5,59.65702],[57,59.67803],[57.5,59.6972],[58,59.71453],[58.5,59.73001],[59,59.74363],[59.5,59.75541],[60,59.76533],[60.5,59.77339],[61,59.77959],[61.5,59.78393],[62,59.7864],[62.5,59.78699],[63,59.78571],[63,59.7857],[63.5,59.78254],[64,59.77748],[64.5,59.77053],[65,59.76168],[65.5,59.75091],[66,59.73824],[66.5,59.72364],[67,59.70711],[67.5,59.68864],[68,59.66822],[68.5,59.64584],[69,59.6215],[69.5,59.59517],[70,59.56686],[70.5,59.53655],[71,59.50423],[71.5,59.46988],[72,59.4335],[72.5,59.39507],[73,59.35457],[73.5,59.312],[74,59.26734],[74,59.26733],[74.5,59.22056],[75,59.17167],[75.5,59.12063],[76,59.06744],[76.5,59.01208],[77,58.95452],[77.5,58.89476],[78,58.83277],[78.5,58.76853],[79,58.70202],[79.5,58.63322],[80,58.56212],[80.5,58.48868],[81,58.41289],[81.5,58.33475],[81.5,58.33472],[82,58.25416],[82.5,58.17116],[83,58.08573],[83.5,57.99781],[84,57.9074],[84.5,57.81446],[85,57.71897],[85.5,57.6209],[86,57.52023],[86.5,57.41692],[87,57.31094],[87.5,57.20227],[88,57.09088],[88.5,56.97673],[89,56.8598],[89.5,56.74005],[90,56.61745],[90.5,56.49198],[91,56.36359],[91.5,56.23226],[92,56.09795],[92.5,55.96063],[93,55.82027],[93.5,55.67683],[94,55.53027],[94.5,55.38058],[95,55.2277],[95.5,55.07161],[95.5,55.07162],[96,54.91228],[96.5,54.74967],[97,54.58375],[97.5,54.41448],[98,54.24184],[98.5,54.06579],[99,53.8863],[99.5,53.70335],[100,53.5169],[100.5,53.32692],[101,53.13339],[101.5,52.93628],[102,52.73557],[102.5,52.53124],[103,52.32327],[103.5,52.11163],[104,51.89631],[104.5,51.6773],[105,51.45458],[105.5,51.22814],[106,50.99799],[106.5,50.76411],[107,50.5265],[107.5,50.28518],[108,50.04014],[108.5,49.7914],[109,49.53897],[109.5,49.28287],[110,49.02312],[110.5,48.75976],[111,48.49281],[111.5,48.22232],[112,47.94833],[112.5,47.67088],[113,47.39002],[113.5,47.10583],[114,46.81836],[114.5,46.52768],[114.5,46.52767],[115,46.23386],[115.5,45.93699],[116,45.63716],[116.5,45.33446],[116.5,45.33445],[117,45.02897],[117.5,44.72081],[117.5,44.72082],[118,44.41009],[118.5,44.09691],[119,43.7814],[119.5,43.46366],[120,43.14384],[120.5,42.82206],[121,42.49844],[121.5,42.17314],[122,41.84628],[122.5,41.518],[123,41.18846],[123.5,40.85778],[124,40.52613],[124.5,40.19364],[125,39.86047],[125.5,39.52675],[126,39.19263],[126.5,38.85826],[127,38.52379],[127.5,38.18934],[128,37.85507],[128.5,37.5211],[129,37.18757],[129.5,36.85462],[130,36.52236],[130.5,36.19093],[131,35.86044],[131.5,35.53101],[132,35.20275],[132.5,34.87274],[133,34.53883],[133.5,34.20639],[134,33.8755],[134.5,33.54627],[135,33.21879],[135.5,32.89313],[136,32.56939],[136.5,32.24765],[137,31.92796],[137.5,31.61041],[138,31.29505],[138.5,30.98194],[139,30.67114],[139.5,30.36269],[140,30.05665],[140.5,29.75305],[141,29.45193],[141.5,29.15334],[142,28.85729],[142.5,28.56381],[143,28.27294],[143.5,27.98469],[144,27.69908],[144.5,27.41613],[145,27.13585],[145.5,26.85825],[146,26.58334],[146.5,26.31112],[147,26.04161],[147.5,25.7748],[148,25.51069],[148.5,25.24928],[149,24.99057],[149.5,24.73455],[150,24.48123],[150.5,24.23058],[151,23.98261],[151.5,23.73731],[152,23.49466],[152.5,23.25465],[153,23.01727],[153.5,22.78251],[154,22.55036],[154.5,22.32079],[155,22.09381],[155,22.0938],[155.5,21.86938],[156,21.6475],[156.0957,21.60531]]}},{"type":"Feature","id":"+13211219:north:0","properties":{"id":"+13211219","year":1321,"month":12,"day":19,"time_tdt":"18:15:02","type":"혼성일식","type_code":"H","saros":111,"gamma":-0.19875,"magnitude":1.01151,"greatest":{"lat":-34.90385,"lng":-89.16876},"path_width_km":40.5,"duration":"01m04s","delta_t_seconds":444.1,"catalog_number":7912,"source":"NASA Five Millennium Canon of Solar Eclipses","source_url":"https://eclipse.gsfc.nasa.gov/SEsearch/SEsearchmap.php?Ecl=%2B13211219","boundary":"north","name":"1321-12-19 혼성일식"},"geometry":{"type":"LineString","coordinates":[[-163.16406,-18.13501],[-163,-18.2081],[-162.5,-18.43099],[-162,-18.65409],[-161.5,-18.87736],[-161,-19.10079],[-160.5,-19.32435],[-160,-19.54801],[-159.5,-19.77175],[-159,-19.99554],[-158.5,-20.21935],[-158,-20.44316],[-157.5,-20.66693],[-157,-20.89064],[-156.5,-21.11425],[-156,-21.33773],[-155.5,-21.56106],[-155,-21.7842],[-154.5,-22.00712],[-154,-22.22979],[-153.5,-22.45216],[-153,-22.67421],[-152.5,-22.89591],[-152,-23.11721],[-151.5,-23.33808],[-151,-23.55849],[-150.5,-23.77839],[-150,-23.99776],[-149.5,-24.21654],[-149,-24.43471],[-148.5,-24.65223],[-148,-24.86483],[-147.5,-25.07495],[-147,-25.28432],[-146.5,-25.4929],[-146,-25.70064],[-145.5,-25.90751],[-145,-26.11347],[-144.5,-26.31848],[-144,-26.52249],[-143.5,-26.72547],[-143,-26.92738],[-142.5,-27.12817],[-142,-27.3278],[-141.5,-27.52624],[-141,-27.72343],[-140.5,-27.91935],[-140,-28.11394],[-139.5,-28.30718],[-139,-28.499],[-138.5,-28.68938],[-138,-28.87827],[-137.5,-29.06562],[-137,-29.25141],[-136.5,-29.43558],[-136,-29.6181],[-135.5,-29.79892],[-135,-29.97801],[-134.5,-30.15532],[-134,-30.33081],[-133.5,-30.50444],[-133,-30.67618],[-132.5,-30.84598],[-132,-31.0138],[-131.5,-31.17961],[-131,-31.34336],[-130.5,-31.50502],[-130,-31.66455],[-129.5,-31.82191],[-129,-31.97707],[-128.5,-32.12999],[-128,-32.28063],[-127.5,-32.42895],[-127,-32.57493],[-126.5,-32.71853],[-126,-32.85971],[-125.5,-32.99844],[-125,-33.13468],[-124.5,-33.26841],[-124,-33.39959],[-123.5,-33.52818],[-123,-33.65417],[-122.5,-33.77751],[-122,-33.89817],[-121.5,-34.01613],[-121,-34.13136],[-120.5,-34.24383],[-120,-34.3535],[-119.5,-34.46036],[-119,-34.56436],[-118.5,-34.6655],[-118,-34.76373],[-117.5,-34.85903],[-117,-34.95137],[-116.5,-35.04074],[-116,-35.1271],[-115.5,-35.21043],[-115,-35.2907],[-114.5,-35.36789],[-114,-35.44198],[-113.5,-35.51294],[-113,-35.58074],[-112.5,-35.64537],[-112,-35.70679],[-111.5,-35.76499],[-111,-35.81995],[-110.5,-35.87163],[-110,-35.92002],[-109.5,-35.96509],[-109,-36.00683],[-108.5,-36.0452],[-108,-36.08019],[-107.5,-36.11178],[-107,-36.13993],[-106.5,-36.16464],[-106,-36.18587],[-105.5,-36.2036],[-105,-36.21781],[-104.5,-36.22848],[-104,-36.23559],[-103.5,-36.23911],[-103,-36.23902],[-102.5,-36.23529],[-102,-36.22791],[-101.5,-36.21686],[-101,-36.2021],[-100.5,-36.18361],[-100,-36.16138],[-99.5,-36.13537],[-99,-36.10557],[-98.5,-36.07195],[-98,-36.03449],[-97.5,-35.99316],[-97,-35.94795],[-96.5,-35.89882],[-96,-35.84576],[-95.5,-35.78873],[-95,-35.72773],[-94.5,-35.66272],[-94,-35.59369],[-93.5,-35.5206],[-93,-35.44345],[-92.5,-35.3622],[-92,-35.27683],[-91.5,-35.18732],[-91,-35.09366],[-90.5,-34.99582],[-90,-34.89379],[-89.5,-34.78754],[-89,-34.67705],[-88.5,-34.56231],[-88,-34.44331],[-87.5,-34.32003],[-87,-34.19245],[-86.5,-34.06057],[-86,-33.92436],[-85.5,-33.78383],[-85,-33.63896],[-84.5,-33.48975],[-84,-33.3362],[-83.5,-33.17829],[-83,-33.01604],[-82.5,-32.84944],[-82,-32.6785],[-81.5,-32.50323],[-81,-32.32363],[-80.5,-32.13972],[-80,-31.95151],[-79.5,-31.75902],[-79,-31.56228],[-78.5,-31.36131],[-78,-31.15614],[-77.5,-30.94679],[-77,-30.73331],[-76.5,-30.51574],[-76,-30.29412],[-75.5,-30.06849],[-75,-29.83891],[-74.5,-29.60543],[-74,-29.36812],[-73.5,-29.12703],[-73,-28.88224],[-72.5,-28.63382],[-72,-28.38183],[-71.5,-28.12637],[-71,-27.86752],[-70.5,-27.60536],[-70,-27.33999],[-69.5,-27.0715],[-69,-26.79999],[-68.5,-26.52556],[-68,-26.24832],[-67.5,-25.96837],[-67,-25.68583],[-66.5,-25.40082],[-66,-25.11343],[-65.5,-24.82381],[-65,-24.53206],[-64.5,-24.2383],[-64,-23.94266],[-63.5,-23.64526],[-63,-23.34623],[-62.5,-23.04569],[-62,-22.74377],[-61.5,-22.44058],[-61,-22.13626],[-60.5,-21.83093],[-60,-21.5247],[-59.5,-21.21771],[-59,-20.91006],[-58.5,-20.60189],[-58,-20.2933],[-57.5,-19.98441],[-57,-19.67534],[-56.5,-19.36618],[-56,-19.05706],[-55.5,-18.74806],[-55,-18.4393],[-54.5,-18.13087],[-54,-17.82287],[-53.5,-17.51539],[-53,-17.20852],[-52.5,-16.90235],[-52,-16.59695],[-51.5,-16.29241],[-51,-15.9888],[-50.5,-15.6862],[-50,-15.38468],[-49.5,-15.0843],[-49,-14.78513],[-48.5,-14.48722],[-48,-14.19064],[-47.5,-13.89543],[-47,-13.60166],[-46.5,-13.30936],[-46,-13.01858],[-45.5,-12.72936],[-45,-12.44176],[-44.5,-12.15579],[-44,-11.8715],[-43.5,-11.58892],[-43,-11.30364],[-42.5,-11.01717],[-42,-10.73252],[-41.5,-10.44974],[-41,-10.16884],[-40.5,-9.88984],[-40,-9.61277],[-39.5,-9.33763],[-39,-9.06445],[-38.5,-8.79325],[-38,-8.52402],[-37.5,-8.25679],[-37,-7.99156],[-36.5,-7.72834],[-36,-7.46713],[-35.5,-7.20795],[-35,-6.95079],[-34.5,-6.69567],[-34,-6.44257],[-33.5,-6.1915],[-33,-5.94247],[-32.5,-5.69547],[-32,-5.4505],[-31.5,-5.20755],[-31,-4.96663],[-30.5,-4.72773],[-30,-4.49084],[-29.5,-4.25597],[-29,-4.0231],[-28.5,-3.79222],[-28,-3.56334],[-27.5,-3.33645],[-27,-3.11153],[-26.5,-2.88858],[-26.17773,-2.74592]]}},{"type":"Feature","id":"+13211219:center:0","properties":{"id":"+13211219","year":1321,"month":12,"day":19,"time_tdt":"18:15:02","type":"혼성일식","type_code":"H","saros":111,"gamma":-0.19875,"magnitude":1.01151,"greatest":{"lat":-34.90385,"lng":-89.16876},"path_width_km":40.5,"duration":"01m04s","delta_t_seconds":444.1,"catalog_number":7912,"source":"NASA Five Millennium Canon of Solar Eclipses","source_url":"https://eclipse.gsfc.nasa.gov/SEsearch/SEsearchmap.php?Ecl=%2B13211219","boundary":"center","name":"1321-12-19 혼성일식"},"geometry":{"type":"LineString","coordinates":[[-163.20628,-18.20508],[-163,-18.29622],[-162.5,-18.51619],[-162,-18.73635],[-161.5,-18.95667],[-161,-19.17715],[-160.5,-19.39774],[-160,-19.61843],[-159.5,-19.83918],[-159,-20.05998],[-158.5,-20.28079],[-158,-20.50159],[-157.5,-20.72235],[-157,-20.94303],[-156.5,-21.16362],[-156,-21.38408],[-155.5,-21.60437],[-155,-21.82448],[-154.5,-22.04436],[-154,-22.26398],[-153.5,-22.48332],[-153,-22.70233],[-152.5,-22.92099],[-152,-23.13925],[-151.5,-23.35709],[-151,-23.57446],[-150.5,-23.79134],[-150,-24.00768],[-149.5,-24.22344],[-149,-24.4386],[-148.5,-24.65311],[-148,-24.86693],[-147.5,-25.08003],[-147,-25.29236],[-146.5,-25.50389],[-146,-25.71457],[-145.5,-25.92437],[-145,-26.13324],[-144.5,-26.34115],[-144,-26.54805],[-143.5,-26.7539],[-143,-26.95866],[-142.5,-27.16229],[-142,-27.36474],[-141.5,-27.56597],[-141,-27.76595],[-140.5,-27.96463],[-140,-28.16196],[-139.5,-28.3579],[-139,-28.55242],[-138.5,-28.74547],[-138,-28.937],[-137.5,-29.12698],[-137,-29.31536],[-136.5,-29.5021],[-136,-29.68716],[-135.5,-29.87049],[-135,-30.05206],[-134.5,-30.23183],[-134,-30.40975],[-133.5,-30.58578],[-133,-30.75989],[-132.5,-30.93202],[-132,-31.10216],[-131.5,-31.27024],[-131,-31.43624],[-130.5,-31.60011],[-130,-31.76183],[-129.5,-31.92134],[-129,-32.07862],[-128.5,-32.23362],[-128,-32.38632],[-127.5,-32.53666],[-127,-32.68463],[-126.5,-32.83019],[-126,-32.97329],[-125.5,-33.11391],[-125,-33.25202],[-124.5,-33.38757],[-124,-33.52054],[-123.5,-33.6509],[-123,-33.77862],[-122.5,-33.90366],[-122,-34.026],[-121.5,-34.1456],[-121,-34.26243],[-120.5,-34.37648],[-120,-34.4877],[-119.5,-34.59607],[-119,-34.70157],[-118.5,-34.80416],[-118,-34.90382],[-117.5,-35.00053],[-117,-35.09425],[-116.5,-35.18497],[-116,-35.27265],[-115.5,-35.35727],[-115,-35.43882],[-114.5,-35.51726],[-114,-35.59256],[-113.5,-35.66472],[-113,-35.73369],[-112.5,-35.79947],[-112,-35.86202],[-111.5,-35.92133],[-111,-35.97737],[-110.5,-36.03012],[-110,-36.07955],[-109.5,-36.12565],[-109,-36.16839],[-108.5,-36.20775],[-108,-36.24371],[-107.5,-36.27624],[-107,-36.30532],[-106.5,-36.33094],[-106,-36.35307],[-105.5,-36.37168],[-105,-36.38676],[-104.5,-36.39828],[-104,-36.40622],[-103.5,-36.41055],[-103,-36.41127],[-102.5,-36.40833],[-102,-36.40173],[-101.5,-36.39143],[-101,-36.37742],[-100.5,-36.35967],[-100,-36.33816],[-99.5,-36.31286],[-99,-36.28376],[-98.5,-36.25082],[-98,-36.21403],[-97.5,-36.17336],[-97,-36.12879],[-96.5,-36.08029],[-96,-36.02785],[-95.5,-35.97143],[-95,-35.91101],[-94.5,-35.84658],[-94,-35.77811],[-93.5,-35.70557],[-93,-35.62894],[-92.5,-35.54821],[-92,-35.46334],[-91.5,-35.37432],[-91,-35.28112],[-90.5,-35.18372],[-90,-35.08212],[-89.5,-34.97627],[-89,-34.86617],[-88.5,-34.7518],[-88,-34.63314],[-87.5,-34.51017],[-87,-34.38288],[-86.5,-34.25126],[-86,-34.11529],[-85.5,-33.97497],[-85,-33.83028],[-84.5,-33.68121],[-84,-33.52776],[-83.5,-33.36993],[-83,-33.20772],[-82.5,-33.04111],[-82,-32.87013],[-81.5,-32.69477],[-81,-32.51503],[-80.5,-32.33094],[-80,-32.14251],[-79.5,-31.94974],[-79,-31.75267],[-78.5,-31.5513],[-78,-31.34568],[-77.5,-31.13583],[-77,-30.92179],[-76.5,-30.70358],[-76,-30.48126],[-75.5,-30.25487],[-75,-30.02446],[-74.5,-29.79008],[-74,-29.55179],[-73.5,-29.30965],[-73,-29.06373],[-72.5,-28.81409],[-72,-28.56082],[-71.5,-28.30399],[-71,-28.04369],[-70.5,-27.77999],[-70,-27.513],[-69.5,-27.24281],[-69,-26.96951],[-68.5,-26.6932],[-68,-26.414],[-67.5,-26.13201],[-67,-25.84734],[-66.5,-25.56011],[-66,-25.27043],[-65.5,-24.97842],[-65,-24.6842],[-64.5,-24.3879],[-64,-24.08964],[-63.5,-23.78953],[-63,-23.48772],[-62.5,-23.18433],[-62,-22.87948],[-61.5,-22.57329],[-61,-22.26591],[-60.5,-21.95745],[-60,-21.64803],[-59.5,-21.33779],[-59,-21.02684],[-58.5,-20.7153],[-58,-20.4033],[-57.5,-20.09095],[-57,-19.77837],[-56.5,-19.46567],[-56,-19.15295],[-55.5,-18.84033],[-55,-18.52792],[-54.5,-18.2158],[-54,-17.90409],[-53.5,-17.59287],[-53,-17.28225],[-52.5,-16.97229],[-52,-16.6631],[-51.5,-16.35476],[-51,-16.04734],[-50.5,-15.74091],[-50,-15.43556],[-49.5,-15.13135],[-49,-14.82834],[-48.5,-14.5266],[-48,-14.22619],[-47.5,-13.92715],[-47,-13.62956],[-46.5,-13.33345],[-46,-13.03887],[-45.5,-12.74587],[-45,-12.45449],[-44.5,-12.16476],[-44,-11.87673],[-43.5,-11.59042],[-43,-11.30587],[-42.5,-11.02311],[-42,-10.74216],[-41.5,-10.46305],[-41,-10.18579],[-40.5,-9.91042],[-40,-9.63695],[-39.5,-9.3654],[-39,-9.09577],[-38.5,-8.82809],[-38,-8.56237],[-37.5,-8.29861],[-37,-8.03682],[-36.5,-7.77702],[-36,-7.51921],[-35.5,-7.26339],[-35,-7.00957],[-34.5,-6.75775],[-34,-6.50794],[-33.5,-6.26012],[-33,-6.01431],[-32.5,-5.77051],[-32,-5.5287],[-31.5,-5.28889],[-31,-5.05108],[-30.5,-4.81526],[-30,-4.58143],[-29.5,-4.34957],[-29,-4.1197],[-28.5,-3.89179],[-28,-3.66585],[-27.5,-3.44187],[-27,-3.21984],[-26.5,-2.99975],[-26.11346,-2.83609]]}},{"type":"Feature","id":"+13211219:south:0","properties":{"id":"+13211219","year":1321,"month":12,"day":19,"time_tdt":"18:15:02","type":"혼성일식","type_code":"H","saros":111,"gamma":-0.19875,"magnitude":1.01151,"greatest":{"lat":-34.90385,"lng":-89.16876},"path_width_km":40.5,"duration":"01m04s","delta_t_seconds":444.1,"catalog_number":7912,"source":"NASA Five Millennium Canon of Solar Eclipses","source_url":"https://eclipse.gsfc.nasa.gov/SEsearch/SEsearchmap.php?Ecl=%2B13211219","boundary":"south","name":"1321-12-19 혼성일식"},"geometry":{"type":"LineString","coordinates":[[-163.25781,-18.27204],[-163,-18.38388],[-162.5,-18.60093],[-162,-18.81817],[-161.5,-19.03557],[-161,-19.2531],[-160.5,-19.47074],[-160,-19.68846],[-159.5,-19.90625],[-159,-20.12407],[-158.5,-20.3419],[-158,-20.5597],[-157.5,-20.77746],[-157,-20.99515],[-156.5,-21.21273],[-156,-21.43017],[-155.5,-21.64745],[-155,-21.86454],[-154.5,-22.0814],[-154,-22.298],[-153.5,-22.51431],[-153,-22.7303],[-152.5,-22.94593],[-152,-23.16117],[-151.5,-23.37599],[-151,-23.59034],[-150.5,-23.80421],[-150,-24.01754],[-149.5,-24.2303],[-149,-24.44247],[-148.5,-24.65399],[-148,-24.86905],[-147.5,-25.08513],[-147,-25.30044],[-146.5,-25.51493],[-146,-25.72857],[-145.5,-25.94131],[-145,-26.15311],[-144.5,-26.36393],[-144,-26.57373],[-143.5,-26.78246],[-143,-26.99009],[-142.5,-27.19656],[-142,-27.40185],[-141.5,-27.60589],[-141,-27.80866],[-140.5,-28.0101],[-140,-28.21018],[-139.5,-28.40885],[-139,-28.60607],[-138.5,-28.80179],[-138,-28.99597],[-137.5,-29.18858],[-137,-29.37956],[-136.5,-29.56887],[-136,-29.75648],[-135.5,-29.94233],[-135,-30.12639],[-134.5,-30.30862],[-134,-30.48897],[-133.5,-30.6674],[-133,-30.84388],[-132.5,-31.01836],[-132,-31.1908],[-131.5,-31.36116],[-131,-31.5294],[-130.5,-31.69549],[-130,-31.85938],[-129.5,-32.02105],[-129,-32.18044],[-128.5,-32.33753],[-128,-32.49227],[-127.5,-32.64464],[-127,-32.79459],[-126.5,-32.9421],[-126,-33.08712],[-125.5,-33.22962],[-125,-33.36958],[-124.5,-33.50696],[-124,-33.64172],[-123.5,-33.77383],[-123,-33.90327],[-122.5,-34.03001],[-122,-34.154],[-121.5,-34.27523],[-121,-34.39367],[-120.5,-34.50928],[-120,-34.62204],[-119.5,-34.73192],[-119,-34.83889],[-118.5,-34.94293],[-118,-35.04402],[-117.5,-35.14212],[-117,-35.2372],[-116.5,-35.32926],[-116,-35.41825],[-115.5,-35.50416],[-115,-35.58697],[-114.5,-35.66664],[-114,-35.74316],[-113.5,-35.8165],[-113,-35.88664],[-112.5,-35.95355],[-112,-36.01722],[-111.5,-36.07763],[-111,-36.13474],[-110.5,-36.18854],[-110,-36.23901],[-109.5,-36.28612],[-109,-36.32985],[-108.5,-36.37018],[-108,-36.4071],[-107.5,-36.44057],[-107,-36.47057],[-106.5,-36.49709],[-106,-36.52011],[-105.5,-36.53959],[-105,-36.55553],[-104.5,-36.56789],[-104,-36.57665],[-103.5,-36.5818],[-103,-36.58331],[-102.5,-36.58116],[-102,-36.57532],[-101.5,-36.56578],[-101,-36.55251],[-100.5,-36.53549],[-100,-36.5147],[-99.5,-36.4901],[-99,-36.46169],[-98.5,-36.42943],[-98,-36.3933],[-97.5,-36.35329],[-97,-36.30936],[-96.5,-36.26149],[-96,-36.20966],[-95.5,-36.15384],[-95,-36.09402],[-94.5,-36.03016],[-94,-35.96224],[-93.5,-35.89025],[-93,-35.81416],[-92.5,-35.73394],[-92,-35.64957],[-91.5,-35.56103],[-91,-35.4683],[-90.5,-35.37136],[-90,-35.27018],[-89.5,-35.16475],[-89,-35.05504],[-88.5,-34.94104],[-88,-34.82272],[-87.5,-34.70008],[-87,-34.57309],[-86.5,-34.44174],[-86,-34.30602],[-85.5,-34.16591],[-85,-34.02141],[-84.5,-33.8725],[-84,-33.71917],[-83.5,-33.56143],[-83,-33.39926],[-82.5,-33.23267],[-82,-33.06166],[-81.5,-32.88623],[-81,-32.70638],[-80.5,-32.52213],[-80,-32.33348],[-79.5,-32.14046],[-79,-31.94307],[-78.5,-31.74134],[-78,-31.5353],[-77.5,-31.32497],[-77,-31.11038],[-76.5,-30.89157],[-76,-30.66858],[-75.5,-30.44145],[-75,-30.21022],[-74.5,-29.97496],[-74,-29.73572],[-73.5,-29.49255],[-73,-29.24552],[-72.5,-28.99471],[-72,-28.74017],[-71.5,-28.482],[-71,-28.22027],[-70.5,-27.95506],[-70,-27.68648],[-69.5,-27.4146],[-69,-27.13954],[-68.5,-26.86138],[-68,-26.58024],[-67.5,-26.29622],[-67,-26.00944],[-66.5,-25.72001],[-66,-25.42804],[-65.5,-25.13367],[-65,-24.837],[-64.5,-24.53816],[-64,-24.23728],[-63.5,-23.93448],[-63,-23.6299],[-62.5,-23.32365],[-62,-23.01588],[-61.5,-22.7067],[-61,-22.39625],[-60.5,-22.08466],[-60,-21.77205],[-59.5,-21.45855],[-59,-21.14428],[-58.5,-20.82938],[-58,-20.51396],[-57.5,-20.19814],[-57,-19.88204],[-56.5,-19.56577],[-56,-19.24946],[-55.5,-18.9332],[-55,-18.61711],[-54.5,-18.30129],[-54,-17.98585],[-53.5,-17.67087],[-53,-17.35646],[-52.5,-17.04271],[-52,-16.72971],[-51.5,-16.41753],[-51,-16.10627],[-50.5,-15.796],[-50,-15.48679],[-49.5,-15.17872],[-49,-14.87185],[-48.5,-14.56625],[-48,-14.26198],[-47.5,-13.95909],[-47,-13.65765],[-46.5,-13.35771],[-46,-13.0593],[-45.5,-12.76249],[-45,-12.4673],[-44.5,-12.17379],[-44,-11.88199],[-43.5,-11.59193],[-43,-11.30808],[-42.5,-11.02901],[-42,-10.75173],[-41.5,-10.47627],[-41,-10.20264],[-40.5,-9.93087],[-40,-9.66098],[-39.5,-9.39298],[-39,-9.12689],[-38.5,-8.86271],[-38,-8.60047],[-37.5,-8.34016],[-37,-8.08181],[-36.5,-7.82541],[-36,-7.57097],[-35.5,-7.3185],[-35,-7.068],[-34.5,-6.81947],[-34,-6.57291],[-33.5,-6.32834],[-33,-6.08574],[-32.5,-5.84511],[-32,-5.60645],[-31.5,-5.36977],[-31,-5.13505],[-30.5,-4.9023],[-30,-4.6715],[-29.5,-4.44266],[-29,-4.21577],[-28.5,-3.99083],[-28,-3.76782],[-27.5,-3.54674],[-27,-3.32758],[-26.5,-3.11033],[-26.06641,-2.92349]]}}],"attribution":"Eclipse Predictions by Fred Espenak and Jean Meeus (NASA's GSFC)","generated_at":"2026-09-23T03:35:46.338Z"}
