{"type":"FeatureCollection","year":1349,"events":[{"id":"+13490119","year":1349,"month":1,"day":19,"time_tdt":"13:24:42","type":"부분일식","type_code":"P","saros":130,"gamma":-1.18466,"magnitude":0.65464,"greatest":{"lat":-69.46836,"lng":136.30219},"path_width_km":0,"duration":"00m00s","delta_t_seconds":396.5,"catalog_number":7973,"source":"NASA Five Millennium Canon of Solar Eclipses","source_url":"https://eclipse.gsfc.nasa.gov/SEsearch/SEsearchmap.php?Ecl=%2B13490119"},{"id":"+13490616","year":1349,"month":6,"day":16,"time_tdt":"15:12:24","type":"부분일식","type_code":"P","saros":97,"gamma":-1.34681,"magnitude":0.36871,"greatest":{"lat":-66.11469,"lng":-35.29279},"path_width_km":0,"duration":"00m00s","delta_t_seconds":395.8,"catalog_number":7974,"source":"NASA Five Millennium Canon of Solar Eclipses","source_url":"https://eclipse.gsfc.nasa.gov/SEsearch/SEsearchmap.php?Ecl=%2B13490616"},{"id":"+13490716","year":1349,"month":7,"day":16,"time_tdt":"05:25:45","type":"부분일식","type_code":"P","saros":135,"gamma":1.47824,"magnitude":0.13837,"greatest":{"lat":68.80269,"lng":-98.65704},"path_width_km":0,"duration":"00m00s","delta_t_seconds":395.6,"catalog_number":7975,"source":"NASA Five Millennium Canon of Solar Eclipses","source_url":"https://eclipse.gsfc.nasa.gov/SEsearch/SEsearchmap.php?Ecl=%2B13490716"},{"id":"+13491210","year":1349,"month":12,"day":10,"time_tdt":"16:46:27","type":"개기일식","type_code":"T","saros":102,"gamma":0.88106,"magnitude":1.03712,"greatest":{"lat":38.17971,"lng":-62.71771},"path_width_km":264.5,"duration":"03m06s","delta_t_seconds":395,"catalog_number":7976,"source":"NASA Five Millennium Canon of Solar Eclipses","source_url":"https://eclipse.gsfc.nasa.gov/SEsearch/SEsearchmap.php?Ecl=%2B13491210"}],"features":[{"type":"Feature","id":"+13491210:north:0","properties":{"id":"+13491210","year":1349,"month":12,"day":10,"time_tdt":"16:46:27","type":"개기일식","type_code":"T","saros":102,"gamma":0.88106,"magnitude":1.03712,"greatest":{"lat":38.17971,"lng":-62.71771},"path_width_km":264.5,"duration":"03m06s","delta_t_seconds":395,"catalog_number":7976,"source":"NASA Five Millennium Canon of Solar Eclipses","source_url":"https://eclipse.gsfc.nasa.gov/SEsearch/SEsearchmap.php?Ecl=%2B13491210","boundary":"north","name":"1349-12-10 개기일식"},"geometry":{"type":"LineString","coordinates":[[-101.19922,59.47504],[-101,59.3489],[-100.5,59.0319],[-100,58.71432],[-99.5,58.39622],[-99,58.07764],[-98.5,57.75862],[-98,57.43923],[-97.5,57.1195],[-97,56.79949],[-96.5,56.47925],[-96,56.15884],[-95.5,55.83831],[-95,55.51773],[-94.5,55.19715],[-94,54.87665],[-93.5,54.55627],[-93,54.2361],[-92.5,53.91619],[-92,53.59662],[-91.5,53.27748],[-91,52.95882],[-90.5,52.64073],[-90,52.3233],[-89.5,52.00661],[-89,51.69074],[-88.5,51.37579],[-88,51.06185],[-87.5,50.74901],[-87,50.43739],[-86.5,50.12707],[-86,49.81816],[-85.5,49.51078],[-85,49.20503],[-84.5,48.90104],[-84,48.59891],[-83.5,48.29877],[-83,48.00076],[-82.5,47.70498],[-82,47.41158],[-81.5,47.12069],[-81,46.83245],[-80.5,46.547],[-80,46.26448],[-79.5,45.98503],[-79,45.7088],[-78.5,45.43595],[-78,45.16662],[-77.5,44.90097],[-77,44.63916],[-76.5,44.38134],[-76,44.12766],[-75.5,43.87829],[-75,43.63338],[-74.5,43.39309],[-74,43.15759],[-73.5,42.92702],[-73,42.70154],[-72.5,42.48131],[-72,42.26648],[-71.5,42.05719],[-71,41.8536],[-70.5,41.65584],[-70,41.46405],[-69.5,41.27838],[-69,41.09894],[-68.5,40.92586],[-68,40.75926],[-67.5,40.59925],[-67,40.44594],[-66.5,40.29943],[-66,40.1598],[-65.5,40.02715],[-65,39.90154],[-64.5,39.78305],[-64,39.67174],[-63.5,39.56766],[-63,39.47084],[-62.5,39.38134],[-62,39.29916],[-61.5,39.22434],[-61,39.15688],[-60.5,39.09678],[-60,39.04403],[-59.5,38.99862],[-59,38.96053],[-58.5,38.92971],[-58,38.90615],[-57.5,38.88978],[-57,38.88055],[-56.5,38.87841],[-56,38.88329],[-55.5,38.89512],[-55,38.91382],[-54.5,38.9393],[-54,38.97149],[-53.5,39.01029],[-53,39.0556],[-52.5,39.10732],[-52,39.16535],[-51.5,39.22958],[-51,39.29991],[-50.5,39.37623],[-50,39.45841],[-49.5,39.54636],[-49,39.63994],[-48.5,39.73905],[-48,39.84356],[-47.5,39.95336],[-47,40.06833],[-46.5,40.18835],[-46,40.3133],[-45.5,40.44306],[-45,40.57752],[-44.5,40.71656],[-44,40.86006],[-43.5,41.00791],[-43,41.16],[-42.5,41.31621],[-42,41.47643],[-41.5,41.64055],[-41,41.80847],[-40.5,41.98008],[-40,42.15527],[-39.5,42.33395],[-39,42.51601],[-38.5,42.70135],[-38,42.88987],[-37.5,43.08149],[-37,43.2761],[-36.5,43.47363],[-36,43.67397],[-35.5,43.87704],[-35,44.08275],[-34.5,44.29103],[-34,44.5018],[-33.5,44.71496],[-33,44.93045],[-32.5,45.14819],[-32,45.3681],[-31.5,45.59012],[-31,45.81417],[-30.5,46.04019],[-30,46.2681],[-29.5,46.49785],[-29,46.72937],[-28.5,46.96261],[-28,47.19749],[-27.5,47.43396],[-27,47.67197],[-26.5,47.91146],[-26,48.15237],[-25.5,48.39466],[-25,48.63827],[-24.5,48.88315],[-24,49.12926],[-23.5,49.37654],[-23,49.62496],[-22.90234,49.6736]]}},{"type":"Feature","id":"+13491210:center:0","properties":{"id":"+13491210","year":1349,"month":12,"day":10,"time_tdt":"16:46:27","type":"개기일식","type_code":"T","saros":102,"gamma":0.88106,"magnitude":1.03712,"greatest":{"lat":38.17971,"lng":-62.71771},"path_width_km":264.5,"duration":"03m06s","delta_t_seconds":395,"catalog_number":7976,"source":"NASA Five Millennium Canon of Solar Eclipses","source_url":"https://eclipse.gsfc.nasa.gov/SEsearch/SEsearchmap.php?Ecl=%2B13491210","boundary":"center","name":"1349-12-10 개기일식"},"geometry":{"type":"LineString","coordinates":[[-101.97048,58.95524],[-102,58.72209],[-101.5,58.40742],[-101,58.09202],[-100.5,57.77593],[-100,57.45919],[-99.5,57.14185],[-99,56.82395],[-98.5,56.50554],[-98,56.18668],[-97.5,55.86741],[-97,55.54779],[-96.5,55.22787],[-96,54.90771],[-95.5,54.58737],[-95,54.2669],[-94.5,53.94638],[-94,53.62586],[-93.5,53.30541],[-93,52.9851],[-92.5,52.66501],[-92,52.34519],[-91.5,52.02575],[-91,51.70674],[-90.5,51.38826],[-90,51.07038],[-89.5,50.7532],[-89,50.43681],[-88.5,50.12129],[-88,49.80675],[-87.5,49.49329],[-87,49.181],[-86.5,48.87],[-86,48.5604],[-85.5,48.2523],[-85,47.94582],[-84.5,47.64108],[-84,47.33821],[-83.5,47.03733],[-83,46.73857],[-82.5,46.44207],[-82,46.14795],[-81.5,45.85636],[-81,45.56743],[-80.5,45.28133],[-80,44.99818],[-79.5,44.71814],[-79,44.44137],[-78.5,44.16801],[-78,43.89823],[-77.5,43.63219],[-77,43.37003],[-76.5,43.11193],[-76,42.85805],[-75.5,42.60855],[-75,42.36358],[-74.5,42.12332],[-74,41.88793],[-73.5,41.65756],[-73,41.43237],[-72.5,41.21252],[-72,40.99818],[-71.5,40.78948],[-71,40.58657],[-70.5,40.38961],[-70,40.19873],[-69.5,40.01407],[-69,39.83575],[-68.5,39.66391],[-68,39.49866],[-67.5,39.34011],[-67,39.18837],[-66.5,39.04354],[-66,38.90571],[-65.5,38.77496],[-65,38.65137],[-64.5,38.535],[-64,38.4259],[-63.5,38.32414],[-63,38.22975],[-62.5,38.14277],[-62,38.06321],[-61.5,37.99109],[-61,37.92641],[-60.5,37.86918],[-60,37.81938],[-59.5,37.777],[-59,37.742],[-58.5,37.71435],[-58,37.69401],[-57.5,37.68092],[-57,37.67504],[-56.5,37.67629],[-56,37.68461],[-55.5,37.69992],[-55,37.72213],[-54.5,37.75117],[-54,37.78694],[-53.5,37.82934],[-53,37.87829],[-52.5,37.93366],[-52,37.99536],[-51.5,38.06327],[-51,38.13729],[-50.5,38.2173],[-50,38.30318],[-49.5,38.39481],[-49,38.49209],[-48.5,38.59488],[-48,38.70306],[-47.5,38.81653],[-47,38.93514],[-46.5,39.05879],[-46,39.18736],[-45.5,39.32071],[-45,39.45874],[-44.5,39.60132],[-44,39.74833],[-43.5,39.89967],[-43,40.05521],[-42.5,40.21484],[-42,40.37845],[-41.5,40.54592],[-41,40.71716],[-40.5,40.89204],[-40,41.07047],[-39.5,41.25233],[-39,41.43754],[-38.5,41.62599],[-38,41.81757],[-37.5,42.0122],[-37,42.20978],[-36.5,42.41023],[-36,42.61344],[-35.5,42.81933],[-35,43.02781],[-34.5,43.23881],[-34,43.45223],[-33.5,43.66801],[-33,43.88605],[-32.5,44.10629],[-32,44.32865],[-31.5,44.55306],[-31,44.77944],[-30.5,45.00773],[-30,45.23787],[-29.5,45.46977],[-29,45.7034],[-28.5,45.93867],[-28,46.17553],[-27.5,46.41392],[-27,46.65378],[-26.5,46.89506],[-26,47.13771],[-25.5,47.38166],[-25,47.62688],[-24.5,47.8733],[-24,48.12088],[-23.5,48.36957],[-23,48.61933],[-22.5,48.87012],[-22.43765,48.8929]]}},{"type":"Feature","id":"+13491210:south:0","properties":{"id":"+13491210","year":1349,"month":12,"day":10,"time_tdt":"16:46:27","type":"개기일식","type_code":"T","saros":102,"gamma":0.88106,"magnitude":1.03712,"greatest":{"lat":38.17971,"lng":-62.71771},"path_width_km":264.5,"duration":"03m06s","delta_t_seconds":395,"catalog_number":7976,"source":"NASA Five Millennium Canon of Solar Eclipses","source_url":"https://eclipse.gsfc.nasa.gov/SEsearch/SEsearchmap.php?Ecl=%2B13491210","boundary":"south","name":"1349-12-10 개기일식"},"geometry":{"type":"LineString","coordinates":[[-103,58.14493],[-102.5,57.83221],[-102,57.51862],[-101.5,57.20419],[-101,56.88896],[-100.5,56.57298],[-100,56.2563],[-99.5,55.93895],[-99,55.62099],[-98.5,55.30246],[-98,54.98341],[-97.5,54.66391],[-97,54.34399],[-96.5,54.02372],[-96,53.70315],[-95.5,53.38235],[-95,53.06138],[-94.5,52.74029],[-94,52.41916],[-93.5,52.09805],[-93,51.77703],[-92.5,51.45619],[-92,51.13558],[-91.5,50.8153],[-91,50.49542],[-90.5,50.17604],[-90,49.85722],[-89.5,49.53907],[-89,49.22168],[-88.5,48.90514],[-88,48.58956],[-87.5,48.27503],[-87,47.96166],[-86.5,47.64957],[-86,47.33886],[-85.5,47.02966],[-85,46.72207],[-84.5,46.41623],[-84,46.11226],[-83.5,45.8103],[-83,45.51046],[-82.5,45.2129],[-82,44.91775],[-81.5,44.62516],[-81,44.33527],[-80.5,44.04822],[-80,43.76418],[-79.5,43.4833],[-79,43.20573],[-78.5,42.93164],[-78,42.66118],[-77.5,42.39451],[-77,42.13181],[-76.5,41.87324],[-76,41.61896],[-75.5,41.36914],[-75,41.12395],[-74.5,40.88355],[-74,40.64811],[-73.5,40.41779],[-73,40.19276],[-72.5,39.97317],[-72,39.75918],[-71.5,39.55094],[-71,39.34862],[-70.5,39.15235],[-70,38.96227],[-69.5,38.77853],[-69,38.60125],[-68.5,38.43055],[-68,38.26657],[-67.5,38.10941],[-67,37.95917],[-66.5,37.81595],[-66,37.67984],[-65.5,37.55093],[-65,37.42928],[-64.5,37.31497],[-64,37.20804],[-63.5,37.10854],[-63,37.01652],[-62.5,36.93199],[-62,36.85499],[-61.5,36.78551],[-61,36.72357],[-60.5,36.66916],[-60,36.62225],[-59.5,36.58284],[-59,36.55088],[-58.5,36.52634],[-58,36.50917],[-57.5,36.49931],[-57,36.49671],[-56.5,36.5013],[-56,36.513],[-55.5,36.53173],[-55,36.55741],[-54.5,36.58995],[-54,36.62924],[-53.5,36.67521],[-53,36.72773],[-52.5,36.7867],[-52,36.85202],[-51.5,36.92356],[-51,37.00122],[-50.5,37.08488],[-50,37.17441],[-49.5,37.26971],[-49,37.37063],[-48.5,37.47707],[-48,37.5889],[-47.5,37.706],[-47,37.82823],[-46.5,37.95549],[-46,38.08765],[-45.5,38.22458],[-45,38.36616],[-44.5,38.51227],[-44,38.66279],[-43.5,38.81761],[-43,38.97661],[-42.5,39.13967],[-42,39.30667],[-41.5,39.47751],[-41,39.65207],[-40.5,39.83025],[-40,40.01194],[-39.5,40.19703],[-39,40.38542],[-38.5,40.57702],[-38,40.77171],[-37.5,40.9694],[-37,41.17001],[-36.5,41.37343],[-36,41.57957],[-35.5,41.78835],[-35,41.99968],[-34.5,42.21348],[-34,42.42965],[-33.5,42.64813],[-33,42.86882],[-32.5,43.09167],[-32,43.31658],[-31.5,43.54349],[-31,43.77232],[-30.5,44.00301],[-30,44.23549],[-29.5,44.46969],[-29,44.70555],[-28.5,44.94301],[-28,45.182],[-27.5,45.42246],[-27,45.66435],[-26.5,45.90759],[-26,46.15215],[-25.5,46.39795],[-25,46.64496],[-24.5,46.89312],[-24,47.14238],[-23.5,47.39269],[-23,47.64401],[-22.5,47.8963],[-22,48.1495]]}}],"attribution":"Eclipse Predictions by Fred Espenak and Jean Meeus (NASA's GSFC)","generated_at":"2026-09-23T03:35:46.723Z"}
