{"type":"FeatureCollection","year":1358,"events":[{"id":"+13580110","year":1358,"month":1,"day":10,"time_tdt":"11:37:17","type":"개기일식","type_code":"T","saros":111,"gamma":-0.20654,"magnitude":1.01833,"greatest":{"lat":-32.02426,"lng":14.44421},"path_width_km":64.1,"duration":"01m38s","delta_t_seconds":381.6,"catalog_number":7994,"source":"NASA Five Millennium Canon of Solar Eclipses","source_url":"https://eclipse.gsfc.nasa.gov/SEsearch/SEsearchmap.php?Ecl=%2B13580110"},{"id":"+13580707","year":1358,"month":7,"day":7,"time_tdt":"01:41:45","type":"금환일식","type_code":"Am","saros":116,"gamma":-0.04043,"magnitude":0.95623,"greatest":{"lat":19.59111,"lng":156.62433},"path_width_km":159.7,"duration":"05m22s","delta_t_seconds":380.8,"catalog_number":7995,"source":"NASA Five Millennium Canon of Solar Eclipses","source_url":"https://eclipse.gsfc.nasa.gov/SEsearch/SEsearchmap.php?Ecl=%2B13580707"},{"id":"+13581231","year":1358,"month":12,"day":31,"time_tdt":"02:29:35","type":"개기일식","type_code":"T","saros":121,"gamma":0.47014,"magnitude":1.0454,"greatest":{"lat":5.0732,"lng":140.01379},"path_width_km":170.9,"duration":"04m18s","delta_t_seconds":380,"catalog_number":7996,"source":"NASA Five Millennium Canon of Solar Eclipses","source_url":"https://eclipse.gsfc.nasa.gov/SEsearch/SEsearchmap.php?Ecl=%2B13581231"}],"features":[{"type":"Feature","id":"+13580110:north:0","properties":{"id":"+13580110","year":1358,"month":1,"day":10,"time_tdt":"11:37:17","type":"개기일식","type_code":"T","saros":111,"gamma":-0.20654,"magnitude":1.01833,"greatest":{"lat":-32.02426,"lng":14.44421},"path_width_km":64.1,"duration":"01m38s","delta_t_seconds":381.6,"catalog_number":7994,"source":"NASA Five Millennium Canon of Solar Eclipses","source_url":"https://eclipse.gsfc.nasa.gov/SEsearch/SEsearchmap.php?Ecl=%2B13580110","boundary":"north","name":"1358-01-10 개기일식"},"geometry":{"type":"LineString","coordinates":[[-64.97852,-27.40892],[-64.5,-27.58972],[-64,-27.77787],[-63.5,-27.96521],[-63,-28.15171],[-62.5,-28.33736],[-62,-28.52212],[-61.5,-28.70598],[-61,-28.8889],[-60.5,-29.07087],[-60,-29.25186],[-59.5,-29.43184],[-59,-29.61079],[-58.5,-29.78868],[-58,-29.9655],[-57.5,-30.14121],[-57,-30.31579],[-56.5,-30.48921],[-56,-30.66145],[-55.5,-30.83249],[-55,-31.00231],[-54.5,-31.17086],[-54,-31.33814],[-53.5,-31.50411],[-53,-31.66876],[-52.5,-31.83205],[-52,-31.99396],[-51.5,-32.15447],[-51,-32.31356],[-50.5,-32.47119],[-50,-32.62735],[-49.5,-32.782],[-49,-32.93513],[-48.5,-33.08672],[-48,-33.23673],[-47.5,-33.38515],[-47,-33.53195],[-46.5,-33.6771],[-46,-33.82059],[-45.5,-33.96239],[-45,-34.10247],[-44.5,-34.24082],[-44,-34.37742],[-43.5,-34.51223],[-43,-34.64523],[-42.5,-34.77641],[-42,-34.90574],[-41.5,-35.03321],[-41,-35.15877],[-40.5,-35.28243],[-40,-35.40414],[-39.5,-35.5239],[-39,-35.64168],[-38.5,-35.75746],[-38,-35.87122],[-37.5,-35.98293],[-37,-36.09258],[-36.5,-36.20014],[-36,-36.3056],[-35.5,-36.40893],[-35,-36.51011],[-34.5,-36.60913],[-34,-36.70596],[-33.5,-36.80058],[-33,-36.89296],[-32.5,-36.98311],[-32,-37.07098],[-31.5,-37.15656],[-31,-37.23983],[-30.5,-37.32077],[-30,-37.39935],[-29.5,-37.47557],[-29,-37.5494],[-28.5,-37.62081],[-28,-37.6898],[-27.5,-37.75633],[-27,-37.82038],[-26.5,-37.88195],[-26,-37.941],[-25.5,-37.99751],[-25,-38.05146],[-24.5,-38.10284],[-24,-38.15162],[-23.5,-38.19777],[-23,-38.24129],[-22.5,-38.28213],[-22,-38.32029],[-21.5,-38.35574],[-21,-38.38845],[-20.5,-38.41841],[-20,-38.44559],[-19.5,-38.46996],[-19,-38.4915],[-18.5,-38.51019],[-18,-38.526],[-17.5,-38.53891],[-17,-38.54889],[-16.5,-38.5559],[-16,-38.55994],[-15.5,-38.56096],[-15,-38.55894],[-14.5,-38.55386],[-14,-38.54568],[-13.5,-38.53437],[-13,-38.5199],[-12.5,-38.50224],[-12,-38.48137],[-11.5,-38.45724],[-11,-38.42983],[-10.5,-38.39909],[-10,-38.365],[-9.5,-38.32753],[-9,-38.28663],[-8.5,-38.24226],[-8,-38.1944],[-7.5,-38.143],[-7,-38.08802],[-6.5,-38.02942],[-6,-37.96716],[-5.5,-37.90121],[-5,-37.83151],[-4.5,-37.75803],[-4,-37.68071],[-3.5,-37.59952],[-3,-37.5144],[-2.5,-37.42532],[-2,-37.33222],[-1.5,-37.23505],[-1,-37.13376],[-0.5,-37.02831],[0,-36.91864],[0.5,-36.8047],[1,-36.68644],[1.5,-36.5638],[2,-36.43672],[2.5,-36.30516],[3,-36.16906],[3.5,-36.02836],[4,-35.88301],[4.5,-35.73295],[5,-35.57812],[5.5,-35.41846],[6,-35.25392],[6.5,-35.08445],[7,-34.90997],[7.5,-34.73045],[8,-34.54582],[8.5,-34.35603],[9,-34.16102],[9.5,-33.96075],[10,-33.75515],[10.5,-33.54419],[11,-33.32782],[11.5,-33.10599],[12,-32.87865],[12.5,-32.64578],[13,-32.40733],[13.5,-32.16327],[14,-31.91358],[14.5,-31.65823],[15,-31.39721],[15.5,-31.1305],[16,-30.8581],[16.5,-30.58],[17,-30.29621],[17.5,-30.00676],[18,-29.71165],[18.5,-29.41093],[19,-29.10463],[19.5,-28.79279],[20,-28.47549],[20.5,-28.15278],[21,-27.82475],[21.5,-27.49148],[22,-27.15308],[22.5,-26.80966],[23,-26.46134],[23.5,-26.10825],[24,-25.75055],[24.5,-25.38839],[25,-25.02193],[25.5,-24.65136],[26,-24.27686],[26.5,-23.89864],[27,-23.5169],[27.5,-23.13186],[28,-22.74374],[28.5,-22.35278],[29,-21.95921],[29.5,-21.56328],[30,-21.16524],[30.5,-20.76533],[31,-20.36382],[31.5,-19.96094],[32,-19.55697],[32.5,-19.15214],[33,-18.74673],[33.5,-18.34096],[34,-17.93509],[34.5,-17.52935],[35,-17.12399],[35.5,-16.71923],[36,-16.31529],[36.5,-15.91238],[37,-15.51071],[37.5,-15.11047],[38,-14.71186],[38.5,-14.31505],[39,-13.92021],[39.5,-13.52751],[40,-13.13709],[40.5,-12.74909],[41,-12.36364],[41.5,-11.98087],[42,-11.60089],[42.5,-11.22381],[43,-10.84971],[43.5,-10.4787],[44,-10.11083],[44.5,-9.7462],[45,-9.38485],[45.5,-9.02685],[46,-8.67225],[46.5,-8.32109],[47,-7.97341],[47.5,-7.62923],[48,-7.28859],[48.5,-6.95151],[49,-6.618],[49.5,-6.28807],[50,-5.96173],[50.5,-5.63899],[51,-5.31984],[51.5,-5.00429],[52,-4.69232],[52.5,-4.38393],[53,-4.0791],[53.5,-3.77783],[54,-3.48009],[54.5,-3.18588],[55,-2.89516],[55.5,-2.60791],[56,-2.32413],[56.5,-2.04377],[57,-1.76682],[57.5,-1.49326],[58,-1.22304],[58.5,-0.95615],[59,-0.69256],[59.5,-0.43224],[60,-0.17515],[60.5,0.07872],[61,0.32942],[61.5,0.57697],[62,0.8214],[62.5,1.06274],[63,1.30102],[63.5,1.53628],[64,1.76854],[64.5,1.99784],[65,2.2242],[65.5,2.44766],[66,2.66825],[66.5,2.886],[67,3.10093],[67.5,3.31308],[68,3.52248],[68.5,3.72915],[69,3.93312],[69.5,4.13443],[70,4.33311],[70.5,4.52917],[71,4.72265],[71.5,4.91357],[72,5.10197],[72.32812,5.22425]]}},{"type":"Feature","id":"+13580110:center:0","properties":{"id":"+13580110","year":1358,"month":1,"day":10,"time_tdt":"11:37:17","type":"개기일식","type_code":"T","saros":111,"gamma":-0.20654,"magnitude":1.01833,"greatest":{"lat":-32.02426,"lng":14.44421},"path_width_km":64.1,"duration":"01m38s","delta_t_seconds":381.6,"catalog_number":7994,"source":"NASA Five Millennium Canon of Solar Eclipses","source_url":"https://eclipse.gsfc.nasa.gov/SEsearch/SEsearchmap.php?Ecl=%2B13580110","boundary":"center","name":"1358-01-10 개기일식"},"geometry":{"type":"LineString","coordinates":[[-64.98722,-27.44583],[-64.5,-27.62581],[-64,-27.8166],[-63.5,-28.00658],[-63,-28.19572],[-62.5,-28.384],[-62,-28.57139],[-61.5,-28.75787],[-61,-28.94341],[-60.5,-29.12799],[-60,-29.31158],[-59.5,-29.49416],[-59,-29.6757],[-58.5,-29.85617],[-58,-30.03556],[-57.5,-30.21384],[-57,-30.39097],[-56.5,-30.56695],[-56,-30.74173],[-55.5,-30.91529],[-55,-31.08762],[-54.5,-31.25868],[-54,-31.42845],[-53.5,-31.5969],[-53,-31.76401],[-52.5,-31.92976],[-52,-32.09411],[-51.5,-32.25705],[-51,-32.41854],[-50.5,-32.57857],[-50,-32.73711],[-49.5,-32.89413],[-49,-33.04962],[-48.5,-33.20354],[-48,-33.35587],[-47.5,-33.50659],[-47,-33.65568],[-46.5,-33.8031],[-46,-33.94885],[-45.5,-34.09288],[-45,-34.23519],[-44.5,-34.37574],[-44,-34.51452],[-43.5,-34.6515],[-43,-34.78665],[-42.5,-34.91996],[-42,-35.05141],[-41.5,-35.18097],[-41,-35.30861],[-40.5,-35.43433],[-40,-35.55809],[-39.5,-35.67987],[-39,-35.79965],[-38.5,-35.91742],[-38,-36.03315],[-37.5,-36.14681],[-37,-36.2584],[-36.5,-36.36788],[-36,-36.47524],[-35.5,-36.58045],[-35,-36.6835],[-34.5,-36.78437],[-34,-36.88302],[-33.5,-36.97946],[-33,-37.07365],[-32.5,-37.16557],[-32,-37.25521],[-31.5,-37.34254],[-31,-37.42755],[-30.5,-37.51021],[-30,-37.59051],[-29.5,-37.66842],[-29,-37.74393],[-28.5,-37.81701],[-28,-37.88764],[-27.5,-37.95581],[-27,-38.0215],[-26.5,-38.08467],[-26,-38.14533],[-25.5,-38.20343],[-25,-38.25897],[-24.5,-38.31191],[-24,-38.36225],[-23.5,-38.40996],[-23,-38.45502],[-22.5,-38.4974],[-22,-38.53708],[-21.5,-38.57405],[-21,-38.60827],[-20.5,-38.63974],[-20,-38.66841],[-19.5,-38.69428],[-19,-38.71731],[-18.5,-38.73748],[-18,-38.75477],[-17.5,-38.76915],[-17,-38.7806],[-16.5,-38.78909],[-16,-38.7946],[-15.5,-38.79709],[-15,-38.79654],[-14.5,-38.79292],[-14,-38.78621],[-13.5,-38.77637],[-13,-38.76337],[-12.5,-38.74719],[-12,-38.72779],[-11.5,-38.70514],[-11,-38.67921],[-10.5,-38.64997],[-10,-38.61737],[-9.5,-38.58139],[-9,-38.542],[-8.5,-38.49914],[-8,-38.4528],[-7.5,-38.40293],[-7,-38.34948],[-6.5,-38.29243],[-6,-38.23173],[-5.5,-38.16734],[-5,-38.09921],[-4.5,-38.02731],[-4,-37.95159],[-3.5,-37.87201],[-3,-37.78852],[-2.5,-37.70106],[-2,-37.60961],[-1.5,-37.5141],[-1,-37.41449],[-0.5,-37.31072],[0,-37.20275],[0.5,-37.09052],[1,-36.97399],[1.5,-36.85309],[2,-36.72777],[2.5,-36.59798],[3,-36.46367],[3.5,-36.32477],[4,-36.18122],[4.5,-36.03299],[5,-35.87999],[5.5,-35.72218],[6,-35.55951],[6.5,-35.3919],[7,-35.21931],[7.5,-35.04167],[8,-34.85893],[8.5,-34.67104],[9,-34.47794],[9.5,-34.27957],[10,-34.07588],[10.5,-33.86682],[11,-33.65234],[11.5,-33.4324],[12,-33.20695],[12.5,-32.97594],[13,-32.73934],[13.5,-32.49711],[14,-32.24923],[14.5,-31.99565],[15,-31.73637],[15.5,-31.47137],[16,-31.20063],[16.5,-30.92415],[17,-30.64192],[17.5,-30.35397],[18,-30.0603],[18.5,-29.76094],[19,-29.45592],[19.5,-29.14529],[20,-28.8291],[20.5,-28.5074],[21,-28.18027],[21.5,-27.8478],[22,-27.51007],[22.5,-27.16719],[23,-26.81928],[23.5,-26.46646],[24,-26.10888],[24.5,-25.74669],[25,-25.38004],[25.5,-25.00912],[26,-24.6341],[26.5,-24.25518],[27,-23.87257],[27.5,-23.48647],[28,-23.09712],[28.5,-22.70474],[29,-22.30956],[29.5,-21.91184],[30,-21.51182],[30.5,-21.10975],[31,-20.70588],[31.5,-20.30049],[32,-19.89381],[32.5,-19.48612],[33,-19.07766],[33.5,-18.66869],[34,-18.25947],[34.5,-17.85023],[35,-17.44123],[35.5,-17.03269],[36,-16.62484],[36.5,-16.21791],[37,-15.8121],[37.5,-15.40763],[38,-15.00468],[38.5,-14.60345],[39,-14.20412],[39.5,-13.80684],[40,-13.41179],[40.5,-13.0191],[41,-12.62892],[41.5,-12.24137],[42,-11.85658],[42.5,-11.47466],[43,-11.0957],[43.5,-10.71981],[44,-10.34706],[44.5,-9.97753],[45,-9.6113],[45.5,-9.24841],[46,-8.88893],[46.5,-8.5329],[47,-8.18037],[47.5,-7.83137],[48,-7.48592],[48.5,-7.14405],[49,-6.80579],[49.5,-6.47113],[50,-6.14011],[50.5,-5.81271],[51,-5.48894],[51.5,-5.16881],[52,-4.85229],[52.5,-4.5394],[53,-4.23011],[53.5,-3.92442],[54,-3.62231],[54.5,-3.32375],[55,-3.02874],[55.5,-2.73725],[56,-2.44926],[56.5,-2.16475],[57,-1.88369],[57.5,-1.60605],[58,-1.33181],[58.5,-1.06094],[59,-0.79341],[59.5,-0.52919],[60,-0.26825],[60.5,-0.01057],[61,0.24389],[61.5,0.49516],[62,0.74326],[62.5,0.98824],[63,1.23012],[63.5,1.46894],[64,1.70472],[64.5,1.93749],[65,2.16729],[65.5,2.39415],[66,2.6181],[66.5,2.83916],[67,3.05738],[67.5,3.27278],[68,3.48539],[68.5,3.69523],[69,3.90235],[69.5,4.10677],[70,4.30851],[70.5,4.50761],[71,4.7041],[71.5,4.898],[72,5.08934],[72.33728,5.21408]]}},{"type":"Feature","id":"+13580110:south:0","properties":{"id":"+13580110","year":1358,"month":1,"day":10,"time_tdt":"11:37:17","type":"개기일식","type_code":"T","saros":111,"gamma":-0.20654,"magnitude":1.01833,"greatest":{"lat":-32.02426,"lng":14.44421},"path_width_km":64.1,"duration":"01m38s","delta_t_seconds":381.6,"catalog_number":7994,"source":"NASA Five Millennium Canon of Solar Eclipses","source_url":"https://eclipse.gsfc.nasa.gov/SEsearch/SEsearchmap.php?Ecl=%2B13580110","boundary":"south","name":"1358-01-10 개기일식"},"geometry":{"type":"LineString","coordinates":[[-65.01367,-27.46254],[-65,-27.46786],[-64.5,-27.6621],[-64,-27.85555],[-63.5,-28.04818],[-63,-28.23997],[-62.5,-28.4309],[-62,-28.62093],[-61.5,-28.81005],[-61,-28.99822],[-60.5,-29.18542],[-60,-29.37163],[-59.5,-29.55682],[-59,-29.74096],[-58.5,-29.92403],[-58,-30.10601],[-57.5,-30.28686],[-57,-30.46656],[-56.5,-30.64509],[-56,-30.82242],[-55.5,-30.99852],[-55,-31.17337],[-54.5,-31.34694],[-54,-31.51921],[-53.5,-31.69015],[-53,-31.85974],[-52.5,-32.02794],[-52,-32.19474],[-51.5,-32.36011],[-51,-32.52402],[-50.5,-32.68646],[-50,-32.84738],[-49.5,-33.00678],[-49,-33.16462],[-48.5,-33.32088],[-48,-33.47554],[-47.5,-33.62857],[-47,-33.77994],[-46.5,-33.92964],[-46,-34.07764],[-45.5,-34.22391],[-45,-34.36844],[-44.5,-34.51119],[-44,-34.65216],[-43.5,-34.7913],[-43,-34.9286],[-42.5,-35.06405],[-42,-35.1976],[-41.5,-35.32925],[-41,-35.45898],[-40.5,-35.58675],[-40,-35.71254],[-39.5,-35.83635],[-39,-35.95813],[-38.5,-36.07788],[-38,-36.19557],[-37.5,-36.31118],[-37,-36.4247],[-36.5,-36.53609],[-36,-36.64534],[-35.5,-36.75243],[-35,-36.85733],[-34.5,-36.96004],[-34,-37.06052],[-33.5,-37.15876],[-33,-37.25474],[-32.5,-37.34844],[-32,-37.43983],[-31.5,-37.5289],[-31,-37.61564],[-30.5,-37.70001],[-30,-37.782],[-29.5,-37.86159],[-29,-37.93877],[-28.5,-38.0135],[-28,-38.08578],[-27.5,-38.15557],[-27,-38.22287],[-26.5,-38.28765],[-26,-38.34989],[-25.5,-38.40957],[-25,-38.46667],[-24.5,-38.52118],[-24,-38.57306],[-23.5,-38.62231],[-23,-38.66889],[-22.5,-38.71279],[-22,-38.75398],[-21.5,-38.79245],[-21,-38.82817],[-20.5,-38.86113],[-20,-38.89128],[-19.5,-38.91863],[-19,-38.94313],[-18.5,-38.96477],[-18,-38.98353],[-17.5,-38.99937],[-17,-39.01227],[-16.5,-39.02222],[-16,-39.02918],[-15.5,-39.03312],[-15,-39.03402],[-14.5,-39.03186],[-14,-39.02659],[-13.5,-39.01821],[-13,-39.00666],[-12.5,-38.99194],[-12,-38.974],[-11.5,-38.95281],[-11,-38.92835],[-10.5,-38.90057],[-10,-38.86946],[-9.5,-38.83496],[-9,-38.79705],[-8.5,-38.7557],[-8,-38.71085],[-7.5,-38.66249],[-7,-38.61056],[-6.5,-38.55504],[-6,-38.49588],[-5.5,-38.43303],[-5,-38.36647],[-4.5,-38.29614],[-4,-38.222],[-3.5,-38.14401],[-3,-38.06212],[-2.5,-37.97628],[-2,-37.88646],[-1.5,-37.79259],[-1,-37.69464],[-0.5,-37.59254],[0,-37.48626],[0.5,-37.37573],[1,-37.26091],[1.5,-37.14174],[2,-37.01817],[2.5,-36.89014],[3,-36.75759],[3.5,-36.62048],[4,-36.47874],[4.5,-36.33232],[5,-36.18115],[5.5,-36.02518],[6,-35.86436],[6.5,-35.69861],[7,-35.52789],[7.5,-35.35214],[8,-35.1713],[8.5,-34.9853],[9,-34.7941],[9.5,-34.59764],[10,-34.39586],[10.5,-34.18871],[11,-33.97613],[11.5,-33.75809],[12,-33.53453],[12.5,-33.3054],[13,-33.07066],[13.5,-32.83028],[14,-32.58422],[14.5,-32.33245],[15,-32.07494],[15.5,-31.81167],[16,-31.54263],[16.5,-31.2678],[17,-30.98717],[17.5,-30.70076],[18,-30.40858],[18.5,-30.11063],[19,-29.80696],[19.5,-29.49758],[20,-29.18256],[20.5,-28.86193],[21,-28.53578],[21.5,-28.20417],[22,-27.86719],[22.5,-27.52493],[23,-27.17752],[23.5,-26.82506],[24,-26.46769],[24.5,-26.10555],[25,-25.73881],[25.5,-25.36763],[26,-24.99218],[26.5,-24.61266],[27,-24.22927],[27.5,-23.84221],[28,-23.45172],[28.5,-23.058],[29,-22.66131],[29.5,-22.26189],[30,-21.85997],[30.5,-21.45582],[31,-21.0497],[31.5,-20.64185],[32,-20.23255],[32.5,-19.82205],[33,-19.41062],[33.5,-18.99851],[34,-18.58598],[34.5,-18.17329],[35,-17.76068],[35.5,-17.3484],[36,-16.93667],[36.5,-16.52574],[37,-16.11582],[37.5,-15.70712],[38,-15.29985],[38.5,-14.89421],[39,-14.49037],[39.5,-14.08852],[40,-13.68882],[40.5,-13.29143],[41,-12.89649],[41.5,-12.50415],[42,-12.11452],[42.5,-11.72772],[43,-11.34387],[43.5,-10.96307],[44,-10.58539],[44.5,-10.21093],[45,-9.83976],[45.5,-9.47195],[46,-9.10754],[46.5,-8.7466],[47,-8.38917],[47.5,-8.03529],[48,-7.68499],[48.5,-7.33829],[49,-6.99522],[49.5,-6.6558],[50,-6.32003],[50.5,-5.98793],[51,-5.65949],[51.5,-5.33473],[52,-5.01362],[52.5,-4.69618],[53,-4.38238],[53.5,-4.07222],[54,-3.76569],[54.5,-3.46275],[55,-3.16341],[55.5,-2.86763],[56,-2.57539],[56.5,-2.28668],[57,-2.00146],[57.5,-1.71971],[58,-1.4414],[58.5,-1.16651],[59,-0.89501],[59.5,-0.62686],[60,-0.36204],[60.5,-0.10051],[61,0.15774],[61.5,0.41277],[62,0.66459],[62.5,0.91324],[63,1.15874],[63.5,1.40114],[64,1.64047],[64.5,1.87674],[65,2.11001],[65.5,2.34029],[66,2.56762],[66.5,2.79204],[67,3.01356],[67.5,3.23223],[68,3.44807],[68.5,3.66112],[69,3.8714],[69.5,4.07894],[70,4.28378],[70.5,4.48594],[71,4.68545],[71.5,4.88234],[72,5.07663],[72.33789,5.20648]]}},{"type":"Feature","id":"+13580707:north:0","properties":{"id":"+13580707","year":1358,"month":7,"day":7,"time_tdt":"01:41:45","type":"금환일식","type_code":"Am","saros":116,"gamma":-0.04043,"magnitude":0.95623,"greatest":{"lat":19.59111,"lng":156.62433},"path_width_km":159.7,"duration":"05m22s","delta_t_seconds":380.8,"catalog_number":7995,"source":"NASA Five Millennium Canon of Solar Eclipses","source_url":"https://eclipse.gsfc.nasa.gov/SEsearch/SEsearchmap.php?Ecl=%2B13580707","boundary":"north","name":"1358-07-07 금환일식"},"geometry":{"type":"LineString","coordinates":[[91.375,12.74048],[91.5,12.79012],[92,12.98844],[92.5,13.18634],[93,13.38381],[93.5,13.5808],[94,13.7773],[94.5,13.97328],[95,14.16871],[95.5,14.36357],[96,14.55782],[96.5,14.75144],[97,14.9444],[97.5,15.13667],[98,15.32822],[98.5,15.51901],[99,15.70903],[99.5,15.89822],[100,16.08658],[100.5,16.27405],[101,16.46061],[101.5,16.64623],[102,16.83087],[102.5,17.01449],[103,17.19706],[103.5,17.37855],[104,17.55892],[104.5,17.73813],[105,17.91615],[105.5,18.09294],[106,18.26846],[106.5,18.44267],[107,18.61553],[107.5,18.78701],[108,18.95706],[108.5,19.12565],[109,19.29273],[109.5,19.45827],[110,19.62221],[110.5,19.78452],[111,19.94516],[111.5,20.10409],[112,20.26125],[112.5,20.41661],[113,20.57011],[113.5,20.72173],[114,20.87141],[114.5,21.0191],[115,21.16477],[115.5,21.30835],[116,21.44982],[116.5,21.58911],[117,21.72618],[117.5,21.86099],[118,21.99349],[118.5,22.12361],[119,22.25133],[119.5,22.37658],[120,22.49932],[120.5,22.61949],[121,22.73705],[121.5,22.85194],[122,22.96411],[122.5,23.0735],[123,23.18008],[123.5,23.28377],[124,23.38453],[124.5,23.4823],[125,23.57703],[125.5,23.66866],[126,23.75714],[126.5,23.8424],[127,23.9244],[127.5,24.00307],[128,24.07835],[128.5,24.15019],[129,24.21852],[129.5,24.28329],[130,24.34444],[130.5,24.40189],[131,24.45559],[131.5,24.50548],[132,24.55149],[132.5,24.59356],[133,24.63161],[133.5,24.66559],[134,24.69542],[134.5,24.72104],[135,24.74238],[135.5,24.75936],[136,24.77191],[136.5,24.77997],[137,24.78345],[137.5,24.78229],[138,24.7764],[138.5,24.76571],[139,24.75014],[139.5,24.72961],[140,24.70404],[140.5,24.67335],[141,24.63746],[141.5,24.59628],[142,24.54973],[142.5,24.49772],[143,24.44016],[143.5,24.37697],[144,24.30806],[144.5,24.23334],[145,24.15271],[145.5,24.06609],[146,23.97338],[146.5,23.8745],[147,23.76934],[147.5,23.65783],[148,23.53986],[148.5,23.41534],[149,23.28419],[149.5,23.14632],[150,23.00163],[150.5,22.85004],[151,22.69147],[151.5,22.52583],[152,22.35304],[152.5,22.17303],[153,21.98573],[153.5,21.79107],[154,21.58899],[154.5,21.37944],[155,21.16236],[155.5,20.93772],[156,20.70548],[156.5,20.46562],[157,20.21813],[157.5,19.963],[158,19.70024],[158.5,19.42989],[159,19.15196],[159.5,18.86651],[160,18.5736],[160.5,18.27332],[161,17.96575],[161.5,17.65102],[162,17.32925],[162.5,17.00059],[163,16.6652],[163.5,16.32327],[164,15.975],[164.5,15.6206],[165,15.26032],[165.5,14.89439],[166,14.52309],[166.5,14.14669],[167,13.7655],[167.5,13.3798],[168,12.98993],[168.5,12.5962],[169,12.19894],[169.5,11.79849],[170,11.3952],[170.5,10.98939],[171,10.58141],[171.5,10.1716],[172,9.7603],[172.5,9.34784],[173,8.93454],[173.5,8.52072],[174,8.10668],[174.5,7.69272],[175,7.27913],[175.5,6.86618],[176,6.45414],[176.5,6.04325],[177,5.63374],[177.5,5.22584],[178,4.81975],[178.5,4.41568],[179,4.01379],[179.5,3.61426],[180,3.21724]]}},{"type":"Feature","id":"+13580707:north:1","properties":{"id":"+13580707","year":1358,"month":7,"day":7,"time_tdt":"01:41:45","type":"금환일식","type_code":"Am","saros":116,"gamma":-0.04043,"magnitude":0.95623,"greatest":{"lat":19.59111,"lng":156.62433},"path_width_km":159.7,"duration":"05m22s","delta_t_seconds":380.8,"catalog_number":7995,"source":"NASA Five Millennium Canon of Solar Eclipses","source_url":"https://eclipse.gsfc.nasa.gov/SEsearch/SEsearchmap.php?Ecl=%2B13580707","boundary":"north","name":"1358-07-07 금환일식"},"geometry":{"type":"LineString","coordinates":[[-179.5,2.82287],[-179,2.43128],[-178.5,2.04259],[-178,1.65691],[-177.5,1.27432],[-177,0.89492],[-176.5,0.51878],[-176,0.14596],[-175.5,-0.22347],[-175,-0.58947],[-174.5,-0.952],[-174,-1.31102],[-173.5,-1.6665],[-173,-2.01842],[-172.5,-2.36677],[-172,-2.71153],[-171.5,-3.0527],[-171,-3.39027],[-170.5,-3.72426],[-170,-4.05465],[-169.5,-4.38147],[-169,-4.70472],[-168.5,-5.02442],[-168,-5.34059],[-167.5,-5.65324],[-167,-5.9624],[-166.5,-6.26809],[-166,-6.57034],[-165.5,-6.86916],[-165,-7.1646],[-164.5,-7.45667],[-164,-7.74541],[-163.5,-8.03085],[-163,-8.31301],[-162.5,-8.59193],[-162,-8.86764],[-161.5,-9.14018],[-161,-9.40957],[-160.5,-9.67585],[-160,-9.93905],[-159.5,-10.1992],[-159,-10.45634],[-158.5,-10.7105],[-158,-10.96171],[-157.5,-11.21001],[-157,-11.45542],[-156.5,-11.69798],[-156,-11.93773],[-155.5,-12.17468],[-155,-12.40888],[-154.5,-12.64036],[-154,-12.86914],[-153.5,-13.09526],[-153,-13.31875],[-152.5,-13.53963],[-152,-13.75794],[-151.5,-13.97371],[-151,-14.18696],[-150.5,-14.39772],[-150,-14.60603],[-149.5,-14.8119],[-149,-15.01536],[-148.5,-15.21645],[-148.25586,-15.31378]]}},{"type":"Feature","id":"+13580707:center:0","properties":{"id":"+13580707","year":1358,"month":7,"day":7,"time_tdt":"01:41:45","type":"금환일식","type_code":"Am","saros":116,"gamma":-0.04043,"magnitude":0.95623,"greatest":{"lat":19.59111,"lng":156.62433},"path_width_km":159.7,"duration":"05m22s","delta_t_seconds":380.8,"catalog_number":7995,"source":"NASA Five Millennium Canon of Solar Eclipses","source_url":"https://eclipse.gsfc.nasa.gov/SEsearch/SEsearchmap.php?Ecl=%2B13580707","boundary":"center","name":"1358-07-07 금환일식"},"geometry":{"type":"LineString","coordinates":[[91.81448,11.83491],[92,11.90984],[92.5,12.11068],[93,12.31112],[93.5,12.51111],[94,12.71065],[94.5,12.90969],[95,13.10822],[95.5,13.3062],[96,13.50361],[96.5,13.70042],[97,13.8966],[97.5,14.09212],[98,14.28695],[98.5,14.48106],[99,14.67442],[99.5,14.86699],[100,15.05875],[100.5,15.24965],[101,15.43967],[101.5,15.62878],[102,15.81694],[102.5,16.0041],[103,16.19025],[103.5,16.37534],[104,16.55934],[104.5,16.7422],[105,16.9239],[105.5,17.10438],[106,17.28363],[106.5,17.46159],[107,17.63822],[107.5,17.81349],[108,17.98735],[108.5,18.15977],[109,18.3307],[109.5,18.5001],[110,18.66793],[110.5,18.83414],[111,18.99869],[111.5,19.16153],[112,19.32263],[112.5,19.48194],[113,19.6394],[113.5,19.79498],[114,19.94863],[114.5,20.1003],[115,20.24994],[115.5,20.39751],[116,20.54296],[116.5,20.68623],[117,20.82728],[117.5,20.96607],[118,21.10253],[118.5,21.23661],[119,21.36828],[119.5,21.49746],[120,21.62413],[120.5,21.74821],[121,21.86965],[121.5,21.98841],[122,22.10443],[122.5,22.21765],[123,22.32801],[123.5,22.43548],[124,22.53997],[124.5,22.64145],[125,22.73984],[125.5,22.8351],[126,22.92717],[126.5,23.01598],[127,23.10147],[127.5,23.18359],[128,23.26228],[128.5,23.33746],[129,23.40909],[129.5,23.47709],[130,23.5414],[130.5,23.60196],[131,23.65869],[131.5,23.71155],[132,23.76045],[132.5,23.80533],[133,23.84612],[133.5,23.88274],[134,23.91514],[134.5,23.94323],[135,23.96695],[135.5,23.98621],[136,24.00095],[136.5,24.01108],[137,24.01654],[137.5,24.01723],[138,24.01309],[138.5,24.00403],[139,23.98997],[139.5,23.97082],[140,23.94651],[140.5,23.91694],[141,23.88203],[141.5,23.8417],[142,23.79584],[142.5,23.74438],[143,23.68722],[143.5,23.62427],[144,23.55543],[144.5,23.48062],[145,23.39973],[145.5,23.31268],[146,23.21937],[146.5,23.1197],[147,23.01357],[147.5,22.9009],[148,22.78158],[148.5,22.65552],[149,22.52263],[149.5,22.38281],[150,22.23598],[150.5,22.08204],[151,21.9209],[151.5,21.75249],[152,21.57673],[152.5,21.39353],[153,21.20283],[153.5,21.00455],[154,20.79865],[154.5,20.58506],[155,20.36375],[155.5,20.13466],[156,19.89779],[156.5,19.65309],[157,19.40058],[157.5,19.14025],[158,18.87212],[158.5,18.59622],[159,18.3126],[159.5,18.02131],[160,17.72243],[160.5,17.41606],[161,17.1023],[161.5,16.78129],[162,16.45316],[162.5,16.11808],[163,15.77624],[163.5,15.42784],[164,15.07308],[164.5,14.71222],[165,14.3455],[165.5,13.97319],[166,13.59557],[166.5,13.21295],[167,12.82562],[167.5,12.43392],[168,12.03817],[168.5,11.63871],[169,11.23589],[169.5,10.83004],[170,10.42153],[170.5,10.0107],[171,9.59789],[171.5,9.18346],[172,8.76774],[172.5,8.35106],[173,7.93376],[173.5,7.51614],[174,7.09851],[174.5,6.68117],[175,6.2644],[175.5,5.84847],[176,5.43363],[176.5,5.02013],[177,4.60819],[177.5,4.19803],[178,3.78984],[178.5,3.38382],[179,2.98014],[179.5,2.57895],[180,2.18041]]}},{"type":"Feature","id":"+13580707:center:1","properties":{"id":"+13580707","year":1358,"month":7,"day":7,"time_tdt":"01:41:45","type":"금환일식","type_code":"Am","saros":116,"gamma":-0.04043,"magnitude":0.95623,"greatest":{"lat":19.59111,"lng":156.62433},"path_width_km":159.7,"duration":"05m22s","delta_t_seconds":380.8,"catalog_number":7995,"source":"NASA Five Millennium Canon of Solar Eclipses","source_url":"https://eclipse.gsfc.nasa.gov/SEsearch/SEsearchmap.php?Ecl=%2B13580707","boundary":"center","name":"1358-07-07 금환일식"},"geometry":{"type":"LineString","coordinates":[[-179.5,1.78463],[-179,1.39176],[-178.5,1.00188],[-178,0.61511],[-177.5,0.23154],[-177,-0.14877],[-176.5,-0.52575],[-176,-0.89932],[-175.5,-1.26945],[-175,-1.63608],[-174.5,-1.99919],[-174,-2.35875],[-173.5,-2.71472],[-173,-3.0671],[-172.5,-3.41586],[-172,-3.76101],[-171.5,-4.10255],[-171,-4.44047],[-170.5,-4.77477],[-170,-5.10547],[-169.5,-5.43259],[-169,-5.75612],[-168.5,-6.0761],[-168,-6.39253],[-167.5,-6.70545],[-167,-7.01488],[-166.5,-7.32083],[-166,-7.62334],[-165.5,-7.92244],[-165,-8.21814],[-164.5,-8.51049],[-164,-8.79951],[-163.5,-9.08524],[-163,-9.3677],[-162.5,-9.64693],[-162,-9.92295],[-161.5,-10.19581],[-161,-10.46554],[-160.5,-10.73216],[-160,-10.99571],[-159.5,-11.25623],[-159,-11.51375],[-158.5,-11.7683],[-158,-12.01991],[-157.5,-12.26862],[-157,-12.51445],[-156.5,-12.75745],[-156,-12.99764],[-155.5,-13.23506],[-155,-13.46973],[-154.5,-13.70169],[-154,-13.93097],[-153.5,-14.1576],[-153,-14.38161],[-152.5,-14.60302],[-152,-14.82188],[-151.5,-15.0382],[-151,-15.25202],[-150.5,-15.46336],[-150,-15.67225],[-149.5,-15.87872],[-149,-16.08279],[-148.71338,-16.19812]]}},{"type":"Feature","id":"+13580707:south:0","properties":{"id":"+13580707","year":1358,"month":7,"day":7,"time_tdt":"01:41:45","type":"금환일식","type_code":"Am","saros":116,"gamma":-0.04043,"magnitude":0.95623,"greatest":{"lat":19.59111,"lng":156.62433},"path_width_km":159.7,"duration":"05m22s","delta_t_seconds":380.8,"catalog_number":7995,"source":"NASA Five Millennium Canon of Solar Eclipses","source_url":"https://eclipse.gsfc.nasa.gov/SEsearch/SEsearchmap.php?Ecl=%2B13580707","boundary":"south","name":"1358-07-07 금환일식"},"geometry":{"type":"LineString","coordinates":[[92.26172,10.93614],[92.5,11.0332],[93,11.23658],[93.5,11.43956],[94,11.6421],[94.5,11.84419],[95,12.04579],[95.5,12.24688],[96,12.44743],[96.5,12.6474],[97,12.84678],[97.5,13.04554],[98,13.24363],[98.5,13.44103],[99,13.63771],[99.5,13.83364],[100,14.02878],[100.5,14.2231],[101,14.41656],[101.5,14.60914],[102,14.8008],[102.5,14.9915],[103,15.18121],[103.5,15.36988],[104,15.55749],[104.5,15.744],[105,15.92936],[105.5,16.11354],[106,16.2965],[106.5,16.4782],[107,16.65859],[107.5,16.83765],[108,17.01532],[108.5,17.19156],[109,17.36634],[109.5,17.53961],[110,17.71132],[110.5,17.88143],[111,18.0499],[111.5,18.21667],[112,18.38172],[112.5,18.54498],[113,18.70641],[113.5,18.86597],[114,19.0236],[114.5,19.17926],[115,19.3329],[115.5,19.48446],[116,19.63391],[116.5,19.78118],[117,19.92624],[117.5,20.06901],[118,20.20947],[118.5,20.34754],[119,20.48318],[119.5,20.61633],[120,20.74695],[120.5,20.87496],[121,21.00033],[121.5,21.12299],[122,21.24289],[122.5,21.35997],[123,21.47418],[123.5,21.58544],[124,21.69371],[124.5,21.79893],[125,21.90104],[125.5,21.99997],[126,22.09567],[126.5,22.18807],[127,22.2771],[127.5,22.36272],[128,22.44485],[128.5,22.52343],[129,22.59838],[129.5,22.66966],[130,22.73718],[130.5,22.80089],[131,22.86071],[131.5,22.91657],[132,22.9684],[132.5,23.01614],[133,23.0597],[133.5,23.09902],[134,23.13401],[134.5,23.16462],[135,23.19075],[135.5,23.21233],[136,23.22928],[136.5,23.24153],[137,23.24898],[137.5,23.25156],[138,23.24919],[138.5,23.24178],[139,23.22924],[139.5,23.21149],[140,23.18844],[140.5,23.16],[141,23.12608],[141.5,23.08658],[142,23.04141],[142.5,22.99049],[143,22.93371],[143.5,22.87097],[144,22.80219],[144.5,22.72726],[145,22.64608],[145.5,22.55856],[146,22.46459],[146.5,22.36408],[147,22.25692],[147.5,22.14302],[148,22.02228],[148.5,21.89459],[149,21.75987],[149.5,21.61802],[150,21.46893],[150.5,21.31254],[151,21.14873],[151.5,20.97743],[152,20.79856],[152.5,20.61204],[153,20.41779],[153.5,20.21577],[154,20.00589],[154.5,19.78812],[155,19.56241],[155.5,19.32873],[156,19.08705],[156.5,18.83736],[157,18.57967],[157.5,18.31397],[158,18.0403],[158.5,17.7587],[159,17.46922],[159.5,17.17194],[160,16.86695],[160.5,16.55435],[161,16.23427],[161.5,15.90684],[162,15.57225],[162.5,15.23065],[163,14.88227],[163.5,14.5273],[164,14.16601],[164.5,13.79862],[165,13.42543],[165.5,13.04671],[166,12.66277],[166.5,12.27393],[167,11.8805],[167.5,11.48283],[168,11.08125],[168.5,10.67613],[169,10.26782],[169.5,9.85667],[170,9.44304],[170.5,9.02729],[171,8.60977],[171.5,8.19084],[172,7.77083],[172.5,7.35008],[173,6.92891],[173.5,6.50764],[174,6.08657],[174.5,5.666],[175,5.24619],[175.5,4.82742],[176,4.40993],[176.5,3.99395],[177,3.57972],[177.5,3.16743],[178,2.75727],[178.5,2.34943],[179,1.94407],[179.5,1.54133],[180,1.14137]]}},{"type":"Feature","id":"+13580707:south:1","properties":{"id":"+13580707","year":1358,"month":7,"day":7,"time_tdt":"01:41:45","type":"금환일식","type_code":"Am","saros":116,"gamma":-0.04043,"magnitude":0.95623,"greatest":{"lat":19.59111,"lng":156.62433},"path_width_km":159.7,"duration":"05m22s","delta_t_seconds":380.8,"catalog_number":7995,"source":"NASA Five Millennium Canon of Solar Eclipses","source_url":"https://eclipse.gsfc.nasa.gov/SEsearch/SEsearchmap.php?Ecl=%2B13580707","boundary":"south","name":"1358-07-07 금환일식"},"geometry":{"type":"LineString","coordinates":[[-179.5,0.74429],[-179,0.35022],[-178.5,-0.04074],[-178,-0.42851],[-177.5,-0.813],[-177,-1.19415],[-176.5,-1.57188],[-176,-1.94615],[-175.5,-2.31691],[-175,-2.68413],[-174.5,-3.04777],[-174,-3.40781],[-173.5,-3.76423],[-173,-4.11702],[-172.5,-4.46617],[-172,-4.81168],[-171.5,-5.15355],[-171,-5.49179],[-170.5,-5.82639],[-170,-6.15738],[-169.5,-6.48477],[-169,-6.80857],[-168.5,-7.12881],[-168,-7.4455],[-167.5,-7.75868],[-167,-8.06836],[-166.5,-8.37457],[-166,-8.67734],[-165.5,-8.97669],[-165,-9.27267],[-164.5,-9.56529],[-164,-9.85459],[-163.5,-10.1406],[-163,-10.42336],[-162.5,-10.70289],[-162,-10.97923],[-161.5,-11.25242],[-161,-11.52248],[-160.5,-11.78945],[-160,-12.05336],[-159.5,-12.31425],[-159,-12.57215],[-158.5,-12.82709],[-158,-13.0791],[-157.5,-13.32823],[-157,-13.57449],[-156.5,-13.81793],[-156,-14.05857],[-155.5,-14.29645],[-155,-14.5316],[-154.5,-14.76405],[-154,-14.99383],[-153.5,-15.22097],[-153,-15.4455],[-152.5,-15.66746],[-152,-15.88686],[-151.5,-16.10373],[-151,-16.31812],[-150.5,-16.53004],[-150,-16.73952],[-149.5,-16.94659],[-149.16992,-17.08199]]}},{"type":"Feature","id":"+13581231:north:0","properties":{"id":"+13581231","year":1358,"month":12,"day":31,"time_tdt":"02:29:35","type":"개기일식","type_code":"T","saros":121,"gamma":0.47014,"magnitude":1.0454,"greatest":{"lat":5.0732,"lng":140.01379},"path_width_km":170.9,"duration":"04m18s","delta_t_seconds":380,"catalog_number":7996,"source":"NASA Five Millennium Canon of Solar Eclipses","source_url":"https://eclipse.gsfc.nasa.gov/SEsearch/SEsearchmap.php?Ecl=%2B13581231","boundary":"north","name":"1358-12-31 개기일식"},"geometry":{"type":"LineString","coordinates":[[84.83594,14.25085],[85,14.18357],[85.5,13.97882],[86,13.77454],[86.5,13.57077],[87,13.36753],[87.5,13.16485],[88,12.96276],[88.5,12.7613],[89,12.5605],[89.5,12.36038],[90,12.16097],[90.5,11.96233],[91,11.76447],[91.5,11.56743],[92,11.37126],[92.5,11.17598],[93,10.98163],[93.5,10.78826],[94,10.5959],[94.5,10.40459],[95,10.21438],[95.5,10.0253],[96,9.83741],[96.5,9.65073],[97,9.46532],[97.5,9.28123],[98,9.0985],[98.5,8.91718],[99,8.73732],[99.5,8.55896],[100,8.38217],[100.5,8.20699],[101,8.03347],[101.5,7.86167],[102,7.69165],[102.5,7.52346],[103,7.35716],[103.5,7.19282],[104,7.03048],[104.5,6.87021],[105,6.71208],[105.5,6.55615],[106,6.40248],[106.5,6.25114],[107,6.1022],[107.5,5.95573],[108,5.8118],[108.5,5.67047],[109,5.53183],[109.5,5.39595],[110,5.2629],[110.5,5.13277],[111,5.00562],[111.5,4.88155],[112,4.76062],[112.5,4.64293],[113,4.52855],[113.5,4.41758],[114,4.3101],[114.5,4.2062],[115,4.10596],[115.5,4.00948],[116,3.91685],[116.5,3.82817],[117,3.74352],[117.5,3.663],[118,3.58672],[118.5,3.51476],[119,3.44723],[119.5,3.38422],[120,3.32584],[120.5,3.27219],[121,3.22338],[121.5,3.17949],[122,3.14065],[122.5,3.10695],[123,3.0785],[123.5,3.0554],[124,3.03775],[124.5,3.02567],[125,3.01926],[125.5,3.01862],[126,3.02386],[126.5,3.03507],[127,3.05237],[127.5,3.07584],[128,3.1056],[128.5,3.14174],[129,3.18435],[129.5,3.23352],[130,3.28936],[130.5,3.35193],[131,3.42134],[131.5,3.49765],[132,3.58095],[132.5,3.67129],[133,3.76876],[133.5,3.87341],[134,3.98529],[134.5,4.10445],[135,4.23094],[135.5,4.36478],[136,4.506],[136.5,4.65462],[137,4.81065],[137.5,4.97408],[138,5.14491],[138.5,5.32312],[139,5.50867],[139.5,5.70152],[140,5.90163],[140.5,6.10893],[141,6.32334],[141.5,6.54478],[142,6.77315],[142.5,7.00834],[143,7.25024],[143.5,7.4987],[144,7.7536],[144.5,8.01478],[145,8.28206],[145.5,8.55529],[146,8.83428],[146.5,9.11883],[147,9.40875],[147.5,9.70384],[148,10.00387],[148.5,10.30864],[149,10.61791],[149.5,10.93147],[150,11.24907],[150.5,11.57049],[151,11.89548],[151.5,12.22382],[152,12.55527],[152.5,12.88959],[153,13.22654],[153.5,13.56591],[154,13.90745],[154.5,14.25094],[155,14.59616],[155.5,14.9429],[156,15.29095],[156.5,15.64009],[157,15.99014],[157.5,16.34089],[158,16.69216],[158.5,17.04377],[159,17.39555],[159.5,17.74733],[160,18.09896],[160.5,18.45027],[161,18.80113],[161.5,19.15139],[162,19.50093],[162.5,19.84962],[163,20.19735],[163.5,20.544],[164,20.88947],[164.5,21.23366],[165,21.57648],[165.5,21.91784],[166,22.25766],[166.5,22.59587],[167,22.93239],[167.5,23.26716],[168,23.60012],[168.5,23.93122],[169,24.2604],[169.5,24.58761],[170,24.91282],[170.5,25.23597],[171,25.55705],[171.5,25.87601],[172,26.19282],[172.5,26.50746],[173,26.81991],[173.5,27.13014],[174,27.43813],[174.5,27.74387],[175,28.04735],[175.5,28.34855],[176,28.64747],[176.5,28.94409],[177,29.23841],[177.5,29.53042],[178,29.82013],[178.5,30.10752],[179,30.39261],[179.5,30.67538],[180,30.95585]]}},{"type":"Feature","id":"+13581231:north:1","properties":{"id":"+13581231","year":1358,"month":12,"day":31,"time_tdt":"02:29:35","type":"개기일식","type_code":"T","saros":121,"gamma":0.47014,"magnitude":1.0454,"greatest":{"lat":5.0732,"lng":140.01379},"path_width_km":170.9,"duration":"04m18s","delta_t_seconds":380,"catalog_number":7996,"source":"NASA Five Millennium Canon of Solar Eclipses","source_url":"https://eclipse.gsfc.nasa.gov/SEsearch/SEsearchmap.php?Ecl=%2B13581231","boundary":"north","name":"1358-12-31 개기일식"},"geometry":{"type":"LineString","coordinates":[[-179.5,31.23401],[-179,31.50987],[-178.5,31.78344],[-178,32.05471],[-177.5,32.32371],[-177,32.59042],[-176.5,32.85487],[-176,33.11706],[-175.5,33.37699],[-175,33.63468],[-174.5,33.89015],[-174,34.14339],[-173.5,34.39442],[-173,34.64325],[-172.5,34.88989],[-172,35.13435],[-171.5,35.37666],[-171,35.6168],[-170.5,35.85481],[-170,36.0907],[-169.5,36.32447],[-169,36.55613],[-168.5,36.78571],[-168,37.01322],[-167.5,37.23866],[-167,37.46205],[-166.5,37.68341],[-166,37.90274],[-165.5,38.12007],[-165.27148,38.21873]]}},{"type":"Feature","id":"+13581231:center:0","properties":{"id":"+13581231","year":1358,"month":12,"day":31,"time_tdt":"02:29:35","type":"개기일식","type_code":"T","saros":121,"gamma":0.47014,"magnitude":1.0454,"greatest":{"lat":5.0732,"lng":140.01379},"path_width_km":170.9,"duration":"04m18s","delta_t_seconds":380,"catalog_number":7996,"source":"NASA Five Millennium Canon of Solar Eclipses","source_url":"https://eclipse.gsfc.nasa.gov/SEsearch/SEsearchmap.php?Ecl=%2B13581231","boundary":"center","name":"1358-12-31 개기일식"},"geometry":{"type":"LineString","coordinates":[[84.70903,13.79075],[85,13.67002],[85.5,13.46255],[86,13.25556],[86.5,13.04905],[87,12.84307],[87.5,12.63765],[88,12.43281],[88.5,12.22858],[89,12.02501],[89.5,11.82211],[90,11.61993],[90.5,11.41849],[91,11.21784],[91.5,11.018],[92,10.81902],[92.5,10.62093],[93,10.42377],[93.5,10.22758],[94,10.03239],[94.5,9.83826],[95,9.64522],[95.5,9.45331],[96,9.26257],[96.5,9.07306],[97,8.88481],[97.5,8.69788],[98,8.51231],[98.5,8.32814],[99,8.14544],[99.5,7.96424],[100,7.7846],[100.5,7.60657],[101,7.43021],[101.5,7.25557],[102,7.08271],[102.5,6.91168],[103,6.74255],[103.5,6.57536],[104,6.41019],[104.5,6.24709],[105,6.08613],[105.5,5.92737],[106,5.77088],[106.5,5.61672],[107,5.46496],[107.5,5.31567],[108,5.16892],[108.5,5.02479],[109,4.88334],[109.5,4.74465],[110,4.6088],[110.5,4.47586],[111,4.34591],[111.5,4.21904],[112,4.09531],[112.5,3.97482],[113,3.85765],[113.5,3.74388],[114,3.6336],[114.5,3.5269],[115,3.42386],[115.5,3.32458],[116,3.22915],[116.5,3.13766],[117,3.05019],[117.5,2.96686],[118,2.88775],[118.5,2.81296],[119,2.74259],[119.5,2.67674],[120,2.61551],[120.5,2.559],[121,2.5073],[121.5,2.46053],[122,2.41879],[122.5,2.38217],[123,2.35079],[123.5,2.32474],[124,2.30413],[124.5,2.28907],[125,2.27966],[125.5,2.276],[126,2.2782],[126.5,2.28636],[127,2.30058],[127.5,2.32096],[128,2.3476],[128.5,2.3806],[129,2.42006],[129.5,2.46606],[130,2.5187],[130.5,2.57807],[131,2.64425],[131.5,2.71732],[132,2.79737],[132.5,2.88446],[133,2.97866],[133.5,3.08004],[134,3.18865],[134.5,3.30455],[135,3.42779],[135.5,3.55839],[136,3.69639],[136.5,3.84181],[137,3.99468],[137.5,4.15498],[138,4.32273],[138.5,4.49791],[139,4.68049],[139.5,4.87044],[140,5.06772],[140.5,5.27228],[141,5.48404],[141.5,5.70294],[142,5.92888],[142.5,6.16175],[143,6.40147],[143.5,6.64789],[144,6.90088],[144.5,7.16031],[145,7.42601],[145.5,7.69782],[146,7.97556],[146.5,8.25906],[147,8.54811],[147.5,8.84252],[148,9.14207],[148.5,9.44656],[149,9.75576],[149.5,10.06944],[150,10.38738],[150.5,10.70934],[151,11.03508],[151.5,11.36438],[152,11.69698],[152.5,12.03266],[153,12.37118],[153.5,12.71229],[154,13.05577],[154.5,13.40139],[155,13.74891],[155.5,14.09813],[156,14.44881],[156.5,14.80076],[157,15.15376],[157.5,15.50761],[158,15.86211],[158.5,16.21709],[159,16.57236],[159.5,16.92775],[160,17.28308],[160.5,17.63821],[161,17.99297],[161.5,18.34723],[162,18.70085],[162.5,19.05368],[163,19.40562],[163.5,19.75654],[164,20.10634],[164.5,20.4549],[165,20.80213],[165.5,21.14794],[166,21.49224],[166.5,21.83495],[167,22.176],[167.5,22.51532],[168,22.85284],[168.5,23.1885],[169,23.52225],[169.5,23.85404],[170,24.18382],[170.5,24.51154],[171,24.83718],[171.5,25.16069],[172,25.48204],[172.5,25.8012],[173,26.11815],[173.5,26.43286],[174,26.74532],[174.5,27.05551],[175,27.3634],[175.5,27.669],[176,27.97228],[176.5,28.27324],[177,28.57187],[177.5,28.86816],[178,29.16212],[178.5,29.45373],[179,29.74301],[179.5,30.02994],[180,30.31453]]}},{"type":"Feature","id":"+13581231:center:1","properties":{"id":"+13581231","year":1358,"month":12,"day":31,"time_tdt":"02:29:35","type":"개기일식","type_code":"T","saros":121,"gamma":0.47014,"magnitude":1.0454,"greatest":{"lat":5.0732,"lng":140.01379},"path_width_km":170.9,"duration":"04m18s","delta_t_seconds":380,"catalog_number":7996,"source":"NASA Five Millennium Canon of Solar Eclipses","source_url":"https://eclipse.gsfc.nasa.gov/SEsearch/SEsearchmap.php?Ecl=%2B13581231","boundary":"center","name":"1358-12-31 개기일식"},"geometry":{"type":"LineString","coordinates":[[-179.5,30.59678],[-179,30.8767],[-178.5,31.15428],[-178,31.42955],[-177.5,31.70249],[-177,31.97313],[-176.5,32.24146],[-176,32.50749],[-175.5,32.77124],[-175,33.03271],[-174.5,33.29192],[-174,33.54887],[-173.5,33.80358],[-173,34.05605],[-172.5,34.3063],[-172,34.55433],[-171.5,34.80018],[-171,35.04383],[-170.5,35.28531],[-170,35.52463],[-169.5,35.76181],[-169,35.99685],[-168.5,36.22977],[-168,36.46058],[-167.5,36.68929],[-167,36.91593],[-166.5,37.1405],[-166,37.36302],[-165.5,37.58349],[-165.04927,37.78801]]}},{"type":"Feature","id":"+13581231:south:0","properties":{"id":"+13581231","year":1358,"month":12,"day":31,"time_tdt":"02:29:35","type":"개기일식","type_code":"T","saros":121,"gamma":0.47014,"magnitude":1.0454,"greatest":{"lat":5.0732,"lng":140.01379},"path_width_km":170.9,"duration":"04m18s","delta_t_seconds":380,"catalog_number":7996,"source":"NASA Five Millennium Canon of Solar Eclipses","source_url":"https://eclipse.gsfc.nasa.gov/SEsearch/SEsearchmap.php?Ecl=%2B13581231","boundary":"south","name":"1358-12-31 개기일식"},"geometry":{"type":"LineString","coordinates":[[84.58008,13.33364],[85,13.15678],[85.5,12.9466],[86,12.73687],[86.5,12.52763],[87,12.31891],[87.5,12.11074],[88,11.90314],[88.5,11.69615],[89,11.4898],[89.5,11.28412],[90,11.07915],[90.5,10.87493],[91,10.67148],[91.5,10.46884],[92,10.26706],[92.5,10.06616],[93,9.86618],[93.5,9.66718],[94,9.46917],[94.5,9.27222],[95,9.07635],[95.5,8.88161],[96,8.68805],[96.5,8.49571],[97,8.30463],[97.5,8.11487],[98,7.92646],[98.5,7.73947],[99,7.55393],[99.5,7.3699],[100,7.18744],[100.5,7.00658],[101,6.8274],[101.5,6.64993],[102,6.47425],[102.5,6.3004],[103,6.12845],[103.5,5.95845],[104,5.79047],[104.5,5.62457],[105,5.4608],[105.5,5.29924],[106,5.13995],[106.5,4.983],[107,4.82845],[107.5,4.67638],[108,4.52685],[108.5,4.37994],[109,4.23571],[109.5,4.09426],[110,3.95564],[110.5,3.81993],[111,3.68723],[111.5,3.55759],[112,3.43111],[112.5,3.30787],[113,3.18795],[113.5,3.07143],[114,2.9584],[114.5,2.84895],[115,2.74316],[115.5,2.64113],[116,2.54294],[116.5,2.44869],[117,2.35847],[117.5,2.27238],[118,2.1905],[118.5,2.11294],[119,2.03979],[119.5,1.97115],[120,1.90712],[120.5,1.8478],[121,1.79329],[121.5,1.74369],[122,1.6991],[122.5,1.65963],[123,1.62537],[123.5,1.59644],[124,1.57293],[124.5,1.55494],[125,1.54259],[125.5,1.53598],[126,1.5352],[126.5,1.54035],[127,1.55155],[127.5,1.56889],[128,1.59246],[128.5,1.62238],[129,1.65872],[129.5,1.7016],[130,1.75109],[130.5,1.80728],[131,1.87028],[131.5,1.94014],[132,2.01697],[132.5,2.10083],[133,2.19178],[133.5,2.28991],[134,2.39527],[134.5,2.50791],[135,2.62789],[135.5,2.75524],[136,2.89001],[136.5,3.03221],[137,3.18188],[137.5,3.33903],[138,3.50365],[138.5,3.67575],[139,3.8553],[139.5,4.04228],[140,4.23666],[140.5,4.43839],[141,4.64741],[141.5,4.86365],[142,5.08704],[142.5,5.31749],[143,5.55489],[143.5,5.79912],[144,6.05007],[144.5,6.30759],[145,6.57155],[145.5,6.84178],[146,7.11811],[146.5,7.40038],[147,7.68838],[147.5,7.98193],[148,8.28082],[148.5,8.58484],[149,8.89378],[149.5,9.2074],[150,9.52549],[150.5,9.84781],[151,10.17413],[151.5,10.5042],[152,10.83779],[152.5,11.17466],[153,11.51457],[153.5,11.85727],[154,12.20254],[154.5,12.55014],[155,12.89983],[155.5,13.25139],[156,13.6046],[156.5,13.95923],[157,14.31507],[157.5,14.67193],[158,15.02958],[158.5,15.38784],[159,15.74653],[159.5,16.10546],[160,16.46445],[160.5,16.82334],[161,17.18197],[161.5,17.54019],[162,17.89785],[162.5,18.25481],[163,18.61095],[163.5,18.96613],[164,19.32025],[164.5,19.67318],[165,20.02484],[165.5,20.37511],[166,20.72391],[166.5,21.07115],[167,21.41676],[167.5,21.76065],[168,22.10276],[168.5,22.44303],[169,22.78139],[169.5,23.11779],[170,23.45219],[170.5,23.78453],[171,24.11477],[171.5,24.44288],[172,24.76882],[172.5,25.09256],[173,25.41407],[173.5,25.73333],[174,26.05031],[174.5,26.36499],[175,26.67737],[175.5,26.98741],[176,27.29512],[176.5,27.60048],[177,27.90348],[177.5,28.20411],[178,28.50238],[178.5,28.79827],[179,29.09179],[179.5,29.38294],[180,29.67171]]}},{"type":"Feature","id":"+13581231:south:1","properties":{"id":"+13581231","year":1358,"month":12,"day":31,"time_tdt":"02:29:35","type":"개기일식","type_code":"T","saros":121,"gamma":0.47014,"magnitude":1.0454,"greatest":{"lat":5.0732,"lng":140.01379},"path_width_km":170.9,"duration":"04m18s","delta_t_seconds":380,"catalog_number":7996,"source":"NASA Five Millennium Canon of Solar Eclipses","source_url":"https://eclipse.gsfc.nasa.gov/SEsearch/SEsearchmap.php?Ecl=%2B13581231","boundary":"south","name":"1358-12-31 개기일식"},"geometry":{"type":"LineString","coordinates":[[-179.5,29.95811],[-179,30.24214],[-178.5,30.5238],[-178,30.80311],[-177.5,31.08006],[-177,31.35467],[-176.5,31.62694],[-176,31.89688],[-175.5,32.1645],[-175,32.4298],[-174.5,32.69281],[-174,32.95352],[-173.5,33.21195],[-173,33.46811],[-172.5,33.72202],[-172,33.97368],[-171.5,34.2231],[-171,34.47031],[-170.5,34.71531],[-170,34.95812],[-169.5,35.19874],[-169,35.4372],[-168.5,35.6735],[-168,35.90766],[-167.5,36.1397],[-167,36.36962],[-166.5,36.59744],[-166,36.82318],[-165.5,37.04685],[-165,37.26846],[-164.81445,37.35017]]}}],"attribution":"Eclipse Predictions by Fred Espenak and Jean Meeus (NASA's GSFC)","generated_at":"2026-09-23T03:35:47.097Z"}
