{"type":"FeatureCollection","year":1371,"events":[{"id":"+13710416","year":1371,"month":4,"day":16,"time_tdt":"02:00:13","type":"개기일식","type_code":"T","saros":99,"gamma":-0.95084,"magnitude":1.0512,"greatest":{"lat":-50.70462,"lng":-168.88983},"path_width_km":545.4,"duration":"03m30s","delta_t_seconds":360.5,"catalog_number":8024,"source":"NASA Five Millennium Canon of Solar Eclipses","source_url":"https://eclipse.gsfc.nasa.gov/SEsearch/SEsearchmap.php?Ecl=%2B13710416"},{"id":"+13711009","year":1371,"month":10,"day":9,"time_tdt":"09:55:25","type":"부분일식","type_code":"P","saros":104,"gamma":1.09901,"magnitude":0.79522,"greatest":{"lat":61.28473,"lng":101.67816},"path_width_km":0,"duration":"00m00s","delta_t_seconds":359.7,"catalog_number":8025,"source":"NASA Five Millennium Canon of Solar Eclipses","source_url":"https://eclipse.gsfc.nasa.gov/SEsearch/SEsearchmap.php?Ecl=%2B13711009"}],"features":[{"type":"Feature","id":"+13710416:north:0","properties":{"id":"+13710416","year":1371,"month":4,"day":16,"time_tdt":"02:00:13","type":"개기일식","type_code":"T","saros":99,"gamma":-0.95084,"magnitude":1.0512,"greatest":{"lat":-50.70462,"lng":-168.88983},"path_width_km":545.4,"duration":"03m30s","delta_t_seconds":360.5,"catalog_number":8024,"source":"NASA Five Millennium Canon of Solar Eclipses","source_url":"https://eclipse.gsfc.nasa.gov/SEsearch/SEsearchmap.php?Ecl=%2B13710416","boundary":"north","name":"1371-04-16 개기일식"},"geometry":{"type":"LineString","coordinates":[[-175.5,-75.94878],[-176,-75.67593],[-176.5,-75.38059],[-177,-75.05892],[-177.5,-74.70585],[-178,-74.31455],[-178.5,-73.87541],[-179,-73.37417],[-179.5,-72.78802]]}},{"type":"Feature","id":"+13710416:north:1","properties":{"id":"+13710416","year":1371,"month":4,"day":16,"time_tdt":"02:00:13","type":"개기일식","type_code":"T","saros":99,"gamma":-0.95084,"magnitude":1.0512,"greatest":{"lat":-50.70462,"lng":-168.88983},"path_width_km":545.4,"duration":"03m30s","delta_t_seconds":360.5,"catalog_number":8024,"source":"NASA Five Millennium Canon of Solar Eclipses","source_url":"https://eclipse.gsfc.nasa.gov/SEsearch/SEsearchmap.php?Ecl=%2B13710416","boundary":"north","name":"1371-04-16 개기일식"},"geometry":{"type":"LineString","coordinates":[[180,-72.07608],[179.5,-71.14968],[179,-69.7112],[179,-64.82827],[179.5,-62.86899],[180,-61.43168]]}},{"type":"Feature","id":"+13710416:north:2","properties":{"id":"+13710416","year":1371,"month":4,"day":16,"time_tdt":"02:00:13","type":"개기일식","type_code":"T","saros":99,"gamma":-0.95084,"magnitude":1.0512,"greatest":{"lat":-50.70462,"lng":-168.88983},"path_width_km":545.4,"duration":"03m30s","delta_t_seconds":360.5,"catalog_number":8024,"source":"NASA Five Millennium Canon of Solar Eclipses","source_url":"https://eclipse.gsfc.nasa.gov/SEsearch/SEsearchmap.php?Ecl=%2B13710416","boundary":"north","name":"1371-04-16 개기일식"},"geometry":{"type":"LineString","coordinates":[[-179.5,-60.21916],[-179,-59.14317],[-178.5,-58.16321],[-178,-57.25683],[-177.5,-56.41007],[-177,-55.61359],[-176.5,-54.8608],[-176,-54.14683],[-175.5,-53.46798],[-175,-52.82132],[-174.5,-52.20452],[-174,-51.61564],[-173.5,-51.05305],[-173,-50.51537],[-172.5,-50.00138],[-172,-49.51003],[-171.5,-49.04034],[-171,-48.59146],[-170.5,-48.16258],[-170,-47.75297],[-169.5,-47.36194],[-169,-46.98886],[-168.5,-46.6331],[-168,-46.29411],[-167.5,-45.97133],[-167,-45.66423],[-166.5,-45.37233],[-166,-45.09514],[-165.5,-44.8322],[-165,-44.58307],[-164.5,-44.34733],[-164,-44.12456],[-163.5,-43.91439],[-163,-43.71642],[-162.5,-43.5303],[-162,-43.35567],[-161.5,-43.19219],[-161,-43.03955],[-160.5,-42.89741],[-160,-42.7655],[-159.5,-42.6435],[-159,-42.53114],[-158.5,-42.42816],[-158,-42.33428],[-157.5,-42.24926],[-157,-42.17286],[-156.5,-42.10484],[-156,-42.04498],[-155.5,-41.99306],[-155,-41.94888],[-154.5,-41.91224],[-154,-41.88293],[-153.5,-41.86079],[-153,-41.84561],[-152.5,-41.83725],[-152,-41.83552],[-151.5,-41.84026],[-151,-41.85133],[-150.5,-41.86858],[-150,-41.89185],[-149.5,-41.92102],[-149,-41.95596],[-148.5,-41.99652],[-148,-42.04259],[-147.5,-42.09405],[-147,-42.15079],[-146.5,-42.2127],[-146,-42.27966],[-145.5,-42.35159],[-145,-42.42837],[-144.5,-42.50991],[-144,-42.59613],[-143.5,-42.68694],[-143,-42.78224],[-142.5,-42.88196],[-142,-42.98603],[-141.5,-43.09435],[-141,-43.20687],[-140.5,-43.32352]]}},{"type":"Feature","id":"+13710416:center:0","properties":{"id":"+13710416","year":1371,"month":4,"day":16,"time_tdt":"02:00:13","type":"개기일식","type_code":"T","saros":99,"gamma":-0.95084,"magnitude":1.0512,"greatest":{"lat":-50.70462,"lng":-168.88983},"path_width_km":545.4,"duration":"03m30s","delta_t_seconds":360.5,"catalog_number":8024,"source":"NASA Five Millennium Canon of Solar Eclipses","source_url":"https://eclipse.gsfc.nasa.gov/SEsearch/SEsearchmap.php?Ecl=%2B13710416","boundary":"center","name":"1371-04-16 개기일식"},"geometry":{"type":"LineString","coordinates":[[-168.59193,-74.9936],[-169,-74.91462],[-169.5,-74.69221],[-170,-74.4551],[-170.5,-74.20145],[-171,-73.92901],[-171.5,-73.63502],[-172,-73.31599],[-172.5,-72.96741],[-173,-72.58328],[-173.5,-72.15534],[-174,-71.67166],[-174.5,-71.11384],[-175,-70.45074],[-175.5,-69.62119],[-176,-68.46466],[-176,-62.02156],[-175.5,-60.44146],[-175,-59.20095],[-174.5,-58.13964],[-174,-57.19647],[-173.5,-56.34037],[-173,-55.55298],[-172.5,-54.82238],[-172,-54.14026],[-171.5,-53.50057],[-171,-52.89872],[-170.5,-52.33111],[-170,-51.79483],[-169.5,-51.28748],[-169,-50.80708],[-168.5,-50.35189],[-168,-49.92042],[-167.5,-49.51138],[-167,-49.1236],[-166.5,-48.75603],[-166,-48.40772],[-165.5,-48.07782],[-165,-47.76553],[-164.5,-47.47012],[-164,-47.19091],[-163.5,-46.92726],[-163,-46.67858],[-162.5,-46.44432],[-162,-46.22394],[-161.5,-46.01696],[-161,-45.82291],[-160.5,-45.64134],[-160,-45.47184],[-159.5,-45.314],[-159,-45.16744],[-158.5,-45.03181],[-158,-44.90676],[-157.5,-44.79196],[-157,-44.68709],[-156.5,-44.59187],[-156,-44.506],[-155.5,-44.42921],[-155,-44.36124],[-154.5,-44.30184],[-154,-44.25077],[-153.5,-44.2078],[-153,-44.17271],[-152.5,-44.1453],[-152,-44.12535],[-151.5,-44.11269],[-151,-44.10712],[-150.5,-44.10846],[-150,-44.11655],[-149.5,-44.13123],[-149,-44.15233],[-148.5,-44.17971],[-148,-44.21322],[-147.5,-44.25273],[-147,-44.2981],[-146.5,-44.34921],[-146,-44.40594],[-145.5,-44.46816],[-145,-44.53577],[-144.5,-44.60866],[-144,-44.68672],[-143.5,-44.76986],[-143,-44.85798],[-142.5,-44.951],[-142,-45.04882],[-141.5,-45.15137],[-141,-45.25856],[-140.5,-45.37031],[-140.24545,-45.43344]]}},{"type":"Feature","id":"+13710416:south:0","properties":{"id":"+13710416","year":1371,"month":4,"day":16,"time_tdt":"02:00:13","type":"개기일식","type_code":"T","saros":99,"gamma":-0.95084,"magnitude":1.0512,"greatest":{"lat":-50.70462,"lng":-168.88983},"path_width_km":545.4,"duration":"03m30s","delta_t_seconds":360.5,"catalog_number":8024,"source":"NASA Five Millennium Canon of Solar Eclipses","source_url":"https://eclipse.gsfc.nasa.gov/SEsearch/SEsearchmap.php?Ecl=%2B13710416","boundary":"south","name":"1371-04-16 개기일식"},"geometry":{"type":"LineString","coordinates":[[-162.5,-73.62136],[-163,-73.43442],[-163.5,-73.23645],[-164,-73.02637],[-164.5,-72.80288],[-165,-72.56445],[-165.5,-72.30925],[-166,-72.03503],[-166.5,-71.73903],[-167,-71.41774],[-167.5,-71.06664],[-168,-70.67968],[-168.5,-70.24851],[-169,-69.761],[-169.5,-69.1983],[-170,-68.52803],[-170.5,-67.68497],[-171,-66.4871],[-171,-60.84712],[-170.5,-59.33677],[-170,-58.19407],[-169.5,-57.23689],[-169,-56.39986],[-168.5,-55.65045],[-168,-54.96961],[-167.5,-54.34503],[-167,-53.76813],[-166.5,-53.23267],[-166,-52.73389],[-165.5,-52.26805],[-165,-51.83213],[-164.5,-51.42365],[-164,-51.04054],[-163.5,-50.68102],[-163,-50.34355],[-162.5,-50.02678],[-162,-49.72954],[-161.5,-49.45076],[-161,-49.1895],[-160.5,-48.94489],[-160,-48.71615],[-159.5,-48.50256],[-159,-48.30347],[-158.5,-48.11826],[-158,-47.94638],[-157.5,-47.78729],[-157,-47.64051],[-156.5,-47.50558],[-156,-47.38207],[-155.5,-47.26959],[-155,-47.16774],[-154.5,-47.07619],[-154,-46.99458],[-153.5,-46.92261],[-153,-46.85996],[-152.5,-46.80637],[-152,-46.76155],[-151.5,-46.72526],[-151,-46.69725],[-150.5,-46.67728],[-150,-46.66515],[-149.5,-46.66064],[-149,-46.66355],[-148.5,-46.6737],[-148,-46.6909],[-147.5,-46.71499],[-147,-46.74579],[-146.5,-46.78317],[-146,-46.82697],[-145.5,-46.87704],[-145,-46.93327],[-144.5,-46.99551],[-144,-47.06364],[-143.5,-47.13756],[-143,-47.21715],[-142.5,-47.30232],[-142,-47.39295],[-141.5,-47.48896],[-141,-47.59025],[-140.5,-47.69676],[-140.33398,-47.73326]]}}],"attribution":"Eclipse Predictions by Fred Espenak and Jean Meeus (NASA's GSFC)","generated_at":"2026-09-23T03:35:47.258Z"}
