{"type":"FeatureCollection","year":1382,"events":[{"id":"+13820315","year":1382,"month":3,"day":15,"time_tdt":"19:30:25","type":"금환일식","type_code":"A","saros":100,"gamma":0.95359,"magnitude":0.93441,"greatest":{"lat":66.61888,"lng":-156.53906},"path_width_km":826.5,"duration":"05m10s","delta_t_seconds":343.8,"catalog_number":8049,"source":"NASA Five Millennium Canon of Solar Eclipses","source_url":"https://eclipse.gsfc.nasa.gov/SEsearch/SEsearchmap.php?Ecl=%2B13820315"},{"id":"+13820908","year":1382,"month":9,"day":8,"time_tdt":"08:02:24","type":"개기일식","type_code":"T","saros":105,"gamma":-0.92904,"magnitude":1.05412,"greatest":{"lat":-60.49994,"lng":24.29431},"path_width_km":486.7,"duration":"03m29s","delta_t_seconds":343.1,"catalog_number":8050,"source":"NASA Five Millennium Canon of Solar Eclipses","source_url":"https://eclipse.gsfc.nasa.gov/SEsearch/SEsearchmap.php?Ecl=%2B13820908"}],"features":[{"type":"Feature","id":"+13820315:north:0","properties":{"id":"+13820315","year":1382,"month":3,"day":15,"time_tdt":"19:30:25","type":"금환일식","type_code":"A","saros":100,"gamma":0.95359,"magnitude":0.93441,"greatest":{"lat":66.61888,"lng":-156.53906},"path_width_km":826.5,"duration":"05m10s","delta_t_seconds":343.8,"catalog_number":8049,"source":"NASA Five Millennium Canon of Solar Eclipses","source_url":"https://eclipse.gsfc.nasa.gov/SEsearch/SEsearchmap.php?Ecl=%2B13820315","boundary":"north","name":"1382-03-15 금환일식"},"geometry":{"type":"LineString","coordinates":[[165,59.93862],[165.5,59.94848],[166,59.96159],[166.5,59.978],[167,59.99777],[167.5,60.02095],[168,60.04761],[168.5,60.07781],[169,60.11162],[169.5,60.14909],[170,60.1903],[170.5,60.23532],[171,60.28423],[171.5,60.33711],[172,60.39402],[172.5,60.45506],[173,60.52032],[173.5,60.58987],[174,60.66382],[174.5,60.74225],[175,60.82528],[175.5,60.91299],[176,61.00551],[176.5,61.10294],[177,61.2054],[177.5,61.31301],[178,61.42589],[178.5,61.54419],[179,61.66804],[179.5,61.79758],[180,61.93297]]}},{"type":"Feature","id":"+13820315:north:1","properties":{"id":"+13820315","year":1382,"month":3,"day":15,"time_tdt":"19:30:25","type":"금환일식","type_code":"A","saros":100,"gamma":0.95359,"magnitude":0.93441,"greatest":{"lat":66.61888,"lng":-156.53906},"path_width_km":826.5,"duration":"05m10s","delta_t_seconds":343.8,"catalog_number":8049,"source":"NASA Five Millennium Canon of Solar Eclipses","source_url":"https://eclipse.gsfc.nasa.gov/SEsearch/SEsearchmap.php?Ecl=%2B13820315","boundary":"north","name":"1382-03-15 금환일식"},"geometry":{"type":"LineString","coordinates":[[-179.5,62.07436],[-179,62.22193],[-178.5,62.37584],[-178,62.5363],[-177.5,62.70348],[-177,62.8776],[-176.5,63.05887],[-176,63.24755],[-175.5,63.44386],[-175,63.64809],[-174.5,63.86052],[-174,64.08146],[-173.5,64.31124],[-173,64.55024],[-172.5,64.79886],[-172,65.05754],[-171.5,65.32677],[-171,65.6071],[-170.5,65.89915],[-170,66.20363],[-169.5,66.52134],[-169,66.85324],[-168.5,67.20041],[-168,67.5642],[-167.5,67.94621],[-167,68.34845],[-166.5,68.77343],[-166,69.22446],[-165.5,69.706],[-165,70.22431],[-164.5,70.78875],[-164,71.41441],[-163.5,72.12879],[-163,72.99373],[-162.5,74.24172],[-162.5,76.80107],[-163,77.78652],[-163.5,78.39479],[-164,78.8584],[-164.5,79.23917],[-165,79.56462],[-165.5,79.84982],[-166,80.10412],[-166.5,80.33375],[-167,80.54315],[-167.5,80.73558],[-168,80.91353],[-168.5,81.07895],[-169,81.2334],[-169.5,81.37815],[-170,81.51426],[-170.5,81.6426],[-171,81.76392],[-171.5,81.87886],[-172,81.98796],[-172.5,82.09172],[-173,82.19054],[-173.5,82.2848],[-174,82.37482],[-174.5,82.46091],[-175,82.54331],[-175.5,82.62226],[-176,82.69798],[-176.5,82.77066],[-177,82.84047],[-177.5,82.90757],[-178,82.9721],[-178.5,83.03421],[-179,83.09401],[-179.5,83.15162]]}},{"type":"Feature","id":"+13820315:north:2","properties":{"id":"+13820315","year":1382,"month":3,"day":15,"time_tdt":"19:30:25","type":"금환일식","type_code":"A","saros":100,"gamma":0.95359,"magnitude":0.93441,"greatest":{"lat":66.61888,"lng":-156.53906},"path_width_km":826.5,"duration":"05m10s","delta_t_seconds":343.8,"catalog_number":8049,"source":"NASA Five Millennium Canon of Solar Eclipses","source_url":"https://eclipse.gsfc.nasa.gov/SEsearch/SEsearchmap.php?Ecl=%2B13820315","boundary":"north","name":"1382-03-15 금환일식"},"geometry":{"type":"LineString","coordinates":[[180,83.20713],[179.5,83.26065],[179,83.31227],[178.5,83.36207],[178,83.41012],[177.5,83.45649],[177,83.50127],[176.5,83.5445],[176,83.58624],[175.5,83.62655],[175,83.66549],[174.5,83.7031],[174,83.73942],[173.5,83.7745],[173,83.80837],[172.5,83.84109],[172,83.87267],[171.5,83.90316],[171,83.93258],[170.5,83.96098],[170,83.98836],[169.5,84.01477],[169,84.04022],[168.5,84.06474],[168,84.08836],[167.5,84.11109],[167,84.13296],[166.5,84.15398],[166,84.17417],[165.5,84.19354],[165,84.21213],[164.5,84.22993],[164,84.24697],[163.5,84.26326],[163,84.27881],[162.5,84.29363],[162,84.30773],[161.5,84.32113],[161,84.33384],[160.5,84.34586],[160,84.3572],[159.5,84.36788],[159,84.3779],[158.5,84.38726],[158,84.39598],[157.5,84.40405],[157,84.41149],[156.5,84.41831],[156,84.42449],[155.5,84.43006],[155,84.43501],[154.5,84.43934],[154,84.44306],[153.5,84.44617],[153,84.44868],[152.5,84.45058],[152,84.45188],[151.5,84.45257],[151,84.45265],[150.5,84.45214],[150,84.45102],[149.5,84.44929],[149,84.44695],[148.5,84.444],[148,84.44045],[147.5,84.43627],[147,84.43148],[141.5,84.33645],[146.5,84.42607],[142,84.34842],[146,84.42002],[142.5,84.3597],[145.5,84.41335],[143,84.37029],[145,84.40604],[143.5,84.38022],[144.5,84.39808],[144,84.38948]]}},{"type":"Feature","id":"+13820315:center:0","properties":{"id":"+13820315","year":1382,"month":3,"day":15,"time_tdt":"19:30:25","type":"금환일식","type_code":"A","saros":100,"gamma":0.95359,"magnitude":0.93441,"greatest":{"lat":66.61888,"lng":-156.53906},"path_width_km":826.5,"duration":"05m10s","delta_t_seconds":343.8,"catalog_number":8049,"source":"NASA Five Millennium Canon of Solar Eclipses","source_url":"https://eclipse.gsfc.nasa.gov/SEsearch/SEsearchmap.php?Ecl=%2B13820315","boundary":"center","name":"1382-03-15 금환일식"},"geometry":{"type":"LineString","coordinates":[[167.48941,55.05181],[167.5,55.26704],[168,55.28078],[168.5,55.29726],[169,55.31651],[169.5,55.33859],[170,55.36353],[170.5,55.39139],[171,55.4222],[171.5,55.45602],[172,55.49289],[172.5,55.53287],[173,55.57599],[173.5,55.62232],[174,55.67191],[174.5,55.7248],[175,55.78106],[175.5,55.84074],[176,55.9039],[176.5,55.9706],[177,56.04089],[177.5,56.11484],[178,56.1925],[178.5,56.27395],[179,56.35924],[179.5,56.44844],[180,56.54161]]}},{"type":"Feature","id":"+13820315:center:1","properties":{"id":"+13820315","year":1382,"month":3,"day":15,"time_tdt":"19:30:25","type":"금환일식","type_code":"A","saros":100,"gamma":0.95359,"magnitude":0.93441,"greatest":{"lat":66.61888,"lng":-156.53906},"path_width_km":826.5,"duration":"05m10s","delta_t_seconds":343.8,"catalog_number":8049,"source":"NASA Five Millennium Canon of Solar Eclipses","source_url":"https://eclipse.gsfc.nasa.gov/SEsearch/SEsearchmap.php?Ecl=%2B13820315","boundary":"center","name":"1382-03-15 금환일식"},"geometry":{"type":"LineString","coordinates":[[-179.5,56.63883],[-179,56.74016],[-178.5,56.84567],[-178,56.95543],[-177.5,57.06951],[-177,57.18799],[-176.5,57.31093],[-176,57.43841],[-175.5,57.5705],[-175,57.70728],[-174.5,57.84882],[-174,57.9952],[-173.5,58.14648],[-173,58.30275],[-172.5,58.46409],[-172,58.63055],[-171.5,58.80223],[-171,58.97918],[-170.5,59.16149],[-170,59.34922],[-169.5,59.54245],[-169,59.74124],[-168.5,59.94565],[-168,60.15575],[-167.5,60.37161],[-167,60.59327],[-166.5,60.8208],[-166,61.05425],[-165.5,61.29365],[-165,61.53907],[-164.5,61.79052],[-164,62.04806],[-163.5,62.31171],[-163,62.58149],[-162.5,62.85742],[-162,63.13952],[-161.5,63.42778],[-161,63.72221],[-160.5,64.0228],[-160,64.32954],[-159.5,64.64241],[-159,64.96138],[-158.5,65.28641],[-158,65.61747],[-157.5,65.95451],[-157,66.29748],[-156.5,66.64632],[-156,67.00097],[-155.5,67.36136],[-155,67.72743],[-154.5,68.09911],[-154,68.47631],[-153.5,68.85898],[-153,69.24705],[-152.5,69.64044],[-152,70.03909],[-151.5,70.44297],[-151,70.85202],[-150.5,71.26623],[-150,71.68558],[-149.5,72.1101],[-149,72.53981],[-148.5,72.97481],[-148,73.41521],[-147.5,73.86119],[-147,74.31297],[-146.5,74.77088],[-146,75.23533],[-145.5,75.70687],[-145,76.18622],[-144.5,76.67432],[-144,77.17242],[-143.5,77.68219],[-143,78.20594],[-142.5,78.74692],[-142,79.30992],[-141.5,79.90244],[-141,80.53723],[-140.5,81.23925],[-140,82.07224],[-139.5,83.46065],[-139.5,84.21827],[-140,85.21628],[-140.5,85.6581],[-141,85.96832],[-141.5,86.21078],[-142,86.41059],[-142.5,86.58063],[-143,86.72854],[-143.5,86.85928],[-144,86.97624],[-144.5,87.08189],[-145,87.17808],[-145.5,87.26623],[-146,87.34746],[-146.5,87.42267],[-147,87.49258],[-147.5,87.55782],[-148,87.61888],[-148.5,87.6762],[-149,87.73014],[-149.5,87.78103],[-150,87.82913],[-150.5,87.87469],[-151,87.91792],[-151.5,87.959],[-152,87.9981],[-152.5,88.03537],[-153,88.07094],[-153.5,88.10493],[-154,88.13744],[-154.5,88.16858],[-155,88.19842],[-155.5,88.22705],[-156,88.25455],[-156.5,88.28098],[-157,88.30639],[-157.5,88.33086],[-158,88.35443],[-158.5,88.37714],[-159,88.39905],[-159.5,88.4202],[-160,88.44061],[-160.5,88.46034],[-161,88.4794],[-161.5,88.49784],[-162,88.51568],[-162.5,88.53295],[-163,88.54967],[-163.5,88.56587],[-164,88.58157],[-164.5,88.5968],[-165,88.61156],[-165.5,88.62588],[-166,88.63978],[-166.5,88.65327],[-167,88.66637],[-167.5,88.6791],[-168,88.69146],[-168.5,88.70348],[-169,88.71515],[-169.5,88.72651],[-170,88.73755],[-170.5,88.74829],[-171,88.75873],[-171.5,88.7689],[-172,88.77879],[-172.5,88.78841],[-173,88.79778],[-173.5,88.8069],[-174,88.81579],[-174.5,88.82444],[-175,88.83286],[-175.5,88.84106],[-176,88.84905],[-176.5,88.85683],[-177,88.86442],[-177.5,88.8718],[-178,88.879],[-178.5,88.88601],[-179,88.89284],[-179.5,88.89949]]}},{"type":"Feature","id":"+13820315:center:2","properties":{"id":"+13820315","year":1382,"month":3,"day":15,"time_tdt":"19:30:25","type":"금환일식","type_code":"A","saros":100,"gamma":0.95359,"magnitude":0.93441,"greatest":{"lat":66.61888,"lng":-156.53906},"path_width_km":826.5,"duration":"05m10s","delta_t_seconds":343.8,"catalog_number":8049,"source":"NASA Five Millennium Canon of Solar Eclipses","source_url":"https://eclipse.gsfc.nasa.gov/SEsearch/SEsearchmap.php?Ecl=%2B13820315","boundary":"center","name":"1382-03-15 금환일식"},"geometry":{"type":"LineString","coordinates":[[180,88.90597],[179.5,88.91229],[179,88.91844],[178.5,88.92444],[178,88.93028],[177.5,88.93597],[177,88.94151],[176.5,88.9469],[176,88.95216],[175.5,88.95727],[175,88.96225],[174.5,88.9671],[174,88.97182],[173.5,88.97642],[173,88.98089],[172.5,88.98523],[172,88.98946],[171.5,88.99357],[171,88.99757],[170.5,89.00145],[170,89.00522],[169.5,89.00888],[169,89.01244],[168.5,89.01589],[168,89.01923],[167.5,89.02248],[167,89.02562],[166.5,89.02867],[166,89.03162],[165.5,89.03447],[165,89.03723],[164.5,89.0399],[164,89.04247],[163.5,89.04495],[163,89.04735],[162.5,89.04965],[162,89.05187],[161.5,89.054],[161,89.05605],[160.5,89.05801],[160,89.05989],[159.5,89.06168],[159,89.0634],[158.5,89.06503],[158,89.06658],[157.5,89.06805],[157,89.06944],[156.5,89.07076],[156,89.07199],[155.5,89.07315],[155,89.07423],[154.5,89.07523],[154,89.07616],[153.5,89.07702],[153,89.07779],[152.5,89.07849],[152,89.07912],[151.5,89.07967],[151,89.08015],[150.5,89.08056],[150,89.08089],[149.5,89.08114],[149,89.08133],[148.5,89.08144],[148,89.08147],[147.5,89.08143],[147,89.08132],[146.5,89.08114],[146,89.08088],[145.5,89.08055],[145,89.08014],[144.5,89.07966],[144,89.0791],[143.5,89.07848],[143,89.07777],[142.5,89.07699],[142,89.07614],[141.5,89.07521],[141,89.0742],[140.5,89.07312],[140,89.07196],[139.5,89.07072],[139,89.0694],[138.5,89.06801],[138,89.06653],[137.5,89.06498],[137,89.06335],[136.5,89.06163],[136,89.05983],[135.5,89.05795],[135,89.05599],[134.5,89.05394],[134,89.0518],[133.5,89.04958],[133,89.04727],[132.5,89.04488],[132,89.04239],[131.5,89.03981],[131,89.03714],[130.5,89.03438],[130,89.03152],[129.5,89.02857],[129,89.02552],[128.5,89.02237],[128,89.01912],[127.5,89.01577],[127,89.01231],[126.5,89.00875],[126,89.00508],[125.5,89.00131],[125,88.99742],[124.5,88.99342],[124,88.9893],[123.5,88.98507],[123,88.98071],[122.5,88.97624],[122,88.97164],[121.5,88.96691],[121,88.96205],[120.5,88.95706],[120,88.95194],[119.5,88.94667],[119,88.94127],[118.5,88.93572],[118,88.93002],[117.5,88.92417],[117,88.91816],[116.5,88.91199],[116,88.90567],[115.5,88.89917],[115,88.8925],[114.5,88.88565],[114,88.87863],[113.5,88.87142],[113,88.86401],[111.5,88.8406],[111,88.83238],[110.5,88.82393],[110,88.81526],[109.5,88.80635],[109,88.7972],[108.5,88.7878],[108,88.77815],[107.5,88.76822],[107,88.75803],[106.5,88.74754],[106,88.73677],[105.5,88.72569],[105,88.71429],[104.5,88.70257],[104,88.6905],[103.5,88.67809],[103,88.66531],[102.5,88.65215],[102,88.63859],[101.5,88.62462],[101,88.61023],[100.5,88.59539],[100,88.58008],[99.5,88.56429],[99,88.548],[98.5,88.53117],[98,88.51379],[97.5,88.49583],[97,88.47726],[96.5,88.45806],[112.5,88.85641],[112,88.84861]]}},{"type":"Feature","id":"+13820315:south:0","properties":{"id":"+13820315","year":1382,"month":3,"day":15,"time_tdt":"19:30:25","type":"금환일식","type_code":"A","saros":100,"gamma":0.95359,"magnitude":0.93441,"greatest":{"lat":66.61888,"lng":-156.53906},"path_width_km":826.5,"duration":"05m10s","delta_t_seconds":343.8,"catalog_number":8049,"source":"NASA Five Millennium Canon of Solar Eclipses","source_url":"https://eclipse.gsfc.nasa.gov/SEsearch/SEsearchmap.php?Ecl=%2B13820315","boundary":"south","name":"1382-03-15 금환일식"},"geometry":{"type":"LineString","coordinates":[[169.28711,51.59721],[169.5,51.60397],[170,51.62162],[170.5,51.64178],[171,51.66449],[171.5,51.6898],[172,51.71773],[172.5,51.74833],[173,51.78164],[173.5,51.8177],[174,51.85655],[174.5,51.89824],[175,51.9428],[175.5,51.99028],[176,52.04073],[176.5,52.09419],[177,52.15071],[177.5,52.21034],[178,52.27311],[178.5,52.33909],[179,52.40832],[179.5,52.48084],[180,52.55672]]}},{"type":"Feature","id":"+13820315:south:1","properties":{"id":"+13820315","year":1382,"month":3,"day":15,"time_tdt":"19:30:25","type":"금환일식","type_code":"A","saros":100,"gamma":0.95359,"magnitude":0.93441,"greatest":{"lat":66.61888,"lng":-156.53906},"path_width_km":826.5,"duration":"05m10s","delta_t_seconds":343.8,"catalog_number":8049,"source":"NASA Five Millennium Canon of Solar Eclipses","source_url":"https://eclipse.gsfc.nasa.gov/SEsearch/SEsearchmap.php?Ecl=%2B13820315","boundary":"south","name":"1382-03-15 금환일식"},"geometry":{"type":"LineString","coordinates":[[-179.5,52.636],[-179,52.71873],[-178.5,52.80497],[-178,52.89476],[-177.5,52.98816],[-177,53.08522],[-176.5,53.18601],[-176,53.29056],[-175.5,53.39893],[-175,53.51119],[-174.5,53.62737],[-174,53.74754],[-173.5,53.87174],[-173,54.00004],[-172.5,54.13248],[-172,54.26911],[-171.5,54.40999],[-171,54.55516],[-170.5,54.70467],[-170,54.85856],[-169.5,55.01689],[-169,55.1797],[-168.5,55.34702],[-168,55.51889],[-167.5,55.69535],[-167,55.87643],[-166.5,56.06216],[-166,56.25257],[-165.5,56.44767],[-165,56.64748],[-164.5,56.85202],[-164,57.06128],[-163.5,57.27528],[-163,57.49401],[-162.5,57.71746],[-162,57.94561],[-161.5,58.17843],[-161,58.41591],[-160.5,58.65799],[-160,58.90463],[-159.5,59.15579],[-159,59.41139],[-158.5,59.67137],[-158,59.93565],[-157.5,60.20413],[-157,60.47673],[-156.5,60.75333],[-156,61.03382],[-155.5,61.31807],[-155,61.60596],[-154.5,61.89734],[-154,62.19206],[-153.5,62.48996],[-153,62.79088],[-152.5,63.09464],[-152,63.40107],[-151.5,63.70997],[-151,64.02115],[-150.5,64.33441],[-150,64.64956],[-149.5,64.96638],[-149,65.28467],[-148.5,65.6042],[-148,65.92477],[-147.5,66.24617],[-147,66.56816],[-146.5,66.89054],[-146,67.2131],[-145.5,67.53561],[-145,67.85786],[-144.5,68.17965],[-144,68.50077],[-143.5,68.82102],[-143,69.1402],[-142.5,69.45812],[-142,69.77458],[-141.5,70.08942],[-141,70.40244],[-140.5,70.71348],[-140,71.02238],[-139.5,71.32898],[-139,71.63313],[-138.5,71.93469],[-138,72.23351],[-137.5,72.52946],[-137,72.82244],[-136.5,73.11231],[-136,73.39897],[-135.5,73.68233],[-135,73.96227],[-134.5,74.23872],[-134,74.51159],[-133.5,74.78082],[-133,75.04632],[-132.5,75.30805],[-132.5,75.30804],[-132,75.56593],[-131.5,75.81994],[-131,76.07001],[-130.5,76.31612],[-130,76.55824],[-129.5,76.79633],[-129,77.03038],[-128.5,77.26038],[-128,77.48631],[-127.5,77.70816],[-127,77.92595],[-126.5,78.13967],[-126,78.34934],[-125.5,78.55496],[-125,78.75655],[-124.5,78.95415],[-124.5,78.95414],[-124,79.14776],[-123.5,79.33742],[-123,79.52317],[-122.5,79.70503],[-122,79.88305],[-121.5,80.05727],[-121,80.22773],[-120.5,80.39448],[-120,80.55756],[-119.5,80.71702],[-119,80.87293],[-118.5,81.02532],[-118,81.17426],[-117.5,81.31981],[-117,81.46201],[-116.5,81.60094],[-116,81.73664],[-115.5,81.86918],[-115,81.99862],[-114.5,82.12502],[-114,82.24844],[-113.5,82.36894],[-113,82.48658],[-112.5,82.60143],[-112,82.71355],[-111.5,82.82298],[-111,82.92981],[-110.5,83.03408],[-110,83.13585],[-109.5,83.23518],[-109,83.33214],[-108.5,83.42677],[-108,83.51913],[-107.5,83.60929],[-107,83.69728],[-106.5,83.78317],[-106,83.86701],[-105.5,83.94885],[-105,84.02873],[-104.5,84.10672],[-104,84.18285],[-104,84.18286],[-103.5,84.25718],[-103.5,84.25719],[-103,84.32976],[-102.5,84.40061],[-102,84.4698],[-101.5,84.53736],[-101.5,84.53737],[-101,84.60334],[-100.5,84.66778],[-100,84.73071],[-99.5,84.79218],[-99,84.85222],[-98.5,84.91088],[-98,84.96818],[-97.5,85.02416],[-97,85.07886],[-96.5,85.13231],[-96,85.18454],[-95.5,85.23558],[-95,85.28546],[-94.5,85.33422],[-94,85.38189],[-93.5,85.42848],[-93,85.47403],[-92.5,85.51856],[-92,85.5621],[-91.5,85.60468],[-91,85.64631],[-90.5,85.68703],[-90,85.72685],[-89.5,85.7658],[-89,85.80389],[-88.5,85.84116],[-88,85.87761],[-87.5,85.91328],[-87.5,85.91327],[-87,85.94817],[-86.5,85.98231],[-86,86.01571],[-85.5,86.04839],[-85,86.08038],[-84.5,86.11168],[-84,86.14231],[-83.5,86.17229],[-83,86.20162],[-82.5,86.23034],[-82,86.25845],[-81.5,86.28596],[-81,86.31289],[-80.5,86.33925],[-80,86.36505],[-79.5,86.39031],[-79,86.41503],[-78.5,86.43924],[-78,86.46293],[-77.5,86.48612],[-77,86.50883],[-76.5,86.53106],[-76,86.55281],[-75.5,86.57411],[-75,86.59496],[-74.5,86.61537],[-74,86.63535],[-73.5,86.6549],[-73,86.67404],[-72.5,86.69277],[-72,86.71111],[-71.5,86.72905],[-71,86.7466],[-70.5,86.76378],[-70,86.78059],[-69.5,86.79704],[-69,86.81313],[-68.5,86.82887],[-68,86.84427],[-67.5,86.85933],[-67,86.87406],[-66.5,86.88846],[-66,86.90254],[-65.5,86.9163],[-65,86.92975],[-64.5,86.9429],[-64,86.95575],[-63.5,86.9683],[-63,86.98056],[-63,86.98057],[-62.5,86.99254],[-62,87.00423],[-61.5,87.01565],[-61,87.02679],[-60.5,87.03766],[-60,87.04826],[-59.5,87.05861],[-59,87.06869],[-58.5,87.07852],[-58,87.0881],[-57.5,87.09743],[-57,87.10651],[-56.5,87.11535],[-56,87.12396],[-56,87.12395],[-55.5,87.13232],[-55,87.14045],[-54.5,87.14836],[-54,87.15603],[-53.5,87.16348],[-53,87.17071],[-52.5,87.17771],[-52,87.1845],[-51.5,87.19107],[-51,87.19743],[-50.5,87.20357],[-50,87.20951],[-49.5,87.21523],[-49,87.22075],[-48.5,87.22607],[-48,87.23118],[-47.5,87.2361],[-47,87.24081],[-46.5,87.24532],[-46,87.24964],[-45.5,87.25377],[-45,87.2577],[-44.5,87.26143],[-44,87.26498],[-43.5,87.26833],[-43,87.2715],[-42.5,87.27447],[-42,87.27726],[-41.5,87.27986],[-41,87.28228],[-40.5,87.28451],[-40,87.28656],[-39.5,87.28842],[-39,87.2901],[-38.5,87.2916],[-38,87.29291],[-37.5,87.29404],[-37.5,87.29405],[-37,87.295],[-36.5,87.29577],[-36,87.29636],[-35.5,87.29677],[-35,87.29699],[-34.5,87.29704],[-34,87.29691],[-33.5,87.2966],[-33,87.2961],[-32.5,87.29543],[-32,87.29457],[-31.5,87.29354],[-31,87.29232],[-30.5,87.29092],[-30,87.28934],[-29.5,87.28757],[-29,87.28562],[-28.5,87.28349],[-28,87.28118],[-27.5,87.27868],[-27,87.27599],[-26.5,87.27312],[-26,87.27006],[-25.5,87.26681],[-25,87.26337],[-24.5,87.25974],[-24,87.25592],[-23.5,87.25191],[-23,87.2477],[-22.5,87.2433],[-22,87.23871],[-21.5,87.23391],[-21,87.22892],[-20.5,87.22372],[-20,87.21832],[-19.5,87.21272],[-19,87.20691],[-18.5,87.2009],[-18,87.19467],[-17.5,87.18824],[-17,87.18159],[-16.5,87.17472],[-16,87.16764],[-15.5,87.16033],[-15,87.15281],[-14.5,87.14506],[-14,87.13708],[-13.5,87.12887],[-13,87.12043],[-12.5,87.11176],[-12,87.10284],[-11.5,87.09369],[-11,87.08429],[-10.5,87.07465],[-10,87.06475],[-10.5,87.07465],[-9.5,87.0546],[-10,87.06475],[-9,87.04419],[-9.5,87.0546],[-9,87.04419],[-8.5,87.03353],[-8,87.02259],[-7.5,87.01139],[-7,86.99992],[-6.5,86.98817],[-6,86.97615],[-5.5,86.96383],[-5,86.95123],[-4.69141,86.94331]]}},{"type":"Feature","id":"+13820908:north:0","properties":{"id":"+13820908","year":1382,"month":9,"day":8,"time_tdt":"08:02:24","type":"개기일식","type_code":"T","saros":105,"gamma":-0.92904,"magnitude":1.05412,"greatest":{"lat":-60.49994,"lng":24.29431},"path_width_km":486.7,"duration":"03m29s","delta_t_seconds":343.1,"catalog_number":8050,"source":"NASA Five Millennium Canon of Solar Eclipses","source_url":"https://eclipse.gsfc.nasa.gov/SEsearch/SEsearchmap.php?Ecl=%2B13820908","boundary":"north","name":"1382-09-08 개기일식"},"geometry":{"type":"LineString","coordinates":[[-17,-48.97886],[-16.5,-48.95415],[-16,-48.93162],[-15.5,-48.91131],[-15,-48.89323],[-14.5,-48.87744],[-14,-48.86394],[-13.5,-48.85279],[-13,-48.84401],[-12.5,-48.83764],[-12,-48.8337],[-11.5,-48.83225],[-11,-48.8333],[-10.5,-48.8369],[-10,-48.84308],[-9.5,-48.85188],[-9,-48.86334],[-8.5,-48.87749],[-8,-48.89438],[-7.5,-48.91404],[-7,-48.93651],[-6.5,-48.96184],[-6,-48.99006],[-5.5,-49.02121],[-5,-49.05533],[-4.5,-49.09247],[-4,-49.13266],[-3.5,-49.17596],[-3,-49.2224],[-2.5,-49.27202],[-2,-49.32487],[-1.5,-49.38099],[-1,-49.44042],[-0.5,-49.50321],[0,-49.56939],[0.5,-49.63902],[1,-49.71214],[1.5,-49.78878],[2,-49.869],[2.5,-49.95282],[3,-50.0403],[3.5,-50.13148],[4,-50.22639],[4.5,-50.32507],[5,-50.42757],[5.5,-50.53392],[6,-50.64415],[6.5,-50.75831],[7,-50.87642],[7.5,-50.99852],[8,-51.12464],[8.5,-51.2548],[9,-51.38904],[9.5,-51.52738],[10,-51.66983],[10.5,-51.81642],[11,-51.96717],[11.5,-52.12208],[12,-52.28117],[12.5,-52.44445],[13,-52.61191],[13.5,-52.78356],[14,-52.95939],[14.5,-53.13939],[15,-53.32356],[15.5,-53.51187],[16,-53.7043],[16.5,-53.90082],[17,-54.1014],[17.5,-54.30601],[18,-54.51459],[18.5,-54.72712],[19,-54.94352],[19.5,-55.16374],[20,-55.38772],[20.5,-55.61539],[21,-55.84667],[21.5,-56.08149],[22,-56.31974],[22.5,-56.56135],[23,-56.80621],[23.5,-57.05423],[24,-57.30529],[24.5,-57.55929],[25,-57.8161],[25.5,-58.07561],[26,-58.33769],[26.5,-58.60221],[27,-58.86904],[27.5,-59.13804],[28,-59.40907],[28.5,-59.682],[29,-59.95668],[29.5,-60.23297],[30,-60.51071],[30.5,-60.78977],[31,-61.06999],[31.5,-61.35122],[32,-61.63332],[32.5,-61.91615],[33,-62.19954],[33.5,-62.48336],[34,-62.76747],[34.5,-63.05171],[35,-63.33596],[35.5,-63.62006],[36,-63.90389],[36.5,-64.18732],[37,-64.47021],[37.5,-64.75243],[38,-65.03386],[38.5,-65.31439],[39,-65.5939],[39.5,-65.87227],[40,-66.14939],[40.5,-66.42517],[41,-66.69949],[41.5,-66.97227],[42,-67.24341],[42.5,-67.51282],[43,-67.78041],[43.5,-68.04611],[44,-68.30984],[44.5,-68.57152],[45,-68.83109],[45.5,-69.08848],[46,-69.34364],[46.5,-69.59649],[47,-69.847],[47.5,-70.0951],[48,-70.34076],[48.5,-70.58392],[49,-70.82455],[49.5,-71.06262],[50,-71.29808],[50.5,-71.53092],[51,-71.76109],[51.5,-71.98858],[52,-72.21337],[52.5,-72.43543],[52.5,-72.43544],[53,-72.65476],[53.5,-72.87133],[54,-73.08514],[54.5,-73.29618],[55,-73.50444],[55.5,-73.70991],[56,-73.9126],[56.5,-74.11251],[57,-74.30964],[57.5,-74.50398],[58,-74.69556],[58.5,-74.88437],[59,-75.07042],[59.5,-75.25374],[60,-75.43432],[60.5,-75.61218],[61,-75.78734],[61.5,-75.95981],[62,-76.12962],[62.5,-76.29677],[63,-76.4613],[63.5,-76.62322],[64,-76.78255],[64.5,-76.93932],[65,-77.09355],[65.5,-77.24526],[66,-77.39449],[66.5,-77.54125],[67,-77.68557],[67.5,-77.82749],[68,-77.96702],[68.5,-78.1042],[69,-78.23905],[69.5,-78.37161],[70,-78.5019],[70.5,-78.62995],[71,-78.75579],[71.5,-78.87946],[72,-79.00098],[72.5,-79.12037],[73,-79.23769],[73.5,-79.35294],[74,-79.46616],[74.5,-79.57739],[75,-79.68666],[75.5,-79.79398],[76,-79.8994],[76.5,-80.00294],[77,-80.10464],[77.5,-80.20452],[78,-80.30261],[78.5,-80.39894],[79,-80.49355],[79.5,-80.58645],[80,-80.67768],[80.5,-80.76727],[81,-80.85524],[81.5,-80.94162],[82,-81.02644],[82.5,-81.10972],[83,-81.1915],[83.5,-81.2718],[84,-81.35064],[84.5,-81.42805],[85,-81.50406],[85.5,-81.57868],[86,-81.65195],[86.5,-81.72389],[87,-81.79453],[87.5,-81.86387],[88,-81.93196],[88.5,-81.99881],[89,-82.06444],[89.5,-82.12888],[90,-82.19214],[90.5,-82.25425],[91,-82.31523],[91.5,-82.3751],[92,-82.43388],[92.5,-82.49159],[93,-82.54824],[93.5,-82.60386],[94,-82.65847],[94.5,-82.71207],[95,-82.7647],[95.5,-82.81637],[96,-82.86709],[96.5,-82.91689],[97,-82.96577],[97.5,-83.01376],[98,-83.06087],[98.5,-83.10711],[99,-83.15251],[99.5,-83.19707],[100,-83.24081],[100.5,-83.28375],[101,-83.32589],[101.5,-83.36725],[102,-83.40785],[102.5,-83.4477],[103,-83.48681],[103.5,-83.52519],[104,-83.56285],[104.5,-83.59981],[105,-83.63608],[105.5,-83.67167],[106,-83.70659],[106.5,-83.74086],[107,-83.77447],[107.5,-83.80745],[108,-83.8398],[108.5,-83.87154],[109,-83.90266],[109.5,-83.93319],[112.5,-84.10431],[110,-83.96313],[112,-84.07718],[110.5,-83.99249],[111.5,-84.04951],[111,-84.02128]]}},{"type":"Feature","id":"+13820908:center:0","properties":{"id":"+13820908","year":1382,"month":9,"day":8,"time_tdt":"08:02:24","type":"개기일식","type_code":"T","saros":105,"gamma":-0.92904,"magnitude":1.05412,"greatest":{"lat":-60.49994,"lng":24.29431},"path_width_km":486.7,"duration":"03m29s","delta_t_seconds":343.1,"catalog_number":8050,"source":"NASA Five Millennium Canon of Solar Eclipses","source_url":"https://eclipse.gsfc.nasa.gov/SEsearch/SEsearchmap.php?Ecl=%2B13820908","boundary":"center","name":"1382-09-08 개기일식"},"geometry":{"type":"LineString","coordinates":[[-17.86528,-50.83547],[-17.5,-50.85069],[-17,-50.83026],[-16.5,-50.81215],[-16,-50.79638],[-15.5,-50.78299],[-15,-50.77201],[-14.5,-50.76347],[-14,-50.75742],[-13.5,-50.75387],[-13,-50.75287],[-12.5,-50.75446],[-12,-50.75866],[-11.5,-50.76553],[-11,-50.77509],[-10.5,-50.78739],[-10,-50.80246],[-9.5,-50.82035],[-9,-50.84108],[-8.5,-50.86472],[-8,-50.89128],[-7.5,-50.92082],[-7,-50.95338],[-6.5,-50.989],[-6,-51.02772],[-5.5,-51.06959],[-5,-51.11465],[-4.5,-51.16294],[-4,-51.21451],[-3.5,-51.2694],[-3,-51.32766],[-2.5,-51.38933],[-2,-51.45445],[-1.5,-51.52308],[-1,-51.59525],[-0.5,-51.67102],[0,-51.75041],[0.5,-51.83349],[1,-51.92029],[1.5,-52.01086],[2,-52.10524],[2.5,-52.20347],[3,-52.3056],[3.5,-52.41166],[4,-52.52169],[4.5,-52.63574],[5,-52.75384],[5.5,-52.87603],[6,-53.00234],[6.5,-53.1328],[7,-53.26745],[7.5,-53.40632],[8,-53.54943],[8.5,-53.6968],[9,-53.84846],[9.5,-54.00442],[10,-54.16471],[10.5,-54.32933],[11,-54.4983],[11.5,-54.67161],[12,-54.84928],[12.5,-55.0313],[13,-55.21765],[13.5,-55.40834],[14,-55.60335],[14.5,-55.80266],[15,-56.00623],[15.5,-56.21405],[16,-56.42607],[16.5,-56.64226],[17,-56.86256],[17.5,-57.08693],[18,-57.31531],[18.5,-57.54764],[19,-57.78384],[19.5,-58.02384],[20,-58.26756],[20.5,-58.51491],[21,-58.76581],[21.5,-59.02014],[22,-59.27782],[22.5,-59.53873],[23,-59.80276],[23.5,-60.06978],[24,-60.33968],[24.5,-60.61233],[25,-60.88759],[25.5,-61.16534],[26,-61.44542],[26.5,-61.7277],[27,-62.01203],[27.5,-62.29826],[28,-62.58625],[28.5,-62.87584],[29,-63.16688],[29.5,-63.45921],[30,-63.75268],[30.5,-64.04713],[31,-64.3424],[31.5,-64.63835],[32,-64.93482],[32.5,-65.23165],[33,-65.52869],[33.5,-65.8258],[34,-66.12281],[34.5,-66.4196],[35,-66.716],[35.5,-67.01189],[36,-67.30712],[36.5,-67.60156],[37,-67.89508],[37.5,-68.18754],[38,-68.47882],[38.5,-68.7688],[39,-69.05737],[39.5,-69.3444],[40,-69.62978],[40.5,-69.91342],[41,-70.1952],[41.5,-70.47503],[42,-70.75281],[42.5,-71.02845],[43,-71.30186],[43.5,-71.57296],[44,-71.84167],[44.5,-72.10791],[45,-72.37162],[45.5,-72.63272],[46,-72.89115],[46.5,-73.14685],[47,-73.39977],[47.5,-73.64984],[48,-73.89702],[48.5,-74.14127],[49,-74.38253],[49.5,-74.62078],[50,-74.85598],[50.5,-75.08809],[51,-75.31708],[51.5,-75.54294],[52,-75.76563],[52.5,-75.98514],[53,-76.20146],[53.5,-76.41456],[54,-76.62444],[54.5,-76.8311],[55,-77.03452],[55.5,-77.23471],[56,-77.43167],[56.5,-77.62539],[57,-77.8159],[57.5,-78.00319],[58,-78.18728],[58.5,-78.36817],[59,-78.5459],[59.5,-78.72047],[60,-78.8919],[60.5,-79.06023],[61,-79.22546],[61.5,-79.38762],[62,-79.54675],[62.5,-79.70288],[63,-79.85602],[63.5,-80.00622],[64,-80.15351],[64.5,-80.29792],[65,-80.43949],[65.5,-80.57825],[66,-80.71425],[66.5,-80.84751],[67,-80.97808],[67.5,-81.10601],[68,-81.23132],[68.5,-81.35406],[69,-81.47427],[69.5,-81.592],[70,-81.70728],[70.5,-81.82016],[71,-81.93068],[71.5,-82.03889],[72,-82.14481],[72.5,-82.24851],[73,-82.35001],[73.5,-82.44936],[74,-82.54661],[74.5,-82.64179],[75,-82.73494],[75.5,-82.82612],[76,-82.91534],[76.5,-83.00267],[77,-83.08813],[77.5,-83.17177],[78,-83.25362],[78.5,-83.33372],[79,-83.41212],[79.5,-83.48884],[80,-83.56392],[80.5,-83.6374],[81,-83.70932],[81.5,-83.7797],[82,-83.84859],[82.5,-83.91601],[83,-83.982],[83.5,-84.04659],[84,-84.10981],[84.5,-84.1717],[85,-84.23228],[85.5,-84.29158],[86,-84.34963],[86.5,-84.40646],[87,-84.46209],[87.5,-84.51656],[88,-84.56989],[88.5,-84.62211],[89,-84.67323],[89.5,-84.72329],[90,-84.77231],[90.5,-84.82031],[91,-84.86732],[91.5,-84.91335],[92,-84.95844],[92.5,-85.00259],[93,-85.04583],[93.5,-85.08819],[94,-85.12967],[94.5,-85.17031],[95,-85.21011],[95.5,-85.2491],[96,-85.2873],[96.5,-85.32471],[97,-85.36136],[97.5,-85.39727],[98,-85.43245],[98.5,-85.46691],[99,-85.50068],[99.5,-85.53376],[100,-85.56617],[100.5,-85.59792],[101,-85.62903],[101.5,-85.65951],[101.5,-85.65952],[102,-85.68938],[96.23118,-86.19213]]}},{"type":"Feature","id":"+13820908:south:0","properties":{"id":"+13820908","year":1382,"month":9,"day":8,"time_tdt":"08:02:24","type":"개기일식","type_code":"T","saros":105,"gamma":-0.92904,"magnitude":1.05412,"greatest":{"lat":-60.49994,"lng":24.29431},"path_width_km":486.7,"duration":"03m29s","delta_t_seconds":343.1,"catalog_number":8050,"source":"NASA Five Millennium Canon of Solar Eclipses","source_url":"https://eclipse.gsfc.nasa.gov/SEsearch/SEsearchmap.php?Ecl=%2B13820908","boundary":"south","name":"1382-09-08 개기일식"},"geometry":{"type":"LineString","coordinates":[[-18.50195,-52.91184],[-18.5,-52.91177],[-18,-52.89388],[-17.5,-52.87844],[-17,-52.86548],[-16.5,-52.85503],[-16.5,-52.85504],[-16,-52.84714],[-15.5,-52.84183],[-15,-52.83914],[-14.5,-52.8391],[-14,-52.84177],[-13.5,-52.84716],[-13,-52.85533],[-12.5,-52.86631],[-12,-52.88015],[-11.5,-52.89687],[-11,-52.91653],[-10.5,-52.93917],[-10,-52.96482],[-9.5,-52.99354],[-9,-53.02536],[-8.5,-53.06033],[-8,-53.09849],[-7.5,-53.1399],[-7,-53.18459],[-6.5,-53.2326],[-6,-53.284],[-5.5,-53.33882],[-5,-53.39711],[-4.5,-53.45893],[-4,-53.52431],[-3.5,-53.5933],[-3,-53.66596],[-2.5,-53.74233],[-2,-53.82246],[-1.5,-53.9064],[-1,-53.99419],[-1,-53.9942],[-0.5,-54.0859],[0,-54.18155],[0.5,-54.2812],[1,-54.3849],[1.5,-54.49269],[2,-54.60462],[2.5,-54.72073],[3,-54.84107],[3.5,-54.96567],[4,-55.09459],[4.5,-55.22785],[5,-55.3655],[5.5,-55.50757],[6,-55.6541],[6,-55.65411],[6.5,-55.80513],[7,-55.96067],[7.5,-56.12075],[8,-56.28541],[8.5,-56.45466],[9,-56.62853],[9.5,-56.80702],[10,-56.99015],[10.5,-57.17792],[11,-57.37035],[11.5,-57.56742],[12,-57.76914],[12,-57.76915],[12.5,-57.9755],[13,-58.18648],[13.5,-58.40206],[14,-58.62222],[14.5,-58.84693],[15,-59.07616],[15.5,-59.30985],[16,-59.54797],[16.5,-59.79047],[17,-60.03728],[17.5,-60.28835],[18,-60.54359],[18.5,-60.80295],[19,-61.06632],[19.5,-61.33363],[20,-61.60478],[20.5,-61.87968],[21,-62.15821],[21.5,-62.44026],[22,-62.72573],[22.5,-63.01449],[23,-63.3064],[23.5,-63.60135],[24,-63.8992],[24.5,-64.19981],[25,-64.50304],[25.5,-64.80873],[26,-65.11675],[26.5,-65.42694],[27,-65.73914],[27,-65.73915],[27.5,-66.05321],[28,-66.36898],[28.5,-66.6863],[29,-67.005],[29.5,-67.32492],[30,-67.64591],[30.5,-67.96779],[31,-68.29042],[31.5,-68.61363],[32,-68.93726],[32.5,-69.26115],[33,-69.58514],[33.5,-69.90908],[34,-70.23282],[34.5,-70.55619],[35,-70.87905],[35.5,-71.20125],[36,-71.52265],[36.5,-71.84309],[37,-72.16243],[37.5,-72.48053],[38,-72.79725],[38.5,-73.11246],[39,-73.42602],[39.5,-73.73779],[40,-74.04765],[40.5,-74.35547],[41,-74.66112],[41.5,-74.96448],[42,-75.26542],[42.5,-75.56383],[43,-75.85958],[43.5,-76.15257],[44,-76.44267],[44.5,-76.72977],[45,-77.01377],[45.5,-77.29456],[46,-77.57203],[46.5,-77.84608],[47,-78.11661],[47.5,-78.38352],[48,-78.64672],[48.5,-78.90611],[49,-79.16161],[49.5,-79.41314],[50,-79.6606],[50.5,-79.90393],[51,-80.14306],[51.5,-80.3779],[52,-80.60841],[52.5,-80.83452],[53,-81.05618],[53.5,-81.27335],[54,-81.48598],[54.5,-81.69404],[55,-81.8975],[55.5,-82.09635],[56,-82.29056],[56.5,-82.48014],[57,-82.66509],[57.5,-82.8454],[58,-83.0211],[58.5,-83.19222],[59,-83.35877],[59.5,-83.5208],[60,-83.67836],[60.5,-83.83148],[61,-83.98023],[61.5,-84.12466],[62,-84.26485],[62.5,-84.40087],[63,-84.53279],[63.5,-84.66069],[64,-84.78466],[64.5,-84.90478],[65,-85.02114],[65.5,-85.13383],[66,-85.24295],[66.5,-85.3486],[67,-85.45086],[67.5,-85.54983],[68,-85.64561],[68.5,-85.73829],[69,-85.82797],[69.5,-85.91474],[70,-85.99869],[70.5,-86.07993],[71,-86.15852],[71.5,-86.23458],[72,-86.30817],[72.5,-86.37939],[73,-86.44832],[73.5,-86.51504],[74,-86.57962],[74.5,-86.64215],[75,-86.70269],[75.5,-86.76132],[76,-86.81811],[76.5,-86.87312],[77,-86.92641],[77.5,-86.97806],[78,-87.02811],[78.05469,-87.03349]]}}],"attribution":"Eclipse Predictions by Fred Espenak and Jean Meeus (NASA's GSFC)","generated_at":"2026-09-23T03:35:47.399Z"}
