{"type":"FeatureCollection","year":1389,"events":[{"id":"+13890426","year":1389,"month":4,"day":26,"time_tdt":"09:42:22","type":"부분일식","type_code":"P","saros":99,"gamma":-1.01237,"magnitude":0.99439,"greatest":{"lat":-62.22562,"lng":91.48053},"path_width_km":0,"duration":"00m00s","delta_t_seconds":333.2,"catalog_number":8065,"source":"NASA Five Millennium Canon of Solar Eclipses","source_url":"https://eclipse.gsfc.nasa.gov/SEsearch/SEsearchmap.php?Ecl=%2B13890426"},{"id":"+13890525","year":1389,"month":5,"day":25,"time_tdt":"16:48:11","type":"부분일식","type_code":"Pb","saros":137,"gamma":1.49934,"magnitude":0.05492,"greatest":{"lat":64.35162,"lng":139.80408},"path_width_km":0,"duration":"00m00s","delta_t_seconds":333.1,"catalog_number":8066,"source":"NASA Five Millennium Canon of Solar Eclipses","source_url":"https://eclipse.gsfc.nasa.gov/SEsearch/SEsearchmap.php?Ecl=%2B13890525"},{"id":"+13891019","year":1389,"month":10,"day":19,"time_tdt":"17:46:26","type":"부분일식","type_code":"P","saros":104,"gamma":1.12264,"magnitude":0.75448,"greatest":{"lat":61.72994,"lng":-24.96289},"path_width_km":0,"duration":"00m00s","delta_t_seconds":332.5,"catalog_number":8067,"source":"NASA Five Millennium Canon of Solar Eclipses","source_url":"https://eclipse.gsfc.nasa.gov/SEsearch/SEsearchmap.php?Ecl=%2B13891019"}],"features":[],"attribution":"Eclipse Predictions by Fred Espenak and Jean Meeus (NASA's GSFC)","generated_at":"2026-09-23T03:35:47.122Z"}
