{"type":"FeatureCollection","year":144,"events":[{"id":"+01440420","year":144,"month":4,"day":20,"time_tdt":"22:49:07","type":"부분일식","type_code":"P","saros":89,"gamma":1.20979,"magnitude":0.60475,"greatest":{"lat":61.33994,"lng":123.64868},"path_width_km":0,"duration":"00m00s","delta_t_seconds":9129.3,"catalog_number":5129,"source":"NASA Five Millennium Canon of Solar Eclipses","source_url":"https://eclipse.gsfc.nasa.gov/SEsearch/SEsearchmap.php?Ecl=%2B01440420"},{"id":"+01440915","year":144,"month":9,"day":15,"time_tdt":"04:08:10","type":"부분일식","type_code":"Pe","saros":56,"gamma":1.52389,"magnitude":0.01763,"greatest":{"lat":60.96405,"lng":-108.80927},"path_width_km":0,"duration":"00m00s","delta_t_seconds":9125.4,"catalog_number":5130,"source":"NASA Five Millennium Canon of Solar Eclipses","source_url":"https://eclipse.gsfc.nasa.gov/SEsearch/SEsearchmap.php?Ecl=%2B01440915"},{"id":"+01441014","year":144,"month":10,"day":14,"time_tdt":"13:32:59","type":"부분일식","type_code":"P","saros":94,"gamma":-1.09682,"magnitude":0.82873,"greatest":{"lat":-61.07432,"lng":-93.1037},"path_width_km":0,"duration":"00m00s","delta_t_seconds":9124.7,"catalog_number":5131,"source":"NASA Five Millennium Canon of Solar Eclipses","source_url":"https://eclipse.gsfc.nasa.gov/SEsearch/SEsearchmap.php?Ecl=%2B01441014"}],"features":[],"attribution":"Eclipse Predictions by Fred Espenak and Jean Meeus (NASA's GSFC)","generated_at":"2026-09-23T01:44:45.346Z"}
