{"type":"FeatureCollection","year":147,"events":[{"id":"+01470218","year":147,"month":2,"day":18,"time_tdt":"01:45:03","type":"개기일식","type_code":"T","saros":81,"gamma":0.55408,"magnitude":1.0409,"greatest":{"lat":18.19156,"lng":-178.96075},"path_width_km":162.1,"duration":"03m32s","delta_t_seconds":9102.4,"catalog_number":5136,"source":"NASA Five Millennium Canon of Solar Eclipses","source_url":"https://eclipse.gsfc.nasa.gov/SEsearch/SEsearchmap.php?Ecl=%2B01470218"},{"id":"+01470814","year":147,"month":8,"day":14,"time_tdt":"06:00:10","type":"금환일식","type_code":"A","saros":86,"gamma":-0.60274,"magnitude":0.93721,"greatest":{"lat":-18.84533,"lng":113.52399},"path_width_km":286.3,"duration":"07m31s","delta_t_seconds":9097.8,"catalog_number":5137,"source":"NASA Five Millennium Canon of Solar Eclipses","source_url":"https://eclipse.gsfc.nasa.gov/SEsearch/SEsearchmap.php?Ecl=%2B01470814"}],"features":[{"type":"Feature","id":"+01470218:north:0","properties":{"id":"+01470218","year":147,"month":2,"day":18,"time_tdt":"01:45:03","type":"개기일식","type_code":"T","saros":81,"gamma":0.55408,"magnitude":1.0409,"greatest":{"lat":18.19156,"lng":-178.96075},"path_width_km":162.1,"duration":"03m32s","delta_t_seconds":9102.4,"catalog_number":5136,"source":"NASA Five Millennium Canon of Solar Eclipses","source_url":"https://eclipse.gsfc.nasa.gov/SEsearch/SEsearchmap.php?Ecl=%2B01470218","boundary":"north","name":"147-02-18 개기일식"},"geometry":{"type":"LineString","coordinates":[[129.27539,7.90976],[129.5,7.86214],[130,7.75758],[130.5,7.65502],[131,7.55449],[131.5,7.45605],[132,7.35971],[132.5,7.26551],[133,7.1735],[133.5,7.08371],[134,6.99619],[134.5,6.91096],[135,6.82808],[135.5,6.74758],[136,6.66951],[136.5,6.59391],[137,6.52082],[137.5,6.45029],[138,6.38237],[138.5,6.3171],[139,6.25453],[139.5,6.19472],[140,6.13771],[140.5,6.08355],[141,6.0323],[141.5,5.98401],[142,5.93874],[142.5,5.89655],[143,5.85748],[143.5,5.82162],[144,5.789],[144.5,5.75971],[145,5.73379],[145.5,5.71132],[146,5.69237],[146.5,5.677],[147,5.66529],[147.5,5.65731],[148,5.65313],[148.5,5.65283],[149,5.65649],[149.5,5.66418],[150,5.676],[150.5,5.69203],[151,5.71235],[151.5,5.73706],[152,5.76624],[152.5,5.8],[153,5.83842],[153.5,5.8816],[154,5.92966],[154.5,5.98268],[155,6.04079],[155.5,6.10409],[156,6.17269],[156.5,6.2467],[157,6.32626],[157.5,6.41147],[158,6.50246],[158.5,6.59936],[159,6.7023],[159.5,6.81141],[160,6.92683],[160.5,7.04869],[161,7.17714],[161.5,7.31232],[162,7.45437],[162.5,7.60345],[163,7.7597],[163.5,7.92327],[164,8.09433],[164.5,8.27302],[165,8.4595],[165.5,8.65393],[166,8.85645],[166.5,9.06724],[167,9.28643],[167.5,9.51419],[168,9.75066],[168.5,9.99599],[169,10.25031],[169.5,10.51376],[170,10.78647],[170.5,11.06856],[171,11.36012],[171.5,11.66127],[172,11.97208],[172.5,12.29262],[173,12.62295],[173.5,12.96309],[174,13.31306],[174.5,13.67285],[175,14.04242],[175.5,14.42172],[176,14.81065],[176.5,15.2091],[177,15.61692],[177.5,16.03392],[178,16.4599],[178.5,16.89459],[179,17.33773],[179.5,17.78898],[180,18.24801]]}},{"type":"Feature","id":"+01470218:north:1","properties":{"id":"+01470218","year":147,"month":2,"day":18,"time_tdt":"01:45:03","type":"개기일식","type_code":"T","saros":81,"gamma":0.55408,"magnitude":1.0409,"greatest":{"lat":18.19156,"lng":-178.96075},"path_width_km":162.1,"duration":"03m32s","delta_t_seconds":9102.4,"catalog_number":5136,"source":"NASA Five Millennium Canon of Solar Eclipses","source_url":"https://eclipse.gsfc.nasa.gov/SEsearch/SEsearchmap.php?Ecl=%2B01470218","boundary":"north","name":"147-02-18 개기일식"},"geometry":{"type":"LineString","coordinates":[[-179.5,18.71442],[-179,19.1878],[-178.5,19.66771],[-178,20.15368],[-177.5,20.64521],[-177,21.14179],[-176.5,21.6429],[-176,22.14797],[-175.5,22.65647],[-175,23.16784],[-174.5,23.68151],[-174,24.19693],[-173.5,24.71355],[-173,25.23084],[-172.5,25.74827],[-172,26.26533],[-171.5,26.78153],[-171,27.29641],[-170.5,27.80953],[-170,28.32046],[-169.5,28.82882],[-169,29.33425],[-168.5,29.8364],[-168,30.33496],[-167.5,30.82965],[-167,31.32021],[-166.5,31.80641],[-166,32.28804],[-165.5,32.76492],[-165,33.23688],[-164.5,33.70378],[-164,34.1655],[-163.5,34.62193],[-163,35.073],[-162.5,35.51863],[-162,35.95877],[-161.5,36.39337],[-161,36.82241],[-160.5,37.24588],[-160,37.66375],[-159.5,38.07605],[-159,38.48277],[-158.5,38.88394],[-158,39.27958],[-157.5,39.66973],[-157,40.05441],[-156.5,40.43368],[-156,40.80758],[-155.5,41.17616],[-155,41.53946],[-154.5,41.89755],[-154,42.25049],[-153.5,42.59833],[-153,42.94113],[-152.5,43.27895],[-152,43.61187],[-151.5,43.93994],[-151,44.26323],[-150.5,44.5818],[-150,44.89572],[-149.5,45.20505],[-149,45.50986],[-148.5,45.81022],[-148,46.10618],[-147.5,46.39781],[-147,46.68518],[-146.5,46.96835],[-146,47.24738],[-145.5,47.52234],[-145,47.79328],[-144.5,48.06026],[-144,48.32334],[-143.5,48.58259],[-143,48.83806],[-142.5,49.08981],[-142,49.33789],[-141.5,49.58236],[-141,49.82327],[-140.5,50.06068],[-140,50.29463],[-139.5,50.52519],[-139,50.75239],[-138.5,50.9763],[-138,51.19695],[-137.5,51.41441],[-137,51.6287],[-136.5,51.83989],[-136,52.04801],[-135.5,52.25311],[-135,52.45523],[-134.5,52.65442],[-134,52.85072],[-133.5,53.04416],[-133,53.2348],[-132.5,53.42266],[-132,53.6078],[-131.5,53.79024],[-131,53.97002],[-130.5,54.14718],[-130,54.32176],[-129.5,54.49379],[-129,54.66331],[-128.5,54.83034],[-128,54.99493],[-127.5,55.15711],[-127,55.3169],[-126.5,55.47434],[-126,55.62946],[-125.5,55.78229],[-125,55.93286],[-124.5,56.0812],[-124,56.22733],[-123.5,56.37129],[-123,56.5131],[-122.5,56.65279],[-122,56.79039],[-121.5,56.92591],[-121,57.0594],[-120.5,57.19086],[-120,57.32033],[-119.5,57.44782],[-119,57.57337],[-118.5,57.697],[-118,57.81872],[-117.5,57.93856],[-117,58.05654],[-116.5,58.17269],[-116.13672,58.25594]]}},{"type":"Feature","id":"+01470218:center:0","properties":{"id":"+01470218","year":147,"month":2,"day":18,"time_tdt":"01:45:03","type":"개기일식","type_code":"T","saros":81,"gamma":0.55408,"magnitude":1.0409,"greatest":{"lat":18.19156,"lng":-178.96075},"path_width_km":162.1,"duration":"03m32s","delta_t_seconds":9102.4,"catalog_number":5136,"source":"NASA Five Millennium Canon of Solar Eclipses","source_url":"https://eclipse.gsfc.nasa.gov/SEsearch/SEsearchmap.php?Ecl=%2B01470218","boundary":"center","name":"147-02-18 개기일식"},"geometry":{"type":"LineString","coordinates":[[129.27888,7.43552],[129.5,7.38969],[130,7.2823],[130.5,7.17689],[131,7.07349],[131.5,6.97215],[132,6.87288],[132.5,6.77575],[133,6.68077],[133.5,6.58798],[134,6.49744],[134.5,6.40917],[135,6.32321],[135.5,6.23961],[136,6.15841],[136.5,6.07965],[137,6.00337],[137.5,5.92962],[138,5.85845],[138.5,5.7899],[139,5.72402],[139.5,5.66086],[140,5.60047],[140.5,5.54289],[141,5.48819],[141.5,5.43641],[142,5.38761],[142.5,5.34185],[143,5.29918],[143.5,5.25966],[144,5.22335],[144.5,5.19031],[145,5.16061],[145.5,5.13431],[146,5.11148],[146.5,5.09218],[147,5.07648],[147.5,5.06446],[148,5.05619],[148.5,5.05174],[149,5.05119],[149.5,5.05462],[150,5.06211],[150.5,5.07374],[151,5.0896],[151.5,5.10977],[152,5.13435],[152.5,5.16343],[153,5.1971],[153.5,5.23546],[154,5.2786],[154.5,5.32664],[155,5.37967],[155.5,5.4378],[156,5.50114],[156.5,5.56981],[157,5.64392],[157.5,5.72358],[158,5.80893],[158.5,5.90008],[159,5.99716],[159.5,6.10031],[160,6.20965],[160.5,6.32532],[161,6.44746],[161.5,6.57621],[162,6.71171],[162.5,6.85412],[163,7.00357],[163.5,7.16022],[164,7.32423],[164.5,7.49574],[165,7.67491],[165.5,7.8619],[166,8.05687],[166.5,8.25997],[167,8.47135],[167.5,8.69118],[168,8.9196],[168.5,9.15677],[169,9.40283],[169.5,9.65792],[170,9.92217],[170.5,10.19573],[171,10.4787],[171.5,10.7712],[172,11.07332],[172.5,11.38515],[173,11.70676],[173.5,12.03821],[174,12.37953],[174.5,12.73073],[175,13.09181],[175.5,13.46274],[176,13.84346],[176.5,14.23388],[177,14.63388],[177.5,15.04333],[178,15.46203],[178.5,15.88978],[179,16.32632],[179.5,16.77138],[180,17.22465]]}},{"type":"Feature","id":"+01470218:center:1","properties":{"id":"+01470218","year":147,"month":2,"day":18,"time_tdt":"01:45:03","type":"개기일식","type_code":"T","saros":81,"gamma":0.55408,"magnitude":1.0409,"greatest":{"lat":18.19156,"lng":-178.96075},"path_width_km":162.1,"duration":"03m32s","delta_t_seconds":9102.4,"catalog_number":5136,"source":"NASA Five Millennium Canon of Solar Eclipses","source_url":"https://eclipse.gsfc.nasa.gov/SEsearch/SEsearchmap.php?Ecl=%2B01470218","boundary":"center","name":"147-02-18 개기일식"},"geometry":{"type":"LineString","coordinates":[[-179.5,17.68575],[-179,18.15432],[-178.5,18.62994],[-178,19.11217],[-177.5,19.60052],[-177,20.09451],[-176.5,20.59361],[-176,21.0973],[-175.5,21.60502],[-175,22.11622],[-174.5,22.63032],[-174,23.14678],[-173.5,23.66502],[-173,24.18449],[-172.5,24.70465],[-172,25.22497],[-171.5,25.74493],[-171,26.26403],[-170.5,26.78182],[-170,27.29783],[-169.5,27.81164],[-169,28.32287],[-168.5,28.83113],[-168,29.3361],[-167.5,29.83744],[-167,30.33488],[-166.5,30.82816],[-166,31.31703],[-165.5,31.80129],[-165,32.28075],[-164.5,32.75525],[-164,33.22464],[-163.5,33.68881],[-163,34.14764],[-162.5,34.60106],[-162,35.04899],[-161.5,35.49139],[-161,35.9282],[-160.5,36.3594],[-160,36.78497],[-159.5,37.20491],[-159,37.61923],[-158.5,38.02792],[-158,38.43102],[-157.5,38.82855],[-157,39.22055],[-156.5,39.60704],[-156,39.98808],[-155.5,40.3637],[-155,40.73397],[-154.5,41.09893],[-154,41.45864],[-153.5,41.81316],[-153,42.16255],[-152.5,42.50687],[-152,42.84619],[-151.5,43.18057],[-151,43.51007],[-150.5,43.83475],[-150,44.1547],[-149.5,44.46997],[-149,44.78062],[-148.5,45.08673],[-148,45.38836],[-147.5,45.68557],[-147,45.97844],[-146.5,46.26702],[-146,46.55137],[-145.5,46.83157],[-145,47.10767],[-144.5,47.37974],[-144,47.64783],[-143.5,47.91201],[-143,48.17233],[-142.5,48.42885],[-142,48.68164],[-141.5,48.93075],[-141,49.17622],[-140.5,49.41813],[-140,49.65652],[-139.5,49.89144],[-139,50.12294],[-138.5,50.35109],[-138,50.57592],[-137.5,50.79748],[-137,51.01583],[-136.5,51.23101],[-136,51.44307],[-135.5,51.65205],[-135,51.858],[-134.5,52.06097],[-134,52.26098],[-133.5,52.4581],[-133,52.65235],[-132.5,52.84379],[-132,53.03244],[-131.5,53.21835],[-131,53.40155],[-130.5,53.58209],[-130,53.76],[-129.5,53.93532],[-129,54.10808],[-128.5,54.27831],[-128,54.44606],[-127.5,54.61135],[-127,54.77422],[-126.5,54.93469],[-126,55.09281],[-125.5,55.2486],[-125,55.40208],[-124.5,55.5533],[-124,55.70228],[-123.5,55.84905],[-123,55.99364],[-122.5,56.13606],[-122,56.27636],[-121.5,56.41456],[-121,56.55068],[-120.5,56.68475],[-120,56.81679],[-119.5,56.94682],[-119,57.07488],[-118.5,57.20099],[-118,57.32516],[-117.5,57.44742],[-117,57.5678],[-116.5,57.68631],[-116,57.80297],[-115.90313,57.83923]]}},{"type":"Feature","id":"+01470218:south:0","properties":{"id":"+01470218","year":147,"month":2,"day":18,"time_tdt":"01:45:03","type":"개기일식","type_code":"T","saros":81,"gamma":0.55408,"magnitude":1.0409,"greatest":{"lat":18.19156,"lng":-178.96075},"path_width_km":162.1,"duration":"03m32s","delta_t_seconds":9102.4,"catalog_number":5136,"source":"NASA Five Millennium Canon of Solar Eclipses","source_url":"https://eclipse.gsfc.nasa.gov/SEsearch/SEsearchmap.php?Ecl=%2B01470218","boundary":"south","name":"147-02-18 개기일식"},"geometry":{"type":"LineString","coordinates":[[129.5,6.91948],[130,6.80929],[130.5,6.70106],[131,6.59482],[131.5,6.49061],[132,6.38846],[132.5,6.28841],[133,6.1905],[133.5,6.09476],[134,6.00123],[134.5,5.90995],[135,5.82096],[135.5,5.73431],[136,5.65002],[136.5,5.56814],[137,5.48873],[137.5,5.41181],[138,5.33744],[138.5,5.26566],[139,5.19652],[139.5,5.13006],[140,5.06634],[140.5,5.00541],[141,4.94731],[141.5,4.8921],[142,4.83983],[142.5,4.79056],[143,4.74435],[143.5,4.70124],[144,4.66131],[144.5,4.6246],[145,4.59119],[145.5,4.56113],[146,4.53449],[146.5,4.51134],[147,4.49174],[147.5,4.47577],[148,4.46349],[148.5,4.45498],[149,4.45031],[149.5,4.44956],[150,4.45281],[150.5,4.46015],[151,4.47165],[151.5,4.48739],[152,4.50748],[152.5,4.53199],[153,4.56102],[153.5,4.59466],[154,4.63301],[154.5,4.67617],[155,4.72425],[155.5,4.77734],[156,4.83556],[156.5,4.89901],[157,4.96781],[157.5,5.04207],[158,5.12191],[158.5,5.20746],[159,5.29883],[159.5,5.39617],[160,5.49958],[160.5,5.60922],[161,5.72521],[161.5,5.84769],[162,5.97681],[162.5,6.11271],[163,6.25553],[163.5,6.40543],[164,6.56255],[164.5,6.72705],[165,6.89909],[165.5,7.07881],[166,7.26638],[166.5,7.46196],[167,7.66569],[167.5,7.87775],[168,8.09827],[168.5,8.32743],[169,8.56536],[169.5,8.81222],[170,9.06815],[170.5,9.33328],[171,9.60775],[171.5,9.89167],[172,10.18516],[172.5,10.48833],[173,10.80124],[173.5,11.12399],[174,11.45663],[174.5,11.79919],[175,12.15169],[175.5,12.51412],[176,12.88647],[176.5,13.26867],[177,13.66063],[177.5,14.06225],[178,14.47338],[178.5,14.89383],[179,15.32341],[179.5,15.76187],[180,16.20891]]}},{"type":"Feature","id":"+01470218:south:1","properties":{"id":"+01470218","year":147,"month":2,"day":18,"time_tdt":"01:45:03","type":"개기일식","type_code":"T","saros":81,"gamma":0.55408,"magnitude":1.0409,"greatest":{"lat":18.19156,"lng":-178.96075},"path_width_km":162.1,"duration":"03m32s","delta_t_seconds":9102.4,"catalog_number":5136,"source":"NASA Five Millennium Canon of Solar Eclipses","source_url":"https://eclipse.gsfc.nasa.gov/SEsearch/SEsearchmap.php?Ecl=%2B01470218","boundary":"south","name":"147-02-18 개기일식"},"geometry":{"type":"LineString","coordinates":[[-179.5,16.66423],[-179,17.12748],[-178.5,17.59827],[-178,18.07618],[-177.5,18.56076],[-177,19.05155],[-176.5,19.54805],[-176,20.04972],[-175.5,20.55604],[-175,21.06645],[-174.5,21.58039],[-174,22.09729],[-173.5,22.61657],[-173,23.13768],[-172.5,23.66004],[-172,24.18312],[-171.5,24.70636],[-171,25.22926],[-170.5,25.7513],[-170,26.27202],[-169.5,26.79096],[-169,27.30769],[-168.5,27.82182],[-168,28.33295],[-167.5,28.84076],[-167,29.34491],[-166.5,29.84513],[-166,30.34113],[-165.5,30.8327],[-165,31.31961],[-164.5,31.80168],[-164,32.27873],[-163.5,32.75064],[-163,33.21726],[-162.5,33.67851],[-162,34.13429],[-161.5,34.58453],[-161,35.02919],[-160.5,35.46821],[-160,35.90158],[-159.5,36.32927],[-159,36.75128],[-158.5,37.16762],[-158,37.57829],[-157.5,37.98332],[-157,38.38274],[-156.5,38.77658],[-156,39.16488],[-155.5,39.54768],[-155,39.92503],[-154.5,40.29699],[-154,40.6636],[-153.5,41.02492],[-153,41.38102],[-152.5,41.73196],[-152,42.07779],[-151.5,42.41859],[-151,42.75442],[-150.5,43.08534],[-150,43.41143],[-149.5,43.73274],[-149,44.04934],[-148.5,44.36131],[-148,44.66871],[-147.5,44.9716],[-147,45.27006],[-146.5,45.56414],[-146,45.85391],[-145.5,46.13944],[-145,46.4208],[-144.5,46.69803],[-144,46.97121],[-143.5,47.2404],[-143,47.50566],[-142.5,47.76704],[-142,48.02461],[-141.5,48.27843],[-141,48.52854],[-140.5,48.77502],[-140,49.0179],[-139.5,49.25725],[-139,49.49312],[-138.5,49.72557],[-138,49.95463],[-137.5,50.18038],[-137,50.40284],[-136.5,50.62207],[-136,50.83813],[-135.5,51.05105],[-135,51.26088],[-134.5,51.46766],[-134,51.67145],[-133.5,51.87228],[-133,52.0702],[-132.5,52.26525],[-132,52.45746],[-131.5,52.64689],[-131,52.83356],[-130.5,53.01752],[-130,53.1988],[-129.5,53.37744],[-129,53.55348],[-128.5,53.72695],[-128,53.89789],[-127.5,54.06634],[-127,54.23231],[-126.5,54.39586],[-126,54.557],[-125.5,54.71578],[-125,54.87222],[-124.5,55.02635],[-124,55.17821],[-123.5,55.32782],[-123,55.4752],[-122.5,55.6204],[-122,55.76343],[-121.5,55.90433],[-121,56.04311],[-120.5,56.17981],[-120,56.31445],[-119.5,56.44706],[-119,56.57765],[-118.5,56.70626],[-118,56.83291],[-117.5,56.95762],[-117,57.08041],[-116.5,57.2013],[-116,57.32032],[-115.65039,57.40245]]}},{"type":"Feature","id":"+01470814:north:0","properties":{"id":"+01470814","year":147,"month":8,"day":14,"time_tdt":"06:00:10","type":"금환일식","type_code":"A","saros":86,"gamma":-0.60274,"magnitude":0.93721,"greatest":{"lat":-18.84533,"lng":113.52399},"path_width_km":286.3,"duration":"07m31s","delta_t_seconds":9097.8,"catalog_number":5137,"source":"NASA Five Millennium Canon of Solar Eclipses","source_url":"https://eclipse.gsfc.nasa.gov/SEsearch/SEsearchmap.php?Ecl=%2B01470814","boundary":"north","name":"147-08-14 금환일식"},"geometry":{"type":"LineString","coordinates":[[65.71875,-11.14012],[66,-11.06446],[66.5,-10.93125],[67,-10.79974],[67.5,-10.66996],[68,-10.54195],[68.5,-10.41576],[69,-10.29141],[69.5,-10.16895],[70,-10.04843],[70.5,-9.92989],[71,-9.81337],[71.5,-9.69892],[72,-9.58658],[72.5,-9.47641],[73,-9.36845],[73.5,-9.26275],[74,-9.15937],[74.5,-9.05836],[75,-8.95976],[75.5,-8.86365],[76,-8.77007],[76.5,-8.67909],[77,-8.59077],[77.5,-8.50516],[78,-8.42234],[78.5,-8.34236],[79,-8.26531],[79.5,-8.19124],[80,-8.12023],[80.5,-8.05235],[81,-7.98768],[81.5,-7.92629],[82,-7.86828],[82.5,-7.81372],[83,-7.76269],[83.5,-7.71529],[84,-7.6716],[84.5,-7.63173],[85,-7.59576],[85.5,-7.5638],[86,-7.53594],[86.5,-7.51231],[87,-7.493],[87.5,-7.47813],[88,-7.46781],[88.5,-7.46217],[89,-7.46133],[89.5,-7.46542],[90,-7.47457],[90.5,-7.48892],[91,-7.50862],[91.5,-7.5338],[92,-7.56461],[92.5,-7.60122],[93,-7.64379],[93.5,-7.69248],[94,-7.74746],[94.5,-7.80891],[95,-7.87701],[95.5,-7.95195],[96,-8.03393],[96.5,-8.12313],[97,-8.21978],[97.5,-8.32407],[98,-8.43623],[98.5,-8.55647],[99,-8.68502],[99.5,-8.82212],[100,-8.96801],[100.5,-9.12291],[101,-9.28708],[101.5,-9.46076],[102,-9.64421],[102.5,-9.83767],[103,-10.0414],[103.5,-10.25565],[104,-10.48067],[104.5,-10.71669],[105,-10.96396],[105.5,-11.2227],[106,-11.49313],[106.5,-11.77547],[107,-12.06989],[107.5,-12.37656],[108,-12.69562],[108.5,-13.0272],[109,-13.37137],[109.5,-13.72819],[110,-14.09767],[110.5,-14.47976],[111,-14.87439],[111.5,-15.28143],[112,-15.70069],[112.5,-16.13191],[113,-16.5748],[113.5,-17.02898],[114,-17.49403],[114.5,-17.96947],[115,-18.45473],[115.5,-18.94923],[116,-19.45231],[116.5,-19.96327],[117,-20.48137],[117.5,-21.00585],[118,-21.53591],[118.5,-22.07075],[119,-22.60955],[119.5,-23.1515],[120,-23.69579],[120.5,-24.24164],[121,-24.7883],[121.5,-25.33501],[122,-25.88109],[122.5,-26.42588],[123,-26.96876],[123.5,-27.50915],[124,-28.04653],[124.5,-28.58042],[125,-29.11037],[125.5,-29.636],[126,-30.15696],[126.5,-30.67294],[127,-31.18366],[127.5,-31.68891],[128,-32.18847],[128.5,-32.68218],[129,-33.16991],[129.5,-33.65155],[130,-34.12701],[130.5,-34.59623],[131,-35.05916],[131.5,-35.51578],[132,-35.96609],[132.5,-36.41008],[133,-36.84777],[133.5,-37.2792],[134,-37.70439],[134.5,-38.1234],[135,-38.53628],[135.5,-38.94309],[136,-39.3439],[136.5,-39.73876],[137,-40.12776],[137.5,-40.51097],[138,-40.88847],[138.5,-41.26034],[139,-41.62666],[139.5,-41.98752],[140,-42.34298],[140.5,-42.69315],[141,-43.0381],[141.5,-43.37792],[142,-43.71268],[142.5,-44.04247],[143,-44.36738],[143.5,-44.68747],[144,-45.00284],[144.5,-45.31357],[145,-45.61972],[145.5,-45.92137],[146,-46.21861],[146.5,-46.5115],[147,-46.80012],[147.5,-47.08453],[148,-47.36482],[148.5,-47.64104],[149,-47.91327],[149.5,-48.18157],[150,-48.446],[150.5,-48.70664],[151,-48.96354],[151.5,-49.21675],[152,-49.46635],[152.5,-49.7124],[153,-49.95493],[153.5,-50.19403],[154,-50.42973],[154.5,-50.66209],[155,-50.89116],[155.5,-51.117],[156,-51.33966],[156.5,-51.55918],[157,-51.77561],[157.5,-51.989],[158,-52.1994],[158.5,-52.40684],[159,-52.61139],[159.5,-52.81306],[160,-53.01192],[160.5,-53.208],[161,-53.40134],[161.5,-53.59198],[162,-53.77996],[162.5,-53.96531],[163,-54.14808],[163.5,-54.3283],[164,-54.50601],[164.5,-54.68123],[165,-54.85402],[165.5,-55.02439],[166,-55.19238],[166.5,-55.35802],[167,-55.52134],[167.5,-55.68239],[168,-55.84117],[168.5,-55.99773],[169,-56.1521],[169.5,-56.30429],[170,-56.45435],[170.22461,-56.52107]]}},{"type":"Feature","id":"+01470814:center:0","properties":{"id":"+01470814","year":147,"month":8,"day":14,"time_tdt":"06:00:10","type":"금환일식","type_code":"A","saros":86,"gamma":-0.60274,"magnitude":0.93721,"greatest":{"lat":-18.84533,"lng":113.52399},"path_width_km":286.3,"duration":"07m31s","delta_t_seconds":9097.8,"catalog_number":5137,"source":"NASA Five Millennium Canon of Solar Eclipses","source_url":"https://eclipse.gsfc.nasa.gov/SEsearch/SEsearchmap.php?Ecl=%2B01470814","boundary":"center","name":"147-08-14 금환일식"},"geometry":{"type":"LineString","coordinates":[[65.75133,-12.6424],[66,-12.57606],[66.5,-12.43993],[67,-12.30551],[67.5,-12.17284],[68,-12.04197],[68.5,-11.91294],[69,-11.78578],[69.5,-11.66054],[70,-11.53727],[70.5,-11.416],[71,-11.29679],[71.5,-11.17967],[72,-11.06471],[72.5,-10.95195],[73,-10.84144],[73.5,-10.73323],[74,-10.62738],[74.5,-10.52394],[75,-10.42297],[75.5,-10.32452],[76,-10.22867],[76.5,-10.13546],[77,-10.04496],[77.5,-9.95724],[78,-9.87236],[78.5,-9.79039],[79,-9.71141],[79.5,-9.63548],[80,-9.56269],[80.5,-9.4931],[81,-9.4268],[81.5,-9.36388],[82,-9.3044],[82.5,-9.24847],[83,-9.19617],[83.5,-9.1476],[84,-9.10284],[84.5,-9.062],[85,-9.02519],[85.5,-8.9925],[86,-8.96404],[86.5,-8.93993],[87,-8.92028],[87.5,-8.90521],[88,-8.89484],[88.5,-8.88931],[89,-8.88873],[89.5,-8.89326],[90,-8.90302],[90.5,-8.91817],[91,-8.93885],[91.5,-8.96522],[92,-8.99744],[92.5,-9.03567],[93,-9.08008],[93.5,-9.13085],[94,-9.18816],[94.5,-9.2522],[95,-9.32317],[95.5,-9.40125],[96,-9.48665],[96.5,-9.57959],[97,-9.68028],[97.5,-9.78895],[98,-9.90581],[98.5,-10.03111],[99,-10.16509],[99.5,-10.30798],[100,-10.46003],[100.5,-10.6215],[101,-10.79264],[101.5,-10.9737],[102,-11.16495],[102.5,-11.36664],[103,-11.57902],[103.5,-11.80236],[104,-12.0369],[104.5,-12.28289],[105,-12.54055],[105.5,-12.81011],[106,-13.09177],[106.5,-13.38573],[107,-13.69214],[107.5,-14.01116],[108,-14.3429],[108.5,-14.68743],[109,-15.0448],[109.5,-15.41502],[110,-15.79803],[110.5,-16.19374],[111,-16.60202],[111.5,-17.02264],[112,-17.45536],[112.5,-17.89984],[113,-18.3557],[113.5,-18.8225],[114,-19.29972],[114.5,-19.7868],[115,-20.28313],[115.5,-20.78802],[116,-21.30076],[116.5,-21.82061],[117,-22.34678],[117.5,-22.87848],[118,-23.41487],[118.5,-23.95516],[119,-24.49851],[119.5,-25.04413],[120,-25.59123],[120.5,-26.13906],[121,-26.68688],[121.5,-27.234],[122,-27.77977],[122.5,-28.32359],[123,-28.86488],[123.5,-29.40313],[124,-29.93787],[124.5,-30.46866],[125,-30.99513],[125.5,-31.51692],[126,-32.03374],[126.5,-32.54533],[127,-33.05146],[127.5,-33.55193],[128,-34.04659],[128.5,-34.53529],[129,-35.01794],[129.5,-35.49446],[130,-35.96477],[130.5,-36.42884],[131,-36.88664],[131.5,-37.33817],[132,-37.78343],[132.5,-38.22243],[133,-38.65521],[133.5,-39.0818],[134,-39.50224],[134.5,-39.91659],[135,-40.32491],[135.5,-40.72726],[136,-41.1237],[136.5,-41.51431],[137,-41.89916],[137.5,-42.27833],[138,-42.6519],[138.5,-43.01994],[139,-43.38253],[139.5,-43.73977],[140,-44.09172],[140.5,-44.43847],[141,-44.7801],[141.5,-45.1167],[142,-45.44834],[142.5,-45.7751],[143,-46.09706],[143.5,-46.41431],[144,-46.72691],[144.5,-47.03495],[145,-47.3385],[145.5,-47.63763],[146,-47.93242],[146.5,-48.22294],[147,-48.50925],[147.5,-48.79144],[148,-49.06956],[148.5,-49.34368],[149,-49.61387],[149.5,-49.88019],[150,-50.14271],[150.5,-50.40148],[151,-50.65657],[151.5,-50.90803],[152,-51.15593],[152.5,-51.40031],[153,-51.64124],[153.5,-51.87877],[154,-52.11295],[154.5,-52.34384],[155,-52.57148],[155.5,-52.79593],[156,-53.01723],[156.5,-53.23544],[157,-53.45059],[157.5,-53.66274],[158,-53.87192],[158.5,-54.07819],[159,-54.28159],[159.5,-54.48216],[160,-54.67993],[160.5,-54.87495],[161,-55.06727],[161.5,-55.25691],[162,-55.44391],[162.5,-55.62833],[163,-55.81018],[163.5,-55.9895],[164,-56.16634],[164.5,-56.34072],[165,-56.51267],[165.5,-56.68224],[166,-56.84945],[166.5,-57.01434],[167,-57.17693],[167.5,-57.33726],[168,-57.49535],[168.5,-57.65124],[169,-57.80495],[169.20025,-57.8965]]}},{"type":"Feature","id":"+01470814:south:0","properties":{"id":"+01470814","year":147,"month":8,"day":14,"time_tdt":"06:00:10","type":"금환일식","type_code":"A","saros":86,"gamma":-0.60274,"magnitude":0.93721,"greatest":{"lat":-18.84533,"lng":113.52399},"path_width_km":286.3,"duration":"07m31s","delta_t_seconds":9097.8,"catalog_number":5137,"source":"NASA Five Millennium Canon of Solar Eclipses","source_url":"https://eclipse.gsfc.nasa.gov/SEsearch/SEsearchmap.php?Ecl=%2B01470814","boundary":"south","name":"147-08-14 금환일식"},"geometry":{"type":"LineString","coordinates":[[65.76367,-14.18133],[66,-14.11499],[66.5,-13.97589],[67,-13.83853],[67.5,-13.70296],[68,-13.5692],[68.5,-13.43731],[69,-13.30732],[69.5,-13.17929],[70,-13.05325],[70.5,-12.92925],[71,-12.80734],[71.5,-12.68757],[72,-12.56999],[72.5,-12.45465],[73,-12.3416],[73.5,-12.2309],[74,-12.1226],[74.5,-12.01676],[75,-11.91344],[75.5,-11.81271],[76,-11.71461],[76.5,-11.61922],[77,-11.5266],[77.5,-11.43682],[78,-11.34995],[78.5,-11.26606],[79,-11.18523],[79.5,-11.10753],[80,-11.03304],[80.5,-10.96184],[81,-10.89402],[81.5,-10.82966],[82,-10.76884],[82.5,-10.71167],[83,-10.65823],[83.5,-10.60862],[84,-10.56295],[84.5,-10.52131],[85,-10.48382],[85.5,-10.45058],[86,-10.42171],[86.5,-10.39733],[87,-10.37755],[87.5,-10.36251],[88,-10.35233],[88.5,-10.34715],[89,-10.34712],[89.5,-10.35236],[90,-10.36303],[90.5,-10.37928],[91,-10.40128],[91.5,-10.42919],[92,-10.46316],[92.5,-10.50339],[93,-10.55005],[93.5,-10.60333],[94,-10.66342],[94.5,-10.73051],[95,-10.80481],[95.5,-10.88654],[96,-10.97591],[96.5,-11.07313],[97,-11.17845],[97.5,-11.29209],[98,-11.4143],[98.5,-11.54531],[99,-11.68539],[99.5,-11.83478],[100,-11.99374],[100.5,-12.16253],[101,-12.34142],[101.5,-12.53067],[102,-12.73055],[102.5,-12.94132],[103,-13.16324],[103.5,-13.39656],[104,-13.64154],[104.5,-13.8984],[105,-14.16737],[105.5,-14.44866],[106,-14.74247],[106.5,-15.04895],[107,-15.36825],[107.5,-15.70047],[108,-16.04571],[108.5,-16.40398],[109,-16.77528],[109.5,-17.15955],[110,-17.5567],[110.5,-17.96656],[111,-18.3889],[111.5,-18.82345],[112,-19.26987],[112.5,-19.72774],[113,-20.19661],[113.5,-20.67594],[114,-21.16515],[114.5,-21.66359],[115,-22.17059],[115.5,-22.6854],[116,-23.20726],[116.5,-23.73539],[117,-24.26896],[117.5,-24.80715],[118,-25.34915],[118.5,-25.89413],[119,-26.44129],[119.5,-26.98984],[120,-27.53904],[120.5,-28.08816],[121,-28.63652],[121.5,-29.18346],[122,-29.7284],[122.5,-30.27078],[123,-30.81008],[123.5,-31.34584],[124,-31.87765],[124.5,-32.40512],[125,-32.92792],[125.5,-33.44576],[126,-33.95837],[126.5,-34.46555],[127,-34.9671],[127.5,-35.46286],[128,-35.9527],[128.5,-36.43652],[129,-36.91424],[129.5,-37.3858],[130,-37.85116],[130.5,-38.31029],[131,-38.76319],[131.5,-39.20985],[132,-39.65031],[132.5,-40.08457],[133,-40.51269],[133.5,-40.93469],[134,-41.35064],[134.5,-41.76059],[135,-42.1646],[135.5,-42.56274],[136,-42.95507],[136.5,-43.34167],[137,-43.72261],[137.5,-44.09797],[138,-44.46783],[138.5,-44.83226],[139,-45.19135],[139.5,-45.54516],[140,-45.8938],[140.5,-46.23732],[141,-46.57582],[141.5,-46.90937],[142,-47.23805],[142.5,-47.56193],[143,-47.8811],[143.5,-48.19563],[144,-48.5056],[144.5,-48.81107],[145,-49.11213],[145.5,-49.40884],[146,-49.70128],[146.5,-49.98951],[147,-50.2736],[147.5,-50.55362],[148,-50.82964],[148.5,-51.10172],[149,-51.36991],[149.5,-51.63429],[150,-51.89492],[150.5,-52.15185],[151,-52.40515],[151.5,-52.65486],[152,-52.90106],[152.5,-53.14378],[153,-53.38309],[153.5,-53.61904],[154,-53.85168],[154.5,-54.08106],[155,-54.30723],[155.5,-54.53024],[156,-54.75013],[156.5,-54.96696],[157,-55.18077],[157.5,-55.39161],[158,-55.59951],[158.5,-55.80452],[159,-56.00668],[159.5,-56.20604],[160,-56.40263],[160.5,-56.5965],[161,-56.78768],[161.5,-56.97621],[162,-57.16213],[162.5,-57.34548],[163,-57.52628],[163.5,-57.70458],[164,-57.88041],[164.5,-58.05381],[165,-58.2248],[165.5,-58.39342],[166,-58.5597],[166.5,-58.72368],[168,-59.20206],[167,-58.88537],[167.5,-59.04483]]}}],"attribution":"Eclipse Predictions by Fred Espenak and Jean Meeus (NASA's GSFC)","generated_at":"2026-09-23T01:44:45.667Z"}
