{"type":"FeatureCollection","year":149,"events":[{"id":"+01490623","year":149,"month":6,"day":23,"time_tdt":"02:42:52","type":"개기일식","type_code":"T","saros":68,"gamma":0.64953,"magnitude":1.03518,"greatest":{"lat":64.12743,"lng":-175.59406},"path_width_km":156.3,"duration":"02m29s","delta_t_seconds":9080.1,"catalog_number":5143,"source":"NASA Five Millennium Canon of Solar Eclipses","source_url":"https://eclipse.gsfc.nasa.gov/SEsearch/SEsearchmap.php?Ecl=%2B01490623"},{"id":"+01491218","year":149,"month":12,"day":18,"time_tdt":"01:16:52","type":"금환일식","type_code":"A","saros":73,"gamma":-0.12036,"magnitude":0.93323,"greatest":{"lat":-30.68125,"lng":-160.65308},"path_width_km":251.3,"duration":"08m07s","delta_t_seconds":9075.5,"catalog_number":5144,"source":"NASA Five Millennium Canon of Solar Eclipses","source_url":"https://eclipse.gsfc.nasa.gov/SEsearch/SEsearchmap.php?Ecl=%2B01491218"}],"features":[{"type":"Feature","id":"+01490623:north:0","properties":{"id":"+01490623","year":149,"month":6,"day":23,"time_tdt":"02:42:52","type":"개기일식","type_code":"T","saros":68,"gamma":0.64953,"magnitude":1.03518,"greatest":{"lat":64.12743,"lng":-175.59406},"path_width_km":156.3,"duration":"02m29s","delta_t_seconds":9080.1,"catalog_number":5143,"source":"NASA Five Millennium Canon of Solar Eclipses","source_url":"https://eclipse.gsfc.nasa.gov/SEsearch/SEsearchmap.php?Ecl=%2B01490623","boundary":"north","name":"149-06-23 개기일식"},"geometry":{"type":"LineString","coordinates":[[83.73242,41.61091],[84,41.7408],[84.5,41.98401],[85,42.22784],[85.5,42.47224],[86,42.71718],[86.5,42.96262],[87,43.20853],[87.5,43.45487],[88,43.70159],[88.5,43.94865],[89,44.19601],[89.5,44.44363],[90,44.69146],[90.5,44.93945],[91,45.18757],[91.5,45.43576],[92,45.68397],[92.5,45.93216],[93,46.18028],[93.5,46.42827],[94,46.67609],[94.5,46.92369],[95,47.17101],[95.5,47.41799],[96,47.6646],[96.5,47.91077],[97,48.15645],[97.5,48.40159],[98,48.64613],[98.5,48.89003],[99,49.13322],[99.5,49.37565],[100,49.61727],[100.5,49.85803],[101,50.09787],[101.5,50.33674],[102,50.57459],[102.5,50.81136],[103,51.04701],[103.5,51.28149],[104,51.51474],[104.5,51.74671],[105,51.97737],[105.5,52.20665],[106,52.43452],[106.5,52.66092],[107,52.88583],[107.5,53.10918],[108,53.33095],[108.5,53.55108],[109,53.76955],[109.5,53.98631],[110,54.20132],[110.5,54.41456],[111,54.62599],[111.5,54.83557],[112,55.04327],[112.5,55.24907],[113,55.45294],[113.5,55.65485],[114,55.85477],[114.5,56.05269],[115,56.24858],[115.5,56.44242],[116,56.63419],[116.5,56.82387],[117,57.01145],[117.5,57.19691],[118,57.38025],[118.5,57.56144],[118.5,57.56143],[119,57.74047],[119.5,57.91734],[120,58.09204],[120.5,58.26456],[121,58.4349],[121.5,58.60305],[122,58.76901],[122.5,58.93277],[123,59.09433],[123.5,59.2537],[124,59.41088],[124.5,59.56585],[125,59.71864],[125.5,59.86924],[126,60.01765],[126.5,60.16388],[127,60.30794],[127.5,60.44983],[128,60.58956],[128.5,60.72713],[129,60.86256],[129.5,60.99585],[130,61.12701],[130.5,61.25605],[131,61.38298],[131.5,61.50782],[131.5,61.50781],[132,61.63056],[132.5,61.75123],[133,61.86983],[133.5,61.98638],[134,62.10088],[134.5,62.21336],[134.5,62.21335],[135,62.32381],[135.5,62.43226],[136,62.53871],[136.5,62.64319],[137,62.74569],[137.5,62.84624],[138,62.94485],[138.5,63.04153],[139,63.13628],[139.5,63.22914],[140,63.3201],[140.5,63.40919],[140.5,63.40918],[141,63.4964],[141.5,63.58177],[142,63.66529],[142.5,63.74698],[143,63.82686],[143.5,63.90493],[144,63.98121],[144.5,64.05571],[144.5,64.0557],[145,64.12843],[145.5,64.19941],[146,64.26863],[146.5,64.33612],[147,64.40189],[147.5,64.46594],[148,64.52829],[148.5,64.58895],[149,64.64792],[149.5,64.70523],[150,64.76087],[150.5,64.81485],[151,64.8672],[151,64.86719],[151.5,64.9179],[152,64.96698],[152.5,65.01444],[153,65.06029],[153.5,65.10454],[154,65.14719],[154.5,65.18826],[155,65.22774],[155.5,65.26565],[156,65.30199],[156.5,65.33677],[157,65.37],[157.5,65.40167],[158,65.4318],[158.5,65.46039],[159,65.48744],[159.5,65.51297],[160,65.53697],[160.5,65.55944],[161,65.58039],[161.5,65.59983],[162,65.61776],[162.5,65.63417],[163,65.64908],[163.5,65.66247],[164,65.67437],[164.5,65.68476],[165,65.69364],[165.5,65.70103],[166,65.70691],[166.5,65.71129],[167,65.71416],[167.5,65.71554],[168,65.71541],[168.5,65.71377],[169,65.71063],[169.5,65.70598],[170,65.69982],[170.5,65.69214],[171,65.68295],[171.5,65.67224],[172,65.66],[172.5,65.64624],[173,65.63094],[173.5,65.6141],[174,65.59573],[174.5,65.5758],[175,65.55432],[175.5,65.53128],[176,65.50668],[176.5,65.4805],[177,65.45274],[177.5,65.4234],[178,65.39246],[178.5,65.35991],[179,65.32575],[179.5,65.28997],[180,65.25256]]}},{"type":"Feature","id":"+01490623:north:1","properties":{"id":"+01490623","year":149,"month":6,"day":23,"time_tdt":"02:42:52","type":"개기일식","type_code":"T","saros":68,"gamma":0.64953,"magnitude":1.03518,"greatest":{"lat":64.12743,"lng":-175.59406},"path_width_km":156.3,"duration":"02m29s","delta_t_seconds":9080.1,"catalog_number":5143,"source":"NASA Five Millennium Canon of Solar Eclipses","source_url":"https://eclipse.gsfc.nasa.gov/SEsearch/SEsearchmap.php?Ecl=%2B01490623","boundary":"north","name":"149-06-23 개기일식"},"geometry":{"type":"LineString","coordinates":[[-179.5,65.2135],[-179.5,65.21351],[-179,65.1728],[-178.5,65.13043],[-178,65.08639],[-177.5,65.04066],[-177,64.99324],[-176.5,64.9441],[-176,64.89325],[-175.5,64.84066],[-175,64.78632],[-174.5,64.73022],[-174,64.67235],[-173.5,64.61268],[-173,64.55121],[-172.5,64.48792],[-172,64.42279],[-171.5,64.3558],[-171.5,64.35581],[-171,64.28695],[-170.5,64.21621],[-170,64.14357],[-169.5,64.069],[-169,63.9925],[-168.5,63.91403],[-168,63.83359],[-167.5,63.75115],[-167,63.66669],[-166.5,63.58019],[-166.5,63.5802],[-166,63.49164],[-165.5,63.40101],[-165,63.30828],[-164.5,63.21343],[-164,63.11643],[-163.5,63.01727],[-163,62.91592],[-162.5,62.81236],[-162,62.70656],[-161.5,62.59851],[-161,62.48817],[-160.5,62.37553],[-160,62.26056],[-159.5,62.14324],[-159,62.02354],[-158.5,61.90144],[-158,61.77691],[-157.5,61.64992],[-157,61.52046],[-156.5,61.3885],[-156,61.25402],[-155.5,61.11698],[-155,60.97736],[-154.5,60.83515],[-154,60.69031],[-153.5,60.54282],[-153,60.39266],[-152.5,60.2398],[-152,60.08422],[-151.5,59.92591],[-151,59.76483],[-150.5,59.60097],[-150,59.4343],[-149.5,59.26481],[-149,59.09248],[-148.5,58.91728],[-148,58.73921],[-147.5,58.55825],[-147,58.37437],[-146.5,58.18758],[-146,57.99785],[-145.5,57.80519],[-145,57.60957],[-144.5,57.41099],[-144,57.20945],[-143.5,57.00494],[-143,56.79747],[-142.5,56.58703],[-142,56.37363],[-141.5,56.15727],[-141,55.93797],[-140.5,55.71572],[-140,55.49056],[-139.5,55.26249],[-139,55.03153],[-138.5,54.7977],[-138,54.56104],[-137.5,54.32156],[-137,54.0793],[-137,54.07931],[-136.5,53.83431],[-136,53.5866],[-135.5,53.33623],[-135,53.08324],[-134.5,52.82768],[-134,52.56961],[-134,52.5696],[-133.5,52.30906],[-133,52.04612],[-132.5,51.78083],[-132,51.51326],[-131.5,51.24349],[-131,50.97157],[-130.5,50.6976],[-130,50.42164],[-129.5,50.14377],[-129,49.86408],[-128.5,49.58266],[-128,49.29958],[-127.5,49.01495],[-127,48.72885],[-126.5,48.44138],[-126,48.15263],[-125.5,47.86271],[-125,47.57169],[-124.5,47.2797],[-124,46.98682],[-123.5,46.69316],[-123,46.39881],[-122.5,46.10388],[-122,45.80847],[-121.5,45.51267],[-121,45.21659],[-120.5,44.92033],[-120,44.62398],[-120,44.62397],[-119.5,44.32763],[-119,44.03139],[-118.5,43.73534],[-118,43.43959],[-117.5,43.14421],[-117,42.8493],[-116.5,42.55493],[-116,42.26121],[-115.5,41.9682],[-115,41.67598],[-114.5,41.38463],[-114,41.09424],[-113.5,40.80485],[-113,40.51655],[-112.5,40.22941],[-112,39.94347],[-111.5,39.65882],[-111,39.37549],[-110.5,39.09355],[-110,38.81306],[-109.5,38.53406],[-109,38.25659],[-108.5,37.98071],[-108,37.70645],[-107.5,37.43387],[-107,37.16298],[-106.5,36.89384],[-106,36.62647],[-105.5,36.3609],[-105,36.09717],[-104.5,35.83529],[-104,35.5753],[-103.5,35.31721],[-103,35.06106],[-102.5,34.80684],[-102,34.5546],[-101.5,34.30433],[-101,34.05606],[-100.5,33.80979],[-100,33.56554],[-99.5,33.32332],[-99,33.08313],[-98.5,32.84499],[-98,32.60889],[-97.52344,32.38577]]}},{"type":"Feature","id":"+01490623:center:0","properties":{"id":"+01490623","year":149,"month":6,"day":23,"time_tdt":"02:42:52","type":"개기일식","type_code":"T","saros":68,"gamma":0.64953,"magnitude":1.03518,"greatest":{"lat":64.12743,"lng":-175.59406},"path_width_km":156.3,"duration":"02m29s","delta_t_seconds":9080.1,"catalog_number":5143,"source":"NASA Five Millennium Canon of Solar Eclipses","source_url":"https://eclipse.gsfc.nasa.gov/SEsearch/SEsearchmap.php?Ecl=%2B01490623","boundary":"center","name":"149-06-23 개기일식"},"geometry":{"type":"LineString","coordinates":[[84.24263,41.23929],[84.5,41.36756],[85,41.60657],[85.5,41.84617],[86,42.08632],[86.5,42.32699],[87,42.56815],[87.5,42.80976],[88,43.05178],[88.5,43.29417],[89,43.5369],[89.5,43.77991],[90,44.02317],[90.5,44.26665],[91,44.51028],[91.5,44.75404],[92,44.99787],[92.5,45.24173],[93,45.48557],[93.5,45.72935],[94,45.97301],[94.5,46.21652],[95,46.45981],[95.5,46.70285],[96,46.94557],[96.5,47.18794],[97,47.4299],[97.5,47.6714],[98,47.91238],[98.5,48.15281],[99,48.39261],[99.5,48.63175],[100,48.87018],[100.5,49.10783],[101,49.34467],[101.5,49.58063],[102,49.81567],[102.5,50.04974],[103,50.28279],[103.5,50.51476],[104,50.74562],[104.5,50.97531],[105,51.20378],[105.5,51.43099],[106,51.6569],[106.5,51.88145],[107,52.1046],[107.5,52.32631],[108,52.54654],[108.5,52.76525],[109,52.9824],[109.5,53.19795],[110,53.41185],[110.5,53.62408],[111,53.83461],[111.5,54.04339],[112,54.25039],[112.5,54.45559],[113,54.65895],[113.5,54.86045],[114,55.06006],[114.5,55.25776],[115,55.45351],[115.5,55.6473],[116,55.83911],[116,55.8391],[116.5,56.02891],[117,56.21669],[117.5,56.40243],[118,56.58611],[118.5,56.76773],[119,56.94726],[119.5,57.12469],[120,57.30003],[120,57.30002],[120.5,57.47324],[121,57.64433],[121.5,57.81329],[122,57.98011],[122.5,58.14479],[122.5,58.1448],[123,58.30733],[123.5,58.46772],[124,58.62595],[124.5,58.78203],[125,58.93596],[125.5,59.08774],[126,59.23737],[126.5,59.38486],[127,59.5302],[127.5,59.6734],[128,59.81446],[128.5,59.95339],[129,60.0902],[129.5,60.22489],[130,60.35747],[130.5,60.48795],[131,60.61633],[131.5,60.74263],[132,60.86684],[132.5,60.98899],[133,61.10908],[133.5,61.22712],[134,61.34312],[134.5,61.45709],[135,61.56904],[135.5,61.67899],[135.5,61.67898],[136,61.78693],[136.5,61.8929],[137,61.99689],[137.5,62.09891],[138,62.19899],[138.5,62.29713],[139,62.39334],[139.5,62.48763],[140,62.58002],[140.5,62.67052],[141,62.75914],[141.5,62.84589],[142,62.93078],[142.5,63.01382],[143,63.09504],[143.5,63.17442],[144,63.252],[144.5,63.32778],[144.5,63.32777],[145,63.40176],[145.5,63.47397],[146,63.54441],[146.5,63.61309],[147,63.68002],[147.5,63.74522],[148,63.80869],[148.5,63.87044],[149,63.93048],[149.5,63.98883],[150,64.04549],[150.5,64.10046],[151,64.15377],[151.5,64.20541],[152,64.2554],[152.5,64.30374],[153,64.35044],[153.5,64.39551],[154,64.43895],[154.5,64.48078],[155,64.521],[155.5,64.55961],[156,64.59663],[156.5,64.63205],[157,64.66588],[157.5,64.69814],[158,64.72882],[158.5,64.75792],[159,64.78546],[159.5,64.81144],[160,64.83586],[160.5,64.85872],[161,64.88003],[161.5,64.89979],[162,64.918],[162.5,64.93467],[163,64.9498],[163.5,64.96339],[164,64.97544],[164.5,64.98595],[165,64.99492],[165.5,65.00236],[166,65.00826],[166.5,65.01262],[167,65.01545],[167.5,65.01673],[168,65.01648],[168.5,65.01469],[169,65.01136],[169.5,65.00648],[170,65.00005],[170.5,64.99208],[171,64.98255],[171.5,64.97147],[172,64.95882],[172.5,64.94461],[173,64.92883],[173.5,64.91148],[174,64.89255],[174.5,64.87204],[175,64.84993],[175.5,64.82623],[176,64.80092],[176.5,64.774],[177,64.74547],[177.5,64.71531],[178,64.68351],[178.5,64.65008],[179,64.61499],[179.5,64.57824],[180,64.53982]]}},{"type":"Feature","id":"+01490623:center:1","properties":{"id":"+01490623","year":149,"month":6,"day":23,"time_tdt":"02:42:52","type":"개기일식","type_code":"T","saros":68,"gamma":0.64953,"magnitude":1.03518,"greatest":{"lat":64.12743,"lng":-175.59406},"path_width_km":156.3,"duration":"02m29s","delta_t_seconds":9080.1,"catalog_number":5143,"source":"NASA Five Millennium Canon of Solar Eclipses","source_url":"https://eclipse.gsfc.nasa.gov/SEsearch/SEsearchmap.php?Ecl=%2B01490623","boundary":"center","name":"149-06-23 개기일식"},"geometry":{"type":"LineString","coordinates":[[-179.5,64.49972],[-179,64.45794],[-178.5,64.41445],[-178,64.36925],[-177.5,64.32232],[-177,64.27366],[-176.5,64.22325],[-176,64.17108],[-175.5,64.11714],[-175,64.06141],[-174.5,64.00388],[-174,63.94453],[-173.5,63.88336],[-173,63.82034],[-172.5,63.75546],[-172,63.6887],[-171.5,63.62005],[-171,63.5495],[-170.5,63.47702],[-170,63.40259],[-169.5,63.3262],[-169,63.24784],[-168.5,63.16748],[-168,63.0851],[-167.5,63.00069],[-167,62.91422],[-166.5,62.82568],[-166,62.73505],[-165.5,62.64229],[-165.5,62.6423],[-165,62.54741],[-164.5,62.45036],[-164,62.35114],[-163.5,62.24972],[-163,62.14608],[-162.5,62.04019],[-162,61.93203],[-161.5,61.82159],[-161,61.70883],[-160.5,61.59374],[-160,61.47629],[-159.5,61.35645],[-159,61.23422],[-158.5,61.10955],[-158,60.98243],[-157.5,60.85284],[-157,60.72075],[-156.5,60.58614],[-156,60.44898],[-155.5,60.30925],[-155,60.16693],[-154.5,60.022],[-154,59.87444],[-154,59.87443],[-153.5,59.72421],[-153,59.57131],[-152.5,59.4157],[-152,59.25738],[-151.5,59.09632],[-151,58.93249],[-150.5,58.7659],[-150,58.5965],[-149.5,58.4243],[-149,58.24926],[-148.5,58.07139],[-148,57.89067],[-147.5,57.70707],[-147,57.52061],[-146.5,57.33125],[-146,57.13901],[-145.5,56.94386],[-145,56.74581],[-144.5,56.54486],[-144,56.341],[-143.5,56.13424],[-143,55.92458],[-142.5,55.71203],[-142,55.49659],[-141.5,55.27828],[-141,55.05711],[-140.5,54.83309],[-140,54.60626],[-139.5,54.37662],[-139,54.1442],[-138.5,53.90904],[-138,53.67115],[-137.5,53.43059],[-137,53.18737],[-136.5,52.94155],[-136,52.69317],[-135.5,52.44226],[-135,52.18889],[-134.5,51.93311],[-134,51.67497],[-133.5,51.41453],[-133,51.15185],[-132.5,50.88701],[-132,50.62006],[-131.5,50.35108],[-131,50.08015],[-130.5,49.80734],[-130,49.53273],[-129.5,49.25639],[-129,48.97843],[-128.5,48.69892],[-128,48.41795],[-127.5,48.1356],[-127,47.85198],[-126.5,47.56718],[-126,47.28128],[-125.5,46.99438],[-125,46.70659],[-124.5,46.41798],[-124,46.12867],[-123.5,45.83875],[-123,45.54831],[-122.5,45.25745],[-122,44.96627],[-121.5,44.67485],[-121,44.38331],[-120.5,44.09172],[-120,43.80018],[-119.5,43.50878],[-119,43.21761],[-118.5,42.92676],[-118.5,42.92675],[-118,42.6363],[-117.5,42.34634],[-117,42.05694],[-116.5,41.76819],[-116,41.48016],[-115.5,41.19293],[-115,40.90658],[-115,40.90657],[-114.5,40.62116],[-114,40.33675],[-113.5,40.05342],[-113,39.77122],[-112.5,39.49022],[-112,39.21047],[-111.5,38.93204],[-111,38.65496],[-110.5,38.3793],[-110,38.1051],[-109.5,37.83241],[-109,37.56126],[-108.5,37.2917],[-108,37.02377],[-107.5,36.7575],[-107,36.49293],[-106.5,36.23008],[-106,35.969],[-105.5,35.7097],[-105,35.45221],[-104.5,35.19655],[-104,34.94276],[-104,34.94275],[-103.5,34.69083],[-103,34.44081],[-102.5,34.19269],[-102,33.9465],[-101.5,33.70226],[-101,33.45996],[-100.5,33.21963],[-100,32.98127],[-99.5,32.7449],[-99,32.51051],[-98.5,32.27811],[-98,32.04772],[-97.94341,32.00235]]}},{"type":"Feature","id":"+01490623:south:0","properties":{"id":"+01490623","year":149,"month":6,"day":23,"time_tdt":"02:42:52","type":"개기일식","type_code":"T","saros":68,"gamma":0.64953,"magnitude":1.03518,"greatest":{"lat":64.12743,"lng":-175.59406},"path_width_km":156.3,"duration":"02m29s","delta_t_seconds":9080.1,"catalog_number":5143,"source":"NASA Five Millennium Canon of Solar Eclipses","source_url":"https://eclipse.gsfc.nasa.gov/SEsearch/SEsearchmap.php?Ecl=%2B01490623","boundary":"south","name":"149-06-23 개기일식"},"geometry":{"type":"LineString","coordinates":[[85,40.99915],[85.5,41.23407],[86,41.46956],[86.5,41.70558],[87,41.9421],[87.5,42.17909],[88,42.41652],[88.5,42.65434],[89,42.89252],[89.5,43.13103],[90,43.36981],[90.5,43.60884],[91,43.84807],[91.5,44.08746],[92,44.32698],[92.5,44.56656],[93,44.80618],[93.5,45.04579],[94,45.28534],[94.5,45.52479],[95,45.76409],[95.5,46.0032],[96,46.24206],[96.5,46.48063],[97,46.71887],[97.5,46.95671],[98,47.19412],[98.5,47.43105],[99,47.66744],[99.5,47.90326],[100,48.13843],[100.5,48.37293],[101,48.6067],[101.5,48.83968],[102,49.07184],[102.5,49.30312],[103,49.53348],[103.5,49.76286],[104,49.99122],[104.5,50.21851],[105,50.44468],[105.5,50.6697],[106,50.89351],[106.5,51.11607],[107,51.33733],[107.5,51.55726],[108,51.7758],[108.5,51.99293],[109,52.20859],[109.5,52.42276],[110,52.63539],[110.5,52.84645],[111,53.05589],[111.5,53.26369],[112,53.46981],[112.5,53.67423],[113,53.8769],[113.5,54.0778],[114,54.2769],[114.5,54.47418],[115,54.6696],[115.5,54.86315],[116,55.0548],[116.5,55.24453],[117,55.43231],[117.5,55.61814],[118,55.80198],[118.5,55.98383],[119,56.16367],[119.5,56.34148],[120,56.51725],[120.5,56.69097],[121,56.86263],[121.5,57.03221],[122,57.19972],[122.5,57.36514],[123,57.52847],[123.5,57.6897],[123.5,57.68969],[124,57.84882],[124.5,58.00584],[125,58.16074],[125,58.16075],[125.5,58.31354],[126,58.46423],[126.5,58.6128],[127,58.75927],[127.5,58.90362],[128,59.04587],[128.5,59.18602],[129,59.32407],[129.5,59.46002],[130,59.59388],[130.5,59.72566],[131,59.85536],[131.5,59.98299],[132,60.10855],[132.5,60.23206],[133,60.35351],[133.5,60.47293],[134,60.59031],[134.5,60.70567],[135,60.81901],[135.5,60.93035],[136,61.03969],[136.5,61.14704],[137,61.25242],[137.5,61.35583],[138,61.45729],[138.5,61.5568],[139,61.65438],[139.5,61.75003],[140,61.84377],[140.5,61.9356],[141,62.02554],[141.5,62.1136],[141.5,62.11361],[142,62.19979],[142,62.1998],[142.5,62.28412],[143,62.3666],[143.5,62.44724],[144,62.52606],[144,62.52605],[144.5,62.60305],[145,62.67823],[145.5,62.75162],[146,62.82321],[146.5,62.89303],[147,62.96108],[147.5,63.02737],[148,63.09191],[148.5,63.15471],[149,63.21578],[149.5,63.27513],[150,63.33276],[150.5,63.38869],[151,63.44292],[151.5,63.49546],[152,63.54631],[152.5,63.5955],[153,63.64302],[153.5,63.68888],[154,63.73308],[154.5,63.77565],[155,63.81657],[155.5,63.85586],[156,63.89352],[156.5,63.92955],[157,63.96398],[157.5,63.99679],[158,64.02799],[158.5,64.05759],[159,64.0856],[159,64.08559],[159.5,64.112],[160,64.13682],[160.5,64.16005],[161,64.1817],[161.5,64.20177],[162,64.22025],[162.5,64.23716],[163,64.2525],[163.5,64.26626],[164,64.27845],[164.5,64.28907],[165,64.29811],[165.5,64.30559],[166,64.3115],[166.5,64.31583],[167,64.3186],[167.5,64.31979],[168,64.31941],[168.5,64.31745],[169,64.31392],[169.5,64.3088],[170,64.30211],[170.5,64.29383],[171,64.28396],[171.5,64.2725],[172,64.25944],[172.5,64.24478],[173,64.22852],[173.5,64.21065],[174,64.19116],[174.5,64.17005],[175,64.14732],[175.5,64.12295],[176,64.09694],[176.5,64.06928],[177,64.03997],[177.5,64.00899],[178,63.97635],[178.5,63.94202],[179,63.90601],[179.5,63.8683],[180,63.82888]]}},{"type":"Feature","id":"+01490623:south:1","properties":{"id":"+01490623","year":149,"month":6,"day":23,"time_tdt":"02:42:52","type":"개기일식","type_code":"T","saros":68,"gamma":0.64953,"magnitude":1.03518,"greatest":{"lat":64.12743,"lng":-175.59406},"path_width_km":156.3,"duration":"02m29s","delta_t_seconds":9080.1,"catalog_number":5143,"source":"NASA Five Millennium Canon of Solar Eclipses","source_url":"https://eclipse.gsfc.nasa.gov/SEsearch/SEsearchmap.php?Ecl=%2B01490623","boundary":"south","name":"149-06-23 개기일식"},"geometry":{"type":"LineString","coordinates":[[-179.5,63.78774],[-179,63.74488],[-178.5,63.70027],[-178,63.65392],[-177.5,63.6058],[-177,63.55591],[-176.5,63.50424],[-176,63.45076],[-175.5,63.39548],[-175,63.33837],[-174.5,63.27942],[-174,63.21862],[-173.5,63.15594],[-173,63.09139],[-172.5,63.02494],[-172,62.95657],[-171.5,62.88628],[-171,62.81404],[-170.5,62.73983],[-170,62.66365],[-169.5,62.58547],[-169,62.50527],[-168.5,62.42304],[-168,62.33875],[-167.5,62.2524],[-167,62.16395],[-166.5,62.0734],[-166,61.98071],[-165.5,61.88588],[-165,61.78887],[-164.5,61.68968],[-164,61.58827],[-163.5,61.48464],[-163.5,61.48463],[-163,61.37874],[-162.5,61.27058],[-162,61.16011],[-161.5,61.04733],[-161,60.93221],[-160.5,60.81472],[-160,60.69485],[-159.5,60.57258],[-159,60.44787],[-158.5,60.32071],[-158,60.19109],[-158,60.19108],[-157.5,60.05896],[-157,59.92432],[-156.5,59.78714],[-156,59.6474],[-155.5,59.50508],[-155,59.36016],[-154.5,59.21262],[-154,59.06243],[-153.5,58.90958],[-153,58.75405],[-153,58.75406],[-152.5,58.59583],[-152,58.43488],[-151.5,58.27121],[-151,58.10478],[-150.5,57.93559],[-150,57.76361],[-150,57.76362],[-149.5,57.58885],[-149,57.41128],[-149,57.41129],[-148.5,57.2309],[-148,57.0477],[-147.5,56.86166],[-147,56.67278],[-146.5,56.48106],[-146,56.28649],[-145.5,56.08907],[-145,55.88881],[-144.5,55.6857],[-144,55.47975],[-143.5,55.27096],[-143,55.05935],[-142.5,54.84493],[-142,54.62771],[-141.5,54.4077],[-141,54.18493],[-140.5,53.95941],[-140,53.73117],[-139.5,53.50025],[-139,53.26666],[-138.5,53.03044],[-138,52.79163],[-137.5,52.55026],[-137,52.30639],[-136.5,52.06004],[-136,51.81128],[-135.5,51.56014],[-135,51.3067],[-134.5,51.05099],[-134,50.79309],[-133.5,50.53305],[-133,50.27095],[-132.5,50.00684],[-132,49.74081],[-131.5,49.47292],[-131,49.20325],[-130.5,48.93188],[-130,48.65889],[-129.5,48.38436],[-129,48.10838],[-128.5,47.83103],[-128,47.5524],[-127.5,47.27258],[-127,46.99165],[-126.5,46.70972],[-126,46.42687],[-125.5,46.1432],[-125,45.85879],[-124.5,45.57374],[-124,45.28815],[-123.5,45.0021],[-123,44.71569],[-122.5,44.42901],[-122,44.14215],[-121.5,43.8552],[-121,43.56825],[-120.5,43.28139],[-120,42.9947],[-119.5,42.70827],[-119,42.42219],[-118.5,42.13652],[-118,41.85136],[-117.5,41.56678],[-117.5,41.56679],[-117,41.28286],[-117,41.28287],[-116.5,40.99967],[-116,40.71728],[-115.5,40.43576],[-115,40.15518],[-114.5,39.8756],[-114,39.59708],[-113.5,39.31968],[-113,39.04346],[-112.5,38.76848],[-112,38.49478],[-111.5,38.22242],[-111,37.95145],[-110.5,37.6819],[-110,37.41383],[-109.5,37.14728],[-109,36.88227],[-108.5,36.61886],[-108,36.35706],[-107.5,36.09693],[-107,35.83848],[-106.5,35.58174],[-106,35.32675],[-105.5,35.07352],[-105,34.82208],[-104.5,34.57245],[-104,34.32464],[-103.5,34.07868],[-103,33.83458],[-102.5,33.59236],[-102,33.35203],[-101.5,33.11361],[-101,32.87709],[-100.5,32.6425],[-100,32.40983],[-99.5,32.1791],[-99,31.95032],[-98.5,31.72348]]}},{"type":"Feature","id":"+01491218:north:0","properties":{"id":"+01491218","year":149,"month":12,"day":18,"time_tdt":"01:16:52","type":"금환일식","type_code":"A","saros":73,"gamma":-0.12036,"magnitude":0.93323,"greatest":{"lat":-30.68125,"lng":-160.65308},"path_width_km":251.3,"duration":"08m07s","delta_t_seconds":9075.5,"catalog_number":5144,"source":"NASA Five Millennium Canon of Solar Eclipses","source_url":"https://eclipse.gsfc.nasa.gov/SEsearch/SEsearchmap.php?Ecl=%2B01491218","boundary":"north","name":"149-12-18 금환일식"},"geometry":{"type":"LineString","coordinates":[[134.17188,-8.72355],[134.5,-8.87035],[135,-9.09469],[135.5,-9.31982],[136,-9.54572],[136.5,-9.77237],[137,-9.99975],[137.5,-10.22786],[138,-10.45667],[138.5,-10.68617],[139,-10.91633],[139.5,-11.14713],[140,-11.37856],[140.5,-11.6106],[141,-11.84321],[141.5,-12.07638],[142,-12.31009],[142.5,-12.5443],[143,-12.77899],[143.5,-13.01413],[144,-13.24969],[144.5,-13.48566],[145,-13.72198],[145.5,-13.95864],[146,-14.1956],[146.5,-14.43282],[147,-14.67028],[147.5,-14.90793],[148,-15.14573],[148.5,-15.38366],[149,-15.62166],[149.5,-15.8597],[150,-16.09774],[150.5,-16.33572],[151,-16.57362],[151.5,-16.81137],[152,-17.04894],[152.5,-17.28627],[153,-17.52331],[153.5,-17.76002],[154,-17.99634],[154.5,-18.23222],[155,-18.4676],[155.5,-18.70243],[156,-18.93664],[156.5,-19.17019],[157,-19.40301],[157.5,-19.63503],[158,-19.86621],[158.5,-20.09647],[159,-20.32575],[159.5,-20.55399],[160,-20.78113],[160.5,-21.00708],[161,-21.23179],[161.5,-21.45519],[162,-21.6772],[162.5,-21.89777],[163,-22.11681],[163.5,-22.33425],[164,-22.55003],[164.5,-22.76407],[165,-22.9763],[165.5,-23.18665],[166,-23.39504],[166.5,-23.60139],[167,-23.80564],[167.5,-24.00772],[168,-24.20754],[168.5,-24.40503],[169,-24.60012],[169.5,-24.79274],[170,-24.98281],[170.5,-25.17026],[171,-25.35502],[171.5,-25.53702],[172,-25.71618],[172.5,-25.89243],[173,-26.06571],[173.5,-26.23595],[174,-26.40306],[174.5,-26.567],[175,-26.72769],[175.5,-26.88507],[176,-27.03906],[176.5,-27.18961],[177,-27.33666],[177.5,-27.48013],[178,-27.61998],[178.5,-27.75613],[179,-27.88854],[179.5,-28.01715],[180,-28.14189]]}},{"type":"Feature","id":"+01491218:north:1","properties":{"id":"+01491218","year":149,"month":12,"day":18,"time_tdt":"01:16:52","type":"금환일식","type_code":"A","saros":73,"gamma":-0.12036,"magnitude":0.93323,"greatest":{"lat":-30.68125,"lng":-160.65308},"path_width_km":251.3,"duration":"08m07s","delta_t_seconds":9075.5,"catalog_number":5144,"source":"NASA Five Millennium Canon of Solar Eclipses","source_url":"https://eclipse.gsfc.nasa.gov/SEsearch/SEsearchmap.php?Ecl=%2B01491218","boundary":"north","name":"149-12-18 금환일식"},"geometry":{"type":"LineString","coordinates":[[-179.5,-28.26272],[-179,-28.37957],[-178.5,-28.4924],[-178,-28.60116],[-177.5,-28.70579],[-177,-28.80624],[-176.5,-28.90248],[-176,-28.99444],[-175.5,-29.08208],[-175,-29.16537],[-174.5,-29.24425],[-174,-29.31869],[-173.5,-29.38863],[-173,-29.45405],[-172.5,-29.51491],[-172,-29.57115],[-171.5,-29.62276],[-171,-29.66969],[-170.5,-29.7119],[-170,-29.74937],[-169.5,-29.78206],[-169,-29.80993],[-168.5,-29.83297],[-168,-29.85113],[-167.5,-29.86439],[-167,-29.87272],[-166.5,-29.8761],[-166,-29.8745],[-165.5,-29.86789],[-165,-29.85625],[-164.5,-29.83956],[-164,-29.8178],[-163.5,-29.79095],[-163,-29.75899],[-162.5,-29.72191],[-162,-29.67968],[-161.5,-29.63229],[-161,-29.57973],[-160.5,-29.522],[-160,-29.45907],[-159.5,-29.39094],[-159,-29.31761],[-158.5,-29.23907],[-158,-29.15532],[-157.5,-29.06636],[-157,-28.97218],[-156.5,-28.87281],[-156,-28.76823],[-155.5,-28.65847],[-155,-28.54353],[-154.5,-28.42344],[-154,-28.29819],[-153.5,-28.16783],[-153,-28.03236],[-152.5,-27.89182],[-152,-27.74624],[-151.5,-27.59565],[-151,-27.44009],[-150.5,-27.2796],[-150,-27.11422],[-149.5,-26.944],[-149,-26.769],[-148.5,-26.58927],[-148,-26.40486],[-147.5,-26.21585],[-147,-26.02229],[-146.5,-25.82427],[-146,-25.62185],[-145.5,-25.41512],[-145,-25.20416],[-144.5,-24.98906],[-144,-24.7699],[-143.5,-24.54678],[-143,-24.3198],[-142.5,-24.08905],[-142,-23.85466],[-141.5,-23.61671],[-141,-23.37532],[-140.5,-23.13061],[-140,-22.88268],[-139.5,-22.63166],[-139,-22.37767],[-138.5,-22.12082],[-138,-21.86124],[-137.5,-21.59905],[-137,-21.33439],[-136.5,-21.06736],[-136,-20.7981],[-135.5,-20.52674],[-135,-20.2534],[-134.5,-19.97821],[-134,-19.70129],[-133.5,-19.42277],[-133,-19.14276],[-132.5,-18.8614],[-132,-18.57881],[-131.5,-18.2951],[-131,-18.01038],[-130.5,-17.72479],[-130,-17.43842],[-129.5,-17.15139],[-129,-16.8638],[-128.5,-16.57577],[-128,-16.2874],[-127.5,-15.99878],[-127,-15.71001],[-126.5,-15.42119],[-126,-15.13241],[-125.5,-14.84376],[-125,-14.55532],[-124.5,-14.26717],[-124,-13.9794],[-123.5,-13.69208],[-123,-13.40528],[-122.5,-13.11907],[-122,-12.83352],[-121.5,-12.5487],[-121,-12.26466],[-120.5,-11.98146],[-120,-11.69916],[-119.5,-11.41782],[-119,-11.13747],[-118.5,-10.85818],[-118,-10.57997],[-117.5,-10.30291],[-117,-10.02702],[-116.5,-9.75234],[-116,-9.47891],[-115.5,-9.20677],[-115,-8.93594],[-114.5,-8.66645],[-114,-8.39833],[-113.5,-8.1316],[-113,-7.8663],[-112.5,-7.60244],[-112,-7.34003],[-111.5,-7.07911],[-111,-6.81969],[-110.5,-6.56177],[-110,-6.30538],[-109.5,-6.05054],[-109,-5.79724],[-108.5,-5.54551],[-108,-5.29534],[-107.5,-5.04676],[-107,-4.79976],[-106.5,-4.55436],[-106,-4.31055],[-105.5,-4.06835],[-105,-3.82776],[-104.5,-3.58877],[-104,-3.3514],[-103.5,-3.11564],[-103,-2.88149],[-102.5,-2.64896],[-102,-2.41805],[-101.5,-2.18875],[-101,-1.96106],[-100.5,-1.73498],[-100,-1.5105],[-99.80664,-1.42413]]}},{"type":"Feature","id":"+01491218:center:0","properties":{"id":"+01491218","year":149,"month":12,"day":18,"time_tdt":"01:16:52","type":"금환일식","type_code":"A","saros":73,"gamma":-0.12036,"magnitude":0.93323,"greatest":{"lat":-30.68125,"lng":-160.65308},"path_width_km":251.3,"duration":"08m07s","delta_t_seconds":9075.5,"catalog_number":5144,"source":"NASA Five Millennium Canon of Solar Eclipses","source_url":"https://eclipse.gsfc.nasa.gov/SEsearch/SEsearchmap.php?Ecl=%2B01491218","boundary":"center","name":"149-12-18 금환일식"},"geometry":{"type":"LineString","coordinates":[[133.38334,-9.98824],[133.5,-10.03949],[134,-10.26067],[134.5,-10.48263],[135,-10.70535],[135.5,-10.92881],[136,-11.15299],[136.5,-11.37789],[137,-11.60347],[137.5,-11.82973],[138,-12.05665],[138.5,-12.2842],[139,-12.51237],[139.5,-12.74113],[140,-12.97046],[140.5,-13.20034],[141,-13.43075],[141.5,-13.66165],[142,-13.89303],[142.5,-14.12486],[143,-14.35711],[143.5,-14.58975],[144,-14.82275],[144.5,-15.05608],[145,-15.28971],[145.5,-15.5236],[146,-15.75773],[146.5,-15.99205],[147,-16.22654],[147.5,-16.46114],[148,-16.69583],[148.5,-16.93056],[149,-17.1653],[149.5,-17.4],[150,-17.63461],[150.5,-17.8691],[151,-18.10342],[151.5,-18.33752],[152,-18.57135],[152.5,-18.80486],[153,-19.03801],[153.5,-19.27074],[154,-19.503],[154.5,-19.73473],[155,-19.96588],[155.5,-20.1964],[156,-20.42623],[156.5,-20.6553],[157,-20.88356],[157.5,-21.11095],[158,-21.33741],[158.5,-21.56287],[159,-21.78728],[159.5,-22.01056],[160,-22.23266],[160.5,-22.45351],[161,-22.67304],[161.5,-22.89119],[162,-23.10788],[162.5,-23.32306],[163,-23.53665],[163.5,-23.74858],[164,-23.95878],[164.5,-24.16719],[165,-24.37373],[165.5,-24.57834],[166,-24.78094],[166.5,-24.98146],[167,-25.17985],[167.5,-25.37601],[168,-25.56989],[168.5,-25.76142],[169,-25.95052],[169.5,-26.13713],[170,-26.32118],[170.5,-26.50259],[171,-26.68131],[171.5,-26.85727],[172,-27.0304],[172.5,-27.20063],[173,-27.3679],[173.5,-27.53215],[174,-27.69331],[174.5,-27.85132],[175,-28.00612],[175.5,-28.15765],[176,-28.30585],[176.5,-28.45066],[177,-28.59202],[177.5,-28.72988],[178,-28.86418],[178.5,-28.99487],[179,-29.1219],[179.5,-29.2452],[180,-29.36474]]}},{"type":"Feature","id":"+01491218:center:1","properties":{"id":"+01491218","year":149,"month":12,"day":18,"time_tdt":"01:16:52","type":"금환일식","type_code":"A","saros":73,"gamma":-0.12036,"magnitude":0.93323,"greatest":{"lat":-30.68125,"lng":-160.65308},"path_width_km":251.3,"duration":"08m07s","delta_t_seconds":9075.5,"catalog_number":5144,"source":"NASA Five Millennium Canon of Solar Eclipses","source_url":"https://eclipse.gsfc.nasa.gov/SEsearch/SEsearchmap.php?Ecl=%2B01491218","boundary":"center","name":"149-12-18 금환일식"},"geometry":{"type":"LineString","coordinates":[[-179.5,-29.48047],[-179,-29.59232],[-178.5,-29.70026],[-178,-29.80425],[-177.5,-29.90423],[-177,-30.00015],[-176.5,-30.09199],[-176,-30.17969],[-175.5,-30.26322],[-175,-30.34253],[-174.5,-30.41759],[-174,-30.48836],[-173.5,-30.55479],[-173,-30.61686],[-172.5,-30.67454],[-172,-30.72777],[-171.5,-30.77654],[-171,-30.82081],[-170.5,-30.86055],[-170,-30.89573],[-169.5,-30.92632],[-169,-30.95229],[-168.5,-30.97361],[-168,-30.99026],[-167.5,-31.00221],[-167,-31.00943],[-166.5,-31.0119],[-166,-31.0096],[-165.5,-31.00251],[-165,-30.9906],[-164.5,-30.97385],[-164,-30.95224],[-163.5,-30.92576],[-163,-30.89438],[-162.5,-30.85809],[-162,-30.81688],[-161.5,-30.77073],[-161,-30.71963],[-160.5,-30.66357],[-160,-30.60253],[-159.5,-30.53651],[-159,-30.46551],[-158.5,-30.38951],[-158,-30.30851],[-157.5,-30.22251],[-157,-30.13151],[-156.5,-30.03551],[-156,-29.93453],[-155.5,-29.82855],[-155,-29.7176],[-154.5,-29.60167],[-154,-29.4808],[-153.5,-29.35498],[-153,-29.22425],[-152.5,-29.08862],[-152,-28.94812],[-151.5,-28.80277],[-151,-28.65261],[-150.5,-28.49767],[-150,-28.33799],[-149.5,-28.1736],[-149,-28.00456],[-148.5,-27.83091],[-148,-27.65271],[-147.5,-27.47],[-147,-27.28285],[-146.5,-27.09131],[-146,-26.89547],[-145.5,-26.69537],[-145,-26.49111],[-144.5,-26.28276],[-144,-26.07039],[-143.5,-25.8541],[-143,-25.63397],[-142.5,-25.41009],[-142,-25.18256],[-141.5,-24.95147],[-141,-24.71693],[-140.5,-24.47903],[-140,-24.2379],[-139.5,-23.99362],[-139,-23.74633],[-138.5,-23.49612],[-138,-23.24311],[-137.5,-22.98743],[-137,-22.72918],[-136.5,-22.46848],[-136,-22.20547],[-135.5,-21.94025],[-135,-21.67294],[-134.5,-21.40368],[-134,-21.13257],[-133.5,-20.85975],[-133,-20.58532],[-132.5,-20.30941],[-132,-20.03214],[-131.5,-19.75362],[-131,-19.47397],[-130.5,-19.19331],[-130,-18.91173],[-129.5,-18.62937],[-129,-18.34631],[-128.5,-18.06268],[-128,-17.77856],[-127.5,-17.49407],[-127,-17.2093],[-126.5,-16.92435],[-126,-16.6393],[-125.5,-16.35426],[-125,-16.0693],[-124.5,-15.78452],[-124,-15.49999],[-123.5,-15.21579],[-123,-14.93199],[-122.5,-14.64868],[-122,-14.36592],[-121.5,-14.08377],[-121,-13.80231],[-120.5,-13.52159],[-120,-13.24166],[-119.5,-12.9626],[-119,-12.68444],[-118.5,-12.40725],[-118,-12.13106],[-117.5,-11.85593],[-117,-11.5819],[-116.5,-11.309],[-116,-11.03728],[-115.5,-10.76677],[-115,-10.4975],[-114.5,-10.22952],[-114,-9.96284],[-113.5,-9.6975],[-113,-9.43352],[-112.5,-9.17093],[-112,-8.90975],[-111.5,-8.64999],[-111,-8.39169],[-110.5,-8.13485],[-110,-7.8795],[-109.5,-7.62565],[-109,-7.37331],[-108.5,-7.12249],[-108,-6.87322],[-107.5,-6.62548],[-107,-6.37931],[-106.5,-6.1347],[-106,-5.89166],[-105.5,-5.65019],[-105,-5.41031],[-104.5,-5.17201],[-104,-4.9353],[-103.5,-4.70019],[-103,-4.46667],[-102.5,-4.23475],[-102,-4.00442],[-101.5,-3.77569],[-101,-3.54856],[-100.5,-3.32303],[-100,-3.09908],[-99.5,-2.87673],[-99.04237,-2.67582]]}},{"type":"Feature","id":"+01491218:south:0","properties":{"id":"+01491218","year":149,"month":12,"day":18,"time_tdt":"01:16:52","type":"금환일식","type_code":"A","saros":73,"gamma":-0.12036,"magnitude":0.93323,"greatest":{"lat":-30.68125,"lng":-160.65308},"path_width_km":251.3,"duration":"08m07s","delta_t_seconds":9075.5,"catalog_number":5144,"source":"NASA Five Millennium Canon of Solar Eclipses","source_url":"https://eclipse.gsfc.nasa.gov/SEsearch/SEsearchmap.php?Ecl=%2B01491218","boundary":"south","name":"149-12-18 금환일식"},"geometry":{"type":"LineString","coordinates":[[132.57812,-11.25798],[133,-11.44204],[133.5,-11.66089],[134,-11.88048],[134.5,-12.1008],[135,-12.32183],[135.5,-12.54356],[136,-12.76597],[136.5,-12.98904],[137,-13.21276],[137.5,-13.4371],[138,-13.66205],[138.5,-13.88758],[139,-14.11368],[139.5,-14.34031],[140,-14.56747],[140.5,-14.79511],[141,-15.02322],[141.5,-15.25178],[142,-15.48074],[142.5,-15.71009],[143,-15.9398],[143.5,-16.16984],[144,-16.40017],[144.5,-16.63077],[145,-16.8616],[145.5,-17.09262],[146,-17.3238],[146.5,-17.55511],[147,-17.78651],[147.5,-18.01796],[148,-18.24941],[148.5,-18.48084],[149,-18.71219],[149.5,-18.94342],[150,-19.1745],[150.5,-19.40536],[151,-19.63598],[151.5,-19.8663],[152,-20.09627],[152.5,-20.32584],[153,-20.55497],[153.5,-20.78359],[154,-21.01166],[154.5,-21.23912],[155,-21.46593],[155.5,-21.69201],[156,-21.91732],[156.5,-22.1418],[157,-22.36539],[157.5,-22.58803],[158,-22.80966],[158.5,-23.03021],[159,-23.24963],[159.5,-23.46786],[160,-23.68483],[160.5,-23.90048],[161,-24.11473],[161.5,-24.32754],[162,-24.53883],[162.5,-24.74854],[163,-24.9566],[163.5,-25.16295],[164,-25.36751],[164.5,-25.57023],[165,-25.77103],[165.5,-25.96986],[166,-26.16663],[166.5,-26.3613],[167,-26.55378],[167.5,-26.74402],[168,-26.93195],[168.5,-27.11751],[169,-27.30062],[169.5,-27.48123],[170,-27.65927],[170.5,-27.83467],[171,-28.00738],[171.5,-28.17734],[172,-28.34448],[172.5,-28.50873],[173,-28.67006],[173.5,-28.82838],[174,-28.98365],[174.5,-29.13581],[175,-29.2848],[175.5,-29.43056],[176,-29.57306],[176.5,-29.71222],[177,-29.848],[177.5,-29.98034],[178,-30.10921],[178.5,-30.23454],[179,-30.3563],[179.5,-30.47443],[180,-30.58888]]}},{"type":"Feature","id":"+01491218:south:1","properties":{"id":"+01491218","year":149,"month":12,"day":18,"time_tdt":"01:16:52","type":"금환일식","type_code":"A","saros":73,"gamma":-0.12036,"magnitude":0.93323,"greatest":{"lat":-30.68125,"lng":-160.65308},"path_width_km":251.3,"duration":"08m07s","delta_t_seconds":9075.5,"catalog_number":5144,"source":"NASA Five Millennium Canon of Solar Eclipses","source_url":"https://eclipse.gsfc.nasa.gov/SEsearch/SEsearchmap.php?Ecl=%2B01491218","boundary":"south","name":"149-12-18 금환일식"},"geometry":{"type":"LineString","coordinates":[[-179.5,-30.69962],[-179,-30.80661],[-178.5,-30.90979],[-178,-31.00912],[-177.5,-31.10457],[-177,-31.1961],[-176.5,-31.28367],[-176,-31.36723],[-175.5,-31.44676],[-175,-31.52222],[-174.5,-31.59357],[-174,-31.66078],[-173.5,-31.72382],[-173,-31.78265],[-172.5,-31.83725],[-172,-31.88757],[-171.5,-31.9336],[-171,-31.97531],[-170.5,-32.01266],[-170,-32.04563],[-169.5,-32.07419],[-169,-32.09832],[-168.5,-32.11799],[-168,-32.13318],[-167.5,-32.14386],[-167,-32.15001],[-166.5,-32.1516],[-166,-32.14863],[-165.5,-32.14106],[-165,-32.12888],[-164.5,-32.11206],[-164,-32.09059],[-163.5,-32.06445],[-163,-32.03363],[-162.5,-31.99811],[-162,-31.95787],[-161.5,-31.9129],[-161,-31.86319],[-160.5,-31.80873],[-160,-31.74951],[-159.5,-31.68551],[-159,-31.61673],[-158.5,-31.54316],[-158,-31.4648],[-157.5,-31.38165],[-157,-31.2937],[-156.5,-31.20095],[-156,-31.10341],[-155.5,-31.00108],[-155,-30.89396],[-154.5,-30.78206],[-154,-30.6654],[-153.5,-30.54398],[-153,-30.41782],[-152.5,-30.28693],[-152,-30.15134],[-151.5,-30.01107],[-151,-29.86615],[-150.5,-29.71659],[-150,-29.56244],[-149.5,-29.40373],[-149,-29.2405],[-148.5,-29.07278],[-148,-28.90062],[-147.5,-28.72407],[-147,-28.54318],[-146.5,-28.35801],[-146,-28.16861],[-145.5,-27.97504],[-145,-27.77737],[-144.5,-27.57567],[-144,-27.37001],[-143.5,-27.16046],[-143,-26.94711],[-142.5,-26.73003],[-142,-26.50932],[-141.5,-26.28506],[-141,-26.05734],[-140.5,-25.82626],[-140,-25.59191],[-139.5,-25.3544],[-139,-25.11382],[-138.5,-24.87029],[-138,-24.62391],[-137.5,-24.37478],[-137,-24.12303],[-136.5,-23.86875],[-136,-23.61207],[-135.5,-23.35309],[-135,-23.09194],[-134.5,-22.82873],[-134,-22.56357],[-133.5,-22.29658],[-133,-22.02787],[-132.5,-21.75757],[-132,-21.48578],[-131.5,-21.21262],[-131,-20.9382],[-130.5,-20.66264],[-130,-20.38605],[-129.5,-20.10852],[-129,-19.83018],[-128.5,-19.55112],[-128,-19.27145],[-127.5,-18.99128],[-127,-18.71069],[-126.5,-18.42979],[-126,-18.14866],[-125.5,-17.86741],[-125,-17.58612],[-124.5,-17.30488],[-124,-17.02377],[-123.5,-16.74286],[-123,-16.46225],[-122.5,-16.182],[-122,-15.90218],[-121.5,-15.62288],[-121,-15.34414],[-120.5,-15.06604],[-120,-14.78865],[-119.5,-14.512],[-119,-14.23618],[-118.5,-13.96122],[-118,-13.68718],[-117.5,-13.4141],[-117,-13.14204],[-116.5,-12.87103],[-116,-12.60113],[-115.5,-12.33236],[-115,-12.06476],[-114.5,-11.79837],[-114,-11.53323],[-113.5,-11.26935],[-113,-11.00678],[-112.5,-10.74554],[-112,-10.48564],[-111.5,-10.22713],[-111,-9.97001],[-110.5,-9.71432],[-110,-9.46006],[-109.5,-9.20725],[-109,-8.95591],[-108.5,-8.70606],[-108,-8.45771],[-107.5,-8.21087],[-107,-7.96555],[-106.5,-7.72176],[-106,-7.47951],[-105.5,-7.23881],[-105,-6.99966],[-104.5,-6.76208],[-104,-6.52606],[-103.5,-6.2916],[-103,-6.05872],[-102.5,-5.82742],[-102,-5.59769],[-101.5,-5.36954],[-101,-5.14297],[-100.5,-4.91798],[-100,-4.69457],[-99.5,-4.47274],[-99,-4.25248],[-98.5,-4.0338],[-98.26562,-3.93184]]}}],"attribution":"Eclipse Predictions by Fred Espenak and Jean Meeus (NASA's GSFC)","generated_at":"2026-09-23T01:44:45.730Z"}
