{"type":"FeatureCollection","year":190,"events":[{"id":"+01900422","year":190,"month":4,"day":22,"time_tdt":"08:26:19","type":"금환일식","type_code":"A","saros":80,"gamma":-0.34241,"magnitude":0.95512,"greatest":{"lat":-7.65208,"lng":94.0061},"path_width_km":173.6,"duration":"05m44s","delta_t_seconds":8692.8,"catalog_number":5236,"source":"NASA Five Millennium Canon of Solar Eclipses","source_url":"https://eclipse.gsfc.nasa.gov/SEsearch/SEsearchmap.php?Ecl=%2B01900422"},{"id":"+01901016","year":190,"month":10,"day":16,"time_tdt":"20:54:58","type":"혼성일식","type_code":"H3","saros":85,"gamma":0.42927,"magnitude":1.01519,"greatest":{"lat":15.60246,"lng":-93.4881},"path_width_km":57.5,"duration":"01m30s","delta_t_seconds":8688.2,"catalog_number":5237,"source":"NASA Five Millennium Canon of Solar Eclipses","source_url":"https://eclipse.gsfc.nasa.gov/SEsearch/SEsearchmap.php?Ecl=%2B01901016"}],"features":[{"type":"Feature","id":"+01900422:north:0","properties":{"id":"+01900422","year":190,"month":4,"day":22,"time_tdt":"08:26:19","type":"금환일식","type_code":"A","saros":80,"gamma":-0.34241,"magnitude":0.95512,"greatest":{"lat":-7.65208,"lng":94.0061},"path_width_km":173.6,"duration":"05m44s","delta_t_seconds":8692.8,"catalog_number":5236,"source":"NASA Five Millennium Canon of Solar Eclipses","source_url":"https://eclipse.gsfc.nasa.gov/SEsearch/SEsearchmap.php?Ecl=%2B01900422","boundary":"north","name":"190-04-22 금환일식"},"geometry":{"type":"LineString","coordinates":[[34.375,-33.32832],[34.5,-33.30244],[35,-33.19804],[35.5,-33.09215],[36,-32.98477],[36.5,-32.87589],[37,-32.76548],[37.5,-32.65354],[38,-32.54004],[38.5,-32.42497],[39,-32.30833],[39.5,-32.19008],[40,-32.07021],[40.5,-31.94872],[41,-31.82557],[41.5,-31.70076],[42,-31.57427],[42.5,-31.44607],[43,-31.31616],[43.5,-31.18451],[44,-31.0511],[44.5,-30.91592],[45,-30.77894],[45.5,-30.64015],[46,-30.49953],[46.5,-30.35705],[47,-30.2127],[47.5,-30.06646],[48,-29.9183],[48.5,-29.7682],[49,-29.61615],[49.5,-29.46211],[50,-29.30607],[50.5,-29.14801],[51,-28.9879],[51.5,-28.82571],[52,-28.66143],[52.5,-28.49503],[53,-28.32649],[53.5,-28.15578],[54,-27.98288],[54.5,-27.80776],[55,-27.63039],[55.5,-27.45076],[56,-27.26883],[56.5,-27.08459],[57,-26.89799],[57.5,-26.70903],[58,-26.51767],[58.5,-26.32388],[59,-26.12763],[59.5,-25.92891],[60,-25.72769],[60.5,-25.52393],[61,-25.31762],[61.5,-25.10872],[62,-24.89721],[62.5,-24.68306],[63,-24.46625],[63.5,-24.24675],[64,-24.02455],[64.5,-23.79961],[65,-23.57191],[65.5,-23.34143],[66,-23.10814],[66.5,-22.87204],[67,-22.6331],[67.5,-22.39129],[68,-22.14662],[68.5,-21.89905],[69,-21.64859],[69.5,-21.39522],[70,-21.13893],[70.5,-20.87972],[71,-20.61759],[71.5,-20.35254],[72,-20.08457],[72.5,-19.81369],[73,-19.53993],[73.5,-19.26329],[74,-18.98379],[74.5,-18.70148],[75,-18.41638],[75.5,-18.12853],[76,-17.83798],[76.5,-17.54479],[77,-17.24902],[77.5,-16.95073],[78,-16.65002],[78.5,-16.34696],[79,-16.04167],[79.5,-15.73423],[80,-15.42479],[80.5,-15.11345],[81,-14.80037],[81.5,-14.4857],[82,-14.1696],[82.5,-13.85226],[83,-13.53385],[83.5,-13.21457],[84,-12.89465],[84.5,-12.5743],[85,-12.25376],[85.5,-11.93328],[86,-11.6131],[86.5,-11.2935],[87,-10.97474],[87.5,-10.65711],[88,-10.34089],[88.5,-10.02638],[89,-9.71386],[89.5,-9.40362],[90,-9.09598],[90.5,-8.79121],[91,-8.4896],[91.5,-8.19145],[92,-7.89702],[92.5,-7.60659],[93,-7.32041],[93.5,-7.03873],[94,-6.76179],[94.5,-6.48981],[95,-6.22299],[95.5,-5.96153],[96,-5.7056],[96.5,-5.45536],[97,-5.21095],[97.5,-4.97249],[98,-4.74009],[98.5,-4.51385],[99,-4.29384],[99.5,-4.08012],[100,-3.87273],[100.5,-3.6717],[101,-3.47704],[101.5,-3.28877],[102,-3.10687],[102.5,-2.93132],[103,-2.76209],[103.5,-2.59913],[104,-2.44241],[104.5,-2.29185],[105,-2.1474],[105.5,-2.00899],[106,-1.87653],[106.5,-1.74995],[107,-1.62916],[107.5,-1.51407],[108,-1.40459],[108.5,-1.30062],[109,-1.20206],[109.5,-1.10883],[110,-1.02081],[110.5,-0.93791],[111,-0.86003],[111.5,-0.78706],[112,-0.7189],[112.5,-0.65546],[113,-0.59663],[113.5,-0.54231],[114,-0.49241],[114.5,-0.44683],[115,-0.40547],[115.5,-0.36824],[116,-0.33504],[116.5,-0.30579],[117,-0.28039],[117.5,-0.25875],[118,-0.24079],[118.5,-0.22642],[119,-0.21556],[119.5,-0.20813],[120,-0.20404],[120.5,-0.20322],[121,-0.20559],[121.5,-0.21108],[122,-0.21961],[122.5,-0.23111],[123,-0.24551],[123.5,-0.26275],[124,-0.28274],[124.5,-0.30544],[125,-0.33078],[125.5,-0.35869],[126,-0.38911],[126.5,-0.42199],[127,-0.45727],[127.5,-0.49488],[128,-0.53478],[128.5,-0.57691],[129,-0.62122],[129.5,-0.66766],[130,-0.71617],[130.5,-0.76672],[131,-0.81924],[131.5,-0.87371],[132,-0.93006],[132.5,-0.98825],[133,-1.04825],[133.5,-1.11001],[134,-1.17349],[134.5,-1.23865],[135,-1.30545],[135.5,-1.37384],[136,-1.44381],[136.5,-1.5153],[137,-1.58829],[137.5,-1.66273],[138,-1.73859],[138.5,-1.81585],[139,-1.89446],[139.5,-1.97441],[140,-2.05564],[140.5,-2.13814],[141,-2.22188],[141.5,-2.30683],[142,-2.39295],[142.5,-2.48022],[143,-2.56862],[143.5,-2.65812],[144,-2.74868],[144.5,-2.8403],[145,-2.93293],[145.5,-3.02657],[146,-3.12118],[146.5,-3.21674],[147,-3.31322],[147.5,-3.41062],[148,-3.5089],[148.5,-3.60804],[149,-3.70803],[149.5,-3.80884],[150,-3.91045],[150.40625,-3.99358]]}},{"type":"Feature","id":"+01900422:center:0","properties":{"id":"+01900422","year":190,"month":4,"day":22,"time_tdt":"08:26:19","type":"금환일식","type_code":"A","saros":80,"gamma":-0.34241,"magnitude":0.95512,"greatest":{"lat":-7.65208,"lng":94.0061},"path_width_km":173.6,"duration":"05m44s","delta_t_seconds":8692.8,"catalog_number":5236,"source":"NASA Five Millennium Canon of Solar Eclipses","source_url":"https://eclipse.gsfc.nasa.gov/SEsearch/SEsearchmap.php?Ecl=%2B01900422","boundary":"center","name":"190-04-22 금환일식"},"geometry":{"type":"LineString","coordinates":[[34.57178,-34.33961],[35,-34.23397],[35.5,-34.12643],[36,-34.01741],[36.5,-33.90688],[37,-33.79483],[37.5,-33.68125],[38,-33.56612],[38.5,-33.44943],[39,-33.33116],[39.5,-33.2113],[40,-33.08982],[40.5,-32.96672],[41,-32.84198],[41.5,-32.71557],[42,-32.58749],[42.5,-32.45771],[43,-32.32622],[43.5,-32.193],[44,-32.05804],[44.5,-31.9213],[45,-31.78278],[45.5,-31.64245],[46,-31.5003],[46.5,-31.3563],[47,-31.21044],[47.5,-31.0627],[48,-30.91304],[48.5,-30.76147],[49,-30.60794],[49.5,-30.45244],[50,-30.29495],[50.5,-30.13545],[51,-29.97391],[51.5,-29.81031],[52,-29.64463],[52.5,-29.47684],[53,-29.30692],[53.5,-29.13485],[54,-28.9606],[54.5,-28.78415],[55,-28.60546],[55.5,-28.42453],[56,-28.24131],[56.5,-28.0558],[57,-27.86795],[57.5,-27.67775],[58,-27.48516],[58.5,-27.29017],[59,-27.09275],[59.5,-26.89286],[60,-26.69049],[60.5,-26.48561],[61,-26.27819],[61.5,-26.0682],[62,-25.85563],[62.5,-25.64044],[63,-25.42261],[63.5,-25.20211],[64,-24.97893],[64.5,-24.75303],[65,-24.5244],[65.5,-24.29301],[66,-24.05884],[66.5,-23.82187],[67,-23.58208],[67.5,-23.33946],[68,-23.09399],[68.5,-22.84566],[69,-22.59445],[69.5,-22.34035],[70,-22.08335],[70.5,-21.82346],[71,-21.56066],[71.5,-21.29497],[72,-21.02637],[72.5,-20.75489],[73,-20.48053],[73.5,-20.20332],[74,-19.92326],[74.5,-19.6404],[75,-19.35475],[75.5,-19.06637],[76,-18.77529],[76.5,-18.48158],[77,-18.18528],[77.5,-17.88646],[78,-17.58521],[78.5,-17.28161],[79,-16.97575],[79.5,-16.66774],[80,-16.35769],[80.5,-16.04573],[81,-15.73199],[81.5,-15.41663],[82,-15.0998],[82.5,-14.78167],[83,-14.46243],[83.5,-14.14228],[84,-13.82143],[84.5,-13.50008],[85,-13.17848],[85.5,-12.85686],[86,-12.53548],[86.5,-12.2146],[87,-11.89449],[87.5,-11.57543],[88,-11.25771],[88.5,-10.94161],[89,-10.62743],[89.5,-10.31546],[90,-10.00601],[90.5,-9.69937],[91,-9.39583],[91.5,-9.09569],[92,-8.79922],[92.5,-8.5067],[93,-8.21841],[93.5,-7.93459],[94,-7.65548],[94.5,-7.38133],[95,-7.11234],[95.5,-6.84871],[96,-6.59064],[96.5,-6.33828],[97,-6.09179],[97.5,-5.85131],[98,-5.61694],[98.5,-5.38879],[99,-5.16694],[99.5,-4.95146],[100,-4.7424],[100.5,-4.53979],[101,-4.34365],[101.5,-4.154],[102,-3.97083],[102.5,-3.79411],[103,-3.62383],[103.5,-3.45994],[104,-3.30239],[104.5,-3.15113],[105,-3.00609],[105.5,-2.86721],[106,-2.7344],[106.5,-2.60759],[107,-2.48668],[107.5,-2.37158],[108,-2.26221],[108.5,-2.15846],[109,-2.06024],[109.5,-1.96744],[110,-1.87996],[110.5,-1.7977],[111,-1.72056],[111.5,-1.64843],[112,-1.5812],[112.5,-1.51878],[113,-1.46105],[113.5,-1.40793],[114,-1.3593],[114.5,-1.31507],[115,-1.27514],[115.5,-1.23941],[116,-1.20778],[116.5,-1.18016],[117,-1.15647],[117.5,-1.13659],[118,-1.12045],[118.5,-1.10796],[119,-1.09904],[119.5,-1.09359],[120,-1.09153],[120.5,-1.0928],[121,-1.09729],[121.5,-1.10495],[122,-1.11569],[122.5,-1.12943],[123,-1.14612],[123.5,-1.16567],[124,-1.18802],[124.5,-1.2131],[125,-1.24084],[125.5,-1.27119],[126,-1.30408],[126.5,-1.33945],[127,-1.37723],[127.5,-1.41738],[128,-1.45983],[128.5,-1.50453],[129,-1.55143],[129.5,-1.60048],[130,-1.65161],[130.5,-1.70479],[131,-1.75996],[131.5,-1.81708],[132,-1.8761],[132.5,-1.93697],[133,-1.99966],[133.5,-2.06411],[134,-2.13029],[134.5,-2.19816],[135,-2.26767],[135.5,-2.33879],[136,-2.41147],[136.5,-2.48569],[137,-2.5614],[137.5,-2.63857],[138,-2.71717],[138.5,-2.79716],[139,-2.8785],[139.5,-2.96117],[140,-3.04514],[140.5,-3.13036],[141,-3.21682],[141.5,-3.30449],[142,-3.39333],[142.5,-3.48332],[143,-3.57443],[143.5,-3.66663],[144,-3.7599],[144.5,-3.85421],[145,-3.94954],[145.5,-4.04586],[146,-4.14315],[146.5,-4.24138],[147,-4.34053],[147.5,-4.44058],[148,-4.54152],[148.5,-4.6433],[149,-4.74592],[149.5,-4.84936],[150,-4.95359],[150.31677,-5.01969]]}},{"type":"Feature","id":"+01900422:south:0","properties":{"id":"+01900422","year":190,"month":4,"day":22,"time_tdt":"08:26:19","type":"금환일식","type_code":"A","saros":80,"gamma":-0.34241,"magnitude":0.95512,"greatest":{"lat":-7.65208,"lng":94.0061},"path_width_km":173.6,"duration":"05m44s","delta_t_seconds":8692.8,"catalog_number":5236,"source":"NASA Five Millennium Canon of Solar Eclipses","source_url":"https://eclipse.gsfc.nasa.gov/SEsearch/SEsearchmap.php?Ecl=%2B01900422","boundary":"south","name":"190-04-22 금환일식"},"geometry":{"type":"LineString","coordinates":[[35,-35.27694],[35.5,-35.16777],[36,-35.05711],[36.5,-34.94496],[37,-34.83129],[37.5,-34.71609],[38,-34.59934],[38.5,-34.48104],[39,-34.36116],[39.5,-34.2397],[40,-34.11663],[40.5,-33.99193],[41,-33.8656],[41.5,-33.73762],[42,-33.60796],[42.5,-33.47662],[43,-33.34357],[43.5,-33.2088],[44,-33.07228],[44.5,-32.93401],[45,-32.79395],[45.5,-32.6521],[46,-32.50844],[46.5,-32.36293],[47,-32.21557],[47.5,-32.06634],[48,-31.91521],[48.5,-31.76216],[49,-31.60717],[49.5,-31.45023],[50,-31.2913],[50.5,-31.13037],[51,-30.96741],[51.5,-30.80241],[52,-30.63533],[52.5,-30.46617],[53,-30.29488],[53.5,-30.12146],[54,-29.94587],[54.5,-29.76809],[55,-29.58809],[55.5,-29.40586],[56,-29.22137],[56.5,-29.03459],[57,-28.84549],[57.5,-28.65406],[58,-28.46026],[58.5,-28.26408],[59,-28.06547],[59.5,-27.86443],[60,-27.66092],[60.5,-27.45491],[61,-27.24639],[61.5,-27.03532],[62,-26.82168],[62.5,-26.60545],[63,-26.3866],[63.5,-26.16511],[64,-25.94095],[64.5,-25.7141],[65,-25.48453],[65.5,-25.25223],[66,-25.01718],[66.5,-24.77935],[67,-24.53872],[67.5,-24.29528],[68,-24.04902],[68.5,-23.79991],[69,-23.54795],[69.5,-23.29312],[70,-23.03542],[70.5,-22.77484],[71,-22.51138],[71.5,-22.24503],[72,-21.97581],[72.5,-21.70372],[73,-21.42877],[73.5,-21.15098],[74,-20.87036],[74.5,-20.58695],[75,-20.30076],[75.5,-20.01185],[76,-19.72025],[76.5,-19.42601],[77,-19.12918],[77.5,-18.82985],[78,-18.52807],[78.5,-18.22393],[79,-17.91752],[79.5,-17.60894],[80,-17.2983],[80.5,-16.98572],[81,-16.67135],[81.5,-16.35531],[82,-16.03776],[82.5,-15.71888],[83,-15.39885],[83.5,-15.07784],[84,-14.75607],[84.5,-14.43375],[85,-14.11112],[85.5,-13.7884],[86,-13.46584],[86.5,-13.14372],[87,-12.82228],[87.5,-12.50182],[88,-12.18262],[88.5,-11.86496],[89,-11.54914],[89.5,-11.23547],[90,-10.92423],[90.5,-10.61573],[91,-10.31027],[91.5,-10.00814],[92,-9.70964],[92.5,-9.41504],[93,-9.12461],[93.5,-8.83863],[94,-8.55735],[94.5,-8.281],[95,-8.0098],[95.5,-7.74398],[96,-7.48372],[96.5,-7.2292],[97,-6.98059],[97.5,-6.73802],[98,-6.50162],[98.5,-6.2715],[99,-6.04775],[99.5,-5.83044],[100,-5.61964],[100.5,-5.41538],[101,-5.21769],[101.5,-5.02658],[102,-4.84206],[102.5,-4.66411],[103,-4.49269],[103.5,-4.32779],[104,-4.16935],[104.5,-4.01731],[105,-3.87162],[105.5,-3.7322],[106,-3.59897],[106.5,-3.47186],[107,-3.35077],[107.5,-3.23561],[108,-3.12629],[108.5,-3.02271],[109,-2.92476],[109.5,-2.83235],[110,-2.74536],[110.5,-2.66369],[111,-2.58725],[111.5,-2.51591],[112,-2.44957],[112.5,-2.38813],[113,-2.33148],[113.5,-2.27951],[114,-2.23213],[114.5,-2.18922],[115,-2.15069],[115.5,-2.11643],[116,-2.08635],[116.5,-2.06035],[117,-2.03833],[117.5,-2.0202],[118,-2.00587],[118.5,-1.99524],[119,-1.98824],[119.5,-1.98476],[120,-1.98473],[120.5,-1.98806],[121,-1.99467],[121.5,-2.00449],[122,-2.01743],[122.5,-2.03341],[123,-2.05238],[123.5,-2.07424],[124,-2.09894],[124.5,-2.1264],[125,-2.15655],[125.5,-2.18933],[126,-2.22468],[126.5,-2.26254],[127,-2.30284],[127.5,-2.34552],[128,-2.39052],[128.5,-2.4378],[129,-2.48728],[129.5,-2.53893],[130,-2.59269],[130.5,-2.6485],[131,-2.70633],[131.5,-2.76611],[132,-2.8278],[132.5,-2.89135],[133,-2.95673],[133.5,-3.02388],[134,-3.09277],[134.5,-3.16335],[135,-3.23558],[135.5,-3.30942],[136,-3.38483],[136.5,-3.46177],[137,-3.54022],[137.5,-3.62012],[138,-3.70145],[138.5,-3.78418],[139,-3.86826],[139.5,-3.95366],[140,-4.04036],[140.5,-4.12832],[141,-4.21751],[141.5,-4.30791],[142,-4.39947],[142.5,-4.49218],[143,-4.58601],[143.5,-4.68092],[144,-4.7769],[144.5,-4.87391],[145,-4.97194],[145.5,-5.07095],[146,-5.17092],[146.5,-5.27183],[147,-5.37366],[147.5,-5.47638],[148,-5.57997],[148.5,-5.68441],[149,-5.78967],[149.5,-5.89574],[150,-6.0026],[150.23633,-6.05338]]}},{"type":"Feature","id":"+01901016:north:0","properties":{"id":"+01901016","year":190,"month":10,"day":16,"time_tdt":"20:54:58","type":"혼성일식","type_code":"H3","saros":85,"gamma":0.42927,"magnitude":1.01519,"greatest":{"lat":15.60246,"lng":-93.4881},"path_width_km":57.5,"duration":"01m30s","delta_t_seconds":8688.2,"catalog_number":5237,"source":"NASA Five Millennium Canon of Solar Eclipses","source_url":"https://eclipse.gsfc.nasa.gov/SEsearch/SEsearchmap.php?Ecl=%2B01901016","boundary":"north","name":"190-10-16 혼성일식"},"geometry":{"type":"LineString","coordinates":[[-158.625,41.4133],[-158.5,41.39292],[-158,41.31058],[-157.5,41.22689],[-157,41.14186],[-156.5,41.05546],[-156,40.96769],[-155.5,40.87854],[-155,40.78799],[-154.5,40.69603],[-154,40.60373],[-153.5,40.5131],[-153,40.42105],[-152.5,40.32757],[-152,40.23264],[-151.5,40.13625],[-151,40.03838],[-150.5,39.93903],[-150,39.83818],[-149.5,39.73582],[-149,39.63193],[-148.5,39.52649],[-148,39.41951],[-147.5,39.31095],[-147,39.20081],[-146.5,39.08908],[-146,38.97573],[-145.5,38.86075],[-145,38.74412],[-144.5,38.62584],[-144,38.50588],[-143.5,38.38423],[-143,38.26087],[-142.5,38.13579],[-142,38.00897],[-141.5,37.88039],[-141,37.75003],[-140.5,37.61789],[-140,37.48393],[-139.5,37.34814],[-139,37.21051],[-138.5,37.07102],[-138,36.92965],[-137.5,36.78637],[-137,36.64117],[-136.5,36.49404],[-136,36.34495],[-135.5,36.19388],[-135,36.04082],[-134.5,35.88574],[-134,35.72863],[-133.5,35.56946],[-133,35.40822],[-132.5,35.24488],[-132,35.07943],[-131.5,34.91184],[-131,34.74209],[-130.5,34.57017],[-130,34.39605],[-129.5,34.21972],[-129,34.04115],[-128.5,33.86032],[-128,33.67721],[-127.5,33.49181],[-127,33.30409],[-126.5,33.11404],[-126,32.92163],[-125.5,32.72684],[-125,32.52967],[-124.5,32.33008],[-124,32.12806],[-123.5,31.9236],[-123,31.71668],[-122.5,31.50728],[-122,31.29539],[-121.5,31.081],[-121,30.86408],[-120.5,30.64464],[-120,30.42265],[-119.5,30.19812],[-119,29.97103],[-118.5,29.74137],[-118,29.50915],[-117.5,29.27435],[-117,29.03699],[-116.5,28.79705],[-116,28.55455],[-115.5,28.30949],[-115,28.06188],[-114.5,27.81173],[-114,27.55906],[-113.5,27.30389],[-113,27.04624],[-112.5,26.78613],[-112,26.5236],[-111.5,26.25868],[-111,25.99141],[-110.5,25.72184],[-110,25.45001],[-109.5,25.17598],[-109,24.89981],[-108.5,24.62157],[-108,24.34132],[-107.5,24.05915],[-107,23.77514],[-106.5,23.48938],[-106,23.20198],[-105.5,22.91303],[-105,22.62265],[-104.5,22.33096],[-104,22.03809],[-103.5,21.74418],[-103,21.44935],[-102.5,21.15377],[-102,20.85759],[-101.5,20.56097],[-101,20.26408],[-100.5,19.96709],[-100,19.67019],[-99.5,19.37357],[-99,19.07741],[-98.5,18.78191],[-98,18.48727],[-97.5,18.19368],[-97,17.90137],[-96.5,17.61052],[-96,17.32135],[-95.5,17.03405],[-95,16.74885],[-94.5,16.46593],[-94,16.1855],[-93.5,15.90775],[-93,15.63287],[-92.5,15.36105],[-92,15.09247],[-91.5,14.82731],[-91,14.56572],[-90.5,14.30787],[-90,14.0539],[-89.5,13.80396],[-89,13.55817],[-88.5,13.31666],[-88,13.07954],[-87.5,12.84691],[-87,12.61887],[-86.5,12.39549],[-86,12.17685],[-85.5,11.96302],[-85,11.75403],[-84.5,11.54995],[-84,11.35081],[-83.5,11.15662],[-83,10.96742],[-82.5,10.78321],[-82,10.60399],[-81.5,10.42977],[-81,10.26053],[-80.5,10.09625],[-80,9.93692],[-79.5,9.7825],[-79,9.63297],[-78.5,9.48829],[-78,9.34841],[-77.5,9.2133],[-77,9.0829],[-76.5,8.95717],[-76,8.83604],[-75.5,8.71948],[-75,8.60741],[-74.5,8.49978],[-74,8.39652],[-73.5,8.29759],[-73,8.2029],[-72.5,8.1124],[-72,8.02602],[-71.5,7.9437],[-71,7.86537],[-70.5,7.79097],[-70,7.72043],[-69.5,7.65368],[-69,7.59067],[-68.5,7.53132],[-68,7.47556],[-67.5,7.42335],[-67,7.3746],[-66.5,7.32927],[-66,7.28728],[-65.5,7.24858],[-65,7.2131],[-64.5,7.18078],[-64,7.15158],[-63.5,7.12542],[-63,7.10225],[-62.5,7.08201],[-62,7.06465],[-61.5,7.05011],[-61,7.03835],[-60.5,7.0293],[-60,7.02292],[-59.5,7.01915],[-59,7.01794],[-58.5,7.01925],[-58,7.02303],[-57.5,7.02922],[-57,7.03779],[-56.5,7.04869],[-56,7.06187],[-55.5,7.07729],[-55,7.09491],[-54.5,7.11469],[-54,7.13657],[-53.5,7.16053],[-53,7.18653],[-52.5,7.21452],[-52,7.24447],[-51.5,7.27634],[-51,7.31009],[-50.5,7.34569],[-50,7.3831],[-49.5,7.42229],[-49,7.46323],[-48.5,7.50588],[-48,7.55021],[-47.5,7.59619],[-47,7.64378],[-46.5,7.69297],[-46,7.74371],[-45.5,7.79598],[-45,7.84974],[-44.5,7.90498],[-44,7.96167],[-43.5,8.01977],[-43,8.07926],[-42.5,8.14011],[-42,8.20231],[-41.5,8.26582],[-41,8.33062],[-40.5,8.39668],[-40,8.46399],[-39.5,8.53252],[-39,8.60225],[-38.5,8.67314],[-38,8.7452],[-37.5,8.81838],[-37,8.89268],[-36.5,8.96806],[-36.24219,9.00735]]}},{"type":"Feature","id":"+01901016:center:0","properties":{"id":"+01901016","year":190,"month":10,"day":16,"time_tdt":"20:54:58","type":"혼성일식","type_code":"H3","saros":85,"gamma":0.42927,"magnitude":1.01519,"greatest":{"lat":15.60246,"lng":-93.4881},"path_width_km":57.5,"duration":"01m30s","delta_t_seconds":8688.2,"catalog_number":5237,"source":"NASA Five Millennium Canon of Solar Eclipses","source_url":"https://eclipse.gsfc.nasa.gov/SEsearch/SEsearchmap.php?Ecl=%2B01901016","boundary":"center","name":"190-10-16 혼성일식"},"geometry":{"type":"LineString","coordinates":[[-158.70297,41.41646],[-158.5,41.3751],[-158,41.29476],[-157.5,41.21308],[-157,41.13006],[-156.5,41.0457],[-156,40.95997],[-155.5,40.87286],[-155,40.78437],[-154.5,40.69449],[-154,40.60319],[-153.5,40.51048],[-153,40.41633],[-152.5,40.32073],[-152,40.22368],[-151.5,40.12515],[-151,40.02514],[-150.5,39.92363],[-150,39.82061],[-149.5,39.71607],[-149,39.60998],[-148.5,39.50235],[-148,39.39314],[-147.5,39.28236],[-147,39.16998],[-146.5,39.05598],[-146,38.94037],[-145.5,38.8231],[-145,38.70419],[-144.5,38.5836],[-144,38.46132],[-143.5,38.33733],[-143,38.21162],[-142.5,38.08418],[-142,37.95498],[-141.5,37.82401],[-141,37.69125],[-140.5,37.55668],[-140,37.42029],[-139.5,37.28205],[-139,37.14196],[-138.5,36.99998],[-138,36.85611],[-137.5,36.71032],[-137,36.5626],[-136.5,36.41292],[-136,36.26127],[-135.5,36.10763],[-135,35.95198],[-134.5,35.79429],[-134,35.63455],[-133.5,35.47274],[-133,35.30884],[-132.5,35.14282],[-132,34.97467],[-131.5,34.80437],[-131,34.6319],[-130.5,34.45723],[-130,34.28035],[-129.5,34.10124],[-129,33.91987],[-128.5,33.73623],[-128,33.55029],[-127.5,33.36203],[-127,33.17145],[-126.5,32.97851],[-126,32.78319],[-125.5,32.58549],[-125,32.38537],[-124.5,32.18283],[-124,31.97784],[-123.5,31.7704],[-123,31.56047],[-122.5,31.34805],[-122,31.13313],[-121.5,30.91568],[-121,30.6957],[-120.5,30.47318],[-120,30.2481],[-119.5,30.02046],[-119,29.79025],[-118.5,29.55746],[-118,29.3221],[-117.5,29.08416],[-117,28.84364],[-116.5,28.60054],[-116,28.35487],[-115.5,28.10664],[-115,27.85585],[-114.5,27.60253],[-114,27.34669],[-113.5,27.08835],[-113,26.82753],[-112.5,26.56427],[-112,26.29859],[-111.5,26.03054],[-111,25.76015],[-110.5,25.48748],[-110,25.21257],[-109.5,24.93549],[-109,24.6563],[-108.5,24.37506],[-108,24.09186],[-107.5,23.80677],[-107,23.51989],[-106.5,23.23131],[-106,22.94114],[-105.5,22.64948],[-105,22.35646],[-104.5,22.06219],[-104,21.76681],[-103.5,21.47047],[-103,21.1733],[-102.5,20.87547],[-102,20.57712],[-101.5,20.27844],[-101,19.97959],[-100.5,19.68076],[-100,19.38212],[-99.5,19.08388],[-99,18.78622],[-98.5,18.48935],[-98,18.19347],[-97.5,17.89878],[-97,17.60549],[-96.5,17.31381],[-96,17.02395],[-95.5,16.73611],[-95,16.4505],[-94.5,16.16732],[-94,15.88678],[-93.5,15.60906],[-93,15.33436],[-92.5,15.06285],[-92,14.79473],[-91.5,14.53016],[-91,14.26931],[-90.5,14.01232],[-90,13.75935],[-89.5,13.51053],[-89,13.26599],[-88.5,13.02584],[-88,12.7902],[-87.5,12.55916],[-87,12.33281],[-86.5,12.11122],[-86,11.89447],[-85.5,11.68261],[-85,11.47569],[-84.5,11.27375],[-84,11.07683],[-83.5,10.88493],[-83,10.69809],[-82.5,10.5163],[-82,10.33957],[-81.5,10.16788],[-81,10.00122],[-80.5,9.83958],[-80,9.68293],[-79.5,9.53123],[-79,9.38445],[-78.5,9.24255],[-78,9.1055],[-77.5,8.97323],[-77,8.8457],[-76.5,8.72286],[-76,8.60466],[-75.5,8.49103],[-75,8.38191],[-74.5,8.27724],[-74,8.17697],[-73.5,8.08102],[-73,7.98933],[-72.5,7.90184],[-72,7.81848],[-71.5,7.73918],[-71,7.66388],[-70.5,7.59252],[-70,7.52501],[-69.5,7.4613],[-69,7.40132],[-68.5,7.34501],[-68,7.2923],[-67.5,7.24312],[-67,7.19741],[-66.5,7.15511],[-66,7.11616],[-65.5,7.08049],[-65,7.04804],[-64.5,7.01875],[-64,6.99257],[-63.5,6.96942],[-63,6.94927],[-62.5,6.93204],[-62,6.91768],[-61.5,6.90614],[-61,6.89737],[-60.5,6.89131],[-60,6.88791],[-59.5,6.88711],[-59,6.88888],[-58.5,6.89315],[-58,6.89988],[-57.5,6.90903],[-57,6.92054],[-56.5,6.93437],[-56,6.95048],[-55.5,6.96882],[-55,6.98936],[-54.5,7.01204],[-54,7.03682],[-53.5,7.06367],[-53,7.09255],[-52.5,7.12342],[-52,7.15624],[-51.5,7.19096],[-51,7.22757],[-50.5,7.26601],[-50,7.30626],[-49.5,7.34828],[-49,7.39204],[-48.5,7.4375],[-48,7.48463],[-47.5,7.5334],[-47,7.58378],[-46.5,7.63574],[-46,7.68925],[-45.5,7.74428],[-45,7.80079],[-44.5,7.85877],[-44,7.91819],[-43.5,7.97901],[-43,8.04122],[-42.5,8.10478],[-42,8.16967],[-41.5,8.23586],[-41,8.30334],[-40.5,8.37207],[-40,8.44204],[-39.5,8.51322],[-39,8.58558],[-38.5,8.65911],[-38,8.73378],[-37.5,8.80957],[-37,8.88647],[-36.5,8.96445],[-36.24263,9.00426]]}},{"type":"Feature","id":"+01901016:south:0","properties":{"id":"+01901016","year":190,"month":10,"day":16,"time_tdt":"20:54:58","type":"혼성일식","type_code":"H3","saros":85,"gamma":0.42927,"magnitude":1.01519,"greatest":{"lat":15.60246,"lng":-93.4881},"path_width_km":57.5,"duration":"01m30s","delta_t_seconds":8688.2,"catalog_number":5237,"source":"NASA Five Millennium Canon of Solar Eclipses","source_url":"https://eclipse.gsfc.nasa.gov/SEsearch/SEsearchmap.php?Ecl=%2B01901016","boundary":"south","name":"190-10-16 혼성일식"},"geometry":{"type":"LineString","coordinates":[[-158.71484,41.39056],[-158.5,41.3573],[-158,41.27895],[-157.5,41.19928],[-157,41.11828],[-156.5,41.03594],[-156,40.95225],[-155.5,40.86719],[-155,40.78076],[-154.5,40.69294],[-154,40.60266],[-153.5,40.50785],[-153,40.41159],[-152.5,40.31388],[-152,40.2147],[-151.5,40.11404],[-151,40.01188],[-150.5,39.90821],[-150,39.80301],[-149.5,39.69628],[-149,39.588],[-148.5,39.47815],[-148,39.36673],[-147.5,39.25371],[-147,39.13908],[-146.5,39.02282],[-146,38.90493],[-145.5,38.78538],[-145,38.66416],[-144.5,38.54125],[-144,38.41664],[-143.5,38.29031],[-143,38.16225],[-142.5,38.03243],[-142,37.90085],[-141.5,37.76747],[-141,37.6323],[-140.5,37.4953],[-140,37.35646],[-139.5,37.21576],[-139,37.07319],[-138.5,36.92872],[-138,36.78234],[-137.5,36.63403],[-137,36.48377],[-136.5,36.33154],[-136,36.17731],[-135.5,36.02108],[-135,35.86282],[-134.5,35.70251],[-134,35.54013],[-133.5,35.37566],[-133,35.20908],[-132.5,35.04037],[-132,34.86952],[-131.5,34.69649],[-131,34.52127],[-130.5,34.34384],[-130,34.16418],[-129.5,33.98226],[-129,33.79808],[-128.5,33.6116],[-128,33.42281],[-127.5,33.23168],[-127,33.03821],[-126.5,32.84236],[-126,32.64412],[-125.5,32.44347],[-125,32.2404],[-124.5,32.03488],[-124,31.8269],[-123.5,31.61644],[-123,31.40348],[-122.5,31.18802],[-122,30.97003],[-121.5,30.74951],[-121,30.52644],[-120.5,30.30082],[-120,30.07262],[-119.5,29.84185],[-119,29.6085],[-118.5,29.37256],[-118,29.13403],[-117.5,28.89292],[-117,28.64921],[-116.5,28.40293],[-116,28.15407],[-115.5,27.90264],[-115,27.64866],[-114.5,27.39214],[-114,27.1331],[-113.5,26.87156],[-113,26.60756],[-112.5,26.34112],[-112,26.07227],[-111.5,25.80107],[-111,25.52754],[-110.5,25.25175],[-110,24.97375],[-109.5,24.6936],[-109,24.41137],[-108.5,24.12713],[-108,23.84096],[-107.5,23.55295],[-107,23.26319],[-106.5,22.97179],[-106,22.67884],[-105.5,22.38447],[-105,22.08881],[-104.5,21.79197],[-104,21.49409],[-103.5,21.19533],[-103,20.89583],[-102.5,20.59575],[-102,20.29527],[-101.5,19.99454],[-101,19.69376],[-100.5,19.3931],[-100,19.09276],[-99.5,18.79293],[-99,18.49381],[-98.5,18.1956],[-98,17.89852],[-97.5,17.60277],[-97,17.30855],[-96.5,17.01609],[-96,16.72558],[-95.5,16.43724],[-95,16.15128],[-94.5,15.86789],[-94,15.58728],[-93.5,15.30964],[-93,15.03517],[-92.5,14.76404],[-92,14.49642],[-91.5,14.2325],[-91,13.97243],[-90.5,13.71636],[-90,13.46443],[-89.5,13.21678],[-89,12.97353],[-88.5,12.73479],[-88,12.50067],[-87.5,12.27125],[-87,12.04663],[-86.5,11.82687],[-86,11.61204],[-85.5,11.40219],[-85,11.19737],[-84.5,10.9976],[-84,10.80292],[-83.5,10.61335],[-83,10.42889],[-82.5,10.24954],[-82,10.0753],[-81.5,9.90617],[-81,9.74211],[-80.5,9.58312],[-80,9.42915],[-79.5,9.28018],[-79,9.13616],[-78.5,8.99706],[-78,8.86283],[-77.5,8.73341],[-77,8.60876],[-76.5,8.48882],[-76,8.37353],[-75.5,8.26283],[-75,8.15666],[-74.5,8.05496],[-74,7.95767],[-73.5,7.86471],[-73,7.77602],[-72.5,7.69153],[-72,7.61118],[-71.5,7.5349],[-71,7.46263],[-70.5,7.39429],[-70,7.32981],[-69.5,7.26913],[-69,7.21219],[-68.5,7.15891],[-68,7.10923],[-67.5,7.06309],[-67,7.02041],[-66.5,6.98114],[-66,6.94522],[-65.5,6.91257],[-65,6.88314],[-64.5,6.85688],[-64,6.8337],[-63.5,6.81357],[-63,6.79642],[-62.5,6.7822],[-62,6.77084],[-61.5,6.76229],[-61,6.75651],[-60.5,6.75343],[-60,6.753],[-59.5,6.75517],[-59,6.7599],[-58.5,6.76713],[-58,6.77682],[-57.5,6.78891],[-57,6.80336],[-56.5,6.82012],[-56,6.83915],[-55.5,6.86041],[-55,6.88386],[-54.5,6.90944],[-54,6.93712],[-53.5,6.96686],[-53,6.99862],[-52.5,7.03236],[-52,7.06804],[-51.5,7.10563],[-51,7.14508],[-50.5,7.18636],[-50,7.22945],[-49.5,7.27429],[-49,7.32086],[-48.5,7.36913],[-48,7.41906],[-47.5,7.47063],[-47,7.52379],[-46.5,7.57853],[-46,7.6348],[-45.5,7.69258],[-45,7.75185],[-44.5,7.81257],[-44,7.87472],[-43.5,7.93826],[-43,8.00318],[-42.5,8.06944],[-42,8.13703],[-41.5,8.20591],[-41,8.27606],[-40.5,8.34746],[-40,8.42009],[-39.5,8.49391],[-39,8.56891],[-38.5,8.64507],[-38,8.72236],[-37.5,8.80077],[-37,8.88026],[-36.5,8.96083],[-36.24219,9.00278]]}}],"attribution":"Eclipse Predictions by Fred Espenak and Jean Meeus (NASA's GSFC)","generated_at":"2026-09-23T01:44:46.405Z"}
