{"type":"FeatureCollection","year":204,"events":[{"id":"+02040120","year":204,"month":1,"day":20,"time_tdt":"01:22:31","type":"금환일식","type_code":"A","saros":73,"gamma":-0.15222,"magnitude":0.93237,"greatest":{"lat":-28.97005,"lng":-158.1701},"path_width_km":255.7,"duration":"07m51s","delta_t_seconds":8562.4,"catalog_number":5267,"source":"NASA Five Millennium Canon of Solar Eclipses","source_url":"https://eclipse.gsfc.nasa.gov/SEsearch/SEsearchmap.php?Ecl=%2B02040120"},{"id":"+02040714","year":204,"month":7,"day":14,"time_tdt":"16:51:47","type":"개기일식","type_code":"T","saros":78,"gamma":0.09682,"magnitude":1.07741,"greatest":{"lat":27.5936,"lng":-35.19183},"path_width_km":251.6,"duration":"06m27s","delta_t_seconds":8557.8,"catalog_number":5268,"source":"NASA Five Millennium Canon of Solar Eclipses","source_url":"https://eclipse.gsfc.nasa.gov/SEsearch/SEsearchmap.php?Ecl=%2B02040714"}],"features":[{"type":"Feature","id":"+02040120:north:0","properties":{"id":"+02040120","year":204,"month":1,"day":20,"time_tdt":"01:22:31","type":"금환일식","type_code":"A","saros":73,"gamma":-0.15222,"magnitude":0.93237,"greatest":{"lat":-28.97005,"lng":-158.1701},"path_width_km":255.7,"duration":"07m51s","delta_t_seconds":8562.4,"catalog_number":5267,"source":"NASA Five Millennium Canon of Solar Eclipses","source_url":"https://eclipse.gsfc.nasa.gov/SEsearch/SEsearchmap.php?Ecl=%2B02040120","boundary":"north","name":"204-01-20 금환일식"},"geometry":{"type":"LineString","coordinates":[[128.61523,-23.63098],[129,-23.77958],[129.5,-23.97204],[130,-24.16375],[130.5,-24.35469],[131,-24.54483],[131.5,-24.73415],[132,-24.92261],[132.5,-25.11019],[133,-25.29687],[133.5,-25.48261],[134,-25.66739],[134.5,-25.85118],[135,-26.03396],[135.5,-26.21568],[136,-26.39633],[136.5,-26.57588],[137,-26.7543],[137.5,-26.93155],[138,-27.10761],[138.5,-27.28245],[139,-27.45605],[139.5,-27.62836],[140,-27.79937],[140.5,-27.96903],[141,-28.13733],[141.5,-28.30423],[142,-28.4697],[142.5,-28.63371],[143,-28.79623],[143.5,-28.95723],[144,-29.11668],[144.5,-29.27455],[145,-29.43081],[145.5,-29.58543],[146,-29.73837],[146.5,-29.88961],[147,-30.03912],[147.5,-30.18686],[148,-30.33281],[148.5,-30.47693],[149,-30.61919],[149.5,-30.75956],[150,-30.89802],[150.5,-31.03452],[151,-31.16905],[151.5,-31.30156],[152,-31.43203],[152.5,-31.56042],[153,-31.68671],[153.5,-31.81087],[154,-31.93285],[154.5,-32.05264],[155,-32.1702],[155.5,-32.28551],[156,-32.39852],[156.5,-32.5092],[157,-32.61754],[157.5,-32.72349],[158,-32.82702],[158.5,-32.9281],[159,-33.02671],[159.5,-33.1228],[160,-33.21635],[160.5,-33.30733],[161,-33.39569],[161.5,-33.48142],[162,-33.56448],[162.5,-33.64483],[163,-33.72245],[163.5,-33.79729],[164,-33.86932],[164.5,-33.93852],[165,-34.00485],[165.5,-34.06827],[166,-34.12875],[166.5,-34.18625],[167,-34.24074],[167.5,-34.29218],[168,-34.34054],[168.5,-34.38577],[169,-34.42785],[169.5,-34.46673],[170,-34.50237],[170.5,-34.53474],[171,-34.56379],[171.5,-34.58949],[172,-34.61179],[172.5,-34.63065],[173,-34.64603],[173.5,-34.65789],[174,-34.66617],[174.5,-34.67084],[175,-34.67184],[175.5,-34.66914],[176,-34.66267],[176.5,-34.6524],[177,-34.63827],[177.5,-34.62023],[178,-34.59823],[178.5,-34.5722],[179,-34.54211],[179.5,-34.50788],[180,-34.46946]]}},{"type":"Feature","id":"+02040120:north:1","properties":{"id":"+02040120","year":204,"month":1,"day":20,"time_tdt":"01:22:31","type":"금환일식","type_code":"A","saros":73,"gamma":-0.15222,"magnitude":0.93237,"greatest":{"lat":-28.97005,"lng":-158.1701},"path_width_km":255.7,"duration":"07m51s","delta_t_seconds":8562.4,"catalog_number":5267,"source":"NASA Five Millennium Canon of Solar Eclipses","source_url":"https://eclipse.gsfc.nasa.gov/SEsearch/SEsearchmap.php?Ecl=%2B02040120","boundary":"north","name":"204-01-20 금환일식"},"geometry":{"type":"LineString","coordinates":[[-179.5,-34.4268],[-179,-34.37982],[-178.5,-34.32847],[-178,-34.27269],[-177.5,-34.2124],[-177,-34.14754],[-176.5,-34.07804],[-176,-34.00383],[-175.5,-33.92483],[-175,-33.84098],[-174.5,-33.7522],[-174,-33.6584],[-173.5,-33.55952],[-173,-33.45546],[-172.5,-33.34615],[-172,-33.2315],[-171.5,-33.11143],[-171,-32.98584],[-170.5,-32.85465],[-170,-32.71777],[-169.5,-32.5751],[-169,-32.42656],[-168.5,-32.27204],[-168,-32.11145],[-167.5,-31.94469],[-167,-31.77167],[-166.5,-31.59229],[-166,-31.40646],[-165.5,-31.21406],[-165,-31.01501],[-164.5,-30.80922],[-164,-30.59658],[-163.5,-30.377],[-163,-30.15039],[-162.5,-29.91667],[-162,-29.67575],[-161.5,-29.42755],[-161,-29.172],[-160.5,-28.90902],[-160,-28.63855],[-159.5,-28.36054],[-159,-28.07494],[-158.5,-27.78171],[-158,-27.48083],[-157.5,-27.17228],[-157,-26.85606],[-156.5,-26.53218],[-156,-26.20066],[-155.5,-25.86156],[-155,-25.51492],[-154.5,-25.16084],[-154,-24.7994],[-153.5,-24.43072],[-153,-24.05495],[-152.5,-23.67224],[-152,-23.28278],[-151.5,-22.88677],[-151,-22.48443],[-150.5,-22.07602],[-150,-21.66181],[-149.5,-21.24208],[-149,-20.81714],[-148.5,-20.38734],[-148,-19.953],[-147.5,-19.5145],[-147,-19.0722],[-146.5,-18.6265],[-146,-18.17779],[-145.5,-17.72646],[-145,-17.27293],[-144.5,-16.81759],[-144,-16.36087],[-143.5,-15.90315],[-143,-15.44483],[-142.5,-14.98631],[-142,-14.52795],[-141.5,-14.07014],[-141,-13.61321],[-140.5,-13.15751],[-140,-12.70336],[-139.5,-12.25108],[-139,-11.80094],[-138.5,-11.35321],[-138,-10.90816],[-137.5,-10.46601],[-137,-10.02698],[-136.5,-9.59126],[-136,-9.15905],[-135.5,-8.73049],[-135,-8.30574],[-134.5,-7.88494],[-134,-7.46818],[-133.5,-7.05559],[-133,-6.64723],[-132.5,-6.24319],[-132,-5.84354],[-131.5,-5.44832],[-131,-5.05757],[-130.5,-4.67133],[-130,-4.28962],[-129.5,-3.91245],[-129,-3.53983],[-128.5,-3.17177],[-128,-2.80825],[-127.5,-2.44926],[-127,-2.09479],[-126.5,-1.74482],[-126,-1.39932],[-125.5,-1.05827],[-125,-0.72162],[-124.5,-0.38935],[-124,-0.06143],[-123.5,0.2622],[-123,0.58157],[-122.5,0.89673],[-122,1.20771],[-121.5,1.51456],[-121,1.81734],[-120.5,2.11608],[-120,2.41083],[-119.5,2.70165],[-119,2.98858],[-118.5,3.27167],[-118,3.55096],[-117.5,3.82651],[-117,4.09837],[-116.5,4.36658],[-116,4.63118],[-115.5,4.89224],[-115,5.14979],[-114.5,5.40388],[-114,5.65455],[-113.5,5.90186],[-113,6.14585],[-112.5,6.38656],[-112,6.62404],[-111.5,6.85832],[-111,7.08946],[-110.5,7.31749],[-110,7.54246],[-109.5,7.7644],[-109,7.98335],[-108.5,8.19937],[-108,8.41247],[-107.5,8.62271],[-107,8.83012],[-106.5,9.03473],[-106,9.23658],[-105.5,9.43571],[-105,9.63216],[-104.5,9.82594]]}},{"type":"Feature","id":"+02040120:center:0","properties":{"id":"+02040120","year":204,"month":1,"day":20,"time_tdt":"01:22:31","type":"금환일식","type_code":"A","saros":73,"gamma":-0.15222,"magnitude":0.93237,"greatest":{"lat":-28.97005,"lng":-158.1701},"path_width_km":255.7,"duration":"07m51s","delta_t_seconds":8562.4,"catalog_number":5267,"source":"NASA Five Millennium Canon of Solar Eclipses","source_url":"https://eclipse.gsfc.nasa.gov/SEsearch/SEsearchmap.php?Ecl=%2B02040120","boundary":"center","name":"204-01-20 금환일식"},"geometry":{"type":"LineString","coordinates":[[127.80441,-24.9384],[128,-25.00821],[128.5,-25.19856],[129,-25.38818],[129.5,-25.57702],[130,-25.76506],[130.5,-25.95229],[131,-26.13866],[131.5,-26.32416],[132,-26.50876],[132.5,-26.69243],[133,-26.87515],[133.5,-27.05689],[134,-27.23762],[134.5,-27.41731],[135,-27.59594],[135.5,-27.77348],[136,-27.94989],[136.5,-28.12517],[137,-28.29926],[137.5,-28.47216],[138,-28.64382],[138.5,-28.81422],[139,-28.98333],[139.5,-29.15113],[140,-29.31758],[140.5,-29.48266],[141,-29.64633],[141.5,-29.80857],[142,-29.96936],[142.5,-30.12865],[143,-30.28642],[143.5,-30.44264],[144,-30.59729],[144.5,-30.75034],[145,-30.90174],[145.5,-31.05149],[146,-31.19954],[146.5,-31.34586],[147,-31.49044],[147.5,-31.63324],[148,-31.77423],[148.5,-31.91338],[149,-32.05066],[149.5,-32.18604],[150,-32.31951],[150.5,-32.45101],[151,-32.58054],[151.5,-32.70805],[152,-32.83352],[152.5,-32.95692],[153,-33.07822],[153.5,-33.1974],[154,-33.31442],[154.5,-33.42925],[155,-33.54187],[155.5,-33.65225],[156,-33.76035],[156.5,-33.86616],[157,-33.96963],[157.5,-34.07075],[158,-34.16948],[158.5,-34.26579],[159,-34.35965],[159.5,-34.45104],[160,-34.53993],[160.5,-34.62628],[161,-34.71006],[161.5,-34.79126],[162,-34.86982],[162.5,-34.94574],[163,-35.01897],[163.5,-35.08948],[164,-35.15725],[164.5,-35.22224],[165,-35.28442],[165.5,-35.34376],[166,-35.40023],[166.5,-35.45379],[167,-35.50442],[167.5,-35.55207],[168,-35.59672],[168.5,-35.63834],[169,-35.67687],[169.5,-35.7123],[170,-35.74458],[170.5,-35.77369],[171,-35.79957],[171.5,-35.8222],[172,-35.84154],[172.5,-35.85754],[173,-35.87017],[173.5,-35.87939],[174,-35.88515],[174.5,-35.88742],[175,-35.88615],[175.5,-35.88129],[176,-35.87281],[176.5,-35.86065],[177,-35.84476],[177.5,-35.82511],[178,-35.80164],[178.5,-35.77429],[179,-35.74303],[179.5,-35.70778],[180,-35.66851]]}},{"type":"Feature","id":"+02040120:center:1","properties":{"id":"+02040120","year":204,"month":1,"day":20,"time_tdt":"01:22:31","type":"금환일식","type_code":"A","saros":73,"gamma":-0.15222,"magnitude":0.93237,"greatest":{"lat":-28.97005,"lng":-158.1701},"path_width_km":255.7,"duration":"07m51s","delta_t_seconds":8562.4,"catalog_number":5267,"source":"NASA Five Millennium Canon of Solar Eclipses","source_url":"https://eclipse.gsfc.nasa.gov/SEsearch/SEsearchmap.php?Ecl=%2B02040120","boundary":"center","name":"204-01-20 금환일식"},"geometry":{"type":"LineString","coordinates":[[-179.5,-35.62516],[-179,-35.57766],[-178.5,-35.52596],[-178,-35.47],[-177.5,-35.40972],[-177,-35.34505],[-176.5,-35.27594],[-176,-35.20231],[-175.5,-35.12409],[-175,-35.04123],[-174.5,-34.95364],[-174,-34.86125],[-173.5,-34.76399],[-173,-34.66179],[-172.5,-34.55457],[-172,-34.44224],[-171.5,-34.32473],[-171,-34.20195],[-170.5,-34.07382],[-170,-33.94026],[-169.5,-33.80117],[-169,-33.65648],[-168.5,-33.50608],[-168,-33.3499],[-167.5,-33.18783],[-167,-33.01978],[-166.5,-32.84567],[-166,-32.66539],[-165.5,-32.47886],[-165,-32.28598],[-164.5,-32.08666],[-164,-31.88081],[-163.5,-31.66833],[-163,-31.44913],[-162.5,-31.22313],[-162,-30.99024],[-161.5,-30.75038],[-161,-30.50348],[-160.5,-30.24945],[-160,-29.98824],[-159.5,-29.71977],[-159,-29.444],[-158.5,-29.16087],[-158,-28.87035],[-157.5,-28.57241],[-157,-28.26703],[-156.5,-27.95421],[-156,-27.63395],[-155.5,-27.30627],[-155,-26.9712],[-154.5,-26.62881],[-154,-26.27916],[-153.5,-25.92233],[-153,-25.55843],[-152.5,-25.1876],[-152,-24.80997],[-151.5,-24.42571],[-151,-24.03501],[-150.5,-23.63808],[-150,-23.23515],[-149.5,-22.82648],[-149,-22.41233],[-148.5,-21.993],[-148,-21.5688],[-147.5,-21.14005],[-147,-20.7071],[-146.5,-20.27031],[-146,-19.83005],[-145.5,-19.38668],[-145,-18.94061],[-144.5,-18.49222],[-144,-18.04191],[-143.5,-17.59006],[-143,-17.13708],[-142.5,-16.68335],[-142,-16.22926],[-141.5,-15.77518],[-141,-15.32147],[-140.5,-14.86849],[-140,-14.41658],[-139.5,-13.96605],[-139,-13.51722],[-138.5,-13.07038],[-138,-12.6258],[-137.5,-12.18375],[-137,-11.74446],[-136.5,-11.30816],[-136,-10.87504],[-135.5,-10.4453],[-135,-10.0191],[-134.5,-9.59661],[-134,-9.17795],[-133.5,-8.76326],[-133,-8.35263],[-132.5,-7.94617],[-132,-7.54396],[-131.5,-7.14606],[-131,-6.75253],[-130.5,-6.36342],[-130,-5.97877],[-129.5,-5.59861],[-129,-5.22295],[-128.5,-4.85181],[-128,-4.48519],[-127.5,-4.12309],[-127,-3.7655],[-126.5,-3.41242],[-126,-3.06381],[-125.5,-2.71967],[-125,-2.37996],[-124.5,-2.04465],[-124,-1.71371],[-123.5,-1.38712],[-123,-1.06482],[-122.5,-0.74678],[-122,-0.43296],[-121.5,-0.12332],[-121,0.18219],[-120.5,0.48362],[-120,0.781],[-119.5,1.07439],[-119,1.36383],[-118.5,1.64938],[-118,1.93107],[-117.5,2.20896],[-117,2.4831],[-116.5,2.75352],[-116,3.02029],[-115.5,3.28344],[-115,3.54303],[-114.5,3.79911],[-114,4.05171],[-113.5,4.30088],[-113,4.54668],[-112.5,4.78914],[-112,5.02831],[-111.5,5.26423],[-111,5.49695],[-110.5,5.72651],[-110,5.95295],[-109.5,6.17632],[-109,6.39665],[-108.5,6.61398],[-108,6.82835],[-107.5,7.03981],[-107,7.24839],[-106.5,7.45413],[-106,7.65706],[-105.5,7.85722],[-105,8.05465],[-104.5,8.24938],[-104,8.44144],[-103.52738,8.62004]]}},{"type":"Feature","id":"+02040120:south:0","properties":{"id":"+02040120","year":204,"month":1,"day":20,"time_tdt":"01:22:31","type":"금환일식","type_code":"A","saros":73,"gamma":-0.15222,"magnitude":0.93237,"greatest":{"lat":-28.97005,"lng":-158.1701},"path_width_km":255.7,"duration":"07m51s","delta_t_seconds":8562.4,"catalog_number":5267,"source":"NASA Five Millennium Canon of Solar Eclipses","source_url":"https://eclipse.gsfc.nasa.gov/SEsearch/SEsearchmap.php?Ecl=%2B02040120","boundary":"south","name":"204-01-20 금환일식"},"geometry":{"type":"LineString","coordinates":[[127,-26.25319],[127.5,-26.44145],[128,-26.62896],[128.5,-26.8157],[129,-27.00164],[129.5,-27.18677],[130,-27.37105],[130.5,-27.55446],[131,-27.73697],[131.5,-27.91856],[132,-28.0992],[132.5,-28.27887],[133,-28.45753],[133.5,-28.63517],[134,-28.81175],[134.5,-28.98726],[135,-29.16165],[135.5,-29.33491],[136,-29.50701],[136.5,-29.67793],[137,-29.84762],[137.5,-30.01607],[138,-30.18326],[138.5,-30.34914],[139,-30.5137],[139.5,-30.67691],[140,-30.83874],[140.5,-30.99916],[141,-31.15814],[141.5,-31.31567],[142,-31.4717],[142.5,-31.62621],[143,-31.77918],[143.5,-31.93058],[144,-32.08038],[144.5,-32.22854],[145,-32.37506],[145.5,-32.51989],[146,-32.66301],[146.5,-32.80439],[147,-32.94401],[147.5,-33.08184],[148,-33.21785],[148.5,-33.35201],[149,-33.4843],[149.5,-33.61468],[150,-33.74314],[150.5,-33.86965],[151,-33.99417],[151.5,-34.11668],[152,-34.23716],[152.5,-34.35558],[153,-34.47191],[153.5,-34.58612],[154,-34.69819],[154.5,-34.80809],[155,-34.91579],[155.5,-35.02128],[156,-35.12451],[156.5,-35.22546],[157,-35.32412],[157.5,-35.42044],[158,-35.51441],[158.5,-35.606],[159,-35.69517],[159.5,-35.78191],[160,-35.86618],[160.5,-35.94796],[161,-36.02723],[161.5,-36.10394],[162,-36.17809],[162.5,-36.24963],[163,-36.31854],[163.5,-36.38479],[164,-36.44836],[164.5,-36.50921],[165,-36.56732],[165.5,-36.62266],[166,-36.67519],[166.5,-36.72489],[167,-36.77173],[167.5,-36.81567],[168,-36.85669],[168.5,-36.89475],[169,-36.92983],[169.5,-36.96188],[170,-36.99088],[170.5,-37.01679],[171,-37.03958],[171.5,-37.05922],[172,-37.07566],[172.5,-37.08887],[173,-37.09882],[173.5,-37.10547],[174,-37.10878],[174.5,-37.1087],[175,-37.10521],[175.5,-37.09825],[176,-37.08779],[176.5,-37.07379],[177,-37.05619],[177.5,-37.03497],[178,-37.01006],[178.5,-36.98142],[179,-36.94901],[179.5,-36.91277],[180,-36.87266]]}},{"type":"Feature","id":"+02040120:south:1","properties":{"id":"+02040120","year":204,"month":1,"day":20,"time_tdt":"01:22:31","type":"금환일식","type_code":"A","saros":73,"gamma":-0.15222,"magnitude":0.93237,"greatest":{"lat":-28.97005,"lng":-158.1701},"path_width_km":255.7,"duration":"07m51s","delta_t_seconds":8562.4,"catalog_number":5267,"source":"NASA Five Millennium Canon of Solar Eclipses","source_url":"https://eclipse.gsfc.nasa.gov/SEsearch/SEsearchmap.php?Ecl=%2B02040120","boundary":"south","name":"204-01-20 금환일식"},"geometry":{"type":"LineString","coordinates":[[-179.5,-36.82862],[-179,-36.7806],[-178.5,-36.72854],[-178,-36.67239],[-177.5,-36.6121],[-177,-36.5476],[-176.5,-36.47883],[-176,-36.40573],[-175.5,-36.32824],[-175,-36.24629],[-174.5,-36.15982],[-174,-36.06876],[-173.5,-35.97304],[-173,-35.87259],[-172.5,-35.76733],[-172,-35.6572],[-171.5,-35.54211],[-171,-35.422],[-170.5,-35.29677],[-170,-35.16635],[-169.5,-35.03066],[-169,-34.88961],[-168.5,-34.74312],[-168,-34.59111],[-167.5,-34.43348],[-167,-34.27015],[-166.5,-34.10104],[-166,-33.92604],[-165.5,-33.74508],[-165,-33.55806],[-164.5,-33.36489],[-164,-33.16549],[-163.5,-32.95975],[-163,-32.74761],[-162.5,-32.52896],[-162,-32.30373],[-161.5,-32.07183],[-161,-31.83318],[-160.5,-31.58771],[-160,-31.33535],[-159.5,-31.07603],[-159,-30.80968],[-158.5,-30.53626],[-158,-30.25571],[-157.5,-29.968],[-157,-29.67309],[-156.5,-29.37097],[-156,-29.06162],[-155.5,-28.74505],[-155,-28.42127],[-154.5,-28.09031],[-154,-27.75221],[-153.5,-27.40705],[-153,-27.05488],[-152.5,-26.69581],[-152,-26.32996],[-151.5,-25.95745],[-151,-25.57844],[-150.5,-25.1931],[-150,-24.80162],[-149.5,-24.40423],[-149,-24.00115],[-148.5,-23.59264],[-148,-23.17897],[-147.5,-22.76043],[-147,-22.33734],[-146.5,-21.91002],[-146,-21.4788],[-145.5,-21.04405],[-145,-20.60612],[-144.5,-20.16538],[-144,-19.72222],[-143.5,-19.27701],[-143,-18.83014],[-142.5,-18.38199],[-142,-17.93295],[-141.5,-17.48338],[-141,-17.03367],[-140.5,-16.58416],[-140,-16.13521],[-139.5,-15.68716],[-139,-15.24034],[-138.5,-14.79505],[-138,-14.35158],[-137.5,-13.91023],[-137,-13.47124],[-136.5,-13.03487],[-136,-12.60134],[-135.5,-12.17087],[-135,-11.74364],[-134.5,-11.31984],[-134,-10.89963],[-133.5,-10.48315],[-133,-10.07053],[-132.5,-9.66189],[-132,-9.25733],[-131.5,-8.85693],[-131,-8.46078],[-130.5,-8.06894],[-130,-7.68146],[-129.5,-7.29838],[-129,-6.91975],[-128.5,-6.54557],[-128,-6.17588],[-127.5,-5.81067],[-127,-5.44996],[-126.5,-5.09373],[-126,-4.74199],[-125.5,-4.3947],[-125,-4.05187],[-124.5,-3.71346],[-124,-3.37944],[-123.5,-3.04979],[-123,-2.72447],[-122.5,-2.40346],[-122,-2.0867],[-121.5,-1.77416],[-121,-1.4658],[-120.5,-1.16158],[-120,-0.86145],[-119.5,-0.56537],[-119,-0.27329],[-118.5,0.01483],[-118,0.29904],[-117.5,0.57939],[-117,0.85593],[-116.5,1.1287],[-116,1.39775],[-115.5,1.66313],[-115,1.92489],[-114.5,2.18306],[-114,2.43771],[-113.5,2.68887],[-113,2.9366],[-112.5,3.18092],[-112,3.42191],[-111.5,3.65958],[-111,3.894],[-110.5,4.12521],[-110,4.35323],[-109.5,4.57813],[-109,4.79994],[-108.5,5.0187],[-108,5.23445],[-107.5,5.44723],[-107,5.65708],[-106.5,5.86404],[-106,6.06815],[-105.5,6.26944],[-105,6.46795],[-104.5,6.66371],[-104,6.85676],[-103.5,7.04714],[-103,7.23488],[-102.79297,7.31185]]}},{"type":"Feature","id":"+02040714:north:0","properties":{"id":"+02040714","year":204,"month":7,"day":14,"time_tdt":"16:51:47","type":"개기일식","type_code":"T","saros":78,"gamma":0.09682,"magnitude":1.07741,"greatest":{"lat":27.5936,"lng":-35.19183},"path_width_km":251.6,"duration":"06m27s","delta_t_seconds":8557.8,"catalog_number":5268,"source":"NASA Five Millennium Canon of Solar Eclipses","source_url":"https://eclipse.gsfc.nasa.gov/SEsearch/SEsearchmap.php?Ecl=%2B02040714","boundary":"north","name":"204-07-14 개기일식"},"geometry":{"type":"LineString","coordinates":[[-109.48438,19.35595],[-109,19.55795],[-108.5,19.76599],[-108,19.97354],[-107.5,20.18055],[-107,20.38701],[-106.5,20.59289],[-106,20.79816],[-105.5,21.00279],[-105,21.20676],[-104.5,21.41003],[-104,21.61258],[-103.5,21.81438],[-103,22.01539],[-102.5,22.2156],[-102,22.41496],[-101.5,22.61345],[-101,22.81104],[-100.5,23.0077],[-100,23.2034],[-99.5,23.39811],[-99,23.59179],[-98.5,23.78441],[-98,23.97595],[-97.5,24.16637],[-97,24.35564],[-96.5,24.54372],[-96,24.7306],[-95.5,24.91622],[-95,25.10057],[-94.5,25.28361],[-94,25.46531],[-93.5,25.64563],[-93,25.82454],[-92.5,26.00202],[-92,26.17802],[-91.5,26.35252],[-91,26.52548],[-90.5,26.69687],[-90,26.86666],[-89.5,27.03482],[-89,27.20131],[-88.5,27.36611],[-88,27.52917],[-87.5,27.69047],[-87,27.84998],[-86.5,28.00766],[-86,28.16348],[-85.5,28.31741],[-85,28.46942],[-84.5,28.61948],[-84,28.76756],[-83.5,28.91362],[-83,29.05763],[-82.5,29.19957],[-82,29.3394],[-81.5,29.47709],[-81,29.61261],[-80.5,29.74593],[-80,29.87703],[-79.5,30.00587],[-79,30.13241],[-78.5,30.25664],[-78,30.37852],[-77.5,30.49803],[-77,30.61513],[-76.5,30.72979],[-76,30.84199],[-75.5,30.95169],[-75,31.05887],[-74.5,31.16351],[-74,31.26556],[-73.5,31.36501],[-73,31.46182],[-72.5,31.55597],[-72,31.64743],[-71.5,31.73616],[-71,31.82215],[-70.5,31.90537],[-70,31.98578],[-69.5,32.06335],[-69,32.13807],[-68.5,32.20991],[-68,32.27882],[-67.5,32.34479],[-67,32.40779],[-66.5,32.46779],[-66,32.52477],[-65.5,32.57868],[-65,32.62951],[-64.5,32.67723],[-64,32.7218],[-63.5,32.7632],[-63,32.8014],[-62.5,32.83636],[-62,32.86807],[-61.5,32.89649],[-61,32.92158],[-60.5,32.94332],[-60,32.96168],[-59.5,32.97663],[-59,32.98813],[-58.5,32.99615],[-58,33.00066],[-57.5,33.00163],[-57,32.99902],[-56.5,32.99281],[-56,32.98295],[-55.5,32.96941],[-55,32.95215],[-54.5,32.93115],[-54,32.90636],[-53.5,32.87776],[-53,32.84529],[-52.5,32.80893],[-52,32.76863],[-51.5,32.72436],[-51,32.67609],[-50.5,32.62376],[-50,32.56734],[-49.5,32.50679],[-49,32.44206],[-48.5,32.37313],[-48,32.29994],[-47.5,32.22245],[-47,32.14063],[-46.5,32.05442],[-46,31.96379],[-45.5,31.86868],[-45,31.76907],[-44.5,31.6649],[-44,31.55613],[-43.5,31.44272],[-43,31.32462],[-42.5,31.20179],[-42,31.07419],[-41.5,30.94177],[-41,30.80449],[-40.5,30.66231],[-40,30.51519],[-39.5,30.36309],[-39,30.20596],[-38.5,30.04378],[-38,29.8765],[-37.5,29.70409],[-37,29.52652],[-36.5,29.34375],[-36,29.15576],[-35.5,28.96251],[-35,28.76399],[-34.5,28.56018],[-34,28.35105],[-33.5,28.13659],[-33,27.91679],[-32.5,27.69165],[-32,27.46116],[-31.5,27.22532],[-31,26.98415],[-30.5,26.73764],[-30,26.48583],[-29.5,26.22874],[-29,25.96639],[-28.5,25.69882],[-28,25.42608],[-27.5,25.14821],[-27,24.86528],[-26.5,24.57734],[-26,24.28447],[-25.5,23.98675],[-25,23.68426],[-24.5,23.37711],[-24,23.06539],[-23.5,22.74921],[-23,22.42871],[-22.5,22.10399],[-22,21.7752],[-21.5,21.44247],[-21,21.10596],[-20.5,20.76583],[-20,20.42222],[-19.5,20.07532],[-19,19.72529],[-18.5,19.37232],[-18,19.01658],[-17.5,18.65826],[-17,18.29756],[-16.5,17.93466],[-16,17.56977],[-15.5,17.20307],[-15,16.83477],[-14.5,16.46506],[-14,16.09414],[-13.5,15.72221],[-13,15.34945],[-12.5,14.97607],[-12,14.60225],[-11.5,14.22818],[-11,13.85403],[-10.5,13.48],[-10,13.10624],[-9.5,12.73293],[-9,12.36023],[-8.5,11.9883],[-8,11.61729],[-7.5,11.24735],[-7,10.87861],[-6.5,10.5112],[-6,10.14525],[-5.5,9.78089],[-5,9.41823],[-4.5,9.05737],[-4,8.69841],[-3.5,8.34145],[-3,7.98659],[-2.5,7.63389],[-2,7.28344],[-1.5,6.93531],[-1,6.58957],[-0.5,6.24627],[0,5.90548],[0.5,5.56724],[1,5.2316],[1.5,4.8986],[2,4.56828],[2.5,4.24068],[3,3.91581],[3.5,3.59371],[4,3.2744],[4.5,2.95789],[5,2.64421],[5.5,2.33337],[6,2.02537],[6.5,1.72023],[7,1.41794],[7.5,1.11852],[8,0.82197],[8.5,0.52827],[9,0.23743],[9.5,-0.05055],[10,-0.33568],[10.5,-0.61798],[11,-0.89744],[11.5,-1.17408],[12,-1.44791],[12.5,-1.71894],[13,-1.98719],[13.5,-2.25268],[14,-2.5154],[14.5,-2.77539],[15,-3.03265],[15.5,-3.28721],[16,-3.53908],[16.5,-3.78828],[17,-4.03483],[17.5,-4.27875],[18,-4.52005],[18.5,-4.75876],[19,-4.99489],[19.5,-5.22847],[20,-5.45951],[20.5,-5.68804],[21,-5.91407],[21.5,-6.13762],[22,-6.35872],[22.5,-6.57739],[23,-6.79364],[23.5,-7.00749],[24,-7.21897],[24.5,-7.4281],[24.7168,-7.51805]]}},{"type":"Feature","id":"+02040714:center:0","properties":{"id":"+02040714","year":204,"month":7,"day":14,"time_tdt":"16:51:47","type":"개기일식","type_code":"T","saros":78,"gamma":0.09682,"magnitude":1.07741,"greatest":{"lat":27.5936,"lng":-35.19183},"path_width_km":251.6,"duration":"06m27s","delta_t_seconds":8557.8,"catalog_number":5268,"source":"NASA Five Millennium Canon of Solar Eclipses","source_url":"https://eclipse.gsfc.nasa.gov/SEsearch/SEsearchmap.php?Ecl=%2B02040714","boundary":"center","name":"204-07-14 개기일식"},"geometry":{"type":"LineString","coordinates":[[-109.02184,18.56099],[-109,18.57088],[-108.5,18.7765],[-108,18.98164],[-107.5,19.18628],[-107,19.39039],[-106.5,19.59394],[-106,19.79691],[-105.5,19.99927],[-105,20.20099],[-104.5,20.40205],[-104,20.60242],[-103.5,20.80206],[-103,21.00095],[-102.5,21.19907],[-102,21.39637],[-101.5,21.59284],[-101,21.78845],[-100.5,21.98315],[-100,22.17693],[-99.5,22.36975],[-99,22.56158],[-98.5,22.75239],[-98,22.94215],[-97.5,23.13083],[-97,23.3184],[-96.5,23.50483],[-96,23.69008],[-95.5,23.87412],[-95,24.05692],[-94.5,24.23846],[-94,24.41869],[-93.5,24.59758],[-93,24.77511],[-92.5,24.95123],[-92,25.12593],[-91.5,25.29916],[-91,25.47089],[-90.5,25.64109],[-90,25.80973],[-89.5,25.97677],[-89,26.14219],[-88.5,26.30594],[-88,26.468],[-87.5,26.62834],[-87,26.78692],[-86.5,26.94371],[-86,27.09868],[-85.5,27.25179],[-85,27.40301],[-84.5,27.55232],[-84,27.69967],[-83.5,27.84504],[-83,27.98839],[-82.5,28.1297],[-82,28.26892],[-81.5,28.40604],[-81,28.54101],[-80.5,28.67381],[-80,28.8044],[-79.5,28.93276],[-79,29.05885],[-78.5,29.18264],[-78,29.30411],[-77.5,29.42321],[-77,29.53992],[-76.5,29.65421],[-76,29.76605],[-75.5,29.87541],[-75,29.98225],[-74.5,30.08655],[-74,30.18828],[-73.5,30.2874],[-73,30.38389],[-72.5,30.47772],[-72,30.56886],[-71.5,30.65727],[-71,30.74293],[-70.5,30.82581],[-70,30.90587],[-69.5,30.98309],[-69,31.05744],[-68.5,31.12889],[-68,31.1974],[-67.5,31.26295],[-67,31.32551],[-66.5,31.38504],[-66,31.44152],[-65.5,31.49492],[-65,31.5452],[-64.5,31.59233],[-64,31.63629],[-63.5,31.67704],[-63,31.71454],[-62.5,31.74878],[-62,31.77971],[-61.5,31.80731],[-61,31.83153],[-60.5,31.85236],[-60,31.86975],[-59.5,31.88367],[-59,31.89409],[-58.5,31.90097],[-58,31.90428],[-57.5,31.90398],[-57,31.90004],[-56.5,31.89242],[-56,31.88109],[-55.5,31.86601],[-55,31.84714],[-54.5,31.82444],[-54,31.79788],[-53.5,31.76742],[-53,31.73301],[-52.5,31.69462],[-52,31.65221],[-51.5,31.60574],[-51,31.55517],[-50.5,31.50045],[-50,31.44155],[-49.5,31.37841],[-49,31.31101],[-48.5,31.23929],[-48,31.16322],[-47.5,31.08274],[-47,30.99782],[-46.5,30.90841],[-46,30.81447],[-45.5,30.71594],[-45,30.6128],[-44.5,30.50499],[-44,30.39247],[-43.5,30.27519],[-43,30.15312],[-42.5,30.0262],[-42,29.8944],[-41.5,29.75767],[-41,29.61597],[-40.5,29.46926],[-40,29.31751],[-39.5,29.16066],[-39,28.99869],[-38.5,28.83156],[-38,28.65923],[-37.5,28.48168],[-37,28.29887],[-36.5,28.11078],[-36,27.91739],[-35.5,27.71866],[-35,27.51459],[-34.5,27.30516],[-34,27.09035],[-33.5,26.87017],[-33,26.6446],[-32.5,26.41365],[-32,26.17733],[-31.5,25.93564],[-31,25.68862],[-30.5,25.43627],[-30,25.17863],[-29.5,24.91574],[-29,24.64763],[-28.5,24.37436],[-28,24.09598],[-27.5,23.81257],[-27,23.52418],[-26.5,23.2309],[-26,22.93281],[-25.5,22.63002],[-25,22.32261],[-24.5,22.01071],[-24,21.69443],[-23.5,21.3739],[-23,21.04925],[-22.5,20.72061],[-22,20.38815],[-21.5,20.05201],[-21,19.71236],[-20.5,19.36935],[-20,19.02317],[-19.5,18.674],[-19,18.322],[-18.5,17.96737],[-18,17.61031],[-17.5,17.25099],[-17,16.88962],[-16.5,16.52639],[-16,16.16149],[-15.5,15.79513],[-15,15.42751],[-14.5,15.05881],[-14,14.68922],[-13.5,14.31895],[-13,13.94818],[-12.5,13.5771],[-12,13.20588],[-11.5,12.83471],[-11,12.46376],[-10.5,12.09319],[-10,11.72317],[-9.5,11.35385],[-9,10.9854],[-8.5,10.61794],[-8,10.25163],[-7.5,9.8866],[-7,9.52296],[-6.5,9.16085],[-6,8.80038],[-5.5,8.44165],[-5,8.08476],[-4.5,7.72982],[-4,7.37692],[-3.5,7.02612],[-3,6.67752],[-2.5,6.33119],[-2,5.98719],[-1.5,5.64559],[-1,5.30643],[-0.5,4.96978],[0,4.63568],[0.5,4.30417],[1,3.9753],[1.5,3.64909],[2,3.32557],[2.5,3.00478],[3,2.68673],[3.5,2.37144],[4,2.05894],[4.5,1.74924],[5,1.44234],[5.5,1.13826],[6,0.83699],[6.5,0.53856],[7,0.24295],[7.5,-0.04983],[8,-0.33979],[8.5,-0.62693],[9,-0.91125],[9.5,-1.19276],[10,-1.47148],[10.5,-1.7474],[11,-2.02054],[11.5,-2.29092],[12,-2.55854],[12.5,-2.82341],[13,-3.08556],[13.5,-3.345],[14,-3.60174],[14.5,-3.8558],[15,-4.1072],[15.5,-4.35595],[16,-4.60207],[16.5,-4.84559],[17,-5.08651],[17.5,-5.32486],[18,-5.56065],[18.5,-5.79391],[19,-6.02466],[19.5,-6.2529],[20,-6.47868],[20.5,-6.702],[21,-6.92288],[21.5,-7.14134],[22,-7.35741],[22.5,-7.5711],[23,-7.78243],[23.5,-7.99142],[24,-8.1981],[24.28885,-8.31371]]}},{"type":"Feature","id":"+02040714:south:0","properties":{"id":"+02040714","year":204,"month":7,"day":14,"time_tdt":"16:51:47","type":"개기일식","type_code":"T","saros":78,"gamma":0.09682,"magnitude":1.07741,"greatest":{"lat":27.5936,"lng":-35.19183},"path_width_km":251.6,"duration":"06m27s","delta_t_seconds":8557.8,"catalog_number":5268,"source":"NASA Five Millennium Canon of Solar Eclipses","source_url":"https://eclipse.gsfc.nasa.gov/SEsearch/SEsearchmap.php?Ecl=%2B02040714","boundary":"south","name":"204-07-14 개기일식"},"geometry":{"type":"LineString","coordinates":[[-108.55469,17.77405],[-108.5,17.79625],[-108,17.99899],[-107.5,18.20124],[-107,18.40299],[-106.5,18.60421],[-106,18.80486],[-105.5,19.00494],[-105,19.2044],[-104.5,19.40322],[-104,19.60138],[-103.5,19.79885],[-103,19.99559],[-102.5,20.19158],[-102,20.3868],[-101.5,20.58121],[-101,20.77478],[-100.5,20.96749],[-100,21.1593],[-99.5,21.35019],[-99,21.54013],[-98.5,21.72908],[-98,21.91701],[-97.5,22.1039],[-97,22.28971],[-96.5,22.47441],[-96,22.65798],[-95.5,22.84037],[-95,23.02156],[-94.5,23.20152],[-94,23.38021],[-93.5,23.5576],[-93,23.73366],[-92.5,23.90836],[-92,24.08166],[-91.5,24.25354],[-91,24.42395],[-90.5,24.59288],[-90,24.76027],[-89.5,24.92611],[-89,25.09036],[-88.5,25.25299],[-88,25.41395],[-87.5,25.57323],[-87,25.73079],[-86.5,25.88658],[-86,26.04059],[-85.5,26.19278],[-85,26.34312],[-84.5,26.49156],[-84,26.63809],[-83.5,26.78266],[-83,26.92525],[-82.5,27.06582],[-82,27.20434],[-81.5,27.34077],[-81,27.47509],[-80.5,27.60726],[-80,27.73724],[-79.5,27.86501],[-79,27.99054],[-78.5,28.11379],[-78,28.23472],[-77.5,28.35332],[-77,28.46954],[-76.5,28.58335],[-76,28.69472],[-75.5,28.80362],[-75,28.91002],[-74.5,29.01389],[-74,29.11518],[-73.5,29.21388],[-73,29.30995],[-72.5,29.40336],[-72,29.49407],[-71.5,29.58206],[-71,29.66729],[-70.5,29.74973],[-70,29.82935],[-69.5,29.90612],[-69,29.98],[-68.5,30.05096],[-68,30.11898],[-67.5,30.18401],[-67,30.24604],[-66.5,30.30501],[-66,30.36091],[-65.5,30.41369],[-65,30.46333],[-64.5,30.50979],[-64,30.55305],[-63.5,30.59305],[-63,30.62978],[-62.5,30.6632],[-62,30.69327],[-61.5,30.71995],[-61,30.74323],[-60.5,30.76305],[-60,30.77938],[-59.5,30.79219],[-59,30.80144],[-58.5,30.8071],[-58,30.80912],[-57.5,30.80747],[-57,30.80211],[-56.5,30.79301],[-56,30.78012],[-55.5,30.76341],[-55,30.74283],[-54.5,30.71835],[-54,30.68993],[-53.5,30.65752],[-53,30.62108],[-52.5,30.58058],[-52,30.53597],[-51.5,30.4872],[-51,30.43424],[-50.5,30.37704],[-50,30.31556],[-49.5,30.24975],[-49,30.17957],[-48.5,30.10497],[-48,30.02591],[-47.5,29.94235],[-47,29.85423],[-46.5,29.76152],[-46,29.66417],[-45.5,29.56213],[-45,29.45536],[-44.5,29.34381],[-44,29.22744],[-43.5,29.1062],[-43,28.98006],[-42.5,28.84896],[-42,28.71286],[-41.5,28.57173],[-41,28.42552],[-40.5,28.2742],[-40,28.11772],[-39.5,27.95605],[-39,27.78916],[-38.5,27.61701],[-38,27.43958],[-37.5,27.25683],[-37,27.06874],[-36.5,26.87528],[-36,26.67645],[-35.5,26.47222],[-35,26.26259],[-34.5,26.04754],[-34,25.82707],[-33.5,25.60118],[-33,25.36988],[-32.5,25.13318],[-32,24.8911],[-31.5,24.64366],[-31,24.39089],[-30.5,24.13282],[-30,23.8695],[-29.5,23.60097],[-29,23.3273],[-28.5,23.04854],[-28,22.76476],[-27.5,22.47605],[-27,22.18248],[-26.5,21.88416],[-26,21.58119],[-25.5,21.27366],[-25,20.96172],[-24.5,20.64546],[-24,20.32504],[-23.5,20.00059],[-23,19.67225],[-22.5,19.34018],[-22,19.00455],[-21.5,18.66551],[-21,18.32323],[-20.5,17.9779],[-20,17.6297],[-19.5,17.27881],[-19,16.92541],[-18.5,16.56971],[-18,16.21189],[-17.5,15.85215],[-17,15.49069],[-16.5,15.12769],[-16,14.76337],[-15.5,14.3979],[-15,14.03149],[-14.5,13.66433],[-14,13.29661],[-13.5,12.9285],[-13,12.5602],[-12.5,12.19188],[-12,11.82371],[-11.5,11.45586],[-11,11.08849],[-10.5,10.72177],[-10,10.35584],[-9.5,9.99085],[-9,9.62694],[-8.5,9.26424],[-8,8.90288],[-7.5,8.54298],[-7,8.18466],[-6.5,7.82802],[-6,7.47318],[-5.5,7.12021],[-5,6.76922],[-4.5,6.42029],[-4,6.0735],[-3.5,5.72892],[-3,5.38662],[-2.5,5.04667],[-2,4.70911],[-1.5,4.37401],[-1,4.0414],[-0.5,3.71134],[0,3.38387],[0.5,3.05901],[1,2.7368],[1.5,2.41728],[2,2.10045],[2.5,1.78635],[3,1.47499],[3.5,1.16638],[4,0.86054],[4.5,0.55748],[5,0.2572],[5.5,-0.04028],[6,-0.33498],[6.5,-0.62688],[7,-0.916],[7.5,-1.20232],[8,-1.48587],[8.5,-1.76663],[9,-2.04463],[9.5,-2.31987],[10,-2.59235],[10.5,-2.8621],[11,-3.12911],[11.5,-3.39342],[12,-3.65502],[12.5,-3.91393],[13,-4.17018],[13.5,-4.42376],[14,-4.67471],[14.5,-4.92304],[15,-5.16876],[15.5,-5.41189],[16,-5.65245],[16.5,-5.89046],[17,-6.12594],[17.5,-6.3589],[18,-6.58937],[18.5,-6.81736],[19,-7.0429],[19.5,-7.266],[20,-7.48668],[20.5,-7.70496],[21,-7.92086],[21.5,-8.1344],[22,-8.3456],[22.5,-8.55448],[23,-8.76105],[23.5,-8.96534],[23.8125,-9.09188]]}}],"attribution":"Eclipse Predictions by Fred Espenak and Jean Meeus (NASA's GSFC)","generated_at":"2026-09-23T01:44:46.700Z"}
