{"type":"FeatureCollection","year":214,"events":[{"id":"+02140625","year":214,"month":6,"day":25,"time_tdt":"09:30:41","type":"개기일식","type_code":"T","saros":69,"gamma":-0.67962,"magnitude":1.04479,"greatest":{"lat":-19.16055,"lng":75.6344},"path_width_km":203.5,"duration":"04m23s","delta_t_seconds":8463.5,"catalog_number":5291,"source":"NASA Five Millennium Canon of Solar Eclipses","source_url":"https://eclipse.gsfc.nasa.gov/SEsearch/SEsearchmap.php?Ecl=%2B02140625"},{"id":"+02141218","year":214,"month":12,"day":18,"time_tdt":"22:46:04","type":"금환일식","type_code":"A","saros":74,"gamma":0.27942,"magnitude":0.96956,"greatest":{"lat":-7.56884,"lng":-124.00177},"path_width_km":113.9,"duration":"03m41s","delta_t_seconds":8458.9,"catalog_number":5292,"source":"NASA Five Millennium Canon of Solar Eclipses","source_url":"https://eclipse.gsfc.nasa.gov/SEsearch/SEsearchmap.php?Ecl=%2B02141218"}],"features":[{"type":"Feature","id":"+02140625:north:0","properties":{"id":"+02140625","year":214,"month":6,"day":25,"time_tdt":"09:30:41","type":"개기일식","type_code":"T","saros":69,"gamma":-0.67962,"magnitude":1.04479,"greatest":{"lat":-19.16055,"lng":75.6344},"path_width_km":203.5,"duration":"04m23s","delta_t_seconds":8463.5,"catalog_number":5291,"source":"NASA Five Millennium Canon of Solar Eclipses","source_url":"https://eclipse.gsfc.nasa.gov/SEsearch/SEsearchmap.php?Ecl=%2B02140625","boundary":"north","name":"214-06-25 개기일식"},"geometry":{"type":"LineString","coordinates":[[25.18359,-42.28876],[25.5,-42.13496],[26,-41.89083],[26.5,-41.64535],[27,-41.39854],[27.5,-41.1504],[28,-40.90094],[28.5,-40.65017],[29,-40.3981],[29.5,-40.14474],[30,-39.89009],[30.5,-39.63418],[31,-39.37701],[31.5,-39.1186],[32,-38.85896],[32.5,-38.5981],[33,-38.33605],[33.5,-38.07282],[34,-37.80842],[34.5,-37.54288],[35,-37.27622],[35.5,-37.00846],[36,-36.73962],[36.5,-36.46972],[37,-36.1988],[37.5,-35.92688],[38,-35.65398],[38.5,-35.38015],[39,-35.1054],[39.5,-34.82977],[40,-34.55331],[40.5,-34.27604],[41,-33.99801],[41.5,-33.71926],[42,-33.43983],[42.5,-33.15976],[43,-32.87912],[43.5,-32.59793],[44,-32.31627],[44.5,-32.03419],[45,-31.75174],[45.5,-31.46898],[46,-31.18599],[46.5,-30.90282],[47,-30.61955],[47.5,-30.33626],[48,-30.05301],[48.5,-29.76989],[49,-29.48699],[49.5,-29.20439],[50,-28.92218],[50.5,-28.64046],[51,-28.35933],[51.5,-28.07888],[52,-27.79924],[52.5,-27.5205],[53,-27.24278],[53.5,-26.96621],[54,-26.6909],[54.5,-26.41698],[55,-26.14459],[55.5,-25.87386],[56,-25.60493],[56.5,-25.33794],[57,-25.07305],[57.5,-24.81039],[58,-24.55013],[58.5,-24.29243],[59,-24.03745],[59.5,-23.78534],[60,-23.53629],[60.5,-23.29046],[61,-23.04802],[61.5,-22.80916],[62,-22.57403],[62.5,-22.34283],[63,-22.11573],[63.5,-21.89291],[64,-21.67455],[64.5,-21.46083],[65,-21.25192],[65.5,-21.04801],[66,-20.84925],[66.5,-20.65584],[67,-20.46792],[67.5,-20.28568],[68,-20.10926],[68.5,-19.93882],[69,-19.77452],[69.5,-19.61649],[70,-19.46488],[70.5,-19.31981],[71,-19.1814],[71.5,-19.04978],[72,-18.92504],[72.5,-18.80729],[73,-18.69662],[73.5,-18.5931],[74,-18.49681],[74.5,-18.40781],[75,-18.32614],[75.5,-18.25185],[76,-18.18497],[76.5,-18.12552],[77,-18.07352],[77.5,-18.02895],[78,-17.99182],[78.5,-17.96211],[79,-17.93979],[79.5,-17.92482],[80,-17.91716],[80.5,-17.91676],[81,-17.92355],[81.5,-17.93746],[82,-17.95842],[82.5,-17.98635],[83,-18.02115],[83.5,-18.06272],[84,-18.11098],[84.5,-18.1658],[85,-18.22708],[85.5,-18.2947],[86,-18.36854],[86.5,-18.44848],[87,-18.53439],[87.5,-18.62615],[88,-18.72361],[88.5,-18.82665],[89,-18.93513],[89.5,-19.04891],[90,-19.16787],[90.5,-19.29185],[91,-19.42073],[91.5,-19.55437],[92,-19.69262],[92.5,-19.83536],[93,-19.98244],[93.5,-20.13373],[94,-20.28909],[94.5,-20.4484],[95,-20.61153],[95.5,-20.77834],[96,-20.9487],[96.5,-21.1225],[97,-21.29961],[97.5,-21.4799],[98,-21.66326],[98.5,-21.84957],[99,-22.03871],[99.5,-22.23058],[100,-22.42507],[100.5,-22.62206],[101,-22.82145],[101.5,-23.02315],[102,-23.22704],[102.5,-23.43304],[103,-23.64104],[103.5,-23.85096],[104,-24.0627],[104.5,-24.27619],[105,-24.49132],[105.5,-24.70802],[106,-24.92622],[106.5,-25.14582],[107,-25.36675],[107.5,-25.58895],[108,-25.81234],[108.5,-26.03684],[109,-26.2624],[109.5,-26.48894],[110,-26.71641],[110.5,-26.94474],[111,-27.17387],[111.5,-27.40374],[112,-27.6343],[112.5,-27.8655],[113,-28.09728],[113.5,-28.32958],[114,-28.56237],[114.5,-28.7956],[115,-29.02921],[115.5,-29.26317],[116,-29.49742],[116.5,-29.73194],[117,-29.96667],[117.5,-30.20158],[118,-30.43664],[118.5,-30.6718],[119,-30.90702],[119.5,-31.14229],[120,-31.37755],[120.5,-31.61279],[121,-31.84796],[121.5,-32.08304],[122,-32.31801],[122.5,-32.55282],[123,-32.78746],[123.5,-33.0219],[124,-33.25612],[124.5,-33.49008],[125,-33.72376],[125.45312,-33.93529]]}},{"type":"Feature","id":"+02140625:center:0","properties":{"id":"+02140625","year":214,"month":6,"day":25,"time_tdt":"09:30:41","type":"개기일식","type_code":"T","saros":69,"gamma":-0.67962,"magnitude":1.04479,"greatest":{"lat":-19.16055,"lng":75.6344},"path_width_km":203.5,"duration":"04m23s","delta_t_seconds":8463.5,"catalog_number":5291,"source":"NASA Five Millennium Canon of Solar Eclipses","source_url":"https://eclipse.gsfc.nasa.gov/SEsearch/SEsearchmap.php?Ecl=%2B02140625","boundary":"center","name":"214-06-25 개기일식"},"geometry":{"type":"LineString","coordinates":[[25.56446,-42.83776],[25.5,-42.81695],[26,-42.5757],[26.5,-42.33312],[27,-42.08924],[27.5,-41.84405],[28,-41.59756],[28.5,-41.34978],[29,-41.10073],[29.5,-40.85041],[30,-40.59883],[30.5,-40.346],[31,-40.09194],[31.5,-39.83666],[32,-39.58018],[32.5,-39.3225],[33,-39.06365],[33.5,-38.80363],[34,-38.54248],[34.5,-38.28021],[35,-38.01683],[35.5,-37.75237],[36,-37.48686],[36.5,-37.22031],[37,-36.95275],[37.5,-36.68422],[38,-36.41472],[38.5,-36.1443],[39,-35.87299],[39.5,-35.60082],[40,-35.32782],[40.5,-35.05403],[41,-34.77949],[41.5,-34.50425],[42,-34.22833],[42.5,-33.95179],[43,-33.67468],[43.5,-33.39704],[44,-33.11892],[44.5,-32.84038],[45,-32.56149],[45.5,-32.28228],[46,-32.00284],[46.5,-31.72322],[47,-31.4435],[47.5,-31.16374],[48,-30.88402],[48.5,-30.60442],[49,-30.32501],[49.5,-30.0459],[50,-29.76715],[50.5,-29.48887],[51,-29.21116],[51.5,-28.93411],[52,-28.65782],[52.5,-28.3824],[53,-28.10798],[53.5,-27.83465],[54,-27.56254],[54.5,-27.29178],[55,-27.0225],[55.5,-26.75482],[56,-26.48888],[56.5,-26.22482],[57,-25.96279],[57.5,-25.70293],[58,-25.4454],[58.5,-25.19034],[59,-24.93793],[59.5,-24.68831],[60,-24.44166],[60.5,-24.19814],[61,-23.95793],[61.5,-23.72118],[62,-23.48808],[62.5,-23.25881],[63,-23.03353],[63.5,-22.81242],[64,-22.59567],[64.5,-22.38344],[65,-22.17592],[65.5,-21.97328],[66,-21.77569],[66.5,-21.58332],[67,-21.39634],[67.5,-21.21491],[68,-21.03919],[68.5,-20.86935],[69,-20.70552],[69.5,-20.54786],[70,-20.3965],[70.5,-20.25157],[71,-20.11321],[71.5,-19.98151],[72,-19.85661],[72.5,-19.73859],[73,-19.62754],[73.5,-19.52356],[74,-19.4267],[74.5,-19.33704],[75,-19.25464],[75.5,-19.17952],[76,-19.11173],[76.5,-19.05129],[77,-18.99822],[77.5,-18.95252],[78,-18.91418],[78.5,-18.88318],[79,-18.85951],[79.5,-18.84313],[80,-18.83399],[80.5,-18.83205],[81,-18.83724],[81.5,-18.84951],[82,-18.86876],[82.5,-18.89492],[83,-18.92791],[83.5,-18.96763],[84,-19.01397],[84.5,-19.06683],[85,-19.12611],[85.5,-19.19168],[86,-19.26343],[86.5,-19.34123],[87,-19.42496],[87.5,-19.51449],[88,-19.60969],[88.5,-19.71043],[89,-19.81658],[89.5,-19.92799],[90,-20.04453],[90.5,-20.16607],[91,-20.29247],[91.5,-20.42358],[92,-20.55929],[92.5,-20.69944],[93,-20.84391],[93.5,-20.99256],[94,-21.14526],[94.5,-21.30187],[95,-21.46227],[95.5,-21.62633],[96,-21.79392],[96.5,-21.96492],[97,-22.13921],[97.5,-22.31665],[98,-22.49715],[98.5,-22.68058],[99,-22.86682],[99.5,-23.05578],[100,-23.24733],[100.5,-23.44137],[101,-23.6378],[101.5,-23.83652],[102,-24.03743],[102.5,-24.24043],[103,-24.44543],[103.5,-24.65234],[104,-24.86106],[104.5,-25.07152],[105,-25.28362],[105.5,-25.49729],[106,-25.71244],[106.5,-25.929],[107,-26.14689],[107.5,-26.36605],[108,-26.58639],[108.5,-26.80785],[109,-27.03037],[109.5,-27.25388],[110,-27.47831],[110.5,-27.70361],[111,-27.92972],[111.5,-28.15658],[112,-28.38413],[112.5,-28.61232],[113,-28.84111],[113.5,-29.07043],[114,-29.30024],[114.5,-29.5305],[115,-29.76116],[115.5,-29.99217],[116,-30.22349],[116.5,-30.45508],[117,-30.6869],[117.5,-30.91892],[118,-31.15108],[118.5,-31.38337],[119,-31.61574],[119.5,-31.84816],[120,-32.08059],[120.5,-32.31301],[121,-32.54539],[121.5,-32.77769],[122,-33.00988],[122.5,-33.24194],[123,-33.47385],[123.5,-33.70556],[124,-33.93707],[124.5,-34.16835],[125,-34.39936],[125.20338,-34.50118]]}},{"type":"Feature","id":"+02140625:south:0","properties":{"id":"+02140625","year":214,"month":6,"day":25,"time_tdt":"09:30:41","type":"개기일식","type_code":"T","saros":69,"gamma":-0.67962,"magnitude":1.04479,"greatest":{"lat":-19.16055,"lng":75.6344},"path_width_km":203.5,"duration":"04m23s","delta_t_seconds":8463.5,"catalog_number":5291,"source":"NASA Five Millennium Canon of Solar Eclipses","source_url":"https://eclipse.gsfc.nasa.gov/SEsearch/SEsearchmap.php?Ecl=%2B02140625","boundary":"south","name":"214-06-25 개기일식"},"geometry":{"type":"LineString","coordinates":[[25.80078,-43.36053],[26,-43.26538],[26.5,-43.02568],[27,-42.78469],[27.5,-42.54241],[28,-42.29887],[28.5,-42.05405],[29,-41.80798],[29.5,-41.56067],[30,-41.31212],[30.5,-41.06234],[31,-40.81136],[31.5,-40.55918],[32,-40.30581],[32.5,-40.05127],[33,-39.79558],[33.5,-39.53876],[34,-39.28081],[34.5,-39.02177],[35,-38.76164],[35.5,-38.50045],[36,-38.23823],[36.5,-37.97499],[37,-37.71076],[37.5,-37.44557],[38,-37.17944],[38.5,-36.91241],[39,-36.6445],[39.5,-36.37574],[40,-36.10617],[40.5,-35.83583],[41,-35.56475],[41.5,-35.29298],[42,-35.02055],[42.5,-34.7475],[43,-34.47389],[43.5,-34.19976],[44,-33.92516],[44.5,-33.65015],[45,-33.37478],[45.5,-33.09911],[46,-32.82319],[46.5,-32.5471],[47,-32.2709],[47.5,-31.99466],[48,-31.71845],[48.5,-31.44234],[49,-31.16643],[49.5,-30.89079],[50,-30.6155],[50.5,-30.34066],[51,-30.06635],[51.5,-29.79269],[52,-29.51976],[52.5,-29.24768],[53,-28.97655],[53.5,-28.70648],[54,-28.43759],[54.5,-28.17],[55,-27.90384],[55.5,-27.63923],[56,-27.37631],[56.5,-27.11522],[57,-26.85609],[57.5,-26.59906],[58,-26.3443],[58.5,-26.09194],[59,-25.84214],[59.5,-25.59506],[60,-25.35087],[60.5,-25.10972],[61,-24.87178],[61.5,-24.63722],[62,-24.40622],[62.5,-24.17894],[63,-23.95555],[63.5,-23.73624],[64,-23.52117],[64.5,-23.31052],[65,-23.10446],[65.5,-22.90318],[66,-22.70683],[66.5,-22.51559],[67,-22.32962],[67.5,-22.1491],[68,-21.97417],[68.5,-21.805],[69,-21.64173],[69.5,-21.48451],[70,-21.33349],[70.5,-21.18878],[71,-21.05052],[71.5,-20.91883],[72,-20.79382],[72.5,-20.67559],[73,-20.56423],[73.5,-20.45984],[74,-20.36247],[74.5,-20.27221],[75,-20.1891],[75.5,-20.1132],[76,-20.04454],[76.5,-19.98314],[77,-19.92902],[77.5,-19.8822],[78,-19.84266],[78.5,-19.81039],[79,-19.78537],[79.5,-19.76758],[80,-19.75696],[80.5,-19.75347],[81,-19.75706],[81.5,-19.76765],[82,-19.78518],[82.5,-19.80956],[83,-19.8407],[83.5,-19.87853],[84,-19.92292],[84.5,-19.97379],[85,-20.03102],[85.5,-20.0945],[86,-20.16412],[86.5,-20.23974],[87,-20.32124],[87.5,-20.40851],[88,-20.5014],[88.5,-20.59979],[89,-20.70355],[89.5,-20.81253],[90,-20.92661],[90.5,-21.04565],[91,-21.16952],[91.5,-21.29807],[92,-21.43118],[92.5,-21.5687],[93,-21.71051],[93.5,-21.85648],[94,-22.00646],[94.5,-22.16033],[95,-22.31796],[95.5,-22.47922],[96,-22.644],[96.5,-22.81216],[97,-22.98358],[97.5,-23.15815],[98,-23.33575],[98.5,-23.51626],[99,-23.69957],[99.5,-23.88558],[100,-24.07417],[100.5,-24.26523],[101,-24.45868],[101.5,-24.6544],[102,-24.8523],[102.5,-25.05228],[103,-25.25426],[103.5,-25.45813],[104,-25.66382],[104.5,-25.87123],[105,-26.08028],[105.5,-26.2909],[106,-26.50301],[106.5,-26.71651],[107,-26.93136],[107.5,-27.14746],[108,-27.36476],[108.5,-27.58317],[109,-27.80265],[109.5,-28.02312],[110,-28.24452],[110.5,-28.46679],[111,-28.68988],[111.5,-28.91372],[112,-29.13827],[112.5,-29.36346],[113,-29.58926],[113.5,-29.8156],[114,-30.04244],[114.5,-30.26974],[115,-30.49745],[115.5,-30.72552],[116,-30.95392],[116.5,-31.1826],[117,-31.41152],[117.5,-31.64065],[118,-31.86994],[118.5,-32.09937],[119,-32.32889],[119.5,-32.55848],[120,-32.7881],[120.5,-33.01772],[121,-33.24731],[121.5,-33.47684],[122,-33.70628],[122.5,-33.93561],[123,-34.16479],[123.5,-34.3938],[124,-34.62262],[124.5,-34.85123],[125,-35.07959],[125.01758,-35.08761]]}},{"type":"Feature","id":"+02141218:north:0","properties":{"id":"+02141218","year":214,"month":12,"day":18,"time_tdt":"22:46:04","type":"금환일식","type_code":"A","saros":74,"gamma":0.27942,"magnitude":0.96956,"greatest":{"lat":-7.56884,"lng":-124.00177},"path_width_km":113.9,"duration":"03m41s","delta_t_seconds":8458.9,"catalog_number":5292,"source":"NASA Five Millennium Canon of Solar Eclipses","source_url":"https://eclipse.gsfc.nasa.gov/SEsearch/SEsearchmap.php?Ecl=%2B02141218","boundary":"north","name":"214-12-18 금환일식"},"geometry":{"type":"LineString","coordinates":[[-178.98438,22.01402],[-178.5,21.79396],[-178,21.5651],[-177.5,21.33449],[-177,21.10214],[-176.5,20.86803],[-176,20.63216],[-175.5,20.39452],[-175,20.15511],[-174.5,19.91392],[-174,19.67094],[-173.5,19.42617],[-173,19.1796],[-172.5,18.93123],[-172,18.68106],[-171.5,18.42908],[-171,18.17529],[-170.5,17.91969],[-170,17.66227],[-169.5,17.40304],[-169,17.14199],[-168.5,16.87913],[-168,16.61445],[-167.5,16.34797],[-167,16.07967],[-166.5,15.80957],[-166,15.53768],[-165.5,15.26399],[-165,14.98852],[-164.5,14.71128],[-164,14.43228],[-163.5,14.15152],[-163,13.86903],[-162.5,13.58481],[-162,13.29889],[-161.5,13.01128],[-161,12.72201],[-160.5,12.4311],[-160,12.13857],[-159.5,11.84445],[-159,11.54878],[-158.5,11.25158],[-158,10.95289],[-157.5,10.65275],[-157,10.3512],[-156.5,10.04829],[-156,9.74405],[-155.5,9.43856],[-155,9.13185],[-154.5,8.82399],[-154,8.51505],[-153.5,8.20508],[-153,7.89416],[-152.5,7.58236],[-152,7.26977],[-151.5,6.95648],[-151,6.64256],[-150.5,6.32811],[-150,6.01324],[-149.5,5.69805],[-149,5.38265],[-148.5,5.06716],[-148,4.75169],[-147.5,4.43638],[-147,4.12135],[-146.5,3.80675],[-146,3.49271],[-145.5,3.17939],[-145,2.86694],[-144.5,2.55552],[-144,2.2453],[-143.5,1.93645],[-143,1.62913],[-142.5,1.32354],[-142,1.01985],[-141.5,0.71826],[-141,0.41895],[-140.5,0.12212],[-140,-0.17203],[-139.5,-0.4633],[-139,-0.75149],[-138.5,-1.03639],[-138,-1.3178],[-137.5,-1.59552],[-137,-1.86934],[-136.5,-2.13906],[-136,-2.40447],[-135.5,-2.66537],[-135,-2.92157],[-134.5,-3.17288],[-134,-3.41909],[-133.5,-3.66004],[-133,-3.89553],[-132.5,-4.1254],[-132,-4.34948],[-131.5,-4.5676],[-131,-4.77962],[-130.5,-4.98538],[-130,-5.18475],[-129.5,-5.37761],[-129,-5.56382],[-128.5,-5.74328],[-128,-5.91588],[-127.5,-6.08153],[-127,-6.24016],[-126.5,-6.39167],[-126,-6.53602],[-125.5,-6.67313],[-125,-6.80297],[-124.5,-6.9255],[-124,-7.04069],[-123.5,-7.14851],[-123,-7.24897],[-122.5,-7.34204],[-122,-7.42775],[-121.5,-7.5061],[-121,-7.57712],[-120.5,-7.64083],[-120,-7.69726],[-119.5,-7.74646],[-119,-7.78847],[-118.5,-7.82335],[-118,-7.85116],[-117.5,-7.87196],[-117,-7.88582],[-116.5,-7.89282],[-116,-7.89302],[-115.5,-7.88653],[-115,-7.87342],[-114.5,-7.85378],[-114,-7.8277],[-113.5,-7.79529],[-113,-7.75663],[-112.5,-7.71184],[-112,-7.66102],[-111.5,-7.60426],[-111,-7.54168],[-110.5,-7.4734],[-110,-7.3995],[-109.5,-7.32012],[-109,-7.23536],[-108.5,-7.14533],[-108,-7.05016],[-107.5,-6.94994],[-107,-6.84481],[-106.5,-6.73487],[-106,-6.62023],[-105.5,-6.50102],[-105,-6.37735],[-104.5,-6.24933],[-104,-6.11708],[-103.5,-5.98071],[-103,-5.84033],[-102.5,-5.69606],[-102,-5.548],[-101.5,-5.39627],[-101,-5.24097],[-100.5,-5.08222],[-100,-4.92012],[-99.5,-4.75478],[-99,-4.58629],[-98.5,-4.41477],[-98,-4.24032],[-97.5,-4.06303],[-97,-3.883],[-96.5,-3.70034],[-96,-3.51513],[-95.5,-3.32748],[-95,-3.13747],[-94.5,-2.94519],[-94,-2.75074],[-93.5,-2.55419],[-93,-2.35564],[-92.5,-2.15518],[-92,-1.95287],[-91.5,-1.74881],[-91,-1.54307],[-90.5,-1.33573],[-90,-1.12686],[-89.5,-0.91654],[-89,-0.70483],[-88.5,-0.49182],[-88,-0.27756],[-87.5,-0.06213],[-87,0.15441],[-86.5,0.372],[-86,0.59058],[-85.5,0.81008],[-85,1.03045],[-84.5,1.25163],[-84,1.47357],[-83.5,1.69621],[-83,1.91949],[-82.5,2.14337],[-82,2.36781],[-81.5,2.59274],[-81,2.81812],[-80.5,3.04392],[-80,3.27007],[-79.5,3.49656],[-79,3.72332],[-78.5,3.95032],[-78,4.17752],[-77.5,4.40489],[-77,4.63239],[-76.5,4.85998],[-76,5.08762],[-75.5,5.31529],[-75,5.54296],[-74.5,5.77059],[-74,5.99815],[-73.5,6.22561],[-73,6.45295],[-72.5,6.68014],[-72,6.90715],[-71.5,7.13396],[-71,7.36054],[-70.5,7.58686],[-70,7.81292],[-69.5,8.03867],[-69,8.26411],[-68.5,8.48922],[-68,8.71396],[-67.5,8.93833],[-67,9.1623],[-66.86133,9.22434]]}},{"type":"Feature","id":"+02141218:center:0","properties":{"id":"+02141218","year":214,"month":12,"day":18,"time_tdt":"22:46:04","type":"금환일식","type_code":"A","saros":74,"gamma":0.27942,"magnitude":0.96956,"greatest":{"lat":-7.56884,"lng":-124.00177},"path_width_km":113.9,"duration":"03m41s","delta_t_seconds":8458.9,"catalog_number":5292,"source":"NASA Five Millennium Canon of Solar Eclipses","source_url":"https://eclipse.gsfc.nasa.gov/SEsearch/SEsearchmap.php?Ecl=%2B02141218","boundary":"center","name":"214-12-18 금환일식"},"geometry":{"type":"LineString","coordinates":[[-179.28042,21.33541],[-179,21.19565],[-178.5,20.9704],[-178,20.74344],[-177.5,20.51474],[-177,20.28431],[-176.5,20.05214],[-176,19.81822],[-175.5,19.58254],[-175,19.3451],[-174.5,19.1059],[-174,18.86492],[-173.5,18.62217],[-173,18.37763],[-172.5,18.13131],[-172,17.88319],[-171.5,17.63329],[-171,17.38159],[-170.5,17.12809],[-170,16.87279],[-169.5,16.6157],[-169,16.3568],[-168.5,16.09611],[-168,15.83362],[-167.5,15.56934],[-167,15.30327],[-166.5,15.03541],[-166,14.76578],[-165.5,14.49437],[-165,14.2212],[-164.5,13.94627],[-164,13.6696],[-163.5,13.39121],[-163,13.11109],[-162.5,12.82928],[-162,12.54578],[-161.5,12.26062],[-161,11.97382],[-160.5,11.68541],[-160,11.3954],[-159.5,11.10382],[-159,10.81072],[-158.5,10.51612],[-158,10.22005],[-157.5,9.92256],[-157,9.62369],[-156.5,9.32349],[-156,9.02199],[-155.5,8.71926],[-155,8.41535],[-154.5,8.11033],[-154,7.80424],[-153.5,7.49716],[-153,7.18917],[-152.5,6.88033],[-152,6.57074],[-151.5,6.26046],[-151,5.94961],[-150.5,5.63826],[-150,5.32651],[-149.5,5.01449],[-149,4.70228],[-148.5,4.39002],[-148,4.07782],[-147.5,3.7658],[-147,3.45411],[-146.5,3.14287],[-146,2.83223],[-145.5,2.52233],[-145,2.21334],[-144.5,1.9054],[-144,1.59869],[-143.5,1.29337],[-143,0.98961],[-142.5,0.6876],[-142,0.3875],[-141.5,0.08952],[-141,-0.20617],[-140.5,-0.49937],[-140,-0.78988],[-139.5,-1.07752],[-139,-1.36207],[-138.5,-1.64335],[-138,-1.92115],[-137.5,-2.19527],[-137,-2.46552],[-136.5,-2.73168],[-136,-2.99358],[-135.5,-3.251],[-135,-3.50376],[-134.5,-3.75168],[-134,-3.99456],[-133.5,-4.23223],[-133,-4.46452],[-132.5,-4.69125],[-132,-4.91227],[-131.5,-5.12742],[-131,-5.33654],[-130.5,-5.53951],[-130,-5.73619],[-129.5,-5.92646],[-129,-6.11019],[-128.5,-6.28728],[-128,-6.45764],[-127.5,-6.62117],[-127,-6.7778],[-126.5,-6.92745],[-126,-7.07007],[-125.5,-7.20559],[-125,-7.33398],[-124.5,-7.45519],[-124,-7.56921],[-123.5,-7.67602],[-123,-7.7756],[-122.5,-7.86795],[-122,-7.95308],[-121.5,-8.031],[-121,-8.10174],[-120.5,-8.16531],[-120,-8.22176],[-119.5,-8.27112],[-119,-8.31344],[-118.5,-8.34877],[-118,-8.37717],[-117.5,-8.39871],[-117,-8.41344],[-116.5,-8.42145],[-116,-8.4228],[-115.5,-8.41758],[-115,-8.40587],[-114.5,-8.38776],[-114,-8.36333],[-113.5,-8.33269],[-113,-8.29592],[-112.5,-8.25313],[-112,-8.20441],[-111.5,-8.14986],[-111,-8.0896],[-110.5,-8.02372],[-110,-7.95234],[-109.5,-7.87555],[-109,-7.79348],[-108.5,-7.70622],[-108,-7.61389],[-107.5,-7.5166],[-107,-7.41446],[-106.5,-7.30759],[-106,-7.19609],[-105.5,-7.08007],[-105,-6.95966],[-104.5,-6.83494],[-104,-6.70605],[-103.5,-6.57309],[-103,-6.43616],[-102.5,-6.29538],[-102,-6.15086],[-101.5,-6.0027],[-101,-5.851],[-100.5,-5.69588],[-100,-5.53744],[-99.5,-5.37578],[-99,-5.211],[-98.5,-5.0432],[-98,-4.87249],[-97.5,-4.69895],[-97,-4.5227],[-96.5,-4.34381],[-96,-4.16239],[-95.5,-3.97852],[-95,-3.7923],[-94.5,-3.60382],[-94,-3.41316],[-93.5,-3.22041],[-93,-3.02565],[-92.5,-2.82897],[-92,-2.63044],[-91.5,-2.43015],[-91,-2.22817],[-90.5,-2.02457],[-90,-1.81944],[-89.5,-1.61284],[-89,-1.40485],[-88.5,-1.19553],[-88,-0.98496],[-87.5,-0.77319],[-87,-0.56029],[-86.5,-0.34633],[-86,-0.13136],[-85.5,0.08456],[-85,0.30136],[-84.5,0.51899],[-84,0.7374],[-83.5,0.95654],[-83,1.17634],[-82.5,1.39676],[-82,1.61776],[-81.5,1.83928],[-81,2.06128],[-80.5,2.28371],[-80,2.50653],[-79.5,2.72969],[-79,2.95316],[-78.5,3.1769],[-78,3.40086],[-77.5,3.62501],[-77,3.84931],[-76.5,4.07373],[-76,4.29824],[-75.5,4.52279],[-75,4.74737],[-74.5,4.97193],[-74,5.19645],[-73.5,5.42089],[-73,5.64524],[-72.5,5.86946],[-72,6.09353],[-71.5,6.31741],[-71,6.5411],[-70.5,6.76456],[-70,6.98776],[-69.5,7.2107],[-69,7.43334],[-68.5,7.65567],[-68,7.87766],[-67.5,8.0993],[-67,8.32057],[-66.57812,8.50743]]}},{"type":"Feature","id":"+02141218:south:0","properties":{"id":"+02141218","year":214,"month":12,"day":18,"time_tdt":"22:46:04","type":"금환일식","type_code":"A","saros":74,"gamma":0.27942,"magnitude":0.96956,"greatest":{"lat":-7.56884,"lng":-124.00177},"path_width_km":113.9,"duration":"03m41s","delta_t_seconds":8458.9,"catalog_number":5292,"source":"NASA Five Millennium Canon of Solar Eclipses","source_url":"https://eclipse.gsfc.nasa.gov/SEsearch/SEsearchmap.php?Ecl=%2B02141218","boundary":"south","name":"214-12-18 금환일식"},"geometry":{"type":"LineString","coordinates":[[-179.61719,20.64829],[-179.5,20.59659],[-179,20.37493],[-178.5,20.15158],[-178,19.92651],[-177.5,19.69973],[-177,19.47123],[-176.5,19.241],[-176,19.00903],[-175.5,18.77532],[-175,18.53986],[-174.5,18.30265],[-174,18.06368],[-173.5,17.82294],[-173,17.58044],[-172.5,17.33617],[-172,17.09012],[-171.5,16.84229],[-171,16.59268],[-170.5,16.34129],[-170,16.08812],[-169.5,15.83316],[-169,15.57642],[-168.5,15.31791],[-168,15.05761],[-167.5,14.79553],[-167,14.53168],[-166.5,14.26607],[-166,13.9987],[-165.5,13.72957],[-165,13.4587],[-164.5,13.1861],[-164,12.91177],[-163.5,12.63574],[-163,12.358],[-162.5,12.0786],[-162,11.79753],[-161.5,11.51482],[-161,11.23049],[-160.5,10.94457],[-160,10.65708],[-159.5,10.36806],[-159,10.07753],[-158.5,9.78553],[-158,9.49209],[-157.5,9.19725],[-157,8.90106],[-156.5,8.60356],[-156,8.30481],[-155.5,8.00485],[-155,7.70374],[-154.5,7.40154],[-154,7.09831],[-153.5,6.79413],[-153,6.48906],[-152.5,6.18318],[-152,5.87657],[-151.5,5.56932],[-151,5.26152],[-150.5,4.95326],[-150,4.64465],[-149.5,4.33578],[-149,4.02676],[-148.5,3.71772],[-148,3.40878],[-147.5,3.10005],[-147,2.79168],[-146.5,2.48379],[-146,2.17653],[-145.5,1.87005],[-145,1.5645],[-144.5,1.26003],[-144,0.95681],[-143.5,0.655],[-143,0.35477],[-142.5,0.05631],[-142,-0.24022],[-141.5,-0.53462],[-141,-0.82672],[-140.5,-1.11632],[-140,-1.40323],[-139.5,-1.68727],[-139,-1.96823],[-138.5,-2.24593],[-138,-2.52015],[-137.5,-2.79072],[-137,-3.05743],[-136.5,-3.3201],[-136,-3.57852],[-135.5,-3.83251],[-135,-4.08189],[-134.5,-4.32647],[-134,-4.56607],[-133.5,-4.80053],[-133,-5.02966],[-132.5,-5.25331],[-132,-5.47133],[-131.5,-5.68355],[-131,-5.88985],[-130.5,-6.09008],[-130,-6.28413],[-129.5,-6.47186],[-129,-6.65317],[-128.5,-6.82795],[-128,-6.99612],[-127.5,-7.15758],[-127,-7.31227],[-126.5,-7.46011],[-126,-7.60104],[-125.5,-7.73501],[-125,-7.86199],[-124.5,-7.98193],[-124,-8.09482],[-123.5,-8.20064],[-123,-8.29938],[-122.5,-8.39103],[-122,-8.47561],[-121.5,-8.55313],[-121,-8.6236],[-120.5,-8.68706],[-120,-8.74353],[-119.5,-8.79307],[-119,-8.8357],[-118.5,-8.8715],[-118,-8.90049],[-117.5,-8.92276],[-117,-8.93837],[-116.5,-8.94738],[-116,-8.94986],[-115.5,-8.94591],[-115,-8.93559],[-114.5,-8.91899],[-114,-8.89619],[-113.5,-8.8673],[-113,-8.83239],[-112.5,-8.79157],[-112,-8.74493],[-111.5,-8.69258],[-111,-8.6346],[-110.5,-8.5711],[-110,-8.50219],[-109.5,-8.42797],[-109,-8.34855],[-108.5,-8.26403],[-108,-8.17451],[-107.5,-8.08011],[-107,-7.98093],[-106.5,-7.87709],[-106,-7.76868],[-105.5,-7.65583],[-105,-7.53862],[-104.5,-7.41718],[-104,-7.29161],[-103.5,-7.16202],[-103,-7.02851],[-102.5,-6.89119],[-102,-6.75016],[-101.5,-6.60553],[-101,-6.4574],[-100.5,-6.30588],[-100,-6.15106],[-99.5,-5.99305],[-99,-5.83194],[-98.5,-5.66784],[-98,-5.50083],[-97.5,-5.33102],[-97,-5.1585],[-96.5,-4.98336],[-96,-4.80569],[-95.5,-4.62559],[-95,-4.44314],[-94.5,-4.25842],[-94,-4.07153],[-93.5,-3.88255],[-93,-3.69156],[-92.5,-3.49864],[-92,-3.30387],[-91.5,-3.10733],[-91,-2.90909],[-90.5,-2.70922],[-90,-2.50781],[-89.5,-2.30492],[-89,-2.10063],[-88.5,-1.89499],[-88,-1.68808],[-87.5,-1.47996],[-87,-1.27069],[-86.5,-1.06035],[-86,-0.84897],[-85.5,-0.63663],[-85,-0.42339],[-84.5,-0.2093],[-84,0.00559],[-83.5,0.22123],[-83,0.43756],[-82.5,0.65453],[-82,0.8721],[-81.5,1.09021],[-81,1.30883],[-80.5,1.5279],[-80,1.74738],[-79.5,1.96723],[-79,2.18741],[-78.5,2.40789],[-78,2.62861],[-77.5,2.84955],[-77,3.07066],[-76.5,3.29192],[-76,3.51328],[-75.5,3.73472],[-75,3.9562],[-74.5,4.1777],[-74,4.39917],[-73.5,4.6206],[-73,4.84196],[-72.5,5.06321],[-72,5.28433],[-71.5,5.5053],[-71,5.72609],[-70.5,5.94667],[-70,6.16704],[-69.5,6.38715],[-69,6.60699],[-68.5,6.82654],[-68,7.04578],[-67.5,7.2647],[-67,7.48326],[-66.5,7.70145],[-66.28906,7.79339]]}}],"attribution":"Eclipse Predictions by Fred Espenak and Jean Meeus (NASA's GSFC)","generated_at":"2026-09-23T01:44:46.831Z"}
