{"type":"FeatureCollection","year":216,"events":[{"id":"+02160603","year":216,"month":6,"day":3,"time_tdt":"00:48:22","type":"금환일식","type_code":"A","saros":89,"gamma":0.8836,"magnitude":0.94637,"greatest":{"lat":76.54017,"lng":137.28516},"path_width_km":425.6,"duration":"03m48s","delta_t_seconds":8445,"catalog_number":5295,"source":"NASA Five Millennium Canon of Solar Eclipses","source_url":"https://eclipse.gsfc.nasa.gov/SEsearch/SEsearchmap.php?Ecl=%2B02160603"},{"id":"+02161127","year":216,"month":11,"day":27,"time_tdt":"00:42:30","type":"부분일식","type_code":"P","saros":94,"gamma":-1.06735,"magnitude":0.88232,"greatest":{"lat":-63.55176,"lng":60.58264},"path_width_km":0,"duration":"00m00s","delta_t_seconds":8440.4,"catalog_number":5296,"source":"NASA Five Millennium Canon of Solar Eclipses","source_url":"https://eclipse.gsfc.nasa.gov/SEsearch/SEsearchmap.php?Ecl=%2B02161127"}],"features":[{"type":"Feature","id":"+02160603:north:0","properties":{"id":"+02160603","year":216,"month":6,"day":3,"time_tdt":"00:48:22","type":"금환일식","type_code":"A","saros":89,"gamma":0.8836,"magnitude":0.94637,"greatest":{"lat":76.54017,"lng":137.28516},"path_width_km":425.6,"duration":"03m48s","delta_t_seconds":8445,"catalog_number":5295,"source":"NASA Five Millennium Canon of Solar Eclipses","source_url":"https://eclipse.gsfc.nasa.gov/SEsearch/SEsearchmap.php?Ecl=%2B02160603","boundary":"north","name":"216-06-03 금환일식"},"geometry":{"type":"LineString","coordinates":[[99.5,46.00483],[100,46.23118],[100.5,46.46275],[101,46.69969],[101.5,46.94211],[102,47.19015],[102.5,47.44395],[103,47.70365],[103.5,47.96942],[104,48.24141],[104.5,48.51978],[105,48.80471],[105.5,49.09637],[106,49.39497],[106.5,49.70069],[107,50.01374],[107.5,50.33433],[108,50.6627],[108.5,50.99908],[109,51.34371],[109.5,51.69685],[110,52.05878],[110.5,52.42977],[111,52.81014],[111.5,53.20018],[112,53.60022],[112.5,54.01062],[113,54.43173],[113.5,54.86392],[114,55.3076],[114.5,55.76319],[115,56.23112],[115.5,56.71186],[116,57.20588],[116.5,57.7137],[117,58.23585],[117.5,58.7729],[118,59.32543],[118.5,59.89407],[119,60.47947],[119.5,61.08233],[120,61.70336],[120.5,62.34333],[121,63.00306],[121.5,63.6834],[122,64.38527],[122.5,65.10966],[123,65.85761],[123.5,66.63031],[124,67.42903],[124.5,68.25526],[125,69.11069],[125.5,69.99738],[126,70.91789],[126.5,71.87553],[127,72.87483],[127.5,73.92236],[128,75.0282],[128.5,76.20932],[129.5,78.9699],[130,80.92714],[130,84.10606],[129.5,85.15443],[129,85.72973],[128.5,86.13535],[128,86.44828],[127.5,86.70182],[127,86.91377],[126.5,87.09492],[126,87.25232],[125.5,87.39086],[125,87.51407],[124.5,87.6246],[124,87.72447],[123.5,87.81526],[123,87.89825],[122.5,87.97447],[122,88.04475],[121.5,88.10981],[121,88.17023],[120.5,88.22651],[120,88.27909],[119.5,88.32832],[119,88.37453],[118.5,88.418],[118,88.45896],[117.5,88.49764],[117,88.53423],[116.5,88.56888],[116,88.60176],[115.5,88.63299],[115,88.66271],[114.5,88.69101],[114,88.71799],[113.5,88.74375],[113,88.76837],[112.5,88.79191],[112,88.81446],[111.5,88.83606],[111,88.85678],[110.5,88.87667],[110,88.89577],[109.5,88.91414],[109,88.9318],[108.5,88.94881],[108,88.96518],[107.5,88.98097],[107,88.99619],[106.5,89.01088],[106,89.02507],[105.5,89.03876],[105,89.052],[104.5,89.0648],[104,89.07718],[103.5,89.08916],[103,89.10076],[102.5,89.11199],[102,89.12288],[101.5,89.13343],[101,89.14365],[100.5,89.15357],[100,89.1632],[99.5,89.17254],[99,89.18161],[98.5,89.19042],[98,89.19897],[97.5,89.20729],[97,89.21537],[96.5,89.22322],[96,89.23086],[95.5,89.23829],[95,89.24551],[94.5,89.25254],[94,89.25939],[93.5,89.26605],[93,89.27253],[92.5,89.27885],[92,89.28499],[91.5,89.29098],[91,89.29682],[90.5,89.3025],[90,89.30804],[89.5,89.31344],[89,89.3187],[88.5,89.32383],[88,89.32883],[87.5,89.33371],[87,89.33846],[86.5,89.34309],[86,89.34761],[85.5,89.35202],[85,89.35632],[84.5,89.36051],[84,89.3646],[83.5,89.36858],[83,89.37247],[82.5,89.37626],[82,89.37996],[81.5,89.38357],[81,89.38709],[80.5,89.39052],[80,89.39387],[79.5,89.39713],[79,89.40031],[78.5,89.40342],[78,89.40644],[77.5,89.40939],[77,89.41226],[76.5,89.41506],[76,89.41779],[75.5,89.42045],[75,89.42304],[74.5,89.42557],[74,89.42802],[73.5,89.43042],[73,89.43275],[72.5,89.43501],[72,89.43722],[71.5,89.43936],[71,89.44145],[70.5,89.44347],[70,89.44544],[69.5,89.44736],[69,89.44921],[68.5,89.45102],[68,89.45277],[67.5,89.45446],[67,89.45611],[66.5,89.4577],[66,89.45924],[65.5,89.46073],[65,89.46217],[64.5,89.46356],[64,89.46491],[63.5,89.4662],[63,89.46745],[62.5,89.46865],[62,89.46981],[61.5,89.47092],[61,89.47199],[60.5,89.47301],[60,89.47398],[59.5,89.47492],[59,89.4758],[58.5,89.47665],[58,89.47745],[57.5,89.47821],[57,89.47893],[56.5,89.4796],[56,89.48024],[55.5,89.48083],[55,89.48138],[54.5,89.48189],[54,89.48236],[53.5,89.48279],[53,89.48318],[52.5,89.48352],[52,89.48383],[51.5,89.4841],[51,89.48432],[50.5,89.48451],[50,89.48466],[49.5,89.48477],[49,89.48484],[48.5,89.48487],[48,89.48485],[47.5,89.4848],[47,89.48471],[46.5,89.48458],[46,89.48441],[45.5,89.4842],[45,89.48395],[44.5,89.48366],[44,89.48333],[43.5,89.48296],[43,89.48255],[42.5,89.4821],[42,89.48161],[41.5,89.48108],[41,89.48051],[40.5,89.47989],[40,89.47923],[39.5,89.47854],[39,89.47779],[38.5,89.47701],[38,89.47619],[37.5,89.47532],[37,89.4744],[36.5,89.47345],[36,89.47245],[35.5,89.4714],[35,89.47031],[34.5,89.46918],[34,89.46799],[33.5,89.46677],[33,89.46549],[32.5,89.46417],[32,89.4628],[31.5,89.46138],[31,89.45991],[30.5,89.45839],[30,89.45682],[29.5,89.4552],[29,89.45353],[28.5,89.4518],[28,89.45002],[27.5,89.44819],[27,89.4463],[26.5,89.44436],[26,89.44236],[25.5,89.4403],[25,89.43818],[24.5,89.436],[24,89.43376],[23.5,89.43146],[23,89.4291],[22.5,89.42667],[22,89.42417],[21.5,89.42161],[21,89.41898],[20.5,89.41629],[20,89.41352],[19.5,89.41067],[19,89.40776],[18.5,89.40477],[18,89.4017],[17.5,89.39855],[17,89.39533],[16.5,89.39202],[16,89.38862],[15.5,89.38514],[15,89.38158],[14.5,89.37792],[14,89.37417],[13.5,89.37032],[13,89.36638],[12.5,89.36233],[12,89.35819],[11.5,89.35394],[11,89.34958],[10.5,89.34511],[10,89.34053],[9.5,89.33582],[9,89.331],[8.5,89.32606],[8,89.32099],[7.5,89.31578],[7,89.31045],[6.5,89.30497],[6,89.29935],[5.5,89.29358],[5,89.28766],[4.5,89.28158],[4,89.27533],[3.5,89.26892],[3,89.26234],[2.5,89.25558],[2,89.24863],[1.5,89.24149],[1,89.23415],[0.5,89.2266],[0,89.21884],[-0.5,89.21086],[-1,89.20265],[-1.5,89.1942],[-2,89.1855],[-2.5,89.17654],[-3,89.16732],[-3.5,89.15781],[-4,89.14802],[-4.5,89.13793],[-5,89.12751],[-5.5,89.11677],[-6,89.10569],[-6.5,89.09425],[-7,89.08243],[-7.5,89.07022],[-8,89.0576],[-8.5,89.04454],[-9,89.03104],[-9.5,89.01706],[-10,89.00259],[-10.5,88.98759],[-11,88.97204],[-11.5,88.9559],[-12,88.93916],[-12.5,88.92177],[-13,88.90369],[-13.5,88.88489],[-14,88.86532],[-14.5,88.84494],[-15,88.8237],[-15.5,88.80154],[-16,88.77839],[-16.5,88.7542],[-17,88.7289],[-17.5,88.7024],[-18,88.67461],[-18.5,88.64545],[-19,88.6148],[-19.5,88.58255],[-20,88.54857],[-20.5,88.51271],[-21,88.47481],[-21.5,88.43468],[-22,88.39212],[-22.5,88.34688],[-23,88.29871],[-23.5,88.24729],[-24,88.19225],[-24.5,88.13319],[-25,88.06962],[-25.5,88.00097],[-26,87.92653],[-26.5,87.8455],[-27,87.75684],[-27.5,87.65933],[-28,87.55137],[-28.5,87.43095],[-29,87.29541],[-29.5,87.14116],[-30,86.96314],[-30.5,86.75389],[-31,86.50164],[-31.5,86.18589],[-32,85.76474],[-32.5,85.11967],[-32.5,81.30429],[-32,80.06365],[-31.5,79.05793],[-31,78.16832],[-30.5,77.35262],[-30,76.59004],[-29.5,75.86852],[-29,75.18033],[-28.5,74.52014],[-28,73.88411],[-27.5,73.26932],[-27,72.67351],[-26.5,72.09487],[-26,71.53193],[-25.5,70.98345],[-25,70.4484],[-24.5,69.92588],[-24,69.41513],[-23.5,68.91548],[-23,68.42632],[-22.5,67.94711],[-22,67.47739],[-21.5,67.01672],[-21,66.56471],[-20.5,66.12099],[-20,65.68525],[-19.5,65.25717]]}},{"type":"Feature","id":"+02160603:center:0","properties":{"id":"+02160603","year":216,"month":6,"day":3,"time_tdt":"00:48:22","type":"금환일식","type_code":"A","saros":89,"gamma":0.8836,"magnitude":0.94637,"greatest":{"lat":76.54017,"lng":137.28516},"path_width_km":425.6,"duration":"03m48s","delta_t_seconds":8445,"catalog_number":5295,"source":"NASA Five Millennium Canon of Solar Eclipses","source_url":"https://eclipse.gsfc.nasa.gov/SEsearch/SEsearchmap.php?Ecl=%2B02160603","boundary":"center","name":"216-06-03 금환일식"},"geometry":{"type":"LineString","coordinates":[[101.98108,43.97641],[102.5,44.1882],[103,44.41948],[103.5,44.65572],[104,44.89705],[104.5,45.14356],[105,45.39537],[105.5,45.65259],[106,45.91535],[106.5,46.18377],[107,46.45797],[107.5,46.7381],[108,47.02427],[108.5,47.31664],[109,47.61535],[109.5,47.92054],[110,48.23238],[110.5,48.55101],[111,48.87659],[111.5,49.2093],[112,49.5493],[112.5,49.89676],[113,50.25187],[113.5,50.6148],[114,50.98573],[114.5,51.36486],[115,51.75236],[115.5,52.14844],[116,52.55328],[116.5,52.96706],[117,53.38999],[117.5,53.82223],[118,54.26399],[118.5,54.71542],[119,55.17669],[119.5,55.64797],[120,56.12939],[120.5,56.62108],[121,57.12313],[121.5,57.63563],[122,58.15863],[122.5,58.69213],[123,59.23611],[123.5,59.79049],[124,60.35514],[124.5,60.92988],[125,61.51443],[125.5,62.10847],[126,62.71157],[126.5,63.32322],[127,63.94281],[127.5,64.56963],[128,65.20285],[128.5,65.84153],[129,66.48464],[129.5,67.13102],[130,67.77941],[130.5,68.42847],[131,69.07674],[131.5,69.72274],[132,70.36492],[132.5,71.0017],[133,71.6315],[133,71.63151],[133.5,72.25279],[134,72.86404],[134.5,73.46383],[135,74.05083],[135.5,74.62382],[136,75.18172],[136,75.18173],[136.5,75.7236],[137,76.24866],[137.5,76.7563],[138,77.24604],[138.5,77.7176],[139,78.1708],[139.5,78.60564],[140,79.02222],[140.5,79.42077],[141,79.80161],[141.5,80.16514],[142,80.51184],[142.5,80.84223],[143,81.1569],[143.5,81.45644],[144,81.74148],[144.5,82.01265],[145,82.27059],[145.5,82.51592],[146,82.74928],[146.5,82.97127],[147,83.18248],[147.5,83.38349],[148,83.57484],[148.5,83.75705],[149,83.93063],[149.5,84.09607],[150,84.2538],[150.5,84.40426],[151,84.54785],[151.5,84.68495],[152,84.81594],[152.5,84.94113],[153,85.06086],[153.5,85.17543],[154,85.28511],[154.5,85.39017],[155,85.49086],[155.5,85.58742],[156,85.68006],[156.5,85.76898],[157,85.85439],[157.5,85.93646],[158,86.01536],[158.5,86.09125],[159,86.16429],[159.5,86.23461],[160,86.30235],[160.5,86.36764],[161,86.43058],[161.5,86.4913],[162,86.54989],[162.5,86.60645],[163,86.66108],[163.5,86.71387],[164,86.76489],[164.5,86.81423],[165,86.86196],[165.5,86.90815],[166,86.95286],[166.5,86.99616],[167,87.0381],[167.5,87.07875],[168,87.11815],[168.5,87.15635],[169,87.19341],[169.5,87.22937],[170,87.26426],[170.5,87.29814],[171,87.33104],[171.5,87.363],[172,87.39404],[172.5,87.42422],[173,87.45355],[173.5,87.48207],[174,87.5098],[174.5,87.53678],[175,87.56304],[175.5,87.58858],[176,87.61345],[176.5,87.63765],[177,87.66123],[177.5,87.68418],[178,87.70655],[178.5,87.72833],[179,87.74956],[179.5,87.77025],[180,87.79041]]}},{"type":"Feature","id":"+02160603:center:1","properties":{"id":"+02160603","year":216,"month":6,"day":3,"time_tdt":"00:48:22","type":"금환일식","type_code":"A","saros":89,"gamma":0.8836,"magnitude":0.94637,"greatest":{"lat":76.54017,"lng":137.28516},"path_width_km":425.6,"duration":"03m48s","delta_t_seconds":8445,"catalog_number":5295,"source":"NASA Five Millennium Canon of Solar Eclipses","source_url":"https://eclipse.gsfc.nasa.gov/SEsearch/SEsearchmap.php?Ecl=%2B02160603","boundary":"center","name":"216-06-03 금환일식"},"geometry":{"type":"LineString","coordinates":[[-179.5,87.81007],[-179,87.82924],[-178.5,87.84793],[-178,87.86615],[-177.5,87.88393],[-177,87.90127],[-176.5,87.91818],[-176,87.93469],[-175.5,87.95079],[-175,87.96651],[-174.5,87.98184],[-174,87.99681],[-173.5,88.01142],[-173,88.02568],[-172.5,88.0396],[-172,88.05319],[-171.5,88.06645],[-171,88.07941],[-170.5,88.09205],[-170,88.1044],[-169.5,88.11645],[-169,88.12822],[-168.5,88.13971],[-168,88.15093],[-167.5,88.16188],[-167,88.17258],[-166.5,88.18302],[-166,88.19321],[-165.5,88.20317],[-165,88.21288],[-164.5,88.22236],[-164,88.23162],[-163.5,88.24065],[-163,88.24947],[-162.5,88.25807],[-162,88.26646],[-161.5,88.27465],[-161,88.28263],[-160.5,88.29042],[-160,88.29802],[-159.5,88.30542],[-159,88.31264],[-158.5,88.31967],[-158,88.32653],[-157.5,88.33321],[-157,88.33971],[-156.5,88.34605],[-156,88.35221],[-155.5,88.35821],[-155,88.36405],[-154.5,88.36972],[-154,88.37524],[-153.5,88.3806],[-153,88.38581],[-152.5,88.39087],[-152,88.39578],[-151.5,88.40054],[-151,88.40516],[-150.5,88.40963],[-150,88.41396],[-149.5,88.41816],[-149,88.42221],[-148.5,88.42613],[-148,88.42991],[-147.5,88.43356],[-147,88.43708],[-146.5,88.44047],[-146,88.44373],[-145.5,88.44686],[-145,88.44986],[-144.5,88.45274],[-144,88.45549],[-143.5,88.45812],[-143,88.46063],[-142.5,88.46302],[-142,88.46528],[-141.5,88.46743],[-141,88.46946],[-140.5,88.47136],[-140,88.47316],[-139.5,88.47483],[-139,88.47639],[-138.5,88.47783],[-138,88.47916],[-137.5,88.48037],[-137,88.48147],[-136.5,88.48246],[-136,88.48333],[-135.5,88.48409],[-135,88.48473],[-134.5,88.48526],[-134,88.48568],[-133.5,88.48599],[-133,88.48619],[-132.5,88.48627],[-132,88.48625],[-131.5,88.48611],[-131,88.48585],[-130.5,88.48549],[-130,88.48501],[-129.5,88.48442],[-129,88.48372],[-128.5,88.48291],[-128,88.48198],[-127.5,88.48094],[-127,88.47978],[-126.5,88.47851],[-126,88.47713],[-125.5,88.47563],[-125,88.47401],[-124.5,88.47228],[-124,88.47043],[-123.5,88.46847],[-123,88.46638],[-122.5,88.46418],[-122,88.46185],[-121.5,88.4594],[-121,88.45684],[-120.5,88.45415],[-120,88.45133],[-119.5,88.44839],[-119,88.44533],[-118.5,88.44213],[-118,88.43881],[-117.5,88.43536],[-117,88.43178],[-116.5,88.42806],[-116,88.42421],[-115.5,88.42023],[-115,88.41611],[-114.5,88.41185],[-114,88.40745],[-113.5,88.40291],[-113,88.39822],[-112.5,88.39339],[-112,88.38841],[-111.5,88.38328],[-111,88.378],[-110.5,88.37256],[-110,88.36697],[-109.5,88.36121],[-109,88.3553],[-108.5,88.34922],[-108,88.34298],[-107.5,88.33657],[-107,88.32998],[-106.5,88.32322],[-106,88.31628],[-105.5,88.30916],[-105,88.30186],[-104.5,88.29436],[-104,88.28668],[-103.5,88.2788],[-103,88.27072],[-102.5,88.26244],[-102,88.25396],[-101.5,88.24526],[-101,88.23634],[-100.5,88.22721],[-100,88.21785],[-99.5,88.20827],[-99,88.19845],[-98.5,88.18839],[-98,88.17809],[-97.5,88.16753],[-97,88.15673],[-96.5,88.14566],[-96,88.13432],[-95.5,88.12271],[-95,88.11082],[-94.5,88.09864],[-94,88.08617],[-93.5,88.07339],[-93,88.06031],[-92.5,88.0469],[-92.5,88.04691],[-92,88.03318],[-91.5,88.01912],[-91,88.00471],[-91,88.00472],[-90.5,87.98996],[-90,87.97484],[-89.5,87.95936],[-89,87.94349],[-88.5,87.92722],[-88,87.91056],[-87.5,87.89348],[-87,87.87597],[-86.5,87.85802],[-86,87.83962],[-85.5,87.82075],[-85,87.8014],[-84.5,87.78156],[-84,87.7612],[-83.5,87.74032],[-83,87.71889],[-82.5,87.6969],[-82,87.67433],[-81.5,87.65117],[-81,87.62738],[-80.5,87.60295],[-80,87.57786],[-79.5,87.55209],[-79,87.52561],[-78.5,87.49839],[-78,87.47042],[-77.5,87.44166],[-77,87.41208],[-76.5,87.38166],[-76,87.35036],[-75.5,87.31815],[-75,87.28499],[-74.5,87.25085],[-74,87.21569],[-73.5,87.17947],[-73,87.14215],[-72.5,87.10368],[-72,87.06402],[-71.5,87.02311],[-71,86.98091],[-70.5,86.93736],[-70,86.8924],[-69.5,86.84598],[-69,86.79802],[-68.5,86.74846],[-68.5,86.74847],[-68,86.69724],[-67.5,86.64427],[-67,86.58947],[-66.5,86.53277],[-66,86.47407],[-65.5,86.41329],[-65,86.35031],[-64.5,86.28505],[-64,86.21738],[-63.5,86.14719],[-63,86.07437],[-62.5,85.99877],[-62,85.92027],[-61.5,85.83872],[-61,85.75396],[-60.5,85.66584],[-60,85.57418],[-59.5,85.4788],[-59,85.37953],[-58.5,85.27615],[-58,85.16845],[-58,85.16846],[-57.5,85.05623],[-57,84.93925],[-56.5,84.81727],[-56,84.69003],[-55.5,84.55728],[-55,84.41875],[-54.5,84.27416],[-54,84.1232],[-53.5,83.9656],[-53,83.80104],[-52.5,83.62922],[-52,83.44983],[-51.5,83.26256],[-51,83.06709],[-50.5,82.86313],[-50,82.6504],[-49.5,82.4286],[-49,82.19748],[-48.5,81.95681],[-48,81.70639],[-47.5,81.44604],[-47,81.17564],[-46.5,80.89509],[-46,80.60436],[-45.5,80.30347],[-45,79.99249],[-45,79.99248],[-44.5,79.67155],[-44,79.34085],[-43.5,79.00064],[-43,78.65123],[-42.5,78.29299],[-42,77.92633],[-41.5,77.55173],[-41,77.16969],[-40.5,76.78075],[-40,76.38547],[-39.5,75.98445],[-39,75.57827],[-38.5,75.16754],[-38,74.75287],[-37.5,74.33484],[-37,73.91402],[-36.5,73.49099],[-36,73.06626],[-35.5,72.64037],[-35,72.21378],[-34.5,71.78696],[-34,71.36032],[-33.5,70.93427],[-33,70.50917],[-32.5,70.08535],[-32,69.66312],[-31.5,69.24276],[-31,68.82451],[-30.5,68.4086],[-30,67.99524],[-29.5,67.5846],[-29,67.17685],[-28.5,66.77212],[-28,66.37053],[-27.5,65.9722],[-27,65.57721],[-26.5,65.18564],[-26,64.79755],[-25.5,64.41301],[-25,64.03204],[-24.94294,63.94377]]}},{"type":"Feature","id":"+02160603:south:0","properties":{"id":"+02160603","year":216,"month":6,"day":3,"time_tdt":"00:48:22","type":"금환일식","type_code":"A","saros":89,"gamma":0.8836,"magnitude":0.94637,"greatest":{"lat":76.54017,"lng":137.28516},"path_width_km":425.6,"duration":"03m48s","delta_t_seconds":8445,"catalog_number":5295,"source":"NASA Five Millennium Canon of Solar Eclipses","source_url":"https://eclipse.gsfc.nasa.gov/SEsearch/SEsearchmap.php?Ecl=%2B02160603","boundary":"south","name":"216-06-03 금환일식"},"geometry":{"type":"LineString","coordinates":[[104.49805,42.16766],[104.5,42.16855],[105,42.39809],[105.5,42.63229],[106,42.87124],[106.5,43.11502],[107,43.36373],[107.5,43.61747],[108,43.87633],[108.5,44.14041],[109,44.40982],[109.5,44.68467],[110,44.96506],[110.5,45.2511],[111,45.54291],[111.5,45.84059],[112,46.14427],[112.5,46.45407],[113,46.77009],[113.5,47.09247],[114,47.42133],[114.5,47.75678],[115,48.09896],[115.5,48.44798],[116,48.80397],[116.5,49.16704],[117,49.53732],[117.5,49.91492],[118,50.29996],[118.5,50.69253],[119,51.09274],[119.5,51.50069],[120,51.91645],[120.5,52.3401],[121,52.7717],[121.5,53.21129],[122,53.6589],[122.5,54.11454],[123,54.57819],[123.5,55.04981],[124,55.52932],[124.5,56.01663],[125,56.5116],[125.5,57.01404],[126,57.52375],[126.5,58.04044],[127,58.56381],[127.5,59.09348],[128,59.62903],[128.5,60.16998],[129,60.71578],[129.5,61.26584],[130,61.81951],[130.5,62.37606],[131,62.93474],[131.5,63.49472],[132,64.05516],[132.5,64.61516],[133,65.1738],[133.5,65.73014],[133.5,65.73015],[134,66.28326],[134.5,66.8322],[135,67.37604],[135.5,67.9139],[136,68.44491],[136.5,68.96826],[137,69.4832],[137.5,69.98903],[138,70.48513],[138.5,70.97096],[139,71.44602],[139.5,71.90993],[140,72.36236],[140.5,72.80306],[140.5,72.80307],[141,73.23186],[141.5,73.64863],[142,74.05334],[142.5,74.44598],[143,74.82662],[143.5,75.19537],[144,75.55237],[144.5,75.8978],[145,76.23189],[145.5,76.55486],[146,76.86698],[146.5,77.16852],[147,77.45977],[147.5,77.74103],[148,78.01261],[148.5,78.27481],[149,78.52794],[149.5,78.77231],[150,79.00823],[150.5,79.23599],[151,79.4559],[151.5,79.66824],[152,79.8733],[152.5,80.07136],[153,80.26268],[153.5,80.44752],[154,80.62614],[154.5,80.79878],[155,80.96567],[155.5,81.12704],[156,81.2831],[156.5,81.43407],[157,81.58015],[157.5,81.72152],[158,81.85837],[158.5,81.99088],[159,82.11921],[159.5,82.24354],[160,82.36401],[160.5,82.48077],[161,82.59397],[161.5,82.70373],[162,82.8102],[162.5,82.91349],[163,83.01372],[163.5,83.11101],[164,83.20547],[164.5,83.29719],[165,83.38629],[165.5,83.47284],[166,83.55696],[166.5,83.63871],[167,83.71819],[167.5,83.79547],[168,83.87064],[168.5,83.94376],[169,84.0149],[169.5,84.08413],[170,84.15152],[170.5,84.21712],[171,84.281],[171.5,84.34322],[172,84.40381],[172.5,84.46285],[173,84.52037],[173.5,84.57643],[174,84.63107],[174.5,84.68434],[175,84.73627],[175.5,84.78691],[176,84.8363],[176.5,84.88447],[177,84.93146],[177.5,84.97731],[178,85.02204],[178.5,85.0657],[179,85.1083],[179.5,85.14989],[180,85.19049]]}},{"type":"Feature","id":"+02160603:south:1","properties":{"id":"+02160603","year":216,"month":6,"day":3,"time_tdt":"00:48:22","type":"금환일식","type_code":"A","saros":89,"gamma":0.8836,"magnitude":0.94637,"greatest":{"lat":76.54017,"lng":137.28516},"path_width_km":425.6,"duration":"03m48s","delta_t_seconds":8445,"catalog_number":5295,"source":"NASA Five Millennium Canon of Solar Eclipses","source_url":"https://eclipse.gsfc.nasa.gov/SEsearch/SEsearchmap.php?Ecl=%2B02160603","boundary":"south","name":"216-06-03 금환일식"},"geometry":{"type":"LineString","coordinates":[[-179.5,85.23012],[-179,85.26881],[-178.5,85.3066],[-178,85.34349],[-177.5,85.37952],[-177,85.41472],[-176.5,85.44909],[-176,85.48266],[-175.5,85.51546],[-175,85.5475],[-174.5,85.57879],[-174,85.60937],[-173.5,85.63925],[-173,85.66843],[-172.5,85.69695],[-172,85.72482],[-171.5,85.75204],[-171,85.77865],[-170.5,85.80464],[-170,85.83004],[-169.5,85.85485],[-169,85.87909],[-168.5,85.90278],[-168,85.92592],[-167.5,85.94853],[-167,85.97062],[-166.5,85.99219],[-166,86.01326],[-165.5,86.03384],[-165,86.05395],[-164.5,86.07357],[-164,86.09274],[-163.5,86.11145],[-163,86.12972],[-162.5,86.14755],[-162,86.16496],[-161.5,86.18194],[-161,86.19851],[-160.5,86.21467],[-160,86.23044],[-159.5,86.24581],[-159,86.26079],[-158.5,86.2754],[-158,86.28963],[-157.5,86.3035],[-157,86.317],[-156.5,86.33015],[-156,86.34295],[-155.5,86.3554],[-155,86.36752],[-154.5,86.37929],[-154,86.39074],[-153.5,86.40186],[-153,86.41266],[-152.5,86.42314],[-152,86.43331],[-151.5,86.44317],[-151,86.45272],[-150.5,86.46197],[-150,86.47092],[-149.5,86.47957],[-149,86.48794],[-148.5,86.49601],[-148,86.5038],[-147.5,86.51131],[-147,86.51853],[-146.5,86.52548],[-146,86.53215],[-145.5,86.53855],[-145,86.54468],[-144.5,86.55054],[-144,86.55614],[-143.5,86.56147],[-143,86.56654],[-142.5,86.57135],[-142,86.5759],[-141.5,86.58019],[-141,86.58423],[-140.5,86.58801],[-140,86.59154],[-139.5,86.59482],[-139,86.59785],[-138.5,86.60063],[-138,86.60316],[-137.5,86.60544],[-137,86.60748],[-136.5,86.60927],[-136,86.61082],[-135.5,86.61212],[-135,86.61318],[-134.5,86.61399],[-134,86.61456],[-133.5,86.61489],[-133,86.61497],[-132.5,86.61481],[-132,86.61441],[-131.5,86.61376],[-131,86.61287],[-130.5,86.61174],[-130,86.61036],[-129.5,86.60874],[-129,86.60687],[-128.5,86.60476],[-128,86.60239],[-128,86.6024],[-127.5,86.59979],[-127,86.59693],[-126.5,86.59382],[-126,86.59047],[-125.5,86.58686],[-125,86.583],[-124.5,86.57889],[-124,86.57452],[-123.5,86.56989],[-123,86.565],[-123,86.56501],[-122.5,86.55986],[-122,86.55445],[-121.5,86.54878],[-121,86.54284],[-120.5,86.53664],[-120,86.53016],[-119.5,86.52341],[-119,86.51639],[-118.5,86.50909],[-118,86.5015],[-117.5,86.49364],[-117,86.48549],[-116.5,86.47705],[-116,86.46832],[-115.5,86.45929],[-115,86.44997],[-114.5,86.44034],[-114,86.43041],[-113.5,86.42016],[-113,86.40961],[-112.5,86.39874],[-112,86.38754],[-111.5,86.37602],[-111,86.36417],[-110.5,86.35199],[-110,86.33946],[-109.5,86.32659],[-109,86.31337],[-108.5,86.2998],[-108,86.28586],[-108,86.28587],[-107.5,86.27156],[-107,86.25689],[-106.5,86.24184],[-106,86.2264],[-105.5,86.21058],[-105,86.19435],[-104.5,86.17772],[-104,86.16068],[-103.5,86.14322],[-103,86.12533],[-102.5,86.10701],[-102,86.08825],[-101.5,86.06903],[-101,86.04936],[-100.5,86.02921],[-100,86.00859],[-99.5,85.98748],[-99,85.96587],[-98.5,85.94375],[-98,85.92112],[-97.5,85.89795],[-97,85.87425],[-96.5,85.84999],[-96,85.82517],[-95.5,85.79977],[-95,85.77378],[-94.5,85.74719],[-94,85.71998],[-93.5,85.69214],[-93,85.66365],[-92.5,85.6345],[-92,85.60468],[-91.5,85.57416],[-91,85.54293],[-90.5,85.51097],[-90,85.47827],[-89.5,85.4448],[-89,85.41055],[-88.5,85.3755],[-88,85.33961],[-87.5,85.30289],[-87,85.26529],[-86.5,85.2268],[-86,85.1874],[-85.5,85.14705],[-85,85.10574],[-84.5,85.06343],[-84.5,85.06344],[-84,85.02011],[-83.5,84.97573],[-83.5,84.97574],[-83,84.93028],[-82.5,84.88372],[-82,84.83601],[-81.5,84.78713],[-81,84.73704],[-81,84.73705],[-80.5,84.68571],[-80,84.6331],[-79.5,84.57916],[-79,84.52387],[-78.5,84.46717],[-78,84.40903],[-78,84.40904],[-77.5,84.34941],[-77,84.28825],[-76.5,84.22551],[-76,84.16113],[-75.5,84.09508],[-75,84.02729],[-74.5,83.9577],[-74.5,83.95771],[-74,83.88627],[-73.5,83.81293],[-73,83.73762],[-72.5,83.66028],[-72,83.58084],[-71.5,83.49923],[-71,83.41537],[-70.5,83.32921],[-70,83.24065],[-69.5,83.14962],[-69,83.05605],[-68.5,82.95984],[-68,82.8609],[-67.5,82.75916],[-67,82.6545],[-66.5,82.54685],[-66,82.4361],[-65.5,82.32214],[-65,82.20489],[-65,82.20488],[-64.5,82.08421],[-64,81.96002],[-63.5,81.83219],[-63,81.70062],[-62.5,81.56518],[-62,81.42575],[-61.5,81.28222],[-61,81.13447],[-60.5,80.98237],[-60,80.82579],[-59.5,80.66462],[-59,80.49872],[-58.5,80.32798],[-58,80.15228],[-57.5,79.97149],[-57,79.7855],[-56.5,79.59419],[-56,79.39746],[-55.5,79.1952],[-55,78.98731],[-54.5,78.77371],[-54,78.55432],[-53.5,78.32906],[-53,78.09788],[-52.5,77.86072],[-52,77.61754],[-51.5,77.36834],[-51,77.11309],[-50.5,76.85182],[-50,76.58453],[-49.5,76.31129],[-49,76.03214],[-48.5,75.74717],[-48,75.45648],[-47.5,75.16017],[-47,74.85839],[-46.5,74.55129],[-46,74.23903],[-45.5,73.92181],[-45,73.59982],[-44.5,73.27328],[-44,72.94242],[-43.5,72.60748],[-43,72.2687],[-42.5,71.92636],[-42,71.5807],[-41.5,71.23202],[-41,70.88056],[-40.5,70.52662],[-40,70.17047],[-39.5,69.81237],[-39,69.4526],[-38.5,69.09143],[-38,68.72912],[-37.5,68.36591],[-37,68.00206],[-36.5,67.6378],[-36,67.27336],[-35.5,66.90897],[-35,66.54482],[-34.5,66.18112],[-34,65.81806],[-33.5,65.45582],[-33,65.09456],[-32.5,64.73445],[-32,64.37562],[-31.5,64.01822],[-31,63.66238],[-30.5,63.30821],[-30,62.95582],[-29.85352,62.85294]]}}],"attribution":"Eclipse Predictions by Fred Espenak and Jean Meeus (NASA's GSFC)","generated_at":"2026-09-23T01:44:47.013Z"}
