{"type":"FeatureCollection","year":221,"events":[{"id":"+02210210","year":221,"month":2,"day":10,"time_tdt":"05:02:06","type":"금환일식","type_code":"A","saros":63,"gamma":-0.87243,"magnitude":0.97312,"greatest":{"lat":-63.21449,"lng":-162.73956},"path_width_km":195.6,"duration":"01m52s","delta_t_seconds":8400.5,"catalog_number":5306,"source":"NASA Five Millennium Canon of Solar Eclipses","source_url":"https://eclipse.gsfc.nasa.gov/SEsearch/SEsearchmap.php?Ecl=%2B02210210"},{"id":"+02210805","year":221,"month":8,"day":5,"time_tdt":"08:18:57","type":"개기일식","type_code":"T","saros":68,"gamma":0.90892,"magnitude":1.03394,"greatest":{"lat":68.77795,"lng":158.95862},"path_width_km":275.6,"duration":"01m58s","delta_t_seconds":8395.9,"catalog_number":5307,"source":"NASA Five Millennium Canon of Solar Eclipses","source_url":"https://eclipse.gsfc.nasa.gov/SEsearch/SEsearchmap.php?Ecl=%2B02210805"}],"features":[{"type":"Feature","id":"+02210210:north:0","properties":{"id":"+02210210","year":221,"month":2,"day":10,"time_tdt":"05:02:06","type":"금환일식","type_code":"A","saros":63,"gamma":-0.87243,"magnitude":0.97312,"greatest":{"lat":-63.21449,"lng":-162.73956},"path_width_km":195.6,"duration":"01m52s","delta_t_seconds":8400.5,"catalog_number":5306,"source":"NASA Five Millennium Canon of Solar Eclipses","source_url":"https://eclipse.gsfc.nasa.gov/SEsearch/SEsearchmap.php?Ecl=%2B02210210","boundary":"north","name":"221-02-10 금환일식"},"geometry":{"type":"LineString","coordinates":[[-1.23438,-74.50373],[-1,-74.67855],[-0.5,-75.04938],[0,-75.41703],[0.5,-75.78113],[1,-76.1413],[1.5,-76.49717],[2,-76.84836],[2.5,-77.19451],[3,-77.53524],[3.5,-77.87021],[4,-78.19909],[4.5,-78.52155],[5,-78.83732],[5.5,-79.14611],[6,-79.44768],[6.5,-79.74184],[7,-80.0284],[7.5,-80.30722],[8,-80.57819],[8.5,-80.84123],[8.5,-80.84124],[9,-81.09631],[9.5,-81.34342],[10,-81.58257],[10.5,-81.81383],[11,-82.03726],[11.5,-82.25299],[12,-82.46113],[12.5,-82.66184],[13,-82.85527],[13.5,-83.04161],[14,-83.22104],[14,-83.22105],[14.5,-83.39378],[15,-83.56002],[15.5,-83.71997],[16,-83.87385],[16.5,-84.02188],[17,-84.16427],[17.5,-84.30124],[18,-84.43299],[18.5,-84.55973],[19,-84.68167],[19.5,-84.79901],[20,-84.91193],[20.5,-85.02062],[21,-85.12526],[21.5,-85.22603],[22,-85.3231],[22.5,-85.41661],[23,-85.50673],[23.5,-85.59361],[24,-85.67738],[24.5,-85.75818],[25,-85.83614],[25.5,-85.91138],[26,-85.98401],[26.5,-86.05416],[27,-86.12193],[27.5,-86.18742],[28,-86.25072],[28.5,-86.31193],[29,-86.37113],[29.5,-86.42841],[30,-86.48385],[30.5,-86.53752],[31,-86.5895],[31.5,-86.63985],[32,-86.68864],[32.5,-86.73593],[33,-86.78177],[33,-86.78178],[33.5,-86.82624],[34,-86.86937],[34.5,-86.91123],[35,-86.95185],[35.5,-86.99129],[36,-87.02959],[36.5,-87.0668],[37,-87.10294],[37.5,-87.13807],[38,-87.17221],[38.5,-87.2054],[39,-87.23768],[39.5,-87.26908],[40,-87.29963],[40.5,-87.32935],[41,-87.35828],[41.5,-87.38644],[42,-87.41386],[42.5,-87.44056],[43,-87.46657],[43.5,-87.4919],[44,-87.51659],[44.5,-87.54064],[45,-87.56408],[45.5,-87.58693],[46,-87.60921],[46.5,-87.63093],[47,-87.65212],[47.5,-87.67277],[48,-87.69292],[48.5,-87.71258],[49,-87.73176],[49.5,-87.75047],[50,-87.76873],[50.5,-87.78656],[51,-87.80395],[51.5,-87.82093],[52,-87.8375],[52.5,-87.85368],[53,-87.86948],[53.5,-87.8849],[54,-87.89996],[54.5,-87.91466],[55,-87.92902],[55.5,-87.94304],[56,-87.95674],[56.5,-87.97011],[57,-87.98317],[57.5,-87.99592],[58,-88.00838],[58.5,-88.02054],[59,-88.03242],[59.5,-88.04402],[60,-88.05535],[60.5,-88.06642],[61,-88.07722],[61.5,-88.08777],[62,-88.09807],[62.5,-88.10813],[63,-88.11795],[63.5,-88.12753],[64,-88.13689],[64.5,-88.14602],[65,-88.15493],[65.5,-88.16362],[66,-88.17211],[66.5,-88.18038],[67,-88.18845],[67.5,-88.19632],[68,-88.204],[68.5,-88.21148],[69,-88.21877],[69.5,-88.22587],[70,-88.23279],[70.5,-88.23953],[71,-88.2461],[71.5,-88.25248],[72,-88.2587],[72.5,-88.26475],[73,-88.27063],[73.5,-88.27634],[74,-88.2819],[74.5,-88.28729],[75,-88.29253],[75.5,-88.29761],[76,-88.30253],[76.5,-88.30731],[77,-88.31194],[77.5,-88.31642],[78,-88.32075],[78.5,-88.32494],[79,-88.32898],[79,-88.32899],[79.5,-88.33289],[80,-88.33666],[80.5,-88.34028],[80.5,-88.34029],[81,-88.34378],[81.5,-88.34713],[82,-88.35036],[82.5,-88.35344],[83,-88.3564],[83.5,-88.35923],[84,-88.36193],[84.5,-88.3645],[85,-88.36694],[85.5,-88.36925],[86,-88.37144],[86.5,-88.37351],[87,-88.37545],[87.5,-88.37726],[88,-88.37896],[88.5,-88.38053],[89,-88.38198],[89.5,-88.3833],[90,-88.38451],[90.5,-88.3856],[91,-88.38657],[91.5,-88.38741],[92,-88.38814],[92.5,-88.38875],[93,-88.38924],[93.5,-88.38961],[94,-88.38987],[94.5,-88.39],[95,-88.39002],[95.5,-88.38992],[96,-88.3897],[96.5,-88.38936],[97,-88.3889],[97.5,-88.38833],[98,-88.38763],[98.5,-88.38682],[99,-88.38589],[99.5,-88.38483],[100,-88.38366],[100.5,-88.38237],[101,-88.38095],[101.5,-88.37942],[101.5,-88.37941],[102,-88.37776],[102.5,-88.37597],[103,-88.37407],[103.5,-88.37204],[104,-88.36989],[104.5,-88.36761],[105,-88.3652],[105.5,-88.36267],[106,-88.36001],[106,-88.36],[106.5,-88.35721],[107,-88.35429],[107.5,-88.35124],[108,-88.34805],[108.5,-88.34473],[109,-88.34128],[109.5,-88.33769],[110,-88.33396],[110.5,-88.33009],[111,-88.32608],[111.5,-88.32193],[112,-88.31764],[112.5,-88.3132],[113,-88.30861],[113.5,-88.30387],[114,-88.29899],[114,-88.29898],[114.5,-88.29394],[115,-88.28875],[115.5,-88.28339],[116,-88.27788],[116.5,-88.27221],[117,-88.26637],[117.5,-88.26036],[118,-88.25419],[118.5,-88.24785],[119,-88.24133],[119.5,-88.23463],[120,-88.22775],[120.5,-88.22069],[121,-88.21345],[121.5,-88.20601],[122,-88.19838],[122.5,-88.19056],[123,-88.18253],[123.5,-88.1743],[124,-88.16587],[124.5,-88.15722],[125,-88.14836],[125.5,-88.13928],[126,-88.12997],[126.5,-88.12044],[127,-88.11067],[127.5,-88.10066],[128,-88.09041],[128.5,-88.07991],[129,-88.06916],[129.5,-88.05815],[130,-88.04687],[130.5,-88.03532],[131,-88.02349],[131.5,-88.01138],[132,-87.99898],[132.5,-87.98627],[133,-87.97327],[133.5,-87.95995],[134,-87.94631],[134.5,-87.93234],[135,-87.91804],[135.5,-87.90339],[136,-87.88838],[136.5,-87.87301],[137,-87.85727],[137.5,-87.84115],[137.5,-87.84114],[138,-87.82462],[138.5,-87.8077],[139,-87.79036],[139.5,-87.77259],[140,-87.75437],[140.5,-87.73571],[141,-87.71658],[141.5,-87.69697],[142,-87.67686],[142.5,-87.65624],[143,-87.6351],[143.5,-87.61342],[144,-87.59118],[144.5,-87.56836],[145,-87.54495],[145.5,-87.52092],[146,-87.49626],[146.5,-87.47094],[147,-87.44494],[147.5,-87.41825],[148,-87.39083],[148.5,-87.36266],[149,-87.33371],[149.5,-87.30396],[150,-87.27338],[150.5,-87.24194],[151,-87.2096],[151.5,-87.17633],[152,-87.14211],[152.5,-87.10688],[153,-87.07062],[153.5,-87.03328],[154,-86.99482],[154.5,-86.95519],[155,-86.91435],[155.5,-86.87226],[156,-86.82885],[156.5,-86.78408],[157,-86.73788],[157.5,-86.69019],[158,-86.64096],[158.5,-86.59011],[159,-86.53758],[159.5,-86.48328],[160,-86.42715],[160.5,-86.36909],[161,-86.30901],[161.5,-86.24683],[162,-86.18244],[162.5,-86.11575],[163,-86.04663],[163.5,-85.97497],[164,-85.90065],[164.5,-85.82354],[165,-85.74349],[165.5,-85.66036],[166,-85.57399],[166.5,-85.48421],[167,-85.39085],[167.5,-85.29373],[168,-85.19263],[168.5,-85.08736],[169,-84.97768],[169.5,-84.86337],[170,-84.74416],[170.5,-84.61979],[171,-84.48999],[171.5,-84.35445],[172.5,-84.06486],[173.5,-83.74827],[174,-83.57891],[174.5,-83.40162],[175,-83.21597],[175.5,-83.02151],[176,-82.81774],[176.5,-82.60418],[177,-82.38031],[177.5,-82.14558],[178,-81.89943],[178.5,-81.64129],[179,-81.37056],[179.5,-81.08664],[180,-80.78892]]}},{"type":"Feature","id":"+02210210:north:1","properties":{"id":"+02210210","year":221,"month":2,"day":10,"time_tdt":"05:02:06","type":"금환일식","type_code":"A","saros":63,"gamma":-0.87243,"magnitude":0.97312,"greatest":{"lat":-63.21449,"lng":-162.73956},"path_width_km":195.6,"duration":"01m52s","delta_t_seconds":8400.5,"catalog_number":5306,"source":"NASA Five Millennium Canon of Solar Eclipses","source_url":"https://eclipse.gsfc.nasa.gov/SEsearch/SEsearchmap.php?Ecl=%2B02210210","boundary":"north","name":"221-02-10 금환일식"},"geometry":{"type":"LineString","coordinates":[[-179.5,-80.47676],[-179,-80.14955],[-178.5,-79.80667],[-178,-79.44749],[-177.5,-79.07141],[-177,-78.67787],[-176.5,-78.26629],[-176,-77.83617],[-175.5,-77.38704],[-175,-76.91846],[-174.5,-76.43009],[-174,-75.92163],[-173.5,-75.39289],[-173,-74.84374],[-172.5,-74.27418],[-172,-73.6843],[-171.5,-73.07433],[-171,-72.44463],[-171,-72.44462],[-170.5,-71.79567],[-170,-71.12811],[-169.5,-70.44272],[-169,-69.74045],[-168.5,-69.0224],[-168,-68.28982],[-167.5,-67.5441],[-167,-66.78678],[-166.5,-66.01951],[-166,-65.24405],[-165.5,-64.46225],[-165,-63.67599],[-164.5,-62.8872],[-164,-62.09782],[-163.5,-61.30974],[-163,-60.52481],[-162.5,-59.74478],[-162,-58.97131],[-161.5,-58.20592],[-161,-57.45002],[-160.5,-56.70485],[-160,-55.9715],[-159.5,-55.2509],[-159,-54.54385],[-158.5,-53.851],[-158,-53.17285],[-157.5,-52.50977],[-157,-51.86205],[-156.5,-51.22983],[-156,-50.6132],[-155.5,-50.01215],[-155,-49.42659],[-154.5,-48.85639],[-154,-48.30137],[-153.5,-47.76131],[-153,-47.23594],[-152.5,-46.72498],[-152,-46.22814],[-151.5,-45.74508],[-151,-45.27549],[-150.5,-44.81903],[-150,-44.37537],[-149.5,-43.94416],[-149,-43.52507],[-148.5,-43.11776],[-148,-42.72191],[-147.5,-42.3372],[-147,-41.96331],[-146.5,-41.59993],[-146,-41.24676],[-145.5,-40.90351],[-145,-40.56991],[-144.5,-40.24567],[-144,-39.93053],[-143.5,-39.62424],[-143,-39.32654],[-142.5,-39.03721],[-142,-38.756],[-141.5,-38.48271],[-141.5,-38.4827],[-141,-38.2171],[-140.5,-37.95899],[-140,-37.70816],[-139.5,-37.46444],[-139,-37.22763],[-138.5,-36.99756],[-138,-36.77405],[-137.5,-36.55695],[-137,-36.34609],[-136.5,-36.14133],[-136,-35.94251],[-135.5,-35.7495],[-135,-35.56215],[-134.5,-35.38034],[-134,-35.20394],[-133.5,-35.03283],[-133,-34.86689],[-132.5,-34.70601],[-132,-34.55008],[-131.5,-34.39899],[-131,-34.25264],[-130.5,-34.11094],[-130.18945,-34.02522]]}},{"type":"Feature","id":"+02210210:center:0","properties":{"id":"+02210210","year":221,"month":2,"day":10,"time_tdt":"05:02:06","type":"금환일식","type_code":"A","saros":63,"gamma":-0.87243,"magnitude":0.97312,"greatest":{"lat":-63.21449,"lng":-162.73956},"path_width_km":195.6,"duration":"01m52s","delta_t_seconds":8400.5,"catalog_number":5306,"source":"NASA Five Millennium Canon of Solar Eclipses","source_url":"https://eclipse.gsfc.nasa.gov/SEsearch/SEsearchmap.php?Ecl=%2B02210210","boundary":"center","name":"221-02-10 금환일식"},"geometry":{"type":"LineString","coordinates":[[-14.4006,-75.344],[-5.5,-75.19785],[-5,-75.64559],[-4.5,-76.09358],[-4,-76.54134],[-3.5,-76.98833],[-3,-77.43396],[-2.5,-77.87758],[-2,-78.31847],[-1.5,-78.75587],[-1,-79.18894],[-0.5,-79.6168],[0,-80.03851],[0.5,-80.45312],[1,-80.85964],[1.5,-81.25707],[2,-81.64445],[2.5,-82.02084],[3,-82.38536],[3.5,-82.73722],[4,-83.07576],[4.5,-83.40041],[5,-83.71077],[5.5,-84.00656],[6,-84.28769],[6.5,-84.55419],[7,-84.80622],[7.5,-85.0441],[8,-85.26821],[8.5,-85.47905],[9,-85.67718],[9.5,-85.86319],[10,-86.03773],[10.5,-86.20143],[11,-86.35494],[11.5,-86.49892],[12,-86.63397],[12.5,-86.7607],[13,-86.87969],[13.5,-86.99146],[14,-87.09653],[14.5,-87.19538],[15,-87.28846],[15.5,-87.37616],[16,-87.45889],[16.5,-87.53699],[17,-87.61078],[17.5,-87.68058],[18,-87.74666],[18.5,-87.80928],[19,-87.86867],[19.5,-87.92505],[20,-87.97863],[20.5,-88.02958],[21,-88.07808],[21.5,-88.12428],[22,-88.16834],[22.5,-88.21038],[23,-88.25053],[23.5,-88.2889],[24,-88.3256],[24.5,-88.36074],[25,-88.39439],[25.5,-88.42664],[26,-88.45758],[26.5,-88.48728],[27,-88.5158],[27.5,-88.5432],[28,-88.56956],[28.5,-88.59491],[29,-88.61932],[29.5,-88.64283],[30,-88.66549],[30.5,-88.68734],[31,-88.70841],[31.5,-88.72875],[32,-88.74839],[32.5,-88.76737],[33,-88.78571],[33,-88.7857],[33.5,-88.80343],[34,-88.82058],[34.5,-88.83718],[36.5,-88.89847],[35,-88.85324],[35.5,-88.8688],[36,-88.88387],[36.5,-88.89847],[37,-88.91263],[37.5,-88.92636],[38,-88.93968],[38.5,-88.9526],[39,-88.96515],[39,-88.96514],[39.5,-88.97732],[40,-88.98915],[40.5,-89.00064],[41,-89.01181],[41.5,-89.02266],[42,-89.03321],[42.5,-89.04347],[43,-89.05345],[43.5,-89.06316],[44,-89.07261],[44.5,-89.0818],[45,-89.09075],[45.5,-89.09947],[46,-89.10795],[46.5,-89.11622],[47,-89.12427],[47.5,-89.13212],[48,-89.13976],[48.5,-89.14721],[49,-89.15447],[49.5,-89.16155],[50,-89.16846],[50.5,-89.17519],[51,-89.18175],[51.5,-89.18815],[52,-89.1944],[52.5,-89.20049],[53,-89.20643],[53.5,-89.21223],[54,-89.21789],[54,-89.21788],[54.5,-89.22341],[54.5,-89.2234],[55,-89.22879],[55.5,-89.23405],[56,-89.23918],[56.5,-89.24418],[57,-89.24907],[57.5,-89.25384],[58,-89.25849],[58.5,-89.26303],[59,-89.26747],[59.5,-89.27179],[60,-89.27602],[60.5,-89.28014],[61,-89.28416],[61.5,-89.28809],[62,-89.29192],[62.5,-89.29565],[63,-89.2993],[63.5,-89.30286],[63.5,-89.30285],[64,-89.30632],[64.5,-89.30971],[65,-89.31301],[65.5,-89.31623],[66,-89.31937],[66.5,-89.32243],[67,-89.32541],[67.5,-89.32831],[68,-89.33115],[68,-89.33114],[68.5,-89.3339],[69,-89.33659],[69.5,-89.3392],[70,-89.34175],[70.5,-89.34423],[71,-89.34664],[71.5,-89.34898],[72,-89.35126],[72.5,-89.35348],[73,-89.35563],[73.5,-89.35772],[74,-89.35975],[74.5,-89.36172],[75,-89.36363],[75.5,-89.36548],[76,-89.36727],[76.5,-89.36901],[76.5,-89.369],[77,-89.37068],[77.5,-89.37231],[78,-89.37387],[78.5,-89.37539],[79,-89.37685],[79.5,-89.37825],[80,-89.37961],[80.5,-89.38091],[81,-89.38216],[81.5,-89.38335],[82,-89.3845],[82.5,-89.3856],[83,-89.38665],[83.5,-89.38764],[84,-89.38859],[84.5,-89.38949],[85,-89.39035],[85.5,-89.39115],[86,-89.39191],[86.5,-89.39261],[87,-89.39328],[87.5,-89.39389],[88,-89.39446],[88.5,-89.39498],[89,-89.39546],[89.5,-89.39589],[90,-89.39627],[90.5,-89.39661],[91,-89.3969],[91.5,-89.39715],[91.5,-89.39714],[92,-89.39735],[92.5,-89.3975],[93,-89.39761],[93.5,-89.39768],[94,-89.3977],[94.5,-89.39767],[95,-89.3976],[95.5,-89.39749],[95.5,-89.39748],[96,-89.39732],[96.5,-89.39712],[97,-89.39687],[97,-89.39686],[97.5,-89.39657],[98,-89.39622],[98.5,-89.39584],[98.5,-89.39583],[99,-89.3954],[99.5,-89.39492],[100,-89.39439],[100.5,-89.39382],[101,-89.3932],[101.5,-89.39253],[102,-89.39182],[102,-89.39181],[102.5,-89.39105],[103,-89.39024],[103.5,-89.38939],[104,-89.38848],[104.5,-89.38752],[105,-89.38652],[105.5,-89.38547],[106,-89.38436],[106.5,-89.38321],[107,-89.382],[107.5,-89.38075],[108,-89.37944],[108.5,-89.37808],[109,-89.37667],[109.5,-89.3752],[110,-89.37368],[110.5,-89.37211],[111,-89.37048],[111.5,-89.36879],[112,-89.36705],[112.5,-89.36525],[113,-89.36339],[113.5,-89.36148],[114,-89.3595],[114.5,-89.35746],[115,-89.35537],[115.5,-89.35321],[115.5,-89.3532],[116,-89.35098],[116.5,-89.34869],[117,-89.34634],[117.5,-89.34392],[118,-89.34144],[118.5,-89.33888],[119,-89.33626],[119.5,-89.33356],[120,-89.33079],[120.5,-89.32795],[121,-89.32504],[121.5,-89.32204],[122,-89.31898],[122.5,-89.31583],[123,-89.3126],[123.5,-89.30929],[124,-89.30589],[124.5,-89.30241],[125,-89.29884],[125.5,-89.29518],[126,-89.29143],[126.5,-89.28759],[127,-89.28365],[127.5,-89.27962],[128,-89.27548],[128.5,-89.27125],[129,-89.2669],[129.5,-89.26246],[130,-89.2579],[130.5,-89.25323],[131,-89.24844],[131.5,-89.24354],[132,-89.23852],[132.5,-89.23337],[133,-89.2281],[133.5,-89.22269],[134,-89.21715],[134.5,-89.21148],[135,-89.20566],[135.5,-89.1997],[136,-89.19358],[136.5,-89.18732],[137,-89.18089],[137.5,-89.1743],[138,-89.16755],[138.5,-89.16062],[139,-89.15351],[139.5,-89.14622],[140,-89.13874],[140.5,-89.13107],[141,-89.12319],[141.5,-89.11511],[142,-89.10681],[142.5,-89.09829],[143,-89.08954],[143.5,-89.08055],[144,-89.07131],[144.5,-89.06183],[145,-89.05208],[145.5,-89.04205],[146,-89.03175],[146.5,-89.02115],[147,-89.01024],[147.5,-88.99902],[148,-88.98748],[148.5,-88.97559],[149,-88.96335],[149.5,-88.95074],[150,-88.93775],[150.5,-88.92436],[151,-88.91056],[151.5,-88.89632],[152,-88.88164],[152.5,-88.86648],[153,-88.85083],[153.5,-88.83467],[154,-88.81797],[154.5,-88.80071],[155,-88.78286],[155.5,-88.7644],[156,-88.74529],[156.5,-88.72551],[157,-88.70502],[157.5,-88.68379],[158,-88.66177],[158.5,-88.63893],[159,-88.61522],[159.5,-88.5906],[160,-88.56502],[160.5,-88.53842],[161,-88.51075],[161.5,-88.48195],[162,-88.45195],[162.5,-88.42067],[163,-88.38806],[163.5,-88.35401],[164,-88.31845],[164.5,-88.28128],[165,-88.24239],[165.5,-88.20167],[166,-88.15901],[166.5,-88.11427],[167,-88.06731],[167.5,-88.01798],[168,-87.96609],[168.5,-87.91148],[169,-87.85395],[169.5,-87.79326],[170,-87.72919],[170.5,-87.66148],[171,-87.58983],[171.5,-87.51395],[172,-87.43347],[172.5,-87.34804],[173,-87.25725],[174,-87.0577],[175,-86.83072],[175.5,-86.70543],[176,-86.57137],[176.5,-86.42777],[177,-86.2738],[177.5,-86.10858],[178,-85.93115],[178.5,-85.74048],[179,-85.5355],[180,-85.07798],[180,-85.07797]]}},{"type":"Feature","id":"+02210210:center:1","properties":{"id":"+02210210","year":221,"month":2,"day":10,"time_tdt":"05:02:06","type":"금환일식","type_code":"A","saros":63,"gamma":-0.87243,"magnitude":0.97312,"greatest":{"lat":-63.21449,"lng":-162.73956},"path_width_km":195.6,"duration":"01m52s","delta_t_seconds":8400.5,"catalog_number":5306,"source":"NASA Five Millennium Canon of Solar Eclipses","source_url":"https://eclipse.gsfc.nasa.gov/SEsearch/SEsearchmap.php?Ecl=%2B02210210","boundary":"center","name":"221-02-10 금환일식"},"geometry":{"type":"LineString","coordinates":[[-179.5,-84.82301],[-173,-79.38174],[-172.5,-78.77632],[-172,-78.14415],[-171.5,-77.48593],[-171,-76.80252],[-170.5,-76.09493],[-170,-75.36433],[-169.5,-74.61202],[-169,-73.83943],[-168.5,-73.04813],[-168,-72.23981],[-167.5,-71.41629],[-167,-70.57949],[-166.5,-69.73143],[-166,-68.87424],[-165.5,-68.01009],[-165,-67.14122],[-164.5,-66.26987],[-164,-65.39829],[-163.5,-64.52866],[-163,-63.66312],[-162.5,-62.8037],[-162,-61.95231],[-161.5,-61.1107],[-161,-60.28049],[-160.5,-59.46308],[-160,-58.65973],[-159.5,-57.87148],[-159,-57.09922],[-158.5,-56.34364],[-158,-55.60529],[-157.5,-54.88456],[-157,-54.1817],[-156.5,-53.49684],[-156,-52.83001],[-155.5,-52.18113],[-155,-51.55007],[-154.5,-50.9366],[-154,-50.34045],[-153.5,-49.76132],[-153,-49.19887],[-152.5,-48.6527],[-152,-48.12244],[-151.5,-47.60768],[-151,-47.108],[-150.5,-46.62298],[-150,-46.15222],[-149.5,-45.69528],[-149,-45.25177],[-148.5,-44.82127],[-148,-44.4034],[-147.5,-43.99777],[-147,-43.604],[-146.5,-43.22172],[-146,-42.85059],[-145.5,-42.49027],[-145,-42.14042],[-144.5,-41.80072],[-144,-41.47087],[-143.5,-41.15058],[-143,-40.83955],[-142.5,-40.53752],[-142,-40.24422],[-141.5,-39.9594],[-141,-39.68282],[-140.5,-39.41425],[-140,-39.15345],[-139.5,-38.90022],[-139,-38.65435],[-138.5,-38.41564],[-138,-38.1839],[-137.5,-37.95894],[-137,-37.7406],[-136.5,-37.52869],[-136,-37.32307],[-135.5,-37.12357],[-135,-36.93003],[-134.5,-36.74233],[-134,-36.56032],[-133.5,-36.38386],[-133,-36.21283],[-132.5,-36.0471],[-132,-35.88655],[-131.5,-35.73107],[-131,-35.58055],[-130.5,-35.43488],[-130,-35.29395],[-129.5,-35.15768],[-129.34939,-35.04959]]}},{"type":"Feature","id":"+02210210:south:0","properties":{"id":"+02210210","year":221,"month":2,"day":10,"time_tdt":"05:02:06","type":"금환일식","type_code":"A","saros":63,"gamma":-0.87243,"magnitude":0.97312,"greatest":{"lat":-63.21449,"lng":-162.73956},"path_width_km":195.6,"duration":"01m52s","delta_t_seconds":8400.5,"catalog_number":5306,"source":"NASA Five Millennium Canon of Solar Eclipses","source_url":"https://eclipse.gsfc.nasa.gov/SEsearch/SEsearchmap.php?Ecl=%2B02210210","boundary":"south","name":"221-02-10 금환일식"},"geometry":{"type":"LineString","coordinates":[[-10.75,-75.29593],[-10.5,-75.58622],[-10,-76.17985],[-9.5,-76.793],[-9,-77.42894],[-8.5,-78.09226],[-8,-78.78961],[-8,-78.7896],[-7.5,-79.53139],[-7,-80.33561],[-6.5,-81.23875],[-6,-82.3428],[-12,-88.12619],[-12.5,-88.19674],[-13,-88.26154],[-13.5,-88.32131],[-14,-88.37664],[-14.5,-88.42804],[-15,-88.47594],[-15.5,-88.5207],[-16,-88.56262],[-16.5,-88.60199],[-17,-88.63903],[-17.5,-88.67395],[-18,-88.70693],[-18.5,-88.73813],[-19,-88.76769],[-19.5,-88.79575],[-20,-88.82242],[-20.5,-88.84779],[-21,-88.87196],[-21.5,-88.89502],[-22,-88.91704],[-22.5,-88.93808],[-23,-88.95821],[-23.5,-88.97749],[-24,-88.99597],[-24.5,-89.0137],[-25,-89.03072],[-25.5,-89.04707],[-26,-89.0628],[-26.5,-89.07792],[-27,-89.09249],[-27.5,-89.10652],[-28,-89.12005],[-28.5,-89.13309],[-29,-89.14568],[-29.5,-89.15784],[-30,-89.16958],[-30.5,-89.18094],[-31,-89.19191],[-31.5,-89.20253],[-32,-89.21281],[-32.5,-89.22276],[-33,-89.2324],[-33.5,-89.24174],[-34,-89.2508],[-34.5,-89.25958],[-35,-89.26809],[-35.5,-89.27636],[-36,-89.28438],[-36.5,-89.29217],[-37,-89.29973],[-37.5,-89.30708],[-38,-89.31422],[-38.5,-89.32116],[-39,-89.32791],[-39.5,-89.33447],[-40,-89.34085],[-40.5,-89.34706],[-41,-89.35311],[-41.5,-89.35899],[-42,-89.36471],[-42.5,-89.37029],[-43,-89.37571],[-43.5,-89.381],[-44,-89.38615],[-44.5,-89.39117],[-45,-89.39605],[-45.5,-89.40082],[-46,-89.40546],[-46.5,-89.40998],[-47,-89.41439],[-47.5,-89.41869],[-48,-89.42288],[-48.5,-89.42697],[-49,-89.43096],[-49.5,-89.43484],[-50,-89.43863],[-50.5,-89.44233],[-51,-89.44593],[-51.5,-89.44945],[-52,-89.45288],[-52.5,-89.45622],[-53,-89.45949],[-53.5,-89.46267],[-54,-89.46577],[-54.5,-89.4688],[-55,-89.47175],[-55.5,-89.47462],[-56,-89.47743],[-56.5,-89.48017],[-57,-89.48283],[-57.5,-89.48543],[-58,-89.48797],[-58.5,-89.49044],[-59,-89.49285],[-59.5,-89.4952],[-60,-89.49748],[-60.5,-89.49971],[-61,-89.50188],[-61.5,-89.50399],[-62,-89.50604],[-62.5,-89.50805],[-63,-89.50999],[-63.5,-89.51189],[-64,-89.51373],[-64.5,-89.51552],[-65,-89.51726],[-65.5,-89.51895],[-66,-89.52059],[-66.5,-89.52219],[-67,-89.52374],[-67.5,-89.52524],[-68,-89.52669],[-68.5,-89.5281],[-69,-89.52947],[-69.5,-89.53079],[-70,-89.53207],[-70.5,-89.5333],[-71,-89.53449],[-71.5,-89.53564],[-72,-89.53675],[-72.5,-89.53782],[-73,-89.53885],[-73.5,-89.53984],[-74,-89.54079],[-74.5,-89.5417],[-75,-89.54257],[-75.5,-89.5434],[-76,-89.54419],[-76.5,-89.54495],[-77,-89.54567],[-77.5,-89.54635],[-78,-89.547],[-78.5,-89.5476],[-79,-89.54818],[-79.5,-89.54871],[-80,-89.54921],[-80.5,-89.54968],[-81,-89.55011],[-81.5,-89.5505],[-82,-89.55086],[-82.5,-89.55118],[-83,-89.55147],[-83.5,-89.55172],[-84,-89.55194],[-84.5,-89.55212],[-85,-89.55227],[-85.5,-89.55239],[-86,-89.55247],[-86.5,-89.55251],[-87,-89.55252],[-87.5,-89.5525],[-88,-89.55244],[-88.5,-89.55235],[-89,-89.55222],[-89.5,-89.55206],[-90,-89.55186],[-90.5,-89.55163],[-91,-89.55137],[-91.5,-89.55107],[-92,-89.55073],[-92.5,-89.55036],[-93,-89.54996],[-93.5,-89.54952],[-94,-89.54904],[-94.5,-89.54853],[-95,-89.54798],[-95.5,-89.54739],[-96,-89.54677],[-96.5,-89.54611],[-97,-89.54542],[-97.5,-89.54469],[-98,-89.54392],[-98.5,-89.54311],[-99,-89.54226],[-99.5,-89.54138],[-100,-89.54045],[-100.5,-89.53949],[-101,-89.53849],[-101.5,-89.53745],[-102,-89.53636],[-102.5,-89.53524],[-103,-89.53407],[-103.5,-89.53287],[-104,-89.53162],[-104.5,-89.53032],[-105,-89.52899],[-105.5,-89.52761],[-106,-89.52618],[-106.5,-89.52471],[-107,-89.52319],[-107.5,-89.52163],[-108,-89.52002],[-108.5,-89.51836],[-109,-89.51665],[-109.5,-89.51489],[-110,-89.51308],[-110.5,-89.51122],[-111,-89.50931],[-111.5,-89.50734],[-112,-89.50532],[-112.5,-89.50325],[-113,-89.50111],[-113.5,-89.49892],[-114,-89.49668],[-114.5,-89.49437],[-115,-89.492],[-115.5,-89.48957],[-116,-89.48708],[-116.5,-89.48452],[-117,-89.4819],[-117.5,-89.4792],[-118,-89.47644],[-118.5,-89.47361],[-119,-89.47071],[-119.5,-89.46773],[-120,-89.46468],[-120.5,-89.46155],[-121,-89.45834],[-121.5,-89.45505],[-122,-89.45168],[-122.5,-89.44822],[-123,-89.44467],[-123.5,-89.44104],[-124,-89.43731],[-124.5,-89.43348],[-125,-89.42956],[-125.5,-89.42554],[-126,-89.42142],[-126.5,-89.41719],[-127,-89.41285],[-127.5,-89.4084],[-128,-89.40384],[-128.5,-89.39916],[-129,-89.39435],[-129.5,-89.38942],[-130,-89.38436],[-130.5,-89.37916],[-131,-89.37383],[-131.5,-89.36835],[-132,-89.36273],[-132.5,-89.35695],[-133,-89.35101],[-133.5,-89.34491],[-134,-89.33865],[-134.5,-89.3322],[-135,-89.32558],[-135.5,-89.31877],[-136,-89.31176],[-136.5,-89.30455],[-137,-89.29713],[-137.5,-89.28949],[-138,-89.28162],[-138.5,-89.27352],[-139,-89.26517],[-139.5,-89.25657],[-140,-89.2477],[-140.5,-89.23855],[-141,-89.22912],[-141.5,-89.21938],[-142,-89.20932],[-142.5,-89.19893],[-143,-89.1882],[-143.5,-89.1771],[-144,-89.16562],[-144.5,-89.15375],[-145,-89.14145],[-145.5,-89.12872],[-146,-89.11552],[-146.5,-89.10184],[-147,-89.08764],[-147.5,-89.0729],[-148,-89.05759],[-148.5,-89.04168],[-149,-89.02512],[-149.5,-89.00789],[-150,-88.98994],[-150.5,-88.97122],[-151,-88.95169],[-151.5,-88.9313],[-152,-88.90997],[-152.5,-88.88766],[-153,-88.86429],[-153.5,-88.83978],[-154,-88.81405],[-154.5,-88.78701],[-155,-88.75855],[-155.5,-88.72855],[-156,-88.69689],[-156.5,-88.66342],[-157,-88.62798],[-157.5,-88.59038],[-158,-88.55042],[-158.5,-88.50785],[-159,-88.46241],[-159.5,-88.41377],[-160,-88.36157],[-160.5,-88.30539],[-161,-88.24472],[-161.5,-88.17897],[-162,-88.1074],[-162.5,-88.02916],[-163,-87.94316],[-163.5,-87.84806],[-164,-87.74217],[-164.5,-87.62327],[-165,-87.48842],[-165.5,-87.33357],[-166,-87.15296],[-166.5,-86.93789],[-167,-86.67426],[-167.5,-86.33661],[-168,-85.86978],[-168.5,-85.09622],[-166.5,-75.56526],[-166,-74.38057],[-165.5,-73.22843],[-165,-72.102],[-164.5,-70.99747],[-164,-69.91278],[-163.5,-68.84702],[-163,-67.79997],[-162.5,-66.77185],[-162,-65.76316],[-161.5,-64.77454],[-161,-63.80667],[-160.5,-62.86022],[-160,-61.93579],[-159.5,-61.03388],[-159,-60.15488],[-158.5,-59.29906],[-158,-58.46656],[-157.5,-57.6574],[-157,-56.87149],[-156.5,-56.10862],[-156,-55.36852],[-155.5,-54.65082],[-155,-53.9551],[-154.5,-53.28088],[-154,-52.62764],[-153.5,-51.99484],[-153,-51.38191],[-152.5,-50.78826],[-152,-50.21331],[-151.5,-49.65647],[-151,-49.11715],[-150.5,-48.59478],[-150,-48.08879],[-149.5,-47.59862],[-149,-47.12374],[-148.5,-46.66362],[-148,-46.21775],[-147.5,-45.78565],[-147,-45.36683],[-146.5,-44.96086],[-146,-44.56729],[-145.5,-44.1857],[-145,-43.81569],[-144.5,-43.45689],[-144,-43.1089],[-143.5,-42.7714],[-143,-42.44403],[-142.5,-42.12648],[-142,-41.81843],[-141.5,-41.51959],[-141,-41.22967],[-140.5,-40.94841],[-140,-40.67555],[-139.5,-40.41084],[-139,-40.15403],[-138.5,-39.90491],[-138,-39.66326],[-137.5,-39.42887],[-137,-39.20153],[-136.5,-38.98106],[-136,-38.76728],[-135.5,-38.56],[-135,-38.35907],[-134.5,-38.16431],[-134,-37.97558],[-133.5,-37.79273],[-133,-37.6156],[-132.5,-37.44407],[-132,-37.278],[-131.5,-37.11727],[-131,-36.96175],[-130.5,-36.81133],[-130,-36.66589],[-129.5,-36.52533],[-129,-36.38953],[-128.5,-36.25841]]}},{"type":"Feature","id":"+02210805:north:0","properties":{"id":"+02210805","year":221,"month":8,"day":5,"time_tdt":"08:18:57","type":"개기일식","type_code":"T","saros":68,"gamma":0.90892,"magnitude":1.03394,"greatest":{"lat":68.77795,"lng":158.95862},"path_width_km":275.6,"duration":"01m58s","delta_t_seconds":8395.9,"catalog_number":5307,"source":"NASA Five Millennium Canon of Solar Eclipses","source_url":"https://eclipse.gsfc.nasa.gov/SEsearch/SEsearchmap.php?Ecl=%2B02210805","boundary":"north","name":"221-08-05 개기일식"},"geometry":{"type":"LineString","coordinates":[[-73.375,72.65475],[-73.5,75.77593],[-74,76.86215],[-74.5,77.57115],[-75,78.12032],[-75.5,78.57511],[-76,78.96583],[-76.5,79.30948],[-77,79.61673],[-77.5,79.89478],[-78,80.14878],[-78.5,80.38255],[-79,80.59902],[-79.5,80.80049],[-80,80.98882],[-80.5,81.1655],[-81,81.33181],[-81.5,81.48878],[-82,81.63732],[-82.5,81.77818],[-83,81.91204],[-83.5,82.03947],[-84,82.16097],[-84.5,82.277],[-85,82.38795],[-85.5,82.49418],[-86,82.596],[-86.5,82.69371],[-87,82.78755],[-87.5,82.87776],[-88,82.96456],[-88.5,83.04815],[-89,83.12869],[-89.5,83.20636],[-90,83.2813],[-90.5,83.35366],[-91,83.42355],[-91.5,83.49111],[-92,83.55644],[-92.5,83.61964],[-93,83.68081],[-93.5,83.74004],[-94,83.79741],[-94.5,83.853],[-95,83.90689],[-95.5,83.95913],[-96,84.0098],[-96.5,84.05896],[-97,84.10666],[-97.5,84.15296],[-98,84.19791],[-98.5,84.24155],[-99,84.28393],[-99.5,84.3251],[-100,84.36509],[-100.5,84.40394],[-101,84.4417],[-101.5,84.47839],[-102,84.51404],[-102.5,84.5487],[-103,84.58238],[-103.5,84.61512],[-104,84.64694],[-104.5,84.67788],[-105,84.70795],[-105.5,84.73717],[-106,84.76557],[-106.5,84.79318],[-107,84.82001],[-107.5,84.84607],[-108,84.8714],[-108.5,84.896],[-109,84.9199],[-109.5,84.94311],[-110,84.96564],[-110.5,84.98752],[-111,85.00875],[-111.5,85.02934],[-112,85.04932],[-112.5,85.0687],[-113,85.08748],[-113.5,85.10567],[-114,85.1233],[-114.5,85.14036],[-115,85.15688],[-115.5,85.17285],[-116,85.18829],[-116.5,85.2032],[-117,85.2176],[-117.5,85.2315],[-118,85.24489],[-118.5,85.25779],[-119,85.27021],[-119.5,85.28215],[-120,85.29361],[-120.5,85.30461],[-121,85.31516],[-121.5,85.32524],[-122,85.33488],[-122.5,85.34407],[-123,85.35283],[-123.5,85.36114],[-124,85.36903],[-124.5,85.37649],[-125,85.38353],[-125.5,85.39015],[-126,85.39635],[-126.5,85.40214],[-127,85.40752],[-127.5,85.41249],[-128,85.41705],[-128.5,85.42122],[-129,85.42498],[-129.5,85.42834],[-130,85.43131],[-130.5,85.43388],[-131,85.43605],[-131.5,85.43783],[-132,85.43922],[-132.5,85.44022],[-133,85.44082],[-133.5,85.44104],[-134,85.44086],[-134.5,85.44029],[-135,85.43934],[-135.5,85.43799],[-136,85.43624],[-136.5,85.43411],[-137,85.43158],[-137.5,85.42866],[-138,85.42534],[-138.5,85.42162],[-139,85.4175],[-139.5,85.41298],[-140,85.40806],[-140.5,85.40273],[-141,85.397],[-141.5,85.39085],[-142,85.38429],[-142.5,85.37731],[-143,85.36991],[-143.5,85.36209],[-144,85.35384],[-144.5,85.34515],[-145,85.33603],[-145.5,85.32647],[-146,85.31647],[-146.5,85.30602],[-147,85.2951],[-147.5,85.28373],[-148,85.27189],[-148.5,85.25958],[-149,85.24679],[-149.5,85.23351],[-150,85.21974],[-150.5,85.20547],[-151,85.19069],[-151.5,85.1754],[-152,85.15958],[-152.5,85.14323],[-153,85.12633],[-153.5,85.10889],[-154,85.09088],[-154.5,85.0723],[-155,85.05314],[-155.5,85.03338],[-156,85.01302],[-156.5,84.99203],[-157,84.97042],[-157.5,84.94817],[-158,84.92525],[-158.5,84.90166],[-159,84.87739],[-159.5,84.85241],[-160,84.82671],[-160.5,84.80027],[-161,84.77308],[-161.5,84.74511],[-162,84.71635],[-162.5,84.68677],[-163,84.65636],[-163.5,84.62509],[-164,84.59293],[-164.5,84.55987],[-165,84.52588],[-165.5,84.49092],[-166,84.45498],[-166.5,84.41802],[-167,84.38001],[-167.5,84.34092],[-168,84.30072],[-168.5,84.25936],[-169,84.21681],[-169.5,84.17303],[-170,84.12798],[-170.5,84.08161],[-171,84.03387],[-171.5,83.98473],[-172,83.93412],[-172.5,83.88198],[-173,83.82827],[-173.5,83.77292],[-174,83.71587],[-174.5,83.65703],[-175,83.59635],[-175.5,83.53374],[-176,83.46912],[-176.5,83.4024],[-177,83.33348],[-177.5,83.26227],[-178,83.18865],[-178.5,83.11251],[-179,83.03372],[-179.5,82.95215]]}},{"type":"Feature","id":"+02210805:north:1","properties":{"id":"+02210805","year":221,"month":8,"day":5,"time_tdt":"08:18:57","type":"개기일식","type_code":"T","saros":68,"gamma":0.90892,"magnitude":1.03394,"greatest":{"lat":68.77795,"lng":158.95862},"path_width_km":275.6,"duration":"01m58s","delta_t_seconds":8395.9,"catalog_number":5307,"source":"NASA Five Millennium Canon of Solar Eclipses","source_url":"https://eclipse.gsfc.nasa.gov/SEsearch/SEsearchmap.php?Ecl=%2B02210805","boundary":"north","name":"221-08-05 개기일식"},"geometry":{"type":"LineString","coordinates":[[180,82.86765],[179.5,82.78007],[179,82.68924],[178.5,82.59498],[178,82.49709],[177.5,82.39534],[177,82.28952],[176.5,82.17935],[176,82.06456],[175.5,81.94484],[175,81.81984],[174.5,81.6892],[174,81.55247],[173.5,81.40921],[173,81.25888],[172.5,81.10088],[172,80.93456],[171.5,80.75915],[171,80.57377],[170.5,80.37743],[170,80.16895],[169.5,79.94696],[169,79.70985],[168.5,79.45566],[168,79.18204],[167.5,78.88608],[167,78.56413],[166.5,78.21152],[166,77.82207],[165.5,77.38739],[165,76.89552],[164.5,76.32845],[164,75.65664],[163.5,74.82514],[163,73.70524],[162.5,67.98757],[163,65.497],[163.5,63.87594],[164,62.55938],[164.5,61.41796],[165,60.39612],[165.5,59.46375],[166,58.60227],[166.5,57.79921],[167,57.04564],[167.5,56.33494],[168,55.66195],[168.5,55.0226],[169,54.41357],[169.5,53.8321],[170,53.27588],[170.5,52.74294],[171,52.23156],[171.5,51.74025],[172,51.26772],[172.5,50.81279],[173,50.37444],[173.5,49.95173],[174,49.54382],[174.5,49.14994],[175,48.76942],[175.5,48.4016],[176,48.04591],[176.5,47.70181],[177,47.3688],[177.5,47.04642],[178,46.73425],[178.5,46.43189],[179,46.13897],[179.5,45.85513],[180,45.58006]]}},{"type":"Feature","id":"+02210805:north:2","properties":{"id":"+02210805","year":221,"month":8,"day":5,"time_tdt":"08:18:57","type":"개기일식","type_code":"T","saros":68,"gamma":0.90892,"magnitude":1.03394,"greatest":{"lat":68.77795,"lng":158.95862},"path_width_km":275.6,"duration":"01m58s","delta_t_seconds":8395.9,"catalog_number":5307,"source":"NASA Five Millennium Canon of Solar Eclipses","source_url":"https://eclipse.gsfc.nasa.gov/SEsearch/SEsearchmap.php?Ecl=%2B02210805","boundary":"north","name":"221-08-05 개기일식"},"geometry":{"type":"LineString","coordinates":[[-179.5,45.31345],[-179,45.05502],[-178.5,44.80448],[-178,44.5616],[-177.5,44.32613],[-177,44.09784],[-176.5,43.87652],[-176,43.66197],[-175.5,43.45399],[-175,43.25239],[-174.5,43.05702],[-174,42.86769],[-173.5,42.68425],[-173,42.50656],[-172.75,42.41982]]}},{"type":"Feature","id":"+02210805:center:0","properties":{"id":"+02210805","year":221,"month":8,"day":5,"time_tdt":"08:18:57","type":"개기일식","type_code":"T","saros":68,"gamma":0.90892,"magnitude":1.03394,"greatest":{"lat":68.77795,"lng":158.95862},"path_width_km":275.6,"duration":"01m58s","delta_t_seconds":8395.9,"catalog_number":5307,"source":"NASA Five Millennium Canon of Solar Eclipses","source_url":"https://eclipse.gsfc.nasa.gov/SEsearch/SEsearchmap.php?Ecl=%2B02210805","boundary":"center","name":"221-08-05 개기일식"},"geometry":{"type":"LineString","coordinates":[[-77.88367,72.76183],[-69.5,72.68862],[-69,74.15594],[-69,77.46069],[-69.5,78.57206],[-70,79.2713],[-70.5,79.80529],[-71,80.24351],[-71.5,80.61743],[-72,80.94448],[-72.5,81.23547],[-73,81.49771],[-73.5,81.73636],[-74,81.95524],[-74.5,82.15728],[-75,82.34476],[-75.5,82.51953],[-76,82.68308],[-76.5,82.83664],[-77,82.98126],[-77.5,83.1178],[-78,83.24704],[-78.5,83.3696],[-79,83.48607],[-79.5,83.59692],[-80,83.70261],[-80.5,83.80351],[-81,83.89998],[-81.5,83.99231],[-82,84.08079],[-82.5,84.16566],[-83,84.24716],[-83.5,84.32548],[-84,84.40082],[-84.5,84.47334],[-85,84.54321],[-85.5,84.61056],[-86,84.67554],[-86.5,84.73826],[-87,84.79883],[-87.5,84.85737],[-88,84.91397],[-88.5,84.96872],[-89,85.0217],[-89.5,85.073],[-90,85.12269],[-90.5,85.17084],[-91,85.21751],[-91.5,85.26276],[-92,85.30665],[-92.5,85.34924],[-93,85.39057],[-93.5,85.4307],[-94,85.46966],[-94.5,85.5075],[-95,85.54427],[-95.5,85.57999],[-96,85.61471],[-96.5,85.64846],[-97,85.68127],[-97.5,85.71317],[-98,85.74419],[-98.5,85.77437],[-99,85.80372],[-99.5,85.83227],[-100,85.86005],[-100.5,85.88707],[-101,85.91337],[-101.5,85.93895],[-102,85.96385],[-102.5,85.98808],[-103,86.01165],[-103.5,86.0346],[-104,86.05692],[-104.5,86.07864],[-105,86.09977],[-105.5,86.12033],[-106,86.14034],[-106.5,86.15979],[-107,86.17872],[-107.5,86.19712],[-108,86.21502],[-108.5,86.23242],[-109,86.24933],[-109.5,86.26577],[-110,86.28174],[-110.5,86.29725],[-111,86.31232],[-111.5,86.32695],[-112,86.34115],[-112.5,86.35492],[-113,86.36828],[-113.5,86.38124],[-114,86.39379],[-114.5,86.40595],[-115,86.41772],[-115.5,86.42912],[-116,86.44014],[-116.5,86.45079],[-117,86.46108],[-117.5,86.47101],[-118,86.48058],[-118.5,86.48981],[-119,86.4987],[-119.5,86.50725],[-120,86.51546],[-120.5,86.52335],[-121,86.5309],[-121.5,86.53814],[-122,86.54505],[-122.5,86.55165],[-123,86.55794],[-123.5,86.56391],[-124,86.56958],[-124.5,86.57495],[-125,86.58001],[-125.5,86.58477],[-126,86.58924],[-126.5,86.59341],[-127,86.59729],[-127.5,86.60087],[-128,86.60417],[-128.5,86.60717],[-129,86.60989],[-129.5,86.61233],[-130,86.61448],[-130.5,86.61634],[-131,86.61793],[-131.5,86.61923],[-132,86.62025],[-132.5,86.62099],[-133,86.62145],[-133.5,86.62162],[-134,86.62152],[-134.5,86.62114],[-135,86.62048],[-135.5,86.61953],[-136,86.61831],[-136.5,86.6168],[-137,86.61501],[-137.5,86.61294],[-138,86.61058],[-138.5,86.60794],[-139,86.60501],[-139.5,86.6018],[-140,86.5983],[-140.5,86.5945],[-141,86.59042],[-141.5,86.58603],[-142,86.58136],[-142.5,86.57638],[-143,86.57111],[-143.5,86.56553],[-144,86.55965],[-144.5,86.55346],[-145,86.54695],[-145.5,86.54014],[-146,86.533],[-146.5,86.52555],[-147,86.51777],[-147.5,86.50967],[-148,86.50123],[-148.5,86.49246],[-149,86.48334],[-149.5,86.47389],[-150,86.46408],[-150.5,86.45392],[-151,86.4434],[-151.5,86.43252],[-152,86.42126],[-152.5,86.40963],[-153,86.39762],[-153.5,86.38522],[-154,86.37242],[-154.5,86.35923],[-155,86.34562],[-155.5,86.3316],[-156,86.31715],[-156.5,86.30227],[-157,86.28696],[-157.5,86.27119],[-158,86.25496],[-158.5,86.23827],[-159,86.2211],[-159.5,86.20344],[-160,86.18528],[-160.5,86.16661],[-161,86.14742],[-161.5,86.1277],[-162,86.10743],[-162.5,86.0866],[-163,86.0652],[-163.5,86.04321],[-164,86.02061],[-164.5,85.9974],[-165,85.97356],[-165.5,85.94906],[-166,85.92389],[-166.5,85.89804],[-167,85.87147],[-167.5,85.84418],[-168,85.81614],[-168.5,85.78732],[-169,85.75772],[-169.5,85.72729],[-170,85.69601],[-170.5,85.66387],[-171,85.63082],[-171.5,85.59684],[-172,85.5619],[-172.5,85.52596],[-173,85.48899],[-173.5,85.45096],[-174,85.41182],[-174.5,85.37153],[-175,85.33006],[-175.5,85.28735],[-176,85.24336],[-176.5,85.19804],[-177,85.15133],[-177.5,85.10318],[-178,85.05353],[-178.5,85.0023],[-179,84.94944],[-179.5,84.89488]]}},{"type":"Feature","id":"+02210805:center:1","properties":{"id":"+02210805","year":221,"month":8,"day":5,"time_tdt":"08:18:57","type":"개기일식","type_code":"T","saros":68,"gamma":0.90892,"magnitude":1.03394,"greatest":{"lat":68.77795,"lng":158.95862},"path_width_km":275.6,"duration":"01m58s","delta_t_seconds":8395.9,"catalog_number":5307,"source":"NASA Five Millennium Canon of Solar Eclipses","source_url":"https://eclipse.gsfc.nasa.gov/SEsearch/SEsearchmap.php?Ecl=%2B02210805","boundary":"center","name":"221-08-05 개기일식"},"geometry":{"type":"LineString","coordinates":[[180,84.83852],[179.5,84.78029],[179,84.72011],[178.5,84.65787],[178,84.59348],[177.5,84.52683],[177,84.45779],[176.5,84.38625],[176,84.31206],[175.5,84.23508],[175,84.15514],[174.5,84.07209],[174,83.98572],[173.5,83.89583],[173,83.80219],[172.5,83.70456],[172,83.60268],[171.5,83.49623],[171,83.38489],[170.5,83.26828],[170,83.14601],[169.5,83.01761],[169,82.88257],[168.5,82.7403],[168,82.59015],[167.5,82.43135],[167,82.26304],[166.5,82.0842],[166,81.89366],[165.5,81.69002],[165,81.47164],[164.5,81.23651],[164,80.98218],[163.5,80.7056],[163,80.40292],[162.5,80.06913],[162,79.69752],[161.5,79.27879],[161,78.7994],[160.5,78.2383],[160,77.55945],[159.5,76.69066],[159,75.43514],[159,68.58698],[159.5,66.704],[160,65.22722],[160.5,63.95926],[161,62.82736],[161.5,61.79489],[162,60.8402],[162.5,59.94916],[163,59.11192],[163.5,58.3212],[164,57.57144],[164.5,56.85826],[165,56.17809],[165.5,55.528],[166,54.90551],[166.5,54.30851],[167,53.73517],[167.5,53.18389],[168,52.65327],[168.5,52.14205],[169,51.64911],[169.5,51.17344],[170,50.71412],[170.5,50.27033],[171,49.8413],[171.5,49.42633],[172,49.02478],[172.5,48.63605],[173,48.2596],[173.5,47.8949],[174,47.5415],[174.5,47.19894],[175,46.8668],[175.5,46.5447],[176,46.23228],[176.5,45.92918],[177,45.6351],[177.5,45.34972],[178,45.07275],[178.5,44.80393],[179,44.543],[179.5,44.28972],[180,44.04386]]}},{"type":"Feature","id":"+02210805:center:2","properties":{"id":"+02210805","year":221,"month":8,"day":5,"time_tdt":"08:18:57","type":"개기일식","type_code":"T","saros":68,"gamma":0.90892,"magnitude":1.03394,"greatest":{"lat":68.77795,"lng":158.95862},"path_width_km":275.6,"duration":"01m58s","delta_t_seconds":8395.9,"catalog_number":5307,"source":"NASA Five Millennium Canon of Solar Eclipses","source_url":"https://eclipse.gsfc.nasa.gov/SEsearch/SEsearchmap.php?Ecl=%2B02210805","boundary":"center","name":"221-08-05 개기일식"},"geometry":{"type":"LineString","coordinates":[[-179.5,43.80519],[-179,43.57351],[-178.5,43.34862],[-178,43.13034],[-177.5,42.91849],[-177,42.71289],[-176.5,42.51338],[-176,42.31981],[-175.5,42.13202],[-175,41.94989],[-174.5,41.77326],[-174,41.60201],[-173.76017,41.40287]]}},{"type":"Feature","id":"+02210805:south:0","properties":{"id":"+02210805","year":221,"month":8,"day":5,"time_tdt":"08:18:57","type":"개기일식","type_code":"T","saros":68,"gamma":0.90892,"magnitude":1.03394,"greatest":{"lat":68.77795,"lng":158.95862},"path_width_km":275.6,"duration":"01m58s","delta_t_seconds":8395.9,"catalog_number":5307,"source":"NASA Five Millennium Canon of Solar Eclipses","source_url":"https://eclipse.gsfc.nasa.gov/SEsearch/SEsearchmap.php?Ecl=%2B02210805","boundary":"south","name":"221-08-05 개기일식"},"geometry":{"type":"LineString","coordinates":[[-66,72.29545],[-65.5,73.08557],[-65,73.97157],[-64.5,75.02059],[-64,76.47169],[-64,79.65619],[-64.5,80.70422],[-65,81.35478],[-65.5,81.84684],[-66,82.24746],[-66.5,82.58693],[-67,82.882],[-67.5,83.14307],[-68,83.37711],[-68.5,83.58906],[-69,83.78258],[-69.5,83.96045],[-70,84.12484],[-70.5,84.27751],[-71,84.41985],[-71.5,84.55305],[-72,84.67807],[-72.5,84.79576],[-73,84.90681],[-73.5,85.01183],[-74,85.11135],[-74.5,85.20584],[-75,85.29569],[-75.5,85.38127],[-76,85.4629],[-76.5,85.54086],[-77,85.61541],[-77.5,85.68678],[-78,85.75518],[-78.5,85.82079],[-79,85.88379],[-79.5,85.94433],[-80,86.00256],[-80.5,86.05861],[-81,86.1126],[-81.5,86.16464],[-82,86.21484],[-82.5,86.26328],[-83,86.31006],[-83.5,86.35526],[-84,86.39895],[-84.5,86.44121],[-85,86.48211],[-85.5,86.5217],[-86,86.56004],[-86.5,86.59718],[-87,86.63319],[-87.5,86.6681],[-88,86.70195],[-88.5,86.73481],[-89,86.76669],[-89.5,86.79764],[-90,86.8277],[-90.5,86.8569],[-91,86.88527],[-91.5,86.91284],[-92,86.93964],[-92.5,86.9657],[-93,86.99104],[-93.5,87.01568],[-94,87.03966],[-94.5,87.06298],[-95,87.08568],[-95.5,87.10777],[-96,87.12928],[-96.5,87.15021],[-97,87.17059],[-97.5,87.19043],[-98,87.20975],[-98.5,87.22857],[-99,87.2469],[-99.5,87.26474],[-100,87.28213],[-100.5,87.29906],[-101,87.31555],[-101.5,87.33161],[-102,87.34726],[-102.5,87.3625],[-103,87.37734],[-103.5,87.3918],[-104,87.40587],[-104.5,87.41959],[-105,87.43294],[-105.5,87.44593],[-106,87.45859],[-106.5,87.47091],[-107,87.4829],[-107.5,87.49457],[-108,87.50592],[-108.5,87.51697],[-109,87.52772],[-109.5,87.53816],[-110,87.54832],[-110.5,87.55819],[-111,87.56779],[-111.5,87.57711],[-112,87.58616],[-112.5,87.59494],[-113,87.60347],[-113.5,87.61174],[-114,87.61976],[-114.5,87.62753],[-115,87.63505],[-115.5,87.64234],[-116,87.64939],[-116.5,87.65621],[-117,87.6628],[-117.5,87.66916],[-118,87.6753],[-118.5,87.68122],[-119,87.68692],[-119.5,87.69241],[-120,87.69768],[-120.5,87.70274],[-121,87.7076],[-121.5,87.71225],[-122,87.71669],[-122.5,87.72094],[-123,87.72498],[-123.5,87.72883],[-124,87.73248],[-124.5,87.73594],[-125,87.7392],[-125.5,87.74228],[-126,87.74516],[-126.5,87.74785],[-127,87.75036],[-127.5,87.75268],[-128,87.75481],[-128.5,87.75676],[-129,87.75853],[-129.5,87.76011],[-130,87.76151],[-130.5,87.76273],[-131,87.76376],[-131.5,87.76462],[-132,87.76529],[-132.5,87.76579],[-133,87.7661],[-133.5,87.76624],[-134,87.76619],[-134.5,87.76597],[-135,87.76556],[-135.5,87.76498],[-136,87.76421],[-136.5,87.76327],[-137,87.76214],[-137.5,87.76083],[-138,87.75934],[-138.5,87.75767],[-139,87.75581],[-139.5,87.75377],[-140,87.75155],[-140.5,87.74914],[-141,87.74654],[-141.5,87.74375],[-142,87.74078],[-142.5,87.73761],[-143,87.73425],[-143.5,87.7307],[-144,87.72695],[-144.5,87.72301],[-145,87.71887],[-145.5,87.71453],[-146,87.70998],[-146.5,87.70524],[-147,87.70028],[-147.5,87.69512],[-148,87.68975],[-148.5,87.68416],[-149,87.67836],[-149.5,87.67233],[-150,87.66609],[-150.5,87.65963],[-151,87.65293],[-151.5,87.64601],[-152,87.63885],[-152.5,87.63145],[-153,87.62382],[-153.5,87.61594],[-154,87.60781],[-154.5,87.59942],[-155,87.59078],[-155.5,87.58188],[-156,87.57272],[-156.5,87.56328],[-157,87.55357],[-157.5,87.54357],[-158,87.53329],[-158.5,87.52272],[-159,87.51185],[-159.5,87.50068],[-160,87.4892],[-160.5,87.4774],[-161,87.46528],[-161.5,87.45283],[-162,87.44004],[-162.5,87.4269],[-163,87.41342],[-163.5,87.39957],[-164,87.38535],[-164.5,87.37075],[-165,87.35576],[-165.5,87.34038],[-166,87.32458],[-166.5,87.30837],[-167,87.29173],[-167.5,87.27465],[-168,87.25711],[-168.5,87.23911],[-169,87.22063],[-169.5,87.20165],[-170,87.18217],[-170.5,87.16216],[-171,87.14162],[-171.5,87.12053],[-172,87.09886],[-172.5,87.0766],[-173,87.05373],[-173.5,87.03024],[-174,87.0061],[-174.5,86.98129],[-175,86.95578],[-175.5,86.92956],[-176,86.90259],[-176.5,86.87485],[-177,86.84632],[-177.5,86.81696],[-178,86.78674],[-178.5,86.75563],[-179,86.7236],[-179.5,86.6906]]}},{"type":"Feature","id":"+02210805:south:1","properties":{"id":"+02210805","year":221,"month":8,"day":5,"time_tdt":"08:18:57","type":"개기일식","type_code":"T","saros":68,"gamma":0.90892,"magnitude":1.03394,"greatest":{"lat":68.77795,"lng":158.95862},"path_width_km":275.6,"duration":"01m58s","delta_t_seconds":8395.9,"catalog_number":5307,"source":"NASA Five Millennium Canon of Solar Eclipses","source_url":"https://eclipse.gsfc.nasa.gov/SEsearch/SEsearchmap.php?Ecl=%2B02210805","boundary":"south","name":"221-08-05 개기일식"},"geometry":{"type":"LineString","coordinates":[[180,86.6566],[179.5,86.62156],[179,86.58544],[178.5,86.54818],[178,86.50973],[177.5,86.47006],[177,86.42909],[176.5,86.38677],[176,86.34305],[175.5,86.29784],[175,86.25108],[174.5,86.20268],[174,86.15258],[173.5,86.10066],[173,86.04685],[172.5,85.99104],[172,85.93311],[171.5,85.87294],[171,85.8104],[170.5,85.74534],[170,85.67762],[169.5,85.60706],[169,85.53347],[168.5,85.45666],[168,85.37639],[167.5,85.29242],[167,85.20447],[166.5,85.11224],[166,85.01539],[165.5,84.91354],[165,84.80625],[164.5,84.69305],[164,84.57339],[163.5,84.44663],[163,84.31207],[162.5,84.16884],[162,84.016],[161.5,83.85238],[161,83.67661],[160.5,83.48706],[160,83.28172],[159.5,83.05811],[159,82.81311],[158.5,82.5427],[158,82.24157],[157.5,81.90246],[157,81.51502],[156.5,81.0637],[156,80.52308],[155.5,79.84638],[155,78.92711],[154.5,73.0619],[155,70.71558],[155.5,69.04225],[156,67.63108],[156.5,66.37559],[157,65.2289],[157.5,64.16541],[158,63.16929],[158.5,62.22988],[159,61.33956],[159.5,60.4926],[160,59.68455],[160.5,58.91183],[161,58.17148],[161.5,57.46103],[162,56.77835],[162.5,56.12161],[163,55.48916],[163.5,54.87959],[164,54.29158],[164.5,53.72398],[165,53.17572],[165.5,52.64583],[166,52.13343],[166.5,51.63769],[167,51.15786],[167.5,50.69324],[168,50.24315],[168.5,49.80701],[169,49.38423],[169.5,48.97429],[170,48.57668],[170.5,48.19093],[171,47.8166],[171.5,47.45327],[172,47.10055],[172.5,46.75807],[173,46.42547],[173.5,46.10243],[174,45.78863],[174.5,45.48377],[175,45.18756],[175.5,44.89975],[176,44.62007],[176.5,44.34827],[177,44.08414],[177.5,43.82744],[178,43.57798],[178.5,43.33553],[179,43.09992],[179.5,42.87097],[180,42.64848]]}},{"type":"Feature","id":"+02210805:south:2","properties":{"id":"+02210805","year":221,"month":8,"day":5,"time_tdt":"08:18:57","type":"개기일식","type_code":"T","saros":68,"gamma":0.90892,"magnitude":1.03394,"greatest":{"lat":68.77795,"lng":158.95862},"path_width_km":275.6,"duration":"01m58s","delta_t_seconds":8395.9,"catalog_number":5307,"source":"NASA Five Millennium Canon of Solar Eclipses","source_url":"https://eclipse.gsfc.nasa.gov/SEsearch/SEsearchmap.php?Ecl=%2B02210805","boundary":"south","name":"221-08-05 개기일식"},"geometry":{"type":"LineString","coordinates":[[-179.5,42.43231],[-179,42.22229],[-178.5,42.01826],[-178,41.82009],[-177.5,41.62762],[-177,41.44072],[-176.5,41.25927],[-176,41.08313],[-175.5,40.9122],[-175,40.74635]]}}],"attribution":"Eclipse Predictions by Fred Espenak and Jean Meeus (NASA's GSFC)","generated_at":"2026-09-23T01:44:47.220Z"}
