{"type":"FeatureCollection","year":224,"events":[{"id":"+02240108","year":224,"month":1,"day":8,"time_tdt":"10:36:12","type":"부분일식","type_code":"P","saros":93,"gamma":1.18653,"magnitude":0.64498,"greatest":{"lat":64.08512,"lng":27.02533},"path_width_km":0,"duration":"00m00s","delta_t_seconds":8372.8,"catalog_number":5312,"source":"NASA Five Millennium Canon of Solar Eclipses","source_url":"https://eclipse.gsfc.nasa.gov/SEsearch/SEsearchmap.php?Ecl=%2B02240108"},{"id":"+02240604","year":224,"month":6,"day":4,"time_tdt":"18:12:32","type":"부분일식","type_code":"P","saros":60,"gamma":1.32475,"magnitude":0.40372,"greatest":{"lat":67.39447,"lng":125.08209},"path_width_km":0,"duration":"00m00s","delta_t_seconds":8369,"catalog_number":5313,"source":"NASA Five Millennium Canon of Solar Eclipses","source_url":"https://eclipse.gsfc.nasa.gov/SEsearch/SEsearchmap.php?Ecl=%2B02240604"},{"id":"+02240704","year":224,"month":7,"day":4,"time_tdt":"05:42:31","type":"부분일식","type_code":"P","saros":98,"gamma":-1.38906,"magnitude":0.28508,"greatest":{"lat":-64.77502,"lng":104.9693},"path_width_km":0,"duration":"00m00s","delta_t_seconds":8368.2,"catalog_number":5314,"source":"NASA Five Millennium Canon of Solar Eclipses","source_url":"https://eclipse.gsfc.nasa.gov/SEsearch/SEsearchmap.php?Ecl=%2B02240704"},{"id":"+02241128","year":224,"month":11,"day":28,"time_tdt":"08:13:29","type":"개기일식","type_code":"T","saros":65,"gamma":-0.94391,"magnitude":1.02296,"greatest":{"lat":-85.05039,"lng":-35.13379},"path_width_km":244.3,"duration":"01m15s","delta_t_seconds":8364.4,"catalog_number":5315,"source":"NASA Five Millennium Canon of Solar Eclipses","source_url":"https://eclipse.gsfc.nasa.gov/SEsearch/SEsearchmap.php?Ecl=%2B02241128"}],"features":[{"type":"Feature","id":"+02241128:north:0","properties":{"id":"+02241128","year":224,"month":11,"day":28,"time_tdt":"08:13:29","type":"개기일식","type_code":"T","saros":65,"gamma":-0.94391,"magnitude":1.02296,"greatest":{"lat":-85.05039,"lng":-35.13379},"path_width_km":244.3,"duration":"01m15s","delta_t_seconds":8364.4,"catalog_number":5315,"source":"NASA Five Millennium Canon of Solar Eclipses","source_url":"https://eclipse.gsfc.nasa.gov/SEsearch/SEsearchmap.php?Ecl=%2B02241128","boundary":"north","name":"224-11-28 개기일식"},"geometry":{"type":"LineString","coordinates":[[-31.25,-58.33507],[-31,-58.46178],[-31.5,-58.20963],[-30.5,-58.71906],[-30,-58.98158],[-29.5,-59.24951],[-29,-59.52298],[-28.5,-59.80215],[-28,-60.08719],[-27.5,-60.37828],[-27,-60.6756],[-26.5,-60.97935],[-26,-61.28976],[-25.5,-61.60704],[-25,-61.93145],[-24.5,-62.26326],[-24,-62.60275],[-23.5,-62.95023],[-23,-63.30606],[-22.5,-63.67059],[-22,-64.04425],[-21.5,-64.42749],[-21,-64.8208],[-20.5,-65.22476],[-20,-65.64001],[-19.5,-66.06725],[-19,-66.50732],[-18.5,-66.96117],[-18,-67.42991],[-17.5,-67.91487],[-17,-68.41761],[-16.5,-68.94007],[-16,-69.48465],[-15.5,-70.05439],[-15,-70.6533],[-14.5,-71.2868],[-14,-71.96258],[-13.5,-72.69223],[-13,-73.49476],[-12.5,-74.40573],[-12,-75.50931],[-11.5,-77.19088],[-11.5,-79.45133],[-12,-80.72167],[-12.5,-81.42115],[-13,-81.93503],[-13.5,-82.34737],[-14,-82.69361],[-14.5,-82.99264],[-15,-83.25594],[-15.5,-83.49107],[-16,-83.70335],[-16.5,-83.89665],[-17,-84.07392],[-17.5,-84.23744],[-18,-84.38903],[-18.5,-84.53015],[-19,-84.66203],[-19.5,-84.78566],[-20,-84.90191],[-20.5,-85.01149],[-21,-85.11502],[-21.5,-85.21305],[-22,-85.30604],[-22.5,-85.39441],[-23,-85.47852],[-23.5,-85.55869],[-24,-85.63522],[-24.5,-85.70836],[-25,-85.77834],[-25.5,-85.84537],[-26,-85.90964],[-26.5,-85.97133],[-27,-86.03059],[-27.5,-86.08756],[-28,-86.14238],[-28.5,-86.19516],[-29,-86.24602],[-29.5,-86.29506],[-30,-86.34237],[-30.5,-86.38805],[-31,-86.43217],[-31.5,-86.47481],[-32,-86.51604],[-32.5,-86.55593],[-33,-86.59453],[-33.5,-86.63191],[-34,-86.66811],[-34.5,-86.70319],[-35,-86.7372],[-35.5,-86.77018],[-36,-86.80217],[-36.5,-86.83321],[-37,-86.86334],[-37.5,-86.89259],[-38,-86.921],[-38.5,-86.9486],[-39,-86.97541],[-39.5,-87.00147],[-40,-87.0268],[-40.5,-87.05143],[-41,-87.07538],[-41.5,-87.09867],[-42,-87.12133],[-42.5,-87.14338],[-43,-87.16483],[-43.5,-87.1857],[-44,-87.20602],[-44.5,-87.22579],[-45,-87.24505],[-45.5,-87.26379],[-46,-87.28203],[-46.5,-87.2998],[-47,-87.3171],[-47.5,-87.33394],[-48,-87.35034],[-48.5,-87.36632],[-49,-87.38187],[-49.5,-87.39701],[-50,-87.41176],[-50.5,-87.42612],[-51,-87.4401],[-51.5,-87.45371],[-52,-87.46697],[-52.5,-87.47986],[-53,-87.49242],[-53.5,-87.50464],[-54,-87.51653],[-54.5,-87.5281],[-55,-87.53935],[-55.5,-87.5503],[-56,-87.56094],[-56.5,-87.57129],[-57,-87.58135],[-57.5,-87.59112],[-58,-87.60061],[-58.5,-87.60983],[-59,-87.61878],[-59.5,-87.62747],[-60,-87.6359],[-60.5,-87.64407],[-61,-87.65199],[-61.5,-87.65967],[-62,-87.6671],[-62.5,-87.67429],[-63,-87.68125],[-63.5,-87.68797],[-64,-87.69447],[-64.5,-87.70074],[-65,-87.70678],[-65.5,-87.71261],[-66,-87.71822],[-66.5,-87.72362],[-67,-87.7288],[-67.5,-87.73378],[-68,-87.73855],[-68.5,-87.74311],[-69,-87.74747],[-69.5,-87.75163],[-70,-87.75559],[-70.5,-87.75935],[-71,-87.76292],[-71.5,-87.7663],[-72,-87.76948],[-72.5,-87.77247],[-73,-87.77527],[-73.5,-87.77789],[-74,-87.78031],[-74.5,-87.78255],[-75,-87.78461],[-75.5,-87.78648],[-76,-87.78817],[-76.5,-87.78967],[-77,-87.79099],[-77.5,-87.79213],[-78,-87.79309],[-78.5,-87.79387],[-79,-87.79447],[-79.5,-87.79489],[-80,-87.79513],[-80.5,-87.79519],[-81,-87.79507],[-81.5,-87.79477],[-82,-87.79429],[-82.5,-87.79364],[-83,-87.7928],[-83.5,-87.79178],[-84,-87.79058],[-84.5,-87.78919],[-85,-87.78763],[-85.5,-87.78588],[-86,-87.78395],[-86.5,-87.78183],[-87,-87.77953],[-87.5,-87.77704],[-88,-87.77436],[-88.5,-87.7715],[-89,-87.76844],[-89.5,-87.7652],[-90,-87.76176],[-90.5,-87.75812],[-91,-87.75429],[-91.5,-87.75027],[-92,-87.74604],[-92.5,-87.74161],[-93,-87.73698],[-93.5,-87.73214],[-94,-87.7271],[-94.5,-87.72184],[-95,-87.71637],[-95.5,-87.71069],[-96,-87.70479],[-96.5,-87.69866],[-97,-87.69232],[-97.5,-87.68574],[-98,-87.67894],[-98.5,-87.6719],[-99,-87.66463],[-99.5,-87.65711],[-100,-87.64935],[-100.5,-87.64134],[-101,-87.63308],[-101.5,-87.62457],[-102,-87.61579],[-102.5,-87.60674],[-103,-87.59743],[-103.5,-87.58784],[-104,-87.57796],[-104.5,-87.5678],[-105,-87.55735],[-105.5,-87.5466],[-106,-87.53555],[-106.5,-87.52418],[-107,-87.5125],[-107.5,-87.50049],[-108,-87.48815],[-108.5,-87.47547],[-109,-87.46245],[-109.5,-87.44906],[-110,-87.43532],[-110.5,-87.4212],[-111,-87.4067],[-111.5,-87.3918],[-112,-87.37651],[-112.5,-87.3608],[-113,-87.34467],[-113.5,-87.3281],[-114,-87.31108],[-114.5,-87.29361],[-115,-87.27566],[-115.5,-87.25723],[-116,-87.23829],[-116.5,-87.21884],[-117,-87.19886],[-117.5,-87.17832],[-118,-87.15723],[-118.5,-87.13554],[-119,-87.11326],[-119.5,-87.09035],[-120,-87.06679],[-120.5,-87.04257],[-121,-87.01766],[-121.5,-86.99204],[-122,-86.96567],[-122.5,-86.93853],[-123,-86.9106],[-123.5,-86.88184],[-124,-86.85222],[-124.5,-86.82171],[-125,-86.79027],[-125.5,-86.75785],[-126,-86.72443],[-126.5,-86.68996],[-127,-86.65438],[-127.5,-86.61766],[-128,-86.57974],[-128.5,-86.54056],[-129,-86.50006],[-129.5,-86.45819],[-130,-86.41486],[-130.5,-86.37001],[-131,-86.32356],[-131.5,-86.27543],[-132,-86.22551],[-132.5,-86.17371],[-133,-86.11992],[-133.5,-86.06402],[-134,-86.00589],[-134.5,-85.94538],[-135,-85.88235],[-135.5,-85.81661],[-136,-85.748],[-136.5,-85.67629],[-137,-85.60127],[-137.5,-85.52269],[-138,-85.44025],[-138.5,-85.35365],[-139,-85.26252],[-139.5,-85.16646],[-140,-85.06501],[-140.5,-84.95763],[-141,-84.84371],[-141.5,-84.72254],[-142,-84.59326],[-142.5,-84.45488],[-143,-84.30618],[-143.5,-84.14569],[-144,-83.97157],[-144.5,-83.78151],[-145,-83.57249],[-145.5,-83.34051],[-146,-83.08001],[-146.5,-82.78291],[-147,-82.43668],[-147.5,-82.01991],[-148,-81.48981],[-148.5,-80.73005],[-148.5,-76.62487],[-148,-75.50238],[-147.5,-74.61486],[-147,-73.84589],[-146.5,-73.1526],[-146,-72.51346],[-145.5,-71.91587],[-145,-71.35167],[-144.5,-70.81521],[-144,-70.30241],[-143.5,-69.81017],[-143,-69.3361],[-142.5,-68.87829],[-142,-68.43518],[-141.5,-68.00549],[-141,-67.58815],[-140.5,-67.18223],[-140,-66.78697],[-139.5,-66.40167],[-139,-66.02574],[-138.5,-65.65865],[-138,-65.29993],[-137.5,-64.94917],[-137,-64.606],[-136.5,-64.27006],[-136,-63.94106]]}},{"type":"Feature","id":"+02241128:center:0","properties":{"id":"+02241128","year":224,"month":11,"day":28,"time_tdt":"08:13:29","type":"개기일식","type_code":"T","saros":65,"gamma":-0.94391,"magnitude":1.02296,"greatest":{"lat":-85.05039,"lng":-35.13379},"path_width_km":244.3,"duration":"01m15s","delta_t_seconds":8364.4,"catalog_number":5315,"source":"NASA Five Millennium Canon of Solar Eclipses","source_url":"https://eclipse.gsfc.nasa.gov/SEsearch/SEsearchmap.php?Ecl=%2B02241128","boundary":"center","name":"224-11-28 개기일식"},"geometry":{"type":"LineString","coordinates":[[-32.951,-58.78303],[-32.5,-59.02065],[-32,-59.29106],[-31.5,-59.56763],[-31,-59.85059],[-30.5,-60.14015],[-30,-60.43657],[-29.5,-60.74012],[-29,-61.05108],[-28.5,-61.36976],[-28,-61.69653],[-27.5,-62.03174],[-27,-62.37583],[-26.5,-62.72925],[-26,-63.09251],[-25.5,-63.4662],[-25,-63.85096],[-24.5,-64.24753],[-24,-64.65677],[-23.5,-65.07964],[-23,-65.51729],[-22.5,-65.97108],[-22,-66.44262],[-21.5,-66.93389],[-21,-67.44735],[-20.5,-67.98611],[-20,-68.55424],[-19.5,-69.1572],[-19,-69.80275],[-18.5,-70.50244],[-18,-71.27502],[-17.5,-72.15495],[-17,-73.22123],[-16.5,-74.79381],[-16.5,-77.54796],[-17,-78.7727],[-17.5,-79.49731],[-18,-80.04161],[-18.5,-80.48448],[-19,-80.86026],[-19.5,-81.18759],[-20,-81.47791],[-20.5,-81.73885],[-21,-81.97579],[-21.5,-82.19268],[-22,-82.39254],[-22.5,-82.57772],[-23,-82.75009],[-23.5,-82.9112],[-24,-83.06229],[-24.5,-83.20442],[-25,-83.33849],[-25.5,-83.46526],[-26,-83.58538],[-26.5,-83.69943],[-27,-83.8079],[-27.5,-83.91123],[-28,-84.00982],[-28.5,-84.10401],[-29,-84.19411],[-29.5,-84.2804],[-30,-84.36312],[-30.5,-84.44251],[-31,-84.51876],[-31.5,-84.59207],[-32,-84.66261],[-32.5,-84.73054],[-33,-84.79599],[-33.5,-84.8591],[-34,-84.91999],[-34.5,-84.97878],[-35,-85.03557],[-35.5,-85.09045],[-36,-85.14353],[-36.5,-85.19487],[-37,-85.24456],[-37.5,-85.29268],[-38,-85.33928],[-38.5,-85.38444],[-39,-85.42822],[-39.5,-85.47067],[-40,-85.51184],[-40.5,-85.55178],[-41,-85.59055],[-41.5,-85.62818],[-42,-85.66472],[-42.5,-85.70021],[-43,-85.73469],[-43.5,-85.76818],[-44,-85.80073],[-44.5,-85.83236],[-45,-85.86311],[-45.5,-85.89301],[-46,-85.92208],[-46.5,-85.95034],[-47,-85.97783],[-47.5,-86.00457],[-48,-86.03057],[-48.5,-86.05587],[-49,-86.08047],[-49.5,-86.10441],[-50,-86.12769],[-50.5,-86.15034],[-51,-86.17238],[-51.5,-86.19381],[-52,-86.21466],[-52.5,-86.23494],[-53,-86.25466],[-53.5,-86.27384],[-54,-86.29249],[-54.5,-86.31062],[-55,-86.32824],[-55.5,-86.34538],[-56,-86.36203],[-56.5,-86.37821],[-57,-86.39392],[-57.5,-86.40918],[-58,-86.424],[-58.5,-86.43839],[-59,-86.45234],[-59.5,-86.46588],[-60,-86.47901],[-60.5,-86.49174],[-61,-86.50407],[-61.5,-86.51602],[-62,-86.52758],[-62.5,-86.53876],[-63,-86.54958],[-63.5,-86.56003],[-64,-86.57012],[-64.5,-86.57986],[-65,-86.58925],[-65.5,-86.5983],[-66,-86.60701],[-66.5,-86.61539],[-67,-86.62344],[-67.5,-86.63116],[-68,-86.63856],[-68.5,-86.64564],[-69,-86.6524],[-69.5,-86.65886],[-70,-86.66501],[-70.5,-86.67085],[-71,-86.67639],[-71.5,-86.68163],[-72,-86.68657],[-72.5,-86.69122],[-73,-86.69557],[-73.5,-86.69963],[-74,-86.70341],[-74.5,-86.7069],[-75,-86.7101],[-75.5,-86.71302],[-76,-86.71565],[-76.5,-86.71801],[-77,-86.72008],[-77.5,-86.72188],[-78,-86.72339],[-78.5,-86.72463],[-79,-86.72559],[-79.5,-86.72628],[-80,-86.72668],[-80.5,-86.72681],[-81,-86.72667],[-81.5,-86.72625],[-82,-86.72555],[-82.5,-86.72458],[-83,-86.72332],[-83.5,-86.72179],[-84,-86.71999],[-84.5,-86.7179],[-85,-86.71553],[-85.5,-86.71288],[-86,-86.70995],[-86.5,-86.70673],[-87,-86.70323],[-87.5,-86.69944],[-88,-86.69536],[-88.5,-86.69099],[-89,-86.68632],[-89.5,-86.68137],[-90,-86.67611],[-90.5,-86.67055],[-91,-86.66469],[-91.5,-86.65853],[-92,-86.65206],[-92.5,-86.64527],[-93,-86.63817],[-93.5,-86.63075],[-94,-86.62301],[-94.5,-86.61494],[-95,-86.60654],[-95.5,-86.59781],[-96,-86.58874],[-96.5,-86.57932],[-97,-86.56956],[-97.5,-86.55944],[-98,-86.54896],[-98.5,-86.53811],[-99,-86.5269],[-99.5,-86.51531],[-100,-86.50334],[-100.5,-86.49097],[-101,-86.47821],[-101.5,-86.46505],[-102,-86.45147],[-102.5,-86.43747],[-103,-86.42305],[-103.5,-86.40819],[-104,-86.39288],[-104.5,-86.37712],[-105,-86.3609],[-105.5,-86.3442],[-106,-86.32701],[-106.5,-86.30933],[-107,-86.29114],[-107.5,-86.27244],[-108,-86.2532],[-108.5,-86.23341],[-109,-86.21306],[-109.5,-86.19214],[-110,-86.17064],[-110.5,-86.14852],[-111,-86.12579],[-111.5,-86.10242],[-112,-86.07839],[-112.5,-86.05369],[-113,-86.02829],[-113.5,-86.00218],[-114,-85.97533],[-114.5,-85.94772],[-115,-85.91933],[-115.5,-85.89013],[-116,-85.86009],[-116.5,-85.82919],[-117,-85.79739],[-117.5,-85.76467],[-118,-85.731],[-118.5,-85.69634],[-119,-85.66064],[-119.5,-85.62389],[-120,-85.58602],[-120.5,-85.54701],[-121,-85.5068],[-121.5,-85.46535],[-122,-85.42261],[-122.5,-85.37851],[-123,-85.33301],[-123.5,-85.28603],[-124,-85.23752],[-124.5,-85.1874],[-125,-85.1356],[-125.5,-85.08203],[-126,-85.02661],[-126.5,-84.96925],[-127,-84.90983],[-127.5,-84.84826],[-128,-84.78441],[-128.5,-84.71816],[-129,-84.64936],[-129.5,-84.57786],[-130,-84.50349],[-130.5,-84.42609],[-131,-84.34543],[-131.5,-84.26131],[-132,-84.17347],[-132.5,-84.08165],[-133,-83.98554],[-133.5,-83.8848],[-134,-83.77906],[-134.5,-83.66788],[-135,-83.55076],[-135.5,-83.42715],[-136,-83.2964],[-136.5,-83.15774],[-137,-83.0103],[-137.5,-82.85301],[-138,-82.68461],[-138.5,-82.50357],[-139,-82.30796],[-139.5,-82.09539],[-140,-81.86274],[-140.5,-81.60588],[-141,-81.31909],[-141.5,-80.99412],[-142,-80.61821],[-142.5,-80.16969],[-143,-79.60567],[-143.5,-78.81188],[-143.5,-74.49954],[-143,-73.39333],[-142.5,-72.5214],[-142,-71.76937],[-141.5,-71.0943],[-141,-70.47444],[-140.5,-69.89695],[-140,-69.35352],[-139.5,-68.83835],[-139,-68.34724],[-138.5,-67.87703],[-138,-67.42523],[-137.5,-66.98988],[-137,-66.56937],[-136.5,-66.16238],[-136,-65.7678],[-135.5,-65.38468],[-135,-65.01223],[-134.5,-64.64972],[-134,-64.29655],[-133.86908,-64.20036]]}},{"type":"Feature","id":"+02241128:south:0","properties":{"id":"+02241128","year":224,"month":11,"day":28,"time_tdt":"08:13:29","type":"개기일식","type_code":"T","saros":65,"gamma":-0.94391,"magnitude":1.02296,"greatest":{"lat":-85.05039,"lng":-35.13379},"path_width_km":244.3,"duration":"01m15s","delta_t_seconds":8364.4,"catalog_number":5315,"source":"NASA Five Millennium Canon of Solar Eclipses","source_url":"https://eclipse.gsfc.nasa.gov/SEsearch/SEsearchmap.php?Ecl=%2B02241128","boundary":"south","name":"224-11-28 개기일식"},"geometry":{"type":"LineString","coordinates":[[-34.49609,-59.3723],[-34,-59.65023],[-33.5,-59.93748],[-33,-60.23221],[-32.5,-60.53475],[-32,-60.84549],[-31.5,-61.16482],[-31,-61.49322],[-30.5,-61.83118],[-30,-62.17929],[-29.5,-62.53818],[-29,-62.90859],[-28.5,-63.29136],[-28,-63.68747],[-27.5,-64.09805],[-27,-64.52444],[-26.5,-64.96826],[-26,-65.43146],[-25.5,-65.91648],[-25,-66.4264],[-24.5,-66.96521],[-24,-67.5383],[-23.5,-68.15324],[-23,-68.82125],[-22.5,-69.56035],[-22,-70.4032],[-21.5,-71.42259],[-21,-72.88679],[-21,-76.01451],[-21.5,-77.18115],[-22,-77.90823],[-22.5,-78.46391],[-23,-78.92088],[-23.5,-79.3117],[-24,-79.65429],[-24.5,-79.95978],[-25,-80.23564],[-25.5,-80.48717],[-26,-80.71829],[-26.5,-80.93199],[-27,-81.13062],[-27.5,-81.31607],[-28,-81.48985],[-28.5,-81.65325],[-29,-81.80734],[-29.5,-81.953],[-30,-82.09103],[-30.5,-82.22207],[-31,-82.34673],[-31.5,-82.4655],[-32,-82.57884],[-32.5,-82.68715],[-33,-82.79077],[-33.5,-82.89004],[-34,-82.98523],[-34.5,-83.07661],[-35,-83.16441],[-35.5,-83.24884],[-36,-83.33009],[-36.5,-83.40835],[-37,-83.48378],[-37.5,-83.55653],[-38,-83.62673],[-38.5,-83.69452],[-39,-83.76001],[-39.5,-83.82331],[-40,-83.88453],[-40.5,-83.94375],[-41,-84.00108],[-41.5,-84.05658],[-42,-84.11034],[-42.5,-84.16242],[-43,-84.21291],[-43.5,-84.26186],[-44,-84.30932],[-44.5,-84.35537],[-45,-84.40004],[-45.5,-84.4434],[-46,-84.48548],[-46.5,-84.52633],[-47,-84.566],[-47.5,-84.60453],[-48,-84.64194],[-48.5,-84.67829],[-49,-84.7136],[-49.5,-84.7479],[-50,-84.78122],[-50.5,-84.81361],[-51,-84.84507],[-51.5,-84.87565],[-52,-84.90535],[-52.5,-84.93422],[-53,-84.96227],[-53.5,-84.98952],[-54,-85.016],[-54.5,-85.04171],[-55,-85.0667],[-55.5,-85.09096],[-56,-85.11452],[-56.5,-85.1374],[-57,-85.1596],[-57.5,-85.18115],[-58,-85.20207],[-58.5,-85.22235],[-59,-85.24203],[-59.5,-85.2611],[-60,-85.27959],[-60.5,-85.2975],[-61,-85.31485],[-61.5,-85.33164],[-62,-85.34788],[-62.5,-85.3636],[-63,-85.37878],[-63.5,-85.39345],[-64,-85.40762],[-64.5,-85.42128],[-65,-85.43445],[-65.5,-85.44714],[-66,-85.45935],[-66.5,-85.47109],[-67,-85.48236],[-67.5,-85.49318],[-68,-85.50355],[-68.5,-85.51346],[-69,-85.52294],[-69.5,-85.53198],[-70,-85.54059],[-70.5,-85.54877],[-71,-85.55653],[-71.5,-85.56387],[-72,-85.57079],[-72.5,-85.57731],[-73,-85.58341],[-73.5,-85.58911],[-74,-85.59441],[-74.5,-85.5993],[-75,-85.6038],[-75.5,-85.60791],[-76,-85.61162],[-76.5,-85.61494],[-77,-85.61787],[-77.5,-85.62041],[-78,-85.62257],[-78.5,-85.62434],[-79,-85.62573],[-79.5,-85.62673],[-80,-85.62734],[-80.5,-85.62758],[-81,-85.62743],[-81.5,-85.62689],[-82,-85.62598],[-82.5,-85.62468],[-83,-85.62299],[-83.5,-85.62092],[-84,-85.61846],[-84.5,-85.61561],[-85,-85.61237],[-85.5,-85.60875],[-86,-85.60472],[-86.5,-85.60031],[-87,-85.5955],[-87.5,-85.59028],[-88,-85.58467],[-88.5,-85.57865],[-89,-85.57222],[-89.5,-85.56538],[-90,-85.55813],[-90.5,-85.55046],[-91,-85.54236],[-91.5,-85.53384],[-92,-85.52488],[-92.5,-85.51549],[-93,-85.50566],[-93.5,-85.49538],[-94,-85.48465],[-94.5,-85.47346],[-95,-85.46181],[-95.5,-85.44969],[-96,-85.43709],[-96.5,-85.42401],[-97,-85.41043],[-97.5,-85.39635],[-98,-85.38177],[-98.5,-85.36667],[-99,-85.35105],[-99.5,-85.33489],[-100,-85.31818],[-100.5,-85.30093],[-101,-85.2831],[-101.5,-85.2647],[-102,-85.24572],[-102.5,-85.22613],[-103,-85.20593],[-103.5,-85.1851],[-104,-85.16363],[-104.5,-85.14151],[-105,-85.11872],[-105.5,-85.09524],[-106,-85.07106],[-106.5,-85.04616],[-107,-85.02052],[-107.5,-84.99413],[-108,-84.96695],[-108.5,-84.93898],[-109,-84.91019],[-109.5,-84.88055],[-110,-84.85004],[-110.5,-84.81864],[-111,-84.78632],[-111.5,-84.75305],[-112,-84.71881],[-112.5,-84.68355],[-113,-84.64725],[-113.5,-84.60987],[-114,-84.57138],[-114.5,-84.53174],[-115,-84.4909],[-115.5,-84.44883],[-116,-84.40548],[-116.5,-84.36079],[-117,-84.31473],[-117.5,-84.26723],[-118,-84.21823],[-118.5,-84.16768],[-119,-84.11551],[-119.5,-84.06165],[-120,-84.00603],[-120.5,-83.94856],[-121,-83.88916],[-121.5,-83.82774],[-122,-83.76419],[-122.5,-83.69843],[-123,-83.63032],[-123.5,-83.55974],[-124,-83.48657],[-124.5,-83.41066],[-125,-83.33184],[-125.5,-83.24995],[-126,-83.16479],[-126.5,-83.07617],[-127,-82.98385],[-127.5,-82.88757],[-128,-82.78707],[-128.5,-82.68203],[-129,-82.5721],[-129.5,-82.45689],[-130,-82.33596],[-130.5,-82.20882],[-131,-82.07488],[-131.5,-81.93348],[-132,-81.78387],[-132.5,-81.62515],[-133,-81.45624],[-133.5,-81.27588],[-134,-81.08252],[-134.5,-80.87425],[-135,-80.64867],[-135.5,-80.40268],[-136,-80.13219],[-136.5,-79.83158],[-137,-79.49275],[-137.5,-79.10329],[-138,-78.64236],[-138.5,-78.06945],[-139,-77.28063],[-139,-72.73889],[-138.5,-71.67695],[-138,-70.83478],[-137.5,-70.10839],[-137,-69.4572],[-136.5,-68.86031],[-136,-68.30526],[-135.5,-67.78389],[-135,-67.29053],[-134.5,-66.82102],[-134,-66.37222],[-133.5,-65.94168],[-133,-65.52744],[-132.5,-65.1279],[-132,-64.74174]]}}],"attribution":"Eclipse Predictions by Fred Espenak and Jean Meeus (NASA's GSFC)","generated_at":"2026-09-23T01:44:47.272Z"}
