{"type":"FeatureCollection","year":225,"events":[{"id":"+02250524","year":225,"month":5,"day":24,"time_tdt":"20:39:31","type":"금환일식","type_code":"A","saros":70,"gamma":0.58901,"magnitude":0.94684,"greatest":{"lat":56.83958,"lng":-103.03259},"path_width_km":242.7,"duration":"05m02s","delta_t_seconds":8359.8,"catalog_number":5316,"source":"NASA Five Millennium Canon of Solar Eclipses","source_url":"https://eclipse.gsfc.nasa.gov/SEsearch/SEsearchmap.php?Ecl=%2B02250524"},{"id":"+02251117","year":225,"month":11,"day":17,"time_tdt":"23:51:08","type":"개기일식","type_code":"T","saros":75,"gamma":-0.27487,"magnitude":1.044,"greatest":{"lat":-35.35139,"lng":-148.58594},"path_width_km":152.8,"duration":"03m43s","delta_t_seconds":8355.2,"catalog_number":5317,"source":"NASA Five Millennium Canon of Solar Eclipses","source_url":"https://eclipse.gsfc.nasa.gov/SEsearch/SEsearchmap.php?Ecl=%2B02251117"}],"features":[{"type":"Feature","id":"+02250524:north:0","properties":{"id":"+02250524","year":225,"month":5,"day":24,"time_tdt":"20:39:31","type":"금환일식","type_code":"A","saros":70,"gamma":0.58901,"magnitude":0.94684,"greatest":{"lat":56.83958,"lng":-103.03259},"path_width_km":242.7,"duration":"05m02s","delta_t_seconds":8359.8,"catalog_number":5316,"source":"NASA Five Millennium Canon of Solar Eclipses","source_url":"https://eclipse.gsfc.nasa.gov/SEsearch/SEsearchmap.php?Ecl=%2B02250524","boundary":"north","name":"225-05-24 금환일식"},"geometry":{"type":"LineString","coordinates":[[-175.625,29.48781],[-175.5,29.53584],[-175,29.72905],[-174.5,29.92398],[-174,30.12063],[-173.5,30.319],[-173,30.5191],[-172.5,30.72091],[-172,30.92445],[-171.5,31.1297],[-171,31.33666],[-170.5,31.54533],[-170,31.7557],[-169.5,31.96776],[-169,32.18152],[-168.5,32.39695],[-168,32.61404],[-167.5,32.8328],[-167,33.0532],[-166.5,33.27524],[-166,33.49889],[-165.5,33.72414],[-165,33.95098],[-164.5,34.17937],[-164,34.40932],[-163.5,34.64078],[-163,34.87374],[-162.5,35.10818],[-162,35.34406],[-161.5,35.58135],[-161,35.82003],[-160.5,36.06005],[-160,36.3014],[-159.5,36.54403],[-159,36.78789],[-158.5,37.03296],[-158,37.27919],[-157.5,37.52653],[-157,37.77493],[-156.5,38.02435],[-156,38.27474],[-155.5,38.52604],[-155,38.7782],[-154.5,39.03116],[-154,39.28485],[-153.5,39.53923],[-153,39.79422],[-152.5,40.04977],[-152,40.30579],[-151.5,40.56223],[-151,40.81902],[-150.5,41.07607],[-150,41.33332],[-149.5,41.59069],[-149,41.8481],[-148.5,42.10548],[-148,42.36275],[-147.5,42.61982],[-147,42.87662],[-146.5,43.13306],[-146,43.38905],[-145.5,43.64453],[-145,43.8994],[-144.5,44.15358],[-144,44.40699],[-143.5,44.65955],[-143,44.91116],[-142.5,45.16176],[-142,45.41125],[-141.5,45.65957],[-141,45.90662],[-140.5,46.15233],[-140,46.39663],[-139.5,46.63944],[-139,46.88068],[-138.5,47.12029],[-138,47.35819],[-137.5,47.59432],[-137,47.82861],[-136.5,48.06099],[-136,48.29141],[-135.5,48.51981],[-135,48.74613],[-134.5,48.97031],[-134,49.19231],[-133.5,49.41207],[-133,49.62956],[-132.5,49.84472],[-132,50.05751],[-131.5,50.2679],[-131,50.47585],[-130.5,50.68133],[-130,50.8843],[-129.5,51.08474],[-129,51.28263],[-128.5,51.47793],[-128,51.67062],[-127.5,51.8607],[-127,52.04814],[-127,52.04813],[-126.5,52.23292],[-126,52.41504],[-126,52.41503],[-125.5,52.59448],[-125,52.77123],[-124.5,52.9453],[-124,53.11667],[-124,53.11666],[-123.5,53.28533],[-123,53.4513],[-122.5,53.61457],[-122,53.77514],[-121.5,53.93301],[-121,54.08818],[-120.5,54.24067],[-120,54.39048],[-119.5,54.53761],[-119,54.68208],[-118.5,54.8239],[-118,54.96306],[-117.5,55.0996],[-117,55.23351],[-116.5,55.36481],[-116,55.49351],[-115.5,55.61963],[-115,55.74318],[-114.5,55.86417],[-114,55.98262],[-113.5,56.09855],[-113,56.21197],[-112.5,56.32289],[-112,56.43134],[-111.5,56.53733],[-111,56.64087],[-110.5,56.74198],[-110,56.84067],[-109.5,56.93698],[-109,57.0309],[-108.5,57.12245],[-108,57.21167],[-108,57.21166],[-107.5,57.29854],[-107,57.38311],[-106.5,57.46537],[-106,57.54536],[-105.5,57.62307],[-105,57.69854],[-104.5,57.77176],[-104,57.84277],[-103.5,57.91157],[-103,57.97818],[-102.5,58.04261],[-102,58.10488],[-102,58.10487],[-101.5,58.16499],[-101,58.22298],[-100.5,58.27884],[-100,58.33259],[-99.5,58.38424],[-99,58.43381],[-98.5,58.48131],[-98,58.52675],[-97.5,58.57014],[-97,58.61149],[-96.5,58.65082],[-96,58.68813],[-95.5,58.72343],[-95,58.75674],[-94.5,58.78806],[-94,58.8174],[-93.5,58.84478],[-93,58.87019],[-92.5,58.89366],[-92,58.91518],[-91.5,58.93476],[-91,58.95241],[-90.5,58.96815],[-90,58.98196],[-89.5,58.99387],[-89,59.00388],[-88.5,59.01198],[-88,59.0182],[-87.5,59.02253],[-87,59.02497],[-86.5,59.02554],[-86,59.02423],[-85.5,59.02106],[-85.5,59.02105],[-85,59.01601],[-84.5,59.00911],[-84.5,59.0091],[-84,59.00034],[-83.5,58.98971],[-83,58.97723],[-82.5,58.9629],[-82,58.94672],[-81.5,58.92869],[-81,58.90881],[-80.5,58.88708],[-80,58.86351],[-79.5,58.83809],[-79,58.81083],[-78.5,58.78172],[-78,58.75077],[-77.5,58.71797],[-77,58.68333],[-76.5,58.64685],[-76,58.60852],[-75.5,58.56835],[-75,58.52632],[-74.5,58.48245],[-74,58.43673],[-73.5,58.38916],[-73,58.33973],[-72.5,58.28845],[-72,58.23532],[-71.5,58.18033],[-71,58.12348],[-70.5,58.06476],[-70,58.00419],[-69.5,57.94175],[-69,57.87744],[-68.5,57.81126],[-68,57.74321],[-67.5,57.67329],[-67,57.6015],[-66.5,57.52782],[-66,57.45227],[-65.5,57.37484],[-65,57.29553],[-64.5,57.21433],[-64,57.13125],[-63.5,57.04628],[-63,56.95942],[-62.5,56.87068],[-62,56.78005],[-61.5,56.68753],[-60,56.39804],[-61,56.59311],[-60.5,56.49681],[-60,56.39862],[-59.5,56.29855],[-59,56.19658],[-58.5,56.09273],[-58,55.98699],[-57.5,55.87937],[-57,55.76987],[-56.5,55.65849],[-56.5,55.6585],[-56,55.54524],[-55.5,55.43012],[-55,55.31313],[-54.5,55.19428],[-54,55.07357],[-53.5,54.95101],[-53,54.82661],[-52.5,54.70037],[-52,54.5723],[-51.5,54.4424],[-51,54.3107],[-50.5,54.17718],[-50,54.04188],[-49.5,53.90478],[-49,53.76592],[-48.5,53.62529],[-48,53.48292],[-47.5,53.33881],[-47,53.19298],[-46.5,53.04544],[-46,52.89622],[-45.5,52.74532],[-45,52.59276],[-44.5,52.43856],[-44,52.28274],[-44,52.28275],[-43.5,52.12533],[-43,51.96633],[-42.5,51.80576],[-42.5,51.80577],[-42,51.64367],[-41.5,51.48005],[-41,51.31494],[-40.5,51.14836],[-40,50.98034],[-39.5,50.81089],[-39,50.64006],[-38.5,50.46785],[-38,50.29431],[-37.5,50.11945],[-37,49.94331],[-36.5,49.76591],[-36,49.58729],[-35.5,49.40748],[-35,49.2265],[-34.5,49.04439],[-34,48.86118],[-33.5,48.6769],[-33,48.49159],[-32.5,48.30527],[-32,48.11799],[-31.5,47.92977],[-31,47.74065],[-30.5,47.55064],[-30.5,47.55066],[-30,47.35984],[-29.5,47.16822],[-29,46.97584],[-28.5,46.78273],[-28,46.58892],[-27.5,46.39447],[-27.5,46.39446],[-27,46.19938],[-26.5,46.00371],[-26,45.80749],[-25.5,45.61076],[-25,45.41354],[-24.5,45.21587],[-24,45.01779],[-23.5,44.81933],[-23,44.62053],[-22.5,44.42141],[-22.5,44.42142],[-22,44.22204],[-22,44.22203],[-21.5,44.02241],[-21,43.82257],[-20.5,43.62255],[-20,43.42239],[-19.5,43.22212],[-19,43.02177],[-18.5,42.82137],[-18,42.62095],[-17.5,42.42054],[-17,42.22017],[-16.5,42.01988],[-16,41.81968],[-15.5,41.61961],[-15,41.41969],[-14.5,41.21996],[-14,41.02044],[-13.5,40.82115],[-13,40.62212],[-12.5,40.42338],[-12,40.22494],[-11.54492,40.04463]]}},{"type":"Feature","id":"+02250524:center:0","properties":{"id":"+02250524","year":225,"month":5,"day":24,"time_tdt":"20:39:31","type":"금환일식","type_code":"A","saros":70,"gamma":0.58901,"magnitude":0.94684,"greatest":{"lat":56.83958,"lng":-103.03259},"path_width_km":242.7,"duration":"05m02s","delta_t_seconds":8359.8,"catalog_number":5316,"source":"NASA Five Millennium Canon of Solar Eclipses","source_url":"https://eclipse.gsfc.nasa.gov/SEsearch/SEsearchmap.php?Ecl=%2B02250524","boundary":"center","name":"225-05-24 금환일식"},"geometry":{"type":"LineString","coordinates":[[-174.54851,28.22196],[-174.5,28.24756],[-174,28.44331],[-173.5,28.64079],[-173,28.84001],[-172.5,29.04097],[-172,29.24366],[-171.5,29.44809],[-171,29.65425],[-170.5,29.86215],[-170,30.07177],[-169.5,30.28312],[-169,30.49618],[-168.5,30.71096],[-168,30.92744],[-167.5,31.14562],[-167,31.36549],[-166.5,31.58704],[-166,31.81025],[-165.5,32.03511],[-165,32.26161],[-164.5,32.48973],[-164,32.71945],[-163.5,32.95076],[-163,33.18364],[-162.5,33.41806],[-162,33.65399],[-161.5,33.89143],[-161,34.13033],[-160.5,34.37067],[-160,34.61241],[-159.5,34.85554],[-159,35.1],[-158.5,35.34576],[-158.5,35.34577],[-158,35.5928],[-157.5,35.84105],[-157,36.09049],[-156.5,36.34106],[-156,36.59273],[-155.5,36.84543],[-155,37.09912],[-154.5,37.35375],[-154,37.60926],[-153.5,37.86559],[-153,38.12268],[-152.5,38.38047],[-152,38.6389],[-151.5,38.89789],[-151,39.15739],[-150.5,39.41731],[-150,39.6776],[-149.5,39.93817],[-149,40.19895],[-148.5,40.45986],[-148,40.72082],[-147.5,40.98176],[-147,41.2426],[-146.5,41.50324],[-146,41.76361],[-145.5,42.02363],[-145,42.28321],[-144.5,42.54226],[-144,42.80069],[-143.5,43.05844],[-143,43.3154],[-142.5,43.57149],[-142,43.82663],[-141.5,44.08074],[-141,44.33372],[-140.5,44.5855],[-140,44.836],[-139.5,45.08513],[-139,45.33281],[-138.5,45.57897],[-138,45.82354],[-137.5,46.06642],[-137,46.30757],[-136.5,46.54689],[-136,46.78433],[-135.5,47.01982],[-135,47.2533],[-134.5,47.4847],[-134,47.71397],[-133.5,47.94104],[-133,48.16588],[-132.5,48.38841],[-132,48.60861],[-131.5,48.82641],[-131,49.04179],[-130.5,49.25469],[-130,49.46508],[-129.5,49.67293],[-129,49.8782],[-128.5,50.08087],[-128,50.2809],[-127.5,50.47827],[-127,50.67297],[-126.5,50.86496],[-126,51.05424],[-125.5,51.24078],[-125,51.42457],[-125,51.42458],[-124.5,51.60561],[-124,51.78389],[-123.5,51.95938],[-123,52.1321],[-122.5,52.30204],[-122,52.46919],[-121.5,52.63356],[-121,52.79514],[-120.5,52.95394],[-120,53.10997],[-119.5,53.26322],[-119,53.41371],[-118.5,53.56144],[-118,53.70642],[-117.5,53.84865],[-117.5,53.84866],[-117,53.98816],[-116.5,54.12496],[-116,54.25904],[-115.5,54.39043],[-115,54.51914],[-114.5,54.64518],[-114,54.76857],[-113.5,54.88932],[-113,55.00745],[-112.5,55.12297],[-112,55.2359],[-111.5,55.34625],[-111,55.45404],[-110.5,55.55929],[-110,55.66201],[-109.5,55.76222],[-109,55.85994],[-108.5,55.95518],[-108,56.04796],[-107.5,56.1383],[-107,56.2262],[-106.5,56.3117],[-106,56.3948],[-105.5,56.47552],[-105,56.55388],[-104.5,56.6299],[-104,56.70358],[-103.5,56.77494],[-103,56.84401],[-102.5,56.91079],[-102,56.9753],[-101.5,57.03755],[-101,57.09756],[-100.5,57.15534],[-100,57.2109],[-99.5,57.26427],[-99,57.31544],[-98.5,57.36444],[-98,57.41128],[-97.5,57.45596],[-97,57.49851],[-96.5,57.53892],[-96,57.57722],[-95.5,57.61341],[-95,57.64751],[-94.5,57.67952],[-94,57.70945],[-93.5,57.73732],[-93,57.76313],[-92.5,57.78689],[-92,57.8086],[-91.5,57.82829],[-91,57.84595],[-90.5,57.86159],[-90,57.87522],[-89.5,57.88684],[-89,57.89647],[-88.5,57.9041],[-88,57.90975],[-87.5,57.91342],[-87,57.91511],[-86.5,57.91484],[-86,57.91259],[-85.5,57.90838],[-85,57.90222],[-84.5,57.89409],[-84,57.88402],[-83.5,57.872],[-83,57.85803],[-82.5,57.84212],[-82,57.82427],[-81.5,57.80448],[-81,57.78275],[-80.5,57.75908],[-80,57.73348],[-79.5,57.70595],[-79,57.67648],[-78.5,57.64508],[-78,57.61175],[-77.5,57.57649],[-77,57.5393],[-77,57.53929],[-76.5,57.50017],[-76,57.45911],[-75.5,57.41612],[-75,57.37119],[-74.5,57.32434],[-74,57.27554],[-73.5,57.22481],[-73,57.17215],[-72.5,57.11754],[-72,57.061],[-71.5,57.00252],[-71,56.94209],[-70.5,56.87972],[-70,56.81541],[-69.5,56.74915],[-69,56.68094],[-68.5,56.61079],[-68,56.53868],[-67.5,56.46462],[-67,56.38861],[-66.5,56.31065],[-66,56.23073],[-65.5,56.14886],[-65,56.06503],[-64.5,55.97925],[-64,55.89151],[-63.5,55.80181],[-63,55.71015],[-62.5,55.61654],[-62,55.52097],[-61.5,55.42345],[-61,55.32397],[-60.5,55.22254],[-60,55.11916],[-59.5,55.01383],[-59,54.90655],[-58.5,54.79733],[-58,54.68617],[-57.5,54.57307],[-57,54.45804],[-56.5,54.34108],[-56,54.2222],[-55.5,54.1014],[-55,53.9787],[-54.5,53.85408],[-54,53.72758],[-53.5,53.59918],[-53,53.46891],[-52.5,53.33676],[-52,53.20275],[-51.5,53.0669],[-51,52.9292],[-50.5,52.78968],[-50,52.64834],[-49.5,52.50521],[-49,52.36028],[-48.5,52.21358],[-48,52.06513],[-47.5,51.91494],[-47,51.76302],[-46.5,51.6094],[-46,51.45409],[-45.5,51.29711],[-45,51.13848],[-44.5,50.97823],[-44,50.81638],[-43.5,50.65294],[-43,50.48794],[-42.5,50.32141],[-42,50.15336],[-41.5,49.98384],[-41,49.81285],[-40.5,49.64043],[-40,49.4666],[-39.5,49.2914],[-39,49.11485],[-38.5,48.93698],[-38,48.75783],[-37.5,48.57742],[-37,48.39578],[-36.5,48.21294],[-36,48.02895],[-35.5,47.84382],[-35,47.6576],[-34.5,47.47031],[-34,47.282],[-33.5,47.09269],[-33,46.90242],[-32.5,46.71123],[-32,46.51915],[-31.5,46.32621],[-31,46.13246],[-30.5,45.93792],[-30,45.74263],[-29.5,45.54664],[-29,45.34997],[-28.5,45.15266],[-28,44.95475],[-27.5,44.75627],[-27,44.55726],[-26.5,44.35775],[-26,44.15779],[-25.5,43.9574],[-25,43.75663],[-25,43.75662],[-24.5,43.55549],[-24,43.35404],[-23.5,43.15231],[-23,42.95032],[-22.5,42.74812],[-22,42.54573],[-21.5,42.3432],[-21,42.14054],[-20.5,41.9378],[-20,41.73501],[-19.5,41.53219],[-19,41.32938],[-18.5,41.12661],[-18,40.9239],[-17.5,40.7213],[-17,40.51882],[-16.5,40.31649],[-16,40.11434],[-15.5,39.91241],[-15,39.7107],[-14.5,39.50926],[-14,39.30811],[-13.5,39.10726],[-13,38.90675],[-12.87242,38.85194]]}},{"type":"Feature","id":"+02250524:south:0","properties":{"id":"+02250524","year":225,"month":5,"day":24,"time_tdt":"20:39:31","type":"금환일식","type_code":"A","saros":70,"gamma":0.58901,"magnitude":0.94684,"greatest":{"lat":56.83958,"lng":-103.03259},"path_width_km":242.7,"duration":"05m02s","delta_t_seconds":8359.8,"catalog_number":5316,"source":"NASA Five Millennium Canon of Solar Eclipses","source_url":"https://eclipse.gsfc.nasa.gov/SEsearch/SEsearchmap.php?Ecl=%2B02250524","boundary":"south","name":"225-05-24 금환일식"},"geometry":{"type":"LineString","coordinates":[[-173.48047,27.00176],[-173,27.19245],[-172.5,27.39261],[-172,27.59452],[-171.5,27.79819],[-171,28.00361],[-170.5,28.21078],[-170,28.4197],[-169.5,28.63036],[-169,28.84278],[-168.5,29.05693],[-168,29.27282],[-167.5,29.49044],[-167,29.70979],[-166.5,29.93085],[-166,30.15362],[-165.5,30.37808],[-165,30.60423],[-164.5,30.83205],[-164,31.06152],[-163.5,31.29264],[-163,31.52539],[-162.5,31.75974],[-162,31.99568],[-161.5,32.23318],[-161,32.47223],[-160.5,32.71279],[-160,32.95484],[-159.5,33.19835],[-159,33.44329],[-158.5,33.68963],[-158,33.93733],[-157.5,34.18636],[-157,34.43668],[-156.5,34.68824],[-156,34.941],[-155.5,35.19493],[-155,35.44996],[-154.5,35.70606],[-154,35.96316],[-153.5,36.22122],[-153,36.48018],[-152.5,36.73997],[-152.5,36.73998],[-152,37.00055],[-151.5,37.26185],[-151,37.52379],[-150.5,37.78632],[-150,38.04937],[-149.5,38.31285],[-149,38.57671],[-148.5,38.84086],[-148,39.10523],[-147.5,39.36974],[-147,39.63431],[-146.5,39.89886],[-146,40.1633],[-145.5,40.42755],[-145,40.69152],[-144.5,40.95514],[-144,41.21831],[-143.5,41.48095],[-143,41.74296],[-142.5,42.00426],[-142,42.26477],[-141.5,42.52439],[-141,42.78303],[-140.5,43.04062],[-140,43.29705],[-139.5,43.55226],[-139,43.80615],[-138.5,44.05864],[-138,44.30964],[-137.5,44.55909],[-137,44.80689],[-136.5,45.05298],[-136,45.29727],[-135.5,45.53969],[-135,45.78018],[-134.5,46.01866],[-134,46.25508],[-133.5,46.48935],[-133,46.72144],[-132.5,46.95127],[-132,47.17879],[-131.5,47.40394],[-131,47.62669],[-130.5,47.84697],[-130,48.06476],[-129.5,48.27999],[-129,48.49264],[-128.5,48.70267],[-128,48.91005],[-127.5,49.11474],[-127,49.31671],[-126.5,49.51595],[-126,49.71242],[-125.5,49.90611],[-125,50.097],[-124.5,50.28507],[-124,50.47031],[-123.5,50.6527],[-123,50.83224],[-122.5,51.00893],[-122,51.18274],[-121.5,51.35369],[-121,51.52177],[-120.5,51.68697],[-120,51.8493],[-119.5,52.00877],[-119,52.16536],[-118.5,52.3191],[-118,52.46999],[-117.5,52.61803],[-117,52.76324],[-116.5,52.90561],[-116,53.04518],[-115.5,53.18193],[-115,53.31589],[-114.5,53.44708],[-114,53.57549],[-113.5,53.70116],[-113,53.82408],[-112.5,53.94428],[-112,54.06178],[-111.5,54.17658],[-111,54.28871],[-111,54.2887],[-110.5,54.39817],[-110,54.50499],[-109.5,54.60919],[-109,54.71077],[-108.5,54.80976],[-108,54.90618],[-107.5,55.00003],[-107,55.09134],[-106.5,55.18013],[-106,55.2664],[-105.5,55.35019],[-105.5,55.35018],[-105,55.43149],[-104.5,55.51034],[-104,55.58674],[-103.5,55.66071],[-103,55.73227],[-102.5,55.80143],[-102,55.86822],[-101.5,55.93263],[-101,55.99469],[-100.5,56.05442],[-100,56.11182],[-99.5,56.16692],[-99,56.21971],[-98.5,56.27023],[-98,56.31847],[-97.5,56.36446],[-97,56.4082],[-96.5,56.44971],[-96,56.489],[-95.5,56.52608],[-95,56.56096],[-94.5,56.59365],[-94,56.62417],[-93.5,56.65251],[-93,56.6787],[-92.5,56.70273],[-92,56.72463],[-91.5,56.74439],[-91,56.76203],[-90.5,56.77756],[-90,56.79097],[-89.5,56.80228],[-89,56.8115],[-88.5,56.81863],[-88,56.82367],[-87.5,56.82664],[-87,56.82754],[-86.5,56.82637],[-86,56.82314],[-85.5,56.81786],[-85,56.81052],[-84.5,56.80113],[-84,56.7897],[-83.5,56.77623],[-83,56.76071],[-82.5,56.74316],[-82,56.72358],[-81.5,56.70197],[-81,56.67833],[-80.5,56.65266],[-80,56.62497],[-79.5,56.59525],[-79,56.56351],[-78.5,56.52975],[-78,56.49396],[-77.5,56.45616],[-77,56.41633],[-76.5,56.37449],[-76,56.33062],[-75.5,56.28474],[-75,56.23683],[-74.5,56.1869],[-74.5,56.18691],[-74,56.13496],[-73.5,56.08099],[-73,56.025],[-72.5,55.96699],[-72,55.90695],[-71.5,55.84489],[-71,55.7808],[-70.5,55.71469],[-70,55.64656],[-69.5,55.57639],[-69,55.5042],[-68.5,55.42998],[-68,55.35373],[-67.5,55.27546],[-67,55.19515],[-66.5,55.11281],[-66,55.02845],[-65.5,54.94205],[-65,54.85363],[-64.5,54.76317],[-64,54.67069],[-63.5,54.57619],[-63,54.47965],[-62.5,54.3811],[-62,54.28052],[-61.5,54.17792],[-61,54.07331],[-60.5,53.96668],[-60,53.85804],[-59.5,53.74739],[-59,53.63474],[-59,53.63475],[-58.5,53.5201],[-58,53.40346],[-57.5,53.28483],[-57,53.16423],[-56.5,53.04164],[-56.5,53.04165],[-56,52.9171],[-55.5,52.79059],[-55,52.66213],[-54.5,52.53174],[-54,52.39941],[-53.5,52.26516],[-53,52.129],[-52.5,51.99094],[-52,51.851],[-51.5,51.70918],[-51,51.56551],[-50.5,51.41999],[-50,51.27264],[-49.5,51.12349],[-49,50.97253],[-48.5,50.8198],[-48,50.66531],[-47.5,50.50909],[-47,50.35114],[-46.5,50.19149],[-46,50.03017],[-45.5,49.86719],[-45,49.70258],[-44.5,49.53636],[-44,49.36857],[-43.5,49.19921],[-43,49.02832],[-42.5,48.85593],[-42,48.68207],[-41.5,48.50676],[-41,48.33002],[-40.5,48.1519],[-40,47.97242],[-39.5,47.79162],[-39,47.60952],[-38.5,47.42615],[-38,47.24155],[-37.5,47.05576],[-37,46.8688],[-36.5,46.68071],[-36,46.49153],[-35.5,46.30128],[-35,46.11001],[-34.5,45.91776],[-34,45.72454],[-33.5,45.53041],[-33,45.3354],[-32.5,45.13955],[-32,44.94289],[-31.5,44.74545],[-31,44.54729],[-30.5,44.34842],[-30,44.1489],[-29.5,43.94875],[-29,43.74802],[-28.5,43.54674],[-28,43.34494],[-27.5,43.14267],[-27,42.93996],[-26.5,42.73684],[-26,42.53336],[-25.5,42.32954],[-25,42.12543],[-24.5,41.92105],[-24,41.71644],[-23.5,41.51165],[-23.5,41.51164],[-23,41.30669],[-22.5,41.1016],[-22,40.89642],[-21.5,40.69117],[-21,40.4859],[-20.5,40.28063],[-20,40.07539],[-19.5,39.87021],[-19,39.66513],[-18.5,39.46016],[-18,39.25535],[-17.5,39.05072],[-17,38.84629],[-16.5,38.64209],[-16,38.43815],[-15.5,38.2345],[-15,38.03115],[-14.5,37.82815],[-14.5,37.82814],[-14.08398,37.65951]]}},{"type":"Feature","id":"+02251117:north:0","properties":{"id":"+02251117","year":225,"month":11,"day":17,"time_tdt":"23:51:08","type":"개기일식","type_code":"T","saros":75,"gamma":-0.27487,"magnitude":1.044,"greatest":{"lat":-35.35139,"lng":-148.58594},"path_width_km":152.8,"duration":"03m43s","delta_t_seconds":8355.2,"catalog_number":5317,"source":"NASA Five Millennium Canon of Solar Eclipses","source_url":"https://eclipse.gsfc.nasa.gov/SEsearch/SEsearchmap.php?Ecl=%2B02251117","boundary":"north","name":"225-11-17 개기일식"},"geometry":{"type":"LineString","coordinates":[[146.57812,-6.97295],[147,-7.12048],[147.5,-7.29677],[148,-7.47463],[148.5,-7.65406],[149,-7.83508],[149.5,-8.01768],[150,-8.20187],[150.5,-8.38766],[151,-8.57504],[151.5,-8.76402],[152,-8.9546],[152.5,-9.14679],[153,-9.34058],[153.5,-9.53598],[154,-9.73299],[154.5,-9.93161],[155,-10.13184],[155.5,-10.33367],[156,-10.53712],[156.5,-10.74216],[157,-10.94881],[157.5,-11.15706],[158,-11.3669],[158.5,-11.57833],[159,-11.79134],[159.5,-12.00593],[160,-12.22209],[160.5,-12.43981],[161,-12.65908],[161.5,-12.87989],[162,-13.10223],[162.5,-13.32609],[163,-13.55145],[163.5,-13.7783],[164,-14.00662],[164.5,-14.23639],[165,-14.4676],[165.5,-14.70022],[166,-14.93423],[166.5,-15.16961],[167,-15.40633],[167.5,-15.64436],[168,-15.88369],[168.5,-16.12427],[169,-16.36608],[169.5,-16.60908],[170,-16.85323],[170.5,-17.09851],[171,-17.34486],[171.5,-17.59225],[172,-17.84064],[172.5,-18.08997],[173,-18.34021],[173.5,-18.5913],[174,-18.84319],[174.5,-19.09582],[175,-19.34915],[175.5,-19.6031],[176,-19.85763],[176.5,-20.11267],[177,-20.36816],[177.5,-20.62402],[178,-20.8802],[178.5,-21.13662],[179,-21.3932],[179.5,-21.64988],[180,-21.90658]]}},{"type":"Feature","id":"+02251117:north:1","properties":{"id":"+02251117","year":225,"month":11,"day":17,"time_tdt":"23:51:08","type":"개기일식","type_code":"T","saros":75,"gamma":-0.27487,"magnitude":1.044,"greatest":{"lat":-35.35139,"lng":-148.58594},"path_width_km":152.8,"duration":"03m43s","delta_t_seconds":8355.2,"catalog_number":5317,"source":"NASA Five Millennium Canon of Solar Eclipses","source_url":"https://eclipse.gsfc.nasa.gov/SEsearch/SEsearchmap.php?Ecl=%2B02251117","boundary":"north","name":"225-11-17 개기일식"},"geometry":{"type":"LineString","coordinates":[[-179.5,-22.16322],[-179,-22.41972],[-178.5,-22.67601],[-178,-22.93198],[-177.5,-23.18758],[-177,-23.4427],[-176.5,-23.69727],[-176,-23.95119],[-175.5,-24.20438],[-175,-24.45675],[-174.5,-24.70822],[-174,-24.95868],[-173.5,-25.20806],[-173,-25.45625],[-172.5,-25.70318],[-172,-25.94875],[-171.5,-26.19287],[-171,-26.43545],[-170.5,-26.67641],[-170,-26.91566],[-169.5,-27.15311],[-169,-27.38868],[-168.5,-27.62229],[-168,-27.85384],[-167.5,-28.08326],[-167,-28.31048],[-166.5,-28.53541],[-166,-28.75799],[-165.5,-28.97813],[-165,-29.19577],[-164.5,-29.41083],[-164,-29.62326],[-163.5,-29.83299],[-163,-30.03996],[-162.5,-30.2441],[-162,-30.44537],[-161.5,-30.64371],[-161,-30.83907],[-160.5,-31.0314],[-160,-31.22066],[-159.5,-31.4068],[-159,-31.58978],[-158.5,-31.76957],[-158,-31.94613],[-157.5,-32.11943],[-157,-32.28943],[-156.5,-32.45612],[-156,-32.61946],[-155.5,-32.77944],[-155,-32.93603],[-154.5,-33.08922],[-154,-33.23898],[-153.5,-33.38531],[-153,-33.52819],[-152.5,-33.66761],[-152,-33.80357],[-151.5,-33.93606],[-151,-34.06507],[-150.5,-34.1906],[-150,-34.31266],[-149.5,-34.43123],[-149,-34.54633],[-148.5,-34.65794],[-148,-34.76609],[-147.5,-34.87077],[-147,-34.972],[-146.5,-35.06977],[-146,-35.16409],[-145.5,-35.25498],[-145,-35.34245],[-144.5,-35.42651],[-144,-35.50717],[-143.5,-35.58444],[-143,-35.65833],[-142.5,-35.72887],[-142,-35.79606],[-141.5,-35.85991],[-141,-35.92046],[-140.5,-35.9777],[-140,-36.03167],[-139.5,-36.08236],[-139,-36.12981],[-138.5,-36.17403],[-138,-36.21504],[-137.5,-36.25285],[-137,-36.28748],[-136.5,-36.31896],[-136,-36.34729],[-135.5,-36.37251],[-135,-36.39463],[-134.5,-36.41366],[-134,-36.42963],[-133.5,-36.44256],[-133,-36.45246],[-132.5,-36.45937],[-132,-36.46329],[-131.5,-36.46424],[-131,-36.46225],[-130.5,-36.45734],[-130,-36.44953],[-129.5,-36.43883],[-129,-36.42528],[-128.5,-36.40888],[-128,-36.38966],[-127.5,-36.36764],[-127,-36.34284],[-126.5,-36.31528],[-126,-36.28498],[-125.5,-36.25197],[-125,-36.21627],[-124.5,-36.17789],[-124,-36.13686],[-123.5,-36.09319],[-123,-36.04692],[-122.5,-35.99806],[-122,-35.94664],[-121.5,-35.89267],[-121,-35.83618],[-120.5,-35.77719],[-120,-35.71572],[-119.5,-35.6518],[-119,-35.58545],[-118.5,-35.5167],[-118,-35.44555],[-117.5,-35.37205],[-117,-35.2962],[-116.5,-35.21805],[-116,-35.1376],[-115.5,-35.05488],[-115,-34.96992],[-114.5,-34.88275],[-114,-34.79338],[-113.5,-34.70184],[-113,-34.60816],[-112.5,-34.51236],[-112,-34.41446],[-111.5,-34.3145],[-111,-34.2125],[-110.5,-34.10848],[-110,-34.00247],[-109.5,-33.8945],[-109,-33.78459],[-108.5,-33.67278],[-108,-33.55908],[-107.5,-33.44352],[-107,-33.32614],[-106.5,-33.20696],[-106,-33.086],[-105.5,-32.9633],[-105,-32.83888],[-104.5,-32.71278],[-104,-32.58501],[-103.5,-32.45561],[-103,-32.32461],[-102.5,-32.19203],[-102,-32.05791],[-101.5,-31.92227],[-101,-31.78515],[-100.5,-31.64656],[-100,-31.50655],[-99.5,-31.36513],[-99,-31.22234],[-98.5,-31.07822],[-98,-30.93278],[-97.5,-30.78605],[-97,-30.63808],[-96.5,-30.48887],[-96,-30.33848],[-95.5,-30.18692],[-95,-30.03422],[-94.5,-29.88041],[-94,-29.72553],[-93.5,-29.5696],[-93,-29.41264],[-92.5,-29.2547],[-92,-29.0958],[-91.5,-28.93596],[-91,-28.77521],[-90.5,-28.61359],[-90,-28.45112],[-89.5,-28.28783],[-89,-28.12375],[-88.5,-27.9589],[-88,-27.79332],[-87.5,-27.62702],[-87,-27.46005],[-86.5,-27.29241],[-86,-27.12415],[-85.5,-26.95529],[-85,-26.78584],[-84.5,-26.61585],[-84,-26.44533],[-83.5,-26.27431],[-83,-26.10282],[-82.5,-25.93087],[-82,-25.7585],[-81.5,-25.58573],[-81,-25.41258],[-80.5,-25.23907],[-80,-25.06524],[-79.5,-24.8911],[-79,-24.71667],[-78.5,-24.54198],[-78,-24.36705],[-77.5,-24.1919],[-77,-24.01655],[-76.5,-23.84102],[-76,-23.66534],[-75.5,-23.48953],[-75,-23.31359],[-74.5,-23.13757],[-74,-22.96146],[-73.5,-22.7853],[-73,-22.6091],[-72.5,-22.43288]]}},{"type":"Feature","id":"+02251117:center:0","properties":{"id":"+02251117","year":225,"month":11,"day":17,"time_tdt":"23:51:08","type":"개기일식","type_code":"T","saros":75,"gamma":-0.27487,"magnitude":1.044,"greatest":{"lat":-35.35139,"lng":-148.58594},"path_width_km":152.8,"duration":"03m43s","delta_t_seconds":8355.2,"catalog_number":5317,"source":"NASA Five Millennium Canon of Solar Eclipses","source_url":"https://eclipse.gsfc.nasa.gov/SEsearch/SEsearchmap.php?Ecl=%2B02251117","boundary":"center","name":"225-11-17 개기일식"},"geometry":{"type":"LineString","coordinates":[[146.35733,-7.36225],[146.5,-7.4093],[147,-7.58762],[147.5,-7.76754],[148,-7.94905],[148.5,-8.13216],[149,-8.31688],[149.5,-8.50321],[150,-8.69116],[150.5,-8.88073],[151,-9.07191],[151.5,-9.26473],[152,-9.45917],[152.5,-9.65523],[153,-9.85293],[153.5,-10.05226],[154,-10.25322],[154.5,-10.45581],[155,-10.66003],[155.5,-10.86588],[156,-11.07336],[156.5,-11.28246],[157,-11.49318],[157.5,-11.70552],[158,-11.91947],[158.5,-12.13502],[159,-12.35217],[159.5,-12.57091],[160,-12.79124],[160.5,-13.01313],[161,-13.23659],[161.5,-13.4616],[162,-13.68814],[162.5,-13.91621],[163,-14.14578],[163.5,-14.37684],[164,-14.60937],[164.5,-14.84336],[165,-15.07877],[165.5,-15.31559],[166,-15.5538],[166.5,-15.79336],[167,-16.03426],[167.5,-16.27645],[168,-16.51992],[168.5,-16.76463],[169,-17.01053],[169.5,-17.25761],[170,-17.50581],[170.5,-17.7551],[171,-18.00544],[171.5,-18.25677],[172,-18.50907],[172.5,-18.76226],[173,-19.01632],[173.5,-19.27117],[174,-19.52678],[174.5,-19.78307],[175,-20.03999],[175.5,-20.29749],[176,-20.55549],[176.5,-20.81393],[177,-21.07275],[177.5,-21.33186],[178,-21.59121],[178.5,-21.85072],[179,-22.11031],[179.5,-22.3699],[180,-22.62943]]}},{"type":"Feature","id":"+02251117:center:1","properties":{"id":"+02251117","year":225,"month":11,"day":17,"time_tdt":"23:51:08","type":"개기일식","type_code":"T","saros":75,"gamma":-0.27487,"magnitude":1.044,"greatest":{"lat":-35.35139,"lng":-148.58594},"path_width_km":152.8,"duration":"03m43s","delta_t_seconds":8355.2,"catalog_number":5317,"source":"NASA Five Millennium Canon of Solar Eclipses","source_url":"https://eclipse.gsfc.nasa.gov/SEsearch/SEsearchmap.php?Ecl=%2B02251117","boundary":"center","name":"225-11-17 개기일식"},"geometry":{"type":"LineString","coordinates":[[-179.5,-22.88879],[-179,-23.14792],[-178.5,-23.40674],[-178,-23.66514],[-177.5,-23.92306],[-177,-24.18039],[-176.5,-24.43706],[-176,-24.69298],[-175.5,-24.94805],[-175,-25.20219],[-174.5,-25.4553],[-174,-25.70729],[-173.5,-25.95808],[-173,-26.20758],[-172.5,-26.45568],[-172,-26.70231],[-171.5,-26.94738],[-171,-27.19078],[-170.5,-27.43245],[-170,-27.6723],[-169.5,-27.91022],[-169,-28.14616],[-168.5,-28.38002],[-168,-28.61171],[-167.5,-28.84118],[-167,-29.06833],[-166.5,-29.29309],[-166,-29.5154],[-165.5,-29.73517],[-165,-29.95235],[-164.5,-30.16687],[-164,-30.37866],[-163.5,-30.58767],[-163,-30.79384],[-162.5,-30.99711],[-162,-31.19743],[-161.5,-31.39475],[-161,-31.58903],[-160.5,-31.78021],[-160,-31.96827],[-159.5,-32.15315],[-159,-32.33483],[-158.5,-32.51327],[-158,-32.68843],[-157.5,-32.8603],[-157,-33.02883],[-156.5,-33.19402],[-156,-33.35583],[-155.5,-33.51426],[-155,-33.66927],[-154.5,-33.82086],[-154,-33.96902],[-153.5,-34.11372],[-153,-34.25497],[-152.5,-34.39276],[-152,-34.52708],[-151.5,-34.65792],[-151,-34.78529],[-150.5,-34.90918],[-150,-35.0296],[-149.5,-35.14654],[-149,-35.26002],[-148.5,-35.37003],[-148,-35.47658],[-147.5,-35.57968],[-147,-35.67933],[-146.5,-35.77555],[-146,-35.86834],[-145.5,-35.95772],[-145,-36.04369],[-144.5,-36.12628],[-144,-36.20548],[-143.5,-36.28132],[-143,-36.35381],[-142.5,-36.42296],[-142,-36.48879],[-141.5,-36.55131],[-141,-36.61054],[-140.5,-36.6665],[-140,-36.71919],[-139.5,-36.76865],[-139,-36.81489],[-138.5,-36.85792],[-138,-36.89776],[-137.5,-36.93443],[-137,-36.96794],[-136.5,-36.99832],[-136,-37.02559],[-135.5,-37.04976],[-135,-37.07085],[-134.5,-37.08887],[-134,-37.10386],[-133.5,-37.11583],[-133,-37.12479],[-132.5,-37.13077],[-132,-37.13378],[-131.5,-37.13385],[-131,-37.13099],[-130.5,-37.12522],[-130,-37.11656],[-129.5,-37.10504],[-129,-37.09067],[-128.5,-37.07347],[-128,-37.05346],[-127.5,-37.03066],[-127,-37.00509],[-126.5,-36.97677],[-126,-36.94572],[-125.5,-36.91196],[-125,-36.87551],[-124.5,-36.8364],[-124,-36.79463],[-123.5,-36.75024],[-123,-36.70323],[-122.5,-36.65364],[-122,-36.60149],[-121.5,-36.54679],[-121,-36.48956],[-120.5,-36.42983],[-120,-36.36762],[-119.5,-36.30295],[-119,-36.23585],[-118.5,-36.16632],[-118,-36.0944],[-117.5,-36.02011],[-117,-35.94347],[-116.5,-35.8645],[-116,-35.78323],[-115.5,-35.69968],[-115,-35.61387],[-114.5,-35.52582],[-114,-35.43557],[-113.5,-35.34312],[-113,-35.24852],[-112.5,-35.15177],[-112,-35.05292],[-111.5,-34.95197],[-111,-34.84896],[-110.5,-34.74391],[-110,-34.63685],[-109.5,-34.5278],[-109,-34.41679],[-108.5,-34.30384],[-108,-34.18899],[-107.5,-34.07225],[-107,-33.95366],[-106.5,-33.83323],[-106,-33.71101],[-105.5,-33.58701],[-105,-33.46126],[-104.5,-33.3338],[-104,-33.20465],[-103.5,-33.07383],[-103,-32.94138],[-102.5,-32.80732],[-102,-32.67168],[-101.5,-32.5345],[-101,-32.3958],[-100.5,-32.2556],[-100,-32.11394],[-99.5,-31.97086],[-99,-31.82636],[-98.5,-31.6805],[-98,-31.53328],[-97.5,-31.38476],[-97,-31.23494],[-96.5,-31.08388],[-96,-30.93158],[-95.5,-30.77809],[-95,-30.62343],[-94.5,-30.46763],[-94,-30.31072],[-93.5,-30.15273],[-93,-29.9937],[-92.5,-29.83364],[-92,-29.67259],[-91.5,-29.51058],[-91,-29.34763],[-90.5,-29.18378],[-90,-29.01905],[-89.5,-28.85348],[-89,-28.68709],[-88.5,-28.5199],[-88,-28.35196],[-87.5,-28.18327],[-87,-28.01389],[-86.5,-27.84382],[-86,-27.6731],[-85.5,-27.50175],[-85,-27.32981],[-84.5,-27.15729],[-84,-26.98423],[-83.5,-26.81065],[-83,-26.63657],[-82.5,-26.46203],[-82,-26.28704],[-81.5,-26.11163],[-81,-25.93583],[-80.5,-25.75967],[-80,-25.58315],[-79.5,-25.40631],[-79,-25.22918],[-78.5,-25.05177],[-78,-24.87411],[-77.5,-24.69621],[-77,-24.51811],[-76.5,-24.33982],[-76,-24.16137],[-75.5,-23.98278],[-75,-23.80406],[-74.5,-23.62523],[-74,-23.44633],[-73.5,-23.26736],[-73,-23.08835],[-72.5,-22.90931],[-72.1354,-22.77873]]}},{"type":"Feature","id":"+02251117:south:0","properties":{"id":"+02251117","year":225,"month":11,"day":17,"time_tdt":"23:51:08","type":"개기일식","type_code":"T","saros":75,"gamma":-0.27487,"magnitude":1.044,"greatest":{"lat":-35.35139,"lng":-148.58594},"path_width_km":152.8,"duration":"03m43s","delta_t_seconds":8355.2,"catalog_number":5317,"source":"NASA Five Millennium Canon of Solar Eclipses","source_url":"https://eclipse.gsfc.nasa.gov/SEsearch/SEsearchmap.php?Ecl=%2B02251117","boundary":"south","name":"225-11-17 개기일식"},"geometry":{"type":"LineString","coordinates":[[146.14844,-7.7501],[146.5,-7.87708],[147,-8.05906],[147.5,-8.24266],[148,-8.42788],[148.5,-8.61474],[149,-8.80322],[149.5,-8.99335],[150,-9.18511],[150.5,-9.37852],[151,-9.57358],[151.5,-9.77029],[152,-9.96865],[152.5,-10.16866],[153,-10.37033],[153.5,-10.57365],[154,-10.77862],[154.5,-10.98525],[155,-11.19353],[155.5,-11.40346],[156,-11.61504],[156.5,-11.82826],[157,-12.04312],[157.5,-12.25961],[158,-12.47773],[158.5,-12.69747],[159,-12.91882],[159.5,-13.14177],[160,-13.36632],[160.5,-13.59245],[161,-13.82015],[161.5,-14.04941],[162,-14.28021],[162.5,-14.51254],[163,-14.74637],[163.5,-14.98169],[164,-15.21849],[164.5,-15.45673],[165,-15.6964],[165.5,-15.93746],[166,-16.1799],[166.5,-16.42369],[167,-16.66879],[167.5,-16.91518],[168,-17.16281],[168.5,-17.41166],[169,-17.66169],[169.5,-17.91286],[170,-18.16512],[170.5,-18.41844],[171,-18.67276],[171.5,-18.92805],[172,-19.18424],[172.5,-19.4413],[173,-19.69916],[173.5,-19.95776],[174,-20.21706],[174.5,-20.47699],[175,-20.73748],[175.5,-20.99848],[176,-21.25991],[176.5,-21.5217],[177,-21.78379],[177.5,-22.04611],[178,-22.30856],[178.5,-22.57109],[179,-22.83362],[179.5,-23.09605],[180,-23.35831]]}},{"type":"Feature","id":"+02251117:south:1","properties":{"id":"+02251117","year":225,"month":11,"day":17,"time_tdt":"23:51:08","type":"개기일식","type_code":"T","saros":75,"gamma":-0.27487,"magnitude":1.044,"greatest":{"lat":-35.35139,"lng":-148.58594},"path_width_km":152.8,"duration":"03m43s","delta_t_seconds":8355.2,"catalog_number":5317,"source":"NASA Five Millennium Canon of Solar Eclipses","source_url":"https://eclipse.gsfc.nasa.gov/SEsearch/SEsearchmap.php?Ecl=%2B02251117","boundary":"south","name":"225-11-17 개기일식"},"geometry":{"type":"LineString","coordinates":[[-179.5,-23.62031],[-179,-23.88198],[-178.5,-24.14322],[-178,-24.40395],[-177.5,-24.66408],[-177,-24.92352],[-176.5,-25.18218],[-176,-25.43997],[-175.5,-25.6968],[-175,-25.95257],[-174.5,-26.2072],[-174,-26.4606],[-173.5,-26.71267],[-173,-26.96332],[-172.5,-27.21246],[-172,-27.46001],[-171.5,-27.70588],[-171,-27.94997],[-170.5,-28.19221],[-170,-28.4325],[-169.5,-28.67076],[-169,-28.90692],[-168.5,-29.14089],[-168,-29.37259],[-167.5,-29.60195],[-167,-29.8289],[-166.5,-30.05336],[-166,-30.27526],[-165.5,-30.49454],[-165,-30.71114],[-164.5,-30.92498],[-164,-31.13602],[-163.5,-31.34419],[-163,-31.54944],[-162.5,-31.75173],[-162,-31.95099],[-161.5,-32.14719],[-161,-32.34029],[-160.5,-32.53024],[-160,-32.717],[-159.5,-32.90054],[-159,-33.08083],[-158.5,-33.25784],[-158,-33.43154],[-157.5,-33.6019],[-157,-33.7689],[-156.5,-33.93253],[-156,-34.09275],[-155.5,-34.24957],[-155,-34.40296],[-154.5,-34.55291],[-154,-34.69941],[-153.5,-34.84246],[-153,-34.98204],[-152.5,-35.11815],[-152,-35.2508],[-151.5,-35.37997],[-151,-35.50567],[-150.5,-35.62791],[-150,-35.74667],[-149.5,-35.86197],[-149,-35.97381],[-148.5,-36.0822],[-148,-36.18715],[-147.5,-36.28866],[-147,-36.38674],[-146.5,-36.4814],[-146,-36.57266],[-145.5,-36.66053],[-145,-36.74501],[-144.5,-36.82612],[-144,-36.90388],[-143.5,-36.9783],[-143,-37.04939],[-142.5,-37.11716],[-142,-37.18164],[-141.5,-37.24284],[-141,-37.30078],[-140.5,-37.35546],[-140,-37.40691],[-139.5,-37.45515],[-139,-37.50019],[-138.5,-37.54205],[-138,-37.58074],[-137.5,-37.61629],[-137,-37.64871],[-136.5,-37.67803],[-136,-37.70424],[-135.5,-37.72739],[-135,-37.74748],[-134.5,-37.76453],[-134,-37.77856],[-133.5,-37.78959],[-133,-37.79764],[-132.5,-37.80272],[-132,-37.80485],[-131.5,-37.80406],[-131,-37.80036],[-130.5,-37.79377],[-130,-37.78431],[-129.5,-37.772],[-129,-37.75685],[-128.5,-37.73888],[-128,-37.71812],[-127.5,-37.69458],[-127,-37.66827],[-126.5,-37.63923],[-126,-37.60747],[-125.5,-37.57301],[-125,-37.53586],[-124.5,-37.49605],[-124,-37.45359],[-123.5,-37.40851],[-123,-37.36082],[-122.5,-37.31054],[-122,-37.2577],[-121.5,-37.20232],[-121,-37.1444],[-120.5,-37.08398],[-120,-37.02108],[-119.5,-36.9557],[-119,-36.88789],[-118.5,-36.81765],[-118,-36.745],[-117.5,-36.66998],[-117,-36.59259],[-116.5,-36.51287],[-116,-36.43083],[-115.5,-36.34649],[-115,-36.25988],[-114.5,-36.17102],[-114,-36.07994],[-113.5,-35.98665],[-113,-35.89118],[-112.5,-35.79355],[-112,-35.69378],[-111.5,-35.59191],[-111,-35.48795],[-110.5,-35.38192],[-110,-35.27386],[-109.5,-35.16379],[-109,-35.05173],[-108.5,-34.93771],[-108,-34.82176],[-107.5,-34.70389],[-107,-34.58414],[-106.5,-34.46254],[-106,-34.3391],[-105.5,-34.21386],[-105,-34.08684],[-104.5,-33.95807],[-104,-33.82758],[-103.5,-33.6954],[-103,-33.56155],[-102.5,-33.42606],[-102,-33.28896],[-101.5,-33.15028],[-101,-33.01005],[-100.5,-32.8683],[-100,-32.72504],[-99.5,-32.58033],[-99,-32.43417],[-98.5,-32.28661],[-98,-32.13767],[-97.5,-31.98738],[-97,-31.83578],[-96.5,-31.68288],[-96,-31.52872],[-95.5,-31.37333],[-95,-31.21675],[-94.5,-31.05899],[-94,-30.90009],[-93.5,-30.74008],[-93,-30.57899],[-92.5,-30.41684],[-92,-30.25368],[-91.5,-30.08952],[-91,-29.92439],[-90.5,-29.75834],[-90,-29.59137],[-89.5,-29.42353],[-89,-29.25485],[-88.5,-29.08535],[-88,-28.91505],[-87.5,-28.744],[-87,-28.57221],[-86.5,-28.39972],[-86,-28.22655],[-85.5,-28.05273],[-85,-27.8783],[-84.5,-27.70326],[-84,-27.52766],[-83.5,-27.35152],[-83,-27.17486],[-82.5,-26.99772],[-82,-26.82012],[-81.5,-26.64207],[-81,-26.46362],[-80.5,-26.28478],[-80,-26.10558],[-79.5,-25.92604],[-79,-25.74619],[-78.5,-25.56605],[-78,-25.38564],[-77.5,-25.20499],[-77,-25.02413],[-76.5,-24.84306],[-76,-24.66182],[-75.5,-24.48043],[-75,-24.2989],[-74.5,-24.11726],[-74,-23.93554],[-73.5,-23.75374],[-73,-23.5719],[-72.5,-23.39002],[-72,-23.20813],[-71.89648,-23.17048]]}}],"attribution":"Eclipse Predictions by Fred Espenak and Jean Meeus (NASA's GSFC)","generated_at":"2026-09-23T01:44:47.181Z"}
