{"type":"FeatureCollection","year":226,"events":[{"id":"+02260513","year":226,"month":5,"day":13,"time_tdt":"21:37:07","type":"금환일식","type_code":"A","saros":80,"gamma":-0.17988,"magnitude":0.96311,"greatest":{"lat":8.11867,"lng":-109.43591},"path_width_km":135.6,"duration":"04m47s","delta_t_seconds":8350.6,"catalog_number":5318,"source":"NASA Five Millennium Canon of Solar Eclipses","source_url":"https://eclipse.gsfc.nasa.gov/SEsearch/SEsearchmap.php?Ecl=%2B02260513"},{"id":"+02261107","year":226,"month":11,"day":7,"time_tdt":"13:58:09","type":"혼성일식","type_code":"H","saros":85,"gamma":0.41334,"magnitude":1.00582,"greatest":{"lat":7.53252,"lng":6.68176},"path_width_km":22.1,"duration":"00m37s","delta_t_seconds":8345.9,"catalog_number":5319,"source":"NASA Five Millennium Canon of Solar Eclipses","source_url":"https://eclipse.gsfc.nasa.gov/SEsearch/SEsearchmap.php?Ecl=%2B02261107"}],"features":[{"type":"Feature","id":"+02260513:north:0","properties":{"id":"+02260513","year":226,"month":5,"day":13,"time_tdt":"21:37:07","type":"금환일식","type_code":"A","saros":80,"gamma":-0.17988,"magnitude":0.96311,"greatest":{"lat":8.11867,"lng":-109.43591},"path_width_km":135.6,"duration":"04m47s","delta_t_seconds":8350.6,"catalog_number":5318,"source":"NASA Five Millennium Canon of Solar Eclipses","source_url":"https://eclipse.gsfc.nasa.gov/SEsearch/SEsearchmap.php?Ecl=%2B02260513","boundary":"north","name":"226-05-13 금환일식"},"geometry":{"type":"LineString","coordinates":[[-166.28125,-18.18492],[-166,-18.09206],[-165.5,-17.92576],[-165,-17.75786],[-164.5,-17.58836],[-164,-17.41724],[-163.5,-17.2445],[-163,-17.07012],[-162.5,-16.89409],[-162,-16.71639],[-161.5,-16.53702],[-161,-16.35595],[-160.5,-16.17318],[-160,-15.9887],[-159.5,-15.80249],[-159,-15.61454],[-158.5,-15.42484],[-158,-15.23338],[-157.5,-15.04013],[-157,-14.8451],[-156.5,-14.64826],[-156,-14.44962],[-155.5,-14.24914],[-155,-14.04683],[-154.5,-13.84267],[-154,-13.63664],[-153.5,-13.42875],[-153,-13.21897],[-152.5,-13.00731],[-152,-12.79374],[-151.5,-12.57825],[-151,-12.36085],[-150.5,-12.14151],[-150,-11.92024],[-149.5,-11.69702],[-149,-11.47185],[-148.5,-11.24472],[-148,-11.01562],[-147.5,-10.78456],[-147,-10.55152],[-146.5,-10.31651],[-146,-10.07952],[-145.5,-9.84056],[-145,-9.59962],[-144.5,-9.35671],[-144,-9.11182],[-143.5,-8.86498],[-143,-8.61617],[-142.5,-8.36542],[-142,-8.11273],[-141.5,-7.85811],[-141,-7.60159],[-140.5,-7.34318],[-140,-7.08289],[-139.5,-6.82075],[-139,-6.5568],[-138.5,-6.29104],[-138,-6.02353],[-137.5,-5.75429],[-137,-5.48336],[-136.5,-5.21079],[-136,-4.93662],[-135.5,-4.66091],[-135,-4.3837],[-134.5,-4.10507],[-134,-3.82507],[-133.5,-3.54378],[-133,-3.26127],[-132.5,-2.97762],[-132,-2.69293],[-131.5,-2.40727],[-131,-2.12076],[-130.5,-1.8335],[-130,-1.54559],[-129.5,-1.25716],[-129,-0.96833],[-128.5,-0.67924],[-128,-0.39001],[-127.5,-0.1008],[-127,0.18824],[-126.5,0.47696],[-126,0.76519],[-125.5,1.05276],[-125,1.3395],[-124.5,1.62522],[-124,1.90973],[-123.5,2.19285],[-123,2.47437],[-122.5,2.7541],[-122,3.03182],[-121.5,3.30734],[-121,3.58044],[-120.5,3.85091],[-120,4.11855],[-119.5,4.38313],[-119,4.64445],[-118.5,4.90229],[-118,5.15646],[-117.5,5.40675],[-117,5.65295],[-116.5,5.89488],[-116,6.13235],[-115.5,6.36517],[-115,6.59317],[-114.5,6.81618],[-114,7.03405],[-113.5,7.24661],[-113,7.45375],[-112.5,7.65531],[-112,7.85119],[-111.5,8.04127],[-111,8.22546],[-110.5,8.40365],[-110,8.57579],[-109.5,8.74179],[-109,8.90161],[-108.5,9.05519],[-108,9.2025],[-107.5,9.34351],[-107,9.4782],[-106.5,9.60657],[-106,9.72862],[-105.5,9.84436],[-105,9.9538],[-104.5,10.05697],[-104,10.1539],[-103.5,10.24463],[-103,10.32922],[-102.5,10.40769],[-102,10.48013],[-101.5,10.54658],[-101,10.60711],[-100.5,10.6618],[-100,10.71071],[-99.5,10.75393],[-99,10.79153],[-98.5,10.82361],[-98,10.85023],[-97.5,10.8715],[-97,10.8875],[-96.5,10.89833],[-96,10.90406],[-95.5,10.90481],[-95,10.90066],[-94.5,10.8917],[-94,10.87804],[-93.5,10.85976],[-93,10.83696],[-92.5,10.80974],[-92,10.77819],[-91.5,10.74241],[-91,10.70249],[-90.5,10.65851],[-90,10.61059],[-89.5,10.5588],[-89,10.50324],[-88.5,10.444],[-88,10.38117],[-87.5,10.31483],[-87,10.24507],[-86.5,10.17199],[-86,10.09565],[-85.5,10.01616],[-85,9.93358],[-84.5,9.848],[-84,9.75951],[-83.5,9.66817],[-83,9.57407],[-82.5,9.47728],[-82,9.37787],[-81.5,9.27593],[-81,9.17152],[-80.5,9.06471],[-80,8.95557],[-79.5,8.84417],[-79,8.73058],[-78.5,8.61486],[-78,8.49707],[-77.5,8.37729],[-77,8.25557],[-76.5,8.13196],[-76,8.00654],[-75.5,7.87936],[-75,7.75047],[-74.5,7.61993],[-74,7.48779],[-73.5,7.35412],[-73,7.21895],[-72.5,7.08234],[-72,6.94435],[-71.5,6.80501],[-71,6.66438],[-70.5,6.5225],[-70,6.37942],[-69.5,6.23518],[-69,6.08983],[-68.5,5.9434],[-68,5.79595],[-67.5,5.6475],[-67,5.4981],[-66.5,5.34779],[-66,5.19661],[-65.5,5.04458],[-65,4.89176],[-64.5,4.73816],[-64,4.58383],[-63.5,4.4288],[-63,4.2731],[-62.5,4.11677],[-62,3.95983],[-61.5,3.80231],[-61,3.64425],[-60.5,3.48567],[-60,3.3266],[-59.5,3.16706],[-59,3.00709],[-58.5,2.84671],[-58,2.68594],[-57.5,2.52482],[-57,2.36335],[-56.5,2.20157],[-56,2.0395],[-55.5,1.87716],[-55,1.71458],[-54.5,1.55176],[-54,1.38874],[-53.5,1.22554],[-53,1.06217],[-52.5,0.89865],[-52,0.735],[-51.5,0.57123],[-51,0.40738],[-50.5,0.24345],[-50,0.07945],[-49.82031,0.02051]]}},{"type":"Feature","id":"+02260513:center:0","properties":{"id":"+02260513","year":226,"month":5,"day":13,"time_tdt":"21:37:07","type":"금환일식","type_code":"A","saros":80,"gamma":-0.17988,"magnitude":0.96311,"greatest":{"lat":8.11867,"lng":-109.43591},"path_width_km":135.6,"duration":"04m47s","delta_t_seconds":8350.6,"catalog_number":5318,"source":"NASA Five Millennium Canon of Solar Eclipses","source_url":"https://eclipse.gsfc.nasa.gov/SEsearch/SEsearchmap.php?Ecl=%2B02260513","boundary":"center","name":"226-05-13 금환일식"},"geometry":{"type":"LineString","coordinates":[[-165.98455,-18.99232],[-165.5,-18.82556],[-165,-18.65603],[-164.5,-18.4849],[-164,-18.31214],[-163.5,-18.13776],[-163,-17.96173],[-162.5,-17.78404],[-162,-17.60468],[-161.5,-17.42365],[-161,-17.24091],[-160.5,-17.05648],[-160,-16.87032],[-159.5,-16.68243],[-159,-16.49279],[-158.5,-16.3014],[-158,-16.10823],[-157.5,-15.91329],[-157,-15.71655],[-156.5,-15.518],[-156,-15.31764],[-155.5,-15.11544],[-155,-14.9114],[-154.5,-14.7055],[-154,-14.49774],[-153.5,-14.2881],[-153,-14.07657],[-152.5,-13.86314],[-152,-13.64781],[-151.5,-13.43055],[-151,-13.21137],[-150.5,-12.99025],[-150,-12.76718],[-149.5,-12.54216],[-149,-12.31518],[-148.5,-12.08623],[-148,-11.85531],[-147.5,-11.62241],[-147,-11.38753],[-146.5,-11.15066],[-146,-10.91181],[-145.5,-10.67097],[-145,-10.42814],[-144.5,-10.18333],[-144,-9.93653],[-143.5,-9.68776],[-143,-9.43702],[-142.5,-9.18431],[-142,-8.92965],[-141.5,-8.67306],[-141,-8.41453],[-140.5,-8.1541],[-140,-7.89178],[-139.5,-7.62759],[-139,-7.36156],[-138.5,-7.09372],[-138,-6.82409],[-137.5,-6.55271],[-137,-6.27962],[-136.5,-6.00487],[-136,-5.72849],[-135.5,-5.45054],[-135,-5.17107],[-134.5,-4.89014],[-134,-4.60781],[-133.5,-4.32417],[-133,-4.03927],[-132.5,-3.7532],[-132,-3.46604],[-131.5,-3.1779],[-131,-2.88886],[-130.5,-2.59903],[-130,-2.30851],[-129.5,-2.01744],[-129,-1.72593],[-128.5,-1.43411],[-128,-1.14212],[-127.5,-0.85011],[-127,-0.55822],[-126.5,-0.26662],[-126,0.02453],[-125.5,0.31507],[-125,0.6048],[-124.5,0.89356],[-124,1.18114],[-123.5,1.46736],[-123,1.75201],[-122.5,2.0349],[-122,2.31581],[-121.5,2.59453],[-121,2.87085],[-120.5,3.14456],[-120,3.41543],[-119.5,3.68325],[-119,3.94781],[-118.5,4.20889],[-118,4.46627],[-117.5,4.71976],[-117,4.96913],[-116.5,5.21419],[-116,5.45475],[-115.5,5.69061],[-115,5.9216],[-114.5,6.14754],[-114,6.36827],[-113.5,6.58362],[-113,6.79345],[-112.5,6.99763],[-112,7.19602],[-111.5,7.38851],[-111,7.57501],[-110.5,7.7554],[-110,7.92961],[-109.5,8.09757],[-109,8.25921],[-108.5,8.41449],[-108,8.56336],[-107.5,8.7058],[-107,8.84178],[-106.5,8.9713],[-106,9.09436],[-105.5,9.21096],[-105,9.32112],[-104.5,9.42487],[-104,9.52224],[-103.5,9.61326],[-103,9.69799],[-102.5,9.77647],[-102,9.84877],[-101.5,9.91495],[-101,9.97508],[-100.5,10.02923],[-100,10.07747],[-99.5,10.11989],[-99,10.15657],[-98.5,10.1876],[-98,10.21306],[-97.5,10.23304],[-97,10.24765],[-96.5,10.25697],[-96,10.2611],[-95.5,10.26013],[-95,10.25417],[-94.5,10.24331],[-94,10.22765],[-93.5,10.20729],[-93,10.18232],[-92.5,10.15285],[-92,10.11897],[-91.5,10.08079],[-91,10.03839],[-90.5,9.99188],[-90,9.94135],[-89.5,9.8869],[-89,9.82862],[-88.5,9.7666],[-88,9.70093],[-87.5,9.63172],[-87,9.55904],[-86.5,9.48299],[-86,9.40365],[-85.5,9.32111],[-85,9.23545],[-84.5,9.14676],[-84,9.05512],[-83.5,8.96062],[-83,8.86332],[-82.5,8.76331],[-82,8.66067],[-81.5,8.55546],[-81,8.44777],[-80.5,8.33767],[-80,8.22523],[-79.5,8.11051],[-79,7.99359],[-78.5,7.87454],[-78,7.75341],[-77.5,7.63028],[-77,7.50521],[-76.5,7.37825],[-76,7.24947],[-75.5,7.11893],[-75,6.98669],[-74.5,6.8528],[-74,6.71732],[-73.5,6.5803],[-73,6.44179],[-72.5,6.30186],[-72,6.16054],[-71.5,6.01788],[-71,5.87394],[-70.5,5.72877],[-70,5.5824],[-69.5,5.43489],[-69,5.28627],[-68.5,5.1366],[-68,4.98591],[-67.5,4.83424],[-67,4.68163],[-66.5,4.52813],[-66,4.37376],[-65.5,4.21857],[-65,4.0626],[-64.5,3.90587],[-64,3.74843],[-63.5,3.5903],[-63,3.43152],[-62.5,3.27213],[-62,3.11214],[-61.5,2.9516],[-61,2.79052],[-60.5,2.62895],[-60,2.46691],[-59.5,2.30442],[-59,2.14152],[-58.5,1.97822],[-58,1.81456],[-57.5,1.65055],[-57,1.48623],[-56.5,1.32162],[-56,1.15673],[-55.5,0.99159],[-55,0.82622],[-54.5,0.66065],[-54,0.49489],[-53.5,0.32896],[-53,0.16289],[-52.5,-0.00331],[-52,-0.16963],[-51.5,-0.33603],[-51,-0.50251],[-50.5,-0.66904],[-50.08685,-0.80669]]}},{"type":"Feature","id":"+02260513:south:0","properties":{"id":"+02260513","year":226,"month":5,"day":13,"time_tdt":"21:37:07","type":"금환일식","type_code":"A","saros":80,"gamma":-0.17988,"magnitude":0.96311,"greatest":{"lat":8.11867,"lng":-109.43591},"path_width_km":135.6,"duration":"04m47s","delta_t_seconds":8350.6,"catalog_number":5318,"source":"NASA Five Millennium Canon of Solar Eclipses","source_url":"https://eclipse.gsfc.nasa.gov/SEsearch/SEsearchmap.php?Ecl=%2B02260513","boundary":"south","name":"226-05-13 금환일식"},"geometry":{"type":"LineString","coordinates":[[-165.5,-19.72849],[-165,-19.55734],[-164.5,-19.38458],[-164,-19.21019],[-163.5,-19.03417],[-163,-18.8565],[-162.5,-18.67716],[-162,-18.49616],[-161.5,-18.31346],[-161,-18.12907],[-160.5,-17.94297],[-160,-17.75514],[-159.5,-17.56558],[-159,-17.37426],[-158.5,-17.18119],[-158,-16.98634],[-157.5,-16.7897],[-157,-16.59126],[-156.5,-16.39101],[-156,-16.18893],[-155.5,-15.98502],[-155,-15.77926],[-154.5,-15.57164],[-154,-15.36214],[-153.5,-15.15077],[-153,-14.9375],[-152.5,-14.72232],[-152,-14.50523],[-151.5,-14.28621],[-151,-14.06525],[-150.5,-13.84235],[-150,-13.6175],[-149.5,-13.39069],[-149,-13.16191],[-148.5,-12.93115],[-148,-12.69841],[-147.5,-12.46369],[-147,-12.22697],[-146.5,-11.98826],[-146,-11.74755],[-145.5,-11.50484],[-145,-11.26014],[-144.5,-11.01344],[-144,-10.76474],[-143.5,-10.51406],[-143,-10.26139],[-142.5,-10.00674],[-142,-9.75013],[-141.5,-9.49156],[-141,-9.23105],[-140.5,-8.96862],[-140,-8.70427],[-139.5,-8.43804],[-139,-8.16995],[-138.5,-7.90003],[-138,-7.6283],[-137.5,-7.3548],[-137,-7.07956],[-136.5,-6.80263],[-136,-6.52406],[-135.5,-6.24388],[-135,-5.96216],[-134.5,-5.67895],[-134,-5.39431],[-133.5,-5.10832],[-133,-4.82105],[-132.5,-4.53257],[-132,-4.24297],[-131.5,-3.95235],[-131,-3.66079],[-130.5,-3.36841],[-130,-3.0753],[-129.5,-2.7816],[-129,-2.48742],[-128.5,-2.19289],[-128,-1.89814],[-127.5,-1.60333],[-127,-1.30861],[-126.5,-1.01413],[-126,-0.72006],[-125.5,-0.42656],[-125,-0.13383],[-124.5,0.15796],[-124,0.44862],[-123.5,0.73795],[-123,1.02574],[-122.5,1.3118],[-122,1.5959],[-121.5,1.87784],[-121,2.1574],[-120.5,2.43436],[-120,2.7085],[-119.5,2.97959],[-119,3.24742],[-118.5,3.51176],[-118,3.7724],[-117.5,4.02911],[-117,4.28169],[-116.5,4.52994],[-116,4.77363],[-115.5,5.01259],[-115,5.24662],[-114.5,5.47554],[-114,5.69918],[-113.5,5.91737],[-113,6.12996],[-112.5,6.33681],[-112,6.53778],[-111.5,6.73275],[-111,6.9216],[-110.5,7.10425],[-110,7.2806],[-109.5,7.45057],[-109,7.6141],[-108.5,7.77113],[-108,7.92162],[-107.5,8.06554],[-107,8.20287],[-106.5,8.33358],[-106,8.45769],[-105.5,8.5752],[-105,8.68612],[-104.5,8.79048],[-104,8.88832],[-103.5,8.97966],[-103,9.06457],[-102.5,9.14309],[-102,9.21528],[-101.5,9.2812],[-101,9.34094],[-100.5,9.39456],[-100,9.44214],[-99.5,9.48377],[-99,9.51953],[-98.5,9.54951],[-98,9.57381],[-97.5,9.59251],[-97,9.60572],[-96.5,9.61353],[-96,9.61604],[-95.5,9.61335],[-95,9.60556],[-94.5,9.59278],[-94,9.57511],[-93.5,9.55265],[-93,9.52549],[-92.5,9.49375],[-92,9.45752],[-91.5,9.41692],[-91,9.37203],[-90.5,9.32295],[-90,9.2698],[-89.5,9.21265],[-89,9.15162],[-88.5,9.0868],[-88,9.01829],[-87.5,8.94617],[-87,8.87054],[-86.5,8.7915],[-86,8.70913],[-85.5,8.62352],[-85,8.53476],[-84.5,8.44294],[-84,8.34813],[-83.5,8.25043],[-83,8.14991],[-82.5,8.04666],[-82,7.94076],[-81.5,7.83227],[-81,7.72129],[-80.5,7.60787],[-80,7.49211],[-79.5,7.37405],[-79,7.25379],[-78.5,7.13138],[-78,7.0069],[-77.5,6.8804],[-77,6.75196],[-76.5,6.62163],[-76,6.48949],[-75.5,6.35558],[-75,6.21997],[-74.5,6.08272],[-74,5.94387],[-73.5,5.8035],[-73,5.66165],[-72.5,5.51837],[-72,5.37372],[-71.5,5.22774],[-71,5.08049],[-70.5,4.93201],[-70,4.78235],[-69.5,4.63156],[-69,4.47967],[-68.5,4.32674],[-68,4.17281],[-67.5,4.01791],[-67,3.86209],[-66.5,3.70539],[-66,3.54784],[-65.5,3.38949],[-65,3.23037],[-64.5,3.07051],[-64,2.90995],[-63.5,2.74872],[-63,2.58686],[-62.5,2.4244],[-62,2.26137],[-61.5,2.0978],[-61,1.93372],[-60.5,1.76916],[-60,1.60415],[-59.5,1.43871],[-59,1.27288],[-58.5,1.10667],[-58,0.94011],[-57.5,0.77323],[-57,0.60605],[-56.5,0.4386],[-56,0.2709],[-55.5,0.10297],[-55,-0.06518],[-54.5,-0.23351],[-54,-0.402],[-53.5,-0.57064],[-53,-0.73942],[-52.5,-0.90829],[-52,-1.07726],[-51.5,-1.24631],[-51,-1.4154],[-50.5,-1.58454],[-50.34961,-1.63542]]}},{"type":"Feature","id":"+02261107:north:0","properties":{"id":"+02261107","year":226,"month":11,"day":7,"time_tdt":"13:58:09","type":"혼성일식","type_code":"H","saros":85,"gamma":0.41334,"magnitude":1.00582,"greatest":{"lat":7.53252,"lng":6.68176},"path_width_km":22.1,"duration":"00m37s","delta_t_seconds":8345.9,"catalog_number":5319,"source":"NASA Five Millennium Canon of Solar Eclipses","source_url":"https://eclipse.gsfc.nasa.gov/SEsearch/SEsearchmap.php?Ecl=%2B02261107","boundary":"north","name":"226-11-07 혼성일식"},"geometry":{"type":"LineString","coordinates":[[-51.92383,34.6751],[-51.5,34.54419],[-51,34.38837],[-50.5,34.23104],[-50,34.07218],[-49.5,33.91179],[-49,33.74986],[-48.5,33.58637],[-48,33.42132],[-47.5,33.25468],[-47,33.08647],[-46.5,32.91665],[-46,32.74522],[-45.5,32.57217],[-45,32.3975],[-44.5,32.22118],[-44,32.0432],[-43.5,31.86357],[-43,31.68226],[-42.5,31.49926],[-42,31.31457],[-41.5,31.12817],[-41,30.94005],[-40.5,30.7502],[-40,30.55862],[-39.5,30.36528],[-39,30.17019],[-38.5,29.97333],[-38,29.77469],[-37.5,29.57426],[-37,29.37203],[-36.5,29.16799],[-36,28.96214],[-35.5,28.75447],[-35,28.54496],[-34.5,28.33361],[-34,28.12042],[-33.5,27.90536],[-33,27.68845],[-32.5,27.46967],[-32,27.24902],[-31.5,27.0265],[-31,26.80209],[-30.5,26.5758],[-30,26.34762],[-29.5,26.11755],[-29,25.8856],[-28.5,25.65176],[-28,25.41603],[-27.5,25.17842],[-27,24.93892],[-26.5,24.69756],[-26,24.45432],[-25.5,24.20923],[-25,23.96229],[-24.5,23.71351],[-24,23.4629],[-23.5,23.21049],[-23,22.95628],[-22.5,22.70031],[-22,22.44258],[-21.5,22.18313],[-21,21.92198],[-20.5,21.65917],[-20,21.39472],[-19.5,21.12867],[-19,20.86106],[-18.5,20.59239],[-18,20.32816],[-17.5,20.06252],[-17,19.7955],[-16.5,19.52717],[-16,19.25758],[-15.5,18.9868],[-15,18.71489],[-14.5,18.44192],[-14,18.16798],[-13.5,17.89314],[-13,17.6175],[-12.5,17.34114],[-12,17.06416],[-11.5,16.78667],[-11,16.50877],[-10.5,16.23058],[-10,15.95221],[-9.5,15.6738],[-9,15.39548],[-8.5,15.11737],[-8,14.83963],[-7.5,14.56239],[-7,14.28582],[-6.5,14.01007],[-6,13.7353],[-5.5,13.46169],[-5,13.18939],[-4.5,12.91859],[-4,12.64947],[-3.5,12.3822],[-3,12.11698],[-2.5,11.85398],[-2,11.59339],[-1.5,11.33541],[-1,11.08021],[-0.5,10.828],[0,10.57895],[0.5,10.33325],[1,10.09108],[1.5,9.85262],[2,9.61804],[2.5,9.38752],[3,9.16122],[3.5,8.9393],[4,8.7219],[4.5,8.50918],[5,8.30128],[5.5,8.09832],[6,7.90042],[6.5,7.70769],[7,7.52025],[7.5,7.33818],[8,7.16157],[8.5,6.99049],[9,6.82501],[9.5,6.66519],[10,6.51107],[10.5,6.36269],[11,6.22009],[11.5,6.08327],[12,5.95225],[12.5,5.82704],[13,5.70763],[13.5,5.594],[14,5.48614],[14.5,5.38403],[15,5.28762],[15.5,5.19688],[16,5.11176],[16.5,5.03222],[17,4.9582],[17.5,4.88964],[18,4.82647],[18.5,4.76864],[19,4.71607],[19.5,4.66869],[20,4.62641],[20.5,4.58918],[21,4.55689],[21.5,4.52948],[22,4.50686],[22.5,4.48894],[23,4.47564],[23.5,4.46687],[24,4.46255],[24.5,4.46259],[25,4.46691],[25.5,4.47541],[26,4.48801],[26.5,4.50463],[27,4.52517],[27.5,4.54955],[28,4.5777],[28.5,4.60951],[29,4.64492],[29.5,4.68383],[30,4.72617],[30.5,4.77186],[31,4.82082],[31.5,4.87296],[32,4.92822],[32.5,4.98651],[33,5.04777],[33.5,5.11192],[34,5.17888],[34.5,5.24859],[35,5.32098],[35.5,5.39598],[36,5.47689],[36.5,5.56248],[37,5.6505],[37.5,5.7409],[38,5.8336],[38.5,5.92854],[39,6.02567],[39.5,6.12492],[40,6.22624],[40.5,6.32956],[41,6.43484],[41.5,6.54202],[42,6.65104],[42.5,6.76186],[43,6.87442],[43.5,6.98867],[44,7.10456],[44.5,7.22205],[45,7.34109],[45.5,7.46164],[46,7.58364],[46.5,7.70706],[47,7.83185],[47.5,7.95798],[48,8.08539],[48.5,8.21406],[49,8.34394],[49.5,8.47499],[50,8.60718],[50.5,8.74047],[51,8.87483],[51.5,9.01021],[52,9.1466],[52.5,9.28395],[53,9.42223],[53.5,9.56141],[54,9.70147],[54.5,9.84236],[55,9.98406],[55.5,10.12655],[56,10.26979],[56.5,10.41375],[57,10.55842],[57.5,10.70376],[58,10.84975],[58.5,10.99636],[59,11.14357],[59.5,11.29136],[60,11.43969],[60.5,11.58856],[61,11.73794],[61.5,11.8878],[62,12.03812],[62.5,12.18889],[63,12.34008],[63.5,12.49167],[63.66797,12.54269]]}},{"type":"Feature","id":"+02261107:center:0","properties":{"id":"+02261107","year":226,"month":11,"day":7,"time_tdt":"13:58:09","type":"혼성일식","type_code":"H","saros":85,"gamma":0.41334,"magnitude":1.00582,"greatest":{"lat":7.53252,"lng":6.68176},"path_width_km":22.1,"duration":"00m37s","delta_t_seconds":8345.9,"catalog_number":5319,"source":"NASA Five Millennium Canon of Solar Eclipses","source_url":"https://eclipse.gsfc.nasa.gov/SEsearch/SEsearchmap.php?Ecl=%2B02261107","boundary":"center","name":"226-11-07 혼성일식"},"geometry":{"type":"LineString","coordinates":[[-51.95686,34.5138],[-51.5,34.3622],[-51,34.20861],[-50.5,34.05353],[-50,33.89694],[-49.5,33.73883],[-49,33.57919],[-48.5,33.41802],[-48,33.25529],[-47.5,33.091],[-47,32.92514],[-46.5,32.7577],[-46,32.58866],[-45.5,32.41802],[-45,32.24577],[-44.5,32.07188],[-44,31.89637],[-43.5,31.7192],[-43,31.54038],[-42.5,31.35989],[-42,31.17772],[-41.5,30.99385],[-41,30.80829],[-40.5,30.62102],[-40,30.43202],[-39.5,30.2413],[-39,30.04883],[-38.5,29.85461],[-38,29.65863],[-37.5,29.46087],[-37,29.26134],[-36.5,29.06002],[-36,28.8569],[-35.5,28.65197],[-35,28.44522],[-34.5,28.23666],[-34,28.02626],[-33.5,27.81403],[-33,27.59995],[-32.5,27.38403],[-32,27.16625],[-31.5,26.94661],[-31,26.7251],[-30.5,26.50173],[-30,26.27649],[-29.5,26.04938],[-29,25.8204],[-28.5,25.58954],[-28,25.35682],[-27.5,25.12223],[-27,24.88577],[-26.5,24.64745],[-26,24.40728],[-25.5,24.16527],[-25,23.92142],[-24.5,23.67574],[-24,23.42825],[-23.5,23.17897],[-23,22.9279],[-22.5,22.67508],[-22,22.42051],[-21.5,22.16423],[-21,21.90626],[-20.5,21.64662],[-20,21.38536],[-19.5,21.1225],[-19,20.85809],[-18.5,20.59216],[-18,20.32477],[-17.5,20.05595],[-17,19.78576],[-16.5,19.51427],[-16,19.24152],[-15.5,18.96759],[-15,18.69254],[-14.5,18.41645],[-14,18.1394],[-13.5,17.86147],[-13,17.58275],[-12.5,17.30335],[-12,17.02335],[-11.5,16.74286],[-11,16.462],[-10.5,16.18088],[-10,15.89963],[-9.5,15.61837],[-9,15.33724],[-8.5,15.05637],[-8,14.77592],[-7.5,14.49604],[-7,14.21687],[-6.5,13.93859],[-6,13.66136],[-5.5,13.38534],[-5,13.11072],[-4.5,12.83766],[-4,12.56637],[-3.5,12.29701],[-3,12.02977],[-2.5,11.76485],[-2,11.50244],[-1.5,11.24272],[-1,10.98589],[-0.5,10.73213],[0,10.48164],[0.5,10.2346],[1,9.99119],[1.5,9.7516],[2,9.51599],[2.5,9.28455],[3,9.05744],[3.5,8.8348],[4,8.61681],[4.5,8.4036],[5,8.19531],[5.5,7.99206],[6,7.79398],[6.5,7.60119],[7,7.41377],[7.5,7.23183],[8,7.05544],[8.5,6.88469],[9,6.71963],[9.5,6.56031],[10,6.40679],[10.5,6.25911],[11,6.11727],[11.5,5.98131],[12,5.85123],[12.5,5.72704],[13,5.60872],[13.5,5.49626],[14,5.38964],[14.5,5.28883],[15,5.19379],[15.5,5.10449],[16,5.02088],[16.5,4.9429],[17,4.8705],[17.5,4.80361],[18,4.74218],[18.5,4.68613],[19,4.63539],[19.5,4.58989],[20,4.54955],[20.5,4.51428],[21,4.48402],[21.5,4.45866],[22,4.43814],[22.5,4.42236],[23,4.41124],[23.5,4.40469],[24,4.40262],[24.5,4.40495],[25,4.41158],[25.5,4.42243],[26,4.4374],[26.5,4.45642],[27,4.4794],[27.5,4.50624],[28,4.53687],[28.5,4.5712],[29,4.60914],[29.5,4.65061],[30,4.69553],[30.5,4.74382],[31,4.79539],[31.5,4.85018],[32,4.90809],[32.5,4.96906],[33,5.03301],[33.5,5.09986],[34,5.16955],[34.5,5.24199],[35,5.31713],[35.5,5.39489],[36,5.4752],[36.5,5.558],[37,5.64322],[37.5,5.7308],[38,5.82068],[38.5,5.91279],[39,6.00708],[39.5,6.10349],[40,6.20195],[40.5,6.30242],[41,6.40483],[41.5,6.50914],[42,6.61529],[42.5,6.72323],[43,6.83291],[43.5,6.94427],[44,7.05728],[44.5,7.17188],[45,7.28803],[45.5,7.40569],[46,7.5248],[46.5,7.64533],[47,7.76723],[47.5,7.89046],[48,8.01499],[48.5,8.14077],[49,8.26776],[49.5,8.39593],[50,8.52524],[50.5,8.65565],[51,8.78714],[51.5,8.91966],[52,9.05318],[52.5,9.18767],[53,9.32309],[53.5,9.45943],[54,9.59664],[54.5,9.73469],[55,9.87356],[55.5,10.01322],[56,10.15364],[56.5,10.2948],[57,10.43666],[57.5,10.5792],[58,10.7224],[58.5,10.86622],[59,11.01066],[59.5,11.15568],[60,11.30126],[60.5,11.44738],[61,11.59401],[61.5,11.74114],[62,11.88874],[62.5,12.0368],[63,12.18529],[63.5,12.33419],[63.68903,12.38979]]}},{"type":"Feature","id":"+02261107:south:0","properties":{"id":"+02261107","year":226,"month":11,"day":7,"time_tdt":"13:58:09","type":"혼성일식","type_code":"H","saros":85,"gamma":0.41334,"magnitude":1.00582,"greatest":{"lat":7.53252,"lng":6.68176},"path_width_km":22.1,"duration":"00m37s","delta_t_seconds":8345.9,"catalog_number":5319,"source":"NASA Five Millennium Canon of Solar Eclipses","source_url":"https://eclipse.gsfc.nasa.gov/SEsearch/SEsearchmap.php?Ecl=%2B02261107","boundary":"south","name":"226-11-07 혼성일식"},"geometry":{"type":"LineString","coordinates":[[-52.02344,34.33773],[-52,34.33074],[-51.5,34.18087],[-51,34.02952],[-50.5,33.87669],[-50,33.72236],[-49.5,33.56654],[-49,33.40919],[-48.5,33.25033],[-48,33.08992],[-47.5,32.92798],[-47,32.76447],[-46.5,32.5994],[-46,32.43275],[-45.5,32.26452],[-45,32.09468],[-44.5,31.92323],[-44,31.75017],[-43.5,31.57547],[-43,31.39913],[-42.5,31.22114],[-42,31.04149],[-41.5,30.86016],[-41,30.67715],[-40.5,30.49244],[-40,30.30603],[-39.5,30.1179],[-39,29.92805],[-38.5,29.73647],[-38,29.54314],[-37.5,29.34805],[-37,29.15121],[-36.5,28.95259],[-36,28.75219],[-35.5,28.55],[-35,28.34601],[-34.5,28.14022],[-34,27.93261],[-33.5,27.72318],[-33,27.51193],[-32.5,27.29885],[-32,27.08392],[-31.5,26.86716],[-31,26.64855],[-30.5,26.42808],[-30,26.20577],[-29.5,25.9816],[-29,25.75557],[-28.5,25.52769],[-28,25.29796],[-27.5,25.06637],[-27,24.83293],[-26.5,24.59765],[-26,24.36052],[-25.5,24.12157],[-25,23.8808],[-24.5,23.63821],[-24,23.39382],[-23.5,23.14765],[-23,22.8997],[-22.5,22.65001],[-22,22.39858],[-21.5,22.14545],[-21,21.89063],[-20.5,21.63416],[-20,21.37606],[-19.5,21.11638],[-19,20.85514],[-18.5,20.59194],[-18,20.32135],[-17.5,20.04933],[-17,19.77596],[-16.5,19.50128],[-16,19.22535],[-15.5,18.94825],[-15,18.67004],[-14.5,18.3908],[-14,18.11062],[-13.5,17.82958],[-13,17.54778],[-12.5,17.2653],[-12,16.98226],[-11.5,16.69876],[-11,16.41492],[-10.5,16.13086],[-10,15.8467],[-9.5,15.56257],[-9,15.27862],[-8.5,14.99498],[-8,14.71181],[-7.5,14.42926],[-7,14.14749],[-6.5,13.86666],[-6,13.58695],[-5.5,13.30853],[-5,13.03157],[-4.5,12.75626],[-4,12.48278],[-3.5,12.21132],[-3,11.94208],[-2.5,11.67523],[-2,11.41099],[-1.5,11.14953],[-1,10.89106],[-0.5,10.63576],[0,10.38383],[0.5,10.13545],[1,9.89081],[1.5,9.65009],[2,9.41347],[2.5,9.18111],[3,8.95319],[3.5,8.72986],[4,8.51128],[4.5,8.29758],[5,8.08891],[5.5,7.88539],[6,7.68715],[6.5,7.49429],[7,7.30691],[7.5,7.1251],[8,6.94896],[8.5,6.77853],[9,6.6139],[9.5,6.45511],[10,6.3022],[10.5,6.15521],[11,6.01416],[11.5,5.87906],[12,5.74993],[12.5,5.62676],[13,5.50954],[13.5,5.39826],[14,5.29289],[14.5,5.19339],[15,5.09974],[15.5,5.01188],[16,4.92978],[16.5,4.85336],[17,4.78259],[17.5,4.71739],[18,4.65769],[18.5,4.60343],[19,4.55453],[19.5,4.51092],[20,4.47251],[20.5,4.43922],[21,4.41098],[21.5,4.38769],[22,4.36928],[22.5,4.35564],[23,4.34671],[23.5,4.34237],[24,4.34256],[24.5,4.34717],[25,4.35612],[25.5,4.36932],[26,4.38668],[26.5,4.40811],[27,4.43352],[27.5,4.46283],[28,4.49595],[28.5,4.5328],[29,4.57328],[29.5,4.61731],[30,4.66481],[30.5,4.71571],[31,4.76991],[31.5,4.82733],[32,4.88791],[32.5,4.95156],[33,5.01821],[33.5,5.08777],[34,5.16019],[34.5,5.23537],[35,5.31327],[35.5,5.39379],[36,5.47352],[36.5,5.55353],[37,5.63596],[37.5,5.72073],[38,5.8078],[38.5,5.89709],[39,5.98855],[39.5,6.08211],[40,6.17773],[40.5,6.27535],[41,6.37491],[41.5,6.47635],[42,6.57963],[42.5,6.6847],[43,6.79151],[43.5,6.9],[44,7.01013],[44.5,7.12185],[45,7.23512],[45.5,7.34989],[46,7.46612],[46.5,7.58376],[47,7.70278],[47.5,7.82313],[48,7.94478],[48.5,8.06768],[49,8.1918],[49.5,8.31709],[50,8.44353],[50.5,8.57108],[51,8.6997],[51.5,8.82936],[52,8.96002],[52.5,9.09166],[53,9.22424],[53.5,9.35773],[54,9.4921],[54.5,9.62733],[55,9.76337],[55.5,9.90021],[56,10.03782],[56.5,10.17617],[57,10.31523],[57.5,10.45499],[58,10.5954],[58.5,10.73645],[59,10.87812],[59.5,11.02038],[60,11.16321],[60.5,11.30659],[61,11.45049],[61.5,11.59489],[62,11.73978],[62.5,11.88513],[63,12.03092],[63.5,12.17714],[63.7168,12.24066]]}}],"attribution":"Eclipse Predictions by Fred Espenak and Jean Meeus (NASA's GSFC)","generated_at":"2026-09-23T01:44:47.082Z"}
