{"type":"FeatureCollection","year":230,"events":[{"id":"+02300302","year":230,"month":3,"day":2,"time_tdt":"15:22:39","type":"금환일식","type_code":"A","saros":82,"gamma":-0.51297,"magnitude":0.998,"greatest":{"lat":-36.80881,"lng":-1.75702},"path_width_km":8.1,"duration":"00m11s","delta_t_seconds":8314.4,"catalog_number":5326,"source":"NASA Five Millennium Canon of Solar Eclipses","source_url":"https://eclipse.gsfc.nasa.gov/SEsearch/SEsearchmap.php?Ecl=%2B02300302"},{"id":"+02300825","year":230,"month":8,"day":25,"time_tdt":"16:53:17","type":"개기일식","type_code":"T","saros":87,"gamma":0.38175,"magnitude":1.02613,"greatest":{"lat":32.91954,"lng":-31.61591},"path_width_km":95.8,"duration":"02m20s","delta_t_seconds":8309.8,"catalog_number":5327,"source":"NASA Five Millennium Canon of Solar Eclipses","source_url":"https://eclipse.gsfc.nasa.gov/SEsearch/SEsearchmap.php?Ecl=%2B02300825"}],"features":[{"type":"Feature","id":"+02300302:north:0","properties":{"id":"+02300302","year":230,"month":3,"day":2,"time_tdt":"15:22:39","type":"금환일식","type_code":"A","saros":82,"gamma":-0.51297,"magnitude":0.998,"greatest":{"lat":-36.80881,"lng":-1.75702},"path_width_km":8.1,"duration":"00m11s","delta_t_seconds":8314.4,"catalog_number":5326,"source":"NASA Five Millennium Canon of Solar Eclipses","source_url":"https://eclipse.gsfc.nasa.gov/SEsearch/SEsearchmap.php?Ecl=%2B02300302","boundary":"north","name":"230-03-02 금환일식"},"geometry":{"type":"LineString","coordinates":[[-86.87305,-47.19466],[-86.5,-47.24453],[-86,-47.31057],[-85.5,-47.37568],[-85,-47.43985],[-84.5,-47.50307],[-84,-47.56534],[-83.5,-47.62664],[-83,-47.68698],[-82.5,-47.74634],[-82,-47.80471],[-81.5,-47.8621],[-81,-47.91848],[-80.5,-47.97387],[-80,-48.02823],[-79.5,-48.08158],[-79,-48.13391],[-78.5,-48.18519],[-78,-48.23544],[-77.5,-48.28464],[-77,-48.33278],[-76.5,-48.37986],[-76,-48.42587],[-75.5,-48.4708],[-75,-48.51464],[-74.5,-48.55739],[-74,-48.59904],[-73.5,-48.63958],[-73,-48.67901],[-72.5,-48.71731],[-72,-48.75448],[-71.5,-48.79052],[-71,-48.8254],[-70.5,-48.85914],[-70,-48.89171],[-69.5,-48.92311],[-69,-48.95333],[-68.5,-48.98237],[-68,-49.01022],[-67.5,-49.03686],[-67,-49.06229],[-66.5,-49.0865],[-66,-49.10949],[-65.5,-49.13124],[-65,-49.15175],[-64.5,-49.17101],[-64,-49.189],[-63.5,-49.20573],[-63,-49.22117],[-62.5,-49.23533],[-62,-49.24819],[-61.5,-49.25975],[-61,-49.26999],[-60.5,-49.27891],[-60,-49.28649],[-59.5,-49.29273],[-59,-49.29761],[-58.5,-49.30113],[-58,-49.30328],[-57.5,-49.30404],[-57,-49.30341],[-56.5,-49.30137],[-56,-49.29792],[-55.5,-49.29304],[-55,-49.28672],[-54.5,-49.27895],[-54,-49.26973],[-53.5,-49.25903],[-53,-49.24685],[-52.5,-49.23317],[-52,-49.21799],[-51.5,-49.20129],[-51,-49.18305],[-50.5,-49.16327],[-50,-49.14193],[-49.5,-49.11902],[-49,-49.09452],[-48.5,-49.06843],[-48,-49.04073],[-47.5,-49.01139],[-47,-48.98042],[-46.5,-48.94779],[-46,-48.9135],[-45.5,-48.87751],[-45,-48.83983],[-44.5,-48.80043],[-44,-48.75929],[-43.5,-48.71641],[-43,-48.67177],[-42.5,-48.62534],[-42,-48.57711],[-41.5,-48.52706],[-41,-48.47518],[-40.5,-48.42145],[-40,-48.36584],[-39.5,-48.30835],[-39,-48.24895],[-38.5,-48.18761],[-38,-48.12433],[-37.5,-48.05908],[-37,-47.99184],[-36.5,-47.92259],[-36,-47.85131],[-35.5,-47.77798],[-35,-47.70257],[-34.5,-47.62507],[-34,-47.54544],[-33.5,-47.46368],[-33,-47.37974],[-32.5,-47.29362],[-32,-47.20528],[-31.5,-47.11471],[-31,-47.02187],[-30.5,-46.92674],[-30,-46.8293],[-29.5,-46.72952],[-29,-46.62737],[-28.5,-46.52283],[-28,-46.41587],[-27.5,-46.30647],[-27,-46.19459],[-26.5,-46.0802],[-26,-45.96329],[-25.5,-45.84382],[-25,-45.72176],[-24.5,-45.59709],[-24,-45.46977],[-23.5,-45.33978],[-23,-45.20709],[-22.5,-45.07166],[-22,-44.93348],[-21.5,-44.79251],[-21,-44.64872],[-20.5,-44.50208],[-20,-44.35256],[-19.5,-44.20014],[-19,-44.04479],[-18.5,-43.88648],[-18,-43.72518],[-17.5,-43.56087],[-17,-43.39352],[-16.5,-43.2231],[-16,-43.04959],[-15.5,-42.87297],[-15,-42.69322],[-14.5,-42.5103],[-14,-42.32421],[-13.5,-42.13493],[-13,-41.94243],[-12.5,-41.7467],[-12,-41.54774],[-11.5,-41.34552],[-11,-41.14004],[-10.5,-40.9313],[-10,-40.71929],[-9.5,-40.50401],[-9,-40.28546],[-8.5,-40.06365],[-8,-39.83859],[-7.5,-39.61029],[-7,-39.37877],[-6.5,-39.14405],[-6,-38.90616],[-5.5,-38.66512],[-5,-38.42097],[-4.5,-38.17376],[-4,-37.92352],[-3.5,-37.67031],[-3,-37.41419],[-2.5,-37.15522],[-2,-36.89346],[-1.5,-36.62899],[-1,-36.3619],[-0.5,-36.09226],[0,-35.82017],[0.5,-35.54574],[1,-35.26906],[1.5,-34.99024],[2,-34.70941],[2.5,-34.42668],[3,-34.14219],[3.5,-33.85607],[4,-33.56845],[4.5,-33.27949],[5,-32.98932],[5.5,-32.6981],[6,-32.40598],[6.5,-32.11312],[7,-31.81968],[7.5,-31.52582],[8,-31.23171],[8.5,-30.9375],[9,-30.64337],[9.5,-30.34947],[10,-30.05597],[10.5,-29.76303],[11,-29.47081],[11.5,-29.17946],[12,-28.88914],[12.5,-28.59999],[13,-28.31217],[13.5,-28.02581],[14,-27.74105],[14.5,-27.45802],[15,-27.17684],[15.5,-26.89764],[16,-26.62054],[16.5,-26.34563],[17,-26.07303],[17.5,-25.80283],[18,-25.53512],[18.5,-25.26998],[19,-25.00749],[19.5,-24.74773],[20,-24.49076],[20.5,-24.23664],[21,-23.98542],[21.5,-23.73716],[22,-23.4919],[22.5,-23.24968],[23,-23.01053],[23.5,-22.77448],[24,-22.54155],[24.5,-22.31177],[25,-22.08515],[25.5,-21.8617],[26,-21.64143],[26.5,-21.42436],[27,-21.21047],[27.5,-20.99976],[28,-20.79224],[28.5,-20.5879],[29,-20.38673],[29.5,-20.18871],[30,-19.99383],[30.5,-19.80209],[31,-19.61345],[31.5,-19.42791],[32,-19.24544],[32.5,-19.06601],[33,-18.88962],[33.5,-18.71623],[34,-18.54582],[34.5,-18.37837],[35,-18.21384],[35.5,-18.05221],[36,-17.89346],[36.5,-17.73755],[37,-17.58446],[37.5,-17.43416],[38,-17.28662],[38.5,-17.14181],[39,-16.99969],[39.5,-16.86026],[40,-16.72346],[40.5,-16.58928],[41,-16.45767],[41.5,-16.32863],[42,-16.20211],[42.5,-16.07808],[43,-15.95652],[43.5,-15.8374],[44,-15.72068],[44.5,-15.60635],[45,-15.49437],[45.5,-15.38471],[46,-15.27735],[46.5,-15.17226],[47,-15.06941],[47.5,-14.96878],[48,-14.87034],[48.5,-14.77406],[49,-14.67991],[49.5,-14.58788],[50,-14.49794],[50.5,-14.41005],[51,-14.3242],[51.5,-14.24037],[52,-14.15852],[52.5,-14.07864],[53,-14.0007],[53.5,-13.92469],[54,-13.85056],[54.5,-13.77832],[55,-13.70792],[55.5,-13.63936],[55.63281,-13.62146]]}},{"type":"Feature","id":"+02300302:center:0","properties":{"id":"+02300302","year":230,"month":3,"day":2,"time_tdt":"15:22:39","type":"금환일식","type_code":"A","saros":82,"gamma":-0.51297,"magnitude":0.998,"greatest":{"lat":-36.80881,"lng":-1.75702},"path_width_km":8.1,"duration":"00m11s","delta_t_seconds":8314.4,"catalog_number":5326,"source":"NASA Five Millennium Canon of Solar Eclipses","source_url":"https://eclipse.gsfc.nasa.gov/SEsearch/SEsearchmap.php?Ecl=%2B02300302","boundary":"center","name":"230-03-02 금환일식"},"geometry":{"type":"LineString","coordinates":[[-87.01539,-47.53881],[-87,-47.50926],[-86.5,-47.57394],[-86,-47.63769],[-85.5,-47.70052],[-85,-47.7624],[-84.5,-47.82334],[-84,-47.88333],[-83.5,-47.94235],[-83,-48.00041],[-82.5,-48.05749],[-82,-48.11359],[-81.5,-48.16871],[-81,-48.22283],[-80.5,-48.27594],[-80,-48.32805],[-79.5,-48.37914],[-79,-48.4292],[-78.5,-48.47824],[-78,-48.52624],[-77.5,-48.57319],[-77,-48.61909],[-76.5,-48.66393],[-76,-48.7077],[-75.5,-48.7504],[-75,-48.79202],[-74.5,-48.83255],[-74,-48.87198],[-73.5,-48.91031],[-73,-48.94753],[-72.5,-48.98363],[-72,-49.01861],[-71.5,-49.05245],[-71,-49.08515],[-70.5,-49.1167],[-70,-49.1471],[-69.5,-49.17633],[-69,-49.20439],[-68.5,-49.23127],[-68,-49.25697],[-67.5,-49.28146],[-67,-49.30476],[-66.5,-49.32684],[-66,-49.3477],[-65.5,-49.36733],[-65,-49.38572],[-64.5,-49.40287],[-64,-49.41877],[-63.5,-49.4334],[-63,-49.44676],[-62.5,-49.45883],[-62,-49.46962],[-61.5,-49.47911],[-61,-49.48729],[-60.5,-49.49416],[-60,-49.49969],[-59.5,-49.50389],[-59,-49.50675],[-58.5,-49.50824],[-58,-49.50837],[-57.5,-49.50712],[-57,-49.50449],[-56.5,-49.50046],[-56,-49.49502],[-55.5,-49.48816],[-55,-49.47987],[-54.5,-49.47014],[-54,-49.45896],[-53.5,-49.44631],[-53,-49.43219],[-52.5,-49.41658],[-52,-49.39946],[-51.5,-49.38084],[-51,-49.36069],[-50.5,-49.33901],[-50,-49.31577],[-49.5,-49.29097],[-49,-49.2646],[-48.5,-49.23663],[-48,-49.20706],[-47.5,-49.17587],[-47,-49.14305],[-46.5,-49.10858],[-46,-49.07245],[-45.5,-49.03464],[-45,-48.99513],[-44.5,-48.95392],[-44,-48.91098],[-43.5,-48.86631],[-43,-48.81987],[-42.5,-48.77166],[-42,-48.72166],[-41.5,-48.66985],[-41,-48.61621],[-40.5,-48.56073],[-40,-48.50338],[-39.5,-48.44415],[-39,-48.38302],[-38.5,-48.31997],[-38,-48.25498],[-37.5,-48.18803],[-37,-48.11909],[-36.5,-48.04816],[-36,-47.9752],[-35.5,-47.9002],[-35,-47.82313],[-34.5,-47.74397],[-34,-47.6627],[-33.5,-47.57929],[-33,-47.49373],[-32.5,-47.40599],[-32,-47.31604],[-31.5,-47.22386],[-31,-47.12943],[-30.5,-47.03272],[-30,-46.9337],[-29.5,-46.83235],[-29,-46.72865],[-28.5,-46.62256],[-28,-46.51406],[-27.5,-46.40312],[-27,-46.28972],[-26.5,-46.17383],[-26,-46.05542],[-25.5,-45.93446],[-25,-45.81092],[-24.5,-45.68478],[-24,-45.55601],[-23.5,-45.42458],[-23,-45.29045],[-22.5,-45.15361],[-22,-45.01402],[-21.5,-44.87165],[-21,-44.72648],[-20.5,-44.57848],[-20,-44.42762],[-19.5,-44.27386],[-19,-44.11719],[-18.5,-43.95758],[-18,-43.79499],[-17.5,-43.62941],[-17,-43.46081],[-16.5,-43.28916],[-16,-43.11443],[-15.5,-42.93662],[-15,-42.75569],[-14.5,-42.57163],[-14,-42.38442],[-13.5,-42.19403],[-13,-42.00045],[-12.5,-41.80368],[-12,-41.60369],[-11.5,-41.40048],[-11,-41.19404],[-10.5,-40.98437],[-10,-40.77146],[-9.5,-40.55531],[-9,-40.33594],[-8.5,-40.11333],[-8,-39.88752],[-7.5,-39.65851],[-7,-39.42632],[-6.5,-39.19097],[-6,-38.9525],[-5.5,-38.71093],[-5,-38.4663],[-4.5,-38.21865],[-4,-37.96804],[-3.5,-37.71451],[-3,-37.45812],[-2.5,-37.19894],[-2,-36.93704],[-1.5,-36.67249],[-1,-36.40538],[-0.5,-36.13579],[0,-35.86383],[0.5,-35.58958],[1,-35.31316],[1.5,-35.03468],[2,-34.75426],[2.5,-34.47202],[3,-34.18809],[3.5,-33.90261],[4,-33.61572],[4.5,-33.32755],[5,-33.03827],[5.5,-32.74801],[6,-32.45693],[6.5,-32.1652],[7,-31.87297],[7.5,-31.5804],[8,-31.28765],[8.5,-30.99489],[9,-30.70228],[9.5,-30.40999],[10,-30.11816],[10.5,-29.82697],[11,-29.53657],[11.5,-29.24712],[12,-28.95875],[12.5,-28.67163],[13,-28.3859],[13.5,-28.10169],[14,-27.81914],[14.5,-27.53838],[15,-27.25953],[15.5,-26.9827],[16,-26.70802],[16.5,-26.43558],[17,-26.16549],[17.5,-25.89784],[18,-25.63271],[18.5,-25.3702],[19,-25.11037],[19.5,-24.8533],[20,-24.59904],[20.5,-24.34766],[21,-24.09922],[21.5,-23.85374],[22,-23.61129],[22.5,-23.37189],[23,-23.13558],[23.5,-22.90238],[24,-22.67232],[24.5,-22.44541],[25,-22.22168],[25.5,-22.00112],[26,-21.78375],[26.5,-21.56958],[27,-21.35859],[27.5,-21.15079],[28,-20.94618],[28.5,-20.74475],[29,-20.54648],[29.5,-20.35136],[30,-20.15939],[30.5,-19.97054],[31,-19.7848],[31.5,-19.60214],[32,-19.42255],[32.5,-19.246],[33,-19.07248],[33.5,-18.90195],[34,-18.73439],[34.5,-18.56978],[35,-18.40809],[35.5,-18.24929],[36,-18.09335],[36.5,-17.94025],[37,-17.78996],[37.5,-17.64244],[38,-17.49768],[38.5,-17.35563],[39,-17.21628],[39.5,-17.07958],[40,-16.94552],[40.5,-16.81406],[41,-16.68517],[41.5,-16.55883],[42,-16.43499],[42.5,-16.31364],[43,-16.19475],[43.5,-16.07828],[44,-15.96421],[44.5,-15.85251],[45,-15.74314],[45.5,-15.6361],[46,-15.53133],[46.5,-15.42883],[47,-15.32855],[47.5,-15.23048],[48,-15.13458],[48.5,-15.04084],[49,-14.94922],[49.5,-14.85971],[50,-14.77226],[50.5,-14.68687],[51,-14.6035],[51.5,-14.52214],[52,-14.44275],[52.5,-14.36531],[53,-14.28981],[53.5,-14.21621],[54,-14.1445],[54.5,-14.07466],[55,-14.00665],[55.5,-13.94047],[55.74735,-13.90739]]}},{"type":"Feature","id":"+02300302:south:0","properties":{"id":"+02300302","year":230,"month":3,"day":2,"time_tdt":"15:22:39","type":"금환일식","type_code":"A","saros":82,"gamma":-0.51297,"magnitude":0.998,"greatest":{"lat":-36.80881,"lng":-1.75702},"path_width_km":8.1,"duration":"00m11s","delta_t_seconds":8314.4,"catalog_number":5326,"source":"NASA Five Millennium Canon of Solar Eclipses","source_url":"https://eclipse.gsfc.nasa.gov/SEsearch/SEsearchmap.php?Ecl=%2B02300302","boundary":"south","name":"230-03-02 금환일식"},"geometry":{"type":"LineString","coordinates":[[-87,-47.84066],[-86.5,-47.90307],[-86,-47.96455],[-85.5,-48.0251],[-85,-48.08472],[-84.5,-48.14339],[-84,-48.20111],[-83.5,-48.25787],[-83,-48.31367],[-82.5,-48.36849],[-82,-48.42233],[-81.5,-48.47519],[-81,-48.52706],[-80.5,-48.57792],[-80,-48.62778],[-79.5,-48.67663],[-79,-48.72445],[-78.5,-48.77125],[-78,-48.81701],[-77.5,-48.86173],[-77,-48.9054],[-76.5,-48.94802],[-76,-48.98958],[-75.5,-49.03006],[-75,-49.06947],[-74.5,-49.10779],[-74,-49.14502],[-73.5,-49.18116],[-73,-49.21618],[-72.5,-49.2501],[-72,-49.28289],[-71.5,-49.31456],[-71,-49.34509],[-70.5,-49.37447],[-70,-49.40271],[-69.5,-49.42979],[-69,-49.4557],[-68.5,-49.48043],[-68,-49.50399],[-67.5,-49.52635],[-67,-49.54752],[-66.5,-49.56748],[-66,-49.58623],[-65.5,-49.60375],[-65,-49.62005],[-64.5,-49.6351],[-64,-49.64891],[-63.5,-49.66146],[-63,-49.67274],[-62.5,-49.68275],[-62,-49.69148],[-61.5,-49.69891],[-61,-49.70504],[-60.5,-49.70987],[-60,-49.71337],[-59.5,-49.71554],[-59,-49.71637],[-58.5,-49.71586],[-58,-49.71398],[-57.5,-49.71073],[-57,-49.70611],[-56.5,-49.70009],[-56,-49.69267],[-55.5,-49.68384],[-55,-49.67359],[-54.5,-49.6619],[-54,-49.64877],[-53.5,-49.63418],[-53,-49.61813],[-52.5,-49.60059],[-52,-49.58156],[-51.5,-49.56102],[-51,-49.53897],[-50.5,-49.51539],[-50,-49.49026],[-49.5,-49.46358],[-49,-49.43533],[-48.5,-49.4055],[-48,-49.37406],[-47.5,-49.34102],[-47,-49.30635],[-46.5,-49.27005],[-46,-49.23208],[-45.5,-49.19245],[-45,-49.15113],[-44.5,-49.10811],[-44,-49.06337],[-43.5,-49.0169],[-43,-48.96868],[-42.5,-48.91869],[-42,-48.86692],[-41.5,-48.81334],[-41,-48.75795],[-40.5,-48.70072],[-40,-48.64163],[-39.5,-48.58067],[-39,-48.51781],[-38.5,-48.45305],[-38,-48.38634],[-37.5,-48.31769],[-37,-48.24706],[-36.5,-48.17444],[-36,-48.0998],[-35.5,-48.02313],[-35,-47.9444],[-34.5,-47.86358],[-34,-47.78066],[-33.5,-47.69562],[-33,-47.60843],[-32.5,-47.51906],[-32,-47.4275],[-31.5,-47.33371],[-31,-47.23768],[-30.5,-47.13938],[-30,-47.03878],[-29.5,-46.93586],[-29,-46.83059],[-28.5,-46.72295],[-28,-46.61291],[-27.5,-46.50044],[-27,-46.38551],[-26.5,-46.26811],[-26,-46.14819],[-25.5,-46.02574],[-25,-45.90072],[-24.5,-45.7731],[-24,-45.64287],[-23.5,-45.50999],[-23,-45.37443],[-22.5,-45.23616],[-22,-45.09515],[-21.5,-44.95139],[-21,-44.80483],[-20.5,-44.65545],[-20,-44.50323],[-19.5,-44.34813],[-19,-44.19014],[-18.5,-44.02921],[-18,-43.86533],[-17.5,-43.69847],[-17,-43.52861],[-16.5,-43.35571],[-16,-43.17977],[-15.5,-43.00076],[-15,-42.81865],[-14.5,-42.63343],[-14,-42.44508],[-13.5,-42.25358],[-13,-42.05892],[-12.5,-41.86109],[-12,-41.66007],[-11.5,-41.45586],[-11,-41.24845],[-10.5,-41.03783],[-10,-40.82402],[-9.5,-40.607],[-9,-40.38678],[-8.5,-40.16338],[-8,-39.93681],[-7.5,-39.70708],[-7,-39.47421],[-6.5,-39.23823],[-6,-38.99917],[-5.5,-38.75706],[-5,-38.51194],[-4.5,-38.26386],[-4,-38.01286],[-3.5,-37.759],[-3,-37.50234],[-2.5,-37.24295],[-2,-36.9809],[-1.5,-36.71626],[-1,-36.44913],[-0.5,-36.17959],[0,-35.90773],[0.5,-35.63367],[1,-35.35751],[1.5,-35.07936],[2,-34.79935],[2.5,-34.51759],[3,-34.23422],[3.5,-33.94938],[4,-33.66321],[4.5,-33.37584],[5,-33.08743],[5.5,-32.79813],[6,-32.5081],[6.5,-32.21749],[7,-31.92646],[7.5,-31.63517],[8,-31.34379],[8.5,-31.05247],[9,-30.76138],[9.5,-30.47068],[10,-30.18053],[10.5,-29.89109],[11,-29.6025],[11.5,-29.31493],[12,-29.02852],[12.5,-28.74342],[13,-28.45978],[13.5,-28.17771],[14,-27.89736],[14.5,-27.61886],[15,-27.34232],[15.5,-27.06786],[16,-26.79559],[16.5,-26.52561],[17,-26.25802],[17.5,-25.99291],[18,-25.73037],[18.5,-25.47047],[19,-25.21329],[19.5,-24.9589],[20,-24.70735],[20.5,-24.45871],[21,-24.21302],[21.5,-23.97032],[22,-23.73067],[22.5,-23.49409],[23,-23.26061],[23.5,-23.03025],[24,-22.80305],[24.5,-22.57901],[25,-22.35815],[25.5,-22.14048],[26,-21.926],[26.5,-21.71472],[27,-21.50663],[27.5,-21.30174],[28,-21.10002],[28.5,-20.90149],[29,-20.70612],[29.5,-20.51391],[30,-20.32483],[30.5,-20.13887],[31,-19.95601],[31.5,-19.77624],[32,-19.59952],[32.5,-19.42585],[33,-19.25519],[33.5,-19.08751],[34,-18.92281],[34.5,-18.76104],[35,-18.60218],[35.5,-18.4462],[36,-18.29308],[36.5,-18.14278],[37,-17.99529],[37.5,-17.85056],[38,-17.70857],[38.5,-17.56929],[39,-17.43269],[39.5,-17.29874],[40,-17.16741],[40.5,-17.03867],[41,-16.9125],[41.5,-16.78885],[42,-16.66771],[42.5,-16.54904],[43,-16.43281],[43.5,-16.31899],[44,-16.20757],[44.5,-16.0985],[45,-15.99176],[45.5,-15.88732],[46,-15.78515],[46.5,-15.68523],[47,-15.58753],[47.5,-15.49202],[48,-15.39868],[48.5,-15.30748],[49,-15.21839],[49.5,-15.13139],[50,-15.04645],[50.5,-14.96356],[51,-14.88267],[51.5,-14.80378],[52,-14.72685],[52.5,-14.65187],[53,-14.5788],[53.5,-14.50763],[54,-14.43834],[54.5,-14.3709],[55,-14.30529],[55.5,-14.24149],[55.86523,-14.19601]]}},{"type":"Feature","id":"+02300825:north:0","properties":{"id":"+02300825","year":230,"month":8,"day":25,"time_tdt":"16:53:17","type":"개기일식","type_code":"T","saros":87,"gamma":0.38175,"magnitude":1.02613,"greatest":{"lat":32.91954,"lng":-31.61591},"path_width_km":95.8,"duration":"02m20s","delta_t_seconds":8309.8,"catalog_number":5327,"source":"NASA Five Millennium Canon of Solar Eclipses","source_url":"https://eclipse.gsfc.nasa.gov/SEsearch/SEsearchmap.php?Ecl=%2B02300825","boundary":"north","name":"230-08-25 개기일식"},"geometry":{"type":"LineString","coordinates":[[-112.50586,37.27049],[-112.5,37.27169],[-112,37.3742],[-111.5,37.47589],[-111,37.57676],[-110.5,37.6768],[-110,37.77598],[-109.5,37.87431],[-109,37.97176],[-108.5,38.06833],[-108,38.164],[-107.5,38.25877],[-107,38.35261],[-106.5,38.44553],[-106,38.5375],[-105.5,38.62851],[-105,38.71855],[-104.5,38.80761],[-104,38.89568],[-103.5,38.98275],[-103,39.06879],[-102.5,39.15381],[-102,39.23778],[-101.5,39.3207],[-101,39.40256],[-100.5,39.48333],[-100,39.56302],[-99.5,39.6416],[-99,39.71907],[-98.5,39.79541],[-98,39.8706],[-97.5,39.94465],[-97,40.01753],[-96.5,40.08923],[-96,40.15974],[-95.5,40.22905],[-95,40.29714],[-94.5,40.36401],[-94,40.42963],[-93.5,40.494],[-93,40.55711],[-92.5,40.61893],[-92,40.67947],[-91.5,40.7387],[-91,40.79662],[-90.5,40.8532],[-90,40.90844],[-89.5,40.96233],[-89,41.01484],[-88.5,41.06598],[-88,41.11571],[-87.5,41.16404],[-87,41.21095],[-86.5,41.25642],[-86,41.30045],[-85.5,41.34301],[-85,41.38409],[-84.5,41.42369],[-84,41.46178],[-83.5,41.49835],[-83,41.53339],[-82.5,41.56689],[-82,41.59883],[-81.5,41.62919],[-81,41.65796],[-80.5,41.68513],[-80,41.71068],[-79.5,41.7346],[-79,41.75687],[-78.5,41.77747],[-78,41.7964],[-77.5,41.81363],[-77,41.82915],[-76.5,41.84295],[-76,41.85501],[-75.5,41.8653],[-75,41.87383],[-74.5,41.88056],[-74,41.88549],[-73.5,41.88859],[-73,41.88985],[-72.5,41.88925],[-72,41.88677],[-71.5,41.8824],[-71,41.87612],[-70.5,41.8679],[-70,41.85774],[-69.5,41.84561],[-69,41.83149],[-68.5,41.81536],[-68,41.79721],[-67.5,41.77701],[-67,41.75475],[-66.5,41.7304],[-66,41.70394],[-65.5,41.67535],[-65,41.64462],[-64.5,41.61171],[-64,41.57661],[-63.5,41.53929],[-63,41.49973],[-62.5,41.45792],[-62,41.41381],[-61.5,41.3674],[-61,41.31866],[-60.5,41.26756],[-60,41.21408],[-59.5,41.15819],[-59,41.09987],[-58.5,41.0391],[-58,40.97584],[-57.5,40.91007],[-57,40.84177],[-56.5,40.7709],[-56,40.69745],[-55.5,40.62137],[-55,40.54265],[-54.5,40.46126],[-54,40.37716],[-53.5,40.29034],[-53,40.20075],[-52.5,40.10838],[-52,40.01319],[-51.5,39.91515],[-51,39.81424],[-50.5,39.71042],[-50,39.60367],[-49.5,39.49394],[-49,39.38123],[-48.5,39.26549],[-48,39.14669],[-47.5,39.02481],[-47,38.89981],[-46.5,38.77168],[-46,38.64037],[-45.5,38.50586],[-45,38.36813],[-44.5,38.22714],[-44,38.08287],[-43.5,37.93529],[-43,37.78438],[-42.5,37.63012],[-42,37.47247],[-41.5,37.31143],[-41,37.14696],[-40.5,36.97905],[-40,36.80768],[-39.5,36.63284],[-39,36.45451],[-38.5,36.27268],[-38,36.08734],[-37.5,35.89848],[-37,35.7061],[-36.5,35.51019],[-36,35.31076],[-35.5,35.10781],[-35,34.90134],[-34.5,34.69138],[-34,34.47792],[-33.5,34.26099],[-33,34.04061],[-32.5,33.81681],[-32,33.58962],[-31.5,33.35907],[-31,33.1252],[-30.5,32.88806],[-30,32.6477],[-29.5,32.40418],[-29,32.15754],[-28.5,31.90787],[-28,31.65522],[-27.5,31.39968],[-27,31.14133],[-26.5,30.88026],[-26,30.61655],[-25.5,30.35032],[-25,30.08165],[-24.5,29.81066],[-24,29.53746],[-23.5,29.26217],[-23,28.98491],[-22.5,28.70581],[-22,28.425],[-21.5,28.14261],[-21,27.85878],[-20.5,27.57365],[-20,27.28736],[-19.5,27.00006],[-19,26.71189],[-18.5,26.42299],[-18,26.13352],[-17.5,25.84363],[-17,25.55345],[-16.5,25.26314],[-16,24.97284],[-15.5,24.6827],[-15,24.39285],[-14.5,24.10344],[-14,23.8146],[-13.5,23.52646],[-13,23.23916],[-12.5,22.95283],[-12,22.66757],[-11.5,22.38351],[-11,22.10077],[-10.5,21.81945],[-10,21.53966],[-9.5,21.2615],[-9,20.98506],[-8.5,20.71042],[-8,20.43769],[-7.5,20.16692],[-7,19.89821],[-6.5,19.63162],[-6,19.36721],[-5.5,19.10504],[-5,18.84518],[-4.5,18.58767],[-4,18.33256],[-3.5,18.07989],[-3,17.8297],[-2.5,17.58203],[-2,17.3369],[-1.5,17.09435],[-1,16.85439],[-0.5,16.61706],[0,16.38235],[0.5,16.1503],[1,15.92091],[1.5,15.69418],[2,15.47014],[2.5,15.24877],[3,15.03009],[3.5,14.81409],[4,14.60077],[4.5,14.39012],[5,14.18215],[5.5,13.97683],[6,13.77417],[6.5,13.57415],[7,13.37677],[7.5,13.182],[8,12.98985],[8.5,12.80028],[9,12.61329],[9.5,12.42885],[10,12.24696],[10.5,12.0676],[11,11.89074],[11.5,11.71637],[12,11.54447],[12.5,11.37503],[13,11.20801],[13.5,11.0434],[14,10.88118],[14.5,10.72133],[15,10.56382],[15.5,10.40865],[16,10.25577],[16.5,10.10519],[17,9.95687],[17.5,9.81079],[18,9.66693],[18.5,9.52527],[19,9.38579],[19.5,9.24847],[20,9.11328],[20.5,8.98021],[21,8.84924],[21.5,8.72034],[22,8.5935],[22.5,8.46868],[23,8.34589],[23.5,8.22508],[24,8.10625],[24.5,7.98938],[25,7.87444],[25.5,7.76141],[26,7.65028],[26.5,7.54103],[27,7.43363],[27.5,7.32808],[28,7.22435],[28.20312,7.18273]]}},{"type":"Feature","id":"+02300825:center:0","properties":{"id":"+02300825","year":230,"month":8,"day":25,"time_tdt":"16:53:17","type":"개기일식","type_code":"T","saros":87,"gamma":0.38175,"magnitude":1.02613,"greatest":{"lat":32.91954,"lng":-31.61591},"path_width_km":95.8,"duration":"02m20s","delta_t_seconds":8309.8,"catalog_number":5327,"source":"NASA Five Millennium Canon of Solar Eclipses","source_url":"https://eclipse.gsfc.nasa.gov/SEsearch/SEsearchmap.php?Ecl=%2B02300825","boundary":"center","name":"230-08-25 개기일식"},"geometry":{"type":"LineString","coordinates":[[-112.38885,37.11824],[-112,37.1795],[-111.5,37.27911],[-111,37.3779],[-110.5,37.47586],[-110,37.57298],[-109.5,37.66924],[-109,37.76464],[-108.5,37.85916],[-108,37.95278],[-107.5,38.04551],[-107,38.13732],[-106.5,38.2282],[-106,38.31815],[-105.5,38.40714],[-105,38.49517],[-104.5,38.58223],[-104,38.6683],[-103.5,38.75338],[-103,38.83744],[-102.5,38.92048],[-102,39.00249],[-101.5,39.08345],[-101,39.16335],[-100.5,39.24217],[-100,39.31992],[-99.5,39.39657],[-99,39.4721],[-98.5,39.54652],[-98,39.61981],[-97.5,39.69195],[-97,39.76293],[-96.5,39.83275],[-96,39.90138],[-95.5,39.96881],[-95,40.03504],[-94.5,40.10005],[-94,40.16382],[-93.5,40.22635],[-93,40.28762],[-92.5,40.34761],[-92,40.40633],[-91.5,40.46375],[-91,40.51985],[-90.5,40.57464],[-90,40.62809],[-89.5,40.68019],[-89,40.73093],[-88.5,40.78029],[-88,40.82826],[-87.5,40.87484],[-87,40.91999],[-86.5,40.96372],[-86,41.00601],[-85.5,41.04684],[-85,41.08619],[-84.5,41.12407],[-84,41.16045],[-83.5,41.19531],[-83,41.22865],[-82.5,41.26045],[-82,41.29069],[-81.5,41.31936],[-81,41.34645],[-80.5,41.37194],[-80,41.39582],[-79.5,41.41807],[-79,41.43867],[-78.5,41.45761],[-78,41.47488],[-77.5,41.49045],[-77,41.50432],[-76.5,41.51647],[-76,41.52687],[-75.5,41.53552],[-75,41.5424],[-74.5,41.54749],[-74,41.55077],[-73.5,41.55223],[-73,41.55185],[-72.5,41.54961],[-72,41.54549],[-71.5,41.53948],[-71,41.53155],[-70.5,41.52169],[-70,41.50989],[-69.5,41.49611],[-69,41.48034],[-68.5,41.46256],[-68,41.44276],[-67.5,41.42091],[-67,41.39698],[-66.5,41.37097],[-66,41.34284],[-65.5,41.31258],[-65,41.28017],[-64.5,41.24558],[-64,41.20879],[-63.5,41.16978],[-63,41.12852],[-62.5,41.085],[-62,41.03918],[-61.5,40.99105],[-61,40.94057],[-60.5,40.88774],[-60,40.83251],[-59.5,40.77487],[-59,40.71479],[-58.5,40.65224],[-58,40.5872],[-57.5,40.51964],[-57,40.44953],[-56.5,40.37685],[-56,40.30156],[-55.5,40.22365],[-55,40.14308],[-54.5,40.05983],[-54,39.97386],[-53.5,39.88515],[-53,39.79367],[-52.5,39.69939],[-52,39.60228],[-51.5,39.5023],[-51,39.39944],[-50.5,39.29366],[-50,39.18493],[-49.5,39.07322],[-49,38.95851],[-48.5,38.84075],[-48,38.71993],[-47.5,38.59601],[-47,38.46897],[-46.5,38.33877],[-46,38.2054],[-45.5,38.06881],[-45,37.92898],[-44.5,37.7859],[-44,37.63952],[-43.5,37.48983],[-43,37.3368],[-42.5,37.18041],[-42,37.02063],[-41.5,36.85745],[-41,36.69085],[-40.5,36.52081],[-40,36.34732],[-39.5,36.17035],[-39,35.9899],[-38.5,35.80596],[-38,35.61852],[-37.5,35.42758],[-37,35.23312],[-36.5,35.03517],[-36,34.83371],[-35.5,34.62875],[-35,34.42032],[-34.5,34.20841],[-34,33.99304],[-33.5,33.77425],[-33,33.55205],[-32.5,33.32648],[-32,33.09757],[-31.5,32.86536],[-31,32.62989],[-30.5,32.39122],[-30,32.1494],[-29.5,31.90449],[-29,31.65655],[-28.5,31.40566],[-28,31.15189],[-27.5,30.89533],[-27,30.63605],[-26.5,30.37416],[-26,30.10974],[-25.5,29.84291],[-25,29.57377],[-24.5,29.30243],[-24,29.02901],[-23.5,28.75363],[-23,28.47642],[-22.5,28.19751],[-22,27.91703],[-21.5,27.63511],[-21,27.3519],[-20.5,27.06754],[-20,26.78216],[-19.5,26.49593],[-19,26.20897],[-18.5,25.92144],[-18,25.63348],[-17.5,25.34525],[-17,25.05688],[-16.5,24.76852],[-16,24.48032],[-15.5,24.19241],[-15,23.90493],[-14.5,23.61802],[-14,23.33181],[-13.5,23.04643],[-13,22.76201],[-12.5,22.47866],[-12,22.19651],[-11.5,21.91567],[-11,21.63624],[-10.5,21.35833],[-10,21.08204],[-9.5,20.80746],[-9,20.53469],[-8.5,20.2638],[-8,19.99487],[-7.5,19.72799],[-7,19.46321],[-6.5,19.20062],[-6,18.94025],[-5.5,18.68218],[-5,18.42644],[-4.5,18.1731],[-4,17.92219],[-3.5,17.67375],[-3,17.42781],[-2.5,17.18441],[-2,16.94357],[-1.5,16.70532],[-1,16.46967],[-0.5,16.23665],[0,16.00627],[0.5,15.77853],[1,15.55346],[1.5,15.33105],[2,15.11132],[2.5,14.89425],[3,14.67986],[3.5,14.46813],[4,14.25907],[4.5,14.05267],[5,13.84892],[5.5,13.64782],[6,13.44935],[6.5,13.2535],[7,13.06026],[7.5,12.86961],[8,12.68155],[8.5,12.49605],[9,12.31311],[9.5,12.13269],[10,11.95479],[10.5,11.7794],[11,11.60647],[11.5,11.43601],[12,11.26799],[12.5,11.10239],[13,10.9392],[13.5,10.77838],[14,10.61992],[14.5,10.4638],[15,10.31],[15.5,10.15849],[16,10.00927],[16.5,9.86229],[17,9.71755],[17.5,9.57503],[18,9.43469],[18.5,9.29653],[19,9.16051],[19.5,9.02662],[20,8.89485],[20.5,8.76515],[21,8.63753],[21.5,8.51195],[22,8.38839],[22.5,8.26685],[23,8.14728],[23.5,8.02968],[24,7.91403],[24.5,7.80031],[25,7.68849],[25.5,7.57856],[26,7.47051],[26.5,7.3643],[27,7.25992],[27.5,7.15736],[28,7.0566],[28.1425,7.03056]]}},{"type":"Feature","id":"+02300825:south:0","properties":{"id":"+02300825","year":230,"month":8,"day":25,"time_tdt":"16:53:17","type":"개기일식","type_code":"T","saros":87,"gamma":0.38175,"magnitude":1.02613,"greatest":{"lat":32.91954,"lng":-31.61591},"path_width_km":95.8,"duration":"02m20s","delta_t_seconds":8309.8,"catalog_number":5327,"source":"NASA Five Millennium Canon of Solar Eclipses","source_url":"https://eclipse.gsfc.nasa.gov/SEsearch/SEsearchmap.php?Ecl=%2B02300825","boundary":"south","name":"230-08-25 개기일식"},"geometry":{"type":"LineString","coordinates":[[-112.32031,36.92296],[-112,36.98587],[-111.5,37.0834],[-111,37.18012],[-110.5,37.27601],[-110,37.37107],[-109.5,37.46527],[-109,37.55861],[-108.5,37.65108],[-108,37.74266],[-107.5,37.83334],[-107,37.92312],[-106.5,38.01197],[-106,38.0999],[-105.5,38.18688],[-105,38.2729],[-104.5,38.35795],[-104,38.44202],[-103.5,38.52511],[-103,38.60718],[-102.5,38.68824],[-102,38.76828],[-101.5,38.84727],[-101,38.92521],[-100.5,39.00208],[-100,39.07788],[-99.5,39.15259],[-99,39.2262],[-98.5,39.2987],[-98,39.37006],[-97.5,39.44029],[-97,39.50937],[-96.5,39.57729],[-96,39.64403],[-95.5,39.70958],[-95,39.77394],[-94.5,39.83708],[-94,39.89899],[-93.5,39.95966],[-93,40.01909],[-92.5,40.07725],[-92,40.13413],[-91.5,40.18972],[-91,40.24401],[-90.5,40.29699],[-90,40.34863],[-89.5,40.39893],[-89,40.44788],[-88.5,40.49546],[-88,40.54165],[-87.5,40.58646],[-87,40.62985],[-86.5,40.67182],[-86,40.71235],[-85.5,40.75143],[-85,40.78905],[-84.5,40.82519],[-84,40.85983],[-83.5,40.89297],[-83,40.92459],[-82.5,40.95467],[-82,40.9832],[-81.5,41.01017],[-81,41.03556],[-80.5,41.05935],[-80,41.08153],[-79.5,41.10209],[-79,41.12101],[-78.5,41.13827],[-78,41.15385],[-77.5,41.16775],[-77,41.17995],[-76.5,41.19042],[-76,41.19916],[-75.5,41.20614],[-75,41.21135],[-74.5,41.21477],[-74,41.21639],[-73.5,41.21618],[-73,41.21414],[-72.5,41.21023],[-72,41.20445],[-71.5,41.19678],[-71,41.18719],[-70.5,41.17566],[-70,41.16219],[-69.5,41.14674],[-69,41.1293],[-68.5,41.10985],[-68,41.08837],[-67.5,41.06484],[-67,41.03923],[-66.5,41.01153],[-66,40.98171],[-65.5,40.94975],[-65,40.91564],[-64.5,40.87934],[-64,40.84084],[-63.5,40.80011],[-63,40.75713],[-62.5,40.71188],[-62,40.66432],[-61.5,40.61444],[-61,40.56222],[-60.5,40.50762],[-60,40.45062],[-59.5,40.3912],[-59,40.32933],[-58.5,40.26499],[-58,40.19814],[-57.5,40.12876],[-57,40.05682],[-56.5,39.9823],[-56,39.90517],[-55.5,39.8254],[-55,39.74296],[-54.5,39.65782],[-54,39.56996],[-53.5,39.47934],[-53,39.38594],[-52.5,39.28972],[-52,39.19066],[-51.5,39.08873],[-51,38.9839],[-50.5,38.87614],[-50,38.76541],[-49.5,38.6517],[-49,38.53496],[-48.5,38.41517],[-48,38.29231],[-47.5,38.16634],[-47,38.03723],[-46.5,37.90495],[-46,37.76949],[-45.5,37.63081],[-45,37.48888],[-44.5,37.34367],[-44,37.19518],[-43.5,37.04336],[-43,36.8882],[-42.5,36.72967],[-42,36.56776],[-41.5,36.40245],[-41,36.23371],[-40.5,36.06153],[-40,35.8859],[-39.5,35.70681],[-39,35.52425],[-38.5,35.3382],[-38,35.14867],[-37.5,34.95565],[-37,34.75914],[-36.5,34.55915],[-36,34.35568],[-35.5,34.14875],[-35,33.93836],[-34.5,33.72453],[-34,33.5073],[-33.5,33.28667],[-33,33.06269],[-32.5,32.83539],[-32,32.60481],[-31.5,32.37098],[-31,32.13397],[-30.5,31.89383],[-30,31.6506],[-29.5,31.40437],[-29,31.1552],[-28.5,30.90317],[-28,30.64835],[-27.5,30.39084],[-27,30.13072],[-26.5,29.86809],[-26,29.60306],[-25.5,29.33573],[-25,29.06621],[-24.5,28.79463],[-24,28.52109],[-23.5,28.24573],[-23,27.96868],[-22.5,27.69006],[-22,27.41002],[-21.5,27.12869],[-21,26.84621],[-20.5,26.56272],[-20,26.27837],[-19.5,25.99331],[-19,25.70768],[-18.5,25.42162],[-18,25.13529],[-17.5,24.84882],[-17,24.56236],[-16.5,24.27605],[-16,23.99003],[-15.5,23.70445],[-15,23.41943],[-14.5,23.1351],[-14,22.85161],[-13.5,22.56906],[-13,22.28758],[-12.5,22.0073],[-12,21.72831],[-11.5,21.45074],[-11,21.17467],[-10.5,20.90022],[-10,20.62747],[-9.5,20.35652],[-9,20.08744],[-8.5,19.82032],[-8,19.55523],[-7.5,19.29225],[-7,19.03142],[-6.5,18.77283],[-6,18.51651],[-5.5,18.26253],[-5,18.01093],[-4.5,17.76174],[-4,17.51502],[-3.5,17.27079],[-3,17.02909],[-2.5,16.78994],[-2,16.55337],[-1.5,16.3194],[-1,16.08803],[-0.5,15.8593],[0,15.63321],[0.5,15.40977],[1,15.18898],[1.5,14.97085],[2,14.75539],[2.5,14.54259],[3,14.33244],[3.5,14.12495],[4,13.92012],[4.5,13.71792],[5,13.51836],[5.5,13.32142],[6,13.12709],[6.5,12.93537],[7,12.74623],[7.5,12.55966],[8,12.37565],[8.5,12.19419],[9,12.01524],[9.5,11.8388],[10,11.66486],[10.5,11.49338],[11,11.32435],[11.5,11.15776],[12,10.99357],[12.5,10.83178],[13,10.67236],[13.5,10.5153],[14,10.36056],[14.5,10.20813],[15,10.05799],[15.5,9.91012],[16,9.7645],[16.5,9.6211],[17,9.4799],[17.5,9.34089],[18,9.20404],[18.5,9.06934],[19,8.93675],[19.5,8.80626],[20,8.67786],[20.5,8.55151],[21,8.4272],[21.5,8.3049],[22,8.18461],[22.5,8.06629],[23,7.94993],[23.5,7.83551],[24,7.72301],[24.5,7.61241],[25,7.50369],[25.5,7.39683],[26,7.29181],[26.5,7.18862],[27,7.08724],[27.5,6.98765],[28,6.88982]]}}],"attribution":"Eclipse Predictions by Fred Espenak and Jean Meeus (NASA's GSFC)","generated_at":"2026-09-23T01:44:47.169Z"}
