{"type":"FeatureCollection","year":233,"events":[{"id":"+02330625","year":233,"month":6,"day":25,"time_tdt":"03:34:11","type":"금환일식","type_code":"A","saros":79,"gamma":0.00614,"magnitude":0.99046,"greatest":{"lat":24.14483,"lng":160.5191},"path_width_km":33.6,"duration":"01m04s","delta_t_seconds":8282.9,"catalog_number":5334,"source":"NASA Five Millennium Canon of Solar Eclipses","source_url":"https://eclipse.gsfc.nasa.gov/SEsearch/SEsearchmap.php?Ecl=%2B02330625"},{"id":"+02331218","year":233,"month":12,"day":18,"time_tdt":"18:17:54","type":"개기일식","type_code":"T","saros":84,"gamma":-0.41611,"magnitude":1.02488,"greatest":{"lat":-48.22724,"lng":-63.97565},"path_width_km":93.1,"duration":"02m00s","delta_t_seconds":8278.3,"catalog_number":5335,"source":"NASA Five Millennium Canon of Solar Eclipses","source_url":"https://eclipse.gsfc.nasa.gov/SEsearch/SEsearchmap.php?Ecl=%2B02331218"}],"features":[{"type":"Feature","id":"+02330625:north:0","properties":{"id":"+02330625","year":233,"month":6,"day":25,"time_tdt":"03:34:11","type":"금환일식","type_code":"A","saros":79,"gamma":0.00614,"magnitude":0.99046,"greatest":{"lat":24.14483,"lng":160.5191},"path_width_km":33.6,"duration":"01m04s","delta_t_seconds":8282.9,"catalog_number":5334,"source":"NASA Five Millennium Canon of Solar Eclipses","source_url":"https://eclipse.gsfc.nasa.gov/SEsearch/SEsearchmap.php?Ecl=%2B02330625","boundary":"north","name":"233-06-25 금환일식"},"geometry":{"type":"LineString","coordinates":[[100.39844,-3.77713],[100.5,-3.73286],[101,-3.51399],[101.5,-3.29354],[102,-3.07149],[102.5,-2.84785],[103,-2.62261],[103.5,-2.39578],[104,-2.16734],[104.5,-1.93731],[105,-1.70568],[105.5,-1.47244],[106,-1.2376],[106.5,-1.00117],[107,-0.76314],[107.5,-0.52351],[108,-0.28228],[108.5,-0.03947],[109,0.20492],[109.5,0.45089],[110,0.69843],[110.5,0.94754],[111,1.1982],[111.5,1.45041],[112,1.70415],[112.5,1.95942],[113,2.2162],[113.5,2.47447],[114,2.73423],[114.5,2.99544],[115,3.25811],[115.5,3.52219],[116,3.78768],[116.5,4.05455],[117,4.32277],[117.5,4.59232],[118,4.86317],[118.5,5.13528],[119,5.40862],[119.5,5.68317],[120,5.95887],[120.5,6.23569],[121,6.51359],[121.5,6.79253],[122,7.07244],[122.5,7.3533],[123,7.63504],[123.5,7.9176],[124,8.20094],[124.5,8.48498],[125,8.76967],[125.5,9.05493],[126,9.3407],[126.5,9.6269],[127,9.91346],[127.5,10.20029],[128,10.48732],[128.5,10.77446],[129,11.06162],[129.5,11.34871],[130,11.63562],[130.5,11.92227],[131,12.20855],[131.5,12.49436],[132,12.77959],[132.5,13.06413],[133,13.34787],[133.5,13.63069],[134,13.91247],[134.5,14.1931],[135,14.47245],[135.5,14.75039],[136,15.02681],[136.5,15.30158],[137,15.57456],[137.5,15.84562],[138,16.11465],[138.5,16.3815],[139,16.64604],[139.5,16.90815],[140,17.16769],[140.5,17.42454],[141,17.67855],[141.5,17.92961],[142,18.17759],[142.5,18.42236],[143,18.66379],[143.5,18.90177],[144,19.13618],[144.5,19.3669],[145,19.59381],[145.5,19.81681],[146,20.03579],[146.5,20.25065],[147,20.46127],[147.5,20.66758],[148,20.86947],[148.5,21.06686],[149,21.25966],[149.5,21.44779],[150,21.63117],[150.5,21.80974],[151,21.98342],[151.5,22.15216],[152,22.31589],[152.5,22.47455],[153,22.6281],[153.5,22.77649],[154,22.91968],[154.5,23.05763],[155,23.1903],[155.5,23.31767],[156,23.4397],[156.5,23.55638],[157,23.66768],[157.5,23.77359],[158,23.87409],[158.5,23.96919],[159,24.05886],[159.5,24.14311],[160,24.22193],[160.5,24.29533],[161,24.36332],[161.5,24.4259],[162,24.48308],[162.5,24.53487],[163,24.58129],[163.5,24.62236],[164,24.65809],[164.5,24.68851],[165,24.71364],[165.5,24.73351],[166,24.74813],[166.5,24.75755],[167,24.76178],[167.5,24.76087],[168,24.75484],[168.5,24.74373],[169,24.72758],[169.5,24.70643],[170,24.68031],[170.5,24.64926],[171,24.61333],[171.5,24.57256],[172,24.52699],[172.5,24.47668],[173,24.42166],[173.5,24.36199],[174,24.29771],[174.5,24.22887],[175,24.15554],[175.5,24.07775],[176,23.99557],[176.5,23.90905],[177,23.81824],[177.5,23.72321],[178,23.624],[178.5,23.52069],[179,23.41332],[179.5,23.30197],[180,23.18668]]}},{"type":"Feature","id":"+02330625:north:1","properties":{"id":"+02330625","year":233,"month":6,"day":25,"time_tdt":"03:34:11","type":"금환일식","type_code":"A","saros":79,"gamma":0.00614,"magnitude":0.99046,"greatest":{"lat":24.14483,"lng":160.5191},"path_width_km":33.6,"duration":"01m04s","delta_t_seconds":8282.9,"catalog_number":5334,"source":"NASA Five Millennium Canon of Solar Eclipses","source_url":"https://eclipse.gsfc.nasa.gov/SEsearch/SEsearchmap.php?Ecl=%2B02330625","boundary":"north","name":"233-06-25 금환일식"},"geometry":{"type":"LineString","coordinates":[[-179.5,23.06754],[-179,22.94459],[-178.5,22.81791],[-178,22.68756],[-177.5,22.5536],[-177,22.41611],[-176.5,22.27514],[-176,22.13078],[-175.5,21.98308],[-175,21.83212],[-174.5,21.67797],[-174,21.5207],[-173.5,21.36037],[-173,21.19707],[-172.5,21.03086],[-172,20.86181],[-171.5,20.69],[-171,20.5155],[-170.5,20.33837],[-170,20.15871],[-169.5,19.97657],[-169,19.79202],[-168.5,19.60515],[-168,19.41602],[-167.5,19.22471],[-167,19.03128],[-166.5,18.83581],[-166,18.63837],[-165.5,18.43903],[-165,18.23786],[-164.5,18.03493],[-164,17.83031],[-163.5,17.62406],[-163,17.41625],[-162.5,17.20696],[-162,16.99624],[-161.5,16.78417],[-161,16.5708],[-160.5,16.3562],[-160,16.14043],[-159.5,15.92356],[-159,15.70564],[-158.5,15.48673],[-158,15.2669],[-157.5,15.0462],[-157,14.82469],[-156.5,14.60242],[-156,14.37944],[-155.5,14.15582],[-155,13.9316],[-154.5,13.70683],[-154,13.48156],[-153.5,13.25585],[-153,13.02974],[-152.5,12.80328],[-152,12.5765],[-151.5,12.34947],[-151,12.12221],[-150.5,11.89477],[-150,11.6672],[-149.5,11.43953],[-149,11.2118],[-148.5,10.98405],[-148,10.75631],[-147.5,10.52863],[-147,10.30103],[-146.5,10.07355],[-146,9.84622],[-145.5,9.61908],[-145,9.39214],[-144.5,9.16545],[-144,8.93903],[-143.5,8.71291],[-143,8.48712],[-142.5,8.26168],[-142,8.03661],[-141.5,7.81195],[-141,7.58771],[-140.5,7.36392],[-140,7.14059],[-139.5,6.91775],[-139,6.69542],[-138.5,6.47363],[-138,6.25237],[-137.5,6.03169],[-137,5.81158],[-136.5,5.59208],[-136,5.37319],[-135.5,5.15493],[-135.39258,5.10812]]}},{"type":"Feature","id":"+02330625:center:0","properties":{"id":"+02330625","year":233,"month":6,"day":25,"time_tdt":"03:34:11","type":"금환일식","type_code":"A","saros":79,"gamma":0.00614,"magnitude":0.99046,"greatest":{"lat":24.14483,"lng":160.5191},"path_width_km":33.6,"duration":"01m04s","delta_t_seconds":8282.9,"catalog_number":5334,"source":"NASA Five Millennium Canon of Solar Eclipses","source_url":"https://eclipse.gsfc.nasa.gov/SEsearch/SEsearchmap.php?Ecl=%2B02330625","boundary":"center","name":"233-06-25 금환일식"},"geometry":{"type":"LineString","coordinates":[[100.60414,-4.15888],[101,-3.98575],[101.5,-3.76311],[102,-3.53887],[102.5,-3.31301],[103,-3.08554],[103.5,-2.85645],[104,-2.62573],[104.5,-2.3934],[105,-2.15944],[105.5,-1.92385],[106,-1.68665],[106.5,-1.44782],[107,-1.20737],[107.5,-0.9653],[108,-0.72161],[108.5,-0.47631],[109,-0.22941],[109.5,0.0191],[110,0.26921],[110.5,0.5209],[111,0.77418],[111.5,1.02902],[112,1.28543],[112.5,1.54339],[113,1.80288],[113.5,2.0639],[114,2.32642],[114.5,2.59044],[115,2.85592],[115.5,3.12286],[116,3.39123],[116.5,3.661],[117,3.93215],[117.5,4.20466],[118,4.47849],[118.5,4.75362],[119,5.03001],[119.5,5.30762],[120,5.58642],[120.5,5.86637],[121,6.14742],[121.5,6.42953],[122,6.71265],[122.5,6.99673],[123,7.28172],[123.5,7.56756],[124,7.8542],[124.5,8.14157],[125,8.4296],[125.5,8.71824],[126,9.0074],[126.5,9.29702],[127,9.58701],[127.5,9.87729],[128,10.16779],[128.5,10.45841],[129,10.74907],[129.5,11.03967],[130,11.33011],[130.5,11.62029],[131,11.91012],[131.5,12.19948],[132,12.48826],[132.5,12.77636],[133,13.06365],[133.5,13.35002],[134,13.63536],[134.5,13.91953],[135,14.20242],[135.5,14.48389],[136,14.76383],[136.5,15.04209],[137,15.31856],[137.5,15.59308],[138,15.86555],[138.5,16.13581],[139,16.40374],[139.5,16.66919],[140,16.93205],[140.5,17.19217],[141,17.44943],[141.5,17.70369],[142,17.95482],[142.5,18.20269],[143,18.44718],[143.5,18.68817],[144,18.92553],[144.5,19.15914],[145,19.38889],[145.5,19.61466],[146,19.83635],[146.5,20.05385],[147,20.26706],[147.5,20.47588],[148,20.68021],[148.5,20.87997],[149,21.07507],[149.5,21.26542],[150,21.45096],[150.5,21.6316],[151,21.80728],[151.5,21.97793],[152,22.1435],[152.5,22.30393],[153,22.45917],[153.5,22.60916],[154,22.75387],[154.5,22.89327],[155,23.0273],[155.5,23.15595],[156,23.27919],[156.5,23.39699],[157,23.50934],[157.5,23.61621],[158,23.71761],[158.5,23.8135],[159,23.9039],[159.5,23.9888],[160,24.06819],[160.5,24.14209],[161,24.21049],[161.5,24.27341],[162,24.33085],[162.5,24.38283],[163,24.42936],[163.5,24.47046],[164,24.50616],[164.5,24.53646],[165,24.5614],[165.5,24.58101],[166,24.5953],[166.5,24.60431],[167,24.60807],[167.5,24.60661],[168,24.59997],[168.5,24.58818],[169,24.57127],[169.5,24.54929],[170,24.52228],[170.5,24.49027],[171,24.45332],[171.5,24.41145],[172,24.36473],[172.5,24.31319],[173,24.25689],[173.5,24.19586],[174,24.13017],[174.5,24.05986],[175,23.98499],[175.5,23.90561],[176,23.82177],[176.5,23.73353],[177,23.64094],[177.5,23.54407],[178,23.44298],[178.5,23.33771],[179,23.22834],[179.5,23.11493],[180,22.99754]]}},{"type":"Feature","id":"+02330625:center:1","properties":{"id":"+02330625","year":233,"month":6,"day":25,"time_tdt":"03:34:11","type":"금환일식","type_code":"A","saros":79,"gamma":0.00614,"magnitude":0.99046,"greatest":{"lat":24.14483,"lng":160.5191},"path_width_km":33.6,"duration":"01m04s","delta_t_seconds":8282.9,"catalog_number":5334,"source":"NASA Five Millennium Canon of Solar Eclipses","source_url":"https://eclipse.gsfc.nasa.gov/SEsearch/SEsearchmap.php?Ecl=%2B02330625","boundary":"center","name":"233-06-25 금환일식"},"geometry":{"type":"LineString","coordinates":[[-179.5,22.87623],[-179,22.75107],[-178.5,22.62213],[-178,22.48946],[-177.5,22.35314],[-177,22.21324],[-176.5,22.06982],[-176,21.92296],[-175.5,21.77272],[-175,21.61918],[-174.5,21.46241],[-174,21.30247],[-173.5,21.13944],[-173,20.9734],[-172.5,20.80441],[-172,20.63256],[-171.5,20.45791],[-171,20.28053],[-170.5,20.10051],[-170,19.91791],[-169.5,19.73281],[-169,19.54528],[-168.5,19.3554],[-168,19.16324],[-167.5,18.96888],[-167,18.77238],[-166.5,18.57382],[-166,18.37327],[-165.5,18.1708],[-165,17.96649],[-164.5,17.76041],[-164,17.55262],[-163.5,17.3432],[-163,17.13221],[-162.5,16.91973],[-162,16.70581],[-161.5,16.49054],[-161,16.27396],[-160.5,16.05615],[-160,15.83717],[-159.5,15.61708],[-159,15.39595],[-158.5,15.17383],[-158,14.95079],[-157.5,14.72689],[-157,14.50217],[-156.5,14.2767],[-156,14.05054],[-155.5,13.82373],[-155,13.59634],[-154.5,13.3684],[-154,13.13998],[-153.5,12.91112],[-153,12.68187],[-152.5,12.45228],[-152,12.2224],[-151.5,11.99226],[-151,11.76192],[-150.5,11.53141],[-150,11.30078],[-149.5,11.07007],[-149,10.83931],[-148.5,10.60855],[-148,10.37782],[-147.5,10.14716],[-147,9.9166],[-146.5,9.68617],[-146,9.45592],[-145.5,9.22586],[-145,8.99604],[-144.5,8.76648],[-144,8.53721],[-143.5,8.30825],[-143,8.07964],[-142.5,7.8514],[-142,7.62356],[-141.5,7.39614],[-141,7.16916],[-140.5,6.94264],[-140,6.71662],[-139.5,6.4911],[-139,6.26611],[-138.5,6.04167],[-138,5.8178],[-137.5,5.59451],[-137,5.37183],[-136.5,5.14976],[-136,4.92833],[-135.5915,4.74779]]}},{"type":"Feature","id":"+02330625:south:0","properties":{"id":"+02330625","year":233,"month":6,"day":25,"time_tdt":"03:34:11","type":"금환일식","type_code":"A","saros":79,"gamma":0.00614,"magnitude":0.99046,"greatest":{"lat":24.14483,"lng":160.5191},"path_width_km":33.6,"duration":"01m04s","delta_t_seconds":8282.9,"catalog_number":5334,"source":"NASA Five Millennium Canon of Solar Eclipses","source_url":"https://eclipse.gsfc.nasa.gov/SEsearch/SEsearchmap.php?Ecl=%2B02330625","boundary":"south","name":"233-06-25 금환일식"},"geometry":{"type":"LineString","coordinates":[[100.81836,-4.54022],[101,-4.45896],[101.5,-4.23416],[102,-4.00773],[102.5,-3.77967],[103,-3.54997],[103.5,-3.31862],[104,-3.08564],[104.5,-2.85101],[105,-2.61473],[105.5,-2.37681],[106,-2.13724],[106.5,-1.89603],[107,-1.65317],[107.5,-1.40867],[108,-1.16252],[108.5,-0.91474],[109,-0.66533],[109.5,-0.41429],[110,-0.16163],[110.5,0.09264],[111,0.34852],[111.5,0.606],[112,0.86507],[112.5,1.12571],[113,1.38792],[113.5,1.65167],[114,1.91696],[114.5,2.18377],[115,2.45207],[115.5,2.72186],[116,2.9931],[116.5,3.26578],[117,3.53986],[117.5,3.81533],[118,4.09215],[118.5,4.37029],[119,4.64972],[119.5,4.9304],[120,5.2123],[120.5,5.49537],[121,5.77958],[121.5,6.06487],[122,6.3512],[122.5,6.63851],[123,6.92677],[123.5,7.21589],[124,7.50584],[124.5,7.79655],[125,8.08794],[125.5,8.37996],[126,8.67252],[126.5,8.96556],[127,9.259],[127.5,9.55275],[128,9.84673],[128.5,10.14086],[129,10.43503],[129.5,10.72916],[130,11.02314],[130.5,11.31688],[131,11.61026],[131.5,11.90319],[132,12.19555],[132.5,12.48723],[133,12.77811],[133.5,13.06806],[134,13.35697],[134.5,13.64472],[135,13.93118],[135.5,14.21621],[136,14.49968],[136.5,14.78148],[137,15.06145],[137.5,15.33947],[138,15.6154],[138.5,15.8891],[139,16.16044],[139.5,16.42928],[140,16.69549],[140.5,16.95893],[141,17.21945],[141.5,17.47694],[142,17.73126],[142.5,17.98227],[143,18.22985],[143.5,18.47387],[144,18.71421],[144.5,18.95075],[145,19.18336],[145.5,19.41194],[146,19.63637],[146.5,19.85655],[147,20.07236],[147.5,20.28372],[148,20.49052],[148.5,20.69268],[149,20.8901],[149.5,21.0827],[150,21.27041],[150.5,21.45315],[151,21.63085],[151.5,21.80345],[152,21.97088],[152.5,22.13309],[153,22.29003],[153.5,22.44164],[154,22.5879],[154.5,22.72875],[155,22.86417],[155.5,22.99412],[156,23.11858],[156.5,23.23752],[157,23.35092],[157.5,23.45877],[158,23.56106],[158.5,23.65777],[159,23.74891],[159.5,23.83446],[160,23.91443],[160.5,23.98883],[161,24.05765],[161.5,24.12091],[162,24.17862],[162.5,24.23079],[163,24.27743],[163.5,24.31858],[164,24.35423],[164.5,24.38443],[165,24.40918],[165.5,24.42853],[166,24.44249],[166.5,24.45109],[167,24.45438],[167.5,24.45237],[168,24.4451],[168.5,24.43262],[169,24.41496],[169.5,24.39215],[170,24.36424],[170.5,24.33127],[171,24.29328],[171.5,24.25032],[172,24.20243],[172.5,24.14966],[173,24.09206],[173.5,24.02967],[174,23.96256],[174.5,23.89076],[175,23.81434],[175.5,23.73334],[176,23.64783],[176.5,23.55786],[177,23.46348],[177.5,23.36476],[178,23.26176],[178.5,23.15454],[179,23.04315],[179.5,22.92766],[180,22.80814]]}},{"type":"Feature","id":"+02330625:south:1","properties":{"id":"+02330625","year":233,"month":6,"day":25,"time_tdt":"03:34:11","type":"금환일식","type_code":"A","saros":79,"gamma":0.00614,"magnitude":0.99046,"greatest":{"lat":24.14483,"lng":160.5191},"path_width_km":33.6,"duration":"01m04s","delta_t_seconds":8282.9,"catalog_number":5334,"source":"NASA Five Millennium Canon of Solar Eclipses","source_url":"https://eclipse.gsfc.nasa.gov/SEsearch/SEsearchmap.php?Ecl=%2B02330625","boundary":"south","name":"233-06-25 금환일식"},"geometry":{"type":"LineString","coordinates":[[-179.5,22.68465],[-179,22.55726],[-178.5,22.42603],[-178,22.29104],[-177.5,22.15234],[-177,22.01001],[-176.5,21.86412],[-176,21.71474],[-175.5,21.56194],[-175,21.40579],[-174.5,21.24637],[-174,21.08375],[-173.5,20.918],[-173,20.7492],[-172.5,20.57741],[-172,20.40273],[-171.5,20.22521],[-171,20.04494],[-170.5,19.86199],[-170,19.67644],[-169.5,19.48836],[-169,19.29783],[-168.5,19.10492],[-168,18.9097],[-167.5,18.71226],[-167,18.51267],[-166.5,18.31099],[-166,18.10732],[-165.5,17.90171],[-165,17.69424],[-164.5,17.48498],[-164,17.27401],[-163.5,17.06139],[-163,16.8472],[-162.5,16.6315],[-162,16.41437],[-161.5,16.19587],[-161,15.97607],[-160.5,15.75503],[-160,15.53282],[-159.5,15.3095],[-159,15.08514],[-158.5,14.85979],[-158,14.63353],[-157.5,14.4064],[-157,14.17846],[-156.5,13.94979],[-156,13.72042],[-155.5,13.49041],[-155,13.25983],[-154.5,13.02872],[-154,12.79713],[-153.5,12.56511],[-153,12.33272],[-152.5,12.09999],[-152,11.86699],[-151.5,11.63374],[-151,11.4003],[-150.5,11.16671],[-150,10.93302],[-149.5,10.69926],[-149,10.46547],[-148.5,10.23169],[-148,9.99795],[-147.5,9.76431],[-147,9.53078],[-146.5,9.29741],[-146,9.06422],[-145.5,8.83125],[-145,8.59854],[-144.5,8.3661],[-144,8.13397],[-143.5,7.90218],[-143,7.67075],[-142.5,7.43971],[-142,7.20909],[-141.5,6.97891],[-141,6.74919],[-140.5,6.51996],[-140,6.29123],[-139.5,6.06304],[-139,5.83539],[-138.5,5.60831],[-138,5.38182],[-137.5,5.15593],[-137,4.93067],[-136.5,4.70604],[-136,4.48207],[-135.78906,4.38779]]}},{"type":"Feature","id":"+02331218:north:0","properties":{"id":"+02331218","year":233,"month":12,"day":18,"time_tdt":"18:17:54","type":"개기일식","type_code":"T","saros":84,"gamma":-0.41611,"magnitude":1.02488,"greatest":{"lat":-48.22724,"lng":-63.97565},"path_width_km":93.1,"duration":"02m00s","delta_t_seconds":8278.3,"catalog_number":5335,"source":"NASA Five Millennium Canon of Solar Eclipses","source_url":"https://eclipse.gsfc.nasa.gov/SEsearch/SEsearchmap.php?Ecl=%2B02331218","boundary":"north","name":"233-12-18 개기일식"},"geometry":{"type":"LineString","coordinates":[[-132.99219,-16.08138],[-132.5,-16.29751],[-132,-16.51892],[-131.5,-16.74221],[-131,-16.96738],[-130.5,-17.19442],[-130,-17.42333],[-129.5,-17.65412],[-129,-17.88678],[-128.5,-18.12132],[-128,-18.35772],[-127.5,-18.59599],[-127,-18.83611],[-126.5,-19.07809],[-126,-19.32192],[-125.5,-19.56758],[-125,-19.81507],[-124.5,-20.06437],[-124,-20.31549],[-123.5,-20.56839],[-123,-20.82307],[-122.5,-21.07952],[-122,-21.33771],[-121.5,-21.59763],[-121,-21.85926],[-120.5,-22.12257],[-120,-22.38753],[-119.5,-22.65414],[-119,-22.92235],[-118.5,-23.19214],[-118,-23.46347],[-117.5,-23.73632],[-117,-24.01064],[-116.5,-24.28641],[-116,-24.56358],[-115.5,-24.8421],[-115,-25.12194],[-114.5,-25.40305],[-114,-25.68537],[-113.5,-25.96887],[-113,-26.25348],[-112.5,-26.53915],[-112,-26.82582],[-111.5,-27.11343],[-111,-27.40192],[-110.5,-27.69122],[-110,-27.98127],[-109.5,-28.27198],[-109,-28.5633],[-108.5,-28.85515],[-108,-29.14744],[-107.5,-29.44011],[-107,-29.73306],[-106.5,-30.02622],[-106,-30.3195],[-105.5,-30.61281],[-105,-30.90607],[-104.5,-31.19918],[-104,-31.49206],[-103.5,-31.78461],[-103,-32.07673],[-102.5,-32.36834],[-102,-32.65933],[-101.5,-32.94961],[-101,-33.23908],[-100.5,-33.52765],[-100,-33.81522],[-99.5,-34.10168],[-99,-34.38695],[-98.5,-34.67094],[-98,-34.95354],[-97.5,-35.23465],[-97,-35.51419],[-96.5,-35.79206],[-96,-36.06818],[-95.5,-36.34244],[-95,-36.61478],[-94.5,-36.88509],[-94,-37.1533],[-93.5,-37.41933],[-93,-37.68309],[-92.5,-37.94451],[-92,-38.20352],[-91.5,-38.46005],[-91,-38.71403],[-90.5,-38.96538],[-90,-39.21406],[-89.5,-39.46],[-89,-39.70314],[-88.5,-39.94343],[-88,-40.18082],[-87.5,-40.41526],[-87,-40.64671],[-86.5,-40.87512],[-86,-41.10047],[-85.5,-41.3227],[-85,-41.54179],[-84.5,-41.75771],[-84,-41.97043],[-83.5,-42.17993],[-83,-42.38618],[-82.5,-42.58917],[-82,-42.78887],[-81.5,-42.98528],[-81,-43.17838],[-80.5,-43.36816],[-80,-43.55461],[-79.5,-43.73773],[-79,-43.91751],[-78.5,-44.09396],[-78,-44.26706],[-77.5,-44.43682],[-77,-44.60325],[-76.5,-44.76634],[-76,-44.92611],[-75.5,-45.08255],[-75,-45.23569],[-74.5,-45.38551],[-74,-45.53205],[-73.5,-45.6753],[-73,-45.81528],[-72.5,-45.952],[-72,-46.08548],[-71.5,-46.21572],[-71,-46.34274],[-70.5,-46.46657],[-70,-46.5872],[-69.5,-46.70466],[-69,-46.81897],[-68.5,-46.93014],[-68,-47.03818],[-67.5,-47.14312],[-67,-47.24497],[-66.5,-47.34374],[-66,-47.43946],[-65.5,-47.53214],[-65,-47.62181],[-64.5,-47.70846],[-64,-47.79213],[-63.5,-47.87283],[-63,-47.95058],[-62.5,-48.02538],[-62,-48.09727],[-61.5,-48.16625],[-61,-48.23234],[-60.5,-48.29556],[-60,-48.35593],[-59.5,-48.41345],[-59,-48.46814],[-58.5,-48.52002],[-58,-48.5691],[-57.5,-48.61539],[-57,-48.65892],[-56.5,-48.69968],[-56,-48.7377],[-55.5,-48.773],[-55,-48.80557],[-54.5,-48.83543],[-54,-48.8626],[-53.5,-48.88708],[-53,-48.90889],[-52.5,-48.92804],[-52,-48.94453],[-51.5,-48.95838],[-51,-48.9696],[-50.5,-48.9782],[-50,-48.98418],[-49.5,-48.98755],[-49,-48.98833],[-48.5,-48.98651],[-48,-48.98212],[-47.5,-48.97515],[-47,-48.96561],[-46.5,-48.95351],[-46,-48.93886],[-45.5,-48.92166],[-45,-48.90191],[-44.5,-48.87963],[-44,-48.85482],[-43.5,-48.82748],[-43,-48.79763],[-42.5,-48.76525],[-42,-48.73037],[-41.5,-48.69298],[-41,-48.65309],[-40.5,-48.61069],[-40,-48.56581],[-39.5,-48.51843],[-39,-48.46857],[-38.5,-48.41622],[-38,-48.3614],[-37.5,-48.30409],[-37,-48.24432],[-36.5,-48.18208],[-36,-48.11737],[-35.5,-48.0502],[-35,-47.98057],[-34.5,-47.90848],[-34,-47.83395],[-33.5,-47.75696],[-33,-47.67754],[-32.5,-47.59567],[-32,-47.51136],[-31.5,-47.42463],[-31,-47.33546],[-30.5,-47.24388],[-30,-47.14987],[-29.5,-47.05346],[-29,-46.95463],[-28.5,-46.85341],[-28,-46.74978],[-27.5,-46.64377],[-27,-46.53538],[-26.5,-46.42461],[-26,-46.31147],[-25.5,-46.19597],[-25,-46.07812],[-24.5,-45.95792],[-24,-45.8354],[-23.5,-45.71054],[-23,-45.58338],[-22.5,-45.45391],[-22,-45.32215],[-21.5,-45.18812],[-21,-45.05181],[-20.5,-44.91326],[-20,-44.77247],[-19.5,-44.62945],[-19,-44.48422],[-18.5,-44.33681],[-18,-44.18721],[-17.5,-44.03546],[-17,-43.88157],[-16.5,-43.72556],[-16,-43.56745],[-15.5,-43.40725],[-15,-43.245],[-14.5,-43.08071],[-14,-42.91441],[-13.5,-42.74612],[-13,-42.57586],[-12.5,-42.40366],[-12,-42.22954],[-11.5,-42.05354],[-11,-41.87567],[-10.5,-41.69598],[-10,-41.51447],[-9.5,-41.3312],[-9,-41.14618],[-8.5,-40.95944],[-8,-40.77103],[-7.5,-40.58097],[-7,-40.38929],[-6.5,-40.19603],[-6,-40.00122],[-5.5,-39.8049],[-5,-39.6071],[-4.5,-39.40786],[-4,-39.20721],[-3.5,-39.00519],[-3,-38.80185],[-2.5,-38.5972],[-2,-38.39131],[-1.5,-38.18419],[-1,-37.9759],[-0.5,-37.76647],[0,-37.55594],[0.5,-37.34434],[1,-37.13173],[1.5,-36.91813],[2,-36.70359],[2.5,-36.48815],[3,-36.27185],[3.5,-36.05472],[4,-35.83681],[4.5,-35.61816],[5,-35.39881],[5.5,-35.17879],[6,-34.95815],[6.5,-34.73692],[7,-34.51514],[7.5,-34.29286],[8,-34.07011],[8.5,-33.84693],[9,-33.62335],[9.5,-33.39942],[10,-33.17517],[10.5,-32.95063],[11,-32.72585],[11.5,-32.50086],[12,-32.27569],[12.5,-32.05038],[13,-31.82496],[13.5,-31.59947],[14,-31.37394],[14.5,-31.1484],[15,-30.92288],[15.5,-30.69742],[16,-30.47205],[16.5,-30.24679],[17,-30.02168],[17.5,-29.79674],[18,-29.57201],[18.5,-29.3475],[19,-29.12326],[19.5,-28.8993],[20,-28.67565]]}},{"type":"Feature","id":"+02331218:center:0","properties":{"id":"+02331218","year":233,"month":12,"day":18,"time_tdt":"18:17:54","type":"개기일식","type_code":"T","saros":84,"gamma":-0.41611,"magnitude":1.02488,"greatest":{"lat":-48.22724,"lng":-63.97565},"path_width_km":93.1,"duration":"02m00s","delta_t_seconds":8278.3,"catalog_number":5335,"source":"NASA Five Millennium Canon of Solar Eclipses","source_url":"https://eclipse.gsfc.nasa.gov/SEsearch/SEsearchmap.php?Ecl=%2B02331218","boundary":"center","name":"233-12-18 개기일식"},"geometry":{"type":"LineString","coordinates":[[-133.09835,-16.222],[-133,-16.26805],[-132.5,-16.49135],[-132,-16.71656],[-131.5,-16.94367],[-131,-17.17269],[-130.5,-17.40362],[-130,-17.63645],[-129.5,-17.87118],[-129,-18.10782],[-128.5,-18.34636],[-128,-18.58679],[-127.5,-18.82912],[-127,-19.07333],[-126.5,-19.31942],[-126,-19.56738],[-125.5,-19.8172],[-125,-20.06888],[-124.5,-20.32239],[-124,-20.57774],[-123.5,-20.83489],[-123,-21.09385],[-122.5,-21.35458],[-122,-21.61708],[-121.5,-21.88131],[-121,-22.14727],[-120.5,-22.41493],[-120,-22.68425],[-119.5,-22.95522],[-119,-23.2278],[-118.5,-23.50196],[-118,-23.77767],[-117.5,-24.05489],[-117,-24.33359],[-116.5,-24.61372],[-116,-24.89525],[-115.5,-25.17813],[-115,-25.46231],[-114.5,-25.74774],[-114,-26.03437],[-113.5,-26.32215],[-113,-26.61102],[-112.5,-26.90092],[-112,-27.19179],[-111.5,-27.48357],[-111,-27.77618],[-110.5,-28.06957],[-110,-28.36366],[-109.5,-28.65837],[-109,-28.95363],[-108.5,-29.24936],[-108,-29.54549],[-107.5,-29.84192],[-107,-30.13858],[-106.5,-30.43537],[-106,-30.73221],[-105.5,-31.029],[-105,-31.32567],[-104.5,-31.6221],[-104,-31.91822],[-103.5,-32.21391],[-103,-32.50909],[-102.5,-32.80366],[-102,-33.09752],[-101.5,-33.39057],[-101,-33.68271],[-100.5,-33.97384],[-100,-34.26387],[-99.5,-34.55269],[-99,-34.84021],[-98.5,-35.12633],[-98,-35.41095],[-97.5,-35.69398],[-97,-35.97533],[-96.5,-36.25489],[-96,-36.53259],[-95.5,-36.80833],[-95,-37.08203],[-94.5,-37.35359],[-94,-37.62295],[-93.5,-37.89001],[-93,-38.15471],[-92.5,-38.41696],[-92,-38.6767],[-91.5,-38.93385],[-91,-39.18835],[-90.5,-39.44014],[-90,-39.68915],[-89.5,-39.93533],[-89,-40.17863],[-88.5,-40.419],[-88,-40.65637],[-87.5,-40.89072],[-87,-41.12201],[-86.5,-41.35018],[-86,-41.57521],[-85.5,-41.79706],[-85,-42.01571],[-84.5,-42.23112],[-84,-42.44327],[-83.5,-42.65215],[-83,-42.85773],[-82.5,-43.05999],[-82,-43.25893],[-81.5,-43.45453],[-81,-43.64678],[-80.5,-43.83567],[-80,-44.0212],[-79.5,-44.20336],[-79,-44.38216],[-78.5,-44.55759],[-78,-44.72965],[-77.5,-44.89836],[-77,-45.0637],[-76.5,-45.2257],[-76,-45.38436],[-75.5,-45.53968],[-75,-45.69168],[-74.5,-45.84036],[-74,-45.98574],[-73.5,-46.12784],[-73,-46.26665],[-72.5,-46.40221],[-72,-46.53452],[-71.5,-46.66359],[-71,-46.78945],[-70.5,-46.91211],[-70,-47.03159],[-69.5,-47.1479],[-69,-47.26106],[-68.5,-47.37109],[-68,-47.478],[-67.5,-47.58181],[-67,-47.68255],[-66.5,-47.78022],[-66,-47.87485],[-65.5,-47.96645],[-65,-48.05504],[-64.5,-48.14065],[-64,-48.22327],[-63.5,-48.30294],[-63,-48.37968],[-62.5,-48.45348],[-62,-48.52439],[-61.5,-48.5924],[-61,-48.65753],[-60.5,-48.71981],[-60,-48.77925],[-59.5,-48.83586],[-59,-48.88966],[-58.5,-48.94066],[-58,-48.98888],[-57.5,-49.03433],[-57,-49.07703],[-56.5,-49.11698],[-56,-49.15421],[-55.5,-49.18871],[-55,-49.22052],[-54.5,-49.24963],[-54,-49.27606],[-53.5,-49.29982],[-53,-49.32093],[-52.5,-49.33938],[-52,-49.3552],[-51.5,-49.36839],[-51,-49.37895],[-50.5,-49.38691],[-50,-49.39227],[-49.5,-49.39503],[-49,-49.39521],[-48.5,-49.39281],[-48,-49.38784],[-47.5,-49.38031],[-47,-49.37022],[-46.5,-49.35758],[-46,-49.34239],[-45.5,-49.32467],[-45,-49.30441],[-44.5,-49.28163],[-44,-49.25632],[-43.5,-49.22849],[-43,-49.19815],[-42.5,-49.1653],[-42,-49.12994],[-41.5,-49.09208],[-41,-49.05173],[-40.5,-49.00888],[-40,-48.96354],[-39.5,-48.91571],[-39,-48.86539],[-38.5,-48.8126],[-38,-48.75732],[-37.5,-48.69957],[-37,-48.63935],[-36.5,-48.57665],[-36,-48.51149],[-35.5,-48.44386],[-35,-48.37377],[-34.5,-48.30121],[-34,-48.2262],[-33.5,-48.14874],[-33,-48.06882],[-32.5,-47.98646],[-32,-47.90165],[-31.5,-47.8144],[-31,-47.72471],[-30.5,-47.63258],[-30,-47.53803],[-29.5,-47.44104],[-29,-47.34164],[-28.5,-47.23982],[-28,-47.13558],[-27.5,-47.02894],[-27,-46.91989],[-26.5,-46.80846],[-26,-46.69463],[-25.5,-46.57842],[-25,-46.45983],[-24.5,-46.33888],[-24,-46.21557],[-23.5,-46.08992],[-23,-45.96192],[-22.5,-45.83159],[-22,-45.69894],[-21.5,-45.56399],[-21,-45.42674],[-20.5,-45.2872],[-20,-45.1454],[-19.5,-45.00134],[-19,-44.85503],[-18.5,-44.7065],[-18,-44.55576],[-17.5,-44.40283],[-17,-44.24771],[-16.5,-44.09044],[-16,-43.93103],[-15.5,-43.7695],[-15,-43.60587],[-14.5,-43.44017],[-14,-43.2724],[-13.5,-43.10261],[-13,-42.93081],[-12.5,-42.75702],[-12,-42.58128],[-11.5,-42.4036],[-11,-42.22402],[-10.5,-42.04256],[-10,-41.85925],[-9.5,-41.67413],[-9,-41.48722],[-8.5,-41.29854],[-8,-41.10815],[-7.5,-40.91606],[-7,-40.72231],[-6.5,-40.52693],[-6,-40.32996],[-5.5,-40.13143],[-5,-39.93138],[-4.5,-39.72985],[-4,-39.52686],[-3.5,-39.32247],[-3,-39.1167],[-2.5,-38.9096],[-2,-38.7012],[-1.5,-38.49154],[-1,-38.28066],[-0.5,-38.06861],[0,-37.85542],[0.5,-37.64112],[1,-37.42578],[1.5,-37.20941],[2,-36.99206],[2.5,-36.77378],[3,-36.55461],[3.5,-36.33458],[4,-36.11374],[4.5,-35.89212],[5,-35.66978],[5.5,-35.44674],[6,-35.22305],[6.5,-34.99876],[7,-34.77389],[7.5,-34.54849],[8,-34.3226],[8.5,-34.09626],[9,-33.86951],[9.5,-33.64238],[10,-33.41492],[10.5,-33.18716],[11,-32.95914],[11.5,-32.73089],[12,-32.50246],[12.5,-32.27387],[13,-32.04517],[13.5,-31.81638],[14,-31.58755],[14.5,-31.35871],[15,-31.12988],[15.5,-30.90111],[16,-30.67242],[16.5,-30.44384],[17,-30.21541],[17.5,-29.98715],[18,-29.7591],[18.5,-29.53129],[19,-29.30373],[19.5,-29.07647],[20,-28.84952],[20.30159,-28.71155]]}},{"type":"Feature","id":"+02331218:south:0","properties":{"id":"+02331218","year":233,"month":12,"day":18,"time_tdt":"18:17:54","type":"개기일식","type_code":"T","saros":84,"gamma":-0.41611,"magnitude":1.02488,"greatest":{"lat":-48.22724,"lng":-63.97565},"path_width_km":93.1,"duration":"02m00s","delta_t_seconds":8278.3,"catalog_number":5335,"source":"NASA Five Millennium Canon of Solar Eclipses","source_url":"https://eclipse.gsfc.nasa.gov/SEsearch/SEsearchmap.php?Ecl=%2B02331218","boundary":"south","name":"233-12-18 개기일식"},"geometry":{"type":"LineString","coordinates":[[-133.20898,-16.3656],[-133,-16.45995],[-132.5,-16.68707],[-132,-16.91612],[-131.5,-17.14711],[-131,-17.38003],[-130.5,-17.61489],[-130,-17.85169],[-129.5,-18.09042],[-129,-18.33109],[-128.5,-18.57368],[-128,-18.8182],[-127.5,-19.06464],[-127,-19.31299],[-126.5,-19.56325],[-126,-19.8154],[-125.5,-20.06944],[-125,-20.32535],[-124.5,-20.58313],[-124,-20.84276],[-123.5,-21.10422],[-123,-21.3675],[-122.5,-21.63258],[-122,-21.89943],[-121.5,-22.16804],[-121,-22.43839],[-120.5,-22.71044],[-120,-22.98417],[-119.5,-23.25955],[-119,-23.53655],[-118.5,-23.81513],[-118,-24.09527],[-117.5,-24.37691],[-117,-24.66003],[-116.5,-24.94458],[-116,-25.23051],[-115.5,-25.51778],[-115,-25.80633],[-114.5,-26.09612],[-114,-26.38709],[-113.5,-26.67919],[-113,-26.97234],[-112.5,-27.2665],[-112,-27.5616],[-111.5,-27.85756],[-111,-28.15432],[-110.5,-28.45181],[-110,-28.74995],[-109.5,-29.04866],[-109,-29.34787],[-108.5,-29.64749],[-108,-29.94743],[-107.5,-30.24762],[-107,-30.54797],[-106.5,-30.84837],[-106,-31.14875],[-105.5,-31.44901],[-105,-31.74905],[-104.5,-32.04877],[-104,-32.34808],[-103.5,-32.64689],[-103,-32.94508],[-102.5,-33.24256],[-102,-33.53923],[-101.5,-33.83499],[-101,-34.12974],[-100.5,-34.42337],[-100,-34.71579],[-99.5,-35.00689],[-99,-35.29658],[-98.5,-35.58476],[-98,-35.87132],[-97.5,-36.15619],[-97,-36.43925],[-96.5,-36.72043],[-96,-36.99962],[-95.5,-37.27674],[-95,-37.55171],[-94.5,-37.82444],[-94,-38.09485],[-93.5,-38.36285],[-93,-38.62839],[-92.5,-38.89137],[-92,-39.15174],[-91.5,-39.40942],[-91,-39.66435],[-90.5,-39.91648],[-90,-40.16574],[-89.5,-40.41207],[-89,-40.65544],[-88.5,-40.89578],[-88,-41.13306],[-87.5,-41.36724],[-87,-41.59827],[-86.5,-41.82612],[-86,-42.05075],[-85.5,-42.27215],[-85,-42.49027],[-84.5,-42.70511],[-84,-42.91663],[-83.5,-43.12481],[-83,-43.32966],[-82.5,-43.53113],[-82,-43.72924],[-81.5,-43.92397],[-81,-44.11531],[-80.5,-44.30326],[-80,-44.48781],[-79.5,-44.66897],[-79,-44.84674],[-78.5,-45.02111],[-78,-45.1921],[-77.5,-45.3597],[-77,-45.52394],[-76.5,-45.6848],[-76,-45.84231],[-75.5,-45.99648],[-75,-46.14731],[-74.5,-46.29482],[-74,-46.43903],[-73.5,-46.57994],[-73,-46.71757],[-72.5,-46.85194],[-72,-46.98307],[-71.5,-47.11096],[-71,-47.23564],[-70.5,-47.35712],[-70,-47.47543],[-69.5,-47.59057],[-69,-47.70257],[-68.5,-47.81145],[-68,-47.91723],[-67.5,-48.01991],[-67,-48.11953],[-66.5,-48.21609],[-66,-48.30963],[-65.5,-48.40015],[-65,-48.48767],[-64.5,-48.57221],[-64,-48.6538],[-63.5,-48.73244],[-63,-48.80816],[-62.5,-48.88097],[-62,-48.95089],[-61.5,-49.01794],[-61,-49.08212],[-60.5,-49.14347],[-60,-49.20199],[-59.5,-49.2577],[-59,-49.31061],[-58.5,-49.36074],[-58,-49.40811],[-57.5,-49.45272],[-57,-49.4946],[-56.5,-49.53375],[-56,-49.57018],[-55.5,-49.60392],[-55,-49.63497],[-54.5,-49.66334],[-54,-49.68905],[-53.5,-49.7121],[-53,-49.73251],[-52.5,-49.75029],[-52,-49.76544],[-51.5,-49.77798],[-51,-49.78791],[-50.5,-49.79525],[-50,-49.8],[-49.5,-49.80216],[-49,-49.80176],[-48.5,-49.79879],[-48,-49.79326],[-47.5,-49.78519],[-47,-49.77456],[-46.5,-49.7614],[-46,-49.7457],[-45.5,-49.72747],[-45,-49.70672],[-44.5,-49.68345],[-44,-49.65766],[-43.5,-49.62937],[-43,-49.59856],[-42.5,-49.56526],[-42,-49.52945],[-41.5,-49.49115],[-41,-49.45036],[-40.5,-49.40707],[-40,-49.3613],[-39.5,-49.31304],[-39,-49.2623],[-38.5,-49.20908],[-38,-49.15339],[-37.5,-49.09521],[-37,-49.03457],[-36.5,-48.97145],[-36,-48.90586],[-35.5,-48.8378],[-35,-48.76727],[-34.5,-48.69428],[-34,-48.61883],[-33.5,-48.54092],[-33,-48.46055],[-32.5,-48.37772],[-32,-48.29244],[-31.5,-48.2047],[-31,-48.11452],[-30.5,-48.02189],[-30,-47.92682],[-29.5,-47.82931],[-29,-47.72936],[-28.5,-47.62698],[-28,-47.52217],[-27.5,-47.41493],[-27,-47.30528],[-26.5,-47.19321],[-26,-47.07873],[-25.5,-46.96185],[-25,-46.84258],[-24.5,-46.72091],[-24,-46.59686],[-23.5,-46.47044],[-23,-46.34165],[-22.5,-46.2105],[-22,-46.07701],[-21.5,-45.94118],[-21,-45.80302],[-20.5,-45.66255],[-20,-45.51977],[-19.5,-45.37471],[-19,-45.22737],[-18.5,-45.07776],[-18,-44.92592],[-17.5,-44.77184],[-17,-44.61554],[-16.5,-44.45705],[-16,-44.29639],[-15.5,-44.13356],[-15,-43.96859],[-14.5,-43.80151],[-14,-43.63233],[-13.5,-43.46107],[-13,-43.28776],[-12.5,-43.11243],[-12,-42.93509],[-11.5,-42.75578],[-11,-42.57451],[-10.5,-42.39133],[-10,-42.20625],[-9.5,-42.01931],[-9,-41.83053],[-8.5,-41.63995],[-8,-41.4476],[-7.5,-41.2535],[-7,-41.05771],[-6.5,-40.86024],[-6,-40.66113],[-5.5,-40.46041],[-5,-40.25814],[-4.5,-40.05433],[-4,-39.84903],[-3.5,-39.64227],[-3,-39.43409],[-2.5,-39.22454],[-2,-39.01365],[-1.5,-38.80146],[-1,-38.588],[-0.5,-38.37333],[0,-38.15748],[0.5,-37.9405],[1,-37.72242],[1.5,-37.50328],[2,-37.28313],[2.5,-37.06201],[3,-36.83996],[3.5,-36.61702],[4,-36.39324],[4.5,-36.16865],[5,-35.9433],[5.5,-35.71723],[6,-35.49049],[6.5,-35.2631],[7,-35.03513],[7.5,-34.8066],[8,-34.57755],[8.5,-34.34803],[9,-34.11808],[9.5,-33.88774],[10,-33.65704],[10.5,-33.42603],[11,-33.19474],[11.5,-32.96322],[12,-32.73149],[12.5,-32.4996],[13,-32.26758],[13.5,-32.03548],[14,-31.80331],[14.5,-31.57113],[15,-31.33896],[15.5,-31.10684],[16,-30.8748],[16.5,-30.64287],[17,-30.41109],[17.5,-30.17948],[18,-29.94808],[18.5,-29.71691],[19,-29.48601],[19.5,-29.25541],[20,-29.02512],[20.41797,-28.83288]]}}],"attribution":"Eclipse Predictions by Fred Espenak and Jean Meeus (NASA's GSFC)","generated_at":"2026-09-23T01:44:47.244Z"}
