{"type":"FeatureCollection","year":234,"events":[{"id":"+02340614","year":234,"month":6,"day":14,"time_tdt":"07:11:48","type":"금환일식","type_code":"A","saros":89,"gamma":0.79742,"magnitude":0.94688,"greatest":{"lat":74.35373,"lng":76.64386},"path_width_km":325.9,"duration":"04m05s","delta_t_seconds":8273.6,"catalog_number":5336,"source":"NASA Five Millennium Canon of Solar Eclipses","source_url":"https://eclipse.gsfc.nasa.gov/SEsearch/SEsearchmap.php?Ecl=%2B02340614"},{"id":"+02341208","year":234,"month":12,"day":8,"time_tdt":"09:36:15","type":"부분일식","type_code":"P","saros":94,"gamma":-1.06621,"magnitude":0.88431,"greatest":{"lat":-64.49171,"lng":-83.19415},"path_width_km":0,"duration":"00m00s","delta_t_seconds":8269,"catalog_number":5337,"source":"NASA Five Millennium Canon of Solar Eclipses","source_url":"https://eclipse.gsfc.nasa.gov/SEsearch/SEsearchmap.php?Ecl=%2B02341208"}],"features":[{"type":"Feature","id":"+02340614:north:0","properties":{"id":"+02340614","year":234,"month":6,"day":14,"time_tdt":"07:11:48","type":"금환일식","type_code":"A","saros":89,"gamma":0.79742,"magnitude":0.94688,"greatest":{"lat":74.35373,"lng":76.64386},"path_width_km":325.9,"duration":"04m05s","delta_t_seconds":8273.6,"catalog_number":5336,"source":"NASA Five Millennium Canon of Solar Eclipses","source_url":"https://eclipse.gsfc.nasa.gov/SEsearch/SEsearchmap.php?Ecl=%2B02340614","boundary":"north","name":"234-06-14 금환일식"},"geometry":{"type":"LineString","coordinates":[[10.51758,40.85996],[11,41.08258],[11.5,41.31661],[12,41.55404],[12.5,41.79488],[13,42.03919],[13.5,42.28697],[14,42.53828],[14.5,42.79312],[15,43.05154],[15.5,43.31356],[16,43.5792],[16.5,43.84849],[17,44.12145],[17.5,44.3981],[18,44.67845],[18.5,44.96253],[19,45.25034],[19.5,45.54189],[20,45.8372],[20.5,46.13625],[21,46.43906],[21.5,46.74561],[22,47.05589],[22.5,47.36989],[23,47.6876],[23.5,48.00897],[24,48.33398],[24.5,48.66259],[25,48.99475],[25.5,49.33041],[26,49.66951],[26.5,50.01198],[27,50.35774],[27.5,50.7067],[28,51.05876],[28.5,51.41382],[29,51.77177],[29.5,52.13247],[30,52.49579],[30.5,52.86158],[31,53.22969],[31.5,53.59993],[32,53.97214],[32.5,54.34612],[33,54.72167],[33.5,55.09858],[34,55.47664],[34.5,55.85561],[35,56.23526],[35.5,56.61534],[35.5,56.61533],[36,56.99561],[36.5,57.37581],[37,57.75568],[37.5,58.13496],[38,58.51338],[38.5,58.89069],[39,59.2666],[39.5,59.64087],[39.5,59.64088],[40,60.01324],[40.5,60.38345],[41,60.75124],[41.5,61.11639],[42,61.47866],[42.5,61.83782],[43,62.19366],[43.5,62.54597],[44,62.89458],[44.5,63.23929],[45,63.57994],[45.5,63.91638],[46,64.24847],[46.5,64.57608],[47,64.8991],[47.5,65.21744],[48,65.53099],[48.5,65.8397],[49,66.14351],[49.5,66.44235],[50,66.7362],[50.5,67.02502],[51,67.30881],[51.5,67.58755],[52,67.86125],[52.5,68.12993],[53,68.39359],[53.5,68.65227],[54,68.906],[54.5,69.15483],[54.5,69.15482],[55,69.39878],[55.5,69.63793],[56,69.87231],[56.5,70.10199],[57,70.32704],[57.5,70.54751],[58,70.76347],[58.5,70.975],[59,71.18216],[59.5,71.38503],[60,71.58368],[60.5,71.77819],[61,71.96863],[61.5,72.15508],[62,72.33761],[62.5,72.5163],[63,72.69123],[63.5,72.86247],[64,73.0301],[64.5,73.19418],[65,73.3548],[65.5,73.51202],[65.5,73.51203],[66,73.66593],[66.5,73.81658],[67,73.96404],[67.5,74.1084],[68,74.2497],[68.5,74.38802],[69,74.52343],[69.5,74.65598],[70,74.78574],[70.5,74.91277],[71,75.03713],[71.5,75.15887],[72,75.27805],[72.5,75.39474],[73,75.50897],[73.5,75.62082],[74,75.73031],[74.5,75.83752],[75,75.94248],[75.5,76.04525],[76,76.14587],[76.5,76.24438],[77,76.34083],[77.5,76.43527],[78,76.52773],[78.5,76.61826],[79,76.7069],[79.5,76.79368],[80,76.87865],[80.5,76.96183],[81,77.04327],[81.5,77.123],[82,77.20106],[82.5,77.27747],[83,77.35228],[83.5,77.4255],[84,77.49717],[84.5,77.56733],[85,77.63599],[85.5,77.70319],[86,77.76896],[86.5,77.83332],[87,77.89629],[87.5,77.9579],[88,78.01818],[88.5,78.07715],[89,78.13483],[89.5,78.19125],[90,78.24642],[90.5,78.30037],[91,78.35312],[91.5,78.40468],[92,78.45508],[92.5,78.50434],[93,78.55247],[93.5,78.59949],[94,78.64542],[94.5,78.69027],[95,78.73407],[95.5,78.77683],[96,78.81855],[96.5,78.85927],[97,78.89899],[97.5,78.93772],[98,78.97548],[98.5,79.01229],[99,79.04815],[99.5,79.08308],[100,79.11709],[100.5,79.15019],[101,79.18239],[101.5,79.2137],[102,79.24415],[102.5,79.27372],[103,79.30244],[103.5,79.33031],[104,79.35735],[104.5,79.38356],[105,79.40895],[105.5,79.43352],[106,79.4573],[106.5,79.48028],[107,79.50247],[107.5,79.52388],[108,79.54452],[108.5,79.56439],[109,79.58351],[109,79.5835],[109.5,79.60186],[110,79.61947],[110.5,79.63633],[110.5,79.63634],[111,79.65246],[111.5,79.66786],[112,79.68253],[112.5,79.69647],[113,79.7097],[113.5,79.72221],[114,79.73401],[114.5,79.74511],[115,79.7555],[115.5,79.7652],[116,79.77419],[116.5,79.7825],[117,79.79011],[117.5,79.79703],[117.5,79.79704],[118,79.80327],[118.5,79.80883],[119,79.8137],[119.5,79.81789],[120,79.82141],[120.5,79.82424],[121,79.8264],[121.5,79.82788],[122,79.82869],[122.5,79.82882],[123,79.82828],[123.5,79.82706],[124,79.82517],[124.5,79.8226],[125,79.81936],[125.5,79.81544],[126,79.81084],[126.5,79.80557],[127,79.79961],[127.5,79.79298],[128,79.78566],[128.5,79.77766],[129,79.76896],[129.5,79.75959],[130,79.74951],[130.5,79.73875],[131,79.72728],[131.5,79.71512],[132,79.70225],[132.5,79.68868],[133,79.67439],[133.5,79.65939],[134,79.64367],[134.5,79.62722],[135,79.61005],[135.5,79.59214],[136,79.57349],[136.5,79.5541],[137,79.53397],[137.5,79.51307],[138,79.49142],[138.5,79.469],[139,79.4458],[139.5,79.42182],[140,79.39706],[140.5,79.3715],[141,79.34514],[141.5,79.31797],[142,79.28998],[142.5,79.26117],[143,79.23152],[143.5,79.20103],[144,79.16969],[144,79.16968],[144.5,79.13748],[145,79.1044],[145.5,79.07044],[146,79.03559],[146.5,78.99984],[147,78.96317],[147.5,78.92558],[148,78.88705],[148.5,78.84758],[148.5,78.84757],[149,78.80714],[149.5,78.76573],[150,78.72334],[150.5,78.67995],[151,78.63555],[151.5,78.59012],[152,78.54365],[152.5,78.49612],[153,78.44753],[153.5,78.39785],[154,78.34707],[154.5,78.29518],[155,78.24215],[155.5,78.18797],[156,78.13262],[156.5,78.07608],[157,78.01835],[157.5,77.95938],[158,77.89918],[158.5,77.83772],[159,77.77497],[159.5,77.71092],[160,77.64555],[160.5,77.57884],[161,77.51076],[161.5,77.44129],[162,77.37041],[162.5,77.29809],[163,77.22432],[163.5,77.14907],[164,77.0723],[164.5,76.99401],[165,76.91415],[165.5,76.83272],[166,76.74967],[166.5,76.66498],[167,76.57863],[167.5,76.49058],[168,76.40081],[168.5,76.30929],[169,76.21599],[169.5,76.12087],[170,76.02391],[170,76.02392],[170.5,75.92509],[171,75.82435],[171.5,75.72169],[172,75.61705],[172.5,75.51042],[173,75.40175],[173.5,75.29102],[174,75.17818],[174,75.17819],[174.5,75.06322],[175,74.94609],[175.5,74.82676],[176,74.7052],[176.5,74.58137],[177,74.45524],[177.5,74.32677],[178,74.19593],[178.5,74.06269],[179,73.92701],[179.5,73.78887],[180,73.64821]]}},{"type":"Feature","id":"+02340614:north:1","properties":{"id":"+02340614","year":234,"month":6,"day":14,"time_tdt":"07:11:48","type":"금환일식","type_code":"A","saros":89,"gamma":0.79742,"magnitude":0.94688,"greatest":{"lat":74.35373,"lng":76.64386},"path_width_km":325.9,"duration":"04m05s","delta_t_seconds":8273.6,"catalog_number":5336,"source":"NASA Five Millennium Canon of Solar Eclipses","source_url":"https://eclipse.gsfc.nasa.gov/SEsearch/SEsearchmap.php?Ecl=%2B02340614","boundary":"north","name":"234-06-14 금환일식"},"geometry":{"type":"LineString","coordinates":[[-179.5,73.50503],[-179,73.35927],[-178.5,73.21092],[-178,73.05993],[-178,73.05994],[-177.5,72.90629],[-177,72.74996],[-176.5,72.59091],[-176,72.42912],[-175.5,72.26456],[-175,72.09721],[-174.5,71.92704],[-174,71.75403],[-173.5,71.57817],[-173,71.39943],[-172.5,71.21781],[-172,71.03328],[-171.5,70.84584],[-171,70.65547],[-170.5,70.46218],[-170,70.26595],[-169.5,70.06679],[-169,69.8647],[-168.5,69.65968],[-168,69.45175],[-168,69.45174],[-167.5,69.2409],[-167,69.02717],[-166.5,68.81057],[-166,68.59111],[-165.5,68.36883],[-165,68.14376],[-164.5,67.91592],[-164,67.68535],[-163.5,67.4521],[-163,67.21621],[-162.5,66.97772],[-162,66.73669],[-161.5,66.49317],[-161,66.24723],[-160.5,65.99891],[-160,65.7483],[-159.5,65.49546],[-159,65.24045],[-158.5,64.98336],[-158,64.72426],[-157.5,64.46324],[-157,64.20037],[-156.5,63.93574],[-156,63.66944],[-155.5,63.40156],[-155,63.13219],[-154.5,62.86141],[-154,62.58932],[-153.5,62.31603],[-153,62.04161],[-152.5,61.76616],[-152,61.48979],[-151.5,61.21258],[-151,60.93463],[-150.5,60.65603],[-150,60.37688],[-149.5,60.09728],[-149,59.8173],[-148.5,59.53704],[-148,59.25659],[-147.5,58.97604],[-147,58.69548],[-146.5,58.41498],[-146,58.13463],[-145.5,57.85451],[-145,57.57469],[-144.5,57.29526],[-144.5,57.29525],[-144,57.01627],[-143.5,56.73782],[-143,56.45996],[-142.5,56.18276],[-142,55.90628]]}},{"type":"Feature","id":"+02340614:center:0","properties":{"id":"+02340614","year":234,"month":6,"day":14,"time_tdt":"07:11:48","type":"금환일식","type_code":"A","saros":89,"gamma":0.79742,"magnitude":0.94688,"greatest":{"lat":74.35373,"lng":76.64386},"path_width_km":325.9,"duration":"04m05s","delta_t_seconds":8273.6,"catalog_number":5336,"source":"NASA Five Millennium Canon of Solar Eclipses","source_url":"https://eclipse.gsfc.nasa.gov/SEsearch/SEsearchmap.php?Ecl=%2B02340614","boundary":"center","name":"234-06-14 금환일식"},"geometry":{"type":"LineString","coordinates":[[12.57014,39.33375],[12.5,39.35611],[13,39.58988],[13.5,39.82693],[14,40.06731],[14.5,40.31104],[15,40.55814],[15.5,40.80866],[16,41.0626],[16.5,41.32],[17,41.58088],[17.5,41.84527],[18,42.11318],[18.5,42.38464],[19,42.65966],[19.5,42.93825],[20,43.22044],[20.5,43.50623],[21,43.79563],[21.5,44.08864],[22,44.38526],[22.5,44.6855],[23,44.98934],[23.5,45.29677],[24,45.60778],[24.5,45.92235],[25,46.24046],[25.5,46.56206],[26,46.88712],[26.5,47.21561],[27,47.54746],[27.5,47.88262],[28,48.22103],[28.5,48.5626],[29,48.90727],[29.5,49.25494],[30,49.6055],[30.5,49.95886],[31,50.31489],[31.5,50.67348],[32,51.03447],[32.5,51.39773],[33,51.76309],[33.5,52.1304],[33.5,52.13041],[34,52.49948],[34,52.49949],[34.5,52.87015],[35,53.2422],[35.5,53.61545],[36,53.98967],[36.5,54.36465],[37,54.74017],[37.5,55.116],[38,55.49189],[38.5,55.86762],[39,56.24293],[39.5,56.61759],[40,56.99133],[40.5,57.36393],[41,57.73512],[41.5,58.10467],[42,58.47234],[42.5,58.83789],[43,59.2011],[43.5,59.56172],[44,59.91957],[44.5,60.27441],[45,60.62606],[45.5,60.97434],[46,61.31905],[46.5,61.66004],[47,61.99715],[47.5,62.33024],[48,62.65918],[48.5,62.98384],[49,63.30413],[49.5,63.61995],[50,63.93122],[50.5,64.23787],[51,64.53983],[51.5,64.83706],[52,65.12952],[52.5,65.41718],[53,65.70003],[53.5,65.97805],[54,66.25125],[54.5,66.51962],[55,66.78319],[55.5,67.04198],[56,67.29601],[56.5,67.54532],[57,67.78994],[57.5,68.02992],[58,68.26531],[58.5,68.49615],[59,68.7225],[59.5,68.94442],[60,69.16197],[60.5,69.37521],[61,69.5842],[61.5,69.78901],[62,69.98971],[62.5,70.18637],[63,70.37904],[63.5,70.56782],[63.5,70.56781],[64,70.75275],[64.5,70.93391],[65,71.11138],[65.5,71.28521],[66,71.45548],[66.5,71.62227],[67,71.78562],[67.5,71.94562],[68,72.10233],[68.5,72.25581],[69,72.40614],[69.5,72.55336],[70,72.69756],[70.5,72.83878],[71,72.97709],[71.5,73.11254],[72,73.24521],[72.5,73.37513],[73,73.50238],[73.5,73.627],[74,73.74905],[74.5,73.86859],[75,73.98565],[75.5,74.1003],[76,74.21258],[76.5,74.32254],[77,74.43023],[77.5,74.5357],[77.5,74.53569],[78,74.63898],[78,74.63897],[78.5,74.74012],[79,74.83916],[79.5,74.93615],[80,75.03113],[80.5,75.12413],[81,75.2152],[81.5,75.30437],[82,75.39167],[82.5,75.47715],[83,75.56084],[83.5,75.64277],[84,75.72297],[84.5,75.80148],[85,75.87833],[85.5,75.95354],[86,76.02715],[86.5,76.09919],[87,76.16968],[87.5,76.23866],[88,76.30614],[88.5,76.37215],[89,76.43673],[89.5,76.49988],[90,76.56164],[90.5,76.62204],[91,76.68108],[91.5,76.7388],[92,76.79521],[92.5,76.85033],[93,76.9042],[93.5,76.95681],[94,77.0082],[94.5,77.05839],[95,77.10738],[95.5,77.1552],[96,77.20186],[96.5,77.24739],[97,77.29179],[97.5,77.33508],[98,77.37727],[98.5,77.41839],[99,77.45844],[99.5,77.49745],[100,77.53541],[100.5,77.57235],[101,77.60827],[101.5,77.64319],[102,77.67713],[102.5,77.71008],[103,77.74207],[103.5,77.7731],[104,77.80319],[104.5,77.83234],[105,77.86056],[105.5,77.88786],[106,77.91425],[106.5,77.93975],[107,77.96435],[107.5,77.98806],[108,78.0109],[108.5,78.03287],[109,78.05398],[109.5,78.07423],[110,78.09363],[110.5,78.11219],[111,78.12991],[111.5,78.1468],[112,78.16286],[112.5,78.1781],[113,78.19253],[113.5,78.20614],[114,78.21895],[114.5,78.23095],[115,78.24215],[115.5,78.25256],[116,78.26217],[116.5,78.271],[117,78.27904],[117.5,78.28629],[118,78.29276],[118.5,78.29846],[119,78.30337],[119.5,78.30751],[120,78.31088],[120.5,78.31348],[121,78.3153],[121.5,78.31635],[122,78.31663],[122.5,78.31614],[123,78.31488],[123.5,78.31286],[124,78.31006],[124.5,78.30649],[125,78.30215],[125.5,78.29704],[126,78.29115],[126.5,78.28449],[127,78.27705],[127.5,78.26884],[128,78.25985],[128.5,78.25007],[129,78.23951],[129.5,78.22816],[130,78.21602],[130.5,78.20308],[131,78.18935],[131.5,78.17482],[132,78.15949],[132.5,78.14334],[133,78.12639],[133.5,78.10861],[134,78.09002],[134.5,78.07059],[135,78.05034],[135.5,78.02924],[136,78.00731],[136.5,77.98452],[137,77.96088],[137.5,77.93637],[138,77.911],[138.5,77.88475],[139,77.85761],[139.5,77.82959],[140,77.80066],[140.5,77.77083],[141,77.74009],[141.5,77.70841],[142,77.67581],[142.5,77.64227],[143,77.60777],[143.5,77.57231],[144,77.53588],[144.5,77.49846],[144.5,77.49847],[145,77.46006],[145.5,77.42065],[146,77.38023],[146.5,77.33877],[147,77.29628],[147.5,77.25274],[148,77.20813],[148.5,77.16245],[149,77.11568],[149.5,77.0678],[150,77.01881],[150.5,76.96868],[151,76.9174],[151.5,76.86497],[152,76.81135],[152.5,76.75654],[153,76.70052],[153.5,76.64327],[154,76.58478],[154.5,76.52503],[155,76.464],[155.5,76.40167],[156,76.33803],[156.5,76.27305],[157,76.20671],[157.5,76.139],[158,76.0699],[158.5,75.99938],[159,75.92742],[159.5,75.85401],[160,75.77911],[160,75.77912],[160.5,75.70272],[161,75.62479],[161.5,75.54532],[162,75.46428],[162.5,75.38164],[163,75.29738],[163.5,75.21147],[164,75.12389],[164.5,75.03461],[165,74.94361],[165.5,74.85086],[166,74.75634],[166.5,74.66001],[167,74.56185],[167.5,74.46183],[168,74.35992],[168.5,74.25609],[169,74.15033],[169.5,74.04258],[170,73.93284],[170.5,73.82106],[171,73.70722],[171.5,73.59129],[172,73.47324],[172.5,73.35303],[173,73.23064],[173.5,73.10604],[174,72.9792],[174.5,72.85008],[175,72.71867],[175.5,72.58492],[176,72.44881],[176.5,72.31031],[177,72.1694],[177.5,72.02604],[178,71.8802],[178.5,71.73187],[179,71.581],[179.5,71.42759],[180,71.2716]]}},{"type":"Feature","id":"+02340614:center:1","properties":{"id":"+02340614","year":234,"month":6,"day":14,"time_tdt":"07:11:48","type":"금환일식","type_code":"A","saros":89,"gamma":0.79742,"magnitude":0.94688,"greatest":{"lat":74.35373,"lng":76.64386},"path_width_km":325.9,"duration":"04m05s","delta_t_seconds":8273.6,"catalog_number":5336,"source":"NASA Five Millennium Canon of Solar Eclipses","source_url":"https://eclipse.gsfc.nasa.gov/SEsearch/SEsearchmap.php?Ecl=%2B02340614","boundary":"center","name":"234-06-14 금환일식"},"geometry":{"type":"LineString","coordinates":[[-179.5,71.113],[-179,70.95179],[-178.5,70.78793],[-178,70.6214],[-177.5,70.45219],[-177,70.28028],[-176.5,70.10565],[-176,69.92829],[-175.5,69.74819],[-175,69.56533],[-174.5,69.37971],[-174,69.19132],[-173.5,69.00015],[-173,68.80621],[-172.5,68.6095],[-172,68.41001],[-171.5,68.20776],[-171,68.00274],[-170.5,67.79499],[-170,67.5845],[-170,67.58449],[-169.5,67.37129],[-169,67.15539],[-168.5,66.93681],[-168,66.71559],[-167.5,66.49176],[-167,66.26534],[-166.5,66.03637],[-166,65.8049],[-165.5,65.57096],[-165,65.3346],[-164.5,65.09586],[-164,64.85481],[-163.5,64.6115],[-163,64.36597],[-162.5,64.1183],[-162,63.86855],[-161.5,63.61678],[-161,63.36307],[-160.5,63.10747],[-160,62.85008],[-159.5,62.59096],[-159,62.33019],[-159,62.33018],[-158.5,62.06784],[-158,61.80401],[-157.5,61.53877],[-157,61.2722],[-156.5,61.0044],[-156,60.73543],[-155.5,60.4654],[-155,60.19439],[-154.5,59.92248],[-154,59.64975],[-153.5,59.3763],[-153,59.10222],[-152.5,58.82757],[-152,58.55246],[-151.5,58.27697],[-151.5,58.27696],[-151,58.00117],[-150.5,57.72514],[-150,57.44898],[-149.5,57.17276],[-149,56.89655],[-148.5,56.62043],[-148,56.34447],[-147.5,56.06876],[-147,55.79335],[-146.5,55.51832],[-146,55.24373],[-145.5,54.96964],[-145,54.69613],[-144.7831,54.61413]]}},{"type":"Feature","id":"+02340614:south:0","properties":{"id":"+02340614","year":234,"month":6,"day":14,"time_tdt":"07:11:48","type":"금환일식","type_code":"A","saros":89,"gamma":0.79742,"magnitude":0.94688,"greatest":{"lat":74.35373,"lng":76.64386},"path_width_km":325.9,"duration":"04m05s","delta_t_seconds":8273.6,"catalog_number":5336,"source":"NASA Five Millennium Canon of Solar Eclipses","source_url":"https://eclipse.gsfc.nasa.gov/SEsearch/SEsearchmap.php?Ecl=%2B02340614","boundary":"south","name":"234-06-14 금환일식"},"geometry":{"type":"LineString","coordinates":[[14.34375,37.90007],[14.5,37.97369],[15,38.21141],[15.5,38.45238],[16,38.69662],[16.5,38.94416],[17,39.19502],[17.5,39.44924],[18,39.70683],[18.5,39.96781],[19,40.23221],[19,40.23222],[19.5,40.50005],[20,40.77135],[20.5,41.04611],[21,41.32435],[21.5,41.6061],[22,41.89134],[22.5,42.18009],[23,42.47236],[23.5,42.76814],[24,43.06743],[24.5,43.37023],[25,43.67651],[25.5,43.98627],[26,44.29948],[26.5,44.61612],[27,44.93615],[27.5,45.25955],[28,45.58627],[28.5,45.91626],[29,46.24946],[29.5,46.58581],[30,46.92524],[30.5,47.26767],[31,47.61302],[31.5,47.96119],[32,48.31209],[32.5,48.66559],[33,49.02158],[33.5,49.37993],[34,49.7405],[34.5,50.10315],[35,50.46772],[35.5,50.83403],[36,51.20193],[36.5,51.57123],[37,51.94173],[37.5,52.31324],[38,52.68556],[38.5,53.05846],[39,53.43175],[39.5,53.80518],[40,54.17854],[40.5,54.55159],[41,54.92411],[41.5,55.29585],[42,55.66658],[42.5,56.03607],[43,56.40409],[43.5,56.7704],[44,57.13478],[44.5,57.497],[45,57.85686],[45.5,58.21414],[46,58.56863],[46.5,58.92016],[47,59.26852],[47.5,59.61355],[48,59.95507],[48.5,60.29295],[49,60.62703],[49.5,60.95717],[50,61.28327],[50.5,61.6052],[51,61.92287],[51.5,62.23619],[52,62.54509],[52.5,62.84949],[53,63.14935],[53.5,63.44462],[54,63.73526],[54,63.73525],[54.5,64.02124],[55,64.30255],[55.5,64.57917],[56,64.85111],[56.5,65.11837],[57,65.38097],[57.5,65.63892],[58,65.89224],[58.5,66.14097],[59,66.38515],[59.5,66.6248],[60,66.85998],[60.5,67.09073],[61,67.3171],[61.5,67.53915],[62,67.75693],[62.5,67.97049],[63,68.1799],[63.5,68.38522],[64,68.58651],[64.5,68.78383],[65,68.97725],[65.5,69.16683],[66,69.35263],[66.5,69.53473],[67,69.71318],[67.5,69.88806],[68,70.05942],[68.5,70.22733],[69,70.39185],[69.5,70.55305],[70,70.711],[70.5,70.86574],[71,71.01735],[71.5,71.16588],[72,71.31139],[72.5,71.45395],[73,71.5936],[73.5,71.73042],[74,71.86444],[74.5,71.99573],[75,72.12434],[75.5,72.25032],[76,72.37372],[76.5,72.4946],[77,72.613],[77.5,72.72897],[78,72.84256],[78.5,72.95381],[79,73.06277],[79.5,73.16949],[79.5,73.16948],[80,73.274],[80.5,73.37635],[80.5,73.37634],[81,73.47657],[81.5,73.57472],[82,73.67082],[82.5,73.76492],[83,73.85705],[83.5,73.94726],[83.5,73.94725],[84,74.03556],[84.5,74.122],[85,74.20662],[85.5,74.28944],[86,74.37049],[86.5,74.44981],[87,74.52743],[87.5,74.60338],[88,74.67768],[88.5,74.75036],[89,74.82145],[89.5,74.89098],[90,74.95897],[90.5,75.02545],[91,75.09044],[91.5,75.15396],[92,75.21604],[92.5,75.2767],[93,75.33597],[93,75.33596],[93.5,75.39385],[94,75.45038],[94.5,75.50557],[95,75.55944],[95.5,75.61201],[96,75.66331],[96.5,75.71334],[97,75.76212],[97.5,75.80968],[98,75.85602],[98.5,75.90117],[99,75.94513],[99.5,75.98793],[100,76.02958],[100.5,76.07008],[101,76.10947],[101.5,76.14774],[102,76.18491],[102.5,76.22099],[103,76.256],[103.5,76.28995],[104,76.32284],[104.5,76.3547],[105,76.38552],[105.5,76.41531],[106,76.4441],[106.5,76.47189],[107,76.49868],[107.5,76.52448],[108,76.54931],[108.5,76.57317],[109,76.59607],[109.5,76.61802],[110,76.63902],[110.5,76.65907],[111,76.6782],[111.5,76.6964],[112,76.71367],[112.5,76.73003],[113,76.74548],[113.5,76.76002],[114,76.77366],[114.5,76.7864],[115,76.79825],[115.5,76.80922],[116,76.81929],[116.5,76.82849],[117,76.8368],[117.5,76.84424],[118,76.85081],[118.5,76.8565],[119,76.86133],[119.5,76.86528],[120,76.86837],[120.5,76.8706],[121,76.87196],[121.5,76.87247],[122,76.8721],[122.5,76.87088],[123,76.8688],[123.5,76.86585],[124,76.86204],[124.5,76.85737],[125,76.85183],[125.5,76.84543],[126,76.83817],[126.5,76.83003],[127,76.82103],[127.5,76.81115],[128,76.8004],[128.5,76.78877],[129,76.77627],[129.5,76.76288],[130,76.7486],[130.5,76.73344],[131,76.71738],[131.5,76.70042],[132,76.68257],[132.5,76.6638],[133,76.64413],[133.5,76.62354],[134,76.60202],[134,76.60203],[134.5,76.57959],[135,76.55621],[135.5,76.5319],[136,76.50664],[136.5,76.48043],[137,76.45327],[137.5,76.42513],[138,76.39602],[138.5,76.36593],[139,76.33485],[139.5,76.30277],[140,76.26969],[140.5,76.23559],[141,76.20046],[141.5,76.1643],[142,76.1271],[142.5,76.08884],[143,76.04952],[143.5,76.00912],[144,75.96763],[144.5,75.92505],[145,75.88136],[145.5,75.83654],[146,75.7906],[146.5,75.7435],[147,75.69525],[147.5,75.64582],[148,75.59521],[148.5,75.54339],[149,75.49036],[149.5,75.4361],[150,75.3806],[150.5,75.32383],[151,75.26579],[151.5,75.20645],[152,75.14581],[152.5,75.08384],[153,75.02052],[153.5,74.95585],[154,74.88979],[154.5,74.82234],[155,74.75347],[155.5,74.68316],[156,74.6114],[156.5,74.53817],[157,74.46343],[157.5,74.38719],[158,74.3094],[158.5,74.23005],[159,74.14913],[159.5,74.0666],[160,73.98244],[160.5,73.89664],[161,73.80916],[161.5,73.71999],[162,73.62909],[162.5,73.53646],[162.5,73.53645],[163,73.44205],[163.5,73.34585],[164,73.24783],[164.5,73.14797],[165,73.04623],[165.5,72.9426],[166,72.83705],[166.5,72.72954],[167,72.62006],[167.5,72.50858],[168,72.39507],[168.5,72.2795],[169,72.16185],[169.5,72.04209],[170,71.92019],[170.5,71.79612],[171,71.66986],[171.5,71.54138],[172,71.41066],[172.5,71.27766],[173,71.14236],[173.5,71.00474],[174,70.86477],[174.5,70.72242],[175,70.57768],[175.5,70.4305],[176,70.28088],[176.5,70.12879],[177,69.97421],[177.5,69.81711],[178,69.65748],[178.5,69.4953],[179,69.33054],[179.5,69.1632],[180,68.99326]]}},{"type":"Feature","id":"+02340614:south:1","properties":{"id":"+02340614","year":234,"month":6,"day":14,"time_tdt":"07:11:48","type":"금환일식","type_code":"A","saros":89,"gamma":0.79742,"magnitude":0.94688,"greatest":{"lat":74.35373,"lng":76.64386},"path_width_km":325.9,"duration":"04m05s","delta_t_seconds":8273.6,"catalog_number":5336,"source":"NASA Five Millennium Canon of Solar Eclipses","source_url":"https://eclipse.gsfc.nasa.gov/SEsearch/SEsearchmap.php?Ecl=%2B02340614","boundary":"south","name":"234-06-14 금환일식"},"geometry":{"type":"LineString","coordinates":[[-179.5,68.8207],[-179,68.64551],[-178.5,68.46767],[-178,68.28719],[-177.5,68.10406],[-177,67.91825],[-177,67.91826],[-176.5,67.72979],[-176,67.53865],[-175.5,67.34485],[-175,67.14838],[-174.5,66.94925],[-174,66.74747],[-173.5,66.54305],[-173,66.33599],[-172.5,66.12632],[-172,65.91406],[-171.5,65.69921],[-171,65.48181],[-170.5,65.26189],[-170,65.03946],[-169.5,64.81457],[-169,64.58725],[-168.5,64.35753],[-168,64.12546],[-167.5,63.89108],[-167,63.65443],[-166.5,63.41556],[-166,63.17453],[-165.5,62.93139],[-165,62.6862],[-164.5,62.43901],[-164,62.18989],[-163.5,61.9389],[-163,61.68611],[-162.5,61.43158],[-162,61.17539],[-161.5,60.9176],[-161,60.65829],[-160.5,60.39754],[-160,60.13542],[-159.5,59.872],[-159,59.60737],[-158.5,59.34161],[-158,59.07479],[-158,59.07478],[-157.5,58.80699],[-157,58.53829],[-156.5,58.26878],[-156,57.99854],[-155.5,57.72763],[-155,57.45615],[-154.5,57.18418],[-154,56.91178],[-153.5,56.63904],[-153,56.36604],[-152.5,56.09285],[-152,55.81954],[-151.5,55.54619],[-151,55.27287],[-150.5,54.99964],[-150,54.72659],[-149.5,54.45378],[-149,54.18126],[-148.5,53.90911],[-148,53.63739],[-147.5,53.36615],[-147.43359,53.33016]]}}],"attribution":"Eclipse Predictions by Fred Espenak and Jean Meeus (NASA's GSFC)","generated_at":"2026-09-23T01:44:47.290Z"}
