{"type":"FeatureCollection","year":241,"events":[{"id":"+02410129","year":241,"month":1,"day":29,"time_tdt":"16:13:53","type":"금환일식","type_code":"A","saros":83,"gamma":0.50018,"magnitude":0.92613,"greatest":{"lat":10.23976,"lng":-35.76514},"path_width_km":316.7,"duration":"09m27s","delta_t_seconds":8210.5,"catalog_number":5351,"source":"NASA Five Millennium Canon of Solar Eclipses","source_url":"https://eclipse.gsfc.nasa.gov/SEsearch/SEsearchmap.php?Ecl=%2B02410129"},{"id":"+02410726","year":241,"month":7,"day":26,"time_tdt":"00:40:00","type":"개기일식","type_code":"T","saros":88,"gamma":-0.51601,"magnitude":1.04949,"greatest":{"lat":-9.67822,"lng":-164.5481},"path_width_km":190.4,"duration":"04m40s","delta_t_seconds":8205.9,"catalog_number":5352,"source":"NASA Five Millennium Canon of Solar Eclipses","source_url":"https://eclipse.gsfc.nasa.gov/SEsearch/SEsearchmap.php?Ecl=%2B02410726"}],"features":[{"type":"Feature","id":"+02410129:north:0","properties":{"id":"+02410129","year":241,"month":1,"day":29,"time_tdt":"16:13:53","type":"금환일식","type_code":"A","saros":83,"gamma":0.50018,"magnitude":0.92613,"greatest":{"lat":10.23976,"lng":-35.76514},"path_width_km":316.7,"duration":"09m27s","delta_t_seconds":8210.5,"catalog_number":5351,"source":"NASA Five Millennium Canon of Solar Eclipses","source_url":"https://eclipse.gsfc.nasa.gov/SEsearch/SEsearchmap.php?Ecl=%2B02410129","boundary":"north","name":"241-01-29 금환일식"},"geometry":{"type":"LineString","coordinates":[[-86.50977,9.78884],[-86.5,9.7856],[-86,9.62036],[-85.5,9.45641],[-85,9.29376],[-84.5,9.13247],[-84,8.97256],[-83.5,8.81407],[-83,8.65704],[-82.5,8.50151],[-82,8.34752],[-81.5,8.19511],[-81,8.04431],[-80.5,7.89518],[-80,7.74776],[-79.5,7.60208],[-79,7.45821],[-78.5,7.31618],[-78,7.17604],[-77.5,7.03785],[-77,6.90164],[-76.5,6.76749],[-76,6.63543],[-75.5,6.50552],[-75,6.37782],[-74.5,6.25239],[-74,6.12929],[-73.5,6.00857],[-73,5.8903],[-72.5,5.77454],[-72,5.66136],[-71.5,5.55083],[-71,5.44301],[-70.5,5.33798],[-70,5.23581],[-69.5,5.13657],[-69,5.04035],[-68.5,4.94722],[-68,4.85726],[-67.5,4.77056],[-67,4.6872],[-66.5,4.60728],[-66,4.53089],[-65.5,4.45811],[-65,4.38906],[-64.5,4.32382],[-64,4.2625],[-63.5,4.20521],[-63,4.15206],[-62.5,4.10316],[-62,4.05863],[-61.5,4.01859],[-61,3.98315],[-60.5,3.95246],[-60,3.92663],[-59.5,3.90581],[-59,3.89014],[-58.5,3.87975],[-58,3.87481],[-57.5,3.87545],[-57,3.88184],[-56.5,3.89414],[-56,3.91253],[-55.5,3.93716],[-55,3.96822],[-54.5,4.00588],[-54,4.05035],[-53.5,4.10181],[-53,4.16045],[-52.5,4.22648],[-52,4.30011],[-51.5,4.38155],[-51,4.47102],[-50.5,4.56873],[-50,4.67492],[-49.5,4.78982],[-49,4.91364],[-48.5,5.04664],[-48,5.18905],[-47.5,5.3411],[-47,5.50304],[-46.5,5.6751],[-46,5.85752],[-45.5,6.05052],[-45,6.25433],[-44.5,6.46918],[-44,6.69526],[-43.5,6.93278],[-43,7.18192],[-42.5,7.44285],[-42,7.7157],[-41.5,8.0006],[-41,8.29766],[-40.5,8.60692],[-40,8.92844],[-39.5,9.2622],[-39,9.60817],[-38.5,9.96625],[-38,10.33632],[-37.5,10.7182],[-37,11.11165],[-36.5,11.5164],[-36,11.93212],[-35.5,12.35842],[-35,12.79487],[-34.5,13.24099],[-34,13.69624],[-33.5,14.16005],[-33,14.63183],[-32.5,15.11091],[-32,15.59664],[-31.5,16.08833],[-31,16.58527],[-30.5,17.08675],[-30,17.59206],[-29.5,18.1005],[-29,18.61138],[-28.5,19.12401],[-28,19.63773],[-27.5,20.15193],[-27,20.666],[-26.5,21.17938],[-26,21.69153],[-25.5,22.20195],[-25,22.71019],[-24.5,23.21581],[-24,23.71845],[-23.5,24.21773],[-23,24.71336],[-22.5,25.20503],[-22,25.69251],[-21.5,26.17558],[-21,26.65403],[-20.5,27.12771],[-20,27.59647],[-19.5,28.06019],[-19,28.51878],[-18.5,28.97215],[-18,29.42025],[-17.5,29.86303],[-17,30.30046],[-16.5,30.73252],[-16,31.15919],[-15.5,31.5805],[-15,31.99643],[-14.5,32.40703],[-14,32.81231],[-13.5,33.2123],[-13,33.60705],[-12.5,33.9966],[-12,34.381],[-11.5,34.76029],[-11,35.13453],[-10.5,35.50378],[-10,35.86809],[-9.5,36.22753],[-9,36.58215],[-8.5,36.93202],[-8,37.27721],[-7.5,37.61776],[-7,37.95376],[-6.5,38.28525],[-6,38.61231],[-5.5,38.935],[-5,39.25338],[-4.5,39.56751],[-4,39.87746],[-3.5,40.18329],[-3,40.48506],[-2.5,40.78283],[-2,41.07665],[-1.5,41.3666],[-1,41.65271],[-0.5,41.93506],[0,42.2137],[0.5,42.48868],[1,42.76006],[1.5,43.02788],[2,43.29221],[2.5,43.55309],[3,43.81058],[3.5,44.06472],[4,44.31556],[4.5,44.56315],[5,44.80754],[5.5,45.04877],[6,45.28688],[6.5,45.52193],[7,45.75395],[7.5,45.98299],[8,46.20908],[8.5,46.43227],[9,46.65261],[9.5,46.87012],[10,47.08484],[10.5,47.29682],[11,47.50609],[11.5,47.71269],[12,47.91664],[12.5,48.118],[13,48.31678],[13.5,48.51303],[14,48.70677],[14.5,48.89805],[15,49.08688],[15.5,49.2733],[16,49.45734],[17,49.81841],[16.5,49.63904]]}},{"type":"Feature","id":"+02410129:center:0","properties":{"id":"+02410129","year":241,"month":1,"day":29,"time_tdt":"16:13:53","type":"금환일식","type_code":"A","saros":83,"gamma":0.50018,"magnitude":0.92613,"greatest":{"lat":10.23976,"lng":-35.76514},"path_width_km":316.7,"duration":"09m27s","delta_t_seconds":8210.5,"catalog_number":5351,"source":"NASA Five Millennium Canon of Solar Eclipses","source_url":"https://eclipse.gsfc.nasa.gov/SEsearch/SEsearchmap.php?Ecl=%2B02410129","boundary":"center","name":"241-01-29 금환일식"},"geometry":{"type":"LineString","coordinates":[[-86.70584,8.15968],[-86.5,8.09462],[-86,7.93276],[-85.5,7.77218],[-85,7.6129],[-84.5,7.45497],[-84,7.29842],[-83.5,7.14328],[-83,6.9896],[-82.5,6.8374],[-82,6.68673],[-81.5,6.53763],[-81,6.39014],[-80.5,6.2443],[-80,6.10015],[-79.5,5.95774],[-79,5.81711],[-78.5,5.67831],[-78,5.54137],[-77.5,5.40636],[-77,5.27332],[-76.5,5.1423],[-76,5.01335],[-75.5,4.88653],[-75,4.76189],[-74.5,4.63948],[-74,4.51936],[-73.5,4.40159],[-73,4.28623],[-72.5,4.17334],[-72,4.06299],[-71.5,3.95523],[-71,3.85014],[-70.5,3.74779],[-70,3.64824],[-69.5,3.55156],[-69,3.45784],[-68.5,3.36714],[-68,3.27954],[-67.5,3.19513],[-67,3.11399],[-66.5,3.0362],[-66,2.96185],[-65.5,2.89103],[-65,2.82383],[-64.5,2.76034],[-64,2.70067],[-63.5,2.64492],[-63,2.59319],[-62.5,2.54558],[-62,2.50221],[-61.5,2.46319],[-61,2.42863],[-60.5,2.39866],[-60,2.37341],[-59.5,2.35299],[-59,2.33753],[-58.5,2.32719],[-58,2.32209],[-57.5,2.32237],[-57,2.3282],[-56.5,2.33971],[-56,2.35707],[-55.5,2.38043],[-55,2.40996],[-54.5,2.44585],[-54,2.48824],[-53.5,2.53734],[-53,2.59333],[-52.5,2.65639],[-52,2.72672],[-51.5,2.80452],[-51,2.89],[-50.5,2.98336],[-50,3.08482],[-49.5,3.19458],[-49,3.31289],[-48.5,3.43995],[-48,3.57599],[-47.5,3.72124],[-47,3.87593],[-46.5,4.04029],[-46,4.21455],[-45.5,4.39893],[-45,4.59365],[-44.5,4.79895],[-44,5.01501],[-43.5,5.24206],[-43,5.48028],[-42.5,5.72985],[-42,5.99093],[-41.5,6.26368],[-41,6.5482],[-40.5,6.84461],[-40,7.15297],[-39.5,7.47333],[-39,7.80569],[-38.5,8.15002],[-38,8.50624],[-37.5,8.87426],[-37,9.2539],[-36.5,9.64495],[-36,10.04717],[-35.5,10.46023],[-35,10.88379],[-34.5,11.31743],[-34,11.76069],[-33.5,12.21308],[-33,12.67404],[-32.5,13.14299],[-32,13.61931],[-31.5,14.10235],[-31,14.59144],[-30.5,15.08589],[-30,15.58499],[-29.5,16.08806],[-29,16.59438],[-28.5,17.10327],[-28,17.61405],[-27.5,18.12606],[-27,18.63867],[-26.5,19.15128],[-26,19.6633],[-25.5,20.1742],[-25,20.68347],[-24.5,21.19065],[-24,21.69529],[-23.5,22.197],[-23,22.69542],[-22.5,23.19022],[-22,23.68111],[-21.5,24.16783],[-21,24.65014],[-20.5,25.12786],[-20,25.6008],[-19.5,26.06882],[-19,26.53179],[-18.5,26.9896],[-18,27.44219],[-17.5,27.88947],[-17,28.33141],[-16.5,28.76796],[-16,29.19911],[-15.5,29.62485],[-15,30.04517],[-14.5,30.46009],[-14,30.86963],[-13.5,31.27381],[-13,31.67267],[-12.5,32.06625],[-12,32.45459],[-11.5,32.83773],[-11,33.21574],[-10.5,33.58865],[-10,33.95654],[-9.5,34.31946],[-9,34.67747],[-8.5,35.03063],[-8,35.37901],[-7.5,35.72267],[-7,36.06168],[-6.5,36.39609],[-6,36.72598],[-5.5,37.05141],[-5,37.37245],[-4.5,37.68915],[-4,38.00159],[-3.5,38.30982],[-3,38.61391],[-2.5,38.91392],[-2,39.20992],[-1.5,39.50195],[-1,39.79009],[-0.5,40.07439],[0,40.35491],[0.5,40.63171],[1,40.90484],[1.5,41.17435],[2,41.44031],[2.5,41.70276],[3,41.96176],[3.5,42.21735],[4,42.46959],[4.5,42.71853],[5,42.96421],[5.5,43.20669],[6,43.446],[6.5,43.6822],[7,43.91533],[7.5,44.14543],[8,44.37254],[8.5,44.59672],[9,44.81799],[9.5,45.0364],[10,45.25199],[10.5,45.46479],[11,45.67485],[11.5,45.8822],[12,46.08688],[12.5,46.28893],[13,46.48837],[13.5,46.68524],[14,46.87959],[14.5,47.07143],[15,47.2608],[15.5,47.44774],[16,47.63227],[16.5,47.81442],[17,47.99423],[17.5,48.17172],[18,48.34692],[17.99318,48.41665]]}},{"type":"Feature","id":"+02410129:south:0","properties":{"id":"+02410129","year":241,"month":1,"day":29,"time_tdt":"16:13:53","type":"금환일식","type_code":"A","saros":83,"gamma":0.50018,"magnitude":0.92613,"greatest":{"lat":10.23976,"lng":-35.76514},"path_width_km":316.7,"duration":"09m27s","delta_t_seconds":8210.5,"catalog_number":5351,"source":"NASA Five Millennium Canon of Solar Eclipses","source_url":"https://eclipse.gsfc.nasa.gov/SEsearch/SEsearchmap.php?Ecl=%2B02410129","boundary":"south","name":"241-01-29 금환일식"},"geometry":{"type":"LineString","coordinates":[[-86.92773,6.56443],[-86.5,6.42784],[-86,6.26932],[-85.5,6.11208],[-85,5.95614],[-84.5,5.80154],[-84,5.64832],[-83.5,5.49651],[-83,5.34614],[-82.5,5.19726],[-82,5.0499],[-81.5,4.9041],[-81,4.7599],[-80.5,4.61733],[-80,4.47645],[-79.5,4.33729],[-79,4.1999],[-78.5,4.06432],[-78,3.9306],[-77.5,3.79878],[-77,3.6689],[-76.5,3.54103],[-76,3.41521],[-75.5,3.29148],[-75,3.16991],[-74.5,3.05054],[-74,2.93344],[-73.5,2.81865],[-73,2.70623],[-72.5,2.59625],[-72,2.48876],[-71.5,2.38383],[-71,2.28152],[-70.5,2.1819],[-70,2.08502],[-69.5,1.99097],[-69,1.89981],[-68.5,1.81162],[-68,1.72647],[-67.5,1.64443],[-67,1.56559],[-66.5,1.49002],[-66,1.41781],[-65.5,1.34905],[-65,1.28382],[-64.5,1.22221],[-64,1.16432],[-63.5,1.11024],[-63,1.06007],[-62.5,1.01391],[-62,0.97186],[-61.5,0.93404],[-61,0.90055],[-60.5,0.8715],[-60,0.84701],[-59.5,0.82721],[-59,0.81222],[-58.5,0.80215],[-58,0.79715],[-57.5,0.79735],[-57,0.80289],[-56.5,0.81392],[-56,0.83057],[-55.5,0.853],[-55,0.88136],[-54.5,0.91583],[-54,0.95656],[-53.5,1.00371],[-53,1.05747],[-52.5,1.11802],[-52,1.18553],[-51.5,1.2602],[-51,1.34221],[-50.5,1.43176],[-50,1.52906],[-49.5,1.6343],[-49,1.7477],[-48.5,1.86947],[-48,1.99982],[-47.5,2.13897],[-47,2.28714],[-46.5,2.44454],[-46,2.61141],[-45.5,2.78796],[-45,2.9744],[-44.5,3.17095],[-44,3.37783],[-43.5,3.59524],[-43,3.82338],[-42.5,4.06243],[-42,4.31256],[-41.5,4.57395],[-41,4.84673],[-40.5,5.13103],[-40,5.42695],[-39.5,5.73457],[-39,6.05392],[-38.5,6.38504],[-38,6.7279],[-37.5,7.08243],[-37,7.44855],[-36.5,7.8261],[-36,8.2149],[-35.5,8.61471],[-35,9.02525],[-34.5,9.44618],[-34,9.87711],[-33.5,10.31762],[-33,10.76722],[-32.5,11.2254],[-32,11.69158],[-31.5,12.16518],[-31,12.64556],[-30.5,13.13207],[-30,13.62404],[-29.5,14.12078],[-29,14.62159],[-28.5,15.12579],[-28,15.63268],[-27.5,16.1416],[-27,16.65188],[-26.5,17.16288],[-26,17.67401],[-25.5,18.18467],[-25,18.69432],[-24.5,19.20244],[-24,19.70855],[-23.5,20.2122],[-23,20.713],[-22.5,21.21056],[-22,21.70456],[-21.5,22.19468],[-21,22.68066],[-20.5,23.16226],[-20,23.63927],[-19.5,24.11152],[-19,24.57884],[-18.5,25.0411],[-18,25.4982],[-17.5,25.95005],[-17,26.39657],[-16.5,26.83772],[-16,27.27345],[-15.5,27.70375],[-15,28.1286],[-14.5,28.54801],[-14,28.96197],[-13.5,29.37051],[-13,29.77366],[-12.5,30.17145],[-12,30.56391],[-11.5,30.9511],[-11,31.33305],[-10.5,31.70983],[-10,32.08148],[-9.5,32.44806],[-9,32.80964],[-8.5,33.16628],[-8,33.51803],[-7.5,33.86497],[-7,34.20715],[-6.5,34.54465],[-6,34.87753],[-5.5,35.20586],[-5,35.5297],[-4.5,35.84912],[-4,36.16418],[-3.5,36.47495],[-3,36.78149],[-2.5,37.08387],[-2,37.38216],[-1.5,37.6764],[-1,37.96667],[-0.5,38.25303],[0,38.53553],[0.5,38.81423],[1,39.0892],[1.5,39.36048],[2,39.62814],[2.5,39.89223],[3,40.1528],[3.5,40.40991],[4,40.66361],[4.5,40.91394],[5,41.16097],[5.5,41.40473],[6,41.64528],[6.5,41.88266],[7,42.11692],[7.5,42.34811],[8,42.57626],[8.5,42.80143],[9,43.02365],[9.5,43.24296],[10,43.45941],[10.5,43.67304],[11,43.88388],[11.5,44.09198],[12,44.29736],[12.5,44.50008],[13,44.70015],[13.5,44.89763],[14,45.09254],[14.5,45.28492],[15,45.47479],[15.5,45.6622],[16,45.84718],[16.5,46.02974],[17,46.20994],[17.5,46.38779],[18,46.56332],[18.5,46.73657],[18.89844,46.87301]]}},{"type":"Feature","id":"+02410726:north:0","properties":{"id":"+02410726","year":241,"month":7,"day":26,"time_tdt":"00:40:00","type":"개기일식","type_code":"T","saros":88,"gamma":-0.51601,"magnitude":1.04949,"greatest":{"lat":-9.67822,"lng":-164.5481},"path_width_km":190.4,"duration":"04m40s","delta_t_seconds":8205.9,"catalog_number":5352,"source":"NASA Five Millennium Canon of Solar Eclipses","source_url":"https://eclipse.gsfc.nasa.gov/SEsearch/SEsearchmap.php?Ecl=%2B02410726","boundary":"north","name":"241-07-26 개기일식"},"geometry":{"type":"LineString","coordinates":[[142,-11.21826],[142.5,-11.0327],[143,-10.84818],[143.5,-10.66474],[144,-10.48241],[144.5,-10.30122],[145,-10.12121],[145.5,-9.94242],[146,-9.76488],[146.5,-9.58862],[147,-9.41368],[147.5,-9.2401],[148,-9.06792],[148.5,-8.89718],[149,-8.72792],[149.5,-8.56017],[150,-8.39398],[150.5,-8.2294],[151,-8.06646],[151.5,-7.90521],[152,-7.74569],[152.5,-7.58795],[153,-7.43204],[153.5,-7.27801],[154,-7.12589],[154.5,-6.97575],[155,-6.82764],[155.5,-6.6816],[156,-6.53769],[156.5,-6.39596],[157,-6.25647],[157.5,-6.11927],[158,-5.98442],[158.5,-5.85198],[159,-5.72201],[159.5,-5.59456],[160,-5.46971],[160.5,-5.34752],[161,-5.22804],[161.5,-5.11134],[162,-4.9975],[162.5,-4.88658],[163,-4.77866],[163.5,-4.67379],[164,-4.57206],[164.5,-4.47354],[165,-4.3783],[165.5,-4.28643],[166,-4.19799],[166.5,-4.11308],[167,-4.03178],[167.5,-3.95416],[168,-3.88032],[168.5,-3.81033],[169,-3.7443],[169.5,-3.6823],[170,-3.62444],[170.5,-3.57081],[171,-3.5215],[171.5,-3.47661],[172,-3.43623],[172.5,-3.40048],[173,-3.36946],[173.5,-3.34326],[174,-3.322],[174.5,-3.30578],[175,-3.29472],[175.5,-3.28892],[176,-3.28851],[176.5,-3.29359],[177,-3.30428],[177.5,-3.3207],[178,-3.34298],[178.5,-3.37122],[179,-3.40556],[179.5,-3.44612],[180,-3.49302]]}},{"type":"Feature","id":"+02410726:north:1","properties":{"id":"+02410726","year":241,"month":7,"day":26,"time_tdt":"00:40:00","type":"개기일식","type_code":"T","saros":88,"gamma":-0.51601,"magnitude":1.04949,"greatest":{"lat":-9.67822,"lng":-164.5481},"path_width_km":190.4,"duration":"04m40s","delta_t_seconds":8205.9,"catalog_number":5352,"source":"NASA Five Millennium Canon of Solar Eclipses","source_url":"https://eclipse.gsfc.nasa.gov/SEsearch/SEsearchmap.php?Ecl=%2B02410726","boundary":"north","name":"241-07-26 개기일식"},"geometry":{"type":"LineString","coordinates":[[-179.5,-3.54639],[-179,-3.60634],[-178.5,-3.67302],[-178,-3.74654],[-177.5,-3.82703],[-177,-3.91461],[-176.5,-4.00941],[-176,-4.11155],[-175.5,-4.22115],[-175,-4.33833],[-174.5,-4.46321],[-174,-4.5959],[-173.5,-4.73651],[-173,-4.88514],[-172.5,-5.04189],[-172,-5.20685],[-171.5,-5.38012],[-171,-5.56177],[-170.5,-5.75187],[-170,-5.95048],[-169.5,-6.15766],[-169,-6.37344],[-168.5,-6.59787],[-168,-6.83094],[-167.5,-7.07267],[-167,-7.32304],[-166.5,-7.58202],[-166,-7.84958],[-165.5,-8.12564],[-165,-8.41013],[-164.5,-8.70296],[-164,-9.00401],[-163.5,-9.31314],[-163,-9.6302],[-162.5,-9.95501],[-162,-10.28739],[-161.5,-10.62712],[-161,-10.97397],[-160.5,-11.3277],[-160,-11.68804],[-159.5,-12.05471],[-159,-12.42741],[-158.5,-12.80584],[-158,-13.18968],[-157.5,-13.5786],[-157,-13.97225],[-156.5,-14.3703],[-156,-14.77238],[-155.5,-15.17816],[-155,-15.58726],[-154.5,-15.99934],[-154,-16.41404],[-153.5,-16.83101],[-153,-17.24991],[-152.5,-17.6704],[-152,-18.09215],[-151.5,-18.51483],[-151,-18.93814],[-150.5,-19.36178],[-150,-19.78545],[-149.5,-20.20888],[-149,-20.63181],[-148.5,-21.05398],[-148,-21.47515],[-147.5,-21.89511],[-147,-22.31364],[-146.5,-22.73055],[-146,-23.14564],[-145.5,-23.55874],[-145,-23.9697],[-144.5,-24.37837],[-144,-24.78461],[-143.5,-25.18829],[-143,-25.5893],[-142.5,-25.98755],[-142,-26.38292],[-141.5,-26.77535],[-141,-27.16474],[-140.5,-27.55104],[-140,-27.93419],[-139.5,-28.31412],[-139,-28.6908],[-138.5,-29.06419],[-138,-29.43425],[-137.5,-29.80095],[-137,-30.16427],[-136.5,-30.5242],[-136,-30.88072],[-135.5,-31.23381],[-135,-31.58349],[-134.5,-31.92973],[-134,-32.27255],[-133.5,-32.61194],[-133,-32.94792],[-132.5,-33.28049],[-132,-33.60967],[-131.5,-33.93546],[-131,-34.25789],[-130.5,-34.57697],[-130,-34.89271],[-129.5,-35.20514],[-129,-35.51428],[-128.5,-35.82015],[-128,-36.12277],[-127.5,-36.42217],[-127,-36.71837],[-126.5,-37.0114],[-126,-37.30127],[-125.5,-37.58803],[-125,-37.87169],[-124.5,-38.15228],[-124,-38.42983],[-123.5,-38.70437],[-123,-38.97592],[-122.5,-39.24451],[-122,-39.51016],[-121.5,-39.77292],[-121,-40.03279],[-120.5,-40.28982],[-120,-40.54403],[-119.5,-40.79545],[-119,-41.0441],[-118.5,-41.29001],[-118,-41.53321],[-117.5,-41.77372],[-117,-42.01158],[-116.5,-42.24681],[-116,-42.47943],[-115.5,-42.70947],[-115,-42.93696],[-114.5,-43.16192],[-114,-43.38438],[-113.5,-43.60437],[-113,-43.8219],[-112.5,-44.03701],[-112,-44.24971],[-111.5,-44.46003],[-111,-44.668],[-110.5,-44.87364],[-110,-45.07697],[-109.5,-45.27801],[-109.17188,-45.40872]]}},{"type":"Feature","id":"+02410726:center:0","properties":{"id":"+02410726","year":241,"month":7,"day":26,"time_tdt":"00:40:00","type":"개기일식","type_code":"T","saros":88,"gamma":-0.51601,"magnitude":1.04949,"greatest":{"lat":-9.67822,"lng":-164.5481},"path_width_km":190.4,"duration":"04m40s","delta_t_seconds":8205.9,"catalog_number":5352,"source":"NASA Five Millennium Canon of Solar Eclipses","source_url":"https://eclipse.gsfc.nasa.gov/SEsearch/SEsearchmap.php?Ecl=%2B02410726","boundary":"center","name":"241-07-26 개기일식"},"geometry":{"type":"LineString","coordinates":[[141.94055,-11.8263],[142,-11.80738],[142.5,-11.62436],[143,-11.44239],[143.5,-11.26152],[144,-11.08177],[144.5,-10.90317],[145,-10.72577],[145.5,-10.54959],[146,-10.37467],[146.5,-10.20105],[147,-10.02877],[147.5,-9.85785],[148,-9.68835],[148.5,-9.52029],[149,-9.35372],[149.5,-9.18869],[150,-9.02522],[150.5,-8.86337],[151,-8.70317],[151.5,-8.54468],[152,-8.38793],[152.5,-8.23297],[153,-8.07986],[153.5,-7.92863],[154,-7.77933],[154.5,-7.63203],[155,-7.48676],[155.5,-7.34358],[156,-7.20254],[156.5,-7.0637],[157,-6.9271],[157.5,-6.79282],[158,-6.6609],[158.5,-6.53141],[159,-6.4044],[159.5,-6.27994],[160,-6.15809],[160.5,-6.0389],[161,-5.92246],[161.5,-5.80882],[162,-5.69805],[162.5,-5.59022],[163,-5.48541],[163.5,-5.38367],[164,-5.2851],[164.5,-5.18976],[165,-5.09773],[165.5,-5.00909],[166,-4.92392],[166.5,-4.84229],[167,-4.7643],[167.5,-4.69003],[168,-4.61957],[168.5,-4.553],[169,-4.49041],[169.5,-4.4319],[170,-4.37756],[170.5,-4.32749],[171,-4.28178],[171.5,-4.24053],[172,-4.20385],[172.5,-4.17183],[173,-4.14459],[173.5,-4.12223],[174,-4.10485],[174.5,-4.09257],[175,-4.0855],[175.5,-4.08376],[176,-4.08746],[176.5,-4.09671],[177,-4.11164],[177.5,-4.13236],[178,-4.15901],[178.5,-4.19169],[179,-4.23054],[179.5,-4.27568],[180,-4.32723]]}},{"type":"Feature","id":"+02410726:center:1","properties":{"id":"+02410726","year":241,"month":7,"day":26,"time_tdt":"00:40:00","type":"개기일식","type_code":"T","saros":88,"gamma":-0.51601,"magnitude":1.04949,"greatest":{"lat":-9.67822,"lng":-164.5481},"path_width_km":190.4,"duration":"04m40s","delta_t_seconds":8205.9,"catalog_number":5352,"source":"NASA Five Millennium Canon of Solar Eclipses","source_url":"https://eclipse.gsfc.nasa.gov/SEsearch/SEsearchmap.php?Ecl=%2B02410726","boundary":"center","name":"241-07-26 개기일식"},"geometry":{"type":"LineString","coordinates":[[-179.5,-4.38532],[-179,-4.45008],[-178.5,-4.52164],[-178,-4.60012],[-177.5,-4.68564],[-177,-4.77833],[-176.5,-4.87832],[-176,-4.98572],[-175.5,-5.10067],[-175,-5.22326],[-174.5,-5.35362],[-174,-5.49186],[-173.5,-5.63807],[-173,-5.79237],[-172.5,-5.95485],[-172,-6.12558],[-171.5,-6.30466],[-171,-6.49216],[-170.5,-6.68813],[-170,-6.89263],[-169.5,-7.10571],[-169,-7.32738],[-168.5,-7.55766],[-168,-7.79657],[-167.5,-8.04409],[-167,-8.30018],[-166.5,-8.56481],[-166,-8.83791],[-165.5,-9.11941],[-165,-9.40921],[-164.5,-9.70719],[-164,-10.01323],[-163.5,-10.32715],[-163,-10.6488],[-162.5,-10.97798],[-162,-11.31448],[-161.5,-11.65807],[-161,-12.00851],[-160.5,-12.36552],[-160,-12.72884],[-159.5,-13.09816],[-159,-13.47319],[-158.5,-13.8536],[-158,-14.23907],[-157.5,-14.62925],[-157,-15.02381],[-156.5,-15.4224],[-156,-15.82466],[-155.5,-16.23025],[-155,-16.6388],[-154.5,-17.04998],[-154,-17.46343],[-153.5,-17.87882],[-153,-18.2958],[-152.5,-18.71405],[-152,-19.13325],[-151.5,-19.5531],[-151,-19.97329],[-150.5,-20.39354],[-150,-20.81358],[-149.5,-21.23314],[-149,-21.65198],[-148.5,-22.06986],[-148,-22.48656],[-147.5,-22.90186],[-147,-23.31558],[-146.5,-23.72752],[-146,-24.13753],[-145.5,-24.54543],[-145,-24.95109],[-144.5,-25.35436],[-144,-25.75512],[-143.5,-26.15326],[-143,-26.54867],[-142.5,-26.94127],[-142,-27.33096],[-141.5,-27.71767],[-141,-28.10133],[-140.5,-28.48188],[-140,-28.85927],[-139.5,-29.23345],[-139,-29.60438],[-138.5,-29.97203],[-138,-30.33636],[-137.5,-30.69737],[-137,-31.05502],[-136.5,-31.4093],[-136,-31.7602],[-135.5,-32.10772],[-135,-32.45185],[-134.5,-32.7926],[-134,-33.12996],[-133.5,-33.46395],[-133,-33.79456],[-132.5,-34.12182],[-132,-34.44572],[-131.5,-34.7663],[-131,-35.08356],[-130.5,-35.39752],[-130,-35.7082],[-129.5,-36.01563],[-129,-36.31981],[-128.5,-36.62077],[-128,-36.91855],[-127.5,-37.21315],[-127,-37.50461],[-126.5,-37.79294],[-126,-38.07818],[-125.5,-38.36036],[-125,-38.63948],[-124.5,-38.9156],[-124,-39.18872],[-123.5,-39.45888],[-123,-39.7261],[-122.5,-39.99041],[-122,-40.25185],[-121.5,-40.51042],[-121,-40.76618],[-120.5,-41.01913],[-120,-41.2693],[-119.5,-41.51673],[-119,-41.76144],[-118.5,-42.00346],[-118,-42.24282],[-117.5,-42.47953],[-117,-42.71363],[-116.5,-42.94514],[-116,-43.17409],[-115.5,-43.4005],[-115,-43.6244],[-114.5,-43.84582],[-114,-44.06478],[-113.5,-44.28129],[-113,-44.4954],[-112.5,-44.70712],[-112,-44.91647],[-111.5,-45.12348],[-111,-45.32817],[-110.5,-45.53057],[-110,-45.7307],[-109.5,-45.92858],[-109.56386,-45.97583]]}},{"type":"Feature","id":"+02410726:south:0","properties":{"id":"+02410726","year":241,"month":7,"day":26,"time_tdt":"00:40:00","type":"개기일식","type_code":"T","saros":88,"gamma":-0.51601,"magnitude":1.04949,"greatest":{"lat":-9.67822,"lng":-164.5481},"path_width_km":190.4,"duration":"04m40s","delta_t_seconds":8205.9,"catalog_number":5352,"source":"NASA Five Millennium Canon of Solar Eclipses","source_url":"https://eclipse.gsfc.nasa.gov/SEsearch/SEsearchmap.php?Ecl=%2B02410726","boundary":"south","name":"241-07-26 개기일식"},"geometry":{"type":"LineString","coordinates":[[142.04102,-12.38345],[142.5,-12.21782],[143,-12.03842],[143.5,-11.86012],[144,-11.68296],[144.5,-11.50697],[145,-11.33218],[145.5,-11.15863],[146,-10.98635],[146.5,-10.81539],[147,-10.64577],[147.5,-10.47753],[148,-10.31071],[148.5,-10.14536],[149,-9.98151],[149.5,-9.8192],[150,-9.65848],[150.5,-9.49938],[151,-9.34196],[151.5,-9.18624],[152,-9.03229],[152.5,-8.88014],[153,-8.72985],[153.5,-8.58146],[154,-8.43501],[154.5,-8.29057],[155,-8.14818],[155.5,-8.0079],[156,-7.86977],[156.5,-7.73385],[157,-7.6002],[157.5,-7.46887],[158,-7.33993],[158.5,-7.21343],[159,-7.08943],[159.5,-6.96799],[160,-6.84918],[160.5,-6.73306],[161,-6.6197],[161.5,-6.50917],[162,-6.40152],[162.5,-6.29684],[163,-6.1952],[163.5,-6.09666],[164,-6.00131],[164.5,-5.90922],[165,-5.82046],[165.5,-5.73512],[166,-5.65327],[166.5,-5.57501],[167,-5.50041],[167.5,-5.42957],[168,-5.36256],[168.5,-5.29948],[169,-5.24042],[169.5,-5.18548],[170,-5.13475],[170.5,-5.08832],[171,-5.0463],[171.5,-5.00879],[172,-4.97589],[172.5,-4.9477],[173,-4.92434],[173.5,-4.90591],[174,-4.89252],[174.5,-4.88428],[175,-4.88131],[175.5,-4.88373],[176,-4.89164],[176.5,-4.90518],[177,-4.92446],[177.5,-4.9496],[178,-4.98072],[178.5,-5.01796],[179,-5.06143],[179.5,-5.11126],[180,-5.16758]]}},{"type":"Feature","id":"+02410726:south:1","properties":{"id":"+02410726","year":241,"month":7,"day":26,"time_tdt":"00:40:00","type":"개기일식","type_code":"T","saros":88,"gamma":-0.51601,"magnitude":1.04949,"greatest":{"lat":-9.67822,"lng":-164.5481},"path_width_km":190.4,"duration":"04m40s","delta_t_seconds":8205.9,"catalog_number":5352,"source":"NASA Five Millennium Canon of Solar Eclipses","source_url":"https://eclipse.gsfc.nasa.gov/SEsearch/SEsearchmap.php?Ecl=%2B02410726","boundary":"south","name":"241-07-26 개기일식"},"geometry":{"type":"LineString","coordinates":[[-179.5,-5.23052],[-179,-5.3002],[-178.5,-5.37675],[-178,-5.4603],[-177.5,-5.55097],[-177,-5.64888],[-176.5,-5.75417],[-176,-5.86694],[-175.5,-5.98732],[-175,-6.11542],[-174.5,-6.25135],[-174,-6.39522],[-173.5,-6.54713],[-173,-6.70718],[-172.5,-6.87544],[-172,-7.05201],[-171.5,-7.23695],[-171,-7.43032],[-170.5,-7.63219],[-170,-7.84259],[-169.5,-8.06155],[-169,-8.28909],[-168.5,-8.52521],[-168,-8.7699],[-167.5,-9.02313],[-167,-9.28485],[-166.5,-9.55502],[-166,-9.83355],[-165.5,-10.12034],[-165,-10.41528],[-164.5,-10.71823],[-164,-11.02904],[-163.5,-11.34753],[-163,-11.67353],[-162.5,-12.00681],[-162,-12.34714],[-161.5,-12.69429],[-161,-13.04799],[-160.5,-13.40796],[-160,-13.77392],[-159.5,-14.14554],[-159,-14.52253],[-158.5,-14.90456],[-158,-15.29128],[-157.5,-15.68236],[-157,-16.07746],[-156.5,-16.47622],[-156,-16.8783],[-155.5,-17.28334],[-155,-17.69101],[-154.5,-18.10094],[-154,-18.51282],[-153.5,-18.9263],[-153,-19.34107],[-152.5,-19.7568],[-152,-20.1732],[-151.5,-20.58996],[-151,-21.00681],[-150.5,-21.42346],[-150,-21.83968],[-149.5,-22.2552],[-149,-22.6698],[-148.5,-23.08324],[-148,-23.49534],[-147.5,-23.90589],[-147,-24.31471],[-146.5,-24.72162],[-146,-25.12648],[-145.5,-25.52914],[-145,-25.92945],[-144.5,-26.32731],[-144,-26.72259],[-143.5,-27.11518],[-143,-27.50501],[-142.5,-27.89198],[-142,-28.27601],[-141.5,-28.65704],[-141,-29.03501],[-140.5,-29.40987],[-140,-29.78156],[-139.5,-30.15004],[-139,-30.51529],[-138.5,-30.87727],[-138,-31.23596],[-137.5,-31.59134],[-137,-31.9434],[-136.5,-32.29211],[-136,-32.63749],[-135.5,-32.97952],[-135,-33.3182],[-134.5,-33.65353],[-134,-33.98553],[-133.5,-34.31419],[-133,-34.63953],[-132.5,-34.96156],[-132,-35.28029],[-131.5,-35.59574],[-131,-35.90792],[-130.5,-36.21685],[-130,-36.52256],[-129.5,-36.82506],[-129,-37.12437],[-128.5,-37.42052],[-128,-37.71352],[-127.5,-38.00341],[-127,-38.29021],[-126.5,-38.57394],[-126,-38.85462],[-125.5,-39.13228],[-125,-39.40696],[-124.5,-39.67867],[-124,-39.94743],[-123.5,-40.21329],[-123,-40.47626],[-122.5,-40.73637],[-122,-40.99364],[-121.5,-41.24811],[-121,-41.4998],[-120.5,-41.74874],[-120,-41.99495],[-119.5,-42.23846],[-119,-42.47929],[-118.5,-42.71748],[-118,-42.95304],[-117.5,-43.18601],[-117,-43.41641],[-116.5,-43.64426],[-116,-43.86959],[-115.5,-44.09243],[-115,-44.31279],[-114.5,-44.53071],[-114,-44.74621],[-113.5,-44.95931],[-113,-45.17003],[-112.5,-45.37841],[-112,-45.58446],[-111.5,-45.7882],[-111,-45.98966],[-110.5,-46.18886],[-110,-46.38583],[-109.80859,-46.46064]]}}],"attribution":"Eclipse Predictions by Fred Espenak and Jean Meeus (NASA's GSFC)","generated_at":"2026-09-23T01:44:47.402Z"}
