{"type":"FeatureCollection","year":245,"events":[{"id":"+02450513","year":245,"month":5,"day":13,"time_tdt":"11:05:04","type":"혼성일식","type_code":"H2","saros":90,"gamma":-0.85432,"magnitude":1.00865,"greatest":{"lat":-39.86039,"lng":56.83948},"path_width_km":57.4,"duration":"00m48s","delta_t_seconds":8169.7,"catalog_number":5361,"source":"NASA Five Millennium Canon of Solar Eclipses","source_url":"https://eclipse.gsfc.nasa.gov/SEsearch/SEsearchmap.php?Ecl=%2B02450513"},{"id":"+02451107","year":245,"month":11,"day":7,"time_tdt":"06:25:01","type":"부분일식","type_code":"P","saros":95,"gamma":1.1545,"magnitude":0.69784,"greatest":{"lat":69.91037,"lng":150.33813},"path_width_km":0,"duration":"00m00s","delta_t_seconds":8165,"catalog_number":5362,"source":"NASA Five Millennium Canon of Solar Eclipses","source_url":"https://eclipse.gsfc.nasa.gov/SEsearch/SEsearchmap.php?Ecl=%2B02451107"}],"features":[{"type":"Feature","id":"+02450513:north:0","properties":{"id":"+02450513","year":245,"month":5,"day":13,"time_tdt":"11:05:04","type":"혼성일식","type_code":"H2","saros":90,"gamma":-0.85432,"magnitude":1.00865,"greatest":{"lat":-39.86039,"lng":56.83948},"path_width_km":57.4,"duration":"00m48s","delta_t_seconds":8169.7,"catalog_number":5361,"source":"NASA Five Millennium Canon of Solar Eclipses","source_url":"https://eclipse.gsfc.nasa.gov/SEsearch/SEsearchmap.php?Ecl=%2B02450513","boundary":"north","name":"245-05-13 혼성일식"},"geometry":{"type":"LineString","coordinates":[[9.25,-62.11085],[9.5,-62.00255],[10,-61.78476],[10.5,-61.56539],[11,-61.34446],[11.5,-61.12197],[12,-60.89793],[12.5,-60.67235],[13,-60.44524],[13.5,-60.2166],[14,-59.98646],[14.5,-59.75481],[15,-59.52168],[15.5,-59.28708],[16,-59.05101],[16.5,-58.81351],[17,-58.57457],[17.5,-58.33422],[18,-58.09247],[18.5,-57.84935],[19,-57.60487],[19.5,-57.35906],[20,-57.11193],[20.5,-56.8635],[21,-56.61381],[21.5,-56.36288],[22,-56.11073],[22.5,-55.8574],[23,-55.60291],[23.5,-55.34729],[24,-55.09058],[24.5,-54.83281],[25,-54.57401],[25.5,-54.31424],[26,-54.05351],[26.5,-53.79189],[27,-53.52941],[27.5,-53.26611],[28,-53.00205],[28.5,-52.73728],[29,-52.47185],[29.5,-52.20581],[30,-51.93923],[30.5,-51.67216],[31,-51.40467],[31.5,-51.13682],[32,-50.86869],[32.5,-50.60035],[33,-50.33186],[33.5,-50.06332],[34,-49.79481],[34.5,-49.5264],[35,-49.25818],[35.5,-48.99026],[36,-48.72273],[36.5,-48.45568],[37,-48.18921],[37.5,-47.92345],[38,-47.65848],[38.5,-47.39444],[39,-47.13144],[39.5,-46.86959],[40,-46.60903],[40.5,-46.34988],[41,-46.09227],[41.5,-45.83635],[42,-45.58224],[42.5,-45.33009],[43,-45.08004],[43.5,-44.83224],[44,-44.58685],[44.5,-44.344],[45,-44.10386],[45.5,-43.86658],[46,-43.63231],[46.5,-43.40121],[47,-43.17344],[47.5,-42.94916],[48,-42.72852],[48.5,-42.51168],[49,-42.2988],[49.5,-42.09002],[50,-41.88549],[50.5,-41.68537],[51,-41.4898],[51.5,-41.29891],[52,-41.11285],[52.5,-40.93175],[53,-40.75573],[53.5,-40.58491],[54,-40.4194],[54.5,-40.25932],[55,-40.10476],[55.5,-39.95582],[56,-39.81258],[56.5,-39.67513],[57,-39.54352],[57.5,-39.41783],[58,-39.2981],[58.5,-39.18439],[59,-39.07673],[59.5,-38.97514],[60,-38.87965],[60.5,-38.79027],[61,-38.70701],[61.5,-38.62985],[62,-38.5588],[62.5,-38.49382],[63,-38.4349],[63.5,-38.382],[64,-38.33508],[64.5,-38.2941],[65,-38.259],[65.5,-38.22973],[66,-38.20623],[66.5,-38.18842],[67,-38.17624],[67.5,-38.16962],[68,-38.16847],[68.5,-38.17271],[69,-38.18226],[69.5,-38.19702],[70,-38.21692],[70.5,-38.24185],[71,-38.27172],[71.5,-38.30645],[72,-38.34592],[72.5,-38.39005],[73,-38.43874],[73.5,-38.49189],[74,-38.5494],[74.5,-38.61118],[75,-38.67712],[75.5,-38.74713],[76,-38.82111],[76.5,-38.89897],[77,-38.98061],[77.5,-39.06594],[78,-39.15486],[78.5,-39.24728],[79,-39.34312],[79.5,-39.44228],[80,-39.54467],[80.5,-39.6502],[81,-39.7588],[81.5,-39.87038],[82,-39.98485],[82.5,-40.10213],[83,-40.22216],[83.5,-40.34484],[84,-40.4701],[84.5,-40.59787],[85,-40.72807],[85.5,-40.86064],[86,-40.9955],[86.5,-41.13259],[87,-41.27184],[87.5,-41.41318],[88,-41.55656],[88.5,-41.7019],[89,-41.84915],[89.5,-41.99826],[90,-42.14915],[90.5,-42.30178],[91,-42.45609],[91.5,-42.61203],[92,-42.76954],[92.5,-42.92858],[93,-43.0891],[93.5,-43.25104],[94,-43.41436],[94.5,-43.57901],[95,-43.74495],[95.5,-43.91214],[96,-44.08053],[96.5,-44.25008],[97,-44.42075],[97.5,-44.5925],[98,-44.76529],[98.5,-44.93909],[99,-45.11385],[99.5,-45.28955],[100,-45.46513],[100.5,-45.63567],[101,-45.80707],[101.5,-45.97929],[101.84961,-46.10018]]}},{"type":"Feature","id":"+02450513:center:0","properties":{"id":"+02450513","year":245,"month":5,"day":13,"time_tdt":"11:05:04","type":"혼성일식","type_code":"H2","saros":90,"gamma":-0.85432,"magnitude":1.00865,"greatest":{"lat":-39.86039,"lng":56.83948},"path_width_km":57.4,"duration":"00m48s","delta_t_seconds":8169.7,"catalog_number":5361,"source":"NASA Five Millennium Canon of Solar Eclipses","source_url":"https://eclipse.gsfc.nasa.gov/SEsearch/SEsearchmap.php?Ecl=%2B02450513","boundary":"center","name":"245-05-13 혼성일식"},"geometry":{"type":"LineString","coordinates":[[9.10753,-62.24243],[9.5,-62.01916],[10,-61.80473],[10.5,-61.58874],[11,-61.37121],[11.5,-61.15214],[12,-60.93154],[12.5,-60.70942],[13,-60.48578],[13.5,-60.26065],[14,-60.03402],[14.5,-59.8059],[15,-59.57632],[15.5,-59.34528],[16,-59.1128],[16.5,-58.87889],[17,-58.64356],[17.5,-58.40684],[18,-58.16873],[18.5,-57.92926],[19,-57.68845],[19.5,-57.44631],[20,-57.20287],[20.5,-56.95814],[21,-56.71216],[21.5,-56.46494],[22,-56.21651],[22.5,-55.96691],[23,-55.71615],[23.5,-55.46427],[24,-55.2113],[24.5,-54.95728],[25,-54.70224],[25.5,-54.44621],[26,-54.18923],[26.5,-53.93135],[27,-53.67261],[27.5,-53.41306],[28,-53.15273],[28.5,-52.89169],[29,-52.62997],[29.5,-52.36764],[30,-52.10476],[30.5,-51.84137],[31,-51.57755],[31.5,-51.31335],[32,-51.04885],[32.5,-50.78411],[33,-50.51922],[33.5,-50.25423],[34,-49.98925],[34.5,-49.72434],[35,-49.4596],[35.5,-49.19511],[36,-48.93097],[36.5,-48.66727],[37,-48.40412],[37.5,-48.14161],[38,-47.87987],[38.5,-47.61898],[39,-47.35908],[39.5,-47.10028],[40,-46.84271],[40.5,-46.58647],[41,-46.33171],[41.5,-46.07856],[42,-45.82715],[42.5,-45.57762],[43,-45.33011],[43.5,-45.08476],[44,-44.84172],[44.5,-44.60113],[45,-44.36316],[45.5,-44.12794],[46,-43.89563],[46.5,-43.66638],[47,-43.44035],[47.5,-43.21769],[48,-42.99856],[48.5,-42.78311],[49,-42.57148],[49.5,-42.36384],[50,-42.16033],[50.5,-41.96109],[51,-41.76627],[51.5,-41.576],[52,-41.39042],[52.5,-41.20967],[53,-41.03386],[53.5,-40.86312],[54,-40.69756],[54.5,-40.53728],[55,-40.3824],[55.5,-40.23299],[56,-40.08916],[56.5,-39.95097],[57,-39.81851],[57.5,-39.69183],[58,-39.57099],[58.5,-39.45604],[59,-39.34702],[59.5,-39.24395],[60,-39.14687],[60.5,-39.05578],[61,-38.97069],[61.5,-38.89161],[62,-38.81853],[62.5,-38.75142],[63,-38.69028],[63.5,-38.63506],[64,-38.58573],[64.5,-38.54225],[65,-38.50457],[65.5,-38.47265],[66,-38.44641],[66.5,-38.4258],[67,-38.41076],[67.5,-38.40119],[68,-38.39705],[68.5,-38.39823],[69,-38.40467],[69.5,-38.41627],[70,-38.43295],[70.5,-38.45462],[71,-38.4812],[71.5,-38.51258],[72,-38.54867],[72.5,-38.58939],[73,-38.63463],[73.5,-38.6843],[74,-38.7383],[74.5,-38.79654],[75,-38.85893],[75.5,-38.92536],[76,-38.99574],[76.5,-39.06998],[77,-39.14799],[77.5,-39.22967],[78,-39.31493],[78.5,-39.40368],[79,-39.49582],[79.5,-39.59129],[80,-39.68997],[80.5,-39.7918],[81,-39.89668],[81.5,-40.00454],[82,-40.11529],[82.5,-40.22885],[83,-40.34514],[83.5,-40.46409],[84,-40.58563],[84.5,-40.70967],[85,-40.83615],[85.5,-40.96499],[86,-41.09614],[86.5,-41.22951],[87,-41.36505],[87.5,-41.50268],[88,-41.64235],[88.5,-41.784],[89,-41.92756],[89.5,-42.07298],[90,-42.2202],[90.5,-42.36916],[91,-42.51981],[91.5,-42.6721],[92,-42.82597],[92.5,-42.98137],[93,-43.13826],[93.5,-43.29658],[94,-43.45629],[94.5,-43.61735],[95,-43.77971],[95.5,-43.94332],[96,-44.10814],[96.5,-44.27414],[97,-44.44126],[97.5,-44.60948],[98,-44.77875],[98.5,-44.94904],[99,-45.12031],[99.5,-45.29252],[100,-45.46564],[100.5,-45.63963],[101,-45.81447],[101.5,-45.99011],[101.83229,-46.10161]]}},{"type":"Feature","id":"+02450513:south:0","properties":{"id":"+02450513","year":245,"month":5,"day":13,"time_tdt":"11:05:04","type":"혼성일식","type_code":"H2","saros":90,"gamma":-0.85432,"magnitude":1.00865,"greatest":{"lat":-39.86039,"lng":56.83948},"path_width_km":57.4,"duration":"00m48s","delta_t_seconds":8169.7,"catalog_number":5361,"source":"NASA Five Millennium Canon of Solar Eclipses","source_url":"https://eclipse.gsfc.nasa.gov/SEsearch/SEsearchmap.php?Ecl=%2B02450513","boundary":"south","name":"245-05-13 혼성일식"},"geometry":{"type":"LineString","coordinates":[[9.04297,-62.22721],[9.5,-62.03558],[10,-61.82446],[10.5,-61.61181],[11,-61.39764],[11.5,-61.18195],[12,-60.96475],[12.5,-60.74605],[13,-60.52585],[13.5,-60.30417],[14,-60.08102],[14.5,-59.8564],[15,-59.63032],[15.5,-59.40281],[16,-59.17387],[16.5,-58.94351],[17,-58.71176],[17.5,-58.47862],[18,-58.24411],[18.5,-58.00826],[19,-57.77107],[19.5,-57.53256],[20,-57.29276],[20.5,-57.0517],[21,-56.80938],[21.5,-56.56584],[22,-56.32109],[22.5,-56.07518],[23,-55.82811],[23.5,-55.57994],[24,-55.33067],[24.5,-55.08035],[25,-54.82902],[25.5,-54.5767],[26,-54.32344],[26.5,-54.06927],[27,-53.81424],[27.5,-53.55838],[28,-53.30175],[28.5,-53.0444],[29,-52.78636],[29.5,-52.52771],[30,-52.26848],[30.5,-52.00874],[31,-51.74855],[31.5,-51.48797],[32,-51.22707],[32.5,-50.96591],[33,-50.70456],[33.5,-50.44311],[34,-50.18163],[34.5,-49.92019],[35,-49.65889],[35.5,-49.3978],[36,-49.13703],[36.5,-48.87666],[37,-48.61679],[37.5,-48.35753],[38,-48.09897],[38.5,-47.84123],[39,-47.58442],[39.5,-47.32865],[40,-47.07403],[40.5,-46.8207],[41,-46.56878],[41.5,-46.31839],[42,-46.06967],[42.5,-45.82274],[43,-45.57776],[43.5,-45.33485],[44,-45.09416],[44.5,-44.85584],[45,-44.62003],[45.5,-44.38687],[46,-44.15652],[46.5,-43.92913],[47,-43.70485],[47.5,-43.48383],[48,-43.26621],[48.5,-43.05216],[49,-42.84182],[49.5,-42.63533],[50,-42.43285],[50.5,-42.23451],[51,-42.04047],[51.5,-41.85084],[52,-41.66578],[52.5,-41.4854],[53,-41.30984],[53.5,-41.13921],[54,-40.97362],[54.5,-40.81319],[55,-40.65801],[55.5,-40.50818],[56,-40.36379],[56.5,-40.22491],[57,-40.09163],[57.5,-39.964],[58,-39.84208],[58.5,-39.72593],[59,-39.61559],[59.5,-39.51108],[60,-39.41244],[60.5,-39.31969],[61,-39.23282],[61.5,-39.15185],[62,-39.07678],[62.5,-39.00758],[63,-38.94424],[63.5,-38.88674],[64,-38.83504],[64.5,-38.78911],[65,-38.74889],[65.5,-38.71434],[66,-38.68541],[66.5,-38.66203],[67,-38.64414],[67.5,-38.63167],[68,-38.62456],[68.5,-38.62272],[69,-38.62607],[69.5,-38.63454],[70,-38.64803],[70.5,-38.66648],[71,-38.68977],[71.5,-38.71784],[72,-38.75058],[72.5,-38.7879],[73,-38.82972],[73.5,-38.87593],[74,-38.92645],[74.5,-38.98118],[75,-39.04003],[75.5,-39.1029],[76,-39.1697],[76.5,-39.24035],[77,-39.31474],[77.5,-39.39278],[78,-39.4744],[78.5,-39.55949],[79,-39.64797],[79.5,-39.73975],[80,-39.83475],[80.5,-39.93289],[81,-40.03407],[81.5,-40.13822],[82,-40.24526],[82.5,-40.35511],[83,-40.46769],[83.5,-40.58293],[84,-40.70075],[84.5,-40.82108],[85,-40.94385],[85.5,-41.06898],[86,-41.19642],[86.5,-41.32609],[87,-41.45793],[87.5,-41.59187],[88,-41.72785],[88.5,-41.86581],[89,-42.0057],[89.5,-42.14745],[90,-42.291],[90.5,-42.43631],[91,-42.58331],[91.5,-42.73195],[92,-42.88219],[92.5,-43.03397],[93,-43.18725],[93.5,-43.34197],[94,-43.49809],[94.5,-43.65556],[95,-43.81434],[95.5,-43.97439],[96,-44.13566],[96.5,-44.29811],[97,-44.4617],[97.5,-44.6264],[98,-44.79216],[98.5,-44.95895],[99,-45.12673],[99.5,-45.29547],[100,-45.46614],[100.5,-45.6436],[101,-45.82188],[101.5,-46.00097]]}}],"attribution":"Eclipse Predictions by Fred Espenak and Jean Meeus (NASA's GSFC)","generated_at":"2026-09-23T01:44:47.454Z"}
