{"type":"FeatureCollection","year":257,"events":[{"id":"+02570303","year":257,"month":3,"day":3,"time_tdt":"20:38:34","type":"금환일식","type_code":"A","saros":63,"gamma":-0.94764,"magnitude":0.97016,"greatest":{"lat":-60.18726,"lng":-27.88312},"path_width_km":334.8,"duration":"02m03s","delta_t_seconds":8057,"catalog_number":5388,"source":"NASA Five Millennium Canon of Solar Eclipses","source_url":"https://eclipse.gsfc.nasa.gov/SEsearch/SEsearchmap.php?Ecl=%2B02570303"},{"id":"+02570826","year":257,"month":8,"day":26,"time_tdt":"23:51:08","type":"부분일식","type_code":"P","saros":68,"gamma":1.00601,"magnitude":0.99693,"greatest":{"lat":61.32656,"lng":-34.25842},"path_width_km":0,"duration":"00m00s","delta_t_seconds":8052.4,"catalog_number":5389,"source":"NASA Five Millennium Canon of Solar Eclipses","source_url":"https://eclipse.gsfc.nasa.gov/SEsearch/SEsearchmap.php?Ecl=%2B02570826"}],"features":[{"type":"Feature","id":"+02570303:north:0","properties":{"id":"+02570303","year":257,"month":3,"day":3,"time_tdt":"20:38:34","type":"금환일식","type_code":"A","saros":63,"gamma":-0.94764,"magnitude":0.97016,"greatest":{"lat":-60.18726,"lng":-27.88312},"path_width_km":334.8,"duration":"02m03s","delta_t_seconds":8057,"catalog_number":5388,"source":"NASA Five Millennium Canon of Solar Eclipses","source_url":"https://eclipse.gsfc.nasa.gov/SEsearch/SEsearchmap.php?Ecl=%2B02570303","boundary":"north","name":"257-03-03 금환일식"},"geometry":{"type":"LineString","coordinates":[[44.64844,-79.17496],[44.5,-79.19624],[44,-79.26621],[43.5,-79.33368],[43,-79.39874],[42.5,-79.46148],[42,-79.52199],[41.5,-79.58035],[41,-79.63664],[40.5,-79.69093],[40,-79.74328],[39.5,-79.79376],[39,-79.84243],[38.5,-79.88934],[38,-79.93454],[37.5,-79.97809],[37,-80.02003],[36.5,-80.06039],[36,-80.09923],[35.5,-80.13658],[35,-80.17248],[34.5,-80.20696],[34,-80.24005],[33.5,-80.27179],[33,-80.30221],[32.5,-80.33132],[32,-80.35916],[31.5,-80.38575],[31,-80.41112],[30.5,-80.43528],[30,-80.45826],[29.5,-80.48007],[29,-80.50074],[28.5,-80.52027],[28,-80.5387],[27.5,-80.55602],[27,-80.57225],[26.5,-80.58742],[26,-80.60152],[25.5,-80.61457],[25,-80.62658],[24.5,-80.63757],[24,-80.64753],[23.5,-80.65648],[23,-80.66442],[22.5,-80.67136],[22,-80.67731],[21.5,-80.68227],[21,-80.68625],[20.5,-80.68924],[20,-80.69126],[19.5,-80.6923],[19,-80.69237],[18.5,-80.69146],[18,-80.68958],[17.5,-80.68673],[17,-80.6829],[16.5,-80.6781],[16,-80.67231],[15.5,-80.66555],[15,-80.6578],[14.5,-80.64906],[14,-80.63933],[13.5,-80.6286],[13,-80.61686],[12.5,-80.60411],[12,-80.59034],[11.5,-80.57554],[11,-80.5597],[10.5,-80.54281],[10,-80.52486],[9.5,-80.50584],[9,-80.48574],[8.5,-80.46454],[8,-80.44223],[7.5,-80.41879],[7,-80.39421],[6.5,-80.36848],[6,-80.34157],[5.5,-80.31346],[5,-80.28413],[4.5,-80.25357],[4,-80.22175],[3.5,-80.18865],[3,-80.15424],[2.5,-80.1185],[2,-80.08139],[1.5,-80.0429],[1,-80.00298],[0.5,-79.96162],[0,-79.91876],[-0.5,-79.87438],[-1,-79.82844],[-1.5,-79.7809],[-2,-79.73172],[-2.5,-79.68085],[-3,-79.62824],[-3.5,-79.57386],[-4,-79.51764],[-4.5,-79.45953],[-5,-79.39948],[-5.5,-79.33741],[-6,-79.27328],[-6.5,-79.207],[-7,-79.13851],[-7.5,-79.06773],[-8,-78.99457],[-8.5,-78.91896],[-9,-78.8408],[-9.5,-78.75999],[-10,-78.67642],[-10.5,-78.58999],[-11,-78.50058],[-11.5,-78.40805],[-12,-78.31228],[-12.5,-78.21312],[-13,-78.1104],[-13.5,-78.00398],[-14,-77.89365],[-14.5,-77.77923],[-15,-77.6605],[-15.5,-77.53724],[-16,-77.40919],[-16.5,-77.2761],[-17,-77.13765],[-17.5,-76.99353],[-18,-76.84338],[-18.5,-76.68681],[-19,-76.52339],[-19.5,-76.35264],[-20,-76.17404],[-20.5,-75.98697],[-21,-75.79079],[-21.5,-75.58472],[-22,-75.36792],[-22.5,-75.13941],[-23,-74.89806],[-23.5,-74.64257],[-24,-74.3714],[-24.5,-74.08276],[-25,-73.77448],[-25.5,-73.44396],[-26,-73.08796],[-26.5,-72.70247],[-27,-72.28229],[-27.5,-71.82063],[-28,-71.30817],[-28.5,-70.73165],[-29,-70.07094],[-29.5,-69.29275],[-30,-68.33388],[-30.5,-67.03965],[-31,-64.55291],[-31,-61.9316],[-30.5,-59.12186],[-30,-57.51935],[-29.5,-56.26618],[-29,-55.20699],[-28.5,-54.27795],[-28,-53.44517],[-27.5,-52.68798],[-27,-51.99258],[-26.5,-51.3492],[-26,-50.75055],[-25.5,-50.19105],[-25,-49.66627],[-24.5,-49.1726],[-24,-48.70709],[-23.5,-48.26725],[-23,-47.85096],[-22.5,-47.45641],[-22,-47.08202],[-21.5,-46.7264],[-21,-46.38833],[-20.5,-46.06672],[-20,-45.76061],[-19.5,-45.46911],[-19,-45.19144],[-18.5,-44.92688],[-18,-44.67477],[-17.5,-44.43452],[-17,-44.20559],[-16.5,-43.98746],[-16,-43.77966],[-15.5,-43.58178],[-15,-43.3934],[-14.5,-43.21415],[-14,-43.04369],[-13.5,-42.88169],[-13,-42.72786],[-12.5,-42.5819],[-12,-42.44355],[-11.5,-42.31255],[-11,-42.18868],[-10.5,-42.07172],[-10,-41.96144],[-9.5,-41.85766],[-9,-41.76018],[-8.5,-41.66883],[-8,-41.58344],[-7.5,-41.50385],[-7,-41.42991],[-6.5,-41.36148]]}},{"type":"Feature","id":"+02570303:center:0","properties":{"id":"+02570303","year":257,"month":3,"day":3,"time_tdt":"20:38:34","type":"금환일식","type_code":"A","saros":63,"gamma":-0.94764,"magnitude":0.97016,"greatest":{"lat":-60.18726,"lng":-27.88312},"path_width_km":334.8,"duration":"02m03s","delta_t_seconds":8057,"catalog_number":5388,"source":"NASA Five Millennium Canon of Solar Eclipses","source_url":"https://eclipse.gsfc.nasa.gov/SEsearch/SEsearchmap.php?Ecl=%2B02570303","boundary":"center","name":"257-03-03 금환일식"},"geometry":{"type":"LineString","coordinates":[[39.21992,-77.90648],[38.5,-77.79444],[38,-77.8615],[37.5,-77.92595],[37,-77.98788],[36.5,-78.04739],[36,-78.10455],[35.5,-78.15945],[35,-78.21216],[34.5,-78.26275],[34,-78.31129],[33.5,-78.35783],[33,-78.40243],[32.5,-78.44515],[32,-78.48604],[31.5,-78.52514],[31,-78.56249],[30.5,-78.59814],[30,-78.63213],[29.5,-78.66448],[29,-78.69524],[28.5,-78.72444],[28,-78.7521],[27.5,-78.77826],[27,-78.80294],[26.5,-78.82616],[26,-78.84795],[25.5,-78.86833],[25,-78.88732],[24.5,-78.90493],[24,-78.92119],[23.5,-78.9361],[23,-78.94969],[22.5,-78.96196],[22,-78.97293],[21.5,-78.98261],[21,-78.99101],[20.5,-78.99813],[20,-79.00399],[19.5,-79.00859],[19,-79.01193],[18.5,-79.01402],[18,-79.01487],[17.5,-79.01447],[17,-79.01283],[16.5,-79.00995],[16,-79.00583],[15.5,-79.00046],[15,-78.99384],[14.5,-78.98597],[14,-78.97685],[13.5,-78.96647],[13,-78.95483],[12.5,-78.94191],[12,-78.92771],[11.5,-78.91222],[11,-78.89542],[10.5,-78.87732],[10,-78.85789],[9.5,-78.83712],[9,-78.815],[8.5,-78.79151],[8,-78.76664],[7.5,-78.74036],[7,-78.71266],[6.5,-78.68351],[6,-78.65289],[5.5,-78.62079],[5,-78.58717],[4.5,-78.552],[4,-78.51527],[3.5,-78.47693],[3,-78.43696],[2.5,-78.39532],[2,-78.35198],[1.5,-78.30689],[1,-78.26003],[0.5,-78.21134],[0,-78.16078],[-0.5,-78.10831],[-1,-78.05387],[-1.5,-77.99741],[-2,-77.93888],[-2.5,-77.87821],[-3,-77.81534],[-3.5,-77.75021],[-4,-77.68273],[-4.5,-77.61285],[-5,-77.54048],[-5.5,-77.46553],[-6,-77.38791],[-6.5,-77.30753],[-7,-77.22428],[-7.5,-77.13806],[-8,-77.04874],[-8.5,-76.95621],[-9,-76.86033],[-9.5,-76.76095],[-10,-76.65793],[-10.5,-76.55109],[-11,-76.44027],[-11.5,-76.32526],[-12,-76.20587],[-12.5,-76.08186],[-13,-75.95299],[-13.5,-75.819],[-14,-75.6796],[-14.5,-75.53447],[-15,-75.38327],[-15.5,-75.22562],[-16,-75.06109],[-16.5,-74.88922],[-17,-74.70949],[-17.5,-74.52133],[-18,-74.32408],[-18.5,-74.11702],[-19,-73.89931],[-19.5,-73.67002],[-20,-73.42805],[-20.5,-73.17214],[-21,-72.90082],[-21.5,-72.61235],[-22,-72.30466],[-22.5,-71.97524],[-23,-71.62099],[-23.5,-71.23804],[-24,-70.82143],[-24.5,-70.36462],[-25,-69.8587],[-25.5,-69.29092],[-26,-68.64192],[-26.5,-67.87957],[-27,-66.94241],[-27.5,-65.67749],[-28,-63.12588],[-28,-61.2088],[-27.5,-58.42342],[-27,-56.93566],[-26.5,-55.7861],[-26,-54.82133],[-25.5,-53.97946],[-25,-53.22794],[-24.5,-52.54705],[-24,-51.92367],[-23.5,-51.34857],[-23,-50.81488],[-22.5,-50.31737],[-22,-49.85187],[-21.5,-49.41505],[-21,-49.00414],[-20.5,-48.61684],[-20,-48.25119],[-19.5,-47.90552],[-19,-47.57837],[-18.5,-47.26847],[-18,-46.9747],[-17.5,-46.69606],[-17,-46.43167],[-16.5,-46.18074],[-16,-45.94254],[-15.5,-45.71642],[-15,-45.50179],[-14.5,-45.2981],[-14,-45.10487],[-13.5,-44.92162],[-13,-44.74795],[-12.5,-44.58346],[-12,-44.42778],[-11.5,-44.2806],[-11,-44.14158],[-10.5,-44.01044],[-10,-43.88691],[-9.5,-43.77073],[-9,-43.66166],[-8.5,-43.55948],[-8,-43.46397],[-7.5,-43.37494],[-7,-43.2922],[-6.5,-43.21557],[-6,-43.14488],[-5.5,-43.07997],[-5.25178,-43.023]]}},{"type":"Feature","id":"+02570303:south:0","properties":{"id":"+02570303","year":257,"month":3,"day":3,"time_tdt":"20:38:34","type":"금환일식","type_code":"A","saros":63,"gamma":-0.94764,"magnitude":0.97016,"greatest":{"lat":-60.18726,"lng":-27.88312},"path_width_km":334.8,"duration":"02m03s","delta_t_seconds":8057,"catalog_number":5388,"source":"NASA Five Millennium Canon of Solar Eclipses","source_url":"https://eclipse.gsfc.nasa.gov/SEsearch/SEsearchmap.php?Ecl=%2B02570303","boundary":"south","name":"257-03-03 금환일식"},"geometry":{"type":"LineString","coordinates":[[32.5,-76.24451],[32,-76.30688],[33,-76.17924],[31.5,-76.36645],[31,-76.42332],[30.5,-76.47759],[30,-76.52933],[29.5,-76.57864],[29,-76.62557],[28.5,-76.67019],[28,-76.71258],[27.5,-76.75278],[27,-76.79085],[26.5,-76.82684],[26,-76.8608],[25.5,-76.89277],[25,-76.9228],[24.5,-76.95091],[24,-76.97715],[23.5,-77.00154],[23,-77.02412],[22.5,-77.04491],[22,-77.06395],[21.5,-77.08124],[21,-77.09682],[20.5,-77.11069],[20,-77.12289],[19.5,-77.13342],[19,-77.1423],[18.5,-77.14954],[18,-77.15515],[17.5,-77.15914],[17,-77.16152],[16.5,-77.16228],[16,-77.16145],[15.5,-77.15901],[15,-77.15497],[14.5,-77.14933],[14,-77.14209],[13.5,-77.13324],[13,-77.12279],[12.5,-77.11071],[12,-77.09701],[11.5,-77.08168],[11,-77.0647],[10.5,-77.04607],[10,-77.02577],[9.5,-77.00378],[9,-76.98009],[8.5,-76.95468],[8,-76.92753],[7.5,-76.89861],[7,-76.8679],[6.5,-76.83539],[6,-76.80103],[5.5,-76.76479],[5,-76.72666],[4.5,-76.68658],[4,-76.64453],[3.5,-76.60047],[3,-76.55435],[2.5,-76.50613],[2,-76.45576],[1.5,-76.40319],[1,-76.34837],[0.5,-76.29124],[0,-76.23173],[-0.5,-76.1698],[-1,-76.10536],[-1.5,-76.03834],[-2,-75.96866],[-2.5,-75.89624],[-3,-75.821],[-3.5,-75.74283],[-4,-75.66164],[-4.5,-75.57732],[-5,-75.48975],[-5.5,-75.39881],[-6,-75.30437],[-6.5,-75.20627],[-7,-75.10438],[-7.5,-74.99853],[-8,-74.88853],[-8.5,-74.7742],[-9,-74.65533],[-9.5,-74.5317],[-10,-74.40306],[-10.5,-74.26914],[-11,-74.12965],[-11.5,-73.98429],[-12,-73.83269],[-12.5,-73.67448],[-13,-73.50923],[-13.5,-73.33647],[-14,-73.15568],[-14.5,-72.96627],[-15,-72.76758],[-15.5,-72.55887],[-16,-72.33929],[-16.5,-72.10788],[-17,-71.86351],[-17.5,-71.60489],[-18,-71.33049],[-18.5,-71.03849],[-19,-70.72673],[-19.5,-70.39254],[-20,-70.03262],[-20.5,-69.64279],[-21,-69.2176],[-21.5,-68.74974],[-22,-68.22898],[-22.5,-67.64018],[-23,-66.95921],[-23.5,-66.14277],[-24,-65.09598],[-24.5,-63.48451],[-24.5,-59.08605],[-24,-57.3185],[-23.5,-56.12356],[-23,-55.16661],[-22.5,-54.35245],[-22,-53.63751],[-21.5,-52.99741],[-21,-52.41676],[-20.5,-51.88511],[-20,-51.39492],[-19.5,-50.94056],[-19,-50.51763],[-18.5,-50.12267],[-18,-49.75283],[-17.5,-49.40578],[-17,-49.07955],[-16.5,-48.77247],[-16,-48.4831],[-15.5,-48.2102],[-15,-47.95266],[-14.5,-47.70952],[-14,-47.47992],[-13.5,-47.2631],[-13,-47.05837],[-12.5,-46.8651],[-12,-46.68273],[-11.5,-46.51075],[-11,-46.34868],[-10.5,-46.1961],[-10,-46.05261],[-9.5,-45.91784],[-9,-45.79145],[-8.5,-45.67313],[-8,-45.5626],[-7.5,-45.45957],[-7,-45.3638],[-6.5,-45.27505],[-6,-45.19309],[-5.5,-45.11772],[-5,-45.04874],[-4.5,-44.98598],[-4,-44.92926]]}}],"attribution":"Eclipse Predictions by Fred Espenak and Jean Meeus (NASA's GSFC)","generated_at":"2026-09-23T01:44:47.838Z"}
