{"type":"FeatureCollection","year":260,"events":[{"id":"+02600130","year":260,"month":1,"day":30,"time_tdt":"02:51:04","type":"부분일식","type_code":"P","saros":93,"gamma":1.15078,"magnitude":0.70907,"greatest":{"lat":62.40034,"lng":123.26678},"path_width_km":0,"duration":"00m00s","delta_t_seconds":8029.2,"catalog_number":5394,"source":"NASA Five Millennium Canon of Solar Eclipses","source_url":"https://eclipse.gsfc.nasa.gov/SEsearch/SEsearchmap.php?Ecl=%2B02600130"},{"id":"+02600626","year":260,"month":6,"day":26,"time_tdt":"07:30:13","type":"부분일식","type_code":"Pe","saros":60,"gamma":1.49417,"magnitude":0.10743,"greatest":{"lat":65.40121,"lng":-96.73303},"path_width_km":0,"duration":"00m00s","delta_t_seconds":8025.3,"catalog_number":5395,"source":"NASA Five Millennium Canon of Solar Eclipses","source_url":"https://eclipse.gsfc.nasa.gov/SEsearch/SEsearchmap.php?Ecl=%2B02600626"},{"id":"+02600725","year":260,"month":7,"day":25,"time_tdt":"19:47:10","type":"부분일식","type_code":"P","saros":98,"gamma":-1.25724,"magnitude":0.5236,"greatest":{"lat":-63.06243,"lng":-126.88806},"path_width_km":0,"duration":"00m00s","delta_t_seconds":8024.5,"catalog_number":5396,"source":"NASA Five Millennium Canon of Solar Eclipses","source_url":"https://eclipse.gsfc.nasa.gov/SEsearch/SEsearchmap.php?Ecl=%2B02600725"},{"id":"+02601220","year":260,"month":12,"day":20,"time_tdt":"01:54:30","type":"개기일식","type_code":"T","saros":65,"gamma":-0.94383,"magnitude":1.0267,"greatest":{"lat":-83.19542,"lng":-39.84332},"path_width_km":282.6,"duration":"01m25s","delta_t_seconds":8020.7,"catalog_number":5397,"source":"NASA Five Millennium Canon of Solar Eclipses","source_url":"https://eclipse.gsfc.nasa.gov/SEsearch/SEsearchmap.php?Ecl=%2B02601220"}],"features":[{"type":"Feature","id":"+02601220:north:0","properties":{"id":"+02601220","year":260,"month":12,"day":20,"time_tdt":"01:54:30","type":"개기일식","type_code":"T","saros":65,"gamma":-0.94383,"magnitude":1.0267,"greatest":{"lat":-83.19542,"lng":-39.84332},"path_width_km":282.6,"duration":"01m25s","delta_t_seconds":8020.7,"catalog_number":5397,"source":"NASA Five Millennium Canon of Solar Eclipses","source_url":"https://eclipse.gsfc.nasa.gov/SEsearch/SEsearchmap.php?Ecl=%2B02601220","boundary":"north","name":"260-12-20 개기일식"},"geometry":{"type":"LineString","coordinates":[[47.5,-62.66328],[48,-63.06411],[48.5,-63.47762],[49,-63.90487],[49.5,-64.34716],[50,-64.80603],[50.5,-65.28334],[51,-65.78142],[51.5,-66.30317],[52,-66.85238],[52.5,-67.4341],[53,-68.05536],[53.5,-68.72647],[54,-69.4637],[54.5,-70.29565],[55,-71.28271],[55.5,-72.61408],[55.5,-76.47465],[55,-77.49835],[54.5,-78.18222],[54,-78.71538],[53.5,-79.15813],[53,-79.53899],[52.5,-79.87416],[52,-80.17387],[51.5,-80.44509],[51,-80.69279],[50.5,-80.92069],[50,-81.13164],[49.5,-81.3279],[49,-81.51126],[48.5,-81.68321],[48,-81.84498],[47.5,-81.9976],[47,-82.14194],[46.5,-82.27877],[46,-82.40873],[45.5,-82.53239],[45,-82.65025],[44.5,-82.76275],[44,-82.87028],[43.5,-82.9732],[43,-83.0718],[42.5,-83.16638],[42,-83.25719],[41.5,-83.34445],[41,-83.42839],[40.5,-83.50919],[40,-83.58703],[39.5,-83.66206],[39,-83.73444],[38.5,-83.8043],[38,-83.87177],[37.5,-83.93697],[37,-84.00001],[36.5,-84.06097],[36,-84.11997],[35.5,-84.17709],[35,-84.2324],[34.5,-84.28599],[34,-84.33793],[33.5,-84.38828],[33,-84.43711],[32.5,-84.48448],[32,-84.53044],[31.5,-84.57505],[31,-84.61835],[30.5,-84.66039],[30,-84.70123],[29.5,-84.74089],[29,-84.77942],[28.5,-84.81686],[28,-84.85324],[27.5,-84.88859],[27,-84.92296],[26.5,-84.95636],[26,-84.98883],[25.5,-85.0204],[25,-85.0511],[24.5,-85.08094],[24,-85.10995],[23.5,-85.13815],[23,-85.16558],[22.5,-85.19224],[22,-85.21815],[21.5,-85.24335],[21,-85.26784],[20.5,-85.29164],[20,-85.31477],[19.5,-85.33724],[19,-85.35907],[18.5,-85.38028],[18,-85.40087],[17.5,-85.42087],[17,-85.44028],[16.5,-85.45911],[16,-85.47739],[15.5,-85.49511],[15,-85.51229],[14.5,-85.52895],[14,-85.54508],[13.5,-85.5607],[13,-85.57582],[12.5,-85.59045],[12,-85.6046],[11.5,-85.61827],[11,-85.63147],[10.5,-85.6442],[10,-85.65649],[9.5,-85.66832],[9,-85.67971],[8.5,-85.69067],[8,-85.7012],[7.5,-85.7113],[7,-85.72099],[6.5,-85.73026],[6,-85.73912],[5.5,-85.74757],[5,-85.75563],[4.5,-85.76329],[4,-85.77056],[3.5,-85.77743],[3,-85.78392],[2.5,-85.79003],[2,-85.79576],[1.5,-85.80112],[1,-85.80609],[0.5,-85.8107],[0,-85.81494],[-0.5,-85.81881],[-1,-85.82232],[-1.5,-85.82546],[-2,-85.82824],[-2.5,-85.83065],[-3,-85.83271],[-3.5,-85.83441],[-4,-85.83575],[-4.5,-85.83674],[-5,-85.83736],[-5.5,-85.83763],[-6,-85.83755],[-6.5,-85.83711],[-7,-85.83631],[-7.5,-85.83515],[-8,-85.83364],[-8.5,-85.83177],[-9,-85.82953],[-9.5,-85.82694],[-10,-85.82399],[-10.5,-85.82068],[-11,-85.817],[-11.5,-85.81295],[-12,-85.80854],[-12.5,-85.80375],[-13,-85.79859],[-13.5,-85.79306],[-14,-85.78715],[-14.5,-85.78086],[-15,-85.77419],[-15.5,-85.76713],[-16,-85.75968],[-16.5,-85.75184],[-17,-85.7436],[-17.5,-85.73496],[-18,-85.72591],[-18.5,-85.71645],[-19,-85.70657],[-19.5,-85.69627],[-20,-85.68555],[-20.5,-85.6744],[-21,-85.66281],[-21.5,-85.65077],[-22,-85.63829],[-22.5,-85.62535],[-23,-85.61194],[-23.5,-85.59806],[-24,-85.58371],[-24.5,-85.56887],[-25,-85.55353],[-25.5,-85.53769],[-26,-85.52134],[-26.5,-85.50446],[-27,-85.48706],[-27.5,-85.4691],[-28,-85.4506],[-28.5,-85.43153],[-29,-85.41189],[-29.5,-85.39165],[-30,-85.37081],[-30.5,-85.34936],[-31,-85.32728],[-31.5,-85.30456],[-32,-85.28117],[-32.5,-85.25711],[-33,-85.23236],[-33.5,-85.2069],[-34,-85.18072],[-34.5,-85.15378],[-35,-85.12608],[-35.5,-85.0976],[-36,-85.0683],[-36.5,-85.03817],[-37,-85.00719],[-37.5,-84.97532],[-38,-84.94255],[-38.5,-84.90884],[-39,-84.87417],[-39.5,-84.8385],[-40,-84.80181],[-40.5,-84.76405],[-41,-84.7252],[-41.5,-84.68521],[-42,-84.64405],[-42.5,-84.60167],[-43,-84.55803],[-43.5,-84.51309],[-44,-84.46679],[-44.5,-84.41908],[-45,-84.36991],[-45.5,-84.31922],[-46,-84.26694],[-46.5,-84.21301],[-47,-84.15736],[-47.5,-84.09991],[-48,-84.04058],[-48.5,-83.97929],[-49,-83.91594],[-49.5,-83.85044],[-50,-83.78268],[-50.5,-83.71254],[-51,-83.63991],[-51.5,-83.56464],[-52,-83.4866],[-52.5,-83.40563],[-53,-83.32156],[-53.5,-83.23421],[-54,-83.14337],[-54.5,-83.04883],[-55,-82.95035],[-55.5,-82.84765],[-56,-82.74044],[-56.5,-82.6284],[-57,-82.51115],[-57.5,-82.3883],[-58,-82.25939],[-58.5,-82.12388],[-59,-81.9812],[-59.5,-81.83066],[-60,-81.6715],[-60.5,-81.50279],[-61,-81.32347],[-61.5,-81.1323],[-62,-80.92774],[-62.5,-80.70797],[-63,-80.4707],[-63.5,-80.21308],[-64,-79.9314],[-64.5,-79.62075],[-65,-79.27439],[-65.5,-78.88256],[-66,-78.43027],[-66.5,-77.89218],[-67,-77.21853],[-67.5,-76.27898],[-67.5,-71.06747],[-67,-69.79195],[-66.5,-68.78864],[-66,-67.92703],[-65.5,-67.15724],[-65,-66.45378],[-64.5,-65.80153],[-64,-65.19061],[-63.5,-64.61413],[-63,-64.06708],[-62.5,-63.54564],[-62,-63.04683],[-61.5,-62.56827],[-61,-62.10801],[-60.5,-61.66444],[-60,-61.23621],[-59.5,-60.82214],[-59,-60.42125],[-58.5,-60.03267],[-58,-59.65564],[-57.5,-59.28948],[-57,-58.93359],[-56.5,-58.58744],[-56,-58.25054],[-55.5,-57.92246],[-55,-57.6028],[-54.5,-57.2912],[-54,-56.98733],[-53.5,-56.69087],[-53,-56.40156]]}},{"type":"Feature","id":"+02601220:center:0","properties":{"id":"+02601220","year":260,"month":12,"day":20,"time_tdt":"01:54:30","type":"개기일식","type_code":"T","saros":65,"gamma":-0.94383,"magnitude":1.0267,"greatest":{"lat":-83.19542,"lng":-39.84332},"path_width_km":282.6,"duration":"01m25s","delta_t_seconds":8020.7,"catalog_number":5397,"source":"NASA Five Millennium Canon of Solar Eclipses","source_url":"https://eclipse.gsfc.nasa.gov/SEsearch/SEsearchmap.php?Ecl=%2B02601220","boundary":"center","name":"260-12-20 개기일식"},"geometry":{"type":"LineString","coordinates":[[44.77283,-62.95471],[45,-62.96385],[45.5,-63.39869],[46,-63.85153],[46.5,-64.32463],[47,-64.82081],[47.5,-65.34373],[48,-65.89824],[48.5,-66.49109],[49,-67.13205],[49.5,-67.83642],[50,-68.63066],[50.5,-69.56897],[51,-70.80909],[51,-75.01424],[50.5,-75.98653],[50,-76.66079],[49.5,-77.19469],[49,-77.64238],[48.5,-78.03025],[48,-78.37354],[47.5,-78.68199],[47,-78.96227],[46.5,-79.21918],[46,-79.45633],[45.5,-79.6765],[45,-79.88189],[44.5,-80.07427],[44,-80.2551],[43.5,-80.4256],[43,-80.58677],[42.5,-80.7395],[42,-80.88454],[41.5,-81.02252],[41,-81.15403],[40.5,-81.27954],[40,-81.39952],[39.5,-81.51435],[39,-81.62437],[38.5,-81.72992],[38,-81.83126],[37.5,-81.92866],[37,-82.02234],[36.5,-82.11253],[36,-82.19942],[35.5,-82.28318],[35,-82.36399],[34.5,-82.44198],[34,-82.5173],[33.5,-82.59007],[33,-82.66043],[32.5,-82.72847],[32,-82.79431],[31.5,-82.85803],[31,-82.91973],[30.5,-82.9795],[30,-83.0374],[29.5,-83.09352],[29,-83.14793],[28.5,-83.20068],[28,-83.25185],[27.5,-83.30148],[27,-83.34963],[26.5,-83.39636],[26,-83.44172],[25.5,-83.48574],[25,-83.52847],[24.5,-83.56996],[24,-83.61024],[23.5,-83.64935],[23,-83.68733],[22.5,-83.72421],[22,-83.76001],[21.5,-83.79478],[21,-83.82853],[20.5,-83.86131],[20,-83.89312],[19.5,-83.92401],[19,-83.95398],[18.5,-83.98307],[18,-84.0113],[17.5,-84.03868],[17,-84.06524],[16.5,-84.09099],[16,-84.11596],[15.5,-84.14016],[15,-84.1636],[14.5,-84.18631],[14,-84.20829],[13.5,-84.22956],[13,-84.25014],[12.5,-84.27003],[12,-84.28926],[11.5,-84.30783],[11,-84.32575],[10.5,-84.34304],[10,-84.3597],[9.5,-84.37574],[9,-84.39118],[8.5,-84.40602],[8,-84.42028],[7.5,-84.43395],[7,-84.44705],[6.5,-84.45959],[6,-84.47157],[5.5,-84.483],[5,-84.49388],[4.5,-84.50422],[4,-84.51403],[3.5,-84.52331],[3,-84.53207],[2.5,-84.54031],[2,-84.54803],[1.5,-84.55525],[1,-84.56195],[0.5,-84.56816],[0,-84.57386],[-0.5,-84.57907],[-1,-84.58379],[-1.5,-84.58801],[-2,-84.59174],[-2.5,-84.59499],[-3,-84.59775],[-3.5,-84.60003],[-4,-84.60182],[-4.5,-84.60313],[-5,-84.60396],[-5.5,-84.60431],[-6,-84.60418],[-6.5,-84.60357],[-7,-84.60247],[-7.5,-84.6009],[-8,-84.59884],[-8.5,-84.5963],[-9,-84.59327],[-9.5,-84.58976],[-10,-84.58576],[-10.5,-84.58127],[-11,-84.57629],[-11.5,-84.57081],[-12,-84.56484],[-12.5,-84.55836],[-13,-84.55138],[-13.5,-84.5439],[-14,-84.5359],[-14.5,-84.52739],[-15,-84.51835],[-15.5,-84.5088],[-16,-84.49871],[-16.5,-84.48808],[-17,-84.47692],[-17.5,-84.46521],[-18,-84.45295],[-18.5,-84.44012],[-19,-84.42673],[-19.5,-84.41277],[-20,-84.39822],[-20.5,-84.38308],[-21,-84.36734],[-21.5,-84.351],[-22,-84.33403],[-22.5,-84.31644],[-23,-84.29821],[-23.5,-84.27934],[-24,-84.2598],[-24.5,-84.23959],[-25,-84.21869],[-25.5,-84.1971],[-26,-84.17479],[-26.5,-84.15176],[-27,-84.12799],[-27.5,-84.10346],[-28,-84.07816],[-28.5,-84.05207],[-29,-84.02517],[-29.5,-83.99744],[-30,-83.96887],[-30.5,-83.93943],[-31,-83.9091],[-31.5,-83.87786],[-32,-83.84568],[-32.5,-83.81255],[-33,-83.77843],[-33.5,-83.74329],[-34,-83.70712],[-34.5,-83.66987],[-35,-83.63152],[-35.5,-83.59203],[-36,-83.55137],[-36.5,-83.50951],[-37,-83.46639],[-37.5,-83.42199],[-38,-83.37626],[-38.5,-83.32915],[-39,-83.28062],[-39.5,-83.23061],[-40,-83.17907],[-40.5,-83.12595],[-41,-83.07119],[-41.5,-83.01471],[-42,-82.95645],[-42.5,-82.89635],[-43,-82.83432],[-43.5,-82.77028],[-44,-82.70415],[-44.5,-82.63583],[-45,-82.56522],[-45.5,-82.49221],[-46,-82.41669],[-46.5,-82.33853],[-47,-82.25761],[-47.5,-82.17377],[-48,-82.08686],[-48.5,-81.99672],[-49,-81.90315],[-49.5,-81.80596],[-50,-81.70493],[-50.5,-81.59982],[-51,-81.49036],[-51.5,-81.37626],[-52,-81.2572],[-52.5,-81.13283],[-53,-81.00274],[-53.5,-80.86649],[-54,-80.72356],[-54.5,-80.57339],[-55,-80.41533],[-55.5,-80.24862],[-56,-80.0724],[-56.5,-79.88564],[-57,-79.68716],[-57.5,-79.47553],[-58,-79.24903],[-58.5,-79.00553],[-59,-78.74239],[-59.5,-78.45625],[-60,-78.14266],[-60.5,-77.79562],[-61,-77.40664],[-61.5,-76.96297],[-62,-76.44388],[-62.5,-75.81118],[-63,-74.97687],[-63.5,-73.57875],[-63.5,-70.64079],[-63,-68.95441],[-62.5,-67.83713],[-62,-66.92662],[-61.5,-66.13478],[-61,-65.4233],[-60.5,-64.77135],[-60,-64.16608],[-59.5,-63.59891],[-59,-63.06372],[-58.5,-62.556],[-58,-62.07229],[-57.5,-61.60986],[-57,-61.16651],[-56.5,-60.74043],[-56,-60.33013],[-55.5,-59.93433],[-55,-59.55195],[-54.5,-59.18205],[-54,-58.82382],[-53.5,-58.47653],[-53,-58.13956],[-52.5,-57.81233],[-52,-57.49434],[-51.5,-57.18513],[-51,-56.8843],[-51.24556,-56.79374]]}},{"type":"Feature","id":"+02601220:south:0","properties":{"id":"+02601220","year":260,"month":12,"day":20,"time_tdt":"01:54:30","type":"개기일식","type_code":"T","saros":65,"gamma":-0.94383,"magnitude":1.0267,"greatest":{"lat":-83.19542,"lng":-39.84332},"path_width_km":282.6,"duration":"01m25s","delta_t_seconds":8020.7,"catalog_number":5397,"source":"NASA Five Millennium Canon of Solar Eclipses","source_url":"https://eclipse.gsfc.nasa.gov/SEsearch/SEsearchmap.php?Ecl=%2B02601220","boundary":"south","name":"260-12-20 개기일식"},"geometry":{"type":"LineString","coordinates":[[42.5,-63.40022],[43,-63.88632],[43.5,-64.40087],[44,-64.94942],[44.5,-65.53986],[45,-66.18401],[45.5,-66.90111],[46,-67.7268],[46.5,-68.74394],[47,-70.30752],[47,-72.84165],[46.5,-74.1681],[46,-74.95142],[45.5,-75.54652],[45,-76.03622],[44.5,-76.45612],[44,-76.8254],[43.5,-77.15586],[43,-77.45532],[42.5,-77.72932],[42,-77.98193],[41.5,-78.21625],[41,-78.43472],[40.5,-78.63929],[40,-78.83154],[39.5,-79.01278],[39,-79.18412],[38.5,-79.34648],[38,-79.50068],[37.5,-79.6474],[37,-79.78724],[36.5,-79.92074],[36,-80.04836],[35.5,-80.17051],[35,-80.28758],[34.5,-80.39988],[34,-80.50771],[33.5,-80.61136],[33,-80.71106],[32.5,-80.80703],[32,-80.89949],[31.5,-80.98862],[31,-81.07458],[30.5,-81.15754],[30,-81.23765],[29.5,-81.31503],[29,-81.38982],[28.5,-81.46213],[28,-81.53206],[27.5,-81.59973],[27,-81.66522],[26.5,-81.72862],[26,-81.79001],[25.5,-81.84947],[25,-81.90708],[24.5,-81.96289],[24,-82.01698],[23.5,-82.06941],[23,-82.12023],[22.5,-82.16949],[22,-82.21725],[21.5,-82.26356],[21,-82.30845],[20.5,-82.35198],[20,-82.39418],[19.5,-82.43509],[19,-82.47475],[18.5,-82.5132],[18,-82.55046],[17.5,-82.58656],[17,-82.62155],[16.5,-82.65544],[16,-82.68827],[15.5,-82.72005],[15,-82.75081],[14.5,-82.78059],[14,-82.80939],[13.5,-82.83724],[13,-82.86416],[12.5,-82.89016],[12,-82.91528],[11.5,-82.93952],[11,-82.9629],[10.5,-82.98544],[10,-83.00715],[9.5,-83.02804],[9,-83.04814],[8.5,-83.06745],[8,-83.08598],[7.5,-83.10375],[7,-83.12077],[6.5,-83.13705],[6,-83.15259],[5.5,-83.16742],[5,-83.18153],[4.5,-83.19493],[4,-83.20764],[3.5,-83.21966],[3,-83.231],[2.5,-83.24167],[2,-83.25166],[1.5,-83.26099],[1,-83.26966],[0.5,-83.27768],[0,-83.28506],[-0.5,-83.29178],[-1,-83.29787],[-1.5,-83.30332],[-2,-83.30814],[-2.5,-83.31232],[-3,-83.31588],[-3.5,-83.31881],[-4,-83.32112],[-4.5,-83.3228],[-5,-83.32386],[-5.5,-83.32429],[-6,-83.32411],[-6.5,-83.3233],[-7,-83.32187],[-7.5,-83.31982],[-8,-83.31715],[-8.5,-83.31385],[-9,-83.30992],[-9.5,-83.30536],[-10,-83.30017],[-10.5,-83.29435],[-11,-83.28788],[-11.5,-83.28078],[-12,-83.27303],[-12.5,-83.26464],[-13,-83.25559],[-13.5,-83.24588],[-14,-83.2355],[-14.5,-83.22446],[-15,-83.21273],[-15.5,-83.20033],[-16,-83.18723],[-16.5,-83.17344],[-17,-83.15894],[-17.5,-83.14372],[-18,-83.12779],[-18.5,-83.11111],[-19,-83.0937],[-19.5,-83.07553],[-20,-83.05659],[-20.5,-83.03688],[-21,-83.01638],[-21.5,-82.99508],[-22,-82.97296],[-22.5,-82.95001],[-23,-82.92622],[-23.5,-82.90156],[-24,-82.87603],[-24.5,-82.8496],[-25,-82.82226],[-25.5,-82.79399],[-26,-82.76476],[-26.5,-82.73456],[-27,-82.70337],[-27.5,-82.67116],[-28,-82.6379],[-28.5,-82.60358],[-29,-82.56816],[-29.5,-82.53162],[-30,-82.49392],[-30.5,-82.45504],[-31,-82.41495],[-31.5,-82.3736],[-32,-82.33097],[-32.5,-82.28701],[-33,-82.24169],[-33.5,-82.19497],[-34,-82.14679],[-34.5,-82.09711],[-35,-82.04588],[-35.5,-81.99306],[-36,-81.93857],[-36.5,-81.88238],[-37,-81.8244],[-37.5,-81.76458],[-38,-81.70285],[-38.5,-81.63913],[-39,-81.57335],[-39.5,-81.50541],[-40,-81.43523],[-40.5,-81.3627],[-41,-81.28774],[-41.5,-81.21022],[-42,-81.13003],[-42.5,-81.04703],[-43,-80.9611],[-43.5,-80.87208],[-44,-80.77981],[-44.5,-80.68412],[-45,-80.58481],[-45.5,-80.48168],[-46,-80.37451],[-46.5,-80.26304],[-47,-80.147],[-47.5,-80.02609],[-48,-79.89999],[-48.5,-79.76831],[-49,-79.63065],[-49.5,-79.48654],[-50,-79.33546],[-50.5,-79.17681],[-51,-79.00993],[-51.5,-78.83403],[-52,-78.6482],[-52.5,-78.4514],[-53,-78.24238],[-53.5,-78.01964],[-54,-77.78137],[-54.5,-77.52535],[-55,-77.24877],[-55.5,-76.94803],[-56,-76.61839],[-56.5,-76.25331],[-57,-75.84345],[-57.5,-75.3745],[-58,-74.82247],[-58.5,-74.14091],[-59,-73.21123],[-59,-67.9925],[-58.5,-66.81978],[-58,-65.89956],[-57.5,-65.11313],[-57,-64.41398],[-56.5,-63.77802],[-56,-63.19089],[-55.5,-62.64315],[-55,-62.12821],[-54.5,-61.64123],[-54,-61.17857],[-53.5,-60.73735],[-53,-60.31528],[-52.5,-59.91048],[-52,-59.52141],[-51.5,-59.14677],[-51,-58.78544],[-50.5,-58.43647],[-50,-58.09902],[-49.5,-57.77237],[-49.125,-57.53408]]}}],"attribution":"Eclipse Predictions by Fred Espenak and Jean Meeus (NASA's GSFC)","generated_at":"2026-09-23T01:44:47.850Z"}
