{"type":"FeatureCollection","year":27,"events":[{"id":"+00270126","year":27,"month":1,"day":26,"time_tdt":"16:02:14","type":"금환일식","type_code":"A","saros":70,"gamma":-0.07706,"magnitude":0.93947,"greatest":{"lat":-23.75606,"lng":-12.96033},"path_width_km":225.3,"duration":"07m34s","delta_t_seconds":10263.3,"catalog_number":4840,"source":"NASA Five Millennium Canon of Solar Eclipses","source_url":"https://eclipse.gsfc.nasa.gov/SEsearch/SEsearchmap.php?Ecl=%2B00270126"},{"id":"+00270722","year":27,"month":7,"day":22,"time_tdt":"04:29:07","type":"개기일식","type_code":"T","saros":75,"gamma":0.06032,"magnitude":1.07413,"greatest":{"lat":24.80571,"lng":156.45276},"path_width_km":240.9,"duration":"06m31s","delta_t_seconds":10258.5,"catalog_number":4841,"source":"NASA Five Millennium Canon of Solar Eclipses","source_url":"https://eclipse.gsfc.nasa.gov/SEsearch/SEsearchmap.php?Ecl=%2B00270722"}],"features":[{"type":"Feature","id":"+00270126:north:0","properties":{"id":"+00270126","year":27,"month":1,"day":26,"time_tdt":"16:02:14","type":"금환일식","type_code":"A","saros":70,"gamma":-0.07706,"magnitude":0.93947,"greatest":{"lat":-23.75606,"lng":-12.96033},"path_width_km":225.3,"duration":"07m34s","delta_t_seconds":10263.3,"catalog_number":4840,"source":"NASA Five Millennium Canon of Solar Eclipses","source_url":"https://eclipse.gsfc.nasa.gov/SEsearch/SEsearchmap.php?Ecl=%2B00270126","boundary":"north","name":"27-01-26 금환일식"},"geometry":{"type":"LineString","coordinates":[[-78.23633,-10.86634],[-78,-10.95093],[-77.5,-11.12998],[-77,-11.30913],[-76.5,-11.48838],[-76,-11.6677],[-75.5,-11.84707],[-75,-12.02649],[-74.5,-12.20592],[-74,-12.38535],[-73.5,-12.56477],[-73,-12.74414],[-72.5,-12.92345],[-72,-13.10268],[-71.5,-13.28181],[-71,-13.46081],[-70.5,-13.63966],[-70,-13.81834],[-69.5,-13.99682],[-69,-14.17508],[-68.5,-14.35309],[-68,-14.53084],[-67.5,-14.70828],[-67,-14.8854],[-66.5,-15.06216],[-66,-15.23855],[-65.5,-15.41452],[-65,-15.59005],[-64.5,-15.76512],[-64,-15.93968],[-63.5,-16.11371],[-63,-16.28717],[-62.5,-16.46004],[-62,-16.63228],[-61.5,-16.80385],[-61,-16.97472],[-60.5,-17.14486],[-60,-17.31423],[-59.5,-17.48279],[-59,-17.6505],[-58.5,-17.81733],[-58,-17.98323],[-57.5,-18.14818],[-57,-18.31212],[-56.5,-18.47501],[-56,-18.63683],[-55.5,-18.79751],[-55,-18.95702],[-54.5,-19.11532],[-54,-19.27236],[-53.5,-19.4281],[-53,-19.58248],[-52.5,-19.73548],[-52,-19.88703],[-51.5,-20.03708],[-51,-20.1856],[-50.5,-20.33254],[-50,-20.47783],[-49.5,-20.62144],[-49,-20.76331],[-48.5,-20.9034],[-48,-21.04164],[-47.5,-21.17799],[-47,-21.31239],[-46.5,-21.44479],[-46,-21.57514],[-45.5,-21.70339],[-45,-21.82947],[-44.5,-21.95333],[-44,-22.07491],[-43.5,-22.19417],[-43,-22.31104],[-42.5,-22.42546],[-42,-22.53738],[-41.5,-22.64674],[-41,-22.75348],[-40.5,-22.85754],[-40,-22.95886],[-39.5,-23.05739],[-39,-23.15306],[-38.5,-23.24582],[-38,-23.33559],[-37.5,-23.42233],[-37,-23.50597],[-36.5,-23.58646],[-36,-23.66372],[-35.5,-23.73769],[-35,-23.80833],[-34.5,-23.87556],[-34,-23.93932],[-33.5,-23.99955],[-33,-24.05619],[-32.5,-24.10918],[-32,-24.15845],[-31.5,-24.20394],[-31,-24.2456],[-30.5,-24.28335],[-30,-24.31714],[-29.5,-24.34691],[-29,-24.37259],[-28.5,-24.39413],[-28,-24.41146],[-27.5,-24.42452],[-27,-24.43325],[-26.5,-24.4376],[-26,-24.4375],[-25.5,-24.43291],[-25,-24.42374],[-24.5,-24.40996],[-24,-24.39151],[-23.5,-24.36833],[-23,-24.34037],[-22.5,-24.30758],[-22,-24.2699],[-21.5,-24.22728],[-21,-24.17968],[-20.5,-24.12705],[-20,-24.06935],[-19.5,-24.00653],[-19,-23.93855],[-18.5,-23.86538],[-18,-23.78698],[-17.5,-23.70331],[-17,-23.61435],[-16.5,-23.52007],[-16,-23.42045],[-15.5,-23.31546],[-15,-23.2051],[-14.5,-23.08934],[-14,-22.96819],[-13.5,-22.84163],[-13,-22.70967],[-12.5,-22.57231],[-12,-22.42958],[-11.5,-22.28147],[-11,-22.12802],[-10.5,-21.96925],[-10,-21.8052],[-9.5,-21.6359],[-9,-21.46141],[-8.5,-21.28177],[-8,-21.09704],[-7.5,-20.90729],[-7,-20.71259],[-6.5,-20.51302],[-6,-20.30866],[-5.5,-20.09961],[-5,-19.88596],[-4.5,-19.66781],[-4,-19.44529],[-3.5,-19.21849],[-3,-18.98755],[-2.5,-18.75259],[-2,-18.51374],[-1.5,-18.27115],[-1,-18.02495],[-0.5,-17.77529],[0,-17.52232],[0.5,-17.26619],[1,-17.00706],[1.5,-16.74509],[2,-16.48043],[2.5,-16.21325],[3,-15.94371],[3.5,-15.67198],[4,-15.39821],[4.5,-15.12257],[5,-14.84522],[5.5,-14.56632],[6,-14.28603],[6.5,-14.00451],[7,-13.7219],[7.5,-13.43836],[8,-13.15404],[8.5,-12.86909],[9,-12.58363],[9.5,-12.29782],[10,-12.01177],[10.5,-11.72563],[11,-11.43951],[11.5,-11.15354],[12,-10.86782],[12.5,-10.58247],[13,-10.2976],[13.5,-10.01331],[14,-9.72968],[14.5,-9.44683],[15,-9.16482],[15.5,-8.88374],[16,-8.60368],[16.5,-8.32471],[17,-8.04689],[17.5,-7.77029],[18,-7.49497],[18.5,-7.22099],[19,-6.94841],[19.5,-6.67727],[20,-6.40763],[20.5,-6.13951],[21,-5.87297],[21.5,-5.60804],[22,-5.34476],[22.5,-5.08315],[23,-4.82324],[23.5,-4.56507],[24,-4.30865],[24.5,-4.054],[25,-3.80114],[25.5,-3.5501],[26,-3.30088],[26.5,-3.05349],[27,-2.80796],[27.5,-2.56428],[28,-2.32246],[28.5,-2.08252],[29,-1.84446],[29.5,-1.60827],[30,-1.37397],[30.5,-1.14155],[31,-0.91102],[31.5,-0.68237],[32,-0.4556],[32.5,-0.23072],[33,-0.0077],[33.5,0.21344],[34,0.43271],[34.5,0.65012],[35,0.86567],[35.5,1.07938],[36,1.29124],[36.5,1.50127],[37,1.70947],[37.5,1.91585],[38,2.12042],[38.5,2.3232],[39,2.52418],[39.5,2.72337],[40,2.9208],[40.5,3.11646],[41,3.31038],[41.5,3.50255],[42,3.69299],[42.5,3.88171],[43,4.06871],[43.5,4.25402],[44,4.43765],[44.5,4.61959],[45,4.79987],[45.35352,4.92634]]}},{"type":"Feature","id":"+00270126:center:0","properties":{"id":"+00270126","year":27,"month":1,"day":26,"time_tdt":"16:02:14","type":"금환일식","type_code":"A","saros":70,"gamma":-0.07706,"magnitude":0.93947,"greatest":{"lat":-23.75606,"lng":-12.96033},"path_width_km":225.3,"duration":"07m34s","delta_t_seconds":10263.3,"catalog_number":4840,"source":"NASA Five Millennium Canon of Solar Eclipses","source_url":"https://eclipse.gsfc.nasa.gov/SEsearch/SEsearchmap.php?Ecl=%2B00270126","boundary":"center","name":"27-01-26 금환일식"},"geometry":{"type":"LineString","coordinates":[[-78.82993,-12.06725],[-78.5,-12.18347],[-78,-12.35992],[-77.5,-12.53646],[-77,-12.71307],[-76.5,-12.88973],[-76,-13.06644],[-75.5,-13.24317],[-75,-13.4199],[-74.5,-13.59662],[-74,-13.77329],[-73.5,-13.94992],[-73,-14.12646],[-72.5,-14.30291],[-72,-14.47924],[-71.5,-14.65543],[-71,-14.83145],[-70.5,-15.00729],[-70,-15.18291],[-69.5,-15.3583],[-69,-15.53344],[-68.5,-15.70828],[-68,-15.88282],[-67.5,-16.05701],[-67,-16.23085],[-66.5,-16.40429],[-66,-16.57731],[-65.5,-16.74988],[-65,-16.92197],[-64.5,-17.09355],[-64,-17.2646],[-63.5,-17.43507],[-63,-17.60494],[-62.5,-17.77417],[-62,-17.94274],[-61.5,-18.1106],[-61,-18.27773],[-60.5,-18.44408],[-60,-18.60962],[-59.5,-18.77433],[-59,-18.93815],[-58.5,-19.10105],[-58,-19.26299],[-57.5,-19.42394],[-57,-19.58385],[-56.5,-19.74269],[-56,-19.90041],[-55.5,-20.05697],[-55,-20.21233],[-54.5,-20.36645],[-54,-20.51929],[-53.5,-20.67079],[-53,-20.82093],[-52.5,-20.96964],[-52,-21.11689],[-51.5,-21.26263],[-51,-21.40681],[-50.5,-21.54939],[-50,-21.69031],[-49.5,-21.82954],[-49,-21.96701],[-48.5,-22.10269],[-48,-22.23652],[-47.5,-22.36846],[-47,-22.49844],[-46.5,-22.62642],[-46,-22.75235],[-45.5,-22.87618],[-45,-22.99785],[-44.5,-23.11732],[-44,-23.23451],[-43.5,-23.3494],[-43,-23.46191],[-42.5,-23.572],[-42,-23.67961],[-41.5,-23.78469],[-41,-23.88717],[-40.5,-23.98701],[-40,-24.08415],[-39.5,-24.17854],[-39,-24.2701],[-38.5,-24.3588],[-38,-24.44458],[-37.5,-24.52736],[-37,-24.60711],[-36.5,-24.68376],[-36,-24.75725],[-35.5,-24.82753],[-35,-24.89454],[-34.5,-24.95822],[-34,-25.01851],[-33.5,-25.07536],[-33,-25.1287],[-32.5,-25.17849],[-32,-25.22465],[-31.5,-25.26714],[-31,-25.3059],[-30.5,-25.34086],[-30,-25.37197],[-29.5,-25.39918],[-29,-25.42243],[-28.5,-25.44165],[-28,-25.4568],[-27.5,-25.46781],[-27,-25.47463],[-26.5,-25.47721],[-26,-25.47549],[-25.5,-25.46942],[-25,-25.45894],[-24.5,-25.444],[-24,-25.42455],[-23.5,-25.40053],[-23,-25.3719],[-22.5,-25.33861],[-22,-25.30061],[-21.5,-25.25785],[-21,-25.21028],[-20.5,-25.15787],[-20,-25.10057],[-19.5,-25.03834],[-19,-24.97114],[-18.5,-24.89893],[-18,-24.82169],[-17.5,-24.73938],[-17,-24.65196],[-16.5,-24.55942],[-16,-24.46173],[-15.5,-24.35887],[-15,-24.25082],[-14.5,-24.13757],[-14,-24.01911],[-13.5,-23.89544],[-13,-23.76654],[-12.5,-23.63244],[-12,-23.49313],[-11.5,-23.34862],[-11,-23.19894],[-10.5,-23.04411],[-10,-22.88415],[-9.5,-22.71909],[-9,-22.54899],[-8.5,-22.37388],[-8,-22.19381],[-7.5,-22.00885],[-7,-21.81905],[-6.5,-21.62448],[-6,-21.42522],[-5.5,-21.22136],[-5,-21.01297],[-4.5,-20.80017],[-4,-20.58303],[-3.5,-20.36168],[-3,-20.13622],[-2.5,-19.90676],[-2,-19.67344],[-1.5,-19.43638],[-1,-19.19571],[-0.5,-18.95157],[0,-18.7041],[0.5,-18.45343],[1,-18.19973],[1.5,-17.94313],[2,-17.68379],[2.5,-17.42187],[3,-17.15752],[3.5,-16.89089],[4,-16.62214],[4.5,-16.35143],[5,-16.07892],[5.5,-15.80476],[6,-15.5291],[6.5,-15.25211],[7,-14.97392],[7.5,-14.69469],[8,-14.41457],[8.5,-14.1337],[9,-13.85221],[9.5,-13.57025],[10,-13.28794],[10.5,-13.00543],[11,-12.72282],[11.5,-12.44024],[12,-12.15782],[12.5,-11.87565],[13,-11.59386],[13.5,-11.31253],[14,-11.03178],[14.5,-10.75169],[15,-10.47236],[15.5,-10.19386],[16,-9.91629],[16.5,-9.63972],[17,-9.36422],[17.5,-9.08986],[18,-8.81671],[18.5,-8.54482],[19,-8.27425],[19.5,-8.00506],[20,-7.73729],[20.5,-7.47099],[21,-7.20621],[21.5,-6.94299],[22,-6.68135],[22.5,-6.42134],[23,-6.16298],[23.5,-5.90631],[24,-5.65135],[24.5,-5.39812],[25,-5.14664],[25.5,-4.89694],[26,-4.64902],[26.5,-4.40292],[27,-4.15863],[27.5,-3.91616],[28,-3.67554],[28.5,-3.43676],[29,-3.19984],[29.5,-2.96478],[30,-2.73157],[30.5,-2.50024],[31,-2.27077],[31.5,-2.04316],[32,-1.81743],[32.5,-1.59356],[33,-1.37155],[33.5,-1.1514],[34,-0.93311],[34.5,-0.71667],[35,-0.50208],[35.5,-0.28932],[36,-0.07841],[36.5,0.13068],[37,0.33795],[37.5,0.54341],[38,0.74706],[38.5,0.94892],[39,1.14899],[39.5,1.34728],[40,1.5438],[40.5,1.73856],[41,1.93157],[41.5,2.12285],[42,2.31239],[42.5,2.50021],[43,2.68633],[43.5,2.87075],[44,3.05348],[44.5,3.23453],[45,3.41392],[45.5,3.59166],[45.91963,3.73894]]}},{"type":"Feature","id":"+00270126:south:0","properties":{"id":"+00270126","year":27,"month":1,"day":26,"time_tdt":"16:02:14","type":"금환일식","type_code":"A","saros":70,"gamma":-0.07706,"magnitude":0.93947,"greatest":{"lat":-23.75606,"lng":-12.96033},"path_width_km":225.3,"duration":"07m34s","delta_t_seconds":10263.3,"catalog_number":4840,"source":"NASA Five Millennium Canon of Solar Eclipses","source_url":"https://eclipse.gsfc.nasa.gov/SEsearch/SEsearchmap.php?Ecl=%2B00270126","boundary":"south","name":"27-01-26 금환일식"},"geometry":{"type":"LineString","coordinates":[[-79.43359,-13.27236],[-79,-13.42306],[-78.5,-13.59691],[-78,-13.77084],[-77.5,-13.94483],[-77,-14.11885],[-76.5,-14.2929],[-76,-14.46695],[-75.5,-14.64099],[-75,-14.81499],[-74.5,-14.98894],[-74,-15.16282],[-73.5,-15.33661],[-73,-15.51028],[-72.5,-15.68382],[-72,-15.8572],[-71.5,-16.0304],[-71,-16.2034],[-70.5,-16.37617],[-70,-16.5487],[-69.5,-16.72095],[-69,-16.89291],[-68.5,-17.06454],[-68,-17.23582],[-67.5,-17.40672],[-67,-17.57722],[-66.5,-17.7473],[-66,-17.91691],[-65.5,-18.08603],[-65,-18.25463],[-64.5,-18.42269],[-64,-18.59017],[-63.5,-18.75704],[-63,-18.92327],[-62.5,-19.08883],[-62,-19.25368],[-61.5,-19.41779],[-61,-19.58113],[-60.5,-19.74366],[-60,-19.90535],[-59.5,-20.06615],[-59,-20.22604],[-58.5,-20.38498],[-58,-20.54293],[-57.5,-20.69986],[-57,-20.85571],[-56.5,-21.01046],[-56,-21.16406],[-55.5,-21.31648],[-55,-21.46767],[-54.5,-21.61759],[-54,-21.7662],[-53.5,-21.91346],[-53,-22.05932],[-52.5,-22.20375],[-52,-22.34669],[-51.5,-22.4881],[-51,-22.62794],[-50.5,-22.76616],[-50,-22.90271],[-49.5,-23.03756],[-49,-23.17064],[-48.5,-23.30193],[-48,-23.43136],[-47.5,-23.55889],[-47,-23.68446],[-46.5,-23.80805],[-46,-23.92958],[-45.5,-24.04902],[-45,-24.16631],[-44.5,-24.2814],[-44,-24.39424],[-43.5,-24.50479],[-43,-24.61298],[-42.5,-24.71878],[-42,-24.82212],[-41.5,-24.92295],[-41,-25.02123],[-40.5,-25.1169],[-40,-25.20991],[-39.5,-25.3002],[-39,-25.38772],[-38.5,-25.47242],[-38,-25.55424],[-37.5,-25.63313],[-37,-25.70905],[-36.5,-25.78192],[-36,-25.85171],[-35.5,-25.91835],[-35,-25.9818],[-34.5,-26.04199],[-34,-26.09887],[-33.5,-26.1524],[-33,-26.20251],[-32.5,-26.24915],[-32,-26.29228],[-31.5,-26.33182],[-31,-26.36773],[-30.5,-26.39996],[-30,-26.42846],[-29.5,-26.45316],[-29,-26.47402],[-28.5,-26.49098],[-28,-26.50399],[-27.5,-26.51299],[-27,-26.51795],[-26.5,-26.51879],[-26,-26.51548],[-25.5,-26.50797],[-25,-26.49619],[-24.5,-26.48011],[-24,-26.45967],[-23.5,-26.43483],[-23,-26.40553],[-22.5,-26.37174],[-22,-26.33341],[-21.5,-26.29049],[-21,-26.24294],[-20.5,-26.19071],[-20,-26.13378],[-19.5,-26.0721],[-19,-26.00563],[-18.5,-25.93434],[-18,-25.8582],[-17.5,-25.77717],[-17,-25.69123],[-16.5,-25.60035],[-16,-25.50451],[-15.5,-25.40369],[-15,-25.29786],[-14.5,-25.18702],[-14,-25.07115],[-13.5,-24.95025],[-13,-24.82432],[-12.5,-24.69334],[-12,-24.55734],[-11.5,-24.41631],[-11,-24.27027],[-10.5,-24.11924],[-10,-23.96325],[-9.5,-23.80231],[-9,-23.63647],[-8.5,-23.46576],[-8,-23.29023],[-7.5,-23.10992],[-7,-22.9249],[-6.5,-22.73522],[-6,-22.54096],[-5.5,-22.34218],[-5,-22.13896],[-4.5,-21.93139],[-4,-21.71957],[-3.5,-21.50358],[-3,-21.28353],[-2.5,-21.05952],[-2,-20.83167],[-1.5,-20.6001],[-1,-20.36493],[-0.5,-20.12628],[0,-19.88429],[0.5,-19.63908],[1,-19.39081],[1.5,-19.1396],[2,-18.8856],[2.5,-18.62897],[3,-18.36984],[3.5,-18.10837],[4,-17.8447],[4.5,-17.57899],[5,-17.31139],[5.5,-17.04205],[6,-16.77112],[6.5,-16.49874],[7,-16.22508],[7.5,-15.95026],[8,-15.67444],[8.5,-15.39776],[9,-15.12036],[9.5,-14.84236],[10,-14.56392],[10.5,-14.28514],[11,-14.00617],[11.5,-13.72711],[12,-13.4481],[12.5,-13.16923],[13,-12.89063],[13.5,-12.61239],[14,-12.33462],[14.5,-12.05742],[15,-11.78087],[15.5,-11.50507],[16,-11.2301],[16.5,-10.95604],[17,-10.68296],[17.5,-10.41093],[18,-10.14003],[18.5,-9.87032],[19,-9.60186],[19.5,-9.3347],[20,-9.06889],[20.5,-8.8045],[21,-8.54155],[21.5,-8.2801],[22,-8.02018],[22.5,-7.76183],[23,-7.50508],[23.5,-7.24997],[24,-6.99652],[24.5,-6.74476],[25,-6.49472],[25.5,-6.2464],[26,-5.99984],[26.5,-5.75505],[27,-5.51205],[27.5,-5.27084],[28,-5.03144],[28.5,-4.79386],[29,-4.55811],[29.5,-4.32419],[30,-4.09211],[30.5,-3.86188],[31,-3.6335],[31.5,-3.40696],[32,-3.18227],[32.5,-2.95943],[33,-2.73844],[33.5,-2.5193],[34,-2.302],[34.5,-2.08654],[35,-1.87292],[35.5,-1.66113],[36,-1.45116],[36.5,-1.24302],[37,-1.03668],[37.5,-0.83215],[38,-0.62943],[38.5,-0.42849],[39,-0.22933],[39.5,-0.03195],[40,0.16367],[40.5,0.35753],[41,0.54965],[41.5,0.74002],[42,0.92868],[42.5,1.11561],[43,1.30084],[43.5,1.48437],[44,1.66621],[44.5,1.84638],[45,2.02489],[45.5,2.20174],[46,2.37694],[46.49414,2.54849]]}},{"type":"Feature","id":"+00270722:north:0","properties":{"id":"+00270722","year":27,"month":7,"day":22,"time_tdt":"04:29:07","type":"개기일식","type_code":"T","saros":75,"gamma":0.06032,"magnitude":1.07413,"greatest":{"lat":24.80571,"lng":156.45276},"path_width_km":240.9,"duration":"06m31s","delta_t_seconds":10258.5,"catalog_number":4841,"source":"NASA Five Millennium Canon of Solar Eclipses","source_url":"https://eclipse.gsfc.nasa.gov/SEsearch/SEsearchmap.php?Ecl=%2B00270722","boundary":"north","name":"27-07-22 개기일식"},"geometry":{"type":"LineString","coordinates":[[88.26953,8.79936],[88.5,8.89093],[89,9.08987],[89.5,9.2892],[90,9.48891],[90.5,9.68898],[91,9.88938],[91.5,10.09011],[92,10.29114],[92.5,10.49245],[93,10.69403],[93.5,10.89585],[94,11.0979],[94.5,11.30015],[95,11.50257],[95.5,11.70515],[96,11.90787],[96.5,12.11069],[97,12.3136],[97.5,12.51657],[98,12.71958],[98.5,12.92259],[99,13.12558],[99.5,13.32853],[100,13.5314],[100.5,13.73416],[101,13.93679],[101.5,14.13926],[102,14.34153],[102.5,14.54358],[103,14.74536],[103.5,14.94686],[104,15.14802],[104.5,15.34883],[105,15.54924],[105.5,15.74922],[106,15.94874],[106.5,16.14775],[107,16.34621],[107.5,16.5441],[108,16.74137],[108.5,16.93798],[109,17.13389],[109.5,17.32906],[110,17.52345],[110.5,17.71701],[111,17.90971],[111.5,18.1015],[112,18.29234],[112.5,18.48219],[113,18.67099],[113.5,18.85871],[114,19.04529],[114.5,19.2307],[115,19.41488],[115.5,19.59779],[116,19.77939],[116.5,19.95962],[117,20.13843],[117.5,20.31579],[118,20.49163],[118.5,20.66592],[119,20.8386],[119.5,21.00962],[120,21.17893],[120.5,21.34649],[121,21.51225],[121.5,21.67615],[122,21.83815],[122.5,21.99819],[123,22.15623],[123.5,22.31222],[124,22.46611],[124.5,22.61785],[125,22.76738],[125.5,22.91467],[126,23.05965],[126.5,23.20229],[127,23.34254],[127.5,23.48034],[128,23.61565],[128.5,23.74842],[129,23.87861],[129.5,24.00616],[130,24.13103],[130.5,24.25318],[131,24.37255],[131.5,24.48911],[132,24.60281],[132.5,24.7136],[133,24.82145],[133.5,24.9263],[134,25.02812],[134.5,25.12686],[135,25.22248],[135.5,25.31494],[136,25.40421],[136.5,25.49023],[137,25.57297],[137.5,25.6524],[138,25.72847],[138.5,25.80115],[139,25.87039],[139.5,25.93617],[140,25.99845],[140.5,26.0572],[141,26.11237],[141.5,26.16394],[142,26.21187],[142.5,26.25614],[143,26.2967],[143.5,26.33353],[144,26.3666],[144.5,26.39588],[145,26.42134],[145.5,26.44295],[146,26.46069],[146.5,26.47453],[147,26.48445],[147.5,26.49041],[148,26.4924],[148.5,26.49039],[149,26.48436],[149.5,26.4743],[150,26.46017],[150.5,26.44196],[151,26.41965],[151.5,26.39322],[152,26.36267],[152.5,26.32796],[153,26.2891],[153.5,26.24605],[154,26.19883],[154.5,26.1474],[155,26.09177],[155.5,26.03193],[156,25.96786],[156.5,25.89957],[157,25.82705],[157.5,25.7503],[158,25.66932],[158.5,25.58411],[159,25.49468],[159.5,25.40102],[160,25.30315],[160.5,25.20108],[161,25.0948],[161.5,24.98435],[162,24.86973],[162.5,24.75097],[163,24.62807],[163.5,24.50106],[164,24.36997],[164.5,24.23482],[165,24.09565],[165.5,23.95247],[166,23.80534],[166.5,23.65427],[167,23.49932],[167.5,23.34052],[168,23.17792],[168.5,23.01156],[169,22.8415],[169.5,22.66779],[170,22.49047],[170.5,22.30962],[171,22.12528],[171.5,21.93753],[172,21.74642],[172.5,21.55202],[173,21.35441],[173.5,21.15365],[174,20.94981],[174.5,20.74299],[175,20.53324],[175.5,20.32066],[176,20.10532],[176.5,19.88731],[177,19.66672],[177.5,19.44362],[178,19.21811],[178.5,18.99028],[179,18.76021],[179.5,18.528],[180,18.29374]]}},{"type":"Feature","id":"+00270722:north:1","properties":{"id":"+00270722","year":27,"month":7,"day":22,"time_tdt":"04:29:07","type":"개기일식","type_code":"T","saros":75,"gamma":0.06032,"magnitude":1.07413,"greatest":{"lat":24.80571,"lng":156.45276},"path_width_km":240.9,"duration":"06m31s","delta_t_seconds":10258.5,"catalog_number":4841,"source":"NASA Five Millennium Canon of Solar Eclipses","source_url":"https://eclipse.gsfc.nasa.gov/SEsearch/SEsearchmap.php?Ecl=%2B00270722","boundary":"north","name":"27-07-22 개기일식"},"geometry":{"type":"LineString","coordinates":[[-179.5,18.05751],[-179,17.81942],[-178.5,17.57955],[-178,17.338],[-177.5,17.09486],[-177,16.85022],[-176.5,16.60418],[-176,16.35682],[-175.5,16.10823],[-175,15.85851],[-174.5,15.60775],[-174,15.35603],[-173.5,15.10344],[-173,14.85007],[-172.5,14.596],[-172,14.34131],[-171.5,14.08609],[-171,13.83042],[-170.5,13.57437],[-170,13.31802],[-169.5,13.06145],[-169,12.80473],[-168.5,12.54792],[-168,12.29111],[-167.5,12.03436],[-167,11.77773],[-166.5,11.52129],[-166,11.26509],[-165.5,11.00921],[-165,10.75369],[-164.5,10.49859],[-164,10.24397],[-163.5,9.98987],[-163,9.73635],[-162.5,9.48346],[-162,9.23124],[-161.5,8.97973],[-161,8.72898],[-160.5,8.47903],[-160,8.22991],[-159.5,7.98167],[-159,7.73433],[-158.5,7.48794],[-158,7.24252],[-157.5,6.99811],[-157,6.75474],[-156.5,6.51242],[-156,6.27119],[-155.5,6.03108],[-155,5.79209],[-154.5,5.55427],[-154,5.31762],[-153.5,5.08218],[-153,4.84794],[-152.5,4.61494],[-152,4.38319],[-151.5,4.15271],[-151,3.9235],[-150.5,3.69558],[-150,3.46896],[-149.5,3.24366],[-149,3.01968],[-148.5,2.79704],[-148,2.57573],[-147.5,2.35578],[-147,2.13718],[-146.5,1.91995],[-146,1.70409],[-145.5,1.4896],[-145,1.27649],[-144.5,1.06476],[-144,0.85442],[-143.5,0.64547],[-143,0.43791],[-142.5,0.23174],[-142,0.02697],[-141.5,-0.17641],[-141,-0.37839],[-140.5,-0.57897],[-140,-0.77816],[-139.82422,-0.84785]]}},{"type":"Feature","id":"+00270722:center:0","properties":{"id":"+00270722","year":27,"month":7,"day":22,"time_tdt":"04:29:07","type":"개기일식","type_code":"T","saros":75,"gamma":0.06032,"magnitude":1.07413,"greatest":{"lat":24.80571,"lng":156.45276},"path_width_km":240.9,"duration":"06m31s","delta_t_seconds":10258.5,"catalog_number":4841,"source":"NASA Five Millennium Canon of Solar Eclipses","source_url":"https://eclipse.gsfc.nasa.gov/SEsearch/SEsearchmap.php?Ecl=%2B00270722","boundary":"center","name":"27-07-22 개기일식"},"geometry":{"type":"LineString","coordinates":[[88.65396,8.03736],[89,8.17285],[89.5,8.3691],[90,8.56572],[90.5,8.7627],[91,8.96003],[91.5,9.15768],[92,9.35564],[92.5,9.5539],[93,9.75242],[93.5,9.9512],[94,10.15021],[94.5,10.34943],[95,10.54884],[95.5,10.74843],[96,10.94816],[96.5,11.14801],[97,11.34797],[97.5,11.548],[98,11.74808],[98.5,11.9482],[99,12.14831],[99.5,12.3484],[100,12.54843],[100.5,12.74839],[101,12.94824],[101.5,13.14795],[102,13.34749],[102.5,13.54683],[103,13.74595],[103.5,13.9448],[104,14.14336],[104.5,14.34159],[105,14.53947],[105.5,14.73695],[106,14.93399],[106.5,15.13058],[107,15.32666],[107.5,15.5222],[108,15.71716],[108.5,15.91151],[109,16.1052],[109.5,16.2982],[110,16.49046],[110.5,16.68195],[111,16.87261],[111.5,17.06242],[112,17.25133],[112.5,17.43929],[113,17.62626],[113.5,17.8122],[114,17.99705],[114.5,18.18079],[115,18.36335],[115.5,18.54469],[116,18.72477],[116.5,18.90354],[117,19.08096],[117.5,19.25696],[118,19.43151],[118.5,19.60456],[119,19.77605],[119.5,19.94595],[120,20.11419],[120.5,20.28073],[121,20.44552],[121.5,20.60851],[122,20.76965],[122.5,20.92888],[123,21.08617],[123.5,21.24145],[124,21.39468],[124.5,21.54581],[125,21.69478],[125.5,21.84155],[126,21.98607],[126.5,22.12828],[127,22.26814],[127.5,22.4056],[128,22.5406],[128.5,22.6731],[129,22.80305],[129.5,22.9304],[130,23.0551],[130.5,23.1771],[131,23.29636],[131.5,23.41283],[132,23.52646],[132.5,23.6372],[133,23.74502],[133.5,23.84985],[134,23.95167],[134.5,24.05041],[135,24.14605],[135.5,24.23854],[136,24.32782],[136.5,24.41387],[137,24.49663],[137.5,24.57608],[138,24.65216],[138.5,24.72484],[139,24.79407],[139.5,24.85982],[140,24.92206],[140.5,24.98073],[141,25.03582],[141.5,25.08727],[142,25.13507],[142.5,25.17916],[143,25.21952],[143.5,25.25611],[144,25.28891],[144.5,25.31787],[145,25.34298],[145.5,25.3642],[146,25.3815],[146.5,25.39485],[147,25.40423],[147.5,25.40961],[148,25.41097],[148.5,25.40827],[149,25.40151],[149.5,25.39065],[150,25.37567],[150.5,25.35656],[151,25.33329],[151.5,25.30585],[152,25.27422],[152.5,25.23838],[153,25.19833],[153.5,25.15404],[154,25.10551],[154.5,25.05273],[155,24.99569],[155.5,24.93438],[156,24.8688],[156.5,24.79894],[157,24.7248],[157.5,24.64639],[158,24.56369],[158.5,24.47673],[159,24.38549],[159.5,24.29],[160,24.19026],[160.5,24.08628],[161,23.97807],[161.5,23.86566],[162,23.74906],[162.5,23.62829],[163,23.50338],[163.5,23.37434],[164,23.24122],[164.5,23.10404],[165,22.96283],[165.5,22.81763],[166,22.66848],[166.5,22.51543],[167,22.3585],[167.5,22.19776],[168,22.03325],[168.5,21.86502],[169,21.69313],[169.5,21.51763],[170,21.33859],[170.5,21.15607],[171,20.97013],[171.5,20.78084],[172,20.58827],[172.5,20.39249],[173,20.19358],[173.5,19.99161],[174,19.78666],[174.5,19.57881],[175,19.36814],[175.5,19.15475],[176,18.9387],[176.5,18.7201],[177,18.49902],[177.5,18.27557],[178,18.04981],[178.5,17.82186],[179,17.5918],[179.5,17.35971],[180,17.12571]]}},{"type":"Feature","id":"+00270722:center:1","properties":{"id":"+00270722","year":27,"month":7,"day":22,"time_tdt":"04:29:07","type":"개기일식","type_code":"T","saros":75,"gamma":0.06032,"magnitude":1.07413,"greatest":{"lat":24.80571,"lng":156.45276},"path_width_km":240.9,"duration":"06m31s","delta_t_seconds":10258.5,"catalog_number":4841,"source":"NASA Five Millennium Canon of Solar Eclipses","source_url":"https://eclipse.gsfc.nasa.gov/SEsearch/SEsearchmap.php?Ecl=%2B00270722","boundary":"center","name":"27-07-22 개기일식"},"geometry":{"type":"LineString","coordinates":[[-179.5,16.88987],[-179,16.65229],[-178.5,16.41307],[-178,16.17229],[-177.5,15.93005],[-177,15.68644],[-176.5,15.44156],[-176,15.19549],[-175.5,14.94832],[-175,14.70014],[-174.5,14.45104],[-174,14.2011],[-173.5,13.95042],[-173,13.69906],[-172.5,13.44713],[-172,13.19469],[-171.5,12.94183],[-171,12.68861],[-170.5,12.43513],[-170,12.18145],[-169.5,11.92764],[-169,11.67378],[-168.5,11.41992],[-168,11.16615],[-167.5,10.91251],[-167,10.65908],[-166.5,10.40591],[-166,10.15307],[-165.5,9.9006],[-165,9.64856],[-164.5,9.39701],[-164,9.146],[-163.5,8.89556],[-163,8.64576],[-162.5,8.39663],[-162,8.14822],[-161.5,7.90056],[-161,7.65371],[-160.5,7.40769],[-160,7.16253],[-159.5,6.91829],[-159,6.67498],[-158.5,6.43263],[-158,6.19129],[-157.5,5.95097],[-157,5.7117],[-156.5,5.47351],[-156,5.23643],[-155.5,5.00046],[-155,4.76564],[-154.5,4.53198],[-154,4.29951],[-153.5,4.06823],[-153,3.83817],[-152.5,3.60935],[-152,3.38177],[-151.5,3.15545],[-151,2.9304],[-150.5,2.70664],[-150,2.48417],[-149.5,2.26301],[-149,2.04316],[-148.5,1.82463],[-148,1.60743],[-147.5,1.39157],[-147,1.17705],[-146.5,0.96388],[-146,0.75206],[-145.5,0.54159],[-145,0.33249],[-144.5,0.12475],[-144,-0.08162],[-143.5,-0.28663],[-143,-0.49026],[-142.5,-0.69252],[-142,-0.89341],[-141.5,-1.09293],[-141,-1.29107],[-140.5,-1.48784],[-140.19738,-1.60469]]}},{"type":"Feature","id":"+00270722:south:0","properties":{"id":"+00270722","year":27,"month":7,"day":22,"time_tdt":"04:29:07","type":"개기일식","type_code":"T","saros":75,"gamma":0.06032,"magnitude":1.07413,"greatest":{"lat":24.80571,"lng":156.45276},"path_width_km":240.9,"duration":"06m31s","delta_t_seconds":10258.5,"catalog_number":4841,"source":"NASA Five Millennium Canon of Solar Eclipses","source_url":"https://eclipse.gsfc.nasa.gov/SEsearch/SEsearchmap.php?Ecl=%2B00270722","boundary":"south","name":"27-07-22 개기일식"},"geometry":{"type":"LineString","coordinates":[[89.03516,7.27685],[89.5,7.45647],[90,7.65004],[90.5,7.84398],[91,8.03826],[91.5,8.23287],[92,8.4278],[92.5,8.62302],[93,8.81852],[93.5,9.01428],[94,9.21029],[94.5,9.40651],[95,9.60293],[95.5,9.79953],[96,9.9963],[96.5,10.1932],[97,10.39021],[97.5,10.58732],[98,10.78449],[98.5,10.98171],[99,11.17895],[99.5,11.37619],[100,11.57339],[100.5,11.77053],[101,11.96759],[101.5,12.16453],[102,12.36133],[102.5,12.55796],[103,12.75439],[103.5,12.95058],[104,13.14651],[104.5,13.34215],[105,13.53746],[105.5,13.7324],[106,13.92695],[106.5,14.12107],[107,14.31472],[107.5,14.50787],[108,14.70048],[108.5,14.89252],[109,15.08394],[109.5,15.27471],[110,15.46478],[110.5,15.65413],[111,15.8427],[111.5,16.03046],[112,16.21736],[112.5,16.40336],[113,16.58843],[113.5,16.7725],[114,16.95555],[114.5,17.13752],[115,17.31837],[115.5,17.49806],[116,17.67654],[116.5,17.85375],[117,18.02966],[117.5,18.20422],[118,18.37738],[118.5,18.54908],[119,18.71929],[119.5,18.88795],[120,19.055],[120.5,19.22042],[121,19.38413],[121.5,19.54609],[122,19.70626],[122.5,19.86457],[123,20.02098],[123.5,20.17544],[124,20.3279],[124.5,20.4783],[125,20.6266],[125.5,20.77274],[126,20.91667],[126.5,21.05833],[127,21.19769],[127.5,21.33468],[128,21.46926],[128.5,21.60138],[129,21.73098],[129.5,21.85801],[130,21.98243],[130.5,22.10418],[131,22.22322],[131.5,22.33949],[132,22.45294],[132.5,22.56353],[133,22.67121],[133.5,22.77593],[134,22.87764],[134.5,22.9763],[135,23.07186],[135.5,23.16427],[136,23.25349],[136.5,23.33948],[137,23.42218],[137.5,23.50156],[138,23.57756],[138.5,23.65016],[139,23.71931],[139.5,23.78496],[140,23.84707],[140.5,23.90561],[141,23.96054],[141.5,24.01181],[142,24.0594],[142.5,24.10326],[143,24.14336],[143.5,24.17965],[144,24.21212],[144.5,24.24072],[145,24.26542],[145.5,24.2862],[146,24.30301],[146.5,24.31583],[147,24.32463],[147.5,24.32938],[148,24.33006],[148.5,24.32665],[149,24.3191],[149.5,24.30742],[150,24.29156],[150.5,24.27151],[151,24.24725],[151.5,24.21877],[152,24.18604],[152.5,24.14905],[153,24.10779],[153.5,24.06224],[154,24.0124],[154.5,23.95825],[155,23.89978],[155.5,23.837],[156,23.76989],[156.5,23.69846],[157,23.62271],[157.5,23.54263],[158,23.45824],[158.5,23.36953],[159,23.27652],[159.5,23.17921],[160,23.07762],[160.5,22.97177],[161,22.86167],[161.5,22.74734],[162,22.6288],[162.5,22.50608],[163,22.37921],[163.5,22.24821],[164,22.11313],[164.5,21.97399],[165,21.83083],[165.5,21.6837],[166,21.53263],[166.5,21.37769],[167,21.2189],[167.5,21.05633],[168,20.89003],[168.5,20.72006],[169,20.54648],[169.5,20.36934],[170,20.18872],[170.5,20.00469],[171,19.8173],[171.5,19.62665],[172,19.43279],[172.5,19.23581],[173,19.03578],[173.5,18.83279],[174,18.62692],[174.5,18.41825],[175,18.20687],[175.5,17.99286],[176,17.77632],[176.5,17.55733],[177,17.33599],[177.5,17.11238],[178,16.8866],[178.5,16.65875],[179,16.4289],[179.5,16.19717],[180,15.96363]]}},{"type":"Feature","id":"+00270722:south:1","properties":{"id":"+00270722","year":27,"month":7,"day":22,"time_tdt":"04:29:07","type":"개기일식","type_code":"T","saros":75,"gamma":0.06032,"magnitude":1.07413,"greatest":{"lat":24.80571,"lng":156.45276},"path_width_km":240.9,"duration":"06m31s","delta_t_seconds":10258.5,"catalog_number":4841,"source":"NASA Five Millennium Canon of Solar Eclipses","source_url":"https://eclipse.gsfc.nasa.gov/SEsearch/SEsearchmap.php?Ecl=%2B00270722","boundary":"south","name":"27-07-22 개기일식"},"geometry":{"type":"LineString","coordinates":[[-179.5,15.72839],[-179,15.49154],[-178.5,15.25317],[-178,15.01337],[-177.5,14.77224],[-177,14.52986],[-176.5,14.28633],[-176,14.04174],[-175.5,13.79617],[-175,13.54971],[-174.5,13.30244],[-174,13.05446],[-173.5,12.80584],[-173,12.55667],[-172.5,12.30701],[-172,12.05697],[-171.5,11.80659],[-171,11.55597],[-170.5,11.30518],[-170,11.05428],[-169.5,10.80334],[-169,10.55243],[-168.5,10.30162],[-168,10.05096],[-167.5,9.80053],[-167,9.55037],[-166.5,9.30054],[-166,9.0511],[-165.5,8.8021],[-165,8.55359],[-164.5,8.30562],[-164,8.05824],[-163.5,7.8115],[-163,7.56543],[-162.5,7.32007],[-162,7.07548],[-161.5,6.83168],[-161,6.58871],[-160.5,6.34661],[-160,6.10541],[-159.5,5.86514],[-159,5.62583],[-158.5,5.38751],[-158,5.1502],[-157.5,4.91394],[-157,4.67874],[-156.5,4.44463],[-156,4.21163],[-155.5,3.97977],[-155,3.74905],[-154.5,3.5195],[-154,3.29114],[-153.5,3.06397],[-153,2.83803],[-152.5,2.61331],[-152,2.38983],[-151.5,2.16761],[-151,1.94665],[-150.5,1.72697],[-150,1.50858],[-149.5,1.29148],[-149,1.07567],[-148.5,0.86118],[-148,0.64801],[-147.5,0.43615],[-147,0.22562],[-146.5,0.01642],[-146,-0.19144],[-145.5,-0.39796],[-145,-0.60315],[-144.5,-0.80699],[-144,-1.00948],[-143.5,-1.21062],[-143,-1.41042],[-142.5,-1.60886],[-142,-1.80596],[-141.5,-2.0017],[-141,-2.19609],[-140.57227,-2.36132]]}}],"attribution":"Eclipse Predictions by Fred Espenak and Jean Meeus (NASA's GSFC)","generated_at":"2026-09-23T01:44:43.194Z"}
