{"type":"FeatureCollection","year":272,"events":[{"id":"+02720514","year":272,"month":5,"day":14,"time_tdt":"17:06:05","type":"개기일식","type_code":"T","saros":71,"gamma":-0.58602,"magnitude":1.03337,"greatest":{"lat":-15.20663,"lng":-33.04517},"path_width_km":137.3,"duration":"03m13s","delta_t_seconds":7911.5,"catalog_number":5423,"source":"NASA Five Millennium Canon of Solar Eclipses","source_url":"https://eclipse.gsfc.nasa.gov/SEsearch/SEsearchmap.php?Ecl=%2B02720514"},{"id":"+02721108","year":272,"month":11,"day":8,"time_tdt":"10:02:12","type":"금환일식","type_code":"A","saros":76,"gamma":0.35276,"magnitude":0.93374,"greatest":{"lat":2.23628,"lng":66.83075},"path_width_km":262.4,"duration":"08m10s","delta_t_seconds":7906.8,"catalog_number":5424,"source":"NASA Five Millennium Canon of Solar Eclipses","source_url":"https://eclipse.gsfc.nasa.gov/SEsearch/SEsearchmap.php?Ecl=%2B02721108"}],"features":[{"type":"Feature","id":"+02720514:north:0","properties":{"id":"+02720514","year":272,"month":5,"day":14,"time_tdt":"17:06:05","type":"개기일식","type_code":"T","saros":71,"gamma":-0.58602,"magnitude":1.03337,"greatest":{"lat":-15.20663,"lng":-33.04517},"path_width_km":137.3,"duration":"03m13s","delta_t_seconds":7911.5,"catalog_number":5423,"source":"NASA Five Millennium Canon of Solar Eclipses","source_url":"https://eclipse.gsfc.nasa.gov/SEsearch/SEsearchmap.php?Ecl=%2B02720514","boundary":"north","name":"272-05-14 개기일식"},"geometry":{"type":"LineString","coordinates":[[-87.95508,-51.85388],[-87.5,-51.67987],[-87,-51.48646],[-86.5,-51.29072],[-86,-51.09261],[-85.5,-50.89211],[-85,-50.68919],[-84.5,-50.48382],[-84,-50.27598],[-83.5,-50.06564],[-83,-49.85277],[-82.5,-49.63734],[-82,-49.41932],[-81.5,-49.19869],[-81,-48.97541],[-80.5,-48.74946],[-80,-48.52081],[-79.5,-48.28942],[-79,-48.05527],[-78.5,-47.81832],[-78,-47.57854],[-77.5,-47.3359],[-77,-47.09036],[-76.5,-46.84191],[-76,-46.59049],[-75.5,-46.33608],[-75,-46.07865],[-74.5,-45.81816],[-74,-45.55458],[-73.5,-45.28787],[-73,-45.01801],[-72.5,-44.74494],[-72,-44.46865],[-71.5,-44.1891],[-71,-43.90624],[-70.5,-43.62006],[-70,-43.3305],[-69.5,-43.03754],[-69,-42.74115],[-68.5,-42.44128],[-68,-42.13791],[-67.5,-41.83101],[-67,-41.52053],[-66.5,-41.20645],[-66,-40.88874],[-65.5,-40.56736],[-65,-40.24229],[-64.5,-39.91349],[-64,-39.58095],[-63.5,-39.24463],[-63,-38.90451],[-62.5,-38.56057],[-62,-38.21278],[-61.5,-37.86114],[-61,-37.50562],[-60.5,-37.14621],[-60,-36.78291],[-59.5,-36.4157],[-59,-36.04459],[-58.5,-35.66958],[-58,-35.29067],[-57.5,-34.90788],[-57,-34.52122],[-56.5,-34.13072],[-56,-33.73641],[-55.5,-33.33832],[-55,-32.9365],[-54.5,-32.53101],[-54,-32.1219],[-53.5,-31.70925],[-53,-31.29314],[-52.5,-30.87366],[-52,-30.45091],[-51.5,-30.02501],[-51,-29.5961],[-50.5,-29.16431],[-50,-28.7298],[-49.5,-28.29274],[-49,-27.85332],[-48.5,-27.41174],[-48,-26.96823],[-47.5,-26.52302],[-47,-26.07637],[-46.5,-25.62854],[-46,-25.17982],[-45.5,-24.73052],[-45,-24.28097],[-44.5,-23.83149],[-44,-23.38245],[-43.5,-22.93421],[-43,-22.48715],[-42.5,-22.04167],[-42,-21.59816],[-41.5,-21.15705],[-41,-20.71875],[-40.5,-20.28368],[-40,-19.85227],[-39.5,-19.42495],[-39,-19.00213],[-38.5,-18.58424],[-38,-18.17169],[-37.5,-17.76487],[-37,-17.36417],[-36.5,-16.96997],[-36,-16.58262],[-35.5,-16.20245],[-35,-15.8298],[-34.5,-15.46493],[-34,-15.10814],[-33.5,-14.75967],[-33,-14.41974],[-32.5,-14.08855],[-32,-13.76627],[-31.5,-13.45306],[-31,-13.14903],[-30.5,-12.85429],[-30,-12.56891],[-29.5,-12.29295],[-29,-12.02644],[-28.5,-11.76941],[-28,-11.52183],[-27.5,-11.28369],[-27,-11.05496],[-26.5,-10.83557],[-26,-10.62547],[-25.5,-10.42456],[-25,-10.23277],[-24.5,-10.04998],[-24,-9.8761],[-23.5,-9.711],[-23,-9.55456],[-22.5,-9.40664],[-22,-9.26713],[-21.5,-9.13586],[-21,-9.01272],[-20.5,-8.89754],[-20,-8.79019],[-19.5,-8.69051],[-19,-8.59836],[-18.5,-8.5136],[-18,-8.43606],[-17.5,-8.3656],[-17,-8.30208],[-16.5,-8.24535],[-16,-8.19526],[-15.5,-8.15167],[-15,-8.11444],[-14.5,-8.08343],[-14,-8.0585],[-13.5,-8.03951],[-13,-8.02634],[-12.5,-8.01884],[-12,-8.01689],[-11.5,-8.02037],[-11,-8.02915],[-10.5,-8.0431],[-10,-8.06211],[-9.5,-8.08607],[-9,-8.11485],[-8.5,-8.14835],[-8,-8.18645],[-7.5,-8.22905],[-7,-8.27605],[-6.5,-8.32734],[-6,-8.38282],[-5.5,-8.44239],[-5,-8.50596],[-4.5,-8.57344],[-4,-8.64473],[-3.5,-8.71974],[-3,-8.79838],[-2.5,-8.88058],[-2,-8.96625],[-1.5,-9.0553],[-1,-9.14766],[-0.5,-9.24324],[0,-9.34198],[0.5,-9.4438],[1,-9.54862],[1.5,-9.65638],[2,-9.76701],[2.5,-9.88043],[3,-9.99658],[3.5,-10.1154],[4,-10.23683],[4.5,-10.3608],[5,-10.48725],[5.5,-10.61612],[6,-10.74735],[6.5,-10.8809],[7,-11.0167],[7.5,-11.15469],[8,-11.29484],[8.5,-11.43707],[9,-11.58135],[9.5,-11.72763],[10,-11.87585],[10.5,-12.02597],[11,-12.17794],[11.5,-12.33172],[12,-12.48727],[12.5,-12.64453],[13,-12.80346],[13.5,-12.96404],[14,-13.1262],[14.5,-13.28993],[15,-13.45516],[15.5,-13.62188],[16,-13.79003],[16.5,-13.95958],[17,-14.13051],[17.5,-14.30276],[17.92383,-14.44979]]}},{"type":"Feature","id":"+02720514:center:0","properties":{"id":"+02720514","year":272,"month":5,"day":14,"time_tdt":"17:06:05","type":"개기일식","type_code":"T","saros":71,"gamma":-0.58602,"magnitude":1.03337,"greatest":{"lat":-15.20663,"lng":-33.04517},"path_width_km":137.3,"duration":"03m13s","delta_t_seconds":7911.5,"catalog_number":5423,"source":"NASA Five Millennium Canon of Solar Eclipses","source_url":"https://eclipse.gsfc.nasa.gov/SEsearch/SEsearchmap.php?Ecl=%2B02720514","boundary":"center","name":"272-05-14 개기일식"},"geometry":{"type":"LineString","coordinates":[[-87.73169,-52.16829],[-87.5,-52.08666],[-87,-51.89607],[-86.5,-51.70317],[-86,-51.50793],[-85.5,-51.31033],[-85,-51.11034],[-84.5,-50.90794],[-84,-50.7031],[-83.5,-50.49579],[-83,-50.28598],[-82.5,-50.07366],[-82,-49.85878],[-81.5,-49.64133],[-81,-49.42126],[-80.5,-49.19856],[-80,-48.9732],[-79.5,-48.74513],[-79,-48.51434],[-78.5,-48.28079],[-78,-48.04446],[-77.5,-47.8053],[-77,-47.56329],[-76.5,-47.3184],[-76,-47.0706],[-75.5,-46.81984],[-75,-46.56611],[-74.5,-46.30936],[-74,-46.04957],[-73.5,-45.78669],[-73,-45.5207],[-72.5,-45.25156],[-72,-44.97924],[-71.5,-44.7037],[-71,-44.42492],[-70.5,-44.14285],[-70,-43.85746],[-69.5,-43.56871],[-69,-43.27659],[-68.5,-42.98104],[-68,-42.68204],[-67.5,-42.37955],[-67,-42.07354],[-66.5,-41.76398],[-66,-41.45084],[-65.5,-41.13409],[-65,-40.81369],[-64.5,-40.48963],[-64,-40.16186],[-63.5,-39.83037],[-63,-39.49513],[-62.5,-39.15612],[-62,-38.81331],[-61.5,-38.46669],[-61,-38.11624],[-60.5,-37.76195],[-60,-37.40381],[-59.5,-37.0418],[-59,-36.67593],[-58.5,-36.30619],[-58,-35.93259],[-57.5,-35.55513],[-57,-35.17384],[-56.5,-34.78873],[-56,-34.39982],[-55.5,-34.00714],[-55,-33.61075],[-54.5,-33.21068],[-54,-32.80699],[-53.5,-32.39974],[-53,-31.989],[-52.5,-31.57487],[-52,-31.15744],[-51.5,-30.7368],[-51,-30.31308],[-50.5,-29.88642],[-50,-29.45696],[-49.5,-29.02485],[-49,-28.59026],[-48.5,-28.1534],[-48,-27.71447],[-47.5,-27.27368],[-47,-26.83127],[-46.5,-26.38751],[-46,-25.94266],[-45.5,-25.49701],[-45,-25.05086],[-44.5,-24.60455],[-44,-24.1584],[-43.5,-23.71277],[-43,-23.26802],[-42.5,-22.82455],[-42,-22.38272],[-41.5,-21.94296],[-41,-21.50567],[-40.5,-21.07126],[-40,-20.64015],[-39.5,-20.21277],[-39,-19.78953],[-38.5,-19.37086],[-38,-18.95716],[-37.5,-18.54884],[-37,-18.14629],[-36.5,-17.7499],[-36,-17.36003],[-35.5,-16.97703],[-35,-16.60122],[-34.5,-16.23293],[-34,-15.87243],[-33.5,-15.52],[-33,-15.17588],[-32.5,-14.84027],[-32,-14.51338],[-31.5,-14.19537],[-31,-13.88639],[-30.5,-13.58655],[-30,-13.29595],[-29.5,-13.01466],[-29,-12.74274],[-28.5,-12.48021],[-28,-12.22708],[-27.5,-11.98335],[-27,-11.74899],[-26.5,-11.52396],[-26,-11.3082],[-25.5,-11.10165],[-25,-10.90422],[-24.5,-10.71582],[-24,-10.53635],[-23.5,-10.3657],[-23,-10.20374],[-22.5,-10.05036],[-22,-9.90542],[-21.5,-9.76879],[-21,-9.64033],[-20.5,-9.5199],[-20,-9.40736],[-19.5,-9.30255],[-19,-9.20533],[-18.5,-9.11555],[-18,-9.03307],[-17.5,-8.95773],[-17,-8.88939],[-16.5,-8.8279],[-16,-8.77311],[-15.5,-8.72489],[-15,-8.68308],[-14.5,-8.64755],[-14,-8.61816],[-13.5,-8.59476],[-13,-8.57724],[-12.5,-8.56544],[-12,-8.55925],[-11.5,-8.55854],[-11,-8.56317],[-10.5,-8.57303],[-10,-8.58799],[-9.5,-8.60794],[-9,-8.63276],[-8.5,-8.66234],[-8,-8.69657],[-7.5,-8.73534],[-7,-8.77853],[-6.5,-8.82606],[-6,-8.87781],[-5.5,-8.9337],[-5,-8.99361],[-4.5,-9.05746],[-4,-9.12516],[-3.5,-9.19661],[-3,-9.27172],[-2.5,-9.35042],[-2,-9.43261],[-1.5,-9.51822],[-1,-9.60715],[-0.5,-9.69935],[0,-9.79472],[0.5,-9.89319],[1,-9.99469],[1.5,-10.09915],[2,-10.2065],[2.5,-10.31667],[3,-10.4296],[3.5,-10.54521],[4,-10.66345],[4.5,-10.78424],[5,-10.90755],[5.5,-11.03329],[6,-11.16141],[6.5,-11.29187],[7,-11.42459],[7.5,-11.55954],[8,-11.69664],[8.5,-11.83586],[9,-11.97714],[9.5,-12.12044],[10,-12.26569],[10.5,-12.41287],[11,-12.56191],[11.5,-12.71277],[12,-12.86541],[12.5,-13.01979],[13,-13.17587],[13.5,-13.33359],[14,-13.49292],[14.5,-13.65383],[15,-13.81626],[15.5,-13.98019],[16,-14.14557],[16.5,-14.31238],[17,-14.48056],[17.5,-14.65009],[17.88153,-14.77942]]}},{"type":"Feature","id":"+02720514:south:0","properties":{"id":"+02720514","year":272,"month":5,"day":14,"time_tdt":"17:06:05","type":"개기일식","type_code":"T","saros":71,"gamma":-0.58602,"magnitude":1.03337,"greatest":{"lat":-15.20663,"lng":-33.04517},"path_width_km":137.3,"duration":"03m13s","delta_t_seconds":7911.5,"catalog_number":5423,"source":"NASA Five Millennium Canon of Solar Eclipses","source_url":"https://eclipse.gsfc.nasa.gov/SEsearch/SEsearchmap.php?Ecl=%2B02720514","boundary":"south","name":"272-05-14 개기일식"},"geometry":{"type":"LineString","coordinates":[[-87.48828,-52.48925],[-87,-52.30581],[-86.5,-52.11572],[-86,-51.92332],[-85.5,-51.7286],[-85,-51.53152],[-84.5,-51.33205],[-84,-51.13018],[-83.5,-50.92588],[-83,-50.71912],[-82.5,-50.50986],[-82,-50.29809],[-81.5,-50.08378],[-81,-49.8669],[-80.5,-49.64741],[-80,-49.4253],[-79.5,-49.20052],[-79,-48.97306],[-78.5,-48.74288],[-78,-48.50995],[-77.5,-48.27424],[-77,-48.03572],[-76.5,-47.79436],[-76,-47.55012],[-75.5,-47.30298],[-75,-47.0529],[-74.5,-46.79984],[-74,-46.54379],[-73.5,-46.2847],[-73,-46.02254],[-72.5,-45.75728],[-72,-45.48888],[-71.5,-45.21731],[-71,-44.94254],[-70.5,-44.66453],[-70,-44.38326],[-69.5,-44.09868],[-69,-43.81076],[-68.5,-43.51947],[-68,-43.22478],[-67.5,-42.92665],[-67,-42.62505],[-66.5,-42.31995],[-66,-42.01132],[-65.5,-41.69913],[-65,-41.38335],[-64.5,-41.06395],[-64,-40.7409],[-63.5,-40.41417],[-63,-40.08374],[-62.5,-39.74959],[-62,-39.4117],[-61.5,-39.07004],[-61,-38.7246],[-60.5,-38.37535],[-60,-38.0223],[-59.5,-37.66543],[-59,-37.30473],[-58.5,-36.9402],[-58,-36.57184],[-57.5,-36.19967],[-57,-35.82368],[-56.5,-35.44389],[-56,-35.06033],[-55.5,-34.67302],[-55,-34.282],[-54.5,-33.8873],[-54,-33.48899],[-53.5,-33.0871],[-53,-32.68172],[-52.5,-32.27291],[-52,-31.86077],[-51.5,-31.44538],[-51,-31.02687],[-50.5,-30.60534],[-50,-30.18093],[-49.5,-29.7538],[-49,-29.32409],[-48.5,-28.892],[-48,-28.4577],[-47.5,-28.0214],[-47,-27.58333],[-46.5,-27.14374],[-46,-26.70286],[-45.5,-26.26099],[-45,-25.8184],[-44.5,-25.3754],[-44,-24.93232],[-43.5,-24.48949],[-43,-24.04726],[-42.5,-23.606],[-42,-23.16609],[-41.5,-22.72792],[-41,-22.29189],[-40.5,-21.85839],[-40,-21.42786],[-39.5,-21.00069],[-39,-20.57731],[-38.5,-20.15813],[-38,-19.74356],[-37.5,-19.33402],[-37,-18.9299],[-36.5,-18.53159],[-36,-18.13947],[-35.5,-17.75388],[-35,-17.37518],[-34.5,-17.00369],[-34,-16.63972],[-33.5,-16.28354],[-33,-15.93541],[-32.5,-15.59557],[-32,-15.26423],[-31.5,-14.94158],[-31,-14.62777],[-30.5,-14.32295],[-30,-14.02724],[-29.5,-13.74071],[-29,-13.46344],[-28.5,-13.19548],[-28,-12.93685],[-27.5,-12.68756],[-27,-12.4476],[-26.5,-12.21693],[-26,-11.99552],[-25.5,-11.78331],[-25,-11.58023],[-24.5,-11.38619],[-24,-11.20109],[-23.5,-11.02484],[-23,-10.85732],[-22.5,-10.69842],[-22,-10.54801],[-21.5,-10.40595],[-21,-10.27212],[-20.5,-10.14636],[-20,-10.02855],[-19.5,-9.91854],[-19,-9.81618],[-18.5,-9.72132],[-18,-9.63381],[-17.5,-9.55351],[-17,-9.48028],[-16.5,-9.41395],[-16,-9.3544],[-15.5,-9.30146],[-15,-9.255],[-14.5,-9.21488],[-14,-9.18095],[-13.5,-9.15309],[-13,-9.13114],[-12.5,-9.11498],[-12,-9.10447],[-11.5,-9.0995],[-11,-9.09992],[-10.5,-9.10562],[-10,-9.11647],[-9.5,-9.13235],[-9,-9.15315],[-8.5,-9.17875],[-8,-9.20904],[-7.5,-9.24391],[-7,-9.28326],[-6.5,-9.32697],[-6,-9.37495],[-5.5,-9.42709],[-5,-9.48329],[-4.5,-9.54347],[-4,-9.60753],[-3.5,-9.67537],[-3,-9.74691],[-2.5,-9.82207],[-2,-9.90074],[-1.5,-9.98286],[-1,-10.06834],[-0.5,-10.1571],[0,-10.24906],[0.5,-10.34416],[1,-10.4423],[1.5,-10.54343],[2,-10.64748],[2.5,-10.75436],[3,-10.86403],[3.5,-10.9764],[4,-11.09142],[4.5,-11.20902],[5,-11.32915],[5.5,-11.45174],[6,-11.57673],[6.5,-11.70407],[7,-11.8337],[7.5,-11.96557],[8,-12.09962],[8.5,-12.2358],[9,-12.37406],[9.5,-12.51435],[10,-12.65662],[10.5,-12.80083],[11,-12.94692],[11.5,-13.09486],[12,-13.24459],[12.5,-13.39607],[13,-13.54926],[13.5,-13.70412],[14,-13.86061],[14.5,-14.01868],[15,-14.1783],[15.5,-14.33944],[16,-14.50204],[16.5,-14.66608],[17,-14.83151],[17.5,-14.99831],[17.83984,-15.11245]]}},{"type":"Feature","id":"+02721108:north:0","properties":{"id":"+02721108","year":272,"month":11,"day":8,"time_tdt":"10:02:12","type":"금환일식","type_code":"A","saros":76,"gamma":0.35276,"magnitude":0.93374,"greatest":{"lat":2.23628,"lng":66.83075},"path_width_km":262.4,"duration":"08m10s","delta_t_seconds":7906.8,"catalog_number":5424,"source":"NASA Five Millennium Canon of Solar Eclipses","source_url":"https://eclipse.gsfc.nasa.gov/SEsearch/SEsearchmap.php?Ecl=%2B02721108","boundary":"north","name":"272-11-08 금환일식"},"geometry":{"type":"LineString","coordinates":[[12.75,42.30937],[13,42.22756],[12.5,42.39062],[13.5,42.06223],[14,41.8946],[14.5,41.72463],[15,41.55231],[15.5,41.37758],[16,41.20044],[16.5,41.02084],[17,40.83875],[17.5,40.65414],[18,40.46698],[18.5,40.27722],[19,40.08484],[19.5,39.8898],[20,39.69206],[20.5,39.49159],[21,39.28834],[21.5,39.08227],[22,38.87335],[22.5,38.66153],[23,38.44678],[23.5,38.22904],[24,38.00828],[24.5,37.78445],[25,37.55749],[25.5,37.32738],[26,37.09405],[26.5,36.85746],[27,36.61755],[27.5,36.37428],[28,36.1276],[28.5,35.87744],[29,35.62375],[29.5,35.36648],[30,35.10557],[30.5,34.84096],[31,34.5726],[31.5,34.30041],[32,34.02434],[32.5,33.74432],[33,33.46029],[33.5,33.17218],[34,32.87992],[34.5,32.58346],[35,32.2827],[35.5,31.97759],[36,31.66806],[36.5,31.35403],[37,31.03542],[37.5,30.71216],[38,30.38418],[38.5,30.05139],[39,29.71373],[39.5,29.37112],[40,29.02347],[40.5,28.67071],[41,28.31277],[41.5,27.94956],[42,27.58102],[42.5,27.20706],[43,26.82761],[43.5,26.44261],[44,26.05199],[44.5,25.65567],[45,25.2536],[45.5,24.84573],[46,24.432],[46.5,24.01236],[47,23.58678],[47.5,23.15524],[48,22.71769],[48.5,22.27415],[49,21.82461],[49.5,21.36908],[50,20.9076],[50.5,20.44022],[51,19.96701],[51.5,19.48804],[52,19.00343],[52.5,18.51333],[53,18.01788],[53.5,17.51728],[54,17.01175],[54.5,16.50156],[55,15.98698],[55.5,15.46835],[56,14.94604],[56.5,14.42043],[57,13.89199],[57.5,13.3612],[58,12.82857],[58.5,12.29467],[59,11.76009],[59.5,11.22547],[60,10.69146],[60.5,10.15875],[61,9.62805],[61.5,9.10008],[62,8.57556],[62.5,8.05524],[63,7.53984],[63.5,7.03007],[64,6.52663],[64.5,6.0302],[65,5.54141],[65.5,5.06087],[66,4.58915],[66.5,4.12676],[67,3.67417],[67.5,3.23179],[68,2.80001],[68.5,2.37912],[69,1.9694],[69.5,1.57106],[70,1.18427],[70.5,0.80913],[71,0.44573],[71.5,0.09411],[72,-0.24574],[72.5,-0.57385],[73,-0.89029],[73.5,-1.19515],[74,-1.48854],[74.5,-1.77061],[75,-2.0415],[75.5,-2.30138],[76,-2.55044],[76.5,-2.78886],[77,-3.01683],[77.5,-3.23462],[78,-3.44237],[78.5,-3.64032],[79,-3.82868],[79.5,-4.00766],[80,-4.1775],[80.5,-4.33839],[81,-4.49055],[81.5,-4.6342],[82,-4.76954],[82.5,-4.89678],[83,-5.01611],[83.5,-5.12773],[84,-5.23184],[84.5,-5.32862],[85,-5.41826],[85.5,-5.50093],[86,-5.57681],[86.5,-5.64607],[87,-5.70887],[87.5,-5.76538],[88,-5.81576],[88.5,-5.86014],[89,-5.8987],[89.5,-5.93155],[90,-5.95885],[90.5,-5.98074],[91,-5.99734],[91.5,-6.00878],[92,-6.01518],[92.5,-6.01667],[93,-6.01337],[93.5,-6.00538],[94,-5.99282],[94.5,-5.9758],[95,-5.95441],[95.5,-5.92877],[96,-5.89897],[96.5,-5.86511],[97,-5.82728],[97.5,-5.78557],[98,-5.74007],[98.5,-5.69086],[99,-5.63804],[99.5,-5.58168],[100,-5.52185],[100.5,-5.45865],[101,-5.39214],[101.5,-5.3224],[102,-5.2495],[102.5,-5.17351],[103,-5.0945],[103.5,-5.01254],[104,-4.92768],[104.5,-4.83999],[105,-4.74954],[105.5,-4.65639],[106,-4.56059],[106.5,-4.46221],[107,-4.36129],[107.5,-4.2579],[108,-4.15209],[108.5,-4.0439],[109,-3.9334],[109.5,-3.82064],[110,-3.70565],[110.5,-3.5885],[111,-3.46923],[111.5,-3.34787],[112,-3.22449],[112.5,-3.09913],[113,-2.97182],[113.5,-2.84261],[114,-2.71155],[114.5,-2.57866],[115,-2.444],[115.5,-2.30761],[116,-2.16951],[116.5,-2.02975],[117,-1.88837],[117.5,-1.7454],[118,-1.60088],[118.5,-1.45485],[119,-1.30732],[119.5,-1.15835],[120,-1.00797],[120.5,-0.8562],[121,-0.70307],[121.5,-0.54863],[122,-0.3929],[122.00781,-0.39045]]}},{"type":"Feature","id":"+02721108:center:0","properties":{"id":"+02721108","year":272,"month":11,"day":8,"time_tdt":"10:02:12","type":"금환일식","type_code":"A","saros":76,"gamma":0.35276,"magnitude":0.93374,"greatest":{"lat":2.23628,"lng":66.83075},"path_width_km":262.4,"duration":"08m10s","delta_t_seconds":7906.8,"catalog_number":5424,"source":"NASA Five Millennium Canon of Solar Eclipses","source_url":"https://eclipse.gsfc.nasa.gov/SEsearch/SEsearchmap.php?Ecl=%2B02721108","boundary":"center","name":"272-11-08 금환일식"},"geometry":{"type":"LineString","coordinates":[[11.82238,41.13403],[12,41.01786],[12.5,40.8571],[13,40.69407],[13.5,40.52874],[14,40.36107],[14.5,40.19105],[15,40.01862],[15.5,39.84378],[16,39.66648],[16.5,39.48669],[17,39.30438],[17.5,39.11951],[18,38.93205],[18.5,38.74197],[19,38.54922],[19.5,38.35378],[20,38.15559],[20.5,37.95463],[21,37.75086],[21.5,37.54423],[22,37.3347],[22.5,37.12222],[23,36.90677],[23.5,36.68828],[24,36.46672],[24.5,36.24204],[25,36.0142],[25.5,35.78313],[26,35.5488],[26.5,35.31115],[27,35.07013],[27.5,34.82568],[28,34.57776],[28.5,34.32631],[29,34.07127],[29.5,33.81257],[30,33.55017],[30.5,33.28401],[31,33.01401],[31.5,32.74012],[32,32.46228],[32.5,32.18041],[33,31.89445],[33.5,31.60433],[34,31.30999],[34.5,31.01135],[35,30.70834],[35.5,30.40089],[36,30.08893],[36.5,29.77238],[37,29.45116],[37.5,29.12519],[38,28.79441],[38.5,28.45874],[39,28.11809],[39.5,27.77238],[40,27.42155],[40.5,27.06551],[41,26.70419],[41.5,26.33751],[42,25.96539],[42.5,25.58776],[43,25.20455],[43.5,24.81569],[44,24.42113],[44.5,24.02079],[45,23.61461],[45.5,23.20256],[46,22.78459],[46.5,22.36065],[47,21.93072],[47.5,21.49478],[48,21.05282],[48.5,20.60485],[49,20.15089],[49.5,19.69096],[50,19.22513],[50.5,18.75345],[51,18.27604],[51.5,17.79299],[52,17.30444],[52.5,16.81058],[53,16.31158],[53.5,15.80769],[54,15.29916],[54.5,14.78629],[55,14.26941],[55.5,13.7489],[56,13.22516],[56.5,12.69864],[57,12.16983],[57.5,11.63926],[58,11.1075],[58.5,10.57513],[59,10.04279],[59.5,9.51114],[60,8.98085],[60.5,8.45264],[61,7.9272],[61.5,7.40527],[62,6.88756],[62.5,6.37479],[63,5.86765],[63.5,5.36683],[64,4.87298],[64.5,4.38672],[65,3.90863],[65.5,3.43927],[66,2.97912],[66.5,2.52863],[67,2.08821],[67.5,1.65821],[68,1.23892],[68.5,0.8306],[69,0.43344],[69.5,0.04759],[70,-0.32682],[70.5,-0.68974],[71,-1.04113],[71.5,-1.381],[72,-1.70938],[72.5,-2.02634],[73,-2.33197],[73.5,-2.62639],[74,-2.90973],[74.5,-3.18213],[75,-3.44376],[75.5,-3.69479],[76,-3.93542],[76.5,-4.16583],[77,-4.38623],[77.5,-4.59681],[78,-4.79778],[78.5,-4.98936],[79,-5.17174],[79.5,-5.34514],[80,-5.50976],[80.5,-5.66581],[81,-5.81349],[81.5,-5.953],[82,-6.08454],[82.5,-6.2083],[83,-6.32447],[83.5,-6.43324],[84,-6.53479],[84.5,-6.62929],[85,-6.71692],[85.5,-6.79785],[86,-6.87224],[86.5,-6.94025],[87,-7.00204],[87.5,-7.05776],[88,-7.10755],[88.5,-7.15156],[89,-7.18993],[89.5,-7.2228],[90,-7.25029],[90.5,-7.27253],[91,-7.28966],[91.5,-7.30178],[92,-7.30901],[92.5,-7.31148],[93,-7.30929],[93.5,-7.30254],[94,-7.29135],[94.5,-7.27582],[95,-7.25603],[95.5,-7.2321],[96,-7.20411],[96.5,-7.17216],[97,-7.13633],[97.5,-7.09671],[98,-7.05339],[98.5,-7.00644],[99,-6.95595],[99.5,-6.90199],[100,-6.84465],[100.5,-6.78398],[101,-6.72008],[101.5,-6.653],[102,-6.58281],[102.5,-6.50958],[103,-6.43339],[103.5,-6.35428],[104,-6.27233],[104.5,-6.18759],[105,-6.10013],[105.5,-6.00999],[106,-5.91725],[106.5,-5.82195],[107,-5.72415],[107.5,-5.6239],[108,-5.52125],[108.5,-5.41626],[109,-5.30897],[109.5,-5.19943],[110,-5.0877],[110.5,-4.97381],[111,-4.85782],[111.5,-4.73976],[112,-4.61969],[112.5,-4.49764],[113,-4.37366],[113.5,-4.24779],[114,-4.12007],[114.5,-3.99053],[115,-3.85922],[115.5,-3.72618],[116,-3.59145],[116.5,-3.45505],[117,-3.31703],[117.5,-3.17742],[118,-3.03626],[118.5,-2.89358],[119,-2.74941],[119.5,-2.6038],[120,-2.45676],[120.5,-2.30833],[121,-2.15854],[121.5,-2.00743],[122,-1.85502],[122.2607,-1.77691]]}},{"type":"Feature","id":"+02721108:south:0","properties":{"id":"+02721108","year":272,"month":11,"day":8,"time_tdt":"10:02:12","type":"금환일식","type_code":"A","saros":76,"gamma":0.35276,"magnitude":0.93374,"greatest":{"lat":2.23628,"lng":66.83075},"path_width_km":262.4,"duration":"08m10s","delta_t_seconds":7906.8,"catalog_number":5424,"source":"NASA Five Millennium Canon of Solar Eclipses","source_url":"https://eclipse.gsfc.nasa.gov/SEsearch/SEsearchmap.php?Ecl=%2B02721108","boundary":"south","name":"272-11-08 금환일식"},"geometry":{"type":"LineString","coordinates":[[11.18359,39.75831],[11.5,39.65923],[12,39.50083],[12.5,39.34014],[13,39.17716],[13.5,39.01184],[14,38.84416],[14.5,38.67408],[15,38.50158],[15.5,38.32662],[16,38.14917],[16.5,37.9692],[17,37.78668],[17.5,37.60156],[18,37.41381],[18.5,37.2234],[19,37.03029],[19.5,36.83444],[20,36.63581],[20.5,36.43436],[21,36.23005],[21.5,36.02284],[22,35.81269],[22.5,35.59955],[23,35.38337],[23.5,35.16412],[24,34.94174],[24.5,34.71619],[25,34.48742],[25.5,34.25538],[26,34.02001],[26.5,33.78126],[27,33.53909],[27.5,33.29343],[28,33.04423],[28.5,32.79143],[29,32.53498],[29.5,32.27481],[30,32.01087],[30.5,31.74308],[31,31.47139],[31.5,31.19574],[32,30.91605],[32.5,30.63226],[33,30.34429],[33.5,30.05209],[34,29.75558],[34.5,29.45469],[35,29.14933],[35.5,28.83945],[36,28.52496],[36.5,28.20579],[37,27.88186],[37.5,27.55309],[38,27.21941],[38.5,26.88073],[39,26.53698],[39.5,26.18808],[40,25.83395],[40.5,25.47452],[41,25.1097],[41.5,24.73943],[42,24.36362],[42.5,23.98222],[43,23.59514],[43.5,23.20233],[44,22.80372],[44.5,22.39926],[45,21.98889],[45.5,21.57258],[46,21.15029],[46.5,20.722],[47,20.28767],[47.5,19.84731],[48,19.40093],[48.5,18.94854],[49,18.49019],[49.5,18.02592],[50,17.55582],[50.5,17.07997],[51,16.5985],[51.5,16.11155],[52,15.6193],[52.5,15.12194],[53,14.61972],[53.5,14.11289],[54,13.60177],[54.5,13.08668],[55,12.56802],[55.5,12.04618],[56,11.52164],[56.5,10.99487],[57,10.46641],[57.5,9.93683],[58,9.40671],[58.5,8.8767],[59,8.34745],[59.5,7.81963],[60,7.29394],[60.5,6.77108],[61,6.25176],[61.5,5.73669],[62,5.22657],[62.5,4.72208],[63,4.22389],[63.5,3.73262],[64,3.24889],[64.5,2.77325],[65,2.30623],[65.5,1.84831],[66,1.39992],[66.5,0.96144],[67,0.5332],[67.5,0.11549],[68,-0.29146],[68.5,-0.68746],[69,-1.07236],[69.5,-1.44606],[70,-1.80851],[70.5,-2.15967],[71,-2.49955],[71.5,-2.8282],[72,-3.14567],[72.5,-3.45206],[73,-3.74748],[73.5,-4.03205],[74,-4.30593],[74.5,-4.56927],[75,-4.82224],[75.5,-5.06502],[76,-5.2978],[76.5,-5.52076],[77,-5.73411],[77.5,-5.93805],[78,-6.13277],[78.5,-6.31847],[79,-6.49535],[79.5,-6.66362],[80,-6.82347],[80.5,-6.9751],[81,-7.1187],[81.5,-7.25446],[82,-7.38257],[82.5,-7.50321],[83,-7.61655],[83.5,-7.72278],[84,-7.82206],[84.5,-7.91457],[85,-8.00046],[85.5,-8.0799],[86,-8.15303],[86.5,-8.22002],[87,-8.281],[87.5,-8.33612],[88,-8.38551],[88.5,-8.42933],[89,-8.46768],[89.5,-8.50071],[90,-8.52853],[90.5,-8.55127],[91,-8.56904],[91.5,-8.58196],[92,-8.59014],[92.5,-8.59369],[93,-8.5927],[93.5,-8.58729],[94,-8.57755],[94.5,-8.56358],[95,-8.54547],[95.5,-8.52332],[96,-8.4972],[96.5,-8.46722],[97,-8.43345],[97.5,-8.39597],[98,-8.35487],[98.5,-8.31023],[99,-8.26211],[99.5,-8.2106],[100,-8.15576],[100.5,-8.09767],[101,-8.03639],[101.5,-7.972],[102,-7.90455],[102.5,-7.83412],[103,-7.76075],[103.5,-7.68453],[104,-7.6055],[104.5,-7.52373],[105,-7.43926],[105.5,-7.35216],[106,-7.26248],[106.5,-7.17028],[107,-7.0756],[107.5,-6.9785],[108,-6.87903],[108.5,-6.77724],[109,-6.67317],[109.5,-6.56687],[110,-6.45839],[110.5,-6.34777],[111,-6.23506],[111.5,-6.12031],[112,-6.00354],[112.5,-5.88481],[113,-5.76416],[113.5,-5.64162],[114,-5.51724],[114.5,-5.39105],[115,-5.2631],[115.5,-5.13341],[116,-5.00203],[116.5,-4.86899],[117,-4.73433],[117.5,-4.59807],[118,-4.46027],[118.5,-4.32094],[119,-4.18012],[119.5,-4.03785],[120,-3.89415],[120.5,-3.74906],[121,-3.60261],[121.5,-3.45482],[122,-3.30572],[122.5,-3.15536]]}}],"attribution":"Eclipse Predictions by Fred Espenak and Jean Meeus (NASA's GSFC)","generated_at":"2026-09-23T01:44:47.916Z"}
