{"type":"FeatureCollection","year":287,"events":[{"id":"+02870131","year":287,"month":1,"day":31,"time_tdt":"08:03:05","type":"금환일식","type_code":"A","saros":74,"gamma":0.31633,"magnitude":0.98857,"greatest":{"lat":0.66665,"lng":92.55054},"path_width_km":42.4,"duration":"01m18s","delta_t_seconds":7770.2,"catalog_number":5455,"source":"NASA Five Millennium Canon of Solar Eclipses","source_url":"https://eclipse.gsfc.nasa.gov/SEsearch/SEsearchmap.php?Ecl=%2B02870131"},{"id":"+02870728","year":287,"month":7,"day":28,"time_tdt":"00:08:38","type":"금환일식","type_code":"A","saros":79,"gamma":-0.22278,"magnitude":0.97537,"greatest":{"lat":6.85683,"lng":-150.67523},"path_width_km":90.2,"duration":"03m04s","delta_t_seconds":7765.5,"catalog_number":5456,"source":"NASA Five Millennium Canon of Solar Eclipses","source_url":"https://eclipse.gsfc.nasa.gov/SEsearch/SEsearchmap.php?Ecl=%2B02870728"}],"features":[{"type":"Feature","id":"+02870131:north:0","properties":{"id":"+02870131","year":287,"month":1,"day":31,"time_tdt":"08:03:05","type":"금환일식","type_code":"A","saros":74,"gamma":0.31633,"magnitude":0.98857,"greatest":{"lat":0.66665,"lng":92.55054},"path_width_km":42.4,"duration":"01m18s","delta_t_seconds":7770.2,"catalog_number":5455,"source":"NASA Five Millennium Canon of Solar Eclipses","source_url":"https://eclipse.gsfc.nasa.gov/SEsearch/SEsearchmap.php?Ecl=%2B02870131","boundary":"north","name":"287-01-31 금환일식"},"geometry":{"type":"LineString","coordinates":[[34.52344,8.05266],[35,7.89876],[35.5,7.73751],[36,7.57649],[36.5,7.41572],[37,7.25524],[37.5,7.09504],[38,6.93516],[38.5,6.77561],[39,6.61642],[39.5,6.45761],[40,6.29919],[40.5,6.1412],[41,5.98366],[41.5,5.82659],[42,5.67001],[42.5,5.51395],[43,5.35843],[43.5,5.20349],[44,5.04915],[44.5,4.89544],[45,4.74238],[45.5,4.59],[46,4.43835],[46.5,4.28743],[47,4.1373],[47.5,3.98797],[48,3.83949],[48.5,3.69188],[49,3.54518],[49.5,3.39943],[50,3.25467],[50.5,3.11092],[51,2.96823],[51.5,2.82664],[52,2.68618],[52.5,2.54691],[53,2.40885],[53.5,2.27206],[54,2.13658],[54.5,2.00244],[55,1.86971],[55.5,1.73842],[56,1.60863],[56.5,1.48038],[57,1.35372],[57.5,1.22871],[58,1.1054],[58.5,0.98384],[59,0.86409],[59.5,0.7462],[60,0.63024],[60.5,0.51626],[61,0.40432],[61.5,0.29448],[62,0.18681],[62.5,0.08137],[63,-0.02177],[63.5,-0.12255],[64,-0.22089],[64.5,-0.31674],[65,-0.41001],[65.5,-0.50063],[66,-0.58854],[66.5,-0.67365],[67,-0.75589],[67.5,-0.83518],[68,-0.91144],[68.5,-0.9846],[69,-1.05456],[69.5,-1.12125],[70,-1.18458],[70.5,-1.24446],[71,-1.30082],[71.5,-1.35355],[72,-1.40258],[72.5,-1.44781],[73,-1.48915],[73.5,-1.5265],[74,-1.55979],[74.5,-1.58891],[75,-1.61377],[75.5,-1.63427],[76,-1.65032],[76.5,-1.66183],[77,-1.66871],[77.5,-1.67084],[78,-1.66816],[78.5,-1.66055],[79,-1.64793],[79.5,-1.6302],[80,-1.60728],[80.5,-1.57907],[81,-1.5455],[81.5,-1.50647],[82,-1.4619],[82.5,-1.41171],[83,-1.35583],[83.5,-1.29419],[84,-1.22671],[84.5,-1.15333],[85,-1.07399],[85.5,-0.98864],[86,-0.89722],[86.5,-0.79971],[87,-0.69604],[87.5,-0.58621],[88,-0.47018],[88.5,-0.34795],[89,-0.2195],[89.5,-0.08484],[90,0.05603],[90.5,0.20307],[91,0.35627],[91.5,0.51558],[92,0.68095],[92.5,0.85233],[93,1.02964],[93.5,1.21281],[94,1.40174],[94.5,1.59634],[95,1.7965],[95.5,2.00209],[96,2.213],[96.5,2.42907],[97,2.65016],[97.5,2.87613],[98,3.1068],[98.5,3.342],[99,3.58157],[99.5,3.82532],[100,4.07306],[100.5,4.3246],[101,4.57975],[101.5,4.83831],[102,5.10008],[102.5,5.36486],[103,5.63244],[103.5,5.90264],[104,6.17524],[104.5,6.45005],[105,6.72688],[105.5,7.00552],[106,7.28579],[106.5,7.5675],[107,7.85047],[107.5,8.13452],[108,8.41948],[108.5,8.70518],[109,8.99145],[109.5,9.27815],[110,9.56512],[110.5,9.85221],[111,10.13929],[111.5,10.42623],[112,10.71289],[112.5,10.99916],[113,11.28493],[113.5,11.57007],[114,11.85451],[114.5,12.13812],[115,12.42083],[115.5,12.70255],[116,12.9832],[116.5,13.26269],[117,13.54097],[117.5,13.81796],[118,14.09361],[118.5,14.36785],[119,14.64064],[119.5,14.91193],[120,15.18166],[120.5,15.4498],[121,15.71631],[121.5,15.98116],[122,16.24432],[122.5,16.50575],[123,16.76543],[123.5,17.02334],[124,17.27946],[124.5,17.53377],[125,17.78624],[125.5,18.03688],[126,18.28566],[126.5,18.53258],[127,18.77763],[127.5,19.02079],[128,19.26207],[128.5,19.50146],[129,19.73896],[129.5,19.97457],[130,20.20828],[130.5,20.4401],[131,20.67002],[131.5,20.89805],[132,21.1242],[132.5,21.34847],[133,21.57085],[133.5,21.79137],[134,22.01002],[134.5,22.22681],[135,22.44174],[135.5,22.65483],[136,22.86608],[136.5,23.07551],[137,23.28311],[137.5,23.4889],[138,23.69289],[138.5,23.89509],[139,24.09551],[139.5,24.29415],[140,24.49103],[140.5,24.68616],[141,24.87955],[141.5,25.07121],[142,25.26114],[142.5,25.44937],[143,25.6359],[143.5,25.82075],[144,26.00391],[144.5,26.18542],[145,26.36526],[145.5,26.54347],[146,26.72004],[146.5,26.895],[147,27.06834],[147.5,27.24009],[148,27.41024],[148.5,27.57883],[149,27.74584],[149.5,27.9113],[150,28.07522]]}},{"type":"Feature","id":"+02870131:center:0","properties":{"id":"+02870131","year":287,"month":1,"day":31,"time_tdt":"08:03:05","type":"금환일식","type_code":"A","saros":74,"gamma":0.31633,"magnitude":0.98857,"greatest":{"lat":0.66665,"lng":92.55054},"path_width_km":42.4,"duration":"01m18s","delta_t_seconds":7770.2,"catalog_number":5455,"source":"NASA Five Millennium Canon of Solar Eclipses","source_url":"https://eclipse.gsfc.nasa.gov/SEsearch/SEsearchmap.php?Ecl=%2B02870131","boundary":"center","name":"287-01-31 금환일식"},"geometry":{"type":"LineString","coordinates":[[34.42991,7.62811],[34.5,7.60622],[35,7.44744],[35.5,7.28888],[36,7.13058],[36.5,6.97254],[37,6.81478],[37.5,6.65733],[38,6.50021],[38.5,6.34342],[39,6.18701],[39.5,6.03098],[40,5.87537],[40.5,5.72018],[41,5.56546],[41.5,5.41121],[42,5.25746],[42.5,5.10425],[43,4.95159],[43.5,4.79951],[44,4.64803],[44.5,4.4972],[45,4.34702],[45.5,4.19754],[46,4.04878],[46.5,3.90077],[47,3.75355],[47.5,3.60714],[48,3.46158],[48.5,3.3169],[49,3.17313],[49.5,3.03032],[50,2.88849],[50.5,2.74769],[51,2.60794],[51.5,2.4693],[52,2.33179],[52.5,2.19547],[53,2.06036],[53.5,1.92652],[54,1.79399],[54.5,1.6628],[55,1.53302],[55.5,1.40467],[56,1.27782],[56.5,1.15251],[57,1.02878],[57.5,0.9067],[58,0.78631],[58.5,0.66766],[59,0.55082],[59.5,0.43583],[60,0.32276],[60.5,0.21165],[61,0.10258],[61.5,-0.0044],[62,-0.10923],[62.5,-0.21184],[63,-0.31217],[63.5,-0.41016],[64,-0.50573],[64.5,-0.59881],[65,-0.68934],[65.5,-0.77725],[66,-0.86246],[66.5,-0.9449],[67,-1.02449],[67.5,-1.10116],[68,-1.17482],[68.5,-1.24541],[69,-1.31284],[69.5,-1.37702],[70,-1.43788],[70.5,-1.49533],[71,-1.54928],[71.5,-1.59965],[72,-1.64635],[72.5,-1.68929],[73,-1.72839],[73.5,-1.76355],[74,-1.79468],[74.5,-1.82169],[75,-1.84449],[75.5,-1.86299],[76,-1.87708],[76.5,-1.88669],[77,-1.89172],[77.5,-1.89207],[78,-1.88766],[78.5,-1.87838],[79,-1.86416],[79.5,-1.8449],[80,-1.82051],[80.5,-1.7909],[81,-1.756],[81.5,-1.71571],[82,-1.66996],[82.5,-1.61867],[83,-1.56176],[83.5,-1.49917],[84,-1.43082],[84.5,-1.35666],[85,-1.27662],[85.5,-1.19066],[86,-1.09873],[86.5,-1.00077],[87,-0.89677],[87.5,-0.78669],[88,-0.67051],[88.5,-0.54822],[89,-0.4198],[89.5,-0.28528],[90,-0.14464],[90.5,0.00207],[91,0.15485],[91.5,0.31363],[92,0.47838],[92.5,0.64904],[93,0.82553],[93.5,1.00778],[94,1.1957],[94.5,1.38919],[95,1.58814],[95.5,1.79243],[96,2.00194],[96.5,2.21653],[97,2.43606],[97.5,2.66036],[98,2.88929],[98.5,3.12268],[99,3.36034],[99.5,3.60211],[100,3.84779],[100.5,4.09721],[101,4.35016],[101.5,4.60646],[102,4.86591],[102.5,5.1283],[103,5.39346],[103.5,5.66116],[104,5.93122],[104.5,6.20345],[105,6.47764],[105.5,6.75361],[106,7.03118],[106.5,7.31014],[107,7.59034],[107.5,7.87159],[108,8.15372],[108.5,8.43657],[109,8.71997],[109.5,9.00378],[110,9.28784],[110.5,9.57202],[111,9.85617],[111.5,10.14016],[112,10.42388],[112.5,10.70719],[113,10.99],[113.5,11.27219],[114,11.55366],[114.5,11.83432],[115,12.11407],[115.5,12.39283],[116,12.67052],[116.5,12.94707],[117,13.22241],[117.5,13.49647],[118,13.76919],[118.5,14.04051],[119,14.31039],[119.5,14.57878],[120,14.84562],[120.5,15.11089],[121,15.37454],[121.5,15.63653],[122,15.89685],[122.5,16.15545],[123,16.41232],[123.5,16.66743],[124,16.92075],[124.5,17.17229],[125,17.422],[125.5,17.66989],[126,17.91594],[126.5,18.16014],[127,18.40249],[127.5,18.64296],[128,18.88157],[128.5,19.1183],[129,19.35316],[129.5,19.58613],[130,19.81723],[130.5,20.04644],[131,20.27378],[131.5,20.49925],[132,20.72284],[132.5,20.94457],[133,21.16443],[133.5,21.38243],[134,21.59858],[134.5,21.81289],[135,22.02536],[135.5,22.236],[136,22.44481],[136.5,22.65181],[137,22.857],[137.5,23.0604],[138,23.26201],[138.5,23.46184],[139,23.6599],[139.5,23.85621],[140,24.05076],[140.5,24.24358],[141,24.43467],[141.5,24.62404],[142,24.8117],[142.5,24.99768],[143,25.18196],[143.5,25.36457],[144,25.54552],[144.5,25.72482],[145,25.90247],[145.5,26.0785],[146,26.2529],[146.5,26.4257],[147,26.59691],[147.5,26.76652],[148,26.93456],[148.5,27.10104],[149,27.26596],[149.5,27.42934],[150,27.59119],[150.20739,27.67372]]}},{"type":"Feature","id":"+02870131:south:0","properties":{"id":"+02870131","year":287,"month":1,"day":31,"time_tdt":"08:03:05","type":"금환일식","type_code":"A","saros":74,"gamma":0.31633,"magnitude":0.98857,"greatest":{"lat":0.66665,"lng":92.55054},"path_width_km":42.4,"duration":"01m18s","delta_t_seconds":7770.2,"catalog_number":5455,"source":"NASA Five Millennium Canon of Solar Eclipses","source_url":"https://eclipse.gsfc.nasa.gov/SEsearch/SEsearchmap.php?Ecl=%2B02870131","boundary":"south","name":"287-01-31 금환일식"},"geometry":{"type":"LineString","coordinates":[[34.32812,7.20769],[34.5,7.15398],[35,6.99787],[35.5,6.84201],[36,6.68641],[36.5,6.53109],[37,6.37606],[37.5,6.22134],[38,6.06697],[38.5,5.91295],[39,5.7593],[39.5,5.60605],[40,5.45323],[40.5,5.30084],[41,5.14892],[41.5,4.99749],[42,4.84657],[42.5,4.69619],[43,4.54637],[43.5,4.39714],[44,4.24853],[44.5,4.10056],[45,3.95326],[45.5,3.80666],[46,3.66079],[46.5,3.51568],[47,3.37135],[47.5,3.22785],[48,3.0852],[48.5,2.94343],[49,2.80259],[49.5,2.6627],[50,2.5238],[50.5,2.38592],[51,2.24911],[51.5,2.1134],[52,1.97884],[52.5,1.84545],[53,1.71328],[53.5,1.58238],[54,1.45278],[54.5,1.32453],[55,1.19768],[55.5,1.07227],[56,0.94834],[56.5,0.82595],[57,0.70515],[57.5,0.58598],[58,0.46849],[58.5,0.35275],[59,0.2388],[59.5,0.12669],[60,0.01649],[60.5,-0.09175],[61,-0.19797],[61.5,-0.30212],[62,-0.40412],[62.5,-0.50392],[63,-0.60145],[63.5,-0.69665],[64,-0.78946],[64.5,-0.8798],[65,-0.96761],[65.5,-1.05281],[66,-1.13534],[66.5,-1.21512],[67,-1.29208],[67.5,-1.36614],[68,-1.43722],[68.5,-1.50526],[69,-1.57016],[69.5,-1.63185],[70,-1.69025],[70.5,-1.74527],[71,-1.79683],[71.5,-1.84485],[72,-1.88924],[72.5,-1.92991],[73,-1.96677],[73.5,-1.99974],[74,-2.02873],[74.5,-2.05364],[75,-2.0744],[75.5,-2.09089],[76,-2.10305],[76.5,-2.11076],[77,-2.11395],[77.5,-2.11252],[78,-2.10639],[78.5,-2.09545],[79,-2.07963],[79.5,-2.05884],[80,-2.03298],[80.5,-2.00198],[81,-1.96574],[81.5,-1.9242],[82,-1.87727],[82.5,-1.82487],[83,-1.76693],[83.5,-1.70339],[84,-1.63418],[84.5,-1.55923],[85,-1.47849],[85.5,-1.39192],[86,-1.29945],[86.5,-1.20106],[87,-1.09671],[87.5,-0.98637],[88,-0.87003],[88.5,-0.74766],[89,-0.61927],[89.5,-0.48486],[90,-0.34445],[90.5,-0.19804],[91,-0.04568],[91.5,0.1126],[92,0.27674],[92.5,0.4467],[93,0.62239],[93.5,0.80374],[94,0.99067],[94.5,1.18307],[95,1.38084],[95.5,1.58386],[96,1.79201],[96.5,2.00514],[97,2.22312],[97.5,2.4458],[98,2.67301],[98.5,2.9046],[99,3.14039],[99.5,3.38021],[100,3.62387],[100.5,3.87118],[101,4.12197],[101.5,4.37604],[102,4.6332],[102.5,4.89324],[103,5.15599],[103.5,5.42123],[104,5.68878],[104.5,5.95845],[105,6.23004],[105.5,6.50337],[106,6.77826],[106.5,7.05451],[107,7.33196],[107.5,7.61044],[108,7.88977],[108.5,8.16979],[109,8.45035],[109.5,8.73129],[110,9.01247],[110.5,9.29375],[111,9.57499],[111.5,9.85607],[112,10.13686],[112.5,10.41724],[113,10.69711],[113.5,10.97636],[114,11.25489],[114.5,11.5326],[115,11.80941],[115.5,12.08523],[116,12.35999],[116.5,12.6336],[117,12.90601],[117.5,13.17715],[118,13.44696],[118.5,13.71538],[119,13.98236],[119.5,14.24786],[120,14.51183],[120.5,14.77422],[121,15.03502],[121.5,15.29417],[122,15.55165],[122.5,15.80743],[123,16.06149],[123.5,16.3138],[124,16.56435],[124.5,16.81311],[125,17.06007],[125.5,17.30522],[126,17.54854],[126.5,17.79003],[127,18.02967],[127.5,18.26746],[128,18.5034],[128.5,18.73747],[129,18.96968],[129.5,19.20003],[130,19.42851],[130.5,19.65513],[131,19.87989],[131.5,20.10278],[132,20.32382],[132.5,20.543],[133,20.76034],[133.5,20.97583],[134,21.18948],[134.5,21.4013],[135,21.6113],[135.5,21.81948],[136,22.02586],[136.5,22.23043],[137,22.43321],[137.5,22.63421],[138,22.83343],[138.5,23.03089],[139,23.2266],[139.5,23.42056],[140,23.61278],[140.5,23.80328],[141,23.99207],[141.5,24.17915],[142,24.36454],[142.5,24.54824],[143,24.73028],[143.5,24.91065],[144,25.08938],[144.5,25.26646],[145,25.44192],[145.5,25.61576],[146,25.78799],[146.5,25.95863],[147,26.12768],[147.5,26.29516],[148,26.46108],[148.5,26.62544],[149,26.78826],[149.5,26.94955],[150,27.10933],[150.36719,27.2257]]}},{"type":"Feature","id":"+02870728:north:0","properties":{"id":"+02870728","year":287,"month":7,"day":28,"time_tdt":"00:08:38","type":"금환일식","type_code":"A","saros":79,"gamma":-0.22278,"magnitude":0.97537,"greatest":{"lat":6.85683,"lng":-150.67523},"path_width_km":90.2,"duration":"03m04s","delta_t_seconds":7765.5,"catalog_number":5456,"source":"NASA Five Millennium Canon of Solar Eclipses","source_url":"https://eclipse.gsfc.nasa.gov/SEsearch/SEsearchmap.php?Ecl=%2B02870728","boundary":"north","name":"287-07-28 금환일식"},"geometry":{"type":"LineString","coordinates":[[150.42773,-4.16076],[150.5,-4.13524],[151,-3.95857],[151.5,-3.78177],[152,-3.60485],[152.5,-3.42783],[153,-3.25072],[153.5,-3.07355],[154,-2.89633],[154.5,-2.71908],[155,-2.54181],[155.5,-2.36455],[156,-2.18731],[156.5,-2.01012],[157,-1.83299],[157.5,-1.65596],[158,-1.47903],[158.5,-1.30223],[159,-1.1256],[159.5,-0.94914],[160,-0.77288],[160.5,-0.59686],[161,-0.42109],[161.5,-0.24561],[162,-0.07044],[162.5,0.10439],[163,0.27886],[163.5,0.45292],[164,0.62655],[164.5,0.79972],[165,0.97239],[165.5,1.14453],[166,1.31611],[166.5,1.48709],[167,1.65743],[167.5,1.8271],[168,1.99605],[168.5,2.16425],[169,2.33166],[169.5,2.49823],[170,2.66392],[170.5,2.82869],[171,2.99249],[171.5,3.15528],[172,3.317],[172.5,3.47762],[173,3.63707],[173.5,3.79531],[174,3.95228],[174.5,4.10793],[175,4.26221],[175.5,4.41506],[176,4.56642],[176.5,4.71624],[177,4.86444],[177.5,5.01097],[178,5.15577],[178.5,5.29877],[179,5.43991],[179.5,5.57912],[180,5.71632]]}},{"type":"Feature","id":"+02870728:north:1","properties":{"id":"+02870728","year":287,"month":7,"day":28,"time_tdt":"00:08:38","type":"금환일식","type_code":"A","saros":79,"gamma":-0.22278,"magnitude":0.97537,"greatest":{"lat":6.85683,"lng":-150.67523},"path_width_km":90.2,"duration":"03m04s","delta_t_seconds":7765.5,"catalog_number":5456,"source":"NASA Five Millennium Canon of Solar Eclipses","source_url":"https://eclipse.gsfc.nasa.gov/SEsearch/SEsearchmap.php?Ecl=%2B02870728","boundary":"north","name":"287-07-28 금환일식"},"geometry":{"type":"LineString","coordinates":[[-179.5,5.85145],[-179,5.98444],[-178.5,6.11522],[-178,6.2437],[-177.5,6.36982],[-177,6.49349],[-176.5,6.61464],[-176,6.73318],[-175.5,6.84904],[-175,6.96214],[-174.5,7.07238],[-174,7.17968],[-173.5,7.28396],[-173,7.38513],[-172.5,7.48309],[-172,7.57776],[-171.5,7.66905],[-171,7.75687],[-170.5,7.84111],[-170,7.92169],[-169.5,7.99851],[-169,8.07148],[-168.5,8.14049],[-168,8.20546],[-167.5,8.26628],[-167,8.32285],[-166.5,8.37509],[-166,8.42288],[-165.5,8.46614],[-165,8.50476],[-164.5,8.53865],[-164,8.56771],[-163.5,8.59185],[-163,8.61096],[-162.5,8.62496],[-162,8.63376],[-161.5,8.63726],[-161,8.63537],[-160.5,8.62801],[-160,8.61509],[-159.5,8.59654],[-159,8.57228],[-158.5,8.54222],[-158,8.50631],[-157.5,8.46446],[-157,8.41663],[-156.5,8.36276],[-156,8.30278],[-155.5,8.23665],[-155,8.16434],[-154.5,8.08581],[-154,8.00102],[-153.5,7.90996],[-153,7.81262],[-152.5,7.70898],[-152,7.59904],[-151.5,7.48283],[-151,7.36034],[-150.5,7.23162],[-150,7.09669],[-149.5,6.95559],[-149,6.80839],[-148.5,6.65514],[-148,6.49592],[-147.5,6.3308],[-147,6.15987],[-146.5,5.98324],[-146,5.801],[-145.5,5.61328],[-145,5.42019],[-144.5,5.22188],[-144,5.01848],[-143.5,4.81013],[-143,4.597],[-142.5,4.37923],[-142,4.15699],[-141.5,3.93046],[-141,3.6998],[-140.5,3.46521],[-140,3.22684],[-139.5,2.9849],[-139,2.73956],[-138.5,2.49102],[-138,2.23945],[-137.5,1.98505],[-137,1.72801],[-136.5,1.4685],[-136,1.20672],[-135.5,0.94285],[-135,0.67705],[-134.5,0.40952],[-134,0.14042],[-133.5,-0.13008],[-133,-0.40181],[-132.5,-0.67462],[-132,-0.94835],[-131.5,-1.22284],[-131,-1.49796],[-130.5,-1.77356],[-130,-2.0495],[-129.5,-2.32566],[-129,-2.60192],[-128.5,-2.87815],[-128,-3.15424],[-127.5,-3.43008],[-127,-3.70556],[-126.5,-3.9806],[-126,-4.25509],[-125.5,-4.52895],[-125,-4.8021],[-124.5,-5.07445],[-124,-5.34593],[-123.5,-5.61647],[-123,-5.88601],[-122.5,-6.15448],[-122,-6.42183],[-121.5,-6.688],[-121,-6.95294],[-120.5,-7.21661],[-120,-7.47897],[-119.5,-7.73997],[-119,-7.99957],[-118.5,-8.25774],[-118,-8.51446],[-117.5,-8.76968],[-117,-9.0234],[-116.5,-9.27557],[-116,-9.52618],[-115.5,-9.77521],[-115,-10.02265],[-114.5,-10.26847],[-114,-10.51266],[-113.5,-10.75522],[-113,-10.99612],[-112.5,-11.23536],[-112,-11.47293],[-111.5,-11.70883],[-111,-11.94305],[-110.5,-12.17559],[-110,-12.40643],[-109.5,-12.63559],[-109,-12.86305],[-108.5,-13.08883],[-108,-13.31291],[-107.5,-13.5353],[-107,-13.75601],[-106.5,-13.97503],[-106,-14.19236],[-105.5,-14.40802],[-105,-14.622],[-104.5,-14.83431],[-104,-15.04496],[-103.5,-15.25395],[-103,-15.46128],[-102.5,-15.66697],[-102,-15.87102],[-101.5,-16.07343],[-101,-16.27422],[-100.5,-16.47339],[-100,-16.67094],[-99.5,-16.8669],[-99,-17.06125],[-98.5,-17.25403],[-98,-17.44522],[-97.5,-17.63484],[-97,-17.8229],[-96.5,-18.0094],[-96,-18.19437],[-95.5,-18.37779],[-95,-18.55969],[-94.5,-18.74007],[-94,-18.91894],[-93.79688,-18.99118]]}},{"type":"Feature","id":"+02870728:center:0","properties":{"id":"+02870728","year":287,"month":7,"day":28,"time_tdt":"00:08:38","type":"금환일식","type_code":"A","saros":79,"gamma":-0.22278,"magnitude":0.97537,"greatest":{"lat":6.85683,"lng":-150.67523},"path_width_km":90.2,"duration":"03m04s","delta_t_seconds":7765.5,"catalog_number":5456,"source":"NASA Five Millennium Canon of Solar Eclipses","source_url":"https://eclipse.gsfc.nasa.gov/SEsearch/SEsearchmap.php?Ecl=%2B02870728","boundary":"center","name":"287-07-28 금환일식"},"geometry":{"type":"LineString","coordinates":[[150.6368,-4.79314],[151,-4.66292],[151.5,-4.48354],[152,-4.30402],[152.5,-4.12438],[153,-3.94463],[153.5,-3.76481],[154,-3.58491],[154.5,-3.40496],[155,-3.22499],[155.5,-3.045],[156,-2.86501],[156.5,-2.68505],[157,-2.50515],[157.5,-2.32531],[158,-2.14556],[158.5,-1.96593],[159,-1.78643],[159.5,-1.6071],[160,-1.42795],[160.5,-1.24902],[161,-1.07032],[161.5,-0.8919],[162,-0.71376],[162.5,-0.53595],[163,-0.35849],[163.5,-0.18142],[164,-0.00476],[164.5,0.17146],[165,0.34719],[165.5,0.52241],[166,0.69708],[166.5,0.87116],[167,1.04463],[167.5,1.21743],[168,1.38953],[168.5,1.5609],[169,1.73148],[169.5,1.90124],[170,2.07013],[170.5,2.23811],[171,2.40514],[171.5,2.57115],[172,2.73612],[172.5,2.89998],[173,3.06269],[173.5,3.2242],[174,3.38445],[174.5,3.54338],[175,3.70094],[175.5,3.85708],[176,4.01173],[176.5,4.16483],[177,4.31633],[177.5,4.46616],[178,4.61425],[178.5,4.76054],[179,4.90496],[179.5,5.04745],[180,5.18793]]}},{"type":"Feature","id":"+02870728:center:1","properties":{"id":"+02870728","year":287,"month":7,"day":28,"time_tdt":"00:08:38","type":"금환일식","type_code":"A","saros":79,"gamma":-0.22278,"magnitude":0.97537,"greatest":{"lat":6.85683,"lng":-150.67523},"path_width_km":90.2,"duration":"03m04s","delta_t_seconds":7765.5,"catalog_number":5456,"source":"NASA Five Millennium Canon of Solar Eclipses","source_url":"https://eclipse.gsfc.nasa.gov/SEsearch/SEsearchmap.php?Ecl=%2B02870728","boundary":"center","name":"287-07-28 금환일식"},"geometry":{"type":"LineString","coordinates":[[-179.5,5.32632],[-179,5.46257],[-178.5,5.59659],[-178,5.72831],[-177.5,5.85764],[-177,5.98452],[-176.5,6.10885],[-176,6.23057],[-175.5,6.34957],[-175,6.46579],[-174.5,6.57913],[-174,6.6895],[-173.5,6.79682],[-173,6.901],[-172.5,7.00194],[-172,7.09956],[-171.5,7.19375],[-171,7.28443],[-170.5,7.37149],[-170,7.45485],[-169.5,7.5344],[-169,7.61004],[-168.5,7.68168],[-168,7.74922],[-167.5,7.81255],[-167,7.87158],[-166.5,7.9262],[-166,7.97632],[-165.5,8.02183],[-165,8.06263],[-164.5,8.09863],[-164,8.12972],[-163.5,8.15581],[-163,8.17679],[-162.5,8.19257],[-162,8.20306],[-161.5,8.20816],[-161,8.20778],[-160.5,8.20184],[-160,8.19024],[-159.5,8.17291],[-159,8.14975],[-158.5,8.1207],[-158,8.08569],[-157.5,8.04464],[-157,7.99749],[-156.5,7.94418],[-156,7.88465],[-155.5,7.81887],[-155,7.74678],[-154.5,7.66834],[-154,7.58354],[-153.5,7.49235],[-153,7.39475],[-152.5,7.29074],[-152,7.18032],[-151.5,7.06349],[-151,6.94028],[-150.5,6.81072],[-150,6.67483],[-149.5,6.53267],[-149,6.38429],[-148.5,6.22975],[-148,6.06912],[-147.5,5.9025],[-147,5.72997],[-146.5,5.55163],[-146,5.3676],[-145.5,5.17799],[-145,4.98293],[-144.5,4.78255],[-144,4.57701],[-143.5,4.36645],[-143,4.15102],[-142.5,3.93089],[-142,3.70623],[-141.5,3.47722],[-141,3.24403],[-140.5,3.00684],[-140,2.76584],[-139.5,2.52122],[-139,2.27317],[-138.5,2.02187],[-138,1.76753],[-137.5,1.51032],[-137,1.25044],[-136.5,0.98808],[-136,0.72343],[-135.5,0.45667],[-135,0.18798],[-134.5,-0.08245],[-134,-0.35446],[-133.5,-0.62787],[-133,-0.90252],[-132.5,-1.17824],[-132,-1.45487],[-131.5,-1.73227],[-131,-2.01028],[-130.5,-2.28877],[-130,-2.5676],[-129.5,-2.84663],[-129,-3.12575],[-128.5,-3.40482],[-128,-3.68375],[-127.5,-3.96241],[-127,-4.2407],[-126.5,-4.51853],[-126,-4.79579],[-125.5,-5.07241],[-125,-5.3483],[-124.5,-5.62337],[-124,-5.89756],[-123.5,-6.1708],[-123,-6.44301],[-122.5,-6.71414],[-122,-6.98413],[-121.5,-7.25293],[-121,-7.52048],[-120.5,-7.78674],[-120,-8.05167],[-119.5,-8.31523],[-119,-8.57737],[-118.5,-8.83807],[-118,-9.09729],[-117.5,-9.35501],[-117,-9.6112],[-116.5,-9.86583],[-116,-10.11889],[-115.5,-10.37035],[-115,-10.6202],[-114.5,-10.86842],[-114,-11.115],[-113.5,-11.35992],[-113,-11.60318],[-112.5,-11.84476],[-112,-12.08466],[-111.5,-12.32287],[-111,-12.55939],[-110.5,-12.79421],[-110,-13.02733],[-109.5,-13.25874],[-109,-13.48846],[-108.5,-13.71646],[-108,-13.94277],[-107.5,-14.16737],[-107,-14.39027],[-106.5,-14.61147],[-106,-14.83097],[-105.5,-15.04879],[-105,-15.26492],[-104.5,-15.47937],[-104,-15.69214],[-103.5,-15.90324],[-103,-16.11268],[-102.5,-16.32046],[-102,-16.52658],[-101.5,-16.73107],[-101,-16.93391],[-100.5,-17.13513],[-100,-17.33472],[-99.5,-17.5327],[-99,-17.72907],[-98.5,-17.92385],[-98,-18.11704],[-97.5,-18.30864],[-97,-18.49868],[-96.5,-18.68715],[-96,-18.87406],[-95.5,-19.05944],[-95,-19.24327],[-94.5,-19.42558],[-94.03079,-19.60042]]}},{"type":"Feature","id":"+02870728:south:0","properties":{"id":"+02870728","year":287,"month":7,"day":28,"time_tdt":"00:08:38","type":"금환일식","type_code":"A","saros":79,"gamma":-0.22278,"magnitude":0.97537,"greatest":{"lat":6.85683,"lng":-150.67523},"path_width_km":90.2,"duration":"03m04s","delta_t_seconds":7765.5,"catalog_number":5456,"source":"NASA Five Millennium Canon of Solar Eclipses","source_url":"https://eclipse.gsfc.nasa.gov/SEsearch/SEsearchmap.php?Ecl=%2B02870728","boundary":"south","name":"287-07-28 금환일식"},"geometry":{"type":"LineString","coordinates":[[150.84375,-5.42677],[151,-5.36994],[151.5,-5.18798],[152,-5.00586],[152.5,-4.8236],[153,-4.64122],[153.5,-4.45874],[154,-4.27617],[154.5,-4.09354],[155,-3.91085],[155.5,-3.72813],[156,-3.5454],[156.5,-3.36267],[157,-3.17998],[157.5,-2.99734],[158,-2.81477],[158.5,-2.6323],[159,-2.44994],[159.5,-2.26774],[160,-2.0857],[160.5,-1.90385],[161,-1.72223],[161.5,-1.54085],[162,-1.35975],[162.5,-1.17896],[163,-0.9985],[163.5,-0.81841],[164,-0.63872],[164.5,-0.45945],[165,-0.28066],[165.5,-0.10235],[166,0.07541],[166.5,0.25261],[167,0.4292],[167.5,0.60515],[168,0.78041],[168.5,0.95495],[169,1.12871],[169.5,1.30167],[170,1.47377],[170.5,1.64497],[171,1.81523],[171.5,1.98449],[172,2.15271],[172.5,2.31984],[173,2.48582],[173.5,2.6506],[174,2.81414],[174.5,2.97636],[175,3.13722],[175.5,3.29666],[176,3.45462],[176.5,3.61103],[177,3.76584],[177.5,3.91897],[178,4.07038],[178.5,4.21997],[179,4.3677],[179.5,4.51349],[180,4.65726]]}},{"type":"Feature","id":"+02870728:south:1","properties":{"id":"+02870728","year":287,"month":7,"day":28,"time_tdt":"00:08:38","type":"금환일식","type_code":"A","saros":79,"gamma":-0.22278,"magnitude":0.97537,"greatest":{"lat":6.85683,"lng":-150.67523},"path_width_km":90.2,"duration":"03m04s","delta_t_seconds":7765.5,"catalog_number":5456,"source":"NASA Five Millennium Canon of Solar Eclipses","source_url":"https://eclipse.gsfc.nasa.gov/SEsearch/SEsearchmap.php?Ecl=%2B02870728","boundary":"south","name":"287-07-28 금환일식"},"geometry":{"type":"LineString","coordinates":[[-179.5,4.79894],[-179,4.93847],[-178.5,5.07575],[-178,5.21072],[-177.5,5.3433],[-177,5.4734],[-176.5,5.60095],[-176,5.72585],[-175.5,5.84803],[-175,5.96739],[-174.5,6.08385],[-174,6.19732],[-173.5,6.30771],[-173,6.41492],[-172.5,6.51887],[-172,6.61945],[-171.5,6.71657],[-171,6.81013],[-170.5,6.90005],[-170,6.9862],[-169.5,7.06851],[-169,7.14685],[-168.5,7.22114],[-168,7.29127],[-167.5,7.35714],[-167,7.41864],[-166.5,7.47568],[-166,7.52814],[-165.5,7.57592],[-165,7.61893],[-164.5,7.65705],[-164,7.69019],[-163.5,7.71824],[-163,7.74111],[-162.5,7.75869],[-162,7.77089],[-161.5,7.7776],[-161,7.77875],[-160.5,7.77423],[-160,7.76395],[-159.5,7.74784],[-159,7.7258],[-158.5,7.69776],[-158,7.66365],[-157.5,7.62339],[-157,7.57691],[-156.5,7.52417],[-156,7.46509],[-155.5,7.39963],[-155,7.32775],[-154.5,7.24941],[-154,7.16458],[-153.5,7.07324],[-153,6.97537],[-152.5,6.87096],[-152,6.76003],[-151.5,6.64257],[-151,6.51861],[-150.5,6.38817],[-150,6.2513],[-149.5,6.10804],[-149,5.95844],[-148.5,5.80258],[-148,5.64052],[-147.5,5.47236],[-147,5.29819],[-146.5,5.11811],[-146,4.93225],[-145.5,4.74071],[-145,4.54363],[-144.5,4.34115],[-144,4.13343],[-143.5,3.9206],[-143,3.70285],[-142.5,3.48032],[-142,3.2532],[-141.5,3.02167],[-141,2.7859],[-140.5,2.54609],[-140,2.30242],[-139.5,2.05509],[-139,1.80428],[-138.5,1.5502],[-138,1.29304],[-137.5,1.03299],[-137,0.77025],[-136.5,0.50501],[-136,0.23746],[-135.5,-0.03221],[-135,-0.30382],[-134.5,-0.57718],[-134,-0.85212],[-133.5,-1.12847],[-133,-1.40605],[-132.5,-1.6847],[-132,-1.96426],[-131.5,-2.24458],[-131,-2.52551],[-130.5,-2.80691],[-130,-3.08863],[-129.5,-3.37055],[-129,-3.65253],[-128.5,-3.93447],[-128,-4.21623],[-127.5,-4.49772],[-127,-4.77883],[-126.5,-5.05945],[-126,-5.3395],[-125.5,-5.61889],[-125,-5.89752],[-124.5,-6.17533],[-124,-6.45223],[-123.5,-6.72816],[-123,-7.00306],[-122.5,-7.27685],[-122,-7.54948],[-121.5,-7.82091],[-121,-8.09107],[-120.5,-8.35992],[-120,-8.62742],[-119.5,-8.89353],[-119,-9.15822],[-118.5,-9.42144],[-118,-9.68317],[-117.5,-9.94338],[-117,-10.20204],[-116.5,-10.45914],[-116,-10.71463],[-115.5,-10.96852],[-115,-11.22078],[-114.5,-11.4714],[-114,-11.72036],[-113.5,-11.96765],[-113,-12.21325],[-112.5,-12.45717],[-112,-12.6994],[-111.5,-12.93992],[-111,-13.17873],[-110.5,-13.41583],[-110,-13.65122],[-109.5,-13.88489],[-109,-14.11684],[-108.5,-14.34708],[-108,-14.57559],[-107.5,-14.8024],[-107,-15.02749],[-106.5,-15.25087],[-106,-15.47254],[-105.5,-15.69251],[-105,-15.91078],[-104.5,-16.12736],[-104,-16.34225],[-103.5,-16.55546],[-103,-16.76699],[-102.5,-16.97685],[-102,-17.18505],[-101.5,-17.3916],[-101,-17.5965],[-100.5,-17.79975],[-100,-18.00138],[-99.5,-18.20137],[-99,-18.39976],[-98.5,-18.59653],[-98,-18.79171],[-97.5,-18.98529],[-97,-19.17729],[-96.5,-19.36772],[-96,-19.55659],[-95.5,-19.7439],[-95,-19.92966],[-94.5,-20.11388],[-94.24805,-20.20614]]}}],"attribution":"Eclipse Predictions by Fred Espenak and Jean Meeus (NASA's GSFC)","generated_at":"2026-09-23T01:44:48.251Z"}
