{"type":"FeatureCollection","year":297,"events":[{"id":"+02970110","year":297,"month":1,"day":10,"time_tdt":"19:26:43","type":"개기일식","type_code":"T","saros":65,"gamma":-0.95285,"magnitude":1.03175,"greatest":{"lat":-75.49223,"lng":30.16718},"path_width_km":364.2,"duration":"01m40s","delta_t_seconds":7674.4,"catalog_number":5477,"source":"NASA Five Millennium Canon of Solar Eclipses","source_url":"https://eclipse.gsfc.nasa.gov/SEsearch/SEsearchmap.php?Ecl=%2B02970110"},{"id":"+02970706","year":297,"month":7,"day":6,"time_tdt":"22:05:39","type":"금환일식","type_code":"A","saros":70,"gamma":0.93789,"magnitude":0.93727,"greatest":{"lat":78.81389,"lng":-15.13446},"path_width_km":688.2,"duration":"04m12s","delta_t_seconds":7669.7,"catalog_number":5478,"source":"NASA Five Millennium Canon of Solar Eclipses","source_url":"https://eclipse.gsfc.nasa.gov/SEsearch/SEsearchmap.php?Ecl=%2B02970706"},{"id":"+02971231","year":297,"month":12,"day":31,"time_tdt":"11:15:04","type":"개기일식","type_code":"T","saros":75,"gamma":-0.28554,"magnitude":1.04039,"greatest":{"lat":-39.71678,"lng":48.87238},"path_width_km":141.2,"duration":"03m19s","delta_t_seconds":7665,"catalog_number":5479,"source":"NASA Five Millennium Canon of Solar Eclipses","source_url":"https://eclipse.gsfc.nasa.gov/SEsearch/SEsearchmap.php?Ecl=%2B02971231"}],"features":[{"type":"Feature","id":"+02970110:north:0","properties":{"id":"+02970110","year":297,"month":1,"day":10,"time_tdt":"19:26:43","type":"개기일식","type_code":"T","saros":65,"gamma":-0.95285,"magnitude":1.03175,"greatest":{"lat":-75.49223,"lng":30.16718},"path_width_km":364.2,"duration":"01m40s","delta_t_seconds":7674.4,"catalog_number":5477,"source":"NASA Five Millennium Canon of Solar Eclipses","source_url":"https://eclipse.gsfc.nasa.gov/SEsearch/SEsearchmap.php?Ecl=%2B02970110","boundary":"north","name":"297-01-10 개기일식"},"geometry":{"type":"LineString","coordinates":[[121.75,-67.92809],[122,-68.52333],[122,-73.1809],[121.5,-74.0501],[121,-74.68296],[120.5,-75.19464],[120,-75.62921],[119.5,-76.00918],[119,-76.34788],[118.5,-76.65397],[118,-76.93349],[117.5,-77.19082],[117,-77.42927],[116.5,-77.6514],[116,-77.85926],[115.5,-78.0545],[115,-78.2385],[114.5,-78.41239],[114,-78.57713],[113.5,-78.73355],[113,-78.88235],[112.5,-79.02416],[112,-79.15952],[111.5,-79.2889],[111,-79.41272],[110.5,-79.53137],[110,-79.64517],[109.5,-79.75443],[109,-79.85943],[108.5,-79.96041],[108,-80.0576],[107.5,-80.15121],[107,-80.24143],[106.5,-80.32842],[106,-80.41235],[105.5,-80.49336],[105,-80.57159],[104.5,-80.64717],[104,-80.72021],[103.5,-80.79083],[103,-80.85912],[102.5,-80.92518],[102,-80.98909],[101.5,-81.05094],[101,-81.11081],[100.5,-81.16877],[100,-81.22488],[99.5,-81.27922],[99,-81.33184],[98.5,-81.38279],[98,-81.43214],[97.5,-81.47994],[97,-81.52622],[96.5,-81.57104],[96,-81.61444],[95.5,-81.65646],[95,-81.69714],[94.5,-81.73652],[94,-81.77462],[93.5,-81.81148],[93,-81.84714],[92.5,-81.88163],[92,-81.91496],[91.5,-81.94717],[91,-81.97829],[90.5,-82.00833],[90,-82.03732],[89.5,-82.06528],[89,-82.09224],[88.5,-82.11821],[88,-82.14321],[87.5,-82.16726],[87,-82.19038],[86.5,-82.21258],[86,-82.23388],[85.5,-82.25428],[85,-82.27382],[84.5,-82.29249],[84,-82.31032],[83.5,-82.3273],[83,-82.34346],[82.5,-82.35881],[82,-82.37335],[81.5,-82.38709],[81,-82.40004],[80.5,-82.41222],[80,-82.42362],[79.5,-82.43426],[79,-82.44414],[78.5,-82.45326],[78,-82.46164],[77.5,-82.46928],[77,-82.47618],[76.5,-82.48235],[76,-82.48779],[75.5,-82.4925],[75,-82.49649],[74.5,-82.49976],[74,-82.50231],[73.5,-82.50415],[73,-82.50527],[72.5,-82.50568],[72,-82.50537],[71.5,-82.50435],[71,-82.50262],[70.5,-82.50017],[70,-82.497],[69.5,-82.49312],[69,-82.48852],[68.5,-82.48319],[68,-82.47714],[67.5,-82.47037],[67,-82.46286],[66.5,-82.45461],[66,-82.44563],[65.5,-82.4359],[65,-82.42542],[64.5,-82.41418],[64,-82.40218],[63.5,-82.38941],[63,-82.37586],[62.5,-82.36153],[62,-82.3464],[61.5,-82.33047],[61,-82.31373],[60.5,-82.29616],[60,-82.27777],[59.5,-82.25853],[59,-82.23843],[58.5,-82.21747],[58,-82.19562],[57.5,-82.17288],[57,-82.14923],[56.5,-82.12465],[56,-82.09913],[55.5,-82.07266],[55,-82.0452],[54.5,-82.01676],[54,-81.98729],[53.5,-81.9568],[53,-81.92524],[52.5,-81.89261],[52,-81.85887],[51.5,-81.82401],[51,-81.78799],[50.5,-81.75079],[50,-81.71237],[49.5,-81.67272],[49,-81.63179],[48.5,-81.58956],[48,-81.54598],[47.5,-81.50102],[47,-81.45465],[46.5,-81.40682],[46,-81.35748],[45.5,-81.3066],[45,-81.25412],[44.5,-81.19999],[44,-81.14416],[43.5,-81.08658],[43,-81.02717],[42.5,-80.96589],[42,-80.90266],[41.5,-80.83741],[41,-80.77006],[40.5,-80.70054],[40,-80.62876],[39.5,-80.55463],[39,-80.47805],[38.5,-80.39892],[38,-80.31712],[37.5,-80.23254],[37,-80.14506],[36.5,-80.05453],[36,-79.9608],[35.5,-79.86373],[35,-79.76313],[34.5,-79.65883],[34,-79.55062],[33.5,-79.43829],[33,-79.32159],[32.5,-79.20027],[32,-79.07403],[31.5,-78.94258],[31,-78.80555],[30.5,-78.66257],[30,-78.51322],[29.5,-78.357],[29,-78.1934],[28.5,-78.0218],[28,-77.84152],[27.5,-77.65178],[27,-77.45167],[26.5,-77.24016],[26,-77.01601],[25.5,-76.77778],[25,-76.52374],[24.5,-76.25179],[24,-75.95932],[23.5,-75.64308],[23,-75.29884],[22.5,-74.92104],[22,-74.502],[21.5,-74.03065],[21,-73.48993],[20.5,-72.85093],[20,-72.05649],[19.5,-70.95391],[19.5,-65.3903],[20,-64.03558],[20.5,-62.99488],[21,-62.11533],[21.5,-61.33965],[22,-60.63877],[22.5,-59.9955],[23,-59.39865],[23.5,-58.84042],[24,-58.31512],[24.5,-57.81842],[25,-57.34694],[25.5,-56.898],[26,-56.46938],[26.5,-56.05925],[27,-55.66608],[27.5,-55.28856],[28,-54.92555],[28.5,-54.57607],[29,-54.23925],[29.5,-53.91435],[30,-53.60068],[30.5,-53.29763],[31,-53.00466],[31.5,-52.72127],[32,-52.44703],[32.5,-52.18152],[33,-51.92437],[33.5,-51.67524],[34,-51.43381],[34.5,-51.19979]]}},{"type":"Feature","id":"+02970110:center:0","properties":{"id":"+02970110","year":297,"month":1,"day":10,"time_tdt":"19:26:43","type":"개기일식","type_code":"T","saros":65,"gamma":-0.95285,"magnitude":1.03175,"greatest":{"lat":-75.49223,"lng":30.16718},"path_width_km":364.2,"duration":"01m40s","delta_t_seconds":7674.4,"catalog_number":5477,"source":"NASA Five Millennium Canon of Solar Eclipses","source_url":"https://eclipse.gsfc.nasa.gov/SEsearch/SEsearchmap.php?Ecl=%2B02970110","boundary":"center","name":"297-01-10 개기일식"},"geometry":{"type":"LineString","coordinates":[[118.83407,-67.86255],[117.5,-71.58072],[117,-72.52145],[116.5,-73.18307],[116,-73.71174],[115.5,-74.15824],[115,-74.54744],[114.5,-74.89376],[114,-75.20642],[113.5,-75.49175],[113,-75.75432],[112.5,-75.99758],[112,-76.22416],[111.5,-76.43617],[111,-76.63531],[110.5,-76.82296],[110,-77.00031],[109.5,-77.16832],[109,-77.32783],[108.5,-77.47956],[108,-77.62415],[107.5,-77.76213],[107,-77.89399],[106.5,-78.02015],[106,-78.141],[105.5,-78.25688],[105,-78.36809],[104.5,-78.47491],[104,-78.5776],[103.5,-78.67636],[103,-78.77143],[102.5,-78.86298],[102,-78.95119],[101.5,-79.03623],[101,-79.11823],[100.5,-79.19734],[100,-79.27368],[99.5,-79.34737],[99,-79.41852],[98.5,-79.48723],[98,-79.55359],[97.5,-79.6177],[97,-79.67964],[96.5,-79.73949],[96,-79.79731],[95.5,-79.85318],[95,-79.90715],[94.5,-79.9593],[94,-80.00968],[93.5,-80.05833],[93,-80.10532],[92.5,-80.15069],[92,-80.19448],[91.5,-80.23673],[91,-80.2775],[90.5,-80.31681],[90,-80.35469],[89.5,-80.3912],[89,-80.42634],[88.5,-80.46017],[88,-80.4927],[87.5,-80.52397],[87,-80.55399],[86.5,-80.58279],[86,-80.61041],[85.5,-80.63685],[85,-80.66213],[84.5,-80.68629],[84,-80.70934],[83.5,-80.73128],[83,-80.75215],[82.5,-80.77196],[82,-80.79071],[81.5,-80.80843],[81,-80.82513],[80.5,-80.84082],[80,-80.8555],[79.5,-80.8692],[79,-80.88192],[78.5,-80.89367],[78,-80.90445],[77.5,-80.91428],[77,-80.92317],[76.5,-80.93111],[76,-80.93811],[75.5,-80.94419],[75,-80.94934],[74.5,-80.95356],[74,-80.95687],[73.5,-80.95926],[73,-80.96073],[72.5,-80.96129],[72,-80.96094],[71.5,-80.95967],[71,-80.95749],[70.5,-80.9544],[70,-80.95039],[69.5,-80.94546],[69,-80.93961],[68.5,-80.93284],[68,-80.92514],[67.5,-80.91651],[67,-80.90695],[66.5,-80.89643],[66,-80.88497],[65.5,-80.87256],[65,-80.85918],[64.5,-80.84482],[64,-80.82949],[63.5,-80.81316],[63,-80.79584],[62.5,-80.7775],[62,-80.75814],[61.5,-80.73774],[61,-80.71628],[60.5,-80.69377],[60,-80.67017],[59.5,-80.64548],[59,-80.61967],[58.5,-80.59274],[58,-80.56465],[57.5,-80.53539],[57,-80.50494],[56.5,-80.47328],[56,-80.44037],[55.5,-80.40621],[55,-80.37076],[54.5,-80.33399],[54,-80.29588],[53.5,-80.25639],[53,-80.21549],[52.5,-80.17315],[52,-80.12934],[51.5,-80.08401],[51,-80.03712],[50.5,-79.98864],[50,-79.93852],[49.5,-79.88671],[49,-79.83316],[48.5,-79.77783],[48,-79.72065],[47.5,-79.66157],[47,-79.60053],[46.5,-79.53746],[46,-79.47229],[45.5,-79.40495],[45,-79.33537],[44.5,-79.26345],[44,-79.18912],[43.5,-79.11227],[43,-79.0328],[42.5,-78.95062],[42,-78.8656],[41.5,-78.77763],[41,-78.68656],[40.5,-78.59227],[40,-78.49459],[39.5,-78.39336],[39,-78.28841],[38.5,-78.17955],[38,-78.06655],[37.5,-77.9492],[37,-77.82725],[36.5,-77.70043],[36,-77.56843],[35.5,-77.43094],[35,-77.28758],[34.5,-77.13795],[34,-76.98161],[33.5,-76.81806],[33,-76.64672],[32.5,-76.46695],[32,-76.27804],[31.5,-76.07913],[31,-75.86927],[30.5,-75.64733],[30,-75.41198],[29.5,-75.16163],[29,-74.89439],[28.5,-74.6079],[28,-74.29925],[27.5,-73.9647],[27,-73.59936],[26.5,-73.1966],[26,-72.74699],[25.5,-72.2364],[25,-71.64168],[24.5,-70.91978],[24,-69.96932],[23.5,-68.33195],[23.5,-65.60719],[24,-63.76236],[24.5,-62.60925],[25,-61.6894],[25.5,-60.90134],[26,-60.20189],[26.5,-59.56783],[27,-58.98492],[27.5,-58.44365],[28,-57.9373],[28.5,-57.4609],[29,-57.01062],[29.5,-56.58348],[30,-56.17705],[30.5,-55.78936],[31,-55.41876],[31.5,-55.06384],[32,-54.72343],[32.5,-54.39649],[33,-54.08212],[33.5,-53.77955],[34,-53.48807],[34.5,-53.20707],[35,-52.93599],[35.5,-52.67433],[36,-52.42164],[36.5,-52.17751],[36.85277,-52.09401]]}},{"type":"Feature","id":"+02970110:south:0","properties":{"id":"+02970110","year":297,"month":1,"day":10,"time_tdt":"19:26:43","type":"개기일식","type_code":"T","saros":65,"gamma":-0.95285,"magnitude":1.03175,"greatest":{"lat":-75.49223,"lng":30.16718},"path_width_km":364.2,"duration":"01m40s","delta_t_seconds":7674.4,"catalog_number":5477,"source":"NASA Five Millennium Canon of Solar Eclipses","source_url":"https://eclipse.gsfc.nasa.gov/SEsearch/SEsearchmap.php?Ecl=%2B02970110","boundary":"south","name":"297-01-10 개기일식"},"geometry":{"type":"LineString","coordinates":[[113.07031,-69.67613],[113,-69.91289],[112.5,-70.99782],[112,-71.70368],[111.5,-72.25467],[111,-72.71484],[110.5,-73.11337],[110,-73.46651],[109.5,-73.7844],[109,-74.0739],[108.5,-74.33988],[108,-74.58596],[107.5,-74.81493],[107,-75.02897],[106.5,-75.22985],[106,-75.41899],[105.5,-75.59761],[105,-75.76669],[104.5,-75.92711],[104,-76.07958],[103.5,-76.22476],[103,-76.36319],[102.5,-76.49537],[102,-76.62172],[101.5,-76.74264],[101,-76.85846],[100.5,-76.96949],[100,-77.07602],[99.5,-77.17829],[99,-77.27654],[98.5,-77.37097],[98,-77.46177],[97.5,-77.54912],[97,-77.63318],[96.5,-77.7141],[96,-77.79201],[95.5,-77.86704],[95,-77.93931],[94.5,-78.00892],[94,-78.07599],[93.5,-78.14059],[93,-78.20283],[92.5,-78.26278],[92,-78.32051],[91.5,-78.37611],[91,-78.42963],[90.5,-78.48115],[90,-78.53072],[89.5,-78.57839],[89,-78.62422],[88.5,-78.66826],[88,-78.71055],[87.5,-78.75114],[87,-78.79007],[86.5,-78.82738],[86,-78.86309],[85.5,-78.89726],[85,-78.92991],[84.5,-78.96106],[84,-78.99076],[83.5,-79.01901],[83,-79.04586],[82.5,-79.07133],[82,-79.09543],[81.5,-79.11818],[81,-79.13962],[80.5,-79.15974],[80,-79.17858],[79.5,-79.19615],[79,-79.21246],[78.5,-79.22752],[78,-79.24135],[77.5,-79.25396],[77,-79.26536],[76.5,-79.27556],[76,-79.28457],[75.5,-79.29239],[75,-79.29903],[74.5,-79.3045],[74,-79.3088],[73.5,-79.31194],[73,-79.31391],[72.5,-79.31473],[72,-79.31439],[71.5,-79.31289],[71,-79.31024],[70.5,-79.30643],[70,-79.30145],[69.5,-79.29532],[69,-79.28802],[68.5,-79.27954],[68,-79.26989],[67.5,-79.25906],[67,-79.24704],[66.5,-79.23382],[66,-79.21939],[65.5,-79.20375],[65,-79.18688],[64.5,-79.16877],[64,-79.14941],[63.5,-79.12878],[63,-79.10687],[62.5,-79.08367],[62,-79.05915],[61.5,-79.0333],[61,-79.0061],[60.5,-78.97753],[60,-78.94756],[59.5,-78.91618],[59,-78.88335],[58.5,-78.84906],[58,-78.81327],[57.5,-78.77595],[57,-78.73707],[56.5,-78.69661],[56,-78.65451],[55.5,-78.61075],[55,-78.5653],[54.5,-78.51809],[54,-78.4691],[53.5,-78.41827],[53,-78.36556],[52.5,-78.31091],[52,-78.25427],[51.5,-78.19559],[51,-78.13478],[50.5,-78.0718],[50,-78.00657],[49.5,-77.93902],[49,-77.86906],[48.5,-77.79661],[48,-77.72159],[47.5,-77.64389],[47,-77.56342],[46.5,-77.48006],[46,-77.39369],[45.5,-77.30419],[45,-77.21143],[44.5,-77.11525],[44,-77.01551],[43.5,-76.91202],[43,-76.8046],[42.5,-76.69307],[42,-76.57718],[41.5,-76.45672],[41,-76.33142],[40.5,-76.201],[40,-76.06513],[39.5,-75.92349],[39,-75.77567],[38.5,-75.62127],[38,-75.45979],[37.5,-75.29071],[37,-75.11342],[36.5,-74.92722],[36,-74.73134],[35.5,-74.52485],[35,-74.3067],[34.5,-74.07564],[34,-73.8302],[33.5,-73.56858],[33,-73.28862],[32.5,-72.98759],[32,-72.66204],[31.5,-72.30747],[31,-71.9178],[30.5,-71.48447],[30,-70.99473],[29.5,-70.42799],[29,-69.74674],[28.5,-68.86622],[28,-67.45869],[28,-64.23962],[28.5,-62.66602],[29,-61.62339],[29.5,-60.78387],[30,-60.06264],[30.5,-59.42212],[31,-58.84166],[31.5,-58.30843],[32,-57.81382],[32.5,-57.35168],[33,-56.91745],[33.5,-56.50762],[34,-56.11942],[34.5,-55.75061],[35,-55.39937],[35.5,-55.06416],[36,-54.74368],[36.5,-54.43684],[37,-54.14267],[37.5,-53.86035],[38,-53.58914],[38.5,-53.32839],[38.75,-53.20176]]}},{"type":"Feature","id":"+02970706:north:0","properties":{"id":"+02970706","year":297,"month":7,"day":6,"time_tdt":"22:05:39","type":"금환일식","type_code":"A","saros":70,"gamma":0.93789,"magnitude":0.93727,"greatest":{"lat":78.81389,"lng":-15.13446},"path_width_km":688.2,"duration":"04m12s","delta_t_seconds":7669.7,"catalog_number":5478,"source":"NASA Five Millennium Canon of Solar Eclipses","source_url":"https://eclipse.gsfc.nasa.gov/SEsearch/SEsearchmap.php?Ecl=%2B02970706","boundary":"north","name":"297-07-06 금환일식"},"geometry":{"type":"LineString","coordinates":[[80.5625,66.64517],[81,67.62849],[81,71.59031],[80.5,72.50423],[80,73.14975],[79.5,73.66678],[79,74.10421],[78.5,74.48603],[78,74.82617],[77.5,75.13356],[77,75.41432],[76.5,75.6729],[76,75.91261],[75.5,76.13604],[75,76.34522],[74.5,76.54181],[74,76.72716],[73.5,76.90239],[73,77.06847],[72.5,77.22622],[72,77.37633],[71.5,77.51941],[71,77.65599],[70.5,77.78656],[70,77.91152],[69.5,78.03124],[69,78.14607],[68.5,78.25629],[68,78.36218],[67.5,78.46398],[67,78.56192],[66.5,78.6562],[66,78.74701],[65.5,78.83451],[65,78.91887],[64.5,79.00022],[64,79.07871],[63.5,79.15445],[63,79.22757],[62.5,79.29817],[62,79.36634],[61.5,79.43219],[61,79.4958],[60.5,79.55725],[60,79.61661],[59.5,79.67397],[59,79.72938],[58.5,79.78291],[58,79.83461],[57.5,79.88455],[57,79.93278],[56.5,79.97934],[56,80.02429],[55.5,80.06766],[55,80.1095],[54.5,80.14985],[54,80.18874],[53.5,80.22622],[53,80.26231],[52.5,80.29704],[52,80.33045],[51.5,80.36256],[51,80.39341],[50.5,80.42301],[50,80.45139],[49.5,80.47857],[49,80.50457],[48.5,80.52942],[48,80.55313],[47.5,80.57573],[47,80.59722],[46.5,80.61763],[46,80.63696],[45.5,80.65524],[45,80.67248],[44.5,80.68868],[44,80.70387],[43.5,80.71805],[43,80.73123],[42.5,80.74342],[42,80.75463],[41.5,80.76487],[41,80.77415],[40.5,80.78246],[40,80.78983],[39.5,80.79624],[39,80.80172],[38.5,80.80625],[38,80.80985],[37.5,80.81252],[37,80.81425],[36.5,80.81506],[36,80.81494],[35.5,80.81389],[35,80.81192],[34.5,80.80901],[34,80.80518],[33.5,80.80041],[33,80.79471],[32.5,80.78807],[32,80.78049],[31.5,80.77196],[31,80.76248],[30.5,80.75205],[30,80.74065],[29.5,80.72828],[29,80.71493],[28.5,80.7006],[28,80.68527],[27.5,80.66894],[27,80.65159],[26.5,80.63322],[26,80.6138],[25.5,80.59334],[25,80.57181],[24.5,80.5492],[24,80.5255],[23.5,80.50069],[23,80.47475],[22.5,80.44766],[22,80.41941],[21.5,80.38997],[21,80.35933],[20.5,80.32745],[20,80.29433],[19.5,80.25992],[19,80.22421],[18.5,80.18717],[18,80.14876],[17.5,80.10897],[17,80.06775],[16.5,80.02506],[16,79.98089],[15.5,79.93518],[15,79.88789],[14.5,79.83899],[14,79.78843],[13.5,79.73616],[13,79.68213],[12.5,79.62629],[12,79.56858],[11.5,79.50895],[11,79.44733],[10.5,79.38365],[10,79.31786],[9.5,79.24986],[9,79.17958],[8.5,79.10694],[8,79.03185],[7.5,78.9542],[7,78.87391],[6.5,78.79086],[6,78.70492],[5.5,78.61599],[5,78.52391],[4.5,78.42855],[4,78.32976],[3.5,78.22735],[3,78.12115],[2.5,78.01095],[2,77.89655],[1.5,77.77771],[1,77.65416],[0.5,77.52563],[0,77.39181],[-0.5,77.25234],[-1,77.10686],[-1.5,76.95493],[-2,76.79608],[-2.5,76.62978],[-3,76.45543],[-3.5,76.27234],[-4,76.07971],[-4.5,75.87665],[-5,75.6621],[-5.5,75.43481],[-6,75.1933],[-6.5,74.9358],[-7,74.66011],[-7.5,74.36352],[-8,74.04257],[-8.5,73.69272],[-9,73.30783],[-9.5,72.87926],[-10,72.39404],[-10.5,71.83115],[-11,71.15185],[-11.5,70.26691],[-12,68.80606],[-12,65.91099],[-11.5,64.27701],[-11,63.22271],[-10.5,62.37776],[-10,61.65285],[-9.5,61.00919],[-9,60.42566],[-8.5,59.88925],[-8,59.39123],[-7.5,58.92541],[-7,58.48719],[-6.5,58.07306],[-6,57.68025],[-5.5,57.3065],[-5,56.95],[-4.5,56.60921],[-4,56.28283],[-3.5,55.96977],[-3,55.66908],[-2.5,55.37992],[-2,55.10156],[-1,54.57477],[-1.5,54.83337],[-1.0625,54.60659]]}},{"type":"Feature","id":"+02970706:center:0","properties":{"id":"+02970706","year":297,"month":7,"day":6,"time_tdt":"22:05:39","type":"금환일식","type_code":"A","saros":70,"gamma":0.93789,"magnitude":0.93727,"greatest":{"lat":78.81389,"lng":-15.13446},"path_width_km":688.2,"duration":"04m12s","delta_t_seconds":7669.7,"catalog_number":5478,"source":"NASA Five Millennium Canon of Solar Eclipses","source_url":"https://eclipse.gsfc.nasa.gov/SEsearch/SEsearchmap.php?Ecl=%2B02970706","boundary":"center","name":"297-07-06 금환일식"},"geometry":{"type":"LineString","coordinates":[[90.42677,65.82613],[91.5,66.09464],[92,66.76536],[92.5,67.51012],[93,68.36529],[93.5,69.41552],[94,71.02428],[94,73.60477],[93.5,74.95285],[93,75.74558],[92.5,76.34639],[92,76.83986],[91.5,77.26233],[91,77.63338],[90.5,77.96501],[90,78.26521],[89.5,78.53962],[89,78.79238],[88.5,79.02665],[88,79.24491],[87.5,79.44914],[87,79.64094],[86.5,79.82166],[86,79.99242],[85.5,80.15415],[85,80.30768],[84.5,80.45371],[84,80.59285],[83.5,80.72563],[83,80.85254],[82.5,80.97398],[82,81.09034],[81.5,81.20195],[81,81.30911],[80.5,81.4121],[80,81.51117],[79.5,81.60654],[79,81.69842],[78.5,81.787],[78,81.87245],[77.5,81.95494],[77,82.0346],[76.5,82.11157],[76,82.18599],[75.5,82.25797],[75,82.32762],[74.5,82.39504],[74,82.46032],[73.5,82.52356],[73,82.58483],[72.5,82.64423],[72,82.7018],[71.5,82.75764],[71,82.8118],[70.5,82.86434],[70,82.91532],[69.5,82.9648],[69,83.01282],[68.5,83.05943],[68,83.10469],[67.5,83.14863],[67,83.19129],[66.5,83.23272],[66,83.27295],[65.5,83.31202],[65,83.34995],[64.5,83.38679],[64,83.42256],[63.5,83.45729],[63,83.49101],[62.5,83.52375],[62,83.55552],[61.5,83.58636],[61,83.61628],[60.5,83.64531],[60,83.67347],[59.5,83.70078],[59,83.72726],[58.5,83.75292],[58,83.77779],[57.5,83.80187],[57,83.82519],[56.5,83.84776],[56,83.86959],[55.5,83.89071],[55,83.91111],[54.5,83.93082],[54,83.94984],[53.5,83.96819],[53,83.98588],[52.5,84.00292],[52,84.01932],[51.5,84.03508],[51,84.05022],[50.5,84.06475],[50,84.07868],[49.5,84.092],[49,84.10473],[48.5,84.11688],[48,84.12846],[47.5,84.13946],[47,84.1499],[46.5,84.15977],[46,84.1691],[45.5,84.17787],[45,84.1861],[44.5,84.1938],[44,84.20095],[43.5,84.20758],[43,84.21367],[42.5,84.21924],[42,84.22429],[41.5,84.22881],[41,84.23282],[40.5,84.23632],[40,84.2393],[39.5,84.24177],[39,84.24373],[38.5,84.24517],[38,84.24611],[37.5,84.24655],[37,84.24647],[36.5,84.24588],[36,84.24479],[35.5,84.24319],[35,84.24108],[34.5,84.23846],[34,84.23533],[33.5,84.23168],[33,84.22752],[32.5,84.22284],[32,84.21765],[31.5,84.21193],[31,84.20569],[30.5,84.19892],[30,84.19162],[29.5,84.18379],[29,84.17541],[28.5,84.1665],[28,84.15704],[27.5,84.14702],[27,84.13645],[26.5,84.12532],[26,84.11362],[25.5,84.10134],[25,84.08848],[24.5,84.07504],[24,84.061],[23.5,84.04636],[23,84.03111],[22.5,84.01524],[22,83.99874],[21.5,83.98161],[21,83.96383],[20.5,83.94539],[20,83.92629],[19.5,83.90651],[19,83.88604],[18.5,83.86486],[18,83.84298],[17.5,83.82037],[17,83.79701],[16.5,83.7729],[16,83.74802],[15.5,83.72236],[15,83.69589],[14.5,83.6686],[14,83.64047],[13.5,83.61149],[13,83.58163],[12.5,83.55088],[12,83.5192],[11.5,83.48658],[11,83.453],[10.5,83.41843],[10,83.38285],[9.5,83.34622],[9,83.30853],[8.5,83.26973],[8,83.2298],[7.5,83.18871],[7,83.14642],[6.5,83.1029],[6,83.05811],[5.5,83.012],[5,82.96454],[4.5,82.91568],[4,82.86538],[3.5,82.81358],[3,82.76024],[2.5,82.7053],[2,82.64871],[1.5,82.59039],[1,82.5303],[0.5,82.46835],[0,82.40448],[-0.5,82.33861],[-1,82.27065],[-1.5,82.20053],[-2,82.12814],[-2.5,82.0534],[-3,81.97618],[-3.5,81.89638],[-4,81.81389],[-4.5,81.72856],[-5,81.64025],[-5.5,81.54883],[-6,81.45411],[-6.5,81.35594],[-7,81.25411],[-7.5,81.14842],[-8,81.03864],[-8.5,80.92453],[-9,80.80582],[-9.5,80.68221],[-10,80.55338],[-10.5,80.41896],[-11,80.27856],[-11.5,80.13173],[-12,79.97797],[-12.5,79.81673],[-13,79.64736],[-13.5,79.46915],[-14,79.28127],[-14.5,79.08277],[-15,78.87254],[-15.5,78.64929],[-16,78.41147],[-16.5,78.15722],[-17,77.8843],[-17.5,77.5899],[-18,77.27049],[-18.5,76.92148],[-19,76.53675],[-19.5,76.10782],[-20,75.62227],[-20.5,75.0607],[-21,74.38932],[-21.5,73.5384],[-22,72.30099],[-22,67.2342],[-21.5,65.7059],[-21,64.57088],[-20.5,63.62197],[-20,62.78924],[-19.5,62.03872],[-19,61.35081],[-18.5,60.71293],[-18,60.11644],[-17.5,59.55505],[-17,59.02404],[-16.5,58.51972],[-16,58.03918],[-15.5,57.58001],[-15,57.14024],[-14.5,56.71822],[-14,56.31254],[-13.5,55.92197],[-13,55.54546],[-12.5,55.18209],[-12,54.83104],[-11.5,54.49159],[-11,54.1631],[-10.5,53.84497],[-10,53.53668],[-9.5,53.23776],[-9,52.94777],[-8.5,52.66631],[-8,52.39302],[-7.5,52.12756],[-7,51.86962],[-6.98397,51.71624]]}},{"type":"Feature","id":"+02970706:south:0","properties":{"id":"+02970706","year":297,"month":7,"day":6,"time_tdt":"22:05:39","type":"금환일식","type_code":"A","saros":70,"gamma":0.93789,"magnitude":0.93727,"greatest":{"lat":78.81389,"lng":-15.13446},"path_width_km":688.2,"duration":"04m12s","delta_t_seconds":7669.7,"catalog_number":5478,"source":"NASA Five Millennium Canon of Solar Eclipses","source_url":"https://eclipse.gsfc.nasa.gov/SEsearch/SEsearchmap.php?Ecl=%2B02970706","boundary":"south","name":"297-07-06 금환일식"},"geometry":{"type":"LineString","coordinates":[[99.625,64.58864],[100,64.95519],[100.5,65.45885],[101,65.98134],[101.5,66.52497],[102,67.09266],[102.5,67.68817],[103,68.31647],[103.5,68.98446],[104,69.70212],[104.5,70.48495],[105,71.35963],[105.5,72.38015],[106,73.699],[106,78.2635],[105.5,79.21095],[105,79.86551],[104.5,80.37955],[104,80.80693],[103.5,81.17421],[103,81.49677],[102.5,81.7845],[102,82.04417],[101.5,82.28066],[101,82.49764],[100.5,82.69791],[100,82.88372],[99.5,83.05686],[99,83.2188],[98.5,83.37076],[98,83.51378],[97.5,83.64872],[97,83.77633],[96.5,83.89728],[96,84.01211],[95.5,84.12133],[95,84.22538],[94.5,84.32464],[94,84.41947],[93.5,84.51016],[93,84.59701],[92.5,84.68026],[92,84.76014],[91.5,84.83686],[91,84.91061],[90.5,84.98156],[90,85.04987],[89.5,85.11568],[89,85.17913],[88.5,85.24035],[88,85.29944],[87.5,85.35652],[87,85.41169],[86.5,85.46502],[86,85.51662],[85.5,85.56656],[85,85.61491],[84.5,85.66174],[84,85.70713],[83.5,85.75112],[83,85.79379],[82.5,85.83517],[82,85.87533],[81.5,85.91432],[81,85.95216],[80.5,85.98892],[80,86.02463],[79.5,86.05932],[79,86.09304],[78.5,86.12582],[78,86.15769],[77.5,86.18869],[77,86.21883],[76.5,86.24816],[76,86.27669],[75.5,86.30445],[75,86.33147],[74.5,86.35776],[74,86.38336],[73.5,86.40828],[73,86.43254],[72.5,86.45615],[72,86.47915],[71.5,86.50154],[71,86.52335],[70.5,86.54458],[70,86.56526],[69.5,86.58539],[69,86.605],[68.5,86.62409],[68,86.64268],[67.5,86.66078],[67,86.6784],[66.5,86.69555],[66,86.71225],[65.5,86.7285],[65,86.74432],[64.5,86.75971],[64,86.77469],[63.5,86.78925],[63,86.80342],[62.5,86.8172],[62,86.83059],[61.5,86.8436],[61,86.85625],[60.5,86.86854],[60,86.88047],[59.5,86.89205],[59,86.90329],[58.5,86.91419],[58,86.92476],[57.5,86.93501],[57,86.94493],[56.5,86.95454],[56,86.96384],[55.5,86.97284],[55,86.98153],[54.5,86.98993],[54,86.99803],[53.5,87.00584],[53,87.01337],[52.5,87.02062],[52,87.02759],[51.5,87.03428],[51,87.0407],[50.5,87.04685],[50,87.05274],[49.5,87.05836],[49,87.06372],[48.5,87.06883],[48,87.07367],[47.5,87.07827],[47,87.08261],[46.5,87.0867],[46,87.09054],[45.5,87.09414],[45,87.09749],[44.5,87.1006],[44,87.10347],[43.5,87.10609],[43,87.10848],[42.5,87.11063],[42,87.11253],[41.5,87.11421],[41,87.11564],[40.5,87.11685],[40,87.11781],[39.5,87.11854],[39,87.11904],[38.5,87.11931],[38,87.11934],[37.5,87.11913],[37,87.11869],[36.5,87.11802],[36,87.11711],[35.5,87.11597],[35,87.1146],[34.5,87.11298],[34,87.11114],[33.5,87.10905],[33,87.10673],[32.5,87.10416],[32,87.10136],[31.5,87.09831],[31,87.09503],[30.5,87.09149],[30,87.08772],[29.5,87.08369],[29,87.07942],[28.5,87.07489],[28,87.07011],[27.5,87.06508],[27,87.05979],[26.5,87.05423],[26,87.04842],[25.5,87.04234],[25,87.036],[24.5,87.02938],[24,87.02249],[23.5,87.01532],[23,87.00788],[22.5,87.00015],[22,86.99213],[21.5,86.98382],[21,86.97521],[20.5,86.96631],[20,86.9571],[19.5,86.94759],[19,86.93776],[18.5,86.92761],[18,86.91714],[17.5,86.90635],[17,86.89521],[16.5,86.88374],[16,86.87193],[15.5,86.85976],[15,86.84723],[14.5,86.83434],[14,86.82108],[13.5,86.80743],[13,86.7934],[12.5,86.77898],[12,86.76415],[11.5,86.7489],[11,86.73324],[10.5,86.71715],[10,86.70062],[9.5,86.68364],[9,86.6662],[8.5,86.64828],[8,86.62989],[7.5,86.611],[7,86.5916],[6.5,86.57168],[6,86.55123],[5.5,86.53023],[5,86.50867],[4.5,86.48653],[4,86.4638],[3.5,86.44046],[3,86.41649],[2.5,86.39187],[2,86.36659],[1.5,86.34062],[1,86.31395],[0.5,86.28655],[0,86.2584],[-0.5,86.22948],[-1,86.19975],[-1.5,86.1692],[-2,86.13779],[-2.5,86.1055],[-3,86.0723],[-3.5,86.03814],[-4,86.00301],[-4.5,85.96686],[-5,85.92965],[-5.5,85.89135],[-6,85.85191],[-6.5,85.81128],[-7,85.76943],[-7.5,85.72629],[-8,85.68182],[-8.5,85.63596],[-9,85.58865],[-9.5,85.53983],[-10,85.48942],[-10.5,85.43736],[-11,85.38356],[-11.5,85.32795],[-12,85.27043],[-12.5,85.21092],[-13,85.1493],[-13.5,85.08547],[-14,85.01931],[-14.5,84.95069],[-15,84.87948],[-15.5,84.80552],[-16,84.72866],[-16.5,84.64871],[-17,84.56548],[-17.5,84.47877],[-18,84.38834],[-18.5,84.29394],[-19,84.19529],[-19.5,84.09209],[-20,83.98398],[-20.5,83.87058],[-21,83.75147],[-21.5,83.62617],[-22,83.49414],[-22.5,83.35475],[-23,83.2073],[-23.5,83.05099],[-24,82.88487],[-24.5,82.70785],[-25,82.51863],[-25.5,82.31568],[-26,82.09713],[-26.5,81.86072],[-27,81.60362],[-27.5,81.32226],[-28,81.01197],[-28.5,80.66654],[-29,80.27733],[-29.5,79.83175],[-30,79.31014],[-30.5,78.67861],[-31,77.86848],[-31.5,76.68611],[-31.5,70.84724],[-31,69.16327],[-30.5,67.86556],[-30,66.75991],[-29.5,65.77708],[-29,64.88268],[-28.5,64.05657],[-28,63.28571],[-27.5,62.56101],[-27,61.87584],[-26.5,61.22517],[-26,60.60505],[-25.5,60.01229],[-25,59.4443],[-24.5,58.89891],[-24,58.37428],[-23.5,57.86882],[-23,57.38118],[-22.5,56.91017],[-22,56.45472],[-21.5,56.01391],[-21,55.58689],[-20.5,55.17292],[-20,54.77131],[-19.5,54.38144],[-19,54.00276],[-18.5,53.63474],[-18,53.27692],[-17.5,52.92884],[-17,52.59012],[-16.5,52.26037],[-16,51.93925],[-15.5,51.62643],[-15,51.32161],[-14.5,51.0245],[-14,50.73484],[-13.5,50.45238],[-13,50.17688],[-12.5,49.90812],[-12,49.6459],[-11.5,49.39001]]}},{"type":"Feature","id":"+02971231:north:0","properties":{"id":"+02971231","year":297,"month":12,"day":31,"time_tdt":"11:15:04","type":"개기일식","type_code":"T","saros":75,"gamma":-0.28554,"magnitude":1.04039,"greatest":{"lat":-39.71678,"lng":48.87238},"path_width_km":141.2,"duration":"03m19s","delta_t_seconds":7665,"catalog_number":5479,"source":"NASA Five Millennium Canon of Solar Eclipses","source_url":"https://eclipse.gsfc.nasa.gov/SEsearch/SEsearchmap.php?Ecl=%2B02971231","boundary":"north","name":"297-12-31 개기일식"},"geometry":{"type":"LineString","coordinates":[[-31.1875,-24.34777],[-31,-24.42918],[-30.5,-24.64622],[-30,-24.8632],[-29.5,-25.08009],[-29,-25.29686],[-28.5,-25.51348],[-28,-25.72994],[-27.5,-25.94619],[-27,-26.16221],[-26.5,-26.37797],[-26,-26.59345],[-25.5,-26.80861],[-25,-27.02343],[-24.5,-27.23786],[-24,-27.45189],[-23.5,-27.66548],[-23,-27.8786],[-22.5,-28.09122],[-22,-28.30331],[-21.5,-28.51483],[-21,-28.72574],[-20.5,-28.93603],[-20,-29.14566],[-19.5,-29.35458],[-19,-29.56277],[-18.5,-29.7702],[-18,-29.97682],[-17.5,-30.18262],[-17,-30.38754],[-16.5,-30.59156],[-16,-30.79464],[-15.5,-30.99675],[-15,-31.19785],[-14.5,-31.39791],[-14,-31.5969],[-13.5,-31.79477],[-13,-31.99149],[-12.5,-32.18704],[-12,-32.38137],[-11.5,-32.57444],[-11,-32.76624],[-10.5,-32.95671],[-10,-33.14583],[-9.5,-33.33356],[-9,-33.51987],[-8.5,-33.70473],[-8,-33.88809],[-7.5,-34.06994],[-7,-34.25023],[-6.5,-34.42893],[-6,-34.60601],[-5.5,-34.78144],[-5,-34.95519],[-4.5,-35.12722],[-4,-35.29751],[-3.5,-35.46602],[-3,-35.63272],[-2.5,-35.79759],[-2,-35.96059],[-1.5,-36.1217],[-1,-36.28089],[-0.5,-36.43812],[0,-36.59337],[0.5,-36.74662],[1,-36.89784],[1.5,-37.047],[2,-37.19407],[2.5,-37.33903],[3,-37.48186],[3.5,-37.62253],[4,-37.76102],[4.5,-37.8973],[5,-38.03135],[5.5,-38.16315],[6,-38.29267],[6.5,-38.4199],[7,-38.54481],[7.5,-38.66739],[8,-38.7876],[8.5,-38.90544],[9,-39.02088],[9.5,-39.1339],[10,-39.24449],[10.5,-39.35262],[11,-39.45828],[11.5,-39.56146],[12,-39.66212],[12.5,-39.76026],[13,-39.85586],[13.5,-39.9489],[14,-40.03936],[14.5,-40.12724],[15,-40.2125],[15.5,-40.29515],[16,-40.37516],[16.5,-40.45252],[17,-40.5272],[17.5,-40.59921],[18,-40.66852],[18.5,-40.73511],[19,-40.79898],[19.5,-40.86011],[20,-40.91847],[20.5,-40.97407],[21,-41.02688],[21.5,-41.07689],[22,-41.12409],[22.5,-41.16846],[23,-41.20998],[23.5,-41.24864],[24,-41.28443],[24.5,-41.31732],[25,-41.34732],[25.5,-41.37439],[26,-41.39853],[26.5,-41.41971],[27,-41.43793],[27.5,-41.45317],[28,-41.4654],[28.5,-41.47462],[29,-41.48081],[29.5,-41.48395],[30,-41.48402],[30.5,-41.481],[31,-41.47488],[31.5,-41.46564],[32,-41.45326],[32.5,-41.43773],[33,-41.41901],[33.5,-41.3971],[34,-41.37197],[34.5,-41.3436],[35,-41.31197],[35.5,-41.27707],[36,-41.23886],[36.5,-41.19733],[37,-41.15246],[37.5,-41.10423],[38,-41.0526],[38.5,-40.99757],[39,-40.9391],[39.5,-40.87717],[40,-40.81176],[40.5,-40.74285],[41,-40.67041],[41.5,-40.59441],[42,-40.51484],[42.5,-40.43166],[43,-40.34485],[43.5,-40.25439],[44,-40.16026],[44.5,-40.06242],[45,-39.96085],[45.5,-39.85553],[46,-39.74644],[46.5,-39.63354],[47,-39.51681],[47.5,-39.39624],[48,-39.27179],[48.5,-39.14345],[49,-39.01118],[49.5,-38.87498],[50,-38.73481],[50.5,-38.59067],[51,-38.44251],[51.5,-38.29034],[52,-38.13414],[52.5,-37.97388],[53,-37.80955],[53.5,-37.64114],[54,-37.46863],[54.5,-37.29203],[55,-37.11131],[55.5,-36.92648],[56,-36.73753],[56.5,-36.54446],[57,-36.34727],[57.5,-36.14596],[58,-35.94054],[58.5,-35.73102],[59,-35.51742],[59.5,-35.29974],[60,-35.07801],[60.5,-34.85225],[61,-34.62249],[61.5,-34.38875],[62,-34.15107],[62.5,-33.90949],[63,-33.66406],[63.5,-33.4148],[64,-33.16179],[64.5,-32.90507],[65,-32.6447],[65.5,-32.38075],[66,-32.11329],[66.5,-31.84238],[67,-31.5681],[67.5,-31.29054],[68,-31.00979],[68.5,-30.72592],[69,-30.43905],[69.5,-30.14925],[70,-29.85665],[70.5,-29.56134],[71,-29.26343],[71.5,-28.96304],[72,-28.66028],[72.5,-28.35527],[73,-28.04813],[73.5,-27.73898],[74,-27.42796],[74.5,-27.11518],[75,-26.80077],[75.5,-26.48487],[76,-26.16761],[76.5,-25.84911],[77,-25.5295],[77.5,-25.20892],[78,-24.88749],[78.5,-24.56535],[79,-24.24263],[79.5,-23.91944],[80,-23.59592],[80.5,-23.27218],[81,-22.94835],[81.5,-22.62455],[82,-22.30089],[82.5,-21.97749],[83,-21.65446],[83.5,-21.33189],[84,-21.00991],[84.5,-20.6886],[85,-20.36807],[85.5,-20.04841],[86,-19.72971],[86.5,-19.41206],[87,-19.09554],[87.5,-18.78023],[88,-18.4662],[88.5,-18.15354],[89,-17.8423],[89.5,-17.53255],[90,-17.22436],[90.5,-16.91779],[91,-16.61288],[91.5,-16.30969],[92,-16.00828],[92.5,-15.70868],[93,-15.41093],[93.5,-15.11508],[94,-14.82117],[94.5,-14.52923],[95,-14.23928],[95.5,-13.95137],[96,-13.66551],[96.5,-13.38172],[97,-13.10004],[97.5,-12.82048],[98,-12.54306],[98.5,-12.26779],[99,-11.99469],[99.5,-11.72376],[100,-11.45503],[100.5,-11.18849],[101,-10.92416],[101.5,-10.66204],[102,-10.40214],[102.5,-10.14445],[103,-9.88898],[103.5,-9.63573],[104,-9.38471],[104.5,-9.1359],[105,-8.8893],[105.5,-8.64492],[106,-8.40275],[106.5,-8.16278],[107,-7.92502],[107.5,-7.68944],[108,-7.45605],[108.5,-7.22483],[109,-6.99579],[109.5,-6.7689],[110,-6.54417],[110.5,-6.32158],[111,-6.10112],[111.5,-5.88278],[112,-5.66656],[112.5,-5.45244]]}},{"type":"Feature","id":"+02971231:center:0","properties":{"id":"+02971231","year":297,"month":12,"day":31,"time_tdt":"11:15:04","type":"개기일식","type_code":"T","saros":75,"gamma":-0.28554,"magnitude":1.04039,"greatest":{"lat":-39.71678,"lng":48.87238},"path_width_km":141.2,"duration":"03m19s","delta_t_seconds":7665,"catalog_number":5479,"source":"NASA Five Millennium Canon of Solar Eclipses","source_url":"https://eclipse.gsfc.nasa.gov/SEsearch/SEsearchmap.php?Ecl=%2B02971231","boundary":"center","name":"297-12-31 개기일식"},"geometry":{"type":"LineString","coordinates":[[-31.45618,-24.65718],[-31,-24.85755],[-30.5,-25.07764],[-30,-25.29767],[-29.5,-25.51759],[-29,-25.73739],[-28.5,-25.95702],[-28,-26.17648],[-27.5,-26.39572],[-27,-26.61472],[-26.5,-26.83345],[-26,-27.05188],[-25.5,-27.26997],[-25,-27.4877],[-24.5,-27.70503],[-24,-27.92194],[-23.5,-28.13839],[-23,-28.35435],[-22.5,-28.56978],[-22,-28.78466],[-21.5,-28.99895],[-21,-29.21261],[-20.5,-29.42562],[-20,-29.63793],[-19.5,-29.84952],[-19,-30.06034],[-18.5,-30.27037],[-18,-30.47957],[-17.5,-30.68791],[-17,-30.89534],[-16.5,-31.10184],[-16,-31.30737],[-15.5,-31.51189],[-15,-31.71537],[-14.5,-31.91777],[-14,-32.11906],[-13.5,-32.3192],[-13,-32.51816],[-12.5,-32.71589],[-12,-32.91238],[-11.5,-33.10757],[-11,-33.30144],[-10.5,-33.49395],[-10,-33.68507],[-9.5,-33.87476],[-9,-34.06298],[-8.5,-34.24972],[-8,-34.43492],[-7.5,-34.61856],[-7,-34.8006],[-6.5,-34.98102],[-6,-35.15977],[-5.5,-35.33684],[-5,-35.51217],[-4.5,-35.68576],[-4,-35.85756],[-3.5,-36.02754],[-3,-36.19568],[-2.5,-36.36194],[-2,-36.52629],[-1.5,-36.68872],[-1,-36.84918],[-0.5,-37.00766],[0,-37.16412],[0.5,-37.31854],[1,-37.47089],[1.5,-37.62114],[2,-37.76928],[2.5,-37.91528],[3,-38.05911],[3.5,-38.20075],[4,-38.34017],[4.5,-38.47736],[5,-38.6123],[5.5,-38.74495],[6,-38.8753],[6.5,-39.00333],[7,-39.12902],[7.5,-39.25234],[8,-39.37329],[8.5,-39.49184],[9,-39.60796],[9.5,-39.72166],[10,-39.8329],[10.5,-39.94167],[11,-40.04795],[11.5,-40.15172],[12,-40.25298],[12.5,-40.35169],[13,-40.44786],[13.5,-40.54146],[14,-40.63247],[14.5,-40.72089],[15,-40.8067],[15.5,-40.88987],[16,-40.97041],[16.5,-41.04829],[17,-41.1235],[17.5,-41.19603],[18,-41.26586],[18.5,-41.33298],[19,-41.39738],[19.5,-41.45904],[20,-41.51794],[20.5,-41.57409],[21,-41.62745],[21.5,-41.67803],[22,-41.7258],[22.5,-41.77075],[23,-41.81286],[23.5,-41.85214],[24,-41.88855],[24.5,-41.92209],[25,-41.95274],[25.5,-41.98048],[26,-42.00531],[26.5,-42.02721],[27,-42.04617],[27.5,-42.06216],[28,-42.07517],[28.5,-42.08519],[29,-42.09221],[29.5,-42.0962],[30,-42.09714],[30.5,-42.09503],[31,-42.08985],[31.5,-42.08157],[32,-42.07018],[32.5,-42.05567],[33,-42.03801],[33.5,-42.01718],[34,-41.99317],[34.5,-41.96595],[35,-41.93551],[35.5,-41.90183],[36,-41.86488],[36.5,-41.82465],[37,-41.78111],[37.5,-41.73424],[38,-41.68402],[38.5,-41.63043],[39,-41.57344],[39.5,-41.51303],[40,-41.44918],[40.5,-41.38186],[41,-41.31106],[41.5,-41.23673],[42,-41.15887],[42.5,-41.07745],[43,-40.99244],[43.5,-40.90381],[44,-40.81155],[44.5,-40.71562],[45,-40.616],[45.5,-40.51267],[46,-40.40559],[46.5,-40.29476],[47,-40.18013],[47.5,-40.06168],[48,-39.9394],[48.5,-39.81325],[49,-39.68322],[49.5,-39.54928],[50,-39.4114],[50.5,-39.26956],[51,-39.12375],[51.5,-38.97395],[52,-38.82012],[52.5,-38.66226],[53,-38.50035],[53.5,-38.33438],[54,-38.16432],[54.5,-37.99016],[55,-37.8119],[55.5,-37.62953],[56,-37.44303],[56.5,-37.25241],[57,-37.05765],[57.5,-36.85877],[58,-36.65576],[58.5,-36.44862],[59,-36.23737],[59.5,-36.02201],[60,-35.80257],[60.5,-35.57905],[61,-35.35148],[61.5,-35.11988],[62,-34.88428],[62.5,-34.64472],[63,-34.40123],[63.5,-34.15385],[64,-33.90262],[64.5,-33.6476],[65,-33.38883],[65.5,-33.12639],[66,-32.86032],[66.5,-32.59069],[67,-32.31759],[67.5,-32.04108],[68,-31.76124],[68.5,-31.47816],[69,-31.19193],[69.5,-30.90264],[70,-30.6104],[70.5,-30.31529],[71,-30.01744],[71.5,-29.71694],[72,-29.41391],[72.5,-29.10847],[73,-28.80073],[73.5,-28.49083],[74,-28.17887],[74.5,-27.86499],[75,-27.54931],[75.5,-27.23197],[76,-26.9131],[76.5,-26.59282],[77,-26.27127],[77.5,-25.94858],[78,-25.62489],[78.5,-25.30032],[79,-24.97501],[79.5,-24.64908],[80,-24.32267],[80.5,-23.9959],[81,-23.6689],[81.5,-23.34179],[82,-23.01469],[82.5,-22.68772],[83,-22.361],[83.5,-22.03463],[84,-21.70873],[84.5,-21.38341],[85,-21.05876],[85.5,-20.73489],[86,-20.41188],[86.5,-20.08985],[87,-19.76887],[87.5,-19.44902],[88,-19.1304],[88.5,-18.81307],[89,-18.49712],[89.5,-18.18261],[90,-17.86961],[90.5,-17.55818],[91,-17.24838],[91.5,-16.94028],[92,-16.63391],[92.5,-16.32934],[93,-16.02661],[93.5,-15.72576],[94,-15.42683],[94.5,-15.12986],[95,-14.83489],[95.5,-14.54195],[96,-14.25106],[96.5,-13.96226],[97,-13.67556],[97.5,-13.391],[98,-13.10859],[98.5,-12.82834],[99,-12.55028],[99.5,-12.27442],[100,-12.00076],[100.5,-11.72933],[101,-11.46013],[101.5,-11.19316],[102,-10.92844],[102.5,-10.66596],[103,-10.40573],[103.5,-10.14776],[104,-9.89203],[104.5,-9.63856],[105,-9.38733],[105.5,-9.13836],[106,-8.89162],[106.5,-8.64713],[107,-8.40487],[107.5,-8.16484],[108,-7.92703],[108.5,-7.69143],[109,-7.45804],[109.5,-7.22685],[110,-6.99785],[110.5,-6.77103],[111,-6.54638],[111.5,-6.3239],[112,-6.10356],[112.5,-5.88536],[112.73143,-5.78931]]}},{"type":"Feature","id":"+02971231:south:0","properties":{"id":"+02971231","year":297,"month":12,"day":31,"time_tdt":"11:15:04","type":"개기일식","type_code":"T","saros":75,"gamma":-0.28554,"magnitude":1.04039,"greatest":{"lat":-39.71678,"lng":48.87238},"path_width_km":141.2,"duration":"03m19s","delta_t_seconds":7665,"catalog_number":5479,"source":"NASA Five Millennium Canon of Solar Eclipses","source_url":"https://eclipse.gsfc.nasa.gov/SEsearch/SEsearchmap.php?Ecl=%2B02971231","boundary":"south","name":"297-12-31 개기일식"},"geometry":{"type":"LineString","coordinates":[[-31.70508,-24.97551],[-31.5,-25.06708],[-31,-25.29031],[-30.5,-25.51348],[-30,-25.73658],[-29.5,-25.95956],[-29,-26.18241],[-28.5,-26.40509],[-28,-26.62757],[-27.5,-26.84983],[-27,-27.07183],[-26.5,-27.29354],[-26,-27.51493],[-25.5,-27.73598],[-25,-27.95664],[-24.5,-28.17689],[-24,-28.39668],[-23.5,-28.616],[-23,-28.83481],[-22.5,-29.05307],[-22,-29.27074],[-21.5,-29.4878],[-21,-29.70421],[-20.5,-29.91994],[-20,-30.13494],[-19.5,-30.34919],[-19,-30.56264],[-18.5,-30.77528],[-18,-30.98704],[-17.5,-31.19791],[-17,-31.40785],[-16.5,-31.61681],[-16,-31.82477],[-15.5,-32.03169],[-15,-32.23752],[-14.5,-32.44225],[-14,-32.64582],[-13.5,-32.8482],[-13,-33.04936],[-12.5,-33.24927],[-12,-33.44787],[-11.5,-33.64515],[-11,-33.84107],[-10.5,-34.03558],[-10,-34.22866],[-9.5,-34.42027],[-9,-34.61037],[-8.5,-34.79894],[-8,-34.98594],[-7.5,-35.17133],[-7,-35.35508],[-6.5,-35.53716],[-6,-35.71754],[-5.5,-35.89619],[-5,-36.07307],[-4.5,-36.24816],[-4,-36.42141],[-3.5,-36.59282],[-3,-36.76233],[-2.5,-36.92993],[-2,-37.09559],[-1.5,-37.25927],[-1,-37.42096],[-0.5,-37.58062],[0,-37.73823],[0.5,-37.89376],[1,-38.04718],[1.5,-38.19848],[2,-38.34763],[2.5,-38.4946],[3,-38.63937],[3.5,-38.78192],[4,-38.92222],[4.5,-39.06026],[5,-39.19601],[5.5,-39.32946],[6,-39.46058],[6.5,-39.58935],[7,-39.71575],[7.5,-39.83977],[8,-39.96139],[8.5,-40.08059],[9,-40.19735],[9.5,-40.31166],[10,-40.42349],[10.5,-40.53283],[11,-40.63968],[11.5,-40.744],[12,-40.84579],[12.5,-40.94504],[13,-41.04172],[13.5,-41.13582],[14,-41.22733],[14.5,-41.31624],[15,-41.40253],[15.5,-41.48619],[16,-41.5672],[16.5,-41.64556],[17,-41.72124],[17.5,-41.79425],[18,-41.86455],[18.5,-41.93215],[19,-41.99703],[19.5,-42.05918],[20,-42.11859],[20.5,-42.17523],[21,-42.22911],[21.5,-42.2802],[22,-42.3285],[22.5,-42.374],[23,-42.41667],[23.5,-42.45651],[24,-42.49351],[24.5,-42.52765],[25,-42.55892],[25.5,-42.58731],[26,-42.61279],[26.5,-42.63537],[27,-42.65502],[27.5,-42.67173],[28,-42.68549],[28.5,-42.69628],[29,-42.70409],[29.5,-42.7089],[30,-42.71069],[30.5,-42.70945],[31,-42.70517],[31.5,-42.69783],[32,-42.6874],[32.5,-42.67388],[33,-42.65724],[33.5,-42.63747],[34,-42.61455],[34.5,-42.58846],[35,-42.55918],[35.5,-42.52669],[36,-42.49097],[36.5,-42.45201],[37,-42.40977],[37.5,-42.36424],[38,-42.3154],[38.5,-42.26322],[39,-42.20769],[39.5,-42.14878],[40,-42.08646],[40.5,-42.02072],[41,-41.95152],[41.5,-41.87886],[42,-41.80269],[42.5,-41.723],[43,-41.63976],[43.5,-41.55295],[44,-41.46254],[44.5,-41.36851],[45,-41.27082],[45.5,-41.16946],[46,-41.0644],[46.5,-40.95561],[47,-40.84307],[47.5,-40.72675],[48,-40.60662],[48.5,-40.48267],[49,-40.35486],[49.5,-40.22318],[50,-40.08759],[50.5,-39.94807],[51,-39.80461],[51.5,-39.65717],[52,-39.50574],[52.5,-39.3503],[53,-39.19083],[53.5,-39.02731],[54,-38.85972],[54.5,-38.68804],[55,-38.51227],[55.5,-38.33239],[56,-38.14839],[56.5,-37.96026],[57,-37.76799],[57.5,-37.57159],[58,-37.37104],[58.5,-37.16635],[59,-36.95753],[59.5,-36.74457],[60,-36.52749],[60.5,-36.30631],[61,-36.08102],[61.5,-35.85167],[62,-35.61826],[62.5,-35.38082],[63,-35.13939],[63.5,-34.89401],[64,-34.6447],[64.5,-34.39151],[65,-34.13449],[65.5,-33.8737],[66,-33.60918],[66.5,-33.341],[67,-33.06923],[67.5,-32.79393],[68,-32.51519],[68.5,-32.23307],[69,-31.94767],[69.5,-31.65908],[70,-31.36738],[70.5,-31.07267],[71,-30.77506],[71.5,-30.47465],[72,-30.17155],[72.5,-29.86587],[73,-29.55774],[73.5,-29.24726],[74,-28.93456],[74.5,-28.61977],[75,-28.30301],[75.5,-27.98441],[76,-27.66411],[76.5,-27.34223],[77,-27.01891],[77.5,-26.69428],[78,-26.36848],[78.5,-26.04163],[79,-25.71388],[79.5,-25.38536],[80,-25.05619],[80.5,-24.72652],[81,-24.39646],[81.5,-24.06615],[82,-23.73571],[82.5,-23.40527],[83,-23.07494],[83.5,-22.74485],[84,-22.41511],[84.5,-22.08582],[85,-21.75711],[85.5,-21.42907],[86,-21.1018],[86.5,-20.77541],[87,-20.44999],[87.5,-20.12562],[88,-19.80241],[88.5,-19.48042],[89,-19.15975],[89.5,-18.84046],[90,-18.52262],[90.5,-18.20632],[91,-17.8916],[91.5,-17.57854],[92,-17.26719],[92.5,-16.9576],[93,-16.64983],[93.5,-16.34392],[94,-16.03992],[94.5,-15.73787],[95,-15.43781],[95.5,-15.13977],[96,-14.84379],[96.5,-14.54989],[97,-14.25811],[97.5,-13.96846],[98,-13.68098],[98.5,-13.39568],[99,-13.11257],[99.5,-12.83169],[100,-12.55303],[100.5,-12.27662],[101,-12.00246],[101.5,-11.73056],[102,-11.46093],[102.5,-11.19358],[103,-10.9285],[103.5,-10.66571],[104,-10.4052],[104.5,-10.14697],[105,-9.89103],[105.5,-9.63736],[106,-9.38598],[106.5,-9.13687],[107,-8.89004],[107.5,-8.64546],[108,-8.40315],[108.5,-8.16309],[109,-7.92528],[109.5,-7.6897],[110,-7.45635],[110.5,-7.22522],[111,-6.9963],[111.5,-6.76958],[112,-6.54505],[112.5,-6.3227],[112.94531,-6.12649]]}}],"attribution":"Eclipse Predictions by Fred Espenak and Jean Meeus (NASA's GSFC)","generated_at":"2026-09-23T01:44:48.883Z"}
