{"type":"FeatureCollection","year":304,"events":[{"id":"+03040222","year":304,"month":2,"day":22,"time_tdt":"10:09:17","type":"부분일식","type_code":"P","saros":64,"gamma":1.10311,"magnitude":0.78506,"greatest":{"lat":71.19971,"lng":5.80267},"path_width_km":0,"duration":"00m00s","delta_t_seconds":7605.7,"catalog_number":5493,"source":"NASA Five Millennium Canon of Solar Eclipses","source_url":"https://eclipse.gsfc.nasa.gov/SEsearch/SEsearchmap.php?Ecl=%2B03040222"},{"id":"+03040817","year":304,"month":8,"day":17,"time_tdt":"22:33:03","type":"부분일식","type_code":"P","saros":69,"gamma":-1.01447,"magnitude":0.97046,"greatest":{"lat":-70.65717,"lng":-173.06866},"path_width_km":0,"duration":"00m00s","delta_t_seconds":7601,"catalog_number":5494,"source":"NASA Five Millennium Canon of Solar Eclipses","source_url":"https://eclipse.gsfc.nasa.gov/SEsearch/SEsearchmap.php?Ecl=%2B03040817"}],"features":[],"attribution":"Eclipse Predictions by Fred Espenak and Jean Meeus (NASA's GSFC)","generated_at":"2026-09-23T01:44:48.277Z"}
