{"type":"FeatureCollection","year":307,"events":[{"id":"+03070120","year":307,"month":1,"day":20,"time_tdt":"20:48:20","type":"부분일식","type_code":"P","saros":94,"gamma":-1.04548,"magnitude":0.92434,"greatest":{"lat":-68.702,"lng":63.00903},"path_width_km":0,"duration":"00m00s","delta_t_seconds":7577.5,"catalog_number":5499,"source":"NASA Five Millennium Canon of Solar Eclipses","source_url":"https://eclipse.gsfc.nasa.gov/SEsearch/SEsearchmap.php?Ecl=%2B03070120"},{"id":"+03070716","year":307,"month":7,"day":16,"time_tdt":"09:55:38","type":"부분일식","type_code":"P","saros":99,"gamma":1.20308,"magnitude":0.6164,"greatest":{"lat":67.90773,"lng":-127.01788},"path_width_km":0,"duration":"00m00s","delta_t_seconds":7572.8,"catalog_number":5500,"source":"NASA Five Millennium Canon of Solar Eclipses","source_url":"https://eclipse.gsfc.nasa.gov/SEsearch/SEsearchmap.php?Ecl=%2B03070716"},{"id":"+03071211","year":307,"month":12,"day":11,"time_tdt":"21:47:09","type":"부분일식","type_code":"P","saros":66,"gamma":1.03076,"magnitude":0.92173,"greatest":{"lat":64.79619,"lng":-92.06769},"path_width_km":0,"duration":"00m00s","delta_t_seconds":7568.9,"catalog_number":5501,"source":"NASA Five Millennium Canon of Solar Eclipses","source_url":"https://eclipse.gsfc.nasa.gov/SEsearch/SEsearchmap.php?Ecl=%2B03071211"}],"features":[],"attribution":"Eclipse Predictions by Fred Espenak and Jean Meeus (NASA's GSFC)","generated_at":"2026-09-23T01:44:48.297Z"}
