{"type":"FeatureCollection","year":310,"events":[{"id":"+03100515","year":310,"month":5,"day":15,"time_tdt":"16:34:57","type":"개기일식","type_code":"T","saros":91,"gamma":0.78039,"magnitude":1.05963,"greatest":{"lat":63.92233,"lng":-76.36322},"path_width_km":312.9,"duration":"03m41s","delta_t_seconds":7545.4,"catalog_number":5506,"source":"NASA Five Millennium Canon of Solar Eclipses","source_url":"https://eclipse.gsfc.nasa.gov/SEsearch/SEsearchmap.php?Ecl=%2B03100515"},{"id":"+03101108","year":310,"month":11,"day":8,"time_tdt":"02:47:32","type":"금환일식","type_code":"As","saros":96,"gamma":-0.98099,"magnitude":0.94048,"greatest":{"lat":-67.266,"lng":62.64771},"path_width_km":0,"duration":"03m43s","delta_t_seconds":7540.8,"catalog_number":5507,"source":"NASA Five Millennium Canon of Solar Eclipses","source_url":"https://eclipse.gsfc.nasa.gov/SEsearch/SEsearchmap.php?Ecl=%2B03101108"}],"features":[{"type":"Feature","id":"+03100515:north:0","properties":{"id":"+03100515","year":310,"month":5,"day":15,"time_tdt":"16:34:57","type":"개기일식","type_code":"T","saros":91,"gamma":0.78039,"magnitude":1.05963,"greatest":{"lat":63.92233,"lng":-76.36322},"path_width_km":312.9,"duration":"03m41s","delta_t_seconds":7545.4,"catalog_number":5506,"source":"NASA Five Millennium Canon of Solar Eclipses","source_url":"https://eclipse.gsfc.nasa.gov/SEsearch/SEsearchmap.php?Ecl=%2B03100515","boundary":"north","name":"310-05-15 개기일식"},"geometry":{"type":"LineString","coordinates":[[-124.8457,30.63771],[-124.5,30.76296],[-124,30.94741],[-123.5,31.13582],[-123,31.32826],[-122.5,31.52479],[-122.5,31.5248],[-122,31.72548],[-121.5,31.93038],[-121,32.13956],[-120.5,32.35309],[-120,32.57104],[-119.5,32.79348],[-119,33.02047],[-118.5,33.25209],[-118,33.48841],[-117.5,33.7295],[-117.5,33.72951],[-117,33.97544],[-117,33.97545],[-116.5,34.22631],[-116,34.48216],[-115.5,34.74309],[-115,35.00917],[-114.5,35.28047],[-114,35.55707],[-113.5,35.83905],[-113,36.12648],[-112.5,36.41943],[-112,36.71798],[-111.5,37.02221],[-111,37.33217],[-110.5,37.64795],[-110,37.9696],[-109.5,38.29719],[-109,38.63078],[-108.5,38.97042],[-108,39.31617],[-107.5,39.66807],[-107,40.02615],[-106.5,40.39045],[-106,40.76099],[-105.5,41.13779],[-105,41.52085],[-104.5,41.91017],[-104,42.30573],[-103.5,42.7075],[-103,43.11543],[-102.5,43.52947],[-102,43.94953],[-101.5,44.37553],[-101,44.80736],[-100.5,45.24487],[-100,45.68792],[-99.5,46.13633],[-99,46.5899],[-98.5,47.04842],[-98,47.51163],[-97.5,47.97927],[-97,48.45104],[-96.5,48.92662],[-96,49.40568],[-95.5,49.88784],[-95,50.37272],[-94.5,50.85992],[-94,51.34899],[-93.5,51.83952],[-93,52.33102],[-92.5,52.82305],[-92,53.31511],[-91.5,53.80672],[-91.5,53.80673],[-91,54.29741],[-90.5,54.78669],[-90,55.27407],[-89.5,55.75908],[-89,56.24127],[-88.5,56.72018],[-88.5,56.72019],[-88,57.19539],[-87.5,57.66648],[-87,58.13306],[-86.5,58.59477],[-86,59.05126],[-85.5,59.50222],[-85,59.94735],[-85,59.94736],[-84.5,60.38641],[-84,60.81915],[-83.5,61.24537],[-83,61.66489],[-82.5,62.07756],[-82,62.48324],[-81.5,62.88185],[-81,63.27329],[-80.5,63.65751],[-80,64.03448],[-79.5,64.40418],[-79,64.7666],[-78.5,65.12177],[-78,65.46972],[-77.5,65.81049],[-77,66.14413],[-77,66.14414],[-76.5,66.47073],[-76,66.79036],[-75.5,67.10309],[-75,67.40904],[-74.5,67.70829],[-74,68.00095],[-73.5,68.28713],[-73,68.56695],[-72.5,68.84053],[-72,69.10797],[-71.5,69.36941],[-71,69.62497],[-70.5,69.87476],[-70,70.11891],[-69.5,70.35755],[-69.5,70.35754],[-69,70.59078],[-68.5,70.81875],[-68,71.04156],[-67.5,71.25934],[-67,71.4722],[-66.5,71.68026],[-66.5,71.68025],[-66,71.88363],[-65.5,72.08242],[-65,72.27675],[-64.5,72.46672],[-64,72.65244],[-63.5,72.83401],[-63,73.01154],[-62.5,73.18511],[-62,73.35483],[-61.5,73.5208],[-61,73.6831],[-60.5,73.84182],[-60,73.99706],[-60,73.99705],[-59.5,74.14889],[-59,74.2974],[-58.5,74.44267],[-58,74.58478],[-57.5,74.7238],[-57,74.85981],[-56.5,74.99289],[-56,75.1231],[-55.5,75.25051],[-55,75.37518],[-54.5,75.49719],[-54,75.61659],[-53.5,75.73345],[-53,75.84783],[-52.5,75.95977],[-52,76.06934],[-51.5,76.1766],[-51,76.28159],[-50.5,76.38437],[-50,76.48498],[-49.5,76.58348],[-49,76.67992],[-48.5,76.77432],[-48,76.86676],[-47.5,76.95725],[-47,77.04585],[-46.5,77.1326],[-46,77.21754],[-45.5,77.3007],[-45,77.38212],[-44.5,77.46184],[-44,77.53989],[-43.5,77.61631],[-43,77.69113],[-42.5,77.76438],[-42,77.8361],[-41.5,77.90631],[-41,77.97504],[-40.5,78.04233],[-40,78.10819],[-39.5,78.17267],[-39,78.23577],[-38.5,78.29753],[-38,78.35798],[-37.5,78.41713],[-37,78.47501],[-36.5,78.53165],[-36,78.58706],[-35.5,78.64127],[-35,78.69429],[-34.5,78.74616],[-34,78.79688],[-33.5,78.84647],[-33,78.89496],[-32.5,78.94237],[-32,78.9887],[-31.5,79.03398],[-31,79.07822],[-30.5,79.12145],[-30,79.16367],[-29.5,79.20489],[-29,79.24515],[-28.5,79.28444],[-28,79.32279],[-27.5,79.3602],[-27,79.39669],[-26.5,79.43227],[-26,79.46695],[-25.5,79.50075],[-25,79.53368],[-24.5,79.56575],[-24,79.59696],[-23.5,79.62734],[-23,79.65688],[-22.5,79.68561],[-22,79.71352],[-21.5,79.74063],[-21,79.76695],[-20.5,79.79248],[-20,79.81724],[-19.5,79.84123],[-19,79.86446],[-18.5,79.88694],[-18,79.90867],[-17.5,79.92966],[-17,79.94992],[-16.5,79.96945],[-16,79.98827],[-15.5,80.00637],[-15,80.02376],[-14.5,80.04045],[-14,80.05645],[-13.5,80.07175],[-13,80.08636],[-13,80.08637],[-12.5,80.1003],[-12,80.11355],[-11.5,80.12613],[-11,80.13805],[-10.5,80.14929],[-10,80.15987],[-9.5,80.1698],[-9,80.17906],[-8.5,80.18768],[-8,80.19564],[-7.5,80.20296],[-7,80.20963],[-6.5,80.21565],[-6,80.22104],[-5.5,80.22578],[-5,80.22989],[-4.5,80.23336],[-4,80.2362],[-3.5,80.2384],[-3,80.23997],[-2.5,80.24091],[-2,80.24122],[-1.5,80.24089],[-1,80.23993],[-0.5,80.23834],[0,80.23612],[0.5,80.23327],[1,80.22979],[1.5,80.22567],[2,80.22092],[2.5,80.21553],[3,80.20951],[3.5,80.20285],[4,80.19555],[4.5,80.18761],[5,80.17903],[5.5,80.1698],[6,80.15993],[6.5,80.1494],[7,80.13823],[7.5,80.12639],[7.5,80.1264],[8,80.1139],[8,80.11391],[8.5,80.10075],[9,80.08694],[9.5,80.07245],[10,80.0573],[10.5,80.04146],[11,80.02495],[11.5,80.00775],[12,79.98987],[12.5,79.97129],[13,79.95201],[13.5,79.93202],[14,79.91133],[14.5,79.88992],[15,79.86779],[15.5,79.84494],[16,79.82135],[16.5,79.79702],[17,79.77195],[17.5,79.74612],[18,79.71953],[18.5,79.69218],[19,79.66405],[19.5,79.63514],[20,79.60544],[20.5,79.57494],[21,79.54363],[21.5,79.5115],[22,79.47855],[22.5,79.44477],[23,79.41014],[23.5,79.37465],[24,79.33831],[24.5,79.30108],[25,79.26298],[25.5,79.22397],[26,79.18406],[26.5,79.14324],[27,79.10148],[27.5,79.05877],[28,79.01512],[28.5,78.97049],[29,78.92489],[29.5,78.87829],[30,78.83068],[30.5,78.78205],[31,78.73238],[31.5,78.68167],[32,78.62989],[32.5,78.57702],[33,78.52306],[33.5,78.46799],[34,78.41179],[34.5,78.35444],[35,78.29593],[35.5,78.23624],[36,78.17535],[36.5,78.11325],[37,78.04991],[37.5,77.98532],[38,77.91945],[38.5,77.85229],[39,77.78382],[39.5,77.71401],[40,77.64285],[40.5,77.57031],[41,77.49638],[41.5,77.42102],[42,77.34423],[42.5,77.26597],[43,77.18622],[43.5,77.10496],[44,77.02217],[44.5,76.93782],[45,76.85188],[45.5,76.76433],[46,76.67515],[46.5,76.58431],[47,76.49179],[47.5,76.39755],[48,76.30157],[48.5,76.20383],[49,76.10429],[49.5,76.00294],[50,75.89974],[50.5,75.79466],[51,75.68768],[51.5,75.57877],[52,75.46789],[52.5,75.35503],[52.5,75.35504],[53,75.24016],[53.5,75.12324],[54,75.00424],[54.5,74.88315],[55,74.75992],[55.5,74.63454],[56,74.50697],[56.5,74.37719],[57,74.24517],[57.5,74.11087],[58,73.97429],[58.5,73.83538],[59,73.69412],[59,73.69413],[59.5,73.5505],[60,73.40447],[60.5,73.25603],[61,73.10514],[61.5,72.95179],[62,72.79595],[62.5,72.6376],[63,72.47672],[63.5,72.3133],[64,72.14732],[64.5,71.97877],[65,71.80762],[65.5,71.63387],[66,71.45751],[66.5,71.27852],[67,71.09691],[67.5,70.91266],[68,70.72576],[68.5,70.53623],[69,70.34406],[69.5,70.14925],[70,69.95181],[70.5,69.75174],[71,69.54906],[71,69.54905],[71.5,69.34377],[72,69.13589],[72.5,68.92543],[73,68.71242],[73.5,68.49688],[74,68.27883],[74.5,68.0583],[75,67.83531],[75.5,67.6099],[76,67.38211],[76.5,67.15197],[77,66.91951],[77.5,66.68479],[78,66.44783],[78.5,66.2087],[79,65.96744],[79.5,65.7241],[80,65.47873],[80.5,65.23139],[81,64.98213],[81.5,64.73101],[81.63281,64.66401]]}},{"type":"Feature","id":"+03100515:center:0","properties":{"id":"+03100515","year":310,"month":5,"day":15,"time_tdt":"16:34:57","type":"개기일식","type_code":"T","saros":91,"gamma":0.78039,"magnitude":1.05963,"greatest":{"lat":63.92233,"lng":-76.36322},"path_width_km":312.9,"duration":"03m41s","delta_t_seconds":7545.4,"catalog_number":5506,"source":"NASA Five Millennium Canon of Solar Eclipses","source_url":"https://eclipse.gsfc.nasa.gov/SEsearch/SEsearchmap.php?Ecl=%2B03100515","boundary":"center","name":"310-05-15 개기일식"},"geometry":{"type":"LineString","coordinates":[[-123.92642,29.5743],[-123.5,29.70218],[-123,29.88229],[-122.5,30.06622],[-122,30.25402],[-121.5,30.44574],[-121,30.64145],[-120.5,30.84121],[-120,31.04508],[-119.5,31.25312],[-119,31.46538],[-118.5,31.68195],[-118,31.90287],[-117.5,32.12822],[-117,32.35806],[-116.5,32.59245],[-116,32.83147],[-115.5,33.07519],[-115,33.32366],[-114.5,33.57697],[-114,33.83517],[-113.5,34.09835],[-113,34.36656],[-112.5,34.63987],[-112,34.91836],[-111.5,35.20209],[-111,35.49112],[-110.5,35.78553],[-110,36.08537],[-110,36.08538],[-109.5,36.39071],[-109,36.70161],[-108.5,37.01812],[-108,37.34029],[-107.5,37.66817],[-107,38.00182],[-106.5,38.34126],[-106,38.68654],[-105.5,39.03768],[-105,39.39471],[-104.5,39.75763],[-104,40.12646],[-103.5,40.50119],[-103,40.8818],[-102.5,41.26827],[-102,41.66057],[-101.5,42.05863],[-101,42.46241],[-100.5,42.87181],[-100,43.28675],[-99.5,43.7071],[-99,44.13274],[-98.5,44.56353],[-98,44.99928],[-97.5,45.43981],[-97,45.88492],[-96.5,46.33436],[-96,46.78789],[-95.5,47.24524],[-95,47.7061],[-94.5,48.17017],[-94,48.63711],[-93.5,49.10656],[-93,49.57816],[-92.5,50.05151],[-92,50.52622],[-91.5,51.00187],[-91,51.47804],[-90.5,51.9543],[-90,52.43021],[-89.5,52.90534],[-89,53.37924],[-88.5,53.85149],[-88,54.32165],[-87.5,54.78931],[-87,55.25407],[-86.5,55.71553],[-86,56.17331],[-85.5,56.62706],[-85,57.07644],[-84.5,57.52113],[-84,57.96084],[-83.5,58.3953],[-83,58.82425],[-82.5,59.24748],[-82,59.66478],[-81.5,60.07598],[-81,60.48093],[-80.5,60.87949],[-80,61.27155],[-79.5,61.65704],[-79,62.03588],[-78.5,62.40802],[-78,62.77343],[-77.5,63.13209],[-77,63.48401],[-76.5,63.82921],[-76,64.1677],[-75.5,64.49953],[-75,64.82474],[-74.5,65.1434],[-74,65.45557],[-73.5,65.76133],[-73,66.06075],[-72.5,66.35393],[-72,66.64096],[-71.5,66.92193],[-71,67.19694],[-70.5,67.46609],[-70,67.72949],[-69.5,67.98725],[-69,68.23946],[-68.5,68.48624],[-68,68.7277],[-67.5,68.96395],[-67,69.19508],[-66.5,69.42122],[-66,69.64246],[-65.5,69.85892],[-65,70.0707],[-64.5,70.27789],[-64,70.48061],[-63.5,70.67896],[-63,70.87303],[-62.5,71.06291],[-62,71.24872],[-61.5,71.43053],[-61,71.60844],[-60.5,71.78254],[-60,71.95292],[-59.5,72.11967],[-59,72.28286],[-58.5,72.44258],[-58,72.59891],[-57.5,72.75193],[-57,72.90171],[-56.5,73.04833],[-56.5,73.04832],[-56,73.19185],[-55.5,73.33236],[-55,73.46992],[-54.5,73.6046],[-54,73.73645],[-53.5,73.86555],[-53,73.99196],[-52.5,74.11573],[-52,74.23693],[-51.5,74.35561],[-51,74.47183],[-50.5,74.58564],[-50,74.69709],[-49.5,74.80623],[-49,74.91312],[-48.5,75.01781],[-48,75.12033],[-47.5,75.22073],[-47,75.31907],[-46.5,75.41538],[-46,75.5097],[-45.5,75.60207],[-45,75.69254],[-44.5,75.78114],[-44,75.86791],[-43.5,75.95289],[-43,76.03611],[-42.5,76.11761],[-42,76.19741],[-41.5,76.27556],[-41,76.35208],[-40.5,76.42701],[-40.5,76.427],[-40,76.50036],[-39.5,76.57219],[-39,76.6425],[-38.5,76.71133],[-38,76.77871],[-37.5,76.84466],[-37,76.90921],[-36.5,76.97237],[-36,77.03418],[-35.5,77.09466],[-35,77.15383],[-34.5,77.21171],[-34,77.26833],[-33.5,77.3237],[-33,77.37784],[-32.5,77.43078],[-32,77.48253],[-31.5,77.53311],[-31,77.58254],[-30.5,77.63084],[-30,77.67802],[-29.5,77.7241],[-29,77.76909],[-28.5,77.81302],[-28,77.85589],[-27.5,77.89772],[-27.5,77.89773],[-27,77.93853],[-26.5,77.97833],[-26,78.01712],[-26,78.01713],[-25.5,78.05494],[-25,78.09178],[-24.5,78.12765],[-24.5,78.12766],[-24,78.16258],[-24,78.16259],[-23.5,78.19658],[-23,78.22964],[-22.5,78.26179],[-22,78.29304],[-21.5,78.32339],[-21,78.35286],[-20.5,78.38144],[-20,78.40917],[-19.5,78.43603],[-19,78.46205],[-18.5,78.48722],[-18,78.51156],[-17.5,78.53507],[-17,78.55777],[-16.5,78.57965],[-16,78.60073],[-15.5,78.62102],[-15,78.64051],[-14.5,78.65921],[-14,78.67714],[-13.5,78.69429],[-13,78.71067],[-12.5,78.72629],[-12,78.74115],[-11.5,78.75526],[-11,78.76861],[-10.5,78.78122],[-10,78.79309],[-9.5,78.80422],[-9,78.81462],[-8.5,78.82429],[-8,78.83323],[-7.5,78.84144],[-7,78.84893],[-6.5,78.8557],[-6,78.86175],[-5.5,78.86709],[-5,78.87171],[-4.5,78.87562],[-4,78.87882],[-3.5,78.88132],[-3,78.8831],[-2.5,78.88418],[-2,78.88455],[-1.5,78.88421],[-1,78.88317],[-0.5,78.88142],[0,78.87896],[0.5,78.8758],[1,78.87194],[1.5,78.86736],[1.5,78.86737],[2,78.86208],[2.5,78.85609],[3,78.84939],[3.5,78.84198],[4,78.83386],[4.5,78.82502],[5,78.81546],[5.5,78.80519],[6,78.79419],[6.5,78.78247],[7,78.77002],[7.5,78.75685],[8,78.74294],[8.5,78.72829],[9,78.71291],[9.5,78.69678],[10,78.67991],[10.5,78.66228],[11,78.6439],[11.5,78.62476],[12,78.60486],[12.5,78.58418],[13,78.56274],[13.5,78.54051],[14,78.51749],[14.5,78.49369],[15,78.46909],[15.5,78.44368],[16,78.41746],[16.5,78.39043],[17,78.36258],[17.5,78.33389],[18,78.30437],[18.5,78.274],[19,78.24278],[19.5,78.2107],[20,78.17774],[20.5,78.14391],[21,78.1092],[21.5,78.07359],[22,78.03707],[22.5,77.99964],[23,77.96129],[23.5,77.922],[24,77.88177],[24.5,77.84058],[25,77.79843],[25.5,77.7553],[26,77.71118],[26.5,77.66607],[27,77.61994],[27.5,77.57279],[28,77.5246],[28.5,77.47536],[29,77.42506],[29.5,77.37369],[30,77.32123],[30.5,77.26766],[31,77.21298],[31.5,77.15717],[32,77.10021],[32.5,77.04209],[33,76.98279],[33.5,76.9223],[34,76.8606],[34.5,76.79768],[35,76.73351],[35.5,76.66809],[36,76.60139],[36.5,76.53339],[37,76.46409],[37.5,76.39345],[38,76.32147],[38.5,76.24812],[39,76.17338],[39.5,76.09724],[40,76.01967],[40.5,75.94066],[41,75.86018],[41.5,75.77821],[42,75.69474],[42.5,75.60974],[43,75.52319],[43.5,75.43507],[44,75.34535],[44.5,75.25402],[45,75.16105],[45.5,75.06642],[46,74.97011],[46.5,74.87209],[47,74.77235],[47.5,74.67085],[48,74.56757],[48.5,74.4625],[49,74.3556],[49.5,74.24686],[50,74.13625],[50.5,74.02374],[51,73.90932],[51.5,73.79296],[52,73.67463],[52.5,73.55431],[53,73.43199],[53.5,73.30763],[54,73.18122],[54.5,73.05272],[55,72.92213],[55.5,72.78941],[56,72.65455],[56.5,72.51753],[57,72.37832],[57.5,72.2369],[58,72.09326],[58.5,71.94737],[59,71.79923],[59.5,71.64881],[60,71.49609],[60.5,71.34106],[61,71.18371],[61.5,71.02402],[62,70.86198],[62.5,70.69758],[63,70.5308],[63.5,70.36165],[64,70.19011],[64.5,70.01618],[65,69.83985],[65.5,69.66112],[66,69.47998],[66.5,69.29644],[66.5,69.29645],[67,69.11051],[67.5,68.92217],[68,68.73145],[68.5,68.53834],[69,68.34285],[69.5,68.145],[70,67.9448],[70.5,67.74226],[71,67.53741],[71.5,67.33025],[72,67.12081],[72.5,66.90911],[73,66.69518],[73.5,66.47904],[74,66.26073],[74.5,66.04027],[74.5,66.04026],[75,65.81769],[75.5,65.59304],[75.5,65.59303],[76,65.36634],[76.5,65.13764],[77,64.90697],[77.5,64.67438],[78,64.43992],[78.5,64.20362],[79,63.96553],[79.12518,63.85819]]}},{"type":"Feature","id":"+03100515:south:0","properties":{"id":"+03100515","year":310,"month":5,"day":15,"time_tdt":"16:34:57","type":"개기일식","type_code":"T","saros":91,"gamma":0.78039,"magnitude":1.05963,"greatest":{"lat":63.92233,"lng":-76.36322},"path_width_km":312.9,"duration":"03m41s","delta_t_seconds":7545.4,"catalog_number":5506,"source":"NASA Five Millennium Canon of Solar Eclipses","source_url":"https://eclipse.gsfc.nasa.gov/SEsearch/SEsearchmap.php?Ecl=%2B03100515","boundary":"south","name":"310-05-15 개기일식"},"geometry":{"type":"LineString","coordinates":[[-122.875,28.54963],[-122.5,28.67945],[-122,28.85573],[-121.5,29.0357],[-121,29.2194],[-120.5,29.40689],[-120,29.59822],[-120,29.59823],[-119.5,29.79346],[-119,29.99265],[-118.5,30.19585],[-118,30.40313],[-117.5,30.61453],[-117,30.83013],[-116.5,31.04997],[-116,31.27413],[-115.5,31.50266],[-115,31.73563],[-114.5,31.97309],[-114,32.21512],[-113.5,32.46177],[-113,32.7131],[-112.5,32.96919],[-112,33.23009],[-111.5,33.49587],[-111,33.76659],[-110.5,34.04231],[-110,34.32309],[-109.5,34.60899],[-109,34.90007],[-108.5,35.19638],[-108,35.49798],[-107.5,35.80492],[-107,36.11725],[-106.5,36.43501],[-106,36.75825],[-105.5,37.087],[-105,37.42128],[-104.5,37.76114],[-104,38.10659],[-103.5,38.45764],[-103,38.8143],[-103,38.81429],[-102.5,39.17656],[-102,39.54442],[-101.5,39.91786],[-101,40.29683],[-100.5,40.68131],[-100,41.07123],[-99.5,41.46653],[-99,41.86713],[-98.5,42.27292],[-98,42.68379],[-97.5,43.09962],[-97,43.52025],[-96.5,43.94553],[-96,44.37527],[-95.5,44.80927],[-95,45.24732],[-94.5,45.68916],[-94,46.13455],[-93.5,46.58321],[-93,47.03484],[-92.5,47.48914],[-92,47.94577],[-91.5,48.4044],[-91.5,48.40439],[-91,48.86466],[-91,48.86465],[-90.5,49.32618],[-90,49.7886],[-89.5,50.25151],[-89,50.71452],[-88.5,51.17724],[-88,51.63927],[-87.5,52.1002],[-87,52.55964],[-86.5,53.01719],[-86,53.47248],[-85.5,53.92514],[-85,54.37479],[-84.5,54.82109],[-84,55.26371],[-83.5,55.70234],[-83,56.13669],[-82.5,56.56646],[-82,56.99142],[-81.5,57.41132],[-81,57.82595],[-80.5,58.23512],[-80,58.63865],[-79.5,59.0364],[-79,59.42823],[-78.5,59.81403],[-78,60.19371],[-77.5,60.5672],[-77,60.93444],[-76.5,61.29539],[-76,61.65002],[-75.5,61.99832],[-75,62.3403],[-74.5,62.67597],[-74,63.00535],[-73.5,63.32848],[-73,63.64541],[-72.5,63.95618],[-72,64.26086],[-72,64.26085],[-71.5,64.55951],[-71,64.8522],[-70.5,65.13902],[-70,65.42005],[-69.5,65.69537],[-69,65.96506],[-68.5,66.22923],[-68,66.48795],[-67.5,66.74134],[-67,66.98948],[-66.5,67.23247],[-66,67.4704],[-65.5,67.70339],[-65.5,67.70338],[-65,67.93151],[-64.5,68.15487],[-64,68.37357],[-63.5,68.5877],[-63,68.79735],[-62.5,69.00262],[-62,69.20361],[-61.5,69.4004],[-61,69.59308],[-60.5,69.78174],[-60,69.96647],[-59.5,70.14736],[-59,70.32448],[-58.5,70.49792],[-58,70.66776],[-57.5,70.83408],[-57,70.99696],[-56.5,71.15647],[-56,71.31268],[-55.5,71.46567],[-55,71.6155],[-54.5,71.76225],[-54,71.90598],[-53.5,72.04677],[-53,72.18466],[-52.5,72.31972],[-52,72.45202],[-51.5,72.58162],[-51,72.70856],[-50.5,72.83291],[-50,72.95472],[-49.5,73.07405],[-49,73.19095],[-48.5,73.30546],[-48,73.41763],[-47.5,73.52752],[-47,73.63518],[-46.5,73.74063],[-46,73.84394],[-45.5,73.94514],[-45,74.04428],[-44.5,74.14139],[-44,74.23651],[-43.5,74.32969],[-43,74.42096],[-42.5,74.51036],[-42,74.59792],[-41.5,74.68368],[-41.5,74.68367],[-41,74.76766],[-40.5,74.84991],[-40,74.93046],[-39.5,75.00934],[-39,75.08656],[-38.5,75.16218],[-38,75.23621],[-37.5,75.30868],[-37,75.37962],[-36.5,75.44906],[-36,75.51701],[-35.5,75.58351],[-35,75.64858],[-34.5,75.71224],[-34,75.77452],[-33.5,75.83543],[-33,75.89501],[-32.5,75.95326],[-32,76.01021],[-31.5,76.06589],[-31,76.1203],[-30.5,76.17347],[-30,76.22542],[-29.5,76.27616],[-29,76.32571],[-28.5,76.37409],[-28,76.42131],[-27.5,76.4674],[-27,76.51236],[-26.5,76.5562],[-26,76.59896],[-25.5,76.64062],[-25,76.68123],[-24.5,76.72077],[-24,76.75928],[-23.5,76.79675],[-23,76.8332],[-22.5,76.86865],[-22,76.90311],[-21.5,76.93657],[-21,76.96907],[-20.5,77.0006],[-20,77.03118],[-19.5,77.06081],[-19,77.08951],[-18.5,77.11728],[-18,77.14414],[-17.5,77.17009],[-17,77.19513],[-16.5,77.21928],[-16,77.24255],[-15.5,77.26494],[-15,77.28645],[-14.5,77.3071],[-14,77.3269],[-13.5,77.34583],[-13,77.36393],[-12.5,77.38118],[-12,77.39759],[-11.5,77.41318],[-11,77.42794],[-10.5,77.44187],[-10,77.45499],[-9.5,77.4673],[-9,77.4788],[-8.5,77.48949],[-8,77.49938],[-7.5,77.50847],[-7,77.51677],[-6.5,77.52427],[-6,77.53099],[-5.5,77.53691],[-5,77.54205],[-4.5,77.54641],[-4,77.54998],[-3.5,77.55277],[-3,77.55478],[-2.5,77.55602],[-2,77.55647],[-1.5,77.55615],[-1,77.55506],[-0.5,77.55318],[0,77.55054],[0.5,77.54711],[1,77.54291],[1.5,77.53793],[2,77.53217],[2.5,77.52564],[3,77.51833],[3.5,77.51023],[4,77.50135],[4.5,77.49169],[5,77.48124],[5.5,77.47],[6,77.45797],[6.5,77.44515],[7,77.43154],[7.5,77.41712],[8,77.4019],[8.5,77.38588],[9,77.36905],[9.5,77.3514],[10,77.33294],[10.5,77.31366],[11,77.29355],[11.5,77.27261],[12,77.25084],[12.5,77.22823],[13,77.20478],[13.5,77.18047],[14,77.15531],[14.5,77.12929],[15,77.1024],[15.5,77.07464],[16,77.046],[16.5,77.01647],[17,76.98605],[17.5,76.95473],[18,76.92249],[18.5,76.88935],[19,76.85528],[19.5,76.82027],[20,76.78433],[20.5,76.74744],[21,76.70959],[21.5,76.67078],[22,76.63099],[22.5,76.59021],[23,76.54844],[23.5,76.50567],[24,76.46188],[24.5,76.41706],[25,76.37121],[25.5,76.32431],[26,76.27635],[26.5,76.22733],[27,76.17722],[27.5,76.12602],[28,76.07371],[28.5,76.02028],[29,75.96572],[29.5,75.91002],[30,75.85316],[30.5,75.79513],[31,75.73592],[31.5,75.6755],[32,75.61387],[32.5,75.55101],[33,75.48691],[33.5,75.42156],[34,75.35493],[34.5,75.287],[35,75.21778],[35.5,75.14723],[36,75.07535],[36.5,75.00211],[37,74.9275],[37.5,74.8515],[38,74.77409],[38.5,74.69526],[39,74.61499],[39.5,74.53327],[40,74.45006],[40.5,74.36536],[41,74.27914],[41.5,74.19139],[42,74.10209],[42.5,74.01121],[43,73.91875],[43,73.91874],[43.5,73.82467],[44,73.72896],[44.5,73.63161],[45,73.53258],[45.5,73.43187],[46,73.32944],[46.5,73.22529],[47,73.11939],[47.5,73.01172],[48,72.90226],[48.5,72.79099],[49,72.67789],[49.5,72.56294],[50,72.44613],[50.5,72.32743],[51,72.20682],[51.5,72.08428],[52,71.9598],[52.5,71.83336],[53,71.70494],[53.5,71.57451],[54,71.44207],[54.5,71.3076],[55,71.17107],[55.5,71.03248],[56,70.89181],[56.5,70.74904],[57,70.60416],[57.5,70.45716],[58,70.30802],[58.5,70.15673],[59,70.00328],[59.5,69.84766],[60,69.68985],[60,69.68986],[60.5,69.52986],[60.5,69.52987],[61,69.36768],[61.5,69.20329],[62,69.0367],[62.5,68.86789],[63,68.69687],[63.5,68.52363],[64,68.34818],[64.5,68.17051],[65,67.99063],[65.5,67.80855],[66,67.62425],[66,67.62426],[66.5,67.43777],[67,67.24909],[67.5,67.05824],[68,66.86522],[68.5,66.67005],[69,66.47274],[69.5,66.2733],[70,66.07176],[70.5,65.86814],[71,65.66246],[71.5,65.45473],[72,65.24499],[72.5,65.03325],[73,64.81956],[73.5,64.60393],[74,64.3864],[74.5,64.16701],[75,63.94577],[75.5,63.72274],[76,63.49795],[76.5,63.27143]]}},{"type":"Feature","id":"+03101108:north:0","properties":{"id":"+03101108","year":310,"month":11,"day":8,"time_tdt":"02:47:32","type":"금환일식","type_code":"As","saros":96,"gamma":-0.98099,"magnitude":0.94048,"greatest":{"lat":-67.266,"lng":62.64771},"path_width_km":0,"duration":"03m43s","delta_t_seconds":7540.8,"catalog_number":5507,"source":"NASA Five Millennium Canon of Solar Eclipses","source_url":"https://eclipse.gsfc.nasa.gov/SEsearch/SEsearchmap.php?Ecl=%2B03101108","boundary":"north","name":"310-11-08 금환일식"},"geometry":{"type":"LineString","coordinates":[[63.25,-49.28642],[63.5,-49.37311],[64,-49.55285],[64.5,-49.7414],[65,-49.93919],[65.5,-50.14671],[66,-50.36447],[66.5,-50.59307],[67,-50.83316],[67.5,-51.08548],[68,-51.35088],[68.5,-51.6303],[69,-51.92485],[69.5,-52.2358],[70,-52.56467],[70.5,-52.91322],[71,-53.2836],[71.5,-53.67844],[72,-54.101],[72.5,-54.55549],[73,-55.04739],[73.5,-55.58422],[74,-56.17673],[74.5,-56.8413],[75,-57.60545],[75.5,-58.52273],[76,-59.7324],[76,-65.26082],[75.5,-66.3619],[75,-67.1745],[74.5,-67.8378],[74,-68.40526],[73.5,-68.90431],[73,-69.35127],[72.5,-69.75681],[72,-70.12834],[71.5,-70.47132],[71,-70.78988],[70.5,-71.08721],[70,-71.36588],[69.5,-71.62798],[69,-71.87524],[68.5,-72.10909],[68,-72.33077],[67.5,-72.54133],[67,-72.74166],[66.5,-72.93258],[66,-73.11476],[65.5,-73.28884],[65,-73.45534],[64.5,-73.61477],[64,-73.76755],[63.5,-73.91409],[63,-74.05473],[62.5,-74.18981],[62,-74.31962],[61.5,-74.44442],[61,-74.56448],[60.5,-74.68],[60,-74.79121],[59.5,-74.89829],[59,-75.00142],[58.5,-75.10078],[58,-75.19651],[57.5,-75.28875],[57,-75.37764],[56.5,-75.4633],[56,-75.54586],[55.5,-75.62541],[55,-75.70205],[54.5,-75.77589],[54,-75.84701],[53.5,-75.91549],[53,-75.98142],[52.5,-76.04486],[52,-76.10589],[51.5,-76.16457],[51,-76.22097],[50.5,-76.27513],[50,-76.32711],[49.5,-76.37697],[49,-76.42475],[48.5,-76.4705],[48,-76.51426],[47.5,-76.55607],[47,-76.59596],[46.5,-76.63398],[46,-76.67016],[45.5,-76.70451],[45,-76.73709],[44.5,-76.7679],[44,-76.79699],[43.5,-76.82436],[43,-76.85005],[42.5,-76.87406],[42,-76.89643],[41.5,-76.91717],[41,-76.93628],[40.5,-76.9538],[40,-76.96972],[39.5,-76.98406],[39,-76.99684],[38.5,-77.00805],[38,-77.0177],[37.5,-77.0258],[37,-77.03236],[36.5,-77.03738],[36,-77.04086],[35.5,-77.04279],[35,-77.04318],[34.5,-77.04203],[34,-77.03933],[33.5,-77.03508],[33,-77.02927],[32.5,-77.0219],[32,-77.01294],[31.5,-77.0024],[31,-76.99026],[30.5,-76.97651],[30,-76.96113],[29.5,-76.94411],[29,-76.92542],[28.5,-76.90504],[28,-76.88297],[27.5,-76.85916],[27,-76.83359],[26.5,-76.80624],[26,-76.77707],[25.5,-76.74605],[25,-76.71315],[24.5,-76.67833],[24,-76.64154],[23.5,-76.60275],[23,-76.5619],[22.5,-76.51895],[22,-76.47384],[21.5,-76.42652],[21,-76.37692],[20.5,-76.32498],[20,-76.27062],[19.5,-76.21376],[19,-76.15434],[18.5,-76.09225],[18,-76.02741],[17.5,-75.9597],[17,-75.88902],[16.5,-75.81525],[16,-75.73826],[15.5,-75.65791],[15,-75.57404],[14.5,-75.48648],[14,-75.39507],[13.5,-75.29958],[13,-75.19981],[12.5,-75.09551],[12,-74.98641],[11.5,-74.87222],[11,-74.7526],[10.5,-74.62719],[10,-74.49556],[9.5,-74.35725],[9,-74.21171],[8.5,-74.05833],[8,-73.8964],[7.5,-73.72509],[7,-73.54342],[6.5,-73.35023],[6,-73.14412],[5.5,-72.92338],[5,-72.68588],[4.5,-72.4289],[4,-72.1489],[3.5,-71.8411],[3.21094,-71.64795]]}},{"type":"Feature","id":"+03101108:center:0","properties":{"id":"+03101108","year":310,"month":11,"day":8,"time_tdt":"02:47:32","type":"금환일식","type_code":"As","saros":96,"gamma":-0.98099,"magnitude":0.94048,"greatest":{"lat":-67.266,"lng":62.64771},"path_width_km":0,"duration":"03m43s","delta_t_seconds":7540.8,"catalog_number":5507,"source":"NASA Five Millennium Canon of Solar Eclipses","source_url":"https://eclipse.gsfc.nasa.gov/SEsearch/SEsearchmap.php?Ecl=%2B03101108","boundary":"center","name":"310-11-08 금환일식"},"geometry":{"type":"LineString","coordinates":[[57.90806,-53.12261],[57.5,-53.46673],[58,-53.64078],[58.5,-53.82697],[59,-54.02625],[59.5,-54.23971],[60,-54.46862],[60.5,-54.71455],[61,-54.97938],[61.5,-55.26544],[62,-55.57567],[62.5,-55.9139],[63,-56.28529],[63.5,-56.69703],[64,-57.15977],[64.5,-57.69062],[65,-58.32046],[65.5,-59.11823],[66,-60.34151],[66,-63.12864],[65.5,-64.31739],[65,-65.08316],[64.5,-65.6835],[64,-66.18731],[63.5,-66.62544],[63,-67.01496],[62.5,-67.36649],[62,-67.68721],[61.5,-67.98222],[61,-68.25533],[60.5,-68.50945],[60,-68.7469],[59.5,-68.96953],[59,-69.17886],[58.5,-69.37616],[58,-69.56249],[57.5,-69.73878],[57,-69.90579],[56.5,-70.06422],[56,-70.21464],[55.5,-70.3576],[55,-70.49355],[54.5,-70.62289],[54,-70.74601],[53.5,-70.86323],[53,-70.97484],[52.5,-71.08112],[52,-71.18231],[51.5,-71.27863],[51,-71.37028],[50.5,-71.45744],[50,-71.54029],[49.5,-71.61897],[49,-71.69363],[48.5,-71.7644],[48,-71.83139],[47.5,-71.89471],[47,-71.95446],[46.5,-72.01073],[46,-72.06361],[45.5,-72.11317],[45,-72.15948],[44.5,-72.2026],[44,-72.24259],[43.5,-72.2795],[43,-72.31337],[42.5,-72.34425],[42,-72.37218],[41.5,-72.39718],[41,-72.41927],[40.5,-72.43849],[40,-72.45484],[39.5,-72.46835],[39,-72.47901],[38.5,-72.48684],[38,-72.49183],[37.5,-72.49398],[37,-72.49327],[36.5,-72.48971],[36,-72.48326],[35.5,-72.47391],[35,-72.46162],[34.5,-72.44637],[34,-72.42811],[33.5,-72.4068],[33,-72.3824],[32.5,-72.35484],[32,-72.32406],[31.5,-72.28999],[31,-72.25255],[30.5,-72.21165],[30,-72.1672],[29.5,-72.1191],[29,-72.06721],[28.5,-72.01141],[28,-71.95155],[27.5,-71.88748],[27,-71.81901],[26.5,-71.74595],[26,-71.66807],[25.5,-71.58512],[25,-71.49684],[24.5,-71.4029],[24,-71.30296],[23.5,-71.19661],[23,-71.0834],[22.5,-70.96281],[22,-70.83422],[21.5,-70.69693],[21,-70.55011],[20.5,-70.39276],[20,-70.2237],[19.5,-70.04145],[19,-69.8442],[18.5,-69.62964],[18,-69.39476],[14.32809,-70.07223]]}}],"attribution":"Eclipse Predictions by Fred Espenak and Jean Meeus (NASA's GSFC)","generated_at":"2026-09-23T01:44:48.794Z"}
