{"type":"FeatureCollection","year":312,"events":[{"id":"+03120324","year":312,"month":3,"day":24,"time_tdt":"21:43:57","type":"금환일식","type_code":"A","saros":73,"gamma":-0.39359,"magnitude":0.94005,"greatest":{"lat":-18.43967,"lng":-101.32843},"path_width_km":238.8,"duration":"06m36s","delta_t_seconds":7527.4,"catalog_number":5510,"source":"NASA Five Millennium Canon of Solar Eclipses","source_url":"https://eclipse.gsfc.nasa.gov/SEsearch/SEsearchmap.php?Ecl=%2B03120324"},{"id":"+03120917","year":312,"month":9,"day":17,"time_tdt":"16:18:56","type":"개기일식","type_code":"T","saros":78,"gamma":0.40316,"magnitude":1.05806,"greatest":{"lat":22.7634,"lng":-22.53101},"path_width_km":207.2,"duration":"04m33s","delta_t_seconds":7522.7,"catalog_number":5511,"source":"NASA Five Millennium Canon of Solar Eclipses","source_url":"https://eclipse.gsfc.nasa.gov/SEsearch/SEsearchmap.php?Ecl=%2B03120917"}],"features":[{"type":"Feature","id":"+03120324:north:0","properties":{"id":"+03120324","year":312,"month":3,"day":24,"time_tdt":"21:43:57","type":"금환일식","type_code":"A","saros":73,"gamma":-0.39359,"magnitude":0.94005,"greatest":{"lat":-18.43967,"lng":-101.32843},"path_width_km":238.8,"duration":"06m36s","delta_t_seconds":7527.4,"catalog_number":5510,"source":"NASA Five Millennium Canon of Solar Eclipses","source_url":"https://eclipse.gsfc.nasa.gov/SEsearch/SEsearchmap.php?Ecl=%2B03120324","boundary":"north","name":"312-03-24 금환일식"},"geometry":{"type":"LineString","coordinates":[[-173.43164,-51.38132],[-173,-51.36884],[-172.5,-51.35299],[-172,-51.33564],[-171.5,-51.31678],[-171,-51.29641],[-170.5,-51.2745],[-170,-51.25106],[-169.5,-51.22606],[-169,-51.1995],[-168.5,-51.17136],[-168,-51.14164],[-167.5,-51.11031],[-167,-51.07737],[-166.5,-51.04281],[-166,-51.00661],[-165.5,-50.96875],[-165,-50.92922],[-164.5,-50.88801],[-164,-50.84511],[-163.5,-50.80049],[-163,-50.75414],[-162.5,-50.70605],[-162,-50.6562],[-161.5,-50.60457],[-161,-50.55114],[-160.5,-50.4959],[-160,-50.43883],[-159.5,-50.37991],[-159,-50.31912],[-158.5,-50.25644],[-158,-50.19185],[-157.5,-50.12533],[-157,-50.05686],[-156.5,-49.98641],[-156,-49.91397],[-155.5,-49.83951],[-155,-49.763],[-154.5,-49.68443],[-154,-49.60376],[-153.5,-49.52098],[-153,-49.43605],[-152.5,-49.34894],[-152,-49.25964],[-151.5,-49.1681],[-151,-49.07431],[-150.5,-48.97823],[-150,-48.87983],[-149.5,-48.77907],[-149,-48.67593],[-148.5,-48.57037],[-148,-48.46236],[-147.5,-48.35185],[-147,-48.23882],[-146.5,-48.12322],[-146,-48.00502],[-145.5,-47.88418],[-145,-47.76064],[-144.5,-47.63438],[-144,-47.50535],[-143.5,-47.3735],[-143,-47.23878],[-142.5,-47.10115],[-142,-46.96056],[-141.5,-46.81696],[-141,-46.67029],[-140.5,-46.5205],[-140,-46.36754],[-139.5,-46.21134],[-139,-46.05185],[-138.5,-45.88901],[-138,-45.72275],[-137.5,-45.553],[-137,-45.37971],[-136.5,-45.2028],[-136,-45.02219],[-135.5,-44.83783],[-135,-44.64962],[-134.5,-44.45749],[-134,-44.26135],[-133.5,-44.06113],[-133,-43.85674],[-132.5,-43.64808],[-132,-43.43507],[-131.5,-43.2176],[-131,-42.99558],[-130.5,-42.7689],[-130,-42.53746],[-129.5,-42.30115],[-129,-42.05985],[-128.5,-41.81344],[-128,-41.56181],[-127.5,-41.30483],[-127,-41.04236],[-126.5,-40.77428],[-126,-40.50043],[-125.5,-40.22069],[-125,-39.9349],[-124.5,-39.64291],[-124,-39.34455],[-123.5,-39.03967],[-123,-38.72809],[-122.5,-38.40965],[-122,-38.08415],[-121.5,-37.75143],[-121,-37.41128],[-120.5,-37.06351],[-120,-36.70793],[-119.5,-36.34433],[-119,-35.97249],[-118.5,-35.59222],[-118,-35.20329],[-117.5,-34.80548],[-117,-34.39857],[-116.5,-33.98234],[-116,-33.55658],[-115.5,-33.12105],[-115,-32.67555],[-114.5,-32.21987],[-114,-31.75379],[-113.5,-31.27713],[-113,-30.78972],[-112.5,-30.29138],[-112,-29.78198],[-111.5,-29.2614],[-111,-28.72956],[-110.5,-28.18642],[-110,-27.63197],[-109.5,-27.06626],[-109,-26.48939],[-108.5,-25.90153],[-108,-25.30292],[-107.5,-24.69388],[-107,-24.0748],[-106.5,-23.44619],[-106,-22.80864],[-105.5,-22.16283],[-105,-21.50957],[-104.5,-20.84974],[-104,-20.18434],[-103.5,-19.51446],[-103,-18.84124],[-102.5,-18.16592],[-102,-17.48979],[-101.5,-16.81416],[-101,-16.14037],[-100.5,-15.46974],[-100,-14.80356],[-99.5,-14.14311],[-99,-13.48958],[-98.5,-12.84407],[-98,-12.20763],[-97.5,-11.58116],[-97,-10.96551],[-96.5,-10.36136],[-96,-9.76933],[-95.5,-9.18992],[-95,-8.6235],[-94.5,-8.07039],[-94,-7.53078],[-93.5,-7.0048],[-93,-6.49252],[-92.5,-5.9939],[-92,-5.50889],[-91.5,-5.03738],[-91,-4.5792],[-90.5,-4.13416],[-90,-3.70206],[-89.5,-3.28264],[-89,-2.87565],[-88.5,-2.48082],[-88,-2.09788],[-87.5,-1.72652],[-87,-1.36648],[-86.5,-1.01744],[-86,-0.67913],[-85.5,-0.35125],[-85,-0.03353],[-84.5,0.27432],[-84,0.57258],[-83.5,0.8615],[-83,1.14135],[-82.5,1.41239],[-82,1.67486],[-81.5,1.929],[-81,2.17505],[-80.5,2.41322],[-80,2.64374],[-79.5,2.86681],[-79,3.08264],[-78.5,3.29143],[-78,3.49336],[-77.5,3.68861],[-77,3.87736],[-76.5,4.05979],[-76,4.23605],[-75.5,4.4063],[-75,4.57069],[-74.5,4.72937],[-74,4.88248],[-73.5,5.03016],[-73,5.17253],[-72.5,5.30973],[-72,5.44188],[-71.5,5.56909],[-71,5.69147],[-70.5,5.80915],[-70,5.92221],[-69.5,6.03077],[-69,6.13493],[-68.5,6.23477],[-68,6.3304],[-67.5,6.42189],[-67,6.50935],[-66.5,6.59284],[-66,6.67245],[-65.5,6.74826],[-65,6.82035],[-64.5,6.88878],[-64,6.95363],[-63.5,7.01496],[-63,7.07285],[-62.5,7.12736],[-62,7.17854],[-61.5,7.22647],[-61,7.27119],[-60.5,7.31277],[-60,7.35127],[-59.5,7.38673],[-59,7.4192],[-58.5,7.44875],[-58,7.47541],[-57.5,7.49924],[-57,7.52028],[-56.5,7.53859],[-56,7.55419],[-55.5,7.56714],[-55,7.57748],[-54.5,7.58525],[-54,7.59048],[-53.5,7.59322],[-53,7.59351],[-52.5,7.59138],[-52,7.58687],[-51.5,7.58001],[-51,7.57084],[-50.5,7.55939]]}},{"type":"Feature","id":"+03120324:center:0","properties":{"id":"+03120324","year":312,"month":3,"day":24,"time_tdt":"21:43:57","type":"금환일식","type_code":"A","saros":73,"gamma":-0.39359,"magnitude":0.94005,"greatest":{"lat":-18.43967,"lng":-101.32843},"path_width_km":238.8,"duration":"06m36s","delta_t_seconds":7527.4,"catalog_number":5510,"source":"NASA Five Millennium Canon of Solar Eclipses","source_url":"https://eclipse.gsfc.nasa.gov/SEsearch/SEsearchmap.php?Ecl=%2B03120324","boundary":"center","name":"312-03-24 금환일식"},"geometry":{"type":"LineString","coordinates":[[-173.51235,-52.8276],[-173.5,-52.7262],[-173,-52.70985],[-172.5,-52.69204],[-172,-52.67276],[-171.5,-52.652],[-171,-52.62976],[-170.5,-52.60601],[-170,-52.58075],[-169.5,-52.55396],[-169,-52.52565],[-168.5,-52.49579],[-168,-52.46437],[-167.5,-52.43138],[-167,-52.39681],[-166.5,-52.36065],[-166,-52.32288],[-165.5,-52.2835],[-165,-52.24247],[-164.5,-52.1998],[-164,-52.15547],[-163.5,-52.10945],[-163,-52.06175],[-162.5,-52.01233],[-162,-51.9612],[-161.5,-51.90832],[-161,-51.85368],[-160.5,-51.79727],[-160,-51.73906],[-159.5,-51.67904],[-159,-51.6172],[-158.5,-51.5535],[-158,-51.48794],[-157.5,-51.42048],[-157,-51.35112],[-156.5,-51.27982],[-156,-51.20657],[-155.5,-51.13135],[-155,-51.05413],[-154.5,-50.97488],[-154,-50.89359],[-153.5,-50.81022],[-153,-50.72476],[-152.5,-50.63718],[-152,-50.54744],[-151.5,-50.45553],[-151,-50.36141],[-150.5,-50.26505],[-150,-50.16642],[-149.5,-50.0655],[-149,-49.96225],[-148.5,-49.85663],[-148,-49.74862],[-147.5,-49.63818],[-147,-49.52527],[-146.5,-49.40986],[-146,-49.29191],[-145.5,-49.17137],[-145,-49.04822],[-144.5,-48.92241],[-144,-48.79389],[-143.5,-48.66263],[-143,-48.52857],[-142.5,-48.39168],[-142,-48.2519],[-141.5,-48.10919],[-141,-47.96349],[-140.5,-47.81475],[-140,-47.66293],[-139.5,-47.50796],[-139,-47.34978],[-138.5,-47.18835],[-138,-47.02359],[-137.5,-46.85545],[-137,-46.68385],[-136.5,-46.50875],[-136,-46.33005],[-135.5,-46.14771],[-135,-45.96163],[-134.5,-45.77175],[-134,-45.57799],[-133.5,-45.38027],[-133,-45.1785],[-132.5,-44.9726],[-132,-44.76247],[-131.5,-44.54804],[-131,-44.3292],[-130.5,-44.10585],[-130,-43.8779],[-129.5,-43.64524],[-129,-43.40775],[-128.5,-43.16534],[-128,-42.91788],[-127.5,-42.66525],[-127,-42.40733],[-126.5,-42.14399],[-126,-41.8751],[-125.5,-41.60053],[-125,-41.32012],[-124.5,-41.03374],[-124,-40.74124],[-123.5,-40.44245],[-123,-40.13723],[-122.5,-39.82539],[-122,-39.50678],[-121.5,-39.18122],[-121,-38.84852],[-120.5,-38.50851],[-120,-38.16098],[-119.5,-37.80575],[-119,-37.44262],[-118.5,-37.07137],[-118,-36.69181],[-117.5,-36.30372],[-117,-35.90689],[-116.5,-35.50109],[-116,-35.08612],[-115.5,-34.66176],[-115,-34.22778],[-114.5,-33.78398],[-114,-33.33015],[-113.5,-32.86609],[-113,-32.3916],[-112.5,-31.90651],[-112,-31.41066],[-111.5,-30.90389],[-111,-30.3861],[-110.5,-29.85719],[-110,-29.31711],[-109.5,-28.76584],[-109,-28.20342],[-108.5,-27.62993],[-108,-27.04552],[-107.5,-26.45041],[-107,-25.84489],[-106.5,-25.22932],[-106,-24.60418],[-105.5,-23.97002],[-105,-23.32749],[-104.5,-22.67735],[-104,-22.02045],[-103.5,-21.35776],[-103,-20.6903],[-102.5,-20.01922],[-102,-19.34571],[-101.5,-18.67103],[-101,-17.99649],[-100.5,-17.32341],[-100,-16.65312],[-99.5,-15.98692],[-99,-15.32609],[-98.5,-14.67184],[-98,-14.02533],[-97.5,-13.3876],[-97,-12.75962],[-96.5,-12.14225],[-96,-11.53624],[-95.5,-10.94224],[-95,-10.36077],[-94.5,-9.79227],[-94,-9.23706],[-93.5,-8.69538],[-93,-8.16739],[-92.5,-7.65317],[-92,-7.15272],[-91.5,-6.666],[-91,-6.1929],[-90.5,-5.73328],[-90,-5.28696],[-89.5,-4.85373],[-89,-4.43335],[-88.5,-4.02557],[-88,-3.63012],[-87.5,-3.24673],[-87,-2.87509],[-86.5,-2.51492],[-86,-2.16594],[-85.5,-1.82783],[-85,-1.50032],[-84.5,-1.18311],[-84,-0.87592],[-83.5,-0.57847],[-83,-0.2905],[-82.5,-0.01172],[-82,0.25811],[-81.5,0.51925],[-81,0.77195],[-80.5,1.01643],[-80,1.25293],[-79.5,1.48168],[-79,1.70288],[-78.5,1.91674],[-78,2.12346],[-77.5,2.32324],[-77,2.51626],[-76.5,2.7027],[-76,2.88273],[-75.5,3.05653],[-75,3.22425],[-74.5,3.38604],[-74,3.54206],[-73.5,3.69245],[-73,3.83734],[-72.5,3.97688],[-72,4.11119],[-71.5,4.2404],[-71,4.36462],[-70.5,4.48397],[-70,4.59857],[-69.5,4.70852],[-69,4.81392],[-68.5,4.91488],[-68,5.0115],[-67.5,5.10386],[-67,5.19205],[-66.5,5.27618],[-66,5.35631],[-65.5,5.43254],[-65,5.50494],[-64.5,5.57358],[-64,5.63855],[-63.5,5.69992],[-63,5.75775],[-62.5,5.81211],[-62,5.86307],[-61.5,5.91069],[-61,5.95504],[-60.5,5.99617],[-60,6.03414],[-59.5,6.069],[-59,6.10082],[-58.5,6.12965],[-58,6.15553],[-57.5,6.17852],[-57,6.19866],[-56.5,6.21601],[-56,6.23061],[-55.5,6.2425],[-55,6.25173],[-54.5,6.25834],[-54,6.26238],[-53.5,6.26387],[-53,6.26287],[-52.5,6.25941],[-52,6.25353],[-51.5,6.24526],[-51,6.23464],[-50.5,6.22171],[-50.09213,6.20996]]}},{"type":"Feature","id":"+03120324:south:0","properties":{"id":"+03120324","year":312,"month":3,"day":24,"time_tdt":"21:43:57","type":"금환일식","type_code":"A","saros":73,"gamma":-0.39359,"magnitude":0.94005,"greatest":{"lat":-18.43967,"lng":-101.32843},"path_width_km":238.8,"duration":"06m36s","delta_t_seconds":7527.4,"catalog_number":5510,"source":"NASA Five Millennium Canon of Solar Eclipses","source_url":"https://eclipse.gsfc.nasa.gov/SEsearch/SEsearchmap.php?Ecl=%2B03120324","boundary":"south","name":"312-03-24 금환일식"},"geometry":{"type":"LineString","coordinates":[[-173,-54.06299],[-173.5,-54.08127],[-172.5,-54.04329],[-172,-54.02214],[-171.5,-53.99954],[-171,-53.97548],[-170.5,-53.94995],[-170,-53.92294],[-169.5,-53.89444],[-169,-53.86444],[-168.5,-53.83292],[-168,-53.79988],[-167.5,-53.7653],[-167,-53.72917],[-166.5,-53.69148],[-166,-53.65222],[-165.5,-53.61137],[-165,-53.56892],[-164.5,-53.52485],[-164,-53.47916],[-163.5,-53.43183],[-163,-53.38283],[-162.5,-53.33217],[-162,-53.27982],[-161.5,-53.22576],[-161,-53.16998],[-160.5,-53.11247],[-160,-53.0532],[-159.5,-52.99216],[-159,-52.92933],[-158.5,-52.86469],[-158,-52.79822],[-157.5,-52.72991],[-157,-52.65972],[-156.5,-52.58765],[-156,-52.51366],[-155.5,-52.43775],[-155,-52.35988],[-154.5,-52.28003],[-154,-52.19819],[-153.5,-52.11431],[-153,-52.02839],[-152.5,-51.94039],[-152,-51.8503],[-151.5,-51.75807],[-151,-51.66368],[-150.5,-51.56711],[-150,-51.46833],[-149.5,-51.3673],[-149,-51.264],[-148.5,-51.15839],[-148,-51.05044],[-147.5,-50.94012],[-147,-50.82739],[-146.5,-50.71222],[-146,-50.59457],[-145.5,-50.4744],[-145,-50.35168],[-144.5,-50.22636],[-144,-50.0984],[-143.5,-49.96777],[-143,-49.83442],[-142.5,-49.6983],[-142,-49.55937],[-141.5,-49.41758],[-141,-49.27289],[-140.5,-49.12524],[-140,-48.97458],[-139.5,-48.82086],[-139,-48.66402],[-138.5,-48.504],[-138,-48.34076],[-137.5,-48.17423],[-137,-48.00434],[-136.5,-47.83104],[-136,-47.65426],[-135.5,-47.47392],[-135,-47.28997],[-134.5,-47.10232],[-134,-46.91091],[-133.5,-46.71565],[-133,-46.51647],[-132.5,-46.31328],[-132,-46.10601],[-131.5,-45.89456],[-131,-45.67884],[-130.5,-45.45875],[-130,-45.23422],[-129.5,-45.00512],[-129,-44.77136],[-128.5,-44.53284],[-128,-44.28944],[-127.5,-44.04104],[-127,-43.78754],[-126.5,-43.52881],[-126,-43.26473],[-125.5,-42.99516],[-125,-42.71997],[-124.5,-42.43902],[-124,-42.15217],[-123.5,-41.85928],[-123,-41.56018],[-122.5,-41.25472],[-122,-40.94275],[-121.5,-40.62409],[-121,-40.29856],[-120.5,-39.96601],[-120,-39.62623],[-119.5,-39.27905],[-119,-38.92428],[-118.5,-38.56171],[-118,-38.19116],[-117.5,-37.81241],[-117,-37.42525],[-116.5,-37.02949],[-116,-36.6249],[-115.5,-36.21127],[-115,-35.78839],[-114.5,-35.35604],[-114,-34.91403],[-113.5,-34.46213],[-113,-34.00015],[-112.5,-33.52791],[-112,-33.04522],[-111.5,-32.55191],[-111,-32.04785],[-110.5,-31.53291],[-110,-31.00699],[-109.5,-30.47004],[-109,-29.92202],[-108.5,-29.36295],[-108,-28.79291],[-107.5,-28.21203],[-107,-27.62049],[-106.5,-27.01856],[-106,-26.40658],[-105.5,-25.78499],[-105,-25.15431],[-104.5,-24.51515],[-104,-23.86823],[-103.5,-23.21437],[-103,-22.55447],[-102.5,-21.88955],[-102,-21.22071],[-101.5,-20.5491],[-101,-19.87597],[-100.5,-19.20261],[-100,-18.53031],[-99.5,-17.86041],[-99,-17.19422],[-98.5,-16.53303],[-98,-15.87807],[-97.5,-15.23052],[-97,-14.59146],[-96.5,-13.96189],[-96,-13.34272],[-95.5,-12.73473],[-95,-12.13861],[-94.5,-11.55494],[-94,-10.98417],[-93.5,-10.42668],[-93,-9.88274],[-92.5,-9.35253],[-92,-8.83616],[-91.5,-8.33366],[-91,-7.845],[-90.5,-7.3701],[-90,-6.90882],[-89.5,-6.461],[-89,-6.02642],[-88.5,-5.60488],[-88,-5.1961],[-87.5,-4.79983],[-87,-4.41579],[-86.5,-4.04368],[-86,-3.68322],[-85.5,-3.3341],[-85,-2.99604],[-84.5,-2.66873],[-84,-2.35189],[-83.5,-2.04522],[-83,-1.74844],[-82.5,-1.46127],[-82,-1.18345],[-81.5,-0.9147],[-81,-0.65478],[-80.5,-0.40342],[-80,-0.1604],[-79.5,0.07453],[-79,0.30159],[-78.5,0.521],[-78,0.73297],[-77.5,0.9377],[-77,1.13541],[-76.5,1.32626],[-76,1.51045],[-75.5,1.68815],[-75,1.85954],[-74.5,2.02478],[-74,2.18402],[-73.5,2.33742],[-73,2.48513],[-72.5,2.62728],[-72,2.76402],[-71.5,2.89548],[-71,3.02178],[-70.5,3.14304],[-70,3.25939],[-69.5,3.37094],[-69,3.47779],[-68.5,3.58006],[-68,3.67785],[-67.5,3.77125],[-67,3.86036],[-66.5,3.94528],[-66,4.02609],[-65.5,4.10288],[-65,4.17573],[-64.5,4.24473],[-64,4.30995],[-63.5,4.37147],[-63,4.42936],[-62.5,4.48369],[-62,4.53453],[-61.5,4.58196],[-61,4.62602],[-60.5,4.66679],[-60,4.70432],[-59.5,4.73869],[-59,4.76993],[-58.5,4.79811],[-58,4.82328],[-57.5,4.8455],[-57,4.86482],[-56.5,4.88128],[-56,4.89493],[-55.5,4.90582],[-55,4.914],[-54.5,4.91951],[-54,4.9224],[-53.5,4.9227],[-53,4.92045],[-52.5,4.91571],[-52,4.9085],[-51.5,4.89886],[-51,4.88684],[-50.5,4.87246],[-50,4.85577],[-49.86328,4.8508]]}},{"type":"Feature","id":"+03120917:north:0","properties":{"id":"+03120917","year":312,"month":9,"day":17,"time_tdt":"16:18:56","type":"개기일식","type_code":"T","saros":78,"gamma":0.40316,"magnitude":1.05806,"greatest":{"lat":22.7634,"lng":-22.53101},"path_width_km":207.2,"duration":"04m33s","delta_t_seconds":7522.7,"catalog_number":5511,"source":"NASA Five Millennium Canon of Solar Eclipses","source_url":"https://eclipse.gsfc.nasa.gov/SEsearch/SEsearchmap.php?Ecl=%2B03120917","boundary":"north","name":"312-09-17 개기일식"},"geometry":{"type":"LineString","coordinates":[[-104.33789,53.85473],[-104,53.86781],[-103.5,53.88601],[-103,53.90284],[-102.5,53.91829],[-102,53.93235],[-101.5,53.94502],[-101,53.95629],[-100.5,53.96616],[-100,53.97463],[-99.5,53.98168],[-99,53.98732],[-98.5,53.99152],[-98,53.9943],[-97.5,53.99564],[-97,53.99554],[-96.5,53.99398],[-96,53.99097],[-95.5,53.9865],[-95,53.98055],[-94.5,53.97312],[-94,53.9642],[-93.5,53.95379],[-93,53.94187],[-92.5,53.92844],[-92,53.91349],[-91.5,53.89702],[-91,53.879],[-90.5,53.85943],[-90,53.8383],[-89.5,53.81561],[-89,53.79134],[-88.5,53.76547],[-88,53.73801],[-87.5,53.70894],[-87,53.67824],[-86.5,53.64591],[-86,53.61193],[-85.5,53.5763],[-85,53.53899],[-84.5,53.5],[-84,53.45931],[-83.5,53.41691],[-83,53.37278],[-82.5,53.32691],[-82,53.27928],[-81.5,53.22989],[-81,53.17871],[-80.5,53.12572],[-80,53.07092],[-79.5,53.01428],[-79,52.95578],[-78.5,52.89542],[-78,52.83316],[-77.5,52.769],[-77,52.7029],[-76.5,52.63486],[-76,52.56485],[-75.5,52.49285],[-75,52.41884],[-74.5,52.3428],[-74,52.2647],[-73.5,52.18452],[-73,52.10224],[-72.5,52.01783],[-72,51.93127],[-71.5,51.84253],[-71,51.75159],[-70.5,51.65841],[-70,51.56298],[-69.5,51.46525],[-69,51.36521],[-68.5,51.26282],[-68,51.15806],[-67.5,51.05088],[-67,50.94126],[-66.5,50.82916],[-66,50.71455],[-65.5,50.5974],[-65,50.47766],[-64.5,50.35531],[-64,50.2303],[-63.5,50.10259],[-63,49.97214],[-62.5,49.83892],[-62,49.70288],[-61.5,49.56397],[-61,49.42215],[-60.5,49.27738],[-60,49.12961],[-59.5,48.97879],[-59,48.82486],[-58.5,48.66779],[-58,48.50751],[-57.5,48.34398],[-57,48.17714],[-56.5,48.00693],[-56,47.83329],[-55.5,47.65616],[-55,47.47548],[-54.5,47.2912],[-54,47.10324],[-53.5,46.91153],[-53,46.71602],[-52.5,46.51662],[-52,46.31327],[-51.5,46.1059],[-51,45.89443],[-50.5,45.67877],[-50,45.45886],[-49.5,45.23461],[-49,45.00594],[-48.5,44.77276],[-48,44.53498],[-47.5,44.29251],[-47,44.04527],[-46.5,43.79316],[-46,43.53608],[-45.5,43.27394],[-45,43.00664],[-44.5,42.73407],[-44,42.45613],[-43.5,42.17271],[-43,41.88372],[-42.5,41.58903],[-42,41.28855],[-41.5,40.98215],[-41,40.66973],[-40.5,40.35118],[-40,40.02637],[-39.5,39.6952],[-39,39.35755],[-38.5,39.01332],[-38,38.66237],[-37.5,38.30462],[-37,37.93994],[-36.5,37.56823],[-36,37.1894],[-35.5,36.80333],[-35,36.40995],[-34.5,36.00915],[-34,35.60088],[-33.5,35.18505],[-33,34.7616],[-32.5,34.3305],[-32,33.89169],[-31.5,33.44518],[-31,32.99094],[-30.5,32.529],[-30,32.0594],[-29.5,31.58219],[-29,31.09745],[-28.5,30.6053],[-28,30.10588],[-27.5,29.59936],[-27,29.08593],[-26.5,28.56584],[-26,28.03936],[-25.5,27.50681],[-25,26.96851],[-24.5,26.42487],[-24,25.87631],[-23.5,25.32328],[-23,24.76628],[-22.5,24.20585],[-22,23.64253],[-21.5,23.07693],[-21,22.50964],[-20.5,21.94132],[-20,21.37259],[-19.5,20.80412],[-19,20.23657],[-18.5,19.6706],[-18,19.10685],[-17.5,18.54598],[-17,17.98859],[-16.5,17.43529],[-16,16.88664],[-15.5,16.3432],[-15,15.80547],[-14.5,15.27391],[-14,14.74896],[-13.5,14.23102],[-13,13.72043],[-12.5,13.21752],[-12,12.72255],[-11.5,12.23576],[-11,11.75735],[-10.5,11.28749],[-10,10.8263],[-9.5,10.37388],[-9,9.93031],[-8.5,9.49563],[-8,9.06985],[-7.5,8.65297],[-7,8.24497],[-6.5,7.8458],[-6,7.45541],[-5.5,7.07373],[-5,6.70067],[-4.5,6.33614],[-4,5.98003],[-3.5,5.63223],[-3,5.29262],[-2.5,4.96109],[-2,4.6375],[-1.5,4.32172],[-1,4.01362],[-0.5,3.71307],[0,3.41993],[0.5,3.13406],[1,2.85533],[1.5,2.58361],[2,2.31875],[2.5,2.06063],[3,1.80911],[3.5,1.56406],[4,1.32536],[4.5,1.09288],[5,0.86649],[5.5,0.64608],[6,0.43152],[6.5,0.2227],[7,0.01951],[7.5,-0.17817],[8,-0.37044],[8.5,-0.55742],[9,-0.7392],[9.5,-0.91589],[10,-1.08758],[10.5,-1.25437],[11,-1.41636],[11.5,-1.57364],[12,-1.72629],[12.5,-1.8744],[13,-2.01805],[13.5,-2.15734],[14,-2.29233],[14.5,-2.42311],[15,-2.54975],[15.5,-2.67233],[16,-2.79092],[16.5,-2.90558],[17,-3.01638],[17.5,-3.1234],[18,-3.22669],[18.5,-3.32633],[19,-3.42236],[19.5,-3.51485],[20,-3.60386],[20.5,-3.68944],[21,-3.77166],[21.5,-3.85055],[22,-3.92618],[22.5,-3.9986],[23,-4.06785],[23.5,-4.13398],[24,-4.19705],[24.5,-4.25709],[25,-4.31415],[25.5,-4.36828],[26,-4.41952],[26.5,-4.46791],[27,-4.51349],[27.5,-4.5563],[28,-4.59638],[28.5,-4.63376],[29,-4.66849],[29.5,-4.7006],[30,-4.73012],[30.5,-4.7571],[31,-4.78155],[31.5,-4.80352],[31.54688,-4.80546]]}},{"type":"Feature","id":"+03120917:center:0","properties":{"id":"+03120917","year":312,"month":9,"day":17,"time_tdt":"16:18:56","type":"개기일식","type_code":"T","saros":78,"gamma":0.40316,"magnitude":1.05806,"greatest":{"lat":22.7634,"lng":-22.53101},"path_width_km":207.2,"duration":"04m33s","delta_t_seconds":7522.7,"catalog_number":5511,"source":"NASA Five Millennium Canon of Solar Eclipses","source_url":"https://eclipse.gsfc.nasa.gov/SEsearch/SEsearchmap.php?Ecl=%2B03120917","boundary":"center","name":"312-09-17 개기일식"},"geometry":{"type":"LineString","coordinates":[[-104.10437,53.26366],[-104,53.18718],[-103.5,53.20438],[-103,53.2202],[-102.5,53.23462],[-102,53.24764],[-101.5,53.25926],[-101,53.26947],[-100.5,53.27827],[-100,53.28564],[-99.5,53.29159],[-99,53.2961],[-98.5,53.29918],[-98,53.3008],[-97.5,53.30098],[-97,53.29969],[-96.5,53.29694],[-96,53.29271],[-95.5,53.287],[-95,53.27979],[-94.5,53.2711],[-94,53.26089],[-93.5,53.24917],[-93,53.23592],[-92.5,53.22115],[-92,53.20483],[-91.5,53.18696],[-91,53.16753],[-90.5,53.14653],[-90,53.12395],[-89.5,53.09978],[-89,53.07401],[-88.5,53.04662],[-88,53.01761],[-87.5,52.98696],[-87,52.95467],[-86.5,52.92071],[-86,52.88509],[-85.5,52.84777],[-85,52.80876],[-84.5,52.76803],[-84,52.72558],[-83.5,52.68139],[-83,52.63544],[-82.5,52.58772],[-82,52.53822],[-81.5,52.48691],[-81,52.43378],[-80.5,52.37882],[-80,52.32201],[-79.5,52.26332],[-79,52.20275],[-78.5,52.14026],[-78,52.07586],[-77.5,52.0095],[-77,51.94118],[-76.5,51.87087],[-76,51.79856],[-75.5,51.72421],[-75,51.64782],[-74.5,51.56934],[-74,51.48877],[-73.5,51.40608],[-73,51.32124],[-72.5,51.23422],[-72,51.14501],[-71.5,51.05357],[-71,50.95988],[-70.5,50.86391],[-70,50.76562],[-69.5,50.665],[-69,50.562],[-68.5,50.45661],[-68,50.34878],[-67.5,50.23848],[-67,50.12568],[-66.5,50.01035],[-66,49.89244],[-65.5,49.77193],[-65,49.64877],[-64.5,49.52292],[-64,49.39436],[-63.5,49.26302],[-63,49.12889],[-62.5,48.9919],[-62,48.85202],[-61.5,48.7092],[-61,48.5634],[-60.5,48.41456],[-60,48.26264],[-59.5,48.10759],[-59,47.94935],[-58.5,47.78788],[-58,47.62312],[-57.5,47.45501],[-57,47.2835],[-56.5,47.10852],[-56,46.93002],[-55.5,46.74793],[-55,46.56219],[-54.5,46.37273],[-54,46.17949],[-53.5,45.9824],[-53,45.78139],[-52.5,45.57638],[-52,45.3673],[-51.5,45.15407],[-51,44.93662],[-50.5,44.71486],[-50,44.48871],[-49.5,44.25809],[-49,44.0229],[-48.5,43.78307],[-48,43.53851],[-47.5,43.2891],[-47,43.03478],[-46.5,42.77543],[-46,42.51095],[-45.5,42.24126],[-45,41.96623],[-44.5,41.68578],[-44,41.39979],[-43.5,41.10815],[-43,40.81076],[-42.5,40.50751],[-42,40.19828],[-41.5,39.88295],[-41,39.56143],[-40.5,39.23358],[-40,38.8993],[-39.5,38.55848],[-39,38.21099],[-38.5,37.85673],[-38,37.49559],[-37.5,37.12747],[-37,36.75224],[-36.5,36.36983],[-36,35.98012],[-35.5,35.58304],[-35,35.17849],[-34.5,34.76641],[-34,34.34673],[-33.5,33.91939],[-33,33.48436],[-32.5,33.04161],[-32,32.59112],[-31.5,32.1329],[-31,31.66698],[-30.5,31.19341],[-30,30.71226],[-29.5,30.22362],[-29,29.72762],[-28.5,29.22442],[-28,28.71421],[-27.5,28.1972],[-27,27.67365],[-26.5,27.14386],[-26,26.60815],[-25.5,26.06689],[-25,25.5205],[-24.5,24.96941],[-24,24.4141],[-23.5,23.85509],[-23,23.29293],[-22.5,22.72819],[-22,22.16147],[-21.5,21.5934],[-21,21.02463],[-20.5,20.45579],[-20,19.88756],[-19.5,19.3206],[-19,18.75555],[-18.5,18.19307],[-18,17.63378],[-17.5,17.0783],[-17,16.52721],[-16.5,15.98106],[-16,15.44039],[-15.5,14.90566],[-15,14.37735],[-14.5,13.85585],[-14,13.34154],[-13.5,12.83475],[-13,12.33577],[-12.5,11.84486],[-12,11.36223],[-11.5,10.88807],[-11,10.42251],[-10.5,9.96567],[-10,9.51763],[-9.5,9.07846],[-9,8.64817],[-8.5,8.22678],[-8,7.81426],[-7.5,7.4106],[-7,7.01573],[-6.5,6.62959],[-6,6.25211],[-5.5,5.88319],[-5,5.52273],[-4.5,5.17063],[-4,4.82677],[-3.5,4.49103],[-3,4.16329],[-2.5,3.84342],[-2,3.53128],[-1.5,3.22674],[-1,2.92968],[-0.5,2.63994],[0,2.35741],[0.5,2.08193],[1,1.81338],[1.5,1.55163],[2,1.29654],[2.5,1.04798],[3,0.80582],[3.5,0.56994],[4,0.34021],[4.5,0.11651],[5,-0.10128],[5.5,-0.31328],[6,-0.5196],[6.5,-0.72036],[7,-0.91566],[7.5,-1.10562],[8,-1.29032],[8.5,-1.46989],[9,-1.64442],[9.5,-1.814],[10,-1.97873],[10.5,-2.13871],[11,-2.29402],[11.5,-2.44474],[12,-2.59098],[12.5,-2.7328],[13,-2.87028],[13.5,-3.00352],[14,-3.13258],[14.5,-3.25754],[15,-3.37847],[15.5,-3.49545],[16,-3.60853],[16.5,-3.71779],[17,-3.8233],[17.5,-3.92511],[18,-4.02329],[18.5,-4.1179],[19,-4.209],[19.5,-4.29664],[20,-4.38088],[20.5,-4.46178],[21,-4.53939],[21.5,-4.61375],[22,-4.68492],[22.5,-4.75295],[23,-4.81789],[23.5,-4.87978],[24,-4.93866],[24.5,-4.99459],[25,-5.04761],[25.5,-5.09775],[26,-5.14505],[26.5,-5.18957],[27,-5.23134],[27.5,-5.27039],[28,-5.30676],[28.5,-5.34049],[29,-5.37162],[29.5,-5.40018],[30,-5.4262],[30.5,-5.44973],[31,-5.47078],[31.39739,-5.48419]]}},{"type":"Feature","id":"+03120917:south:0","properties":{"id":"+03120917","year":312,"month":9,"day":17,"time_tdt":"16:18:56","type":"개기일식","type_code":"T","saros":78,"gamma":0.40316,"magnitude":1.05806,"greatest":{"lat":22.7634,"lng":-22.53101},"path_width_km":207.2,"duration":"04m33s","delta_t_seconds":7522.7,"catalog_number":5511,"source":"NASA Five Millennium Canon of Solar Eclipses","source_url":"https://eclipse.gsfc.nasa.gov/SEsearch/SEsearchmap.php?Ecl=%2B03120917","boundary":"south","name":"312-09-17 개기일식"},"geometry":{"type":"LineString","coordinates":[[-103.94727,52.51291],[-103.5,52.5273],[-103,52.54206],[-102.5,52.55542],[-102,52.56737],[-101.5,52.5779],[-101,52.58701],[-100.5,52.59469],[-100,52.60094],[-99.5,52.60574],[-99,52.60909],[-98.5,52.61099],[-98,52.61143],[-97.5,52.6104],[-97,52.60789],[-96.5,52.60389],[-96,52.59841],[-95.5,52.59143],[-95,52.58293],[-94.5,52.57292],[-94,52.56139],[-93.5,52.54832],[-93,52.53371],[-92.5,52.51754],[-92,52.49982],[-91.5,52.48052],[-91,52.45964],[-90.5,52.43717],[-90,52.41309],[-89.5,52.3874],[-89,52.36009],[-88.5,52.33113],[-88,52.30053],[-87.5,52.26827],[-87,52.23434],[-86.5,52.19872],[-86,52.1614],[-85.5,52.12236],[-85,52.0816],[-84.5,52.0391],[-84,51.99485],[-83.5,51.94882],[-83,51.90101],[-82.5,51.8514],[-82,51.79997],[-81.5,51.7467],[-81,51.69158],[-80.5,51.6346],[-80,51.57573],[-79.5,51.51495],[-79,51.45225],[-78.5,51.3876],[-78,51.32099],[-77.5,51.2524],[-77,51.18181],[-76.5,51.10918],[-76,51.03451],[-75.5,50.95777],[-75,50.87893],[-74.5,50.79798],[-74,50.71489],[-73.5,50.62962],[-73,50.54217],[-72.5,50.45249],[-72,50.36057],[-71.5,50.26637],[-71,50.16988],[-70.5,50.07104],[-70,49.96985],[-69.5,49.86626],[-69,49.76025],[-68.5,49.65178],[-68,49.54082],[-67.5,49.42734],[-67,49.31129],[-66.5,49.19265],[-66,49.07138],[-65.5,48.94743],[-65,48.82077],[-64.5,48.69136],[-64,48.55916],[-63.5,48.42413],[-63,48.28622],[-62.5,48.14538],[-62,48.00158],[-61.5,47.85476],[-61,47.70488],[-60.5,47.55188],[-60,47.39572],[-59.5,47.23635],[-59,47.0737],[-58.5,46.90773],[-58,46.73837],[-57.5,46.56558],[-57,46.38928],[-56.5,46.20943],[-56,46.02595],[-55.5,45.83877],[-55,45.64785],[-54.5,45.45309],[-54,45.25445],[-53.5,45.05183],[-53,44.84518],[-52.5,44.63441],[-52,44.41945],[-51.5,44.20022],[-51,43.97663],[-50.5,43.7486],[-50,43.51605],[-49.5,43.27889],[-49,43.03703],[-48.5,42.79038],[-48,42.53884],[-47.5,42.28231],[-47,42.0207],[-46.5,41.75392],[-46,41.48185],[-45.5,41.20439],[-45,40.92144],[-44.5,40.63289],[-44,40.33863],[-43.5,40.03855],[-43,39.73254],[-42.5,39.42049],[-42,39.10228],[-41.5,38.77779],[-41,38.44692],[-40.5,38.10954],[-40,37.76555],[-39.5,37.41483],[-39,37.05727],[-38.5,36.69276],[-38,36.32119],[-37.5,35.94247],[-37,35.55648],[-36.5,35.16315],[-36,34.76238],[-35.5,34.3541],[-35,33.93823],[-34.5,33.51471],[-34,33.0835],[-33.5,32.64456],[-33,32.19787],[-32.5,31.74344],[-32,31.28127],[-31.5,30.8114],[-31,30.3339],[-30.5,29.84884],[-30,29.35634],[-29.5,28.85655],[-29,28.34962],[-28.5,27.83578],[-28,27.31525],[-27.5,26.78831],[-27,26.25529],[-26.5,25.71651],[-26,25.17239],[-25.5,24.62334],[-25,24.06982],[-24.5,23.51234],[-24,22.95144],[-23.5,22.38766],[-23,21.82161],[-22.5,21.2539],[-22,20.68517],[-21.5,20.11606],[-21,19.54723],[-20.5,18.97935],[-20,18.41307],[-19.5,17.84904],[-19,17.28791],[-18.5,16.73029],[-18,16.17678],[-17.5,15.62795],[-17,15.08434],[-16.5,14.54646],[-16,14.01476],[-15.5,13.48968],[-15,12.97161],[-14.5,12.46091],[-14,11.95787],[-13.5,11.46278],[-13,10.97586],[-12.5,10.49732],[-12,10.0273],[-11.5,9.56595],[-11,9.11336],[-10.5,8.66959],[-10,8.23469],[-9.5,7.80868],[-9,7.39154],[-8.5,6.98326],[-8,6.5838],[-7.5,6.19309],[-7,5.81106],[-6.5,5.43764],[-6,5.07271],[-5.5,4.71619],[-5,4.36796],[-4.5,4.0279],[-4,3.69588],[-3.5,3.3718],[-3,3.0555],[-2.5,2.74687],[-2,2.44576],[-1.5,2.15205],[-1,1.86559],[-0.5,1.58626],[0,1.31391],[0.5,1.04842],[1,0.78965],[1.5,0.53747],[2,0.29175],[2.5,0.05237],[3,-0.1808],[3.5,-0.40789],[4,-0.62901],[4.5,-0.84429],[5,-1.05383],[5.5,-1.25776],[6,-1.45617],[6.5,-1.64919],[7,-1.83692],[7.5,-2.01945],[8,-2.1969],[8.5,-2.36935],[9,-2.53691],[9.5,-2.69966],[10,-2.8577],[10.5,-3.01112],[11,-3.16],[11.5,-3.30443],[12,-3.44449],[12.5,-3.58025],[13,-3.7118],[13.5,-3.83921],[14,-3.96256],[14.5,-4.08191],[15,-4.19734],[15.5,-4.30891],[16,-4.41669],[16.5,-4.52074],[17,-4.62113],[17.5,-4.71792],[18,-4.81116],[18.5,-4.90092],[19,-4.98725],[19.5,-5.0702],[20,-5.14983],[20.5,-5.2262],[21,-5.29934],[21.5,-5.36932],[22,-5.43618],[22.5,-5.49996],[23,-5.56072],[23.5,-5.61849],[24,-5.67332],[24.5,-5.72526],[25,-5.77435],[25.5,-5.82062],[26,-5.86411],[26.5,-5.90487],[27,-5.94293],[27.5,-5.97833],[28,-6.0111],[28.5,-6.04128],[29,-6.06891],[29.5,-6.09402],[30,-6.11664],[30.5,-6.1368],[31,-6.15453]]}}],"attribution":"Eclipse Predictions by Fred Espenak and Jean Meeus (NASA's GSFC)","generated_at":"2026-09-23T01:44:48.614Z"}
