{"type":"FeatureCollection","year":327,"events":[{"id":"+03270606","year":327,"month":6,"day":6,"time_tdt":"06:52:21","type":"개기일식","type_code":"Tm","saros":81,"gamma":-0.04134,"magnitude":1.08098,"greatest":{"lat":20.529,"lng":106.90509},"path_width_km":261.2,"duration":"07m03s","delta_t_seconds":7379.9,"catalog_number":5543,"source":"NASA Five Millennium Canon of Solar Eclipses","source_url":"https://eclipse.gsfc.nasa.gov/SEsearch/SEsearchmap.php?Ecl=%2B03270606"},{"id":"+03271130","year":327,"month":11,"day":30,"time_tdt":"09:29:55","type":"금환일식","type_code":"A","saros":86,"gamma":-0.3063,"magnitude":0.91829,"greatest":{"lat":-39.28622,"lng":60.54285},"path_width_km":325.6,"duration":"09m12s","delta_t_seconds":7375.2,"catalog_number":5544,"source":"NASA Five Millennium Canon of Solar Eclipses","source_url":"https://eclipse.gsfc.nasa.gov/SEsearch/SEsearchmap.php?Ecl=%2B03271130"}],"features":[{"type":"Feature","id":"+03270606:north:0","properties":{"id":"+03270606","year":327,"month":6,"day":6,"time_tdt":"06:52:21","type":"개기일식","type_code":"Tm","saros":81,"gamma":-0.04134,"magnitude":1.08098,"greatest":{"lat":20.529,"lng":106.90509},"path_width_km":261.2,"duration":"07m03s","delta_t_seconds":7379.9,"catalog_number":5543,"source":"NASA Five Millennium Canon of Solar Eclipses","source_url":"https://eclipse.gsfc.nasa.gov/SEsearch/SEsearchmap.php?Ecl=%2B03270606","boundary":"north","name":"327-06-06 개기일식"},"geometry":{"type":"LineString","coordinates":[[47.4668,-12.88562],[47.5,-12.87138],[48,-12.65589],[48.5,-12.43825],[49,-12.21845],[49.5,-11.99646],[50,-11.77229],[50.5,-11.5459],[51,-11.31729],[51.5,-11.08644],[52,-10.85333],[52.5,-10.61796],[53,-10.3803],[53.5,-10.14034],[54,-9.89807],[54.5,-9.65347],[55,-9.40654],[55.5,-9.15725],[56,-8.9056],[56.5,-8.65157],[57,-8.39515],[57.5,-8.13634],[58,-7.87511],[58.5,-7.61146],[59,-7.34538],[59.5,-7.07687],[60,-6.80591],[60.5,-6.53249],[61,-6.25662],[61.5,-5.97829],[62,-5.69749],[62.5,-5.41422],[63,-5.12848],[63.5,-4.84028],[64,-4.54961],[64.5,-4.25647],[65,-3.96088],[65.5,-3.66283],[66,-3.36235],[66.5,-3.05943],[67,-2.7541],[67.5,-2.44637],[68,-2.13625],[68.5,-1.82378],[69,-1.50896],[69.5,-1.19184],[70,-0.87243],[70.5,-0.55077],[71,-0.22691],[71.5,0.09913],[72,0.4273],[72.5,0.75755],[73,1.08983],[73.5,1.42408],[74,1.76024],[74.5,2.09826],[75,2.43805],[75.5,2.77954],[76,3.12266],[76.5,3.46732],[77,3.81343],[77.5,4.1609],[78,4.50962],[78.5,4.8595],[79,5.21041],[79.5,5.56225],[80,5.91488],[80.5,6.26819],[81,6.62205],[81.5,6.9763],[82,7.33081],[82.5,7.68543],[83,8.04002],[83.5,8.3944],[84,8.74842],[84.5,9.10191],[85,9.4547],[85.5,9.80663],[86,10.15751],[86.5,10.50716],[87,10.85541],[87.5,11.20207],[88,11.54696],[88.5,11.8899],[89,12.2307],[89.5,12.56917],[90,12.90515],[90.5,13.23844],[91,13.56887],[91.5,13.89626],[92,14.22043],[92.5,14.54123],[93,14.85848],[93.5,15.17203],[94,15.48172],[94.5,15.7874],[95,16.08892],[95.5,16.38615],[96,16.67896],[96.5,16.96722],[97,17.25081],[97.5,17.52962],[98,17.80355],[98.5,18.07251],[99,18.33639],[99.5,18.59512],[100,18.84862],[100.5,19.09682],[101,19.33966],[101.5,19.57709],[102,19.80905],[102.5,20.03551],[103,20.25642],[103.5,20.47176],[104,20.68151],[104.5,20.88563],[105,21.08413],[105.5,21.27698],[106,21.46419],[106.5,21.64576],[107,21.82168],[107.5,21.99198],[108,22.15666],[108.5,22.31573],[109,22.46922],[109.5,22.61715],[110,22.75954],[110.5,22.89642],[111,23.02782],[111.5,23.15377],[112,23.2743],[112.5,23.38945],[113,23.49926],[113.5,23.60376],[114,23.703],[114.5,23.79701],[115,23.88584],[115.5,23.96952],[116,24.04811],[116.5,24.12164],[117,24.19017],[117.5,24.25373],[118,24.31237],[118.5,24.36614],[119,24.41509],[119.5,24.45925],[120,24.49868],[120.5,24.53343],[121,24.56353],[121.5,24.58904],[122,24.61001],[122.5,24.62647],[123,24.63848],[123.5,24.64609],[124,24.64933],[124.5,24.64826],[125,24.64293],[125.5,24.63337],[126,24.61964],[126.5,24.60177],[127,24.57983],[127.5,24.55384],[128,24.52387],[128.5,24.48994],[129,24.45212],[129.5,24.41044],[130,24.36494],[130.5,24.31568],[131,24.2627],[131.5,24.20604],[132,24.14574],[132.5,24.08186],[133,24.01443],[133.5,23.94351],[134,23.86913],[134.5,23.79134],[135,23.71018],[135.5,23.6257],[136,23.53794],[136.5,23.44694],[137,23.35276],[137.5,23.25543],[138,23.155],[138.5,23.05151],[139,22.945],[139.5,22.83553],[140,22.72313],[140.5,22.60785],[141,22.48974],[141.5,22.36883],[142,22.24517],[142.5,22.11881],[143,21.98978],[143.5,21.85814],[144,21.72393],[144.5,21.58719],[145,21.44797],[145.5,21.30631],[146,21.16225],[146.5,21.01584],[147,20.86713],[147.5,20.71614],[148,20.56295],[148.5,20.40757],[149,20.25006],[149.5,20.09047],[150,19.92883],[150.5,19.76519],[151,19.59959],[151.5,19.43207],[152,19.26269],[152.5,19.09147],[153,18.91847],[153.5,18.74373],[154,18.56728],[154.5,18.38918],[155,18.20946],[155.5,18.02816],[156,17.84533],[156.5,17.66101],[157,17.47523],[157.5,17.28804],[158,17.09949],[158.5,16.9096],[159,16.71841],[159.5,16.52598],[160,16.33233],[160.5,16.13751],[161,15.94156],[161.5,15.7445],[162,15.54638],[162.5,15.34724],[163,15.14711],[163.5,14.94604],[164,14.74404],[164.5,14.54117],[165,14.33745],[165.5,14.13292],[166,13.92762],[166.5,13.72157],[167,13.51482],[167.5,13.30738],[168,13.09931],[168.5,12.89062],[169,12.68136],[169.5,12.47154],[170,12.2612],[170.5,12.05038],[171,11.83909],[171.5,11.62737],[172,11.41525],[172.5,11.20276],[173,10.98992],[173.5,10.77676],[174,10.5633],[174.5,10.34958],[175,10.13562],[175.03516,10.12056]]}},{"type":"Feature","id":"+03270606:center:0","properties":{"id":"+03270606","year":327,"month":6,"day":6,"time_tdt":"06:52:21","type":"개기일식","type_code":"Tm","saros":81,"gamma":-0.04134,"magnitude":1.08098,"greatest":{"lat":20.529,"lng":106.90509},"path_width_km":261.2,"duration":"07m03s","delta_t_seconds":7379.9,"catalog_number":5543,"source":"NASA Five Millennium Canon of Solar Eclipses","source_url":"https://eclipse.gsfc.nasa.gov/SEsearch/SEsearchmap.php?Ecl=%2B03270606","boundary":"center","name":"327-06-06 개기일식"},"geometry":{"type":"LineString","coordinates":[[47.89265,-13.71863],[48,-13.67191],[48.5,-13.4587],[49,-13.24336],[49.5,-13.0259],[50,-12.80629],[50.5,-12.58452],[51,-12.36057],[51.5,-12.13444],[52,-11.90609],[52.5,-11.67553],[53,-11.44272],[53.5,-11.20767],[54,-10.97036],[54.5,-10.73077],[55,-10.48889],[55.5,-10.2447],[56,-9.9982],[56.5,-9.74937],[57,-9.49819],[57.5,-9.24466],[58,-8.98877],[58.5,-8.73051],[59,-8.46986],[59.5,-8.20681],[60,-7.94136],[60.5,-7.67351],[61,-7.40323],[61.5,-7.13054],[62,-6.85541],[62.5,-6.57785],[63,-6.29786],[63.5,-6.01543],[64,-5.73057],[64.5,-5.44327],[65,-5.15354],[65.5,-4.86138],[66,-4.5668],[66.5,-4.26981],[67,-3.97041],[67.5,-3.66863],[68,-3.36446],[68.5,-3.05794],[69,-2.74908],[69.5,-2.4379],[70,-2.12443],[70.5,-1.80869],[71,-1.49072],[71.5,-1.17054],[72,-0.8482],[72.5,-0.52375],[73,-0.19721],[73.5,0.13135],[74,0.46189],[74.5,0.79435],[75,1.12866],[75.5,1.46476],[76,1.80258],[76.5,2.14205],[77,2.48308],[77.5,2.82559],[78,3.16948],[78.5,3.51467],[79,3.86104],[79.5,4.2085],[80,4.55693],[80.5,4.90621],[81,5.25622],[81.5,5.60683],[82,5.95791],[82.5,6.30932],[83,6.66092],[83.5,7.01254],[84,7.36405],[84.5,7.71529],[85,8.06608],[85.5,8.41626],[86,8.76567],[86.5,9.11413],[87,9.46146],[87.5,9.80749],[88,10.15203],[88.5,10.4949],[89,10.83592],[89.5,11.1749],[90,11.51167],[90.5,11.84603],[91,12.1778],[91.5,12.50681],[92,12.83288],[92.5,13.15583],[93,13.47548],[93.5,13.79167],[94,14.10424],[94.5,14.41303],[95,14.71787],[95.5,15.01863],[96,15.31516],[96.5,15.60732],[97,15.89498],[97.5,16.17801],[98,16.45631],[98.5,16.72975],[99,16.99824],[99.5,17.26168],[100,17.51997],[100.5,17.77305],[101,18.02083],[101.5,18.26324],[102,18.50023],[102.5,18.73174],[103,18.95772],[103.5,19.17813],[104,19.39294],[104.5,19.60212],[105,19.80564],[105.5,20.00348],[106,20.19564],[106.5,20.3821],[107,20.56287],[107.5,20.73795],[108,20.90733],[108.5,21.07104],[109,21.22908],[109.5,21.38147],[110,21.52823],[110.5,21.6694],[111,21.80498],[111.5,21.93502],[112,22.05953],[112.5,22.17857],[113,22.29215],[113.5,22.40033],[114,22.50313],[114.5,22.6006],[115,22.69277],[115.5,22.7797],[116,22.86143],[116.5,22.93799],[117,23.00944],[117.5,23.07582],[118,23.13718],[118.5,23.19357],[119,23.24503],[119.5,23.29161],[120,23.33336],[120.5,23.37033],[121,23.40257],[121.5,23.43012],[122,23.45304],[122.5,23.47138],[123,23.48518],[123.5,23.4945],[124,23.49937],[124.5,23.49986],[125,23.49601],[125.5,23.48787],[126,23.47548],[126.5,23.45891],[127,23.43819],[127.5,23.41337],[128,23.38451],[128.5,23.35165],[129,23.31483],[129.5,23.27412],[130,23.22955],[130.5,23.18117],[131,23.12903],[131.5,23.07318],[132,23.01367],[132.5,22.95054],[133,22.88383],[133.5,22.81361],[134,22.73991],[134.5,22.66278],[135,22.58226],[135.5,22.49841],[136,22.41128],[136.5,22.3209],[137,22.22732],[137.5,22.13059],[138,22.03077],[138.5,21.92788],[139,21.82199],[139.5,21.71313],[140,21.60135],[140.5,21.4867],[141,21.36923],[141.5,21.24898],[142,21.12599],[142.5,21.00031],[143,20.872],[143.5,20.74109],[144,20.60762],[144.5,20.47166],[145,20.33323],[145.5,20.19239],[146,20.04919],[146.5,19.90366],[147,19.75585],[147.5,19.60581],[148,19.45358],[148.5,19.29921],[149,19.14273],[149.5,18.98421],[150,18.82368],[150.5,18.66118],[151,18.49675],[151.5,18.33045],[152,18.16232],[152.5,17.99239],[153,17.82072],[153.5,17.64734],[154,17.47229],[154.5,17.29563],[155,17.11739],[155.5,16.93761],[156,16.75633],[156.5,16.5736],[157,16.38945],[157.5,16.20393],[158,16.01708],[158.5,15.82894],[159,15.63954],[159.5,15.44892],[160,15.25712],[160.5,15.06419],[161,14.87016],[161.5,14.67506],[162,14.47893],[162.5,14.28182],[163,14.08375],[163.5,13.88476],[164,13.68489],[164.5,13.48417],[165,13.28264],[165.5,13.08032],[166,12.87726],[166.5,12.67348],[167,12.46902],[167.5,12.26391],[168,12.05819],[168.5,11.85187],[169,11.645],[169.5,11.4376],[170,11.22971],[170.5,11.02135],[171,10.81254],[171.5,10.60333],[172,10.39373],[172.5,10.18378],[173,9.9735],[173.5,9.76291],[174,9.55204],[174.5,9.34092],[174.62129,9.28965]]}},{"type":"Feature","id":"+03270606:south:0","properties":{"id":"+03270606","year":327,"month":6,"day":6,"time_tdt":"06:52:21","type":"개기일식","type_code":"Tm","saros":81,"gamma":-0.04134,"magnitude":1.08098,"greatest":{"lat":20.529,"lng":106.90509},"path_width_km":261.2,"duration":"07m03s","delta_t_seconds":7379.9,"catalog_number":5543,"source":"NASA Five Millennium Canon of Solar Eclipses","source_url":"https://eclipse.gsfc.nasa.gov/SEsearch/SEsearchmap.php?Ecl=%2B03270606","boundary":"south","name":"327-06-06 개기일식"},"geometry":{"type":"LineString","coordinates":[[48.5,-14.47164],[49,-14.26065],[49.5,-14.04758],[50,-13.8324],[50.5,-13.61511],[51,-13.39568],[51.5,-13.17412],[52,-12.95039],[52.5,-12.72449],[53,-12.4964],[53.5,-12.26611],[54,-12.03361],[54.5,-11.79887],[55,-11.56189],[55.5,-11.32266],[56,-11.08115],[56.5,-10.83736],[57,-10.59128],[57.5,-10.34289],[58,-10.09218],[58.5,-9.83914],[59,-9.58376],[59.5,-9.32604],[60,-9.06595],[60.5,-8.80349],[61,-8.53866],[61.5,-8.27145],[62,-8.00185],[62.5,-7.72985],[63,-7.45545],[63.5,-7.17866],[64,-6.89946],[64.5,-6.61785],[65,-6.33384],[65.5,-6.04744],[66,-5.75863],[66.5,-5.46743],[67,-5.17385],[67.5,-4.87789],[68,-4.57957],[68.5,-4.27889],[69,-3.97588],[69.5,-3.67056],[70,-3.36293],[70.5,-3.05303],[71,-2.74088],[71.5,-2.42652],[72,-2.10996],[72.5,-1.79125],[73,-1.47043],[73.5,-1.14754],[74,-0.82263],[74.5,-0.49574],[75,-0.16693],[75.5,0.16374],[76,0.49621],[76.5,0.83042],[77,1.16628],[77.5,1.50372],[78,1.84267],[78.5,2.18303],[79,2.52471],[79.5,2.86761],[80,3.21164],[80.5,3.55667],[81,3.90261],[81.5,4.24933],[82,4.59671],[82.5,4.94461],[83,5.29291],[83.5,5.64145],[84,5.9901],[84.5,6.33871],[85,6.68712],[85.5,7.03517],[86,7.3827],[86.5,7.72954],[87,8.07552],[87.5,8.42047],[88,8.7642],[88.5,9.10655],[89,9.44732],[89.5,9.78633],[90,10.12341],[90.5,10.45837],[91,10.79101],[91.5,11.12117],[92,11.44866],[92.5,11.77329],[93,12.09489],[93.5,12.41329],[94,12.72831],[94.5,13.03978],[95,13.34755],[95.5,13.65144],[96,13.95131],[96.5,14.24701],[97,14.5384],[97.5,14.82534],[98,15.10769],[98.5,15.38534],[99,15.65818],[99.5,15.92608],[100,16.18895],[100.5,16.4467],[101,16.69923],[101.5,16.94647],[102,17.18834],[102.5,17.42477],[103,17.65571],[103.5,17.8811],[104,18.1009],[104.5,18.31506],[105,18.52356],[105.5,18.72636],[106,18.92345],[106.5,19.11481],[107,19.30042],[107.5,19.48029],[108,19.6544],[108.5,19.82277],[109,19.9854],[109.5,20.14231],[110,20.29351],[110.5,20.43901],[111,20.57885],[111.5,20.71305],[112,20.84163],[112.5,20.96463],[113,21.08207],[113.5,21.19401],[114,21.30046],[114.5,21.40148],[115,21.4971],[115.5,21.58737],[116,21.67233],[116.5,21.75202],[117,21.82649],[117.5,21.89579],[118,21.95997],[118.5,22.01907],[119,22.07314],[119.5,22.12224],[120,22.16642],[120.5,22.20571],[121,22.24018],[121.5,22.26988],[122,22.29486],[122.5,22.31517],[123,22.33086],[123.5,22.34198],[124,22.34859],[124.5,22.35073],[125,22.34847],[125.5,22.34184],[126,22.33091],[126.5,22.31572],[127,22.29633],[127.5,22.27278],[128,22.24513],[128.5,22.21343],[129,22.17773],[129.5,22.13809],[130,22.09454],[130.5,22.04715],[131,21.99596],[131.5,21.94103],[132,21.88239],[132.5,21.82012],[133,21.75424],[133.5,21.68483],[134,21.61191],[134.5,21.53555],[135,21.45579],[135.5,21.37268],[136,21.28627],[136.5,21.19661],[137,21.10376],[137.5,21.00775],[138,20.90863],[138.5,20.80646],[139,20.70129],[139.5,20.59315],[140,20.48211],[140.5,20.3682],[141,20.25148],[141.5,20.132],[142,20.00979],[142.5,19.88492],[143,19.75742],[143.5,19.62735],[144,19.49474],[144.5,19.35966],[145,19.22214],[145.5,19.08223],[146,18.93998],[146.5,18.79544],[147,18.64865],[147.5,18.49965],[148,18.3485],[148.5,18.19523],[149,18.0399],[149.5,17.88254],[150,17.72321],[150.5,17.56195],[151,17.3988],[151.5,17.23381],[152,17.06702],[152.5,16.89847],[153,16.72821],[153.5,16.55628],[154,16.38272],[154.5,16.20758],[155,16.0309],[155.5,15.85271],[156,15.67307],[156.5,15.492],[157,15.30956],[157.5,15.12578],[158,14.9407],[158.5,14.75436],[159,14.5668],[159.5,14.37806],[160,14.18817],[160.5,13.99718],[161,13.80512],[161.5,13.61203],[162,13.41794],[162.5,13.2229],[163,13.02693],[163.5,12.83007],[164,12.63235],[164.5,12.43382],[165,12.2345],[165.5,12.03442],[166,11.83363],[166.5,11.63214],[167,11.43],[167.5,11.22723],[168,11.02387],[168.5,10.81994],[169,10.61548],[169.5,10.41051],[170,10.20506],[170.5,9.99917],[171,9.79285],[171.5,9.58614],[172,9.37906],[172.5,9.17164],[173,8.96391],[173.5,8.75588],[174,8.54759],[174.21094,8.45965]]}},{"type":"Feature","id":"+03271130:north:0","properties":{"id":"+03271130","year":327,"month":11,"day":30,"time_tdt":"09:29:55","type":"금환일식","type_code":"A","saros":86,"gamma":-0.3063,"magnitude":0.91829,"greatest":{"lat":-39.28622,"lng":60.54285},"path_width_km":325.6,"duration":"09m12s","delta_t_seconds":7375.2,"catalog_number":5544,"source":"NASA Five Millennium Canon of Solar Eclipses","source_url":"https://eclipse.gsfc.nasa.gov/SEsearch/SEsearchmap.php?Ecl=%2B03271130","boundary":"north","name":"327-11-30 금환일식"},"geometry":{"type":"LineString","coordinates":[[4.60156,-1.17259],[5,-1.33739],[5.5,-1.54657],[6,-1.75842],[6.5,-1.97297],[7,-2.19027],[7.5,-2.41033],[8,-2.63319],[8.5,-2.85889],[9,-3.08745],[9.5,-3.31891],[10,-3.5533],[10.5,-3.79066],[11,-4.03101],[11.5,-4.2744],[12,-4.52086],[12.5,-4.77041],[13,-5.0231],[13.5,-5.27896],[14,-5.53803],[14.5,-5.80033],[15,-6.0659],[15.5,-6.33477],[16,-6.60698],[16.5,-6.88256],[17,-7.16154],[17.5,-7.44396],[18,-7.72983],[18.5,-8.0192],[19,-8.31209],[19.5,-8.60853],[20,-8.90853],[20.5,-9.21214],[21,-9.51937],[21.5,-9.83023],[22,-10.14476],[22.5,-10.46296],[23,-10.78484],[23.5,-11.11042],[24,-11.4397],[24.5,-11.77269],[25,-12.10939],[25.5,-12.44978],[26,-12.79386],[26.5,-13.14162],[27,-13.49303],[27.5,-13.84807],[28,-14.2067],[28.5,-14.56889],[29,-14.93459],[29.5,-15.30375],[30,-15.6763],[30.5,-16.05218],[31,-16.4313],[31.5,-16.81358],[32,-17.19891],[32.5,-17.5872],[33,-17.97832],[33.5,-18.37214],[34,-18.76852],[34.5,-19.16731],[35,-19.56835],[35.5,-19.97146],[36,-20.37645],[36.5,-20.78313],[37,-21.19129],[37.5,-21.60071],[38,-22.01116],[38.5,-22.42239],[39,-22.83417],[39.5,-23.24622],[40,-23.65829],[40.5,-24.07011],[41,-24.48138],[41.5,-24.89184],[42,-25.3012],[42.5,-25.70916],[43,-26.11544],[43.5,-26.51975],[44,-26.9218],[44.5,-27.32132],[45,-27.71802],[45.5,-28.11163],[46,-28.50189],[46.5,-28.88854],[47,-29.27133],[47.5,-29.65004],[48,-30.02443],[48.5,-30.39429],[49,-30.75943],[49.5,-31.11965],[50,-31.4748],[50.5,-31.82469],[51,-32.1692],[51.5,-32.50819],[52,-32.84154],[52.5,-33.16916],[53,-33.49094],[53.5,-33.80681],[54,-34.11672],[54.5,-34.42059],[55,-34.7184],[55.5,-35.01011],[56,-35.29569],[56.5,-35.57515],[57,-35.84847],[57.5,-36.11566],[58,-36.37673],[58.5,-36.63171],[59,-36.88061],[59.5,-37.12348],[60,-37.36035],[60.5,-37.59126],[61,-37.81626],[61.5,-38.03539],[62,-38.24871],[62.5,-38.45628],[63,-38.65816],[63.5,-38.85439],[64,-39.04506],[64.5,-39.23021],[65,-39.40992],[65.5,-39.58425],[66,-39.75326],[66.5,-39.91702],[67,-40.07559],[67.5,-40.22905],[68,-40.37746],[68.5,-40.52088],[69,-40.65938],[69.5,-40.79302],[70,-40.92187],[70.5,-41.04598],[71,-41.16543],[71.5,-41.28027],[72,-41.39056],[72.5,-41.49636],[73,-41.59772],[73.5,-41.69472],[74,-41.78739],[74.5,-41.8758],[75,-41.96],[75.5,-42.04004],[76,-42.11597],[76.5,-42.18784],[77,-42.2557],[77.5,-42.3196],[78,-42.37958],[78.5,-42.43569],[79,-42.48798],[79.5,-42.53647],[80,-42.58123],[80.5,-42.62228],[81,-42.65968],[81.5,-42.69344],[82,-42.72363],[82.5,-42.75026],[83,-42.77338],[83.5,-42.79302],[84,-42.80921],[84.5,-42.822],[85,-42.8314],[85.5,-42.83746],[86,-42.8402],[86.5,-42.83965],[87,-42.83584],[87.5,-42.82881],[88,-42.81857],[88.5,-42.80515],[89,-42.78859],[89.5,-42.76891],[90,-42.74613],[90.5,-42.72027],[91,-42.69137],[91.5,-42.65945],[92,-42.62452],[92.5,-42.58662],[93,-42.54576],[93.5,-42.50198],[94,-42.45528],[94.5,-42.40569],[95,-42.35324],[95.5,-42.29795],[96,-42.23983],[96.5,-42.1789],[97,-42.11519],[97.5,-42.04873],[98,-41.97951],[98.5,-41.90758],[99,-41.83295],[99.5,-41.75564],[100,-41.67566],[100.5,-41.59305],[101,-41.50781],[101.5,-41.41998],[102,-41.32956],[102.5,-41.23659],[103,-41.14108],[103.5,-41.04304],[104,-40.94252],[104.5,-40.83951],[105,-40.73405],[105.5,-40.62616],[106,-40.51585],[106.5,-40.40315],[107,-40.28809],[107.5,-40.17067],[108,-40.05094],[108.5,-39.9289],[109,-39.80458],[109.5,-39.678],[110,-39.5492],[110.5,-39.41819],[111,-39.28499],[111.5,-39.14963],[112,-39.01214],[112.5,-38.87254],[113,-38.73086],[113.5,-38.58711],[114,-38.44134],[114.5,-38.29356],[115,-38.1438],[115.5,-37.99209],[116,-37.83846],[116.5,-37.68293],[117,-37.52553],[117.5,-37.36629],[118,-37.20524],[118.5,-37.04241],[119,-36.87782],[119.5,-36.71151],[120,-36.54351],[120.5,-36.37385],[121,-36.20255],[121.5,-36.02965],[122,-35.85517],[122.5,-35.67916],[123,-35.50163],[123.5,-35.32263],[124,-35.14218],[124.5,-34.96031],[125,-34.77706],[125.5,-34.59246],[126,-34.40654],[126.5,-34.21933],[127,-34.03087],[127.5,-33.84118],[128,-33.6503],[128.5,-33.45827],[129,-33.2651],[129.5,-33.07085],[130,-32.87553],[130.5,-32.67917],[131,-32.48183],[131.5,-32.28351],[132,-32.08426],[132.5,-31.88411],[133,-31.68309],[133.5,-31.48122],[134,-31.27855],[134.5,-31.07511],[135,-30.87091],[135.5,-30.666],[136,-30.4604],[136.5,-30.25415],[137,-30.04727],[137.5,-29.8398],[138,-29.63176],[138.5,-29.42318],[139,-29.2141],[139.5,-29.00453],[140,-28.79451],[140.375,-28.63672]]}},{"type":"Feature","id":"+03271130:center:0","properties":{"id":"+03271130","year":327,"month":11,"day":30,"time_tdt":"09:29:55","type":"금환일식","type_code":"A","saros":86,"gamma":-0.3063,"magnitude":0.91829,"greatest":{"lat":-39.28622,"lng":60.54285},"path_width_km":325.6,"duration":"09m12s","delta_t_seconds":7375.2,"catalog_number":5544,"source":"NASA Five Millennium Canon of Solar Eclipses","source_url":"https://eclipse.gsfc.nasa.gov/SEsearch/SEsearchmap.php?Ecl=%2B03271130","boundary":"center","name":"327-11-30 금환일식"},"geometry":{"type":"LineString","coordinates":[[3.55413,-2.75448],[4,-2.93289],[4.5,-3.13923],[5,-3.34825],[5.5,-3.55996],[6,-3.77441],[6.5,-3.99162],[7,-4.21163],[7.5,-4.43447],[8,-4.66018],[8.5,-4.88877],[9,-5.1203],[9.5,-5.35478],[10,-5.59226],[10.5,-5.83276],[11,-6.07633],[11.5,-6.32299],[12,-6.57278],[12.5,-6.82573],[13,-7.08188],[13.5,-7.34125],[14,-7.60389],[14.5,-7.86982],[15,-8.13907],[15.5,-8.41169],[16,-8.68769],[16.5,-8.96712],[17,-9.24999],[17.5,-9.53634],[18,-9.82619],[18.5,-10.11958],[19,-10.41652],[19.5,-10.71704],[20,-11.02116],[20.5,-11.32889],[21,-11.64026],[21.5,-11.95528],[22,-12.27396],[22.5,-12.59631],[23,-12.92233],[23.5,-13.25202],[24,-13.58539],[24.5,-13.92242],[25,-14.2631],[25.5,-14.60741],[26,-14.95534],[26.5,-15.30686],[27,-15.66192],[27.5,-16.02049],[28,-16.38252],[28.5,-16.74796],[29,-17.11673],[29.5,-17.48878],[30,-17.86401],[30.5,-18.24234],[31,-18.62366],[31.5,-19.00788],[32,-19.39486],[32.5,-19.78447],[33,-20.17659],[33.5,-20.57104],[34,-20.96768],[34.5,-21.36632],[35,-21.76678],[35.5,-22.16887],[36,-22.57237],[36.5,-22.97707],[37,-23.38275],[37.5,-23.78917],[38,-24.19608],[38.5,-24.60323],[39,-25.01036],[39.5,-25.41721],[40,-25.8235],[40.5,-26.22896],[41,-26.63331],[41.5,-27.03627],[42,-27.43757],[42.5,-27.83693],[43,-28.23406],[43.5,-28.6287],[44,-29.02059],[44.5,-29.40946],[45,-29.79505],[45.5,-30.17713],[46,-30.55546],[46.5,-30.92981],[47,-31.29997],[47.5,-31.66574],[48,-32.02692],[48.5,-32.38335],[49,-32.73486],[49.5,-33.08129],[50,-33.42252],[50.5,-33.75841],[51,-34.08885],[51.5,-34.41375],[52,-34.73303],[52.5,-35.0466],[53,-35.35441],[53.5,-35.6564],[54,-35.95254],[54.5,-36.2428],[55,-36.52716],[55.5,-36.8056],[56,-37.07813],[56.5,-37.34474],[57,-37.60546],[57.5,-37.8603],[58,-38.10928],[58.5,-38.35244],[59,-38.58981],[59.5,-38.82144],[60,-39.04736],[60.5,-39.26762],[61,-39.48228],[61.5,-39.69139],[62,-39.895],[62.5,-40.09317],[63,-40.28596],[63.5,-40.47343],[64,-40.65564],[64.5,-40.83265],[65,-41.00453],[65.5,-41.17134],[66,-41.33315],[66.5,-41.49001],[67,-41.64199],[67.5,-41.78915],[68,-41.93155],[68.5,-42.06926],[69,-42.20234],[69.5,-42.33085],[70,-42.45484],[70.5,-42.57438],[71,-42.68952],[71.5,-42.80032],[72,-42.90684],[72.5,-43.00912],[73,-43.10723],[73.5,-43.20122],[74,-43.29114],[74.5,-43.37703],[75,-43.45895],[75.5,-43.53694],[76,-43.61106],[76.5,-43.68134],[77,-43.74784],[77.5,-43.81059],[78,-43.86964],[78.5,-43.92503],[79,-43.9768],[79.5,-44.02499],[80,-44.06964],[80.5,-44.11078],[81,-44.14845],[81.5,-44.18268],[82,-44.21352],[82.5,-44.24099],[83,-44.26512],[83.5,-44.28596],[84,-44.30352],[84.5,-44.31784],[85,-44.32894],[85.5,-44.33687],[86,-44.34163],[86.5,-44.34327],[87,-44.3418],[87.5,-44.33726],[88,-44.32966],[88.5,-44.31903],[89,-44.3054],[89.5,-44.28879],[90,-44.26922],[90.5,-44.24671],[91,-44.22129],[91.5,-44.19298],[92,-44.16179],[92.5,-44.12775],[93,-44.09088],[93.5,-44.05119],[94,-44.00872],[94.5,-43.96347],[95,-43.91546],[95.5,-43.86472],[96,-43.81126],[96.5,-43.75509],[97,-43.69625],[97.5,-43.63474],[98,-43.57059],[98.5,-43.50381],[99,-43.43441],[99.5,-43.36242],[100,-43.28786],[100.5,-43.21073],[101,-43.13106],[101.5,-43.04887],[102,-42.96417],[102.5,-42.87699],[103,-42.78732],[103.5,-42.69521],[104,-42.60066],[104.5,-42.50369],[105,-42.40431],[105.5,-42.30256],[106,-42.19844],[106.5,-42.09198],[107,-41.98319],[107.5,-41.87209],[108,-41.7587],[108.5,-41.64305],[109,-41.52514],[109.5,-41.40501],[110,-41.28267],[110.5,-41.15814],[111,-41.03144],[111.5,-40.9026],[112,-40.77164],[112.5,-40.63857],[113,-40.50342],[113.5,-40.36622],[114,-40.22699],[114.5,-40.08574],[115,-39.94251],[115.5,-39.79731],[116,-39.65018],[116.5,-39.50113],[117,-39.35019],[117.5,-39.19739],[118,-39.04276],[118.5,-38.88631],[119,-38.72808],[119.5,-38.56809],[120,-38.40637],[120.5,-38.24295],[121,-38.07785],[121.5,-37.9111],[122,-37.74274],[122.5,-37.57278],[123,-37.40127],[123.5,-37.22822],[124,-37.05366],[124.5,-36.87763],[125,-36.70016],[125.5,-36.52128],[126,-36.34101],[126.5,-36.15938],[127,-35.97643],[127.5,-35.79219],[128,-35.60669],[128.5,-35.41996],[129,-35.23202],[129.5,-35.04292],[130,-34.85267],[130.5,-34.66132],[131,-34.46889],[131.5,-34.27542],[132,-34.08093],[132.5,-33.88545],[133,-33.68903],[133.5,-33.49168],[134,-33.29344],[134.5,-33.09433],[135,-32.8944],[135.5,-32.69367],[136,-32.49217],[136.5,-32.28992],[137,-32.08697],[137.5,-31.88333],[138,-31.67905],[138.5,-31.47414],[139,-31.26864],[139.5,-31.06257],[140,-30.85597],[140.5,-30.64886],[141,-30.44127],[141.5,-30.23323],[141.6388,-30.17199]]}},{"type":"Feature","id":"+03271130:south:0","properties":{"id":"+03271130","year":327,"month":11,"day":30,"time_tdt":"09:29:55","type":"금환일식","type_code":"A","saros":86,"gamma":-0.3063,"magnitude":0.91829,"greatest":{"lat":-39.28622,"lng":60.54285},"path_width_km":325.6,"duration":"09m12s","delta_t_seconds":7375.2,"catalog_number":5544,"source":"NASA Five Millennium Canon of Solar Eclipses","source_url":"https://eclipse.gsfc.nasa.gov/SEsearch/SEsearchmap.php?Ecl=%2B03271130","boundary":"south","name":"327-11-30 금환일식"},"geometry":{"type":"LineString","coordinates":[[2.48438,-4.35029],[2.5,-4.35653],[3,-4.55751],[3.5,-4.76113],[4,-4.96742],[4.5,-5.17641],[5,-5.38814],[5.5,-5.60263],[6,-5.81991],[6.5,-6.04002],[7,-6.263],[7.5,-6.48886],[8,-6.71765],[8.5,-6.94939],[9,-7.18413],[9.5,-7.42189],[10,-7.6627],[10.5,-7.90661],[11,-8.15364],[11.5,-8.40383],[12,-8.6572],[12.5,-8.9138],[13,-9.17365],[13.5,-9.43679],[14,-9.70324],[14.5,-9.97305],[15,-10.24623],[15.5,-10.52282],[16,-10.80285],[16.5,-11.08634],[17,-11.37332],[17.5,-11.66381],[18,-11.95785],[18.5,-12.25544],[19,-12.55662],[19.5,-12.86139],[20,-13.16977],[20.5,-13.48178],[21,-13.79742],[21.5,-14.1167],[22,-14.43962],[22.5,-14.76619],[23,-15.09639],[23.5,-15.43022],[24,-15.76766],[24.5,-16.1087],[25,-16.45331],[25.5,-16.80145],[26,-17.1531],[26.5,-17.50821],[27,-17.86672],[27.5,-18.22858],[28,-18.59373],[28.5,-18.96208],[29,-19.33356],[29.5,-19.70807],[30,-20.08551],[30.5,-20.46577],[31,-20.84873],[31.5,-21.23425],[32,-21.62285],[32.5,-22.01241],[33,-22.40473],[33.5,-22.79899],[34,-23.19499],[34.5,-23.59255],[35,-23.99145],[35.5,-24.39149],[36,-24.79244],[36.5,-25.19407],[37,-25.59613],[37.5,-25.99838],[38,-26.40057],[38.5,-26.80243],[39,-27.20371],[39.5,-27.60413],[40,-28.00342],[40.5,-28.40133],[41,-28.79756],[41.5,-29.19187],[42,-29.58398],[42.5,-29.97364],[43,-30.36058],[43.5,-30.74455],[44,-31.12533],[44.5,-31.50266],[45,-31.87633],[45.5,-32.24613],[46,-32.61185],[46.5,-32.97329],[47,-33.33029],[47.5,-33.68266],[48,-34.03026],[48.5,-34.37295],[49,-34.71059],[49.5,-35.04307],[50,-35.37028],[50.5,-35.69214],[51,-36.00855],[51.5,-36.31945],[52,-36.62479],[52.5,-36.92452],[53,-37.21859],[53.5,-37.50699],[54,-37.78969],[54.5,-38.06669],[55,-38.33797],[55.5,-38.60356],[56,-38.86346],[56.5,-39.11768],[57,-39.36626],[57.5,-39.60923],[58,-39.8466],[58.5,-40.07844],[59,-40.30477],[59.5,-40.52565],[60,-40.74111],[60.5,-40.95122],[61,-41.15603],[61.5,-41.35558],[62,-41.54995],[62.5,-41.73918],[63,-41.92333],[63.5,-42.10246],[64,-42.27664],[64.5,-42.44593],[65,-42.61038],[65.5,-42.77006],[66,-42.92502],[66.5,-43.07533],[67,-43.22105],[67.5,-43.36223],[68,-43.49894],[68.5,-43.63123],[69,-43.75916],[69.5,-43.88278],[70,-44.00216],[70.5,-44.11735],[71,-44.2284],[71.5,-44.33536],[72,-44.43828],[72.5,-44.53723],[73,-44.63223],[73.5,-44.72335],[74,-44.81064],[74.5,-44.89413],[75,-44.97387],[75.5,-45.04991],[76,-45.12229],[76.5,-45.19105],[77,-45.25624],[77.5,-45.31789],[78,-45.37604],[78.5,-45.43073],[79,-45.482],[79.5,-45.52988],[80,-45.57441],[80.5,-45.61562],[81,-45.65354],[81.5,-45.68822],[82,-45.71967],[82.5,-45.74793],[83,-45.77302],[83.5,-45.79499],[84,-45.81384],[84.5,-45.82962],[85,-45.84235],[85.5,-45.85205],[86,-45.85876],[86.5,-45.86248],[87,-45.86325],[87.5,-45.8611],[88,-45.85603],[88.5,-45.84808],[89,-45.83726],[89.5,-45.82361],[90,-45.80713],[90.5,-45.78784],[91,-45.76577],[91.5,-45.74094],[92,-45.71335],[92.5,-45.68304],[93,-45.65002],[93.5,-45.61431],[94,-45.57591],[94.5,-45.53486],[95,-45.49116],[95.5,-45.44484],[96,-45.3959],[96.5,-45.34437],[97,-45.29026],[97.5,-45.23358],[98,-45.17436],[98.5,-45.11259],[99,-45.04831],[99.5,-44.98153],[100,-44.91225],[100.5,-44.8405],[101,-44.76628],[101.5,-44.68963],[102,-44.61054],[102.5,-44.52903],[103,-44.44512],[103.5,-44.35883],[104,-44.27017],[104.5,-44.17914],[105,-44.08578],[105.5,-43.99009],[106,-43.8921],[106.5,-43.79181],[107,-43.68924],[107.5,-43.5844],[108,-43.47732],[108.5,-43.36802],[109,-43.2565],[109.5,-43.14278],[110,-43.02689],[110.5,-42.90884],[111,-42.78864],[111.5,-42.66632],[112,-42.5419],[112.5,-42.41538],[113,-42.28681],[113.5,-42.15618],[114,-42.02353],[114.5,-41.88886],[115,-41.75222],[115.5,-41.6136],[116,-41.47304],[116.5,-41.33056],[117,-41.18618],[117.5,-41.03992],[118,-40.89181],[118.5,-40.74186],[119,-40.59011],[119.5,-40.43657],[120,-40.28127],[120.5,-40.12423],[121,-39.96548],[121.5,-39.80505],[122,-39.64296],[122.5,-39.47924],[123,-39.3139],[123.5,-39.14699],[124,-38.97852],[124.5,-38.80853],[125,-38.63703],[125.5,-38.46407],[126,-38.28966],[126.5,-38.11384],[127,-37.93662],[127.5,-37.75805],[128,-37.57816],[128.5,-37.39696],[129,-37.21449],[129.5,-37.03077],[130,-36.84585],[130.5,-36.65974],[131,-36.47248],[131.5,-36.28409],[132,-36.09461],[132.5,-35.90407],[133,-35.71249],[133.5,-35.51991],[134,-35.32635],[134.5,-35.13185],[135,-34.93643],[135.5,-34.74013],[136,-34.54298],[136.5,-34.345],[137,-34.14622],[137.5,-33.94667],[138,-33.74639],[138.5,-33.5454],[139,-33.34373],[139.5,-33.14141],[140,-32.93846],[140.5,-32.73492],[141,-32.53082],[141.5,-32.32618],[142,-32.12103],[142.5,-31.91539],[142.93945,-31.73428]]}}],"attribution":"Eclipse Predictions by Fred Espenak and Jean Meeus (NASA's GSFC)","generated_at":"2026-09-23T01:44:48.890Z"}
