{"type":"FeatureCollection","year":343,"events":[{"id":"+03430211","year":343,"month":2,"day":11,"time_tdt":"13:51:49","type":"부분일식","type_code":"P","saros":94,"gamma":-1.01102,"magnitude":0.9909,"greatest":{"lat":-70.51294,"lng":140.8233},"path_width_km":0,"duration":"00m00s","delta_t_seconds":7227.1,"catalog_number":5578,"source":"NASA Five Millennium Canon of Solar Eclipses","source_url":"https://eclipse.gsfc.nasa.gov/SEsearch/SEsearchmap.php?Ecl=%2B03430211"},{"id":"+03430806","year":343,"month":8,"day":6,"time_tdt":"23:35:10","type":"부분일식","type_code":"P","saros":99,"gamma":1.05706,"magnitude":0.86946,"greatest":{"lat":69.84855,"lng":3.11157},"path_width_km":0,"duration":"00m00s","delta_t_seconds":7222.4,"catalog_number":5579,"source":"NASA Five Millennium Canon of Solar Eclipses","source_url":"https://eclipse.gsfc.nasa.gov/SEsearch/SEsearchmap.php?Ecl=%2B03430806"}],"features":[],"attribution":"Eclipse Predictions by Fred Espenak and Jean Meeus (NASA's GSFC)","generated_at":"2026-09-23T01:44:48.865Z"}
