{"type":"FeatureCollection","year":345,"events":[{"id":"+03450616","year":345,"month":6,"day":16,"time_tdt":"14:18:48","type":"개기일식","type_code":"T","saros":81,"gamma":-0.11616,"magnitude":1.08111,"greatest":{"lat":17.04204,"lng":-4.49329},"path_width_km":263.1,"duration":"07m17s","delta_t_seconds":7204.2,"catalog_number":5583,"source":"NASA Five Millennium Canon of Solar Eclipses","source_url":"https://eclipse.gsfc.nasa.gov/SEsearch/SEsearchmap.php?Ecl=%2B03450616"},{"id":"+03451210","year":345,"month":12,"day":10,"time_tdt":"17:32:54","type":"금환일식","type_code":"A","saros":86,"gamma":-0.30034,"magnitude":0.91911,"greatest":{"lat":-40.62183,"lng":-57.91284},"path_width_km":321.7,"duration":"09m13s","delta_t_seconds":7199.4,"catalog_number":5584,"source":"NASA Five Millennium Canon of Solar Eclipses","source_url":"https://eclipse.gsfc.nasa.gov/SEsearch/SEsearchmap.php?Ecl=%2B03451210"}],"features":[{"type":"Feature","id":"+03450616:north:0","properties":{"id":"+03450616","year":345,"month":6,"day":16,"time_tdt":"14:18:48","type":"개기일식","type_code":"T","saros":81,"gamma":-0.11616,"magnitude":1.08111,"greatest":{"lat":17.04204,"lng":-4.49329},"path_width_km":263.1,"duration":"07m17s","delta_t_seconds":7204.2,"catalog_number":5583,"source":"NASA Five Millennium Canon of Solar Eclipses","source_url":"https://eclipse.gsfc.nasa.gov/SEsearch/SEsearchmap.php?Ecl=%2B03450616","boundary":"north","name":"345-06-16 개기일식"},"geometry":{"type":"LineString","coordinates":[[-64.37109,-12.65381],[-64,-12.48779],[-63.5,-12.26256],[-63,-12.03554],[-62.5,-11.80673],[-62,-11.57612],[-61.5,-11.3437],[-61,-11.10948],[-60.5,-10.87345],[-60,-10.6356],[-59.5,-10.39593],[-59,-10.15444],[-58.5,-9.91112],[-58,-9.66597],[-57.5,-9.41899],[-57,-9.17018],[-56.5,-8.91954],[-56,-8.66707],[-55.5,-8.41276],[-55,-8.15663],[-54.5,-7.89868],[-54,-7.6389],[-53.5,-7.3773],[-53,-7.11389],[-52.5,-6.84868],[-52,-6.58166],[-51.5,-6.31286],[-51,-6.04228],[-50.5,-5.76993],[-50,-5.49582],[-49.5,-5.21997],[-49,-4.9424],[-48.5,-4.66311],[-48,-4.38214],[-47.5,-4.0995],[-47,-3.81521],[-46.5,-3.52929],[-46,-3.24178],[-45.5,-2.9527],[-45,-2.66208],[-44.5,-2.36995],[-44,-2.07635],[-43.5,-1.78132],[-43,-1.4849],[-42.5,-1.18712],[-42,-0.88804],[-41.5,-0.58769],[-41,-0.28615],[-40.5,0.01656],[-40,0.32036],[-39.5,0.62519],[-39,0.931],[-38.5,1.23772],[-38,1.54528],[-37.5,1.8536],[-37,2.16261],[-36.5,2.47222],[-36,2.78236],[-35.5,3.09294],[-35,3.40386],[-34.5,3.71504],[-34,4.02637],[-33.5,4.33775],[-33,4.64908],[-32.5,4.96026],[-32,5.27116],[-31.5,5.58167],[-31,5.89168],[-30.5,6.20106],[-30,6.5097],[-29.5,6.81745],[-29,7.1242],[-28.5,7.42982],[-28,7.73416],[-27.5,8.03709],[-27,8.33847],[-26.5,8.63817],[-26,8.93605],[-25.5,9.23196],[-25,9.52576],[-24.5,9.81731],[-24,10.10646],[-23.5,10.39308],[-23,10.67702],[-22.5,10.95814],[-22,11.2363],[-21.5,11.51137],[-21,11.78321],[-20.5,12.05168],[-20,12.31665],[-19.5,12.578],[-19,12.8356],[-18.5,13.08933],[-18,13.33906],[-17.5,13.58469],[-17,13.8261],[-16.5,14.06319],[-16,14.29585],[-15.5,14.52399],[-15,14.74751],[-14.5,14.96632],[-14,15.18034],[-13.5,15.3895],[-13,15.5937],[-12.5,15.7929],[-12,15.98702],[-11.5,16.176],[-11,16.35979],[-10.5,16.53833],[-10,16.71159],[-9.5,16.87953],[-9,17.04209],[-8.5,17.19927],[-8,17.35101],[-7.5,17.49732],[-7,17.63815],[-6.5,17.77351],[-6,17.90337],[-5.5,18.02774],[-5,18.1466],[-4.5,18.25995],[-4,18.3678],[-3.5,18.47016],[-3,18.56702],[-2.5,18.65841],[-2,18.74434],[-1.5,18.82481],[-1,18.89986],[-0.5,18.96951],[0,19.03376],[0.5,19.09266],[1,19.14623],[1.5,19.1945],[2,19.23749],[2.5,19.27525],[3,19.3078],[3.5,19.33518],[4,19.35743],[4.5,19.37458],[5,19.38668],[5.5,19.39377],[6,19.39588],[6.5,19.39306],[7,19.38536],[7.5,19.37281],[8,19.35547],[8.5,19.33338],[9,19.30659],[9.5,19.27514],[10,19.23909],[10.5,19.19849],[11,19.15338],[11.5,19.10381],[12,19.04985],[12.5,18.99153],[13,18.92891],[13.5,18.86206],[14,18.79101],[14.5,18.71582],[15,18.63656],[15.5,18.55327],[16,18.46601],[16.5,18.37484],[17,18.27981],[17.5,18.18099],[18,18.07842],[18.5,17.97217],[19,17.8623],[19.5,17.74886],[20,17.63191],[20.5,17.51152],[21,17.38774],[21.5,17.26063],[22,17.13026],[22.5,16.99668],[23,16.85995],[23.5,16.72014],[24,16.5773],[24.5,16.4315],[25,16.28279],[25.5,16.13125],[26,15.97692],[26.5,15.81987],[27,15.66017],[27.5,15.49786],[28,15.33303],[28.5,15.16571],[29,14.99598],[29.5,14.8239],[30,14.64952],[30.5,14.47291],[31,14.29412],[31.5,14.11322],[32,13.93026],[32.5,13.7453],[33,13.55841],[33.5,13.36963],[34,13.17904],[34.5,12.98667],[35,12.7926],[35.5,12.59687],[36,12.39955],[36.5,12.20068],[37,12.00033],[37.5,11.79854],[38,11.59537],[38.5,11.39088],[39,11.1851],[39.5,10.97811],[40,10.76994],[40.5,10.56064],[41,10.35027],[41.5,10.13887],[42,9.9265],[42.5,9.71319],[43,9.499],[43.5,9.28396],[44,9.06814],[44.5,8.85156],[45,8.63427],[45.5,8.41632],[46,8.19775],[46.5,7.97859],[47,7.75889],[47.5,7.53869],[48,7.31802],[48.5,7.09692],[49,6.87544],[49.5,6.6536],[50,6.43144],[50.5,6.20899],[51,5.9863],[51.5,5.76339],[52,5.54029],[52.5,5.31705],[53,5.09368],[53.5,4.87021],[54,4.64669],[54.5,4.42313],[55,4.19956],[55.5,3.97601],[56,3.75251],[56.5,3.52909],[57,3.30576],[57.5,3.08256],[58,2.8595],[58.5,2.63661],[59,2.41392],[59.5,2.19144],[59.9375,1.99697]]}},{"type":"Feature","id":"+03450616:center:0","properties":{"id":"+03450616","year":345,"month":6,"day":16,"time_tdt":"14:18:48","type":"개기일식","type_code":"T","saros":81,"gamma":-0.11616,"magnitude":1.08111,"greatest":{"lat":17.04204,"lng":-4.49329},"path_width_km":263.1,"duration":"07m17s","delta_t_seconds":7204.2,"catalog_number":5583,"source":"NASA Five Millennium Canon of Solar Eclipses","source_url":"https://eclipse.gsfc.nasa.gov/SEsearch/SEsearchmap.php?Ecl=%2B03450616","boundary":"center","name":"345-06-16 개기일식"},"geometry":{"type":"LineString","coordinates":[[-63.95339,-13.48756],[-63.5,-13.28328],[-63,-13.06035],[-62.5,-12.83566],[-62,-12.60921],[-61.5,-12.38099],[-61,-12.15099],[-60.5,-11.91922],[-60,-11.68566],[-59.5,-11.45031],[-59,-11.21317],[-58.5,-10.97424],[-58,-10.73351],[-57.5,-10.49097],[-57,-10.24664],[-56.5,-10.0005],[-56,-9.75257],[-55.5,-9.50282],[-55,-9.25128],[-54.5,-8.99794],[-54,-8.74279],[-53.5,-8.48586],[-53,-8.22713],[-52.5,-7.96662],[-52,-7.70433],[-51.5,-7.44027],[-51,-7.17444],[-50.5,-6.90686],[-50,-6.63754],[-49.5,-6.36649],[-49,-6.09372],[-48.5,-5.81924],[-48,-5.54308],[-47.5,-5.26525],[-47,-4.98577],[-46.5,-4.70467],[-46,-4.42196],[-45.5,-4.13767],[-45,-3.85183],[-44.5,-3.56446],[-44,-3.27561],[-43.5,-2.98529],[-43,-2.69356],[-42.5,-2.40044],[-42,-2.10598],[-41.5,-1.81022],[-41,-1.5132],[-40.5,-1.21499],[-40,-0.91562],[-39.5,-0.61515],[-39,-0.31365],[-38.5,-0.01117],[-38,0.29222],[-37.5,0.59646],[-37,0.90148],[-36.5,1.20719],[-36,1.51353],[-35.5,1.82041],[-35,2.12774],[-34.5,2.43544],[-34,2.74342],[-33.5,3.05158],[-33,3.35982],[-32.5,3.66804],[-32,3.97613],[-31.5,4.28399],[-31,4.59149],[-30.5,4.89853],[-30,5.20499],[-29.5,5.51074],[-29,5.81566],[-28.5,6.11962],[-28,6.42248],[-27.5,6.72413],[-27,7.02441],[-26.5,7.3232],[-26,7.62036],[-25.5,7.91574],[-25,8.20921],[-24.5,8.50062],[-24,8.78982],[-23.5,9.07669],[-23,9.36107],[-22.5,9.64281],[-22,9.92179],[-21.5,10.19786],[-21,10.47087],[-20.5,10.74069],[-20,11.00718],[-19.5,11.27021],[-19,11.52966],[-18.5,11.78538],[-18,12.03725],[-17.5,12.28515],[-17,12.52897],[-16.5,12.76858],[-16,13.00389],[-15.5,13.23477],[-15,13.46113],[-14.5,13.68287],[-14,13.8999],[-13.5,14.11214],[-13,14.31949],[-12.5,14.52187],[-12,14.71923],[-11.5,14.91148],[-11,15.09856],[-10.5,15.28042],[-10,15.45701],[-9.5,15.62826],[-9,15.79415],[-8.5,15.95463],[-8,16.10966],[-7.5,16.25922],[-7,16.40328],[-6.5,16.54181],[-6,16.67482],[-5.5,16.80227],[-5,16.92416],[-4.5,17.04048],[-4,17.15124],[-3.5,17.25644],[-3,17.35607],[-2.5,17.45016],[-2,17.5387],[-1.5,17.62172],[-1,17.69922],[-0.5,17.77124],[0,17.83779],[0.5,17.8989],[1,17.9546],[1.5,18.0049],[2,18.04985],[2.5,18.08948],[3,18.12382],[3.5,18.1529],[4,18.17677],[4.5,18.19547],[5,18.20903],[5.5,18.21751],[6,18.22093],[6.5,18.21935],[7,18.21282],[7.5,18.20138],[8,18.18507],[8.5,18.16396],[9,18.13808],[9.5,18.10749],[10,18.07224],[10.5,18.03239],[11,17.98798],[11.5,17.93907],[12,17.88572],[12.5,17.82799],[13,17.76592],[13.5,17.69957],[14,17.62901],[14.5,17.55428],[15,17.47546],[15.5,17.39259],[16,17.30573],[16.5,17.21495],[17,17.12031],[17.5,17.02187],[18,16.91968],[18.5,16.81381],[19,16.70432],[19.5,16.59127],[20,16.47472],[20.5,16.35474],[21,16.23139],[21.5,16.10473],[22,15.97482],[22.5,15.84172],[23,15.70551],[23.5,15.56624],[24,15.42397],[24.5,15.27877],[25,15.1307],[25.5,14.97982],[26,14.8262],[26.5,14.6699],[27,14.51099],[27.5,14.34951],[28,14.18554],[28.5,14.01914],[29,13.85037],[29.5,13.6793],[30,13.50597],[30.5,13.33046],[31,13.15282],[31.5,12.97311],[32,12.7914],[32.5,12.60775],[33,12.4222],[33.5,12.23482],[34,12.04567],[34.5,11.8548],[35,11.66228],[35.5,11.46815],[36,11.27247],[36.5,11.0753],[37,10.87669],[37.5,10.67669],[38,10.47537],[38.5,10.27276],[39,10.06892],[39.5,9.8639],[40,9.65775],[40.5,9.45053],[41,9.24227],[41.5,9.03302],[42,8.82284],[42.5,8.61177],[43,8.39986],[43.5,8.18714],[44,7.97367],[44.5,7.75948],[45,7.54461],[45.5,7.32912],[46,7.11304],[46.5,6.8964],[47,6.67926],[47.5,6.46164],[48,6.24358],[48.5,6.02512],[49,5.8063],[49.5,5.58715],[50,5.36771],[50.5,5.148],[51,4.92806],[51.5,4.70793],[52,4.48763],[52.5,4.2672],[53,4.04666],[53.5,3.82605],[54,3.60539],[54.5,3.3847],[55,3.16403],[55.5,2.94338],[56,2.7228],[56.5,2.50229],[57,2.2819],[57.5,2.06163],[58,1.84152],[58.5,1.62159],[59,1.40185],[59.5,1.18233],[59.54418,1.16287]]}},{"type":"Feature","id":"+03450616:south:0","properties":{"id":"+03450616","year":345,"month":6,"day":16,"time_tdt":"14:18:48","type":"개기일식","type_code":"T","saros":81,"gamma":-0.11616,"magnitude":1.08111,"greatest":{"lat":17.04204,"lng":-4.49329},"path_width_km":263.1,"duration":"07m17s","delta_t_seconds":7204.2,"catalog_number":5583,"source":"NASA Five Millennium Canon of Solar Eclipses","source_url":"https://eclipse.gsfc.nasa.gov/SEsearch/SEsearchmap.php?Ecl=%2B03450616","boundary":"south","name":"345-06-16 개기일식"},"geometry":{"type":"LineString","coordinates":[[-63.5,-14.29809],[-63,-14.07915],[-62.5,-13.85848],[-62,-13.63607],[-61.5,-13.41193],[-61,-13.18605],[-60.5,-12.95843],[-60,-12.72905],[-59.5,-12.49791],[-59,-12.26502],[-58.5,-12.03036],[-58,-11.79393],[-57.5,-11.55573],[-57,-11.31577],[-56.5,-11.07402],[-56,-10.83051],[-55.5,-10.58522],[-55,-10.33815],[-54.5,-10.08931],[-54,-9.8387],[-53.5,-9.58632],[-53,-9.33217],[-52.5,-9.07626],[-52,-8.81859],[-51.5,-8.55916],[-51,-8.298],[-50.5,-8.03509],[-50,-7.77046],[-49.5,-7.5041],[-49,-7.23604],[-48.5,-6.96629],[-48,-6.69486],[-47.5,-6.42176],[-47,-6.14702],[-46.5,-5.87065],[-46,-5.59268],[-45.5,-5.31312],[-45,-5.03199],[-44.5,-4.74934],[-44,-4.46518],[-43.5,-4.17954],[-43,-3.89246],[-42.5,-3.60397],[-42,-3.3141],[-41.5,-3.02291],[-41,-2.73042],[-40.5,-2.43669],[-40,-2.14176],[-39.5,-1.84569],[-39,-1.54852],[-38.5,-1.25031],[-38,-0.95112],[-37.5,-0.65102],[-37,-0.35007],[-36.5,-0.04833],[-36,0.25412],[-35.5,0.5572],[-35,0.86083],[-34.5,1.16494],[-34,1.46943],[-33.5,1.77422],[-33,2.07922],[-32.5,2.38431],[-32,2.68942],[-31.5,2.99443],[-31,3.29923],[-30.5,3.60372],[-30,3.90777],[-29.5,4.21128],[-29,4.51412],[-28.5,4.81617],[-28,5.1173],[-27.5,5.41738],[-27,5.71629],[-26.5,6.01388],[-26,6.31002],[-25.5,6.60457],[-25,6.8974],[-24.5,7.18836],[-24,7.47731],[-23.5,7.7641],[-23,8.04861],[-22.5,8.33067],[-22,8.61014],[-21.5,8.88689],[-21,9.16076],[-20.5,9.43163],[-20,9.69934],[-19.5,9.96376],[-19,10.22475],[-18.5,10.48217],[-18,10.73591],[-17.5,10.98582],[-17,11.23178],[-16.5,11.47368],[-16,11.71138],[-15.5,11.94478],[-15,12.17377],[-14.5,12.39824],[-14,12.61809],[-13.5,12.83322],[-13,13.04354],[-12.5,13.24896],[-12,13.44941],[-11.5,13.6448],[-11,13.83506],[-10.5,14.02013],[-10,14.19993],[-9.5,14.37443],[-9,14.54356],[-8.5,14.70727],[-8,14.86554],[-7.5,15.01831],[-7,15.16555],[-6.5,15.30725],[-6,15.44337],[-5.5,15.57389],[-5,15.69881],[-4.5,15.81811],[-4,15.93179],[-3.5,16.03984],[-3,16.14227],[-2.5,16.23907],[-2,16.33026],[-1.5,16.41586],[-1,16.49586],[-0.5,16.5703],[0,16.6392],[0.5,16.70257],[1,16.76044],[1.5,16.81284],[2,16.85981],[2.5,16.90137],[3,16.93756],[3.5,16.96842],[4,16.99398],[4.5,17.01429],[5,17.02939],[5.5,17.03933],[6,17.04414],[6.5,17.04388],[7,17.0386],[7.5,17.02834],[8,17.01316],[8.5,16.9931],[9,16.96822],[9.5,16.93857],[10,16.90422],[10.5,16.86521],[11,16.8216],[11.5,16.77344],[12,16.72081],[12.5,16.66375],[13,16.60232],[13.5,16.53659],[14,16.46661],[14.5,16.39245],[15,16.31417],[15.5,16.23183],[16,16.14549],[16.5,16.05522],[17,15.96108],[17.5,15.86312],[18,15.76143],[18.5,15.65605],[19,15.54706],[19.5,15.43452],[20,15.31849],[20.5,15.19905],[21,15.07624],[21.5,14.95015],[22,14.82083],[22.5,14.68834],[23,14.55277],[23.5,14.41416],[24,14.27258],[24.5,14.12811],[25,13.9808],[25.5,13.83072],[26,13.67793],[26.5,13.5225],[27,13.36449],[27.5,13.20396],[28,13.04099],[28.5,12.87562],[29,12.70793],[29.5,12.53797],[30,12.36582],[30.5,12.19152],[31,12.01514],[31.5,11.83674],[32,11.65639],[32.5,11.47413],[33,11.29003],[33.5,11.10415],[34,10.91655],[34.5,10.72727],[35,10.53639],[35.5,10.34394],[36,10.15],[36.5,9.95461],[37,9.75783],[37.5,9.5597],[38,9.36029],[38.5,9.15964],[39,8.95781],[39.5,8.75484],[40,8.55078],[40.5,8.34568],[41,8.13959],[41.5,7.93256],[42,7.72463],[42.5,7.51584],[43,7.30625],[43.5,7.09588],[44,6.8848],[44.5,6.67303],[45,6.46063],[45.5,6.24762],[46,6.03406],[46.5,5.81997],[47,5.6054],[47.5,5.39038],[48,5.17494],[48.5,4.95914],[49,4.74299],[49.5,4.52654],[50,4.30981],[50.5,4.09284],[51,3.87566],[51.5,3.6583],[52,3.4408],[52.5,3.22317],[53,3.00546],[53.5,2.78768],[54,2.56986],[54.5,2.35204],[55,2.13423],[55.5,1.91647],[56,1.69877],[56.5,1.48116],[57,1.26367],[57.5,1.04631],[58,0.82912],[58.5,0.6121],[59,0.39529],[59.15625,0.32758]]}},{"type":"Feature","id":"+03451210:north:0","properties":{"id":"+03451210","year":345,"month":12,"day":10,"time_tdt":"17:32:54","type":"금환일식","type_code":"A","saros":86,"gamma":-0.30034,"magnitude":0.91911,"greatest":{"lat":-40.62183,"lng":-57.91284},"path_width_km":321.7,"duration":"09m13s","delta_t_seconds":7199.4,"catalog_number":5584,"source":"NASA Five Millennium Canon of Solar Eclipses","source_url":"https://eclipse.gsfc.nasa.gov/SEsearch/SEsearchmap.php?Ecl=%2B03451210","boundary":"north","name":"345-12-10 금환일식"},"geometry":{"type":"LineString","coordinates":[[-117.37109,-5.1368],[-117,-5.30041],[-116.5,-5.52286],[-116,-5.74764],[-115.5,-5.97476],[-115,-6.20424],[-114.5,-6.43611],[-114,-6.67037],[-113.5,-6.90705],[-113,-7.14616],[-112.5,-7.38772],[-112,-7.63175],[-111.5,-7.87827],[-111,-8.12728],[-110.5,-8.37881],[-110,-8.63287],[-109.5,-8.88948],[-109,-9.14865],[-108.5,-9.41039],[-108,-9.67471],[-107.5,-9.94163],[-107,-10.21115],[-106.5,-10.48329],[-106,-10.75805],[-105.5,-11.03543],[-105,-11.31546],[-104.5,-11.59811],[-104,-11.88341],[-103.5,-12.17134],[-103,-12.46191],[-102.5,-12.75512],[-102,-13.05095],[-101.5,-13.3494],[-101,-13.65045],[-100.5,-13.9541],[-100,-14.26032],[-99.5,-14.5691],[-99,-14.88041],[-98.5,-15.19422],[-98,-15.51052],[-97.5,-15.82925],[-97,-16.15039],[-96.5,-16.47389],[-96,-16.79971],[-95.5,-17.12779],[-95,-17.45808],[-94.5,-17.79051],[-94,-18.12503],[-93.5,-18.46155],[-93,-18.80001],[-92.5,-19.14031],[-92,-19.48238],[-91.5,-19.82611],[-91,-20.1714],[-90.5,-20.51816],[-90,-20.86626],[-89.5,-21.21558],[-89,-21.56601],[-88.5,-21.91741],[-88,-22.26964],[-87.5,-22.62256],[-87,-22.97602],[-86.5,-23.32986],[-86,-23.68394],[-85.5,-24.03807],[-85,-24.3921],[-84.5,-24.74585],[-84,-25.09913],[-83.5,-25.45178],[-83,-25.80361],[-82.5,-26.15443],[-82,-26.50406],[-81.5,-26.85229],[-81,-27.19896],[-80.5,-27.54386],[-80,-27.88681],[-79.5,-28.22762],[-79,-28.56611],[-78.5,-28.90209],[-78,-29.23539],[-77.5,-29.56582],[-77,-29.89322],[-76.5,-30.21743],[-76,-30.53827],[-75.5,-30.8556],[-75,-31.16926],[-74.5,-31.47913],[-74,-31.78505],[-73.5,-32.0869],[-73,-32.38456],[-72.5,-32.67792],[-72,-32.96688],[-71.5,-33.25133],[-71,-33.53118],[-70.5,-33.80636],[-70,-34.07678],[-69.5,-34.34239],[-69,-34.60311],[-68.5,-34.85891],[-68,-35.10972],[-67.5,-35.35552],[-67,-35.59627],[-66.5,-35.83193],[-66,-36.0625],[-65.5,-36.28796],[-65,-36.50829],[-64.5,-36.7235],[-64,-36.93357],[-63.5,-37.13852],[-63,-37.33835],[-62.5,-37.53307],[-62,-37.7227],[-61.5,-37.90726],[-61,-38.08677],[-60.5,-38.26125],[-60,-38.43072],[-59.5,-38.59522],[-59,-38.75478],[-58.5,-38.90942],[-58,-39.05919],[-57.5,-39.20411],[-57,-39.34423],[-56.5,-39.47957],[-56,-39.61018],[-55.5,-39.73609],[-55,-39.85734],[-54.5,-39.97397],[-54,-40.08603],[-53.5,-40.19354],[-53,-40.29656],[-52.5,-40.39511],[-52,-40.48924],[-51.5,-40.57899],[-51,-40.66439],[-50.5,-40.74549],[-50,-40.82232],[-49.5,-40.89492],[-49,-40.96332],[-48.5,-41.02757],[-48,-41.0877],[-47.5,-41.14374],[-47,-41.19575],[-46.5,-41.24373],[-46,-41.28773],[-45.5,-41.32778],[-45,-41.36392],[-44.5,-41.39618],[-44,-41.42459],[-43.5,-41.44917],[-43,-41.46997],[-42.5,-41.48701],[-42,-41.50031],[-41.5,-41.50992],[-41,-41.51585],[-40.5,-41.51814],[-40,-41.5168],[-39.5,-41.51187],[-39,-41.50338],[-38.5,-41.49134],[-38,-41.47579],[-37.5,-41.45675],[-37,-41.43424],[-36.5,-41.40829],[-36,-41.37891],[-35.5,-41.34614],[-35,-41.31],[-34.5,-41.27051],[-34,-41.22769],[-33.5,-41.18156],[-33,-41.13215],[-32.5,-41.07948],[-32,-41.02357],[-31.5,-40.96444],[-31,-40.90211],[-30.5,-40.83661],[-30,-40.76796],[-29.5,-40.69617],[-29,-40.62128],[-28.5,-40.5433],[-28,-40.46225],[-27.5,-40.37816],[-27,-40.29104],[-26.5,-40.20093],[-26,-40.10784],[-25.5,-40.0118],[-25,-39.91282],[-24.5,-39.81094],[-24,-39.70618],[-23.5,-39.59856],[-23,-39.4881],[-22.5,-39.37483],[-22,-39.25878],[-21.5,-39.13997],[-21,-39.01843],[-20.5,-38.89418],[-20,-38.76725],[-19.5,-38.63767],[-19,-38.50547],[-18.5,-38.37068],[-18,-38.23332],[-17.5,-38.09342],[-17,-37.95102],[-16.5,-37.80615],[-16,-37.65883],[-15.5,-37.50911],[-15,-37.357],[-14.5,-37.20255],[-14,-37.04579],[-13.5,-36.88675],[-13,-36.72546],[-12.5,-36.56197],[-12,-36.39631],[-11.5,-36.22852],[-11,-36.05862],[-10.5,-35.88667],[-10,-35.71269],[-9.5,-35.53672],[-9,-35.35882],[-8.5,-35.179],[-8,-34.99732],[-7.5,-34.81381],[-7,-34.62851],[-6.5,-34.44147],[-6,-34.25272],[-5.5,-34.06231],[-5,-33.87027],[-4.5,-33.67666],[-4,-33.4815],[-3.5,-33.28485],[-3,-33.08675],[-2.5,-32.88723],[-2,-32.68634],[-1.5,-32.48413],[-1,-32.28063],[-0.5,-32.07589],[0,-31.86995],[0.5,-31.66285],[1,-31.45464],[1.5,-31.24535],[2,-31.03504],[2.5,-30.82373],[3,-30.61148],[3.5,-30.39832],[4,-30.1843],[4.5,-29.96945],[5,-29.75381],[5.5,-29.53744],[6,-29.32036],[6.5,-29.10261],[7,-28.88424],[7.5,-28.66528],[8,-28.44578],[8.5,-28.22576],[9,-28.00526],[9.5,-27.78433],[10,-27.563],[10.5,-27.3413],[11,-27.11926],[11.5,-26.89693],[12,-26.67434],[12.5,-26.45152],[13,-26.2285],[13.5,-26.00531],[14,-25.78199],[14.5,-25.55857],[15,-25.33507],[15.5,-25.11153],[16,-24.88798],[16.5,-24.66444],[17,-24.44094],[17.5,-24.21751],[18,-23.99418],[18.33008,-23.84681]]}},{"type":"Feature","id":"+03451210:center:0","properties":{"id":"+03451210","year":345,"month":12,"day":10,"time_tdt":"17:32:54","type":"금환일식","type_code":"A","saros":86,"gamma":-0.30034,"magnitude":0.91911,"greatest":{"lat":-40.62183,"lng":-57.91284},"path_width_km":321.7,"duration":"09m13s","delta_t_seconds":7199.4,"catalog_number":5584,"source":"NASA Five Millennium Canon of Solar Eclipses","source_url":"https://eclipse.gsfc.nasa.gov/SEsearch/SEsearchmap.php?Ecl=%2B03451210","boundary":"center","name":"345-12-10 금환일식"},"geometry":{"type":"LineString","coordinates":[[-118.45508,-6.68271],[-118,-6.87478],[-117.5,-7.09452],[-117,-7.31658],[-116.5,-7.54098],[-116,-7.76772],[-115.5,-7.99684],[-115,-8.22834],[-114.5,-8.46225],[-114,-8.69858],[-113.5,-8.93735],[-113,-9.17858],[-112.5,-9.42227],[-112,-9.66846],[-111.5,-9.91714],[-111,-10.16834],[-110.5,-10.42208],[-110,-10.67835],[-109.5,-10.93718],[-109,-11.19858],[-108.5,-11.46255],[-108,-11.72911],[-107.5,-11.99826],[-107,-12.27002],[-106.5,-12.54438],[-106,-12.82135],[-105.5,-13.10093],[-105,-13.38313],[-104.5,-13.66794],[-104,-13.95536],[-103.5,-14.24539],[-103,-14.53801],[-102.5,-14.83322],[-102,-15.131],[-101.5,-15.43135],[-101,-15.73423],[-100.5,-16.03964],[-100,-16.34754],[-99.5,-16.65791],[-99,-16.97072],[-98.5,-17.28593],[-98,-17.6035],[-97.5,-17.9234],[-97,-18.24556],[-96.5,-18.56994],[-96,-18.89649],[-95.5,-19.22514],[-95,-19.55582],[-94.5,-19.88846],[-94,-20.22299],[-93.5,-20.55931],[-93,-20.89735],[-92.5,-21.23701],[-92,-21.57818],[-91.5,-21.92076],[-91,-22.26464],[-90.5,-22.6097],[-90,-22.95582],[-89.5,-23.30286],[-89,-23.6507],[-88.5,-23.99919],[-88,-24.34818],[-87.5,-24.69752],[-87,-25.04706],[-86.5,-25.39663],[-86,-25.74608],[-85.5,-26.09523],[-85,-26.4439],[-84.5,-26.79193],[-84,-27.13914],[-83.5,-27.48534],[-83,-27.83036],[-82.5,-28.17401],[-82,-28.51611],[-81.5,-28.85648],[-81,-29.19493],[-80.5,-29.5313],[-80,-29.86539],[-79.5,-30.19705],[-79,-30.52609],[-78.5,-30.85234],[-78,-31.17565],[-77.5,-31.49586],[-77,-31.81281],[-76.5,-32.12636],[-76,-32.43636],[-75.5,-32.74269],[-75,-33.04521],[-74.5,-33.3438],[-74,-33.63835],[-73.5,-33.92875],[-73,-34.21491],[-72.5,-34.49672],[-72,-34.77411],[-71.5,-35.047],[-71,-35.31531],[-70.5,-35.57899],[-70,-35.83798],[-69.5,-36.09223],[-69,-36.34169],[-68.5,-36.58633],[-68,-36.82611],[-67.5,-37.06102],[-67,-37.29103],[-66.5,-37.51613],[-66,-37.73631],[-65.5,-37.95157],[-65,-38.1619],[-64.5,-38.36731],[-64,-38.56781],[-63.5,-38.7634],[-63,-38.95411],[-62.5,-39.13994],[-62,-39.32093],[-61.5,-39.49709],[-61,-39.66845],[-60.5,-39.83503],[-60,-39.99687],[-59.5,-40.15399],[-59,-40.30642],[-58.5,-40.45421],[-58,-40.59738],[-57.5,-40.73597],[-57,-40.87001],[-56.5,-40.99955],[-56,-41.12461],[-55.5,-41.24524],[-55,-41.36147],[-54.5,-41.47334],[-54,-41.58089],[-53.5,-41.68415],[-53,-41.78317],[-52.5,-41.87797],[-52,-41.96861],[-51.5,-42.05511],[-51,-42.13751],[-50.5,-42.21585],[-50,-42.29016],[-49.5,-42.36048],[-49,-42.42684],[-48.5,-42.48927],[-48,-42.54782],[-47.5,-42.60251],[-47,-42.65338],[-46.5,-42.70045],[-46,-42.74376],[-45.5,-42.78334],[-45,-42.81922],[-44.5,-42.85142],[-44,-42.87999],[-43.5,-42.90494],[-43,-42.9263],[-42.5,-42.9441],[-42,-42.95837],[-41.5,-42.96913],[-41,-42.9764],[-40.5,-42.98022],[-40,-42.98061],[-39.5,-42.97758],[-39,-42.97117],[-38.5,-42.96139],[-38,-42.94827],[-37.5,-42.93184],[-37,-42.9121],[-36.5,-42.88908],[-36,-42.86281],[-35.5,-42.83331],[-35,-42.80059],[-34.5,-42.76467],[-34,-42.72557],[-33.5,-42.68332],[-33,-42.63793],[-32.5,-42.58942],[-32,-42.53781],[-31.5,-42.48312],[-31,-42.42537],[-30.5,-42.36457],[-30,-42.30075],[-29.5,-42.23392],[-29,-42.1641],[-28.5,-42.09131],[-28,-42.01557],[-27.5,-41.93689],[-27,-41.85531],[-26.5,-41.77082],[-26,-41.68347],[-25.5,-41.59325],[-25,-41.5002],[-24.5,-41.40433],[-24,-41.30566],[-23.5,-41.20422],[-23,-41.10002],[-22.5,-40.99309],[-22,-40.88345],[-21.5,-40.77111],[-21,-40.6561],[-20.5,-40.53845],[-20,-40.41817],[-19.5,-40.29529],[-19,-40.16984],[-18.5,-40.04184],[-18,-39.91131],[-17.5,-39.77828],[-17,-39.64277],[-16.5,-39.50482],[-16,-39.36445],[-15.5,-39.22168],[-15,-39.07655],[-14.5,-38.92909],[-14,-38.77931],[-13.5,-38.62727],[-13,-38.47297],[-12.5,-38.31647],[-12,-38.15778],[-11.5,-37.99694],[-11,-37.83398],[-10.5,-37.66894],[-10,-37.50185],[-9.5,-37.33275],[-9,-37.16166],[-8.5,-36.98863],[-8,-36.81369],[-7.5,-36.63688],[-7,-36.45823],[-6.5,-36.27778],[-6,-36.09557],[-5.5,-35.91165],[-5,-35.72603],[-4.5,-35.53877],[-4,-35.34991],[-3.5,-35.15948],[-3,-34.96752],[-2.5,-34.77407],[-2,-34.57918],[-1.5,-34.38287],[-1,-34.18521],[-0.5,-33.98621],[0,-33.78593],[0.5,-33.58441],[1,-33.38168],[1.5,-33.17779],[2,-32.97277],[2.5,-32.76667],[3,-32.55953],[3.5,-32.35139],[4,-32.14229],[4.5,-31.93226],[5,-31.72136],[5.5,-31.50961],[6,-31.29705],[6.5,-31.08374],[7,-30.8697],[7.5,-30.65497],[8,-30.43959],[8.5,-30.22361],[9,-30.00705],[9.5,-29.78995],[10,-29.57235],[10.5,-29.35429],[11,-29.1358],[11.5,-28.91692],[12,-28.69768],[12.5,-28.47811],[13,-28.25825],[13.5,-28.03814],[14,-27.81779],[14.5,-27.59726],[15,-27.37656],[15.5,-27.15573],[16,-26.93479],[16.5,-26.71379],[17,-26.49274],[17.5,-26.27168],[18,-26.05063],[18.5,-25.82962],[19,-25.60868],[19.5,-25.38783],[19.53634,-25.37163]]}},{"type":"Feature","id":"+03451210:south:0","properties":{"id":"+03451210","year":345,"month":12,"day":10,"time_tdt":"17:32:54","type":"금환일식","type_code":"A","saros":86,"gamma":-0.30034,"magnitude":0.91911,"greatest":{"lat":-40.62183,"lng":-57.91284},"path_width_km":321.7,"duration":"09m13s","delta_t_seconds":7199.4,"catalog_number":5584,"source":"NASA Five Millennium Canon of Solar Eclipses","source_url":"https://eclipse.gsfc.nasa.gov/SEsearch/SEsearchmap.php?Ecl=%2B03451210","boundary":"south","name":"345-12-10 금환일식"},"geometry":{"type":"LineString","coordinates":[[-119.55469,-8.24004],[-119.5,-8.2634],[-119,-8.47826],[-118.5,-8.69541],[-118,-8.91487],[-117.5,-9.13665],[-117,-9.36078],[-116.5,-9.58727],[-116,-9.81613],[-115.5,-10.0474],[-115,-10.28107],[-114.5,-10.51717],[-114,-10.75572],[-113.5,-10.99672],[-113,-11.2402],[-112.5,-11.48617],[-112,-11.73464],[-111.5,-11.98563],[-111,-12.23914],[-110.5,-12.49519],[-110,-12.75379],[-109.5,-13.01496],[-109,-13.27868],[-108.5,-13.54499],[-108,-13.81387],[-107.5,-14.08533],[-107,-14.35939],[-106.5,-14.63603],[-106,-14.91527],[-105.5,-15.19708],[-105,-15.48149],[-104.5,-15.76846],[-104,-16.05801],[-103.5,-16.35011],[-103,-16.64475],[-102.5,-16.94192],[-102,-17.24159],[-101.5,-17.54375],[-101,-17.84837],[-100.5,-18.15542],[-100,-18.46486],[-99.5,-18.77667],[-99,-19.09079],[-98.5,-19.40719],[-98,-19.72581],[-97.5,-20.04661],[-97,-20.36952],[-96.5,-20.69448],[-96,-21.02143],[-95.5,-21.35028],[-95,-21.68097],[-94.5,-22.0134],[-94,-22.3475],[-93.5,-22.68316],[-93,-23.02028],[-92.5,-23.35876],[-92,-23.69848],[-91.5,-24.03933],[-91,-24.38119],[-90.5,-24.72393],[-90,-25.06741],[-89.5,-25.4115],[-89,-25.75604],[-88.5,-26.1009],[-88,-26.44592],[-87.5,-26.79094],[-87,-27.1358],[-86.5,-27.48033],[-86,-27.82438],[-85.5,-28.16776],[-85,-28.5103],[-84.5,-28.85184],[-84,-29.1922],[-83.5,-29.53119],[-83,-29.86865],[-82.5,-30.2044],[-82,-30.53827],[-81.5,-30.87009],[-81,-31.19968],[-80.5,-31.52687],[-80,-31.85152],[-79.5,-32.17345],[-79,-32.49251],[-78.5,-32.80855],[-78,-33.12143],[-77.5,-33.431],[-77,-33.73714],[-76.5,-34.03971],[-76,-34.3386],[-75.5,-34.63369],[-75,-34.92487],[-74.5,-35.21205],[-74,-35.49512],[-73.5,-35.77401],[-73,-36.04863],[-72.5,-36.31891],[-72,-36.58479],[-71.5,-36.84621],[-71,-37.1031],[-70.5,-37.35544],[-70,-37.60317],[-69.5,-37.84626],[-69,-38.08469],[-68.5,-38.31843],[-68,-38.54747],[-67.5,-38.77178],[-67,-38.99137],[-66.5,-39.20622],[-66,-39.41635],[-65.5,-39.62175],[-65,-39.82243],[-64.5,-40.0184],[-64,-40.20968],[-63.5,-40.39629],[-63,-40.57824],[-62.5,-40.75555],[-62,-40.92825],[-61.5,-41.09637],[-61,-41.25994],[-60.5,-41.41897],[-60,-41.57351],[-59.5,-41.72359],[-59,-41.86923],[-58.5,-42.01048],[-58,-42.14736],[-57.5,-42.27991],[-57,-42.40817],[-56.5,-42.53218],[-56,-42.65196],[-55.5,-42.76755],[-55,-42.879],[-54.5,-42.98634],[-54,-43.08959],[-53.5,-43.18881],[-53,-43.28402],[-52.5,-43.37526],[-52,-43.46257],[-51.5,-43.54598],[-51,-43.62552],[-50.5,-43.70123],[-50,-43.77313],[-49.5,-43.84128],[-49,-43.90569],[-48.5,-43.96639],[-48,-44.02343],[-47.5,-44.07682],[-47,-44.1266],[-46.5,-44.1728],[-46,-44.21545],[-45.5,-44.25457],[-45,-44.29019],[-44.5,-44.32235],[-44,-44.35105],[-43.5,-44.37634],[-43,-44.39824],[-42.5,-44.41676],[-42,-44.43194],[-41.5,-44.4438],[-41,-44.45236],[-40.5,-44.45764],[-40,-44.45966],[-39.5,-44.45845],[-39,-44.45403],[-38.5,-44.44641],[-38,-44.43562],[-37.5,-44.42167],[-37,-44.40459],[-36.5,-44.3844],[-36,-44.3611],[-35.5,-44.33473],[-35,-44.30529],[-34.5,-44.27281],[-34,-44.2373],[-33.5,-44.19878],[-33,-44.15726],[-32.5,-44.11276],[-32,-44.06531],[-31.5,-44.0149],[-31,-43.96157],[-30.5,-43.90532],[-30,-43.84617],[-29.5,-43.78414],[-29,-43.71924],[-28.5,-43.6515],[-28,-43.58091],[-27.5,-43.5075],[-27,-43.43129],[-26.5,-43.35229],[-26,-43.27052],[-25.5,-43.18599],[-25,-43.09872],[-24.5,-43.00873],[-24,-42.91603],[-23.5,-42.82064],[-23,-42.72258],[-22.5,-42.62186],[-22,-42.51851],[-21.5,-42.41254],[-21,-42.30396],[-20.5,-42.19281],[-20,-42.07909],[-19.5,-41.96284],[-19,-41.84406],[-18.5,-41.72278],[-18,-41.59902],[-17.5,-41.47281],[-17,-41.34415],[-16.5,-41.21309],[-16,-41.07963],[-15.5,-40.94381],[-15,-40.80565],[-14.5,-40.66517],[-14,-40.5224],[-13.5,-40.37736],[-13,-40.23009],[-12.5,-40.0806],[-12,-39.92893],[-11.5,-39.77511],[-11,-39.61915],[-10.5,-39.4611],[-10,-39.30099],[-9.5,-39.13883],[-9,-38.97467],[-8.5,-38.80854],[-8,-38.64047],[-7.5,-38.47048],[-7,-38.29862],[-6.5,-38.12492],[-6,-37.94942],[-5.5,-37.77214],[-5,-37.59312],[-4.5,-37.4124],[-4,-37.23001],[-3.5,-37.04599],[-3,-36.86038],[-2.5,-36.67322],[-2,-36.48453],[-1.5,-36.29437],[-1,-36.10276],[-0.5,-35.90975],[0,-35.71537],[0.5,-35.51966],[1,-35.32266],[1.5,-35.12441],[2,-34.92495],[2.5,-34.72432],[3,-34.52255],[3.5,-34.31969],[4,-34.11577],[4.5,-33.91084],[5,-33.70493],[5.5,-33.49807],[6,-33.29032],[6.5,-33.0817],[7,-32.87226],[7.5,-32.66204],[8,-32.45106],[8.5,-32.23937],[9,-32.02701],[9.5,-31.81402],[10,-31.60042],[10.5,-31.38626],[11,-31.17157],[11.5,-30.95639],[12,-30.74074],[12.5,-30.52468],[13,-30.30823],[13.5,-30.09142],[14,-29.87429],[14.5,-29.65687],[15,-29.4392],[15.5,-29.2213],[16,-29.0032],[16.5,-28.78495],[17,-28.56656],[17.5,-28.34806],[18,-28.1295],[18.5,-27.91089],[19,-27.69226],[19.5,-27.47364],[20,-27.25505],[20.5,-27.03654],[20.8125,-26.9]]}}],"attribution":"Eclipse Predictions by Fred Espenak and Jean Meeus (NASA's GSFC)","generated_at":"2026-09-23T01:44:49.178Z"}
