{"type":"FeatureCollection","year":354,"events":[{"id":"+03540111","year":354,"month":1,"day":11,"time_tdt":"07:33:10","type":"부분일식","type_code":"P","saros":95,"gamma":1.13627,"magnitude":0.7266,"greatest":{"lat":63.75191,"lng":63.80725},"path_width_km":0,"duration":"00m00s","delta_t_seconds":7120.3,"catalog_number":5602,"source":"NASA Five Millennium Canon of Solar Eclipses","source_url":"https://eclipse.gsfc.nasa.gov/SEsearch/SEsearchmap.php?Ecl=%2B03540111"},{"id":"+03540607","year":354,"month":6,"day":7,"time_tdt":"14:46:56","type":"부분일식","type_code":"P","saros":62,"gamma":1.38817,"magnitude":0.27043,"greatest":{"lat":67.08794,"lng":168.30518},"path_width_km":0,"duration":"00m00s","delta_t_seconds":7116.4,"catalog_number":5603,"source":"NASA Five Millennium Canon of Solar Eclipses","source_url":"https://eclipse.gsfc.nasa.gov/SEsearch/SEsearchmap.php?Ecl=%2B03540607"},{"id":"+03540706","year":354,"month":7,"day":6,"time_tdt":"21:23:38","type":"부분일식","type_code":"P","saros":100,"gamma":-1.10622,"magnitude":0.81777,"greatest":{"lat":-64.4819,"lng":-138.59283},"path_width_km":0,"duration":"00m00s","delta_t_seconds":7115.6,"catalog_number":5604,"source":"NASA Five Millennium Canon of Solar Eclipses","source_url":"https://eclipse.gsfc.nasa.gov/SEsearch/SEsearchmap.php?Ecl=%2B03540706"},{"id":"+03541201","year":354,"month":12,"day":1,"time_tdt":"12:07:06","type":"부분일식","type_code":"P","saros":67,"gamma":-1.22916,"magnitude":0.56863,"greatest":{"lat":-67.65373,"lng":-146.46704},"path_width_km":0,"duration":"00m00s","delta_t_seconds":7111.6,"catalog_number":5605,"source":"NASA Five Millennium Canon of Solar Eclipses","source_url":"https://eclipse.gsfc.nasa.gov/SEsearch/SEsearchmap.php?Ecl=%2B03541201"}],"features":[],"attribution":"Eclipse Predictions by Fred Espenak and Jean Meeus (NASA's GSFC)","generated_at":"2026-09-23T01:44:49.094Z"}
