{"type":"FeatureCollection","year":359,"events":[{"id":"+03590315","year":359,"month":3,"day":15,"time_tdt":"15:44:41","type":"혼성일식","type_code":"H","saros":74,"gamma":0.44437,"magnitude":1.01258,"greatest":{"lat":23.19812,"lng":-32.82758},"path_width_km":48.1,"duration":"01m13s","delta_t_seconds":7069.6,"catalog_number":5614,"source":"NASA Five Millennium Canon of Solar Eclipses","source_url":"https://eclipse.gsfc.nasa.gov/SEsearch/SEsearchmap.php?Ecl=%2B03590315"},{"id":"+03590909","year":359,"month":9,"day":9,"time_tdt":"04:45:34","type":"금환일식","type_code":"A","saros":79,"gamma":-0.45552,"magnitude":0.95204,"greatest":{"lat":-20.43884,"lng":128.93982},"path_width_km":195.8,"duration":"05m38s","delta_t_seconds":7064.9,"catalog_number":5615,"source":"NASA Five Millennium Canon of Solar Eclipses","source_url":"https://eclipse.gsfc.nasa.gov/SEsearch/SEsearchmap.php?Ecl=%2B03590909"}],"features":[{"type":"Feature","id":"+03590315:north:0","properties":{"id":"+03590315","year":359,"month":3,"day":15,"time_tdt":"15:44:41","type":"혼성일식","type_code":"H","saros":74,"gamma":0.44437,"magnitude":1.01258,"greatest":{"lat":23.19812,"lng":-32.82758},"path_width_km":48.1,"duration":"01m13s","delta_t_seconds":7069.6,"catalog_number":5614,"source":"NASA Five Millennium Canon of Solar Eclipses","source_url":"https://eclipse.gsfc.nasa.gov/SEsearch/SEsearchmap.php?Ecl=%2B03590315","boundary":"north","name":"359-03-15 혼성일식"},"geometry":{"type":"LineString","coordinates":[[-89.5,8.53799],[-89,8.51889],[-88.5,8.50123],[-88,8.48501],[-87.5,8.47027],[-87,8.45703],[-86.5,8.4453],[-86,8.43512],[-85.5,8.42649],[-85,8.41946],[-84.5,8.41403],[-84,8.41025],[-83.5,8.40812],[-83,8.40787],[-82.5,8.41457],[-82,8.42303],[-81.5,8.43328],[-81,8.44536],[-80.5,8.45927],[-80,8.47506],[-79.5,8.49276],[-79,8.51239],[-78.5,8.53398],[-78,8.55756],[-77.5,8.58318],[-77,8.61085],[-76.5,8.64061],[-76,8.67249],[-75.5,8.70654],[-75,8.74277],[-74.5,8.78124],[-74,8.82196],[-73.5,8.86499],[-73,8.91036],[-72.5,8.9581],[-72,9.00826],[-71.5,9.06087],[-71,9.11597],[-70.5,9.17361],[-70,9.23383],[-69.5,9.29667],[-69,9.36216],[-68.5,9.43036],[-68,9.50131],[-67.5,9.57506],[-67,9.65164],[-66.5,9.73111],[-66,9.81351],[-65.5,9.89889],[-65,9.98731],[-64.5,10.07879],[-64,10.17341],[-63.5,10.2712],[-63,10.37221],[-62.5,10.4765],[-62,10.58412],[-61.5,10.69512],[-61,10.80955],[-60.5,10.92745],[-60,11.04889],[-59.5,11.17391],[-59,11.30257],[-58.5,11.43491],[-58,11.57098],[-57.5,11.71084],[-57,11.85453],[-56.5,12.00211],[-56,12.15361],[-55.5,12.30909],[-55,12.46858],[-54.5,12.63214],[-54,12.7998],[-53.5,12.97159],[-53,13.14757],[-52.5,13.32775],[-52,13.51216],[-51.5,13.70084],[-51,13.89381],[-50.5,14.09108],[-50,14.29267],[-49.5,14.49858],[-49,14.70883],[-48.5,14.9234],[-48,15.1423],[-47.5,15.3655],[-47,15.59299],[-46.5,15.82473],[-46,16.06069],[-45.5,16.30083],[-45,16.54508],[-44.5,16.79341],[-44,17.04572],[-43.5,17.30195],[-43,17.562],[-42.5,17.82578],[-42,18.09318],[-41.5,18.36409],[-41,18.63838],[-40.5,18.91591],[-40,19.19654],[-39.5,19.48012],[-39,19.76648],[-38.5,20.05547],[-38,20.34689],[-37.5,20.64058],[-37,20.93634],[-36.5,21.23397],[-36,21.53329],[-35.5,21.83407],[-35,22.13613],[-34.5,22.43925],[-34,22.74323],[-33.5,23.04785],[-33,23.35291],[-32.5,23.6582],[-32,23.96351],[-31.5,24.26865],[-31,24.57342],[-30.5,24.87762],[-30,25.18107],[-29.5,25.48359],[-29,25.785],[-28.5,26.08514],[-28,26.38384],[-27.5,26.68094],[-27,26.97632],[-26.5,27.26981],[-26,27.56131],[-25.5,27.85068],[-25,28.13781],[-24.5,28.4226],[-24,28.70494],[-23.5,28.98476],[-23,29.26196],[-22.5,29.53647],[-22,29.80823],[-21.5,30.07716],[-21,30.34323],[-20.5,30.60638],[-20,30.86656],[-19.5,31.12375],[-19,31.3779],[-18.5,31.62901],[-18,31.87703],[-17.5,32.12197],[-17,32.3638],[-16.5,32.60252],[-16,32.83812],[-15.5,33.07061],[-15,33.29998],[-14.5,33.52623],[-14,33.74939],[-13.5,33.96945],[-13,34.18642],[-12.5,34.40034],[-12,34.6112],[-11.5,34.81902],[-11,35.02384],[-10.5,35.22566],[-10,35.42451],[-9.5,35.62041],[-9,35.81339],[-8.5,36.00347],[-8,36.19067],[-7.5,36.37503],[-7,36.55657],[-6.5,36.73531],[-6,36.91129],[-5.5,37.08453],[-5,37.25506],[-4.5,37.42291],[-4,37.5881],[-3.5,37.75067],[-3,37.91065],[-2.5,38.06805],[-2,38.22292],[-1.5,38.37527],[-1,38.52515],[-0.5,38.67256],[0,38.81755],[0.5,38.96014],[1,39.10036],[1.5,39.23824],[2,39.37379],[2.5,39.50705],[3,39.63805],[3.5,39.76681],[4,39.89335],[4.5,40.01771],[5,40.1399],[5.5,40.25996],[6,40.3779],[6.5,40.49375],[7,40.60753],[7.5,40.71928],[8,40.829],[8.5,40.93672],[9,41.04247],[9.5,41.14626],[10,41.24813],[10.5,41.34808],[11,41.44615],[11.5,41.54234],[12,41.63669],[12.5,41.72921],[13,41.81992],[13.5,41.90885],[14,41.996],[14.5,42.0814],[15,42.16507],[15.5,42.24702],[16,42.32728],[16.5,42.40585],[17,42.48276],[17.5,42.55803],[18,42.63167],[18.5,42.70369],[19,42.77412],[19.5,42.84297],[20,42.91025],[20.5,42.97598],[21,43.04018],[21.5,43.10285],[22,43.16402],[22.5,43.2237],[23,43.2819],[23.5,43.33863],[24,43.39391],[24.5,43.44812],[25,43.50455],[25.5,43.55956],[26,43.61316],[26.5,43.66536],[27,43.71618],[27.5,43.76562],[28,43.8137],[28.5,43.86044],[29,43.90583],[29.5,43.9499],[30,43.99266],[30.5,44.03411],[31,44.07426],[31.5,44.11314],[32,44.15074],[32.5,44.18709],[33,44.22218],[33.5,44.25603],[34,44.28865],[34.5,44.32004],[35,44.35023],[35.5,44.37921],[36,44.407],[36.5,44.4336],[37,44.45903],[37.5,44.4833],[38,44.5064],[38.5,44.52836],[39,44.54917],[39.5,44.56886]]}},{"type":"Feature","id":"+03590315:center:0","properties":{"id":"+03590315","year":359,"month":3,"day":15,"time_tdt":"15:44:41","type":"혼성일식","type_code":"H","saros":74,"gamma":0.44437,"magnitude":1.01258,"greatest":{"lat":23.19812,"lng":-32.82758},"path_width_km":48.1,"duration":"01m13s","delta_t_seconds":7069.6,"catalog_number":5614,"source":"NASA Five Millennium Canon of Solar Eclipses","source_url":"https://eclipse.gsfc.nasa.gov/SEsearch/SEsearchmap.php?Ecl=%2B03590315","boundary":"center","name":"359-03-15 혼성일식"},"geometry":{"type":"LineString","coordinates":[[-89.65535,8.50809],[-89.5,8.50393],[-89,8.48739],[-88.5,8.47229],[-88,8.45865],[-87.5,8.44651],[-87,8.43586],[-86.5,8.42675],[-86,8.41919],[-85.5,8.41321],[-85,8.40883],[-84.5,8.40607],[-84,8.40495],[-83.5,8.40551],[-83,8.40777],[-82.5,8.41176],[-82,8.41749],[-81.5,8.425],[-81,8.43432],[-80.5,8.44547],[-80,8.45848],[-79.5,8.47338],[-79,8.4902],[-78.5,8.50898],[-78,8.52973],[-77.5,8.5525],[-77,8.57731],[-76.5,8.6042],[-76,8.6332],[-75.5,8.66435],[-75,8.69767],[-74.5,8.73321],[-74,8.771],[-73.5,8.81108],[-73,8.85349],[-72.5,8.89825],[-72,8.94542],[-71.5,8.99503],[-71,9.04711],[-70.5,9.10172],[-70,9.1589],[-69.5,9.21867],[-69,9.2811],[-68.5,9.34622],[-68,9.41407],[-67.5,9.48471],[-67,9.55817],[-66.5,9.63451],[-66,9.71376],[-65.5,9.79599],[-65,9.88123],[-64.5,9.96954],[-64,10.06096],[-63.5,10.15554],[-63,10.25335],[-62.5,10.35441],[-62,10.4588],[-61.5,10.56655],[-61,10.67772],[-60.5,10.79237],[-60,10.91054],[-59.5,11.03229],[-59,11.15767],[-58.5,11.28672],[-58,11.41951],[-57.5,11.55608],[-57,11.69648],[-56.5,11.84076],[-56,11.98898],[-55.5,12.14117],[-55,12.29738],[-54.5,12.45767],[-54,12.62206],[-53.5,12.7906],[-53,12.96333],[-52.5,13.14028],[-52,13.32149],[-51.5,13.50698],[-51,13.69678],[-50.5,13.89091],[-50,14.08939],[-49.5,14.29224],[-49,14.49944],[-48.5,14.71102],[-48,14.92697],[-47.5,15.14727],[-47,15.37191],[-46.5,15.60086],[-46,15.8341],[-45.5,16.07158],[-45,16.31325],[-44.5,16.55907],[-44,16.80896],[-43.5,17.06285],[-43,17.32067],[-42.5,17.5823],[-42,17.84767],[-41.5,18.11664],[-41,18.38911],[-40.5,18.66494],[-40,18.944],[-39.5,19.22613],[-39,19.51117],[-38.5,19.79897],[-38,20.08935],[-37.5,20.38213],[-37,20.67712],[-36.5,20.97413],[-36,21.27297],[-35.5,21.57343],[-35,21.8753],[-34.5,22.17838],[-34,22.48246],[-33.5,22.78733],[-33,23.09278],[-32.5,23.3986],[-32,23.70459],[-31.5,24.01053],[-31,24.31623],[-30.5,24.62149],[-30,24.92613],[-29.5,25.22994],[-29,25.53277],[-28.5,25.83442],[-28,26.13475],[-27.5,26.43358],[-27,26.73077],[-26.5,27.02617],[-26,27.31965],[-25.5,27.61108],[-25,27.90035],[-24.5,28.18734],[-24,28.47195],[-23.5,28.75409],[-23,29.03366],[-22.5,29.3106],[-22,29.58482],[-21.5,29.85626],[-21,30.12487],[-20.5,30.39059],[-20,30.65338],[-19.5,30.9132],[-19,31.17],[-18.5,31.42378],[-18,31.67449],[-17.5,31.92212],[-17,32.16667],[-16.5,32.4081],[-16,32.64643],[-15.5,32.88165],[-15,33.11375],[-14.5,33.34274],[-14,33.56863],[-13.5,33.79142],[-13,34.01113],[-12.5,34.22777],[-12,34.44135],[-11.5,34.65189],[-11,34.85941],[-10.5,35.06393],[-10,35.26547],[-9.5,35.46406],[-9,35.65971],[-8.5,35.85245],[-8,36.0423],[-7.5,36.2293],[-7,36.41347],[-6.5,36.59483],[-6,36.77341],[-5.5,36.94925],[-5,37.12236],[-4.5,37.29277],[-4,37.46052],[-3.5,37.62564],[-3,37.78814],[-2.5,37.94807],[-2,38.10544],[-1.5,38.26029],[-1,38.41264],[-0.5,38.56252],[0,38.70997],[0.5,38.855],[1,38.99765],[1.5,39.13794],[2,39.2759],[2.5,39.41156],[3,39.54494],[3.5,39.67606],[4,39.80497],[4.5,39.93167],[5,40.0562],[5.5,40.17858],[6,40.29883],[6.5,40.41699],[7,40.53306],[7.5,40.64709],[8,40.75908],[8.5,40.86906],[9,40.97706],[9.5,41.0831],[10,41.18719],[10.5,41.28937],[11,41.38964],[11.5,41.48804],[12,41.58459],[12.5,41.67929],[13,41.77218],[13.5,41.86327],[14,41.95258],[14.5,42.04013],[15,42.12594],[15.5,42.21002],[16,42.29241],[16.5,42.3731],[17,42.45212],[17.5,42.52949],[18,42.60523],[18.5,42.67934],[19,42.75185],[19.5,42.82277],[20,42.89212],[20.5,42.95991],[21,43.02616],[21.5,43.09088],[22,43.15409],[22.5,43.2158],[23,43.27603],[23.5,43.33478],[24,43.39208],[24.5,43.44794],[25,43.50237],[25.5,43.55537],[26,43.60698],[26.5,43.65719],[27,43.70603],[27.5,43.75349],[28,43.7996],[28.5,43.84437],[29,43.8878],[29.5,43.92992],[30,43.97072],[30.5,44.01023],[31,44.04844],[31.5,44.08538],[32,44.12106],[32.5,44.15547],[33,44.18864],[33.5,44.22057],[34,44.25128],[34.5,44.28077],[35,44.30905],[35.5,44.33613],[36,44.36203],[36.5,44.38674],[37,44.41028],[37.5,44.43267],[38,44.45389],[38.5,44.47398],[39,44.49292],[39.5,44.51074],[39.48032,44.54775]]}},{"type":"Feature","id":"+03590315:south:0","properties":{"id":"+03590315","year":359,"month":3,"day":15,"time_tdt":"15:44:41","type":"혼성일식","type_code":"H","saros":74,"gamma":0.44437,"magnitude":1.01258,"greatest":{"lat":23.19812,"lng":-32.82758},"path_width_km":48.1,"duration":"01m13s","delta_t_seconds":7069.6,"catalog_number":5614,"source":"NASA Five Millennium Canon of Solar Eclipses","source_url":"https://eclipse.gsfc.nasa.gov/SEsearch/SEsearchmap.php?Ecl=%2B03590315","boundary":"south","name":"359-03-15 혼성일식"},"geometry":{"type":"LineString","coordinates":[[-89.65039,8.47432],[-89.5,8.46983],[-89,8.45585],[-88.5,8.44332],[-88,8.43226],[-87.5,8.42271],[-87,8.41467],[-86.5,8.40818],[-86,8.40325],[-85.5,8.39991],[-85,8.39818],[-84.5,8.39809],[-84,8.39965],[-83.5,8.40291],[-83,8.40768],[-82.5,8.40895],[-82,8.41196],[-81.5,8.41673],[-81,8.4233],[-80.5,8.43168],[-80,8.44192],[-79.5,8.45403],[-79,8.46806],[-78.5,8.48402],[-78,8.50194],[-77.5,8.52187],[-77,8.54383],[-76.5,8.56786],[-76,8.59398],[-75.5,8.62223],[-75,8.65266],[-74.5,8.68528],[-74,8.72014],[-73.5,8.75728],[-73,8.79672],[-72.5,8.83852],[-72,8.8827],[-71.5,8.92931],[-71,8.97839],[-70.5,9.02998],[-70,9.08412],[-69.5,9.14085],[-69,9.20021],[-68.5,9.26226],[-68,9.32703],[-67.5,9.39456],[-67,9.46491],[-66.5,9.53812],[-66,9.61424],[-65.5,9.69332],[-65,9.7754],[-64.5,9.86054],[-64,9.94877],[-63.5,10.04017],[-63,10.13476],[-62.5,10.23261],[-62,10.33377],[-61.5,10.43829],[-61,10.54622],[-60.5,10.65762],[-60,10.77253],[-59.5,10.89102],[-59,11.01312],[-58.5,11.1389],[-58,11.26841],[-57.5,11.4017],[-57,11.53882],[-56.5,11.67982],[-56,11.82475],[-55.5,11.97366],[-55,12.1266],[-54.5,12.28361],[-54,12.44474],[-53.5,12.61002],[-53,12.77951],[-52.5,12.95324],[-52,13.13124],[-51.5,13.31354],[-51,13.50017],[-50.5,13.69116],[-50,13.88653],[-49.5,14.08629],[-49,14.29045],[-48.5,14.49903],[-48,14.71201],[-47.5,14.92939],[-47,15.15117],[-46.5,15.37731],[-46,15.60781],[-45.5,15.8426],[-45,16.08167],[-44.5,16.32495],[-44,16.57239],[-43.5,16.82392],[-43,17.07946],[-42.5,17.33892],[-42,17.6022],[-41.5,17.86921],[-41,18.13982],[-40.5,18.41391],[-40,18.69134],[-39.5,18.97197],[-39,19.25565],[-38.5,19.54221],[-38,19.83149],[-37.5,20.12331],[-37,20.41748],[-36.5,20.71382],[-36,21.01213],[-35.5,21.3122],[-35,21.61384],[-34.5,21.91683],[-34,22.22097],[-33.5,22.52604],[-33,22.83183],[-32.5,23.13814],[-32,23.44475],[-31.5,23.75145],[-31,24.05804],[-30.5,24.36433],[-30,24.67011],[-29.5,24.9752],[-29,25.27941],[-28.5,25.58256],[-28,25.88448],[-27.5,26.18501],[-27,26.484],[-26.5,26.78129],[-26,27.07674],[-25.5,27.37023],[-25,27.66162],[-24.5,27.95081],[-24,28.23768],[-23.5,28.52214],[-23,28.80409],[-22.5,29.08345],[-22,29.36015],[-21.5,29.63411],[-21,29.90527],[-20.5,30.17357],[-20,30.43898],[-19.5,30.70143],[-19,30.96091],[-18.5,31.21737],[-18,31.47078],[-17.5,31.72113],[-17,31.9684],[-16.5,32.21258],[-16,32.45365],[-15.5,32.69162],[-15,32.92648],[-14.5,33.15822],[-14,33.38687],[-13.5,33.61241],[-13,33.83488],[-12.5,34.05426],[-12,34.27058],[-11.5,34.48386],[-11,34.69411],[-10.5,34.90136],[-10,35.10561],[-9.5,35.3069],[-9,35.50524],[-8.5,35.70067],[-8,35.89319],[-7.5,36.08285],[-7,36.26967],[-6.5,36.45367],[-6,36.63488],[-5.5,36.81332],[-5,36.98904],[-4.5,37.16204],[-4,37.33237],[-3.5,37.50004],[-3,37.6651],[-2.5,37.82756],[-2,37.98745],[-1.5,38.14481],[-1,38.29966],[-0.5,38.45203],[0,38.60195],[0.5,38.74944],[1,38.89453],[1.5,39.03726],[2,39.17764],[2.5,39.31571],[3,39.45148],[3.5,39.585],[4,39.71627],[4.5,39.84534],[5,39.97221],[5.5,40.09693],[6,40.21951],[6.5,40.33998],[7,40.45836],[7.5,40.57468],[8,40.68895],[8.5,40.80121],[9,40.91147],[9.5,41.01975],[10,41.12609],[10.5,41.2305],[11,41.333],[11.5,41.43361],[12,41.53235],[12.5,41.62925],[13,41.72432],[13.5,41.81759],[14,41.90906],[14.5,41.99877],[15,42.08673],[15.5,42.17295],[16,42.25747],[16.5,42.34029],[17,42.42142],[17.5,42.5009],[18,42.57874],[18.5,42.65494],[19,42.72954],[19.5,42.80254],[20,42.87396],[20.5,42.94381],[21,43.01212],[21.5,43.07889],[22,43.14414],[22.5,43.20789],[23,43.27015],[23.5,43.33093],[24,43.39025],[24.5,43.44776],[25,43.50018],[25.5,43.55119],[26,43.60081],[26.5,43.64903],[27,43.69588],[27.5,43.74137],[28,43.78551],[28.5,43.82831],[29,43.86979],[29.5,43.90994],[30,43.94879],[30.5,43.98635],[31,44.02263],[31.5,44.05763],[32,44.09137],[32.5,44.12386],[33,44.1551],[33.5,44.18512],[34,44.21391],[34.5,44.24149],[35,44.26786],[35.5,44.29304],[36,44.31704],[36.5,44.33986],[37,44.36151],[37.5,44.38201],[38,44.40136],[38.5,44.41956],[39,44.43663],[39.5,44.45258],[39.51367,44.453]]}},{"type":"Feature","id":"+03590909:north:0","properties":{"id":"+03590909","year":359,"month":9,"day":9,"time_tdt":"04:45:34","type":"금환일식","type_code":"A","saros":79,"gamma":-0.45552,"magnitude":0.95204,"greatest":{"lat":-20.43884,"lng":128.93982},"path_width_km":195.8,"duration":"05m38s","delta_t_seconds":7064.9,"catalog_number":5615,"source":"NASA Five Millennium Canon of Solar Eclipses","source_url":"https://eclipse.gsfc.nasa.gov/SEsearch/SEsearchmap.php?Ecl=%2B03590909","boundary":"north","name":"359-09-09 금환일식"},"geometry":{"type":"LineString","coordinates":[[74.13672,-8.68283],[74.5,-8.64936],[75,-8.60437],[75.5,-8.56065],[76,-8.51821],[76.5,-8.47709],[77,-8.4373],[77.5,-8.39887],[78,-8.36183],[78.5,-8.32618],[79,-8.29197],[79.5,-8.25922],[80,-8.22795],[80.5,-8.19819],[81,-8.16997],[81.5,-8.14331],[82,-8.11824],[82.5,-8.09479],[83,-8.073],[83.5,-8.05289],[84,-8.03449],[84.5,-8.01783],[85,-8.00296],[85.5,-7.98989],[86,-7.97867],[86.5,-7.96932],[87,-7.96189],[87.5,-7.95641],[88,-7.95292],[88.5,-7.95146],[89,-7.95205],[89.5,-7.95476],[90,-7.95961],[90.5,-7.96665],[91,-7.97591],[91.5,-7.98745],[92,-8.00131],[92.5,-8.01754],[93,-8.03617],[93.5,-8.05726],[94,-8.08086],[94.5,-8.10702],[95,-8.13578],[95.5,-8.16721],[96,-8.20135],[96.5,-8.23827],[97,-8.278],[97.5,-8.32062],[98,-8.36618],[98.5,-8.41474],[99,-8.46637],[99.5,-8.52111],[100,-8.57905],[100.5,-8.64023],[101,-8.70473],[101.5,-8.77262],[102,-8.84396],[102.5,-8.91882],[103,-8.99727],[103.5,-9.07939],[104,-9.16524],[104.5,-9.2549],[105,-9.34845],[105.5,-9.44595],[106,-9.54749],[106.5,-9.65315],[107,-9.76299],[107.5,-9.87709],[108,-9.99554],[108.5,-10.1184],[109,-10.24577],[109.5,-10.3777],[110,-10.51428],[110.5,-10.65558],[111,-10.80168],[111.5,-10.95264],[112,-11.10854],[112.5,-11.26944],[113,-11.4354],[113.5,-11.60648],[114,-11.78275],[114.5,-11.96424],[115,-12.15101],[115.5,-12.34309],[116,-12.54053],[116.5,-12.74334],[117,-12.95154],[117.5,-13.16515],[118,-13.38417],[118.5,-13.60858],[119,-13.83837],[119.5,-14.07352],[120,-14.31396],[120.5,-14.55966],[121,-14.81054],[121.5,-15.06652],[122,-15.3275],[122.5,-15.59339],[123,-15.86404],[123.5,-16.13932],[124,-16.41909],[124.5,-16.70316],[125,-16.99137],[125.5,-17.2835],[126,-17.57937],[126.5,-17.87873],[127,-18.18138],[127.5,-18.48705],[128,-18.7955],[128.5,-19.10648],[129,-19.41971],[129.5,-19.73493],[130,-20.05186],[130.5,-20.37023],[131,-20.68977],[131.5,-21.0102],[132,-21.33125],[132.5,-21.65265],[133,-21.97414],[133.5,-22.29547],[134,-22.61638],[134.5,-22.93664],[135,-23.25601],[135.5,-23.57428],[136,-23.89124],[136.5,-24.20669],[137,-24.52043],[137.5,-24.8323],[138,-25.14214],[138.5,-25.44978],[139,-25.75509],[139.5,-26.05794],[140,-26.35821],[140.5,-26.6558],[141,-26.9506],[141.5,-27.24253],[142,-27.53151],[142.5,-27.81747],[143,-28.10036],[143.5,-28.38011],[144,-28.6567],[144.5,-28.93007],[145,-29.20021],[145.5,-29.46708],[146,-29.73067],[146.5,-29.99096],[147,-30.24796],[147.5,-30.50164],[148,-30.75203],[148.5,-30.99912],[149,-31.24291],[149.5,-31.48343],[150,-31.72068],[150.5,-31.95469],[151,-32.18546],[151.5,-32.41303],[152,-32.63742],[152.5,-32.85864],[153,-33.07674],[153.5,-33.29172],[154,-33.50363],[154.5,-33.7125],[155,-33.91834],[155.5,-34.1212],[156,-34.32111],[156.5,-34.51809],[157,-34.71218],[157.5,-34.90341],[158,-35.09182],[158.5,-35.27744],[159,-35.46029],[159.5,-35.64042],[160,-35.81785],[160.5,-35.99263],[161,-36.16477],[161.5,-36.33431],[162,-36.50129],[162.5,-36.66574],[163,-36.82769],[163.5,-36.98716],[164,-37.1442],[164.5,-37.29882],[165,-37.45107],[165.5,-37.60096],[166,-37.74854],[166.5,-37.89382],[167,-38.03684],[167.5,-38.17763],[168,-38.31621],[168.5,-38.45261],[169,-38.58685],[169.5,-38.71897],[170,-38.84899],[170.5,-38.97693],[171,-39.10283],[171.5,-39.22669],[172,-39.34856],[172.5,-39.46845],[173,-39.58638],[173.5,-39.70239],[174,-39.81648],[174.5,-39.92869],[175,-40.03904],[175.5,-40.14754],[176,-40.25422],[176.5,-40.3591],[177,-40.4622],[177.5,-40.56355],[178,-40.66315],[178.5,-40.76102],[179,-40.8572],[179.5,-40.95169],[180,-41.04452]]}},{"type":"Feature","id":"+03590909:north:1","properties":{"id":"+03590909","year":359,"month":9,"day":9,"time_tdt":"04:45:34","type":"금환일식","type_code":"A","saros":79,"gamma":-0.45552,"magnitude":0.95204,"greatest":{"lat":-20.43884,"lng":128.93982},"path_width_km":195.8,"duration":"05m38s","delta_t_seconds":7064.9,"catalog_number":5615,"source":"NASA Five Millennium Canon of Solar Eclipses","source_url":"https://eclipse.gsfc.nasa.gov/SEsearch/SEsearchmap.php?Ecl=%2B03590909","boundary":"north","name":"359-09-09 금환일식"},"geometry":{"type":"LineString","coordinates":[[-179.5,-41.1357],[-179,-41.22525],[-178.5,-41.31319],[-178,-41.39953],[-177.5,-41.48429],[-177,-41.56749],[-176.5,-41.64914],[-176,-41.72927],[-175.5,-41.80787],[-175,-41.88498],[-174.5,-41.9606],[-174,-42.03475],[-173.5,-42.10745],[-173,-42.1787],[-172.5,-42.24853],[-172,-42.31694],[-171.5,-42.38395],[-171,-42.44957],[-170.5,-42.51382],[-170,-42.57671],[-169.5,-42.63825],[-169,-42.69845],[-168.5,-42.75732],[-168,-42.81489],[-167.5,-42.87115],[-167,-42.92612],[-166.5,-42.97981],[-166,-43.03224],[-165.5,-43.08341],[-165,-43.13333],[-164.5,-43.18202],[-164,-43.22949],[-163.95508,-43.23369]]}},{"type":"Feature","id":"+03590909:center:0","properties":{"id":"+03590909","year":359,"month":9,"day":9,"time_tdt":"04:45:34","type":"금환일식","type_code":"A","saros":79,"gamma":-0.45552,"magnitude":0.95204,"greatest":{"lat":-20.43884,"lng":128.93982},"path_width_km":195.8,"duration":"05m38s","delta_t_seconds":7064.9,"catalog_number":5615,"source":"NASA Five Millennium Canon of Solar Eclipses","source_url":"https://eclipse.gsfc.nasa.gov/SEsearch/SEsearchmap.php?Ecl=%2B03590909","boundary":"center","name":"359-09-09 금환일식"},"geometry":{"type":"LineString","coordinates":[[74.01276,-9.83808],[74.5,-9.79084],[75,-9.74361],[75.5,-9.69765],[76,-9.65298],[76.5,-9.60962],[77,-9.56761],[77.5,-9.52695],[78,-9.48769],[78.5,-9.44983],[79,-9.41342],[79.5,-9.37846],[80,-9.345],[80.5,-9.31305],[81,-9.28265],[81.5,-9.25382],[82,-9.2266],[82.5,-9.201],[83,-9.17707],[83.5,-9.15483],[84,-9.13431],[84.5,-9.11555],[85,-9.09858],[85.5,-9.08344],[86,-9.07015],[86.5,-9.05876],[87,-9.04929],[87.5,-9.0418],[88,-9.03631],[88.5,-9.03287],[89,-9.03151],[89.5,-9.03227],[90,-9.03521],[90.5,-9.04035],[91,-9.04774],[91.5,-9.05744],[92,-9.06947],[92.5,-9.0839],[93,-9.10077],[93.5,-9.12012],[94,-9.14201],[94.5,-9.16649],[95,-9.19361],[95.5,-9.22343],[96,-9.256],[96.5,-9.29137],[97,-9.3296],[97.5,-9.37076],[98,-9.4149],[98.5,-9.46208],[99,-9.51237],[99.5,-9.56582],[100,-9.62251],[100.5,-9.6825],[101,-9.74586],[101.5,-9.81265],[102,-9.88294],[102.5,-9.95682],[103,-10.03434],[103.5,-10.11558],[104,-10.20062],[104.5,-10.28952],[105,-10.38238],[105.5,-10.47925],[106,-10.58023],[106.5,-10.68538],[107,-10.79479],[107.5,-10.90854],[108,-11.02669],[108.5,-11.14934],[109,-11.27655],[109.5,-11.40841],[110,-11.54499],[110.5,-11.68636],[111,-11.8326],[111.5,-11.98378],[112,-12.13996],[112.5,-12.30122],[113,-12.46761],[113.5,-12.6392],[114,-12.81603],[114.5,-12.99815],[115,-13.18562],[115.5,-13.37846],[116,-13.57671],[116.5,-13.78039],[117,-13.98951],[117.5,-14.20408],[118,-14.42409],[118.5,-14.64953],[119,-14.88038],[119.5,-15.1166],[120,-15.35814],[120.5,-15.60493],[121,-15.8569],[121.5,-16.11395],[122,-16.376],[122.5,-16.64291],[123,-16.91456],[123.5,-17.19079],[124,-17.47145],[124.5,-17.75636],[125,-18.04533],[125.5,-18.33815],[126,-18.63462],[126.5,-18.9345],[127,-19.23756],[127.5,-19.54355],[128,-19.85221],[128.5,-20.1633],[129,-20.47653],[129.5,-20.79164],[130,-21.10835],[130.5,-21.4264],[131,-21.7455],[131.5,-22.06539],[132,-22.38581],[132.5,-22.70648],[133,-23.02715],[133.5,-23.34757],[134,-23.6675],[134.5,-23.9867],[135,-24.30496],[135.5,-24.62206],[136,-24.9378],[136.5,-25.25199],[137,-25.56444],[137.5,-25.875],[138,-26.18349],[138.5,-26.48979],[139,-26.79374],[139.5,-27.09524],[140,-27.39417],[140.5,-27.69042],[141,-27.98391],[141.5,-28.27455],[142,-28.56227],[142.5,-28.847],[143,-29.12869],[143.5,-29.4073],[144,-29.68277],[144.5,-29.95508],[145,-30.2242],[145.5,-30.4901],[146,-30.75278],[146.5,-31.01221],[147,-31.2684],[147.5,-31.52134],[148,-31.77103],[148.5,-32.01748],[149,-32.26069],[149.5,-32.50068],[150,-32.73747],[150.5,-32.97107],[151,-33.20149],[151.5,-33.42877],[152,-33.65291],[152.5,-33.87396],[153,-34.09192],[153.5,-34.30684],[154,-34.51873],[154.5,-34.72763],[155,-34.93356],[155.5,-35.13656],[156,-35.33665],[156.5,-35.53387],[157,-35.72825],[157.5,-35.91982],[158,-36.10861],[158.5,-36.29465],[159,-36.47797],[159.5,-36.65862],[160,-36.83661],[160.5,-37.01198],[161,-37.18476],[161.5,-37.35499],[162,-37.52269],[162.5,-37.68789],[163,-37.85063],[163.5,-38.01094],[164,-38.16884],[164.5,-38.32437],[165,-38.47755],[165.5,-38.62841],[166,-38.77699],[166.5,-38.9233],[167,-39.06738],[167.5,-39.20926],[168,-39.34896],[168.5,-39.48651],[169,-39.62193],[169.5,-39.75525],[170,-39.88649],[170.5,-40.01569],[171,-40.14286],[171.5,-40.26803],[172,-40.39122],[172.5,-40.51246],[173,-40.63176],[173.5,-40.74916],[174,-40.86467],[174.5,-40.97831],[175,-41.09011],[175.5,-41.20009],[176,-41.30827],[176.5,-41.41466],[177,-41.51929],[177.5,-41.62218],[178,-41.72334],[178.5,-41.82281],[179,-41.92058],[179.5,-42.01669],[180,-42.11114]]}},{"type":"Feature","id":"+03590909:center:1","properties":{"id":"+03590909","year":359,"month":9,"day":9,"time_tdt":"04:45:34","type":"금환일식","type_code":"A","saros":79,"gamma":-0.45552,"magnitude":0.95204,"greatest":{"lat":-20.43884,"lng":128.93982},"path_width_km":195.8,"duration":"05m38s","delta_t_seconds":7064.9,"catalog_number":5615,"source":"NASA Five Millennium Canon of Solar Eclipses","source_url":"https://eclipse.gsfc.nasa.gov/SEsearch/SEsearchmap.php?Ecl=%2B03590909","boundary":"center","name":"359-09-09 금환일식"},"geometry":{"type":"LineString","coordinates":[[-179.5,-42.20397],[-179,-42.29518],[-178.5,-42.38479],[-178,-42.47282],[-177.5,-42.55928],[-177,-42.6442],[-176.5,-42.72758],[-176,-42.80944],[-175.5,-42.8898],[-175,-42.96868],[-174.5,-43.04607],[-174,-43.12201],[-173.5,-43.19651],[-173,-43.26957],[-172.5,-43.34122],[-172,-43.41146],[-171.5,-43.48032],[-171,-43.54779],[-170.5,-43.6139],[-170,-43.67866],[-169.5,-43.74208],[-169,-43.80416],[-168.5,-43.86494],[-168,-43.9244],[-167.5,-43.98258],[-167,-44.03947],[-166.5,-44.09509],[-166,-44.14946],[-165.5,-44.20257],[-165,-44.25444],[-164.5,-44.30509],[-164,-44.35452],[-163.95653,-44.38182]]}},{"type":"Feature","id":"+03590909:south:0","properties":{"id":"+03590909","year":359,"month":9,"day":9,"time_tdt":"04:45:34","type":"금환일식","type_code":"A","saros":79,"gamma":-0.45552,"magnitude":0.95204,"greatest":{"lat":-20.43884,"lng":128.93982},"path_width_km":195.8,"duration":"05m38s","delta_t_seconds":7064.9,"catalog_number":5615,"source":"NASA Five Millennium Canon of Solar Eclipses","source_url":"https://eclipse.gsfc.nasa.gov/SEsearch/SEsearchmap.php?Ecl=%2B03590909","boundary":"south","name":"359-09-09 금환일식"},"geometry":{"type":"LineString","coordinates":[[73.87891,-11.00506],[74,-10.99259],[74.5,-10.94186],[75,-10.89238],[75.5,-10.84418],[76,-10.79727],[76.5,-10.75168],[77,-10.70744],[77.5,-10.66456],[78,-10.62308],[78.5,-10.58301],[79,-10.54438],[79.5,-10.50723],[80,-10.47157],[80.5,-10.43744],[81,-10.40487],[81.5,-10.37387],[82,-10.34449],[82.5,-10.31674],[83,-10.29067],[83.5,-10.26631],[84,-10.24368],[84.5,-10.22282],[85,-10.20377],[85.5,-10.18656],[86,-10.17122],[86.5,-10.15778],[87,-10.1463],[87.5,-10.1368],[88,-10.12933],[88.5,-10.12392],[89,-10.12062],[89.5,-10.11946],[90,-10.12049],[90.5,-10.12375],[91,-10.1293],[91.5,-10.13716],[92,-10.1474],[92.5,-10.16005],[93,-10.17517],[93.5,-10.19281],[94,-10.21302],[94.5,-10.23585],[95,-10.26136],[95.5,-10.28959],[96,-10.32061],[96.5,-10.35448],[97,-10.39125],[97.5,-10.43098],[98,-10.47373],[98.5,-10.51957],[99,-10.56856],[99.5,-10.62077],[100,-10.67626],[100.5,-10.73509],[101,-10.79735],[101.5,-10.8631],[102,-10.9324],[102.5,-11.00534],[103,-11.08198],[103.5,-11.16241],[104,-11.24669],[104.5,-11.3349],[105,-11.42712],[105.5,-11.52343],[106,-11.62391],[106.5,-11.72864],[107,-11.83768],[107.5,-11.95114],[108,-12.06907],[108.5,-12.19157],[109,-12.31871],[109.5,-12.45057],[110,-12.58722],[110.5,-12.72874],[111,-12.87521],[111.5,-13.02668],[112,-13.18323],[112.5,-13.34493],[113,-13.51184],[113.5,-13.684],[114,-13.86148],[114.5,-14.04432],[115,-14.23256],[115.5,-14.42624],[116,-14.62537],[116.5,-14.82999],[117,-15.0401],[117.5,-15.25569],[118,-15.47676],[118.5,-15.7033],[119,-15.93526],[119.5,-16.1726],[120,-16.41527],[120.5,-16.66319],[121,-16.91628],[121.5,-17.17445],[122,-17.43758],[122.5,-17.70553],[123,-17.97819],[123.5,-18.25537],[124,-18.53692],[124.5,-18.82266],[125,-19.11237],[125.5,-19.40587],[126,-19.70291],[126.5,-20.00328],[127,-20.30672],[127.5,-20.61299],[128,-20.92183],[128.5,-21.23298],[129,-21.54617],[129.5,-21.86112],[130,-22.17757],[130.5,-22.49525],[131,-22.81388],[131.5,-23.1332],[132,-23.45294],[132.5,-23.77284],[133,-24.09266],[133.5,-24.41215],[134,-24.73107],[134.5,-25.04921],[135,-25.36634],[135.5,-25.68225],[136,-25.99676],[136.5,-26.30968],[137,-26.62084],[137.5,-26.93008],[138,-27.23724],[138.5,-27.54219],[139,-27.84481],[139.5,-28.14496],[140,-28.44256],[140.5,-28.7375],[141,-29.02969],[141.5,-29.31906],[142,-29.60554],[142.5,-29.88907],[143,-30.16959],[143.5,-30.44707],[144,-30.72145],[144.5,-30.99272],[145,-31.26085],[145.5,-31.52581],[146,-31.78759],[146.5,-32.04619],[147,-32.30159],[147.5,-32.5538],[148,-32.80281],[148.5,-33.04864],[149,-33.29129],[149.5,-33.53078],[150,-33.76712],[150.5,-34.00032],[151,-34.23041],[151.5,-34.4574],[152,-34.68132],[152.5,-34.90219],[153,-35.12004],[153.5,-35.33488],[154,-35.54676],[154.5,-35.7557],[155,-35.96172],[155.5,-36.16486],[156,-36.36514],[156.5,-36.5626],[157,-36.75726],[157.5,-36.94916],[158,-37.13832],[158.5,-37.32478],[159,-37.50857],[159.5,-37.68972],[160,-37.86826],[160.5,-38.04422],[161,-38.21764],[161.5,-38.38853],[162,-38.55694],[162.5,-38.72288],[163,-38.8864],[163.5,-39.04752],[164,-39.20627],[164.5,-39.36268],[165,-39.51678],[165.5,-39.66859],[166,-39.81814],[166.5,-39.96547],[167,-40.11059],[167.5,-40.25353],[168,-40.39433],[168.5,-40.533],[169,-40.66957],[169.5,-40.80407],[170,-40.93651],[170.5,-41.06694],[171,-41.19536],[171.5,-41.3218],[172,-41.44629],[172.5,-41.56885],[173,-41.6895],[173.5,-41.80826],[174,-41.92515],[174.5,-42.0402],[175,-42.15342],[175.5,-42.26485],[176,-42.37448],[176.5,-42.48236],[177,-42.58849],[177.5,-42.69289],[178,-42.79559],[178.5,-42.8966],[179,-42.99594],[179.5,-43.09363],[180,-43.18969]]}},{"type":"Feature","id":"+03590909:south:1","properties":{"id":"+03590909","year":359,"month":9,"day":9,"time_tdt":"04:45:34","type":"금환일식","type_code":"A","saros":79,"gamma":-0.45552,"magnitude":0.95204,"greatest":{"lat":-20.43884,"lng":128.93982},"path_width_km":195.8,"duration":"05m38s","delta_t_seconds":7064.9,"catalog_number":5615,"source":"NASA Five Millennium Canon of Solar Eclipses","source_url":"https://eclipse.gsfc.nasa.gov/SEsearch/SEsearchmap.php?Ecl=%2B03590909","boundary":"south","name":"359-09-09 금환일식"},"geometry":{"type":"LineString","coordinates":[[-179.5,-43.28412],[-179,-43.37696],[-178.5,-43.46821],[-178,-43.5579],[-177.5,-43.64603],[-177,-43.73263],[-176.5,-43.8177],[-176,-43.90127],[-175.5,-43.98335],[-175,-44.06396],[-174.5,-44.1431],[-174,-44.2208],[-173.5,-44.29706],[-173,-44.3719],[-172.5,-44.44533],[-172,-44.51738],[-171.5,-44.58804],[-171,-44.65733],[-170.5,-44.72527],[-170,-44.79186],[-169.5,-44.85713],[-169,-44.92107],[-168.5,-44.98371],[-168,-45.04505],[-167.5,-45.1051],[-167,-45.16388],[-166.5,-45.2214],[-166,-45.27767],[-165.5,-45.33269],[-165,-45.38649],[-164,-45.49042],[-164.5,-45.43906],[-164.125,-45.47769]]}}],"attribution":"Eclipse Predictions by Fred Espenak and Jean Meeus (NASA's GSFC)","generated_at":"2026-09-23T01:44:49.427Z"}
