{"type":"FeatureCollection","year":36,"events":[{"id":"+00360117","year":36,"month":1,"day":17,"time_tdt":"11:06:51","type":"부분일식","type_code":"P","saros":51,"gamma":-1.43294,"magnitude":0.22812,"greatest":{"lat":-63.44185,"lng":-159.67865},"path_width_km":0,"duration":"00m00s","delta_t_seconds":10174.4,"catalog_number":4862,"source":"NASA Five Millennium Canon of Solar Eclipses","source_url":"https://eclipse.gsfc.nasa.gov/SEsearch/SEsearchmap.php?Ecl=%2B00360117"},{"id":"+00360216","year":36,"month":2,"day":16,"time_tdt":"04:03:39","type":"부분일식","type_code":"P","saros":89,"gamma":1.52401,"magnitude":0.0641,"greatest":{"lat":61.65911,"lng":101.78723},"path_width_km":0,"duration":"00m00s","delta_t_seconds":10173.6,"catalog_number":4863,"source":"NASA Five Millennium Canon of Solar Eclipses","source_url":"https://eclipse.gsfc.nasa.gov/SEsearch/SEsearchmap.php?Ecl=%2B00360216"},{"id":"+00360712","year":36,"month":7,"day":12,"time_tdt":"04:46:32","type":"부분일식","type_code":"P","saros":56,"gamma":1.22453,"magnitude":0.58883,"greatest":{"lat":64.20845,"lng":-59.51324},"path_width_km":0,"duration":"00m00s","delta_t_seconds":10169.6,"catalog_number":4864,"source":"NASA Five Millennium Canon of Solar Eclipses","source_url":"https://eclipse.gsfc.nasa.gov/SEsearch/SEsearchmap.php?Ecl=%2B00360712"},{"id":"+00360810","year":36,"month":8,"day":10,"time_tdt":"12:08:25","type":"부분일식","type_code":"P","saros":94,"gamma":-1.30565,"magnitude":0.43252,"greatest":{"lat":-62.15757,"lng":-14.9635},"path_width_km":0,"duration":"00m00s","delta_t_seconds":10168.9,"catalog_number":4865,"source":"NASA Five Millennium Canon of Solar Eclipses","source_url":"https://eclipse.gsfc.nasa.gov/SEsearch/SEsearchmap.php?Ecl=%2B00360810"}],"features":[],"attribution":"Eclipse Predictions by Fred Espenak and Jean Meeus (NASA's GSFC)","generated_at":"2026-09-23T01:44:43.150Z"}
