{"type":"FeatureCollection","year":369,"events":[{"id":"+03690223","year":369,"month":2,"day":23,"time_tdt":"05:26:33","type":"부분일식","type_code":"P","saros":65,"gamma":-1.03006,"magnitude":0.95826,"greatest":{"lat":-61.23542,"lng":-120.87592},"path_width_km":0,"duration":"00m00s","delta_t_seconds":6972,"catalog_number":5636,"source":"NASA Five Millennium Canon of Solar Eclipses","source_url":"https://eclipse.gsfc.nasa.gov/SEsearch/SEsearchmap.php?Ecl=%2B03690223"},{"id":"+03690819","year":369,"month":8,"day":19,"time_tdt":"00:43:14","type":"부분일식","type_code":"P","saros":70,"gamma":1.22581,"magnitude":0.57579,"greatest":{"lat":61.5405,"lng":-46.17926},"path_width_km":0,"duration":"00m00s","delta_t_seconds":6967.3,"catalog_number":5637,"source":"NASA Five Millennium Canon of Solar Eclipses","source_url":"https://eclipse.gsfc.nasa.gov/SEsearch/SEsearchmap.php?Ecl=%2B03690819"}],"features":[],"attribution":"Eclipse Predictions by Fred Espenak and Jean Meeus (NASA's GSFC)","generated_at":"2026-09-23T01:44:49.320Z"}
