{"type":"FeatureCollection","year":370,"events":[{"id":"+03700212","year":370,"month":2,"day":12,"time_tdt":"21:36:02","type":"개기일식","type_code":"T","saros":75,"gamma":-0.34705,"magnitude":1.04248,"greatest":{"lat":-31.59683,"lng":-100.69879},"path_width_km":150.8,"duration":"03m23s","delta_t_seconds":6962.5,"catalog_number":5638,"source":"NASA Five Millennium Canon of Solar Eclipses","source_url":"https://eclipse.gsfc.nasa.gov/SEsearch/SEsearchmap.php?Ecl=%2B03700212"},{"id":"+03700808","year":370,"month":8,"day":8,"time_tdt":"03:22:48","type":"금환일식","type_code":"A","saros":80,"gamma":0.4533,"magnitude":0.97647,"greatest":{"lat":40.9949,"lng":172.61871},"path_width_km":93.6,"duration":"02m09s","delta_t_seconds":6957.7,"catalog_number":5639,"source":"NASA Five Millennium Canon of Solar Eclipses","source_url":"https://eclipse.gsfc.nasa.gov/SEsearch/SEsearchmap.php?Ecl=%2B03700808"}],"features":[{"type":"Feature","id":"+03700212:north:0","properties":{"id":"+03700212","year":370,"month":2,"day":12,"time_tdt":"21:36:02","type":"개기일식","type_code":"T","saros":75,"gamma":-0.34705,"magnitude":1.04248,"greatest":{"lat":-31.59683,"lng":-100.69879},"path_width_km":150.8,"duration":"03m23s","delta_t_seconds":6962.5,"catalog_number":5638,"source":"NASA Five Millennium Canon of Solar Eclipses","source_url":"https://eclipse.gsfc.nasa.gov/SEsearch/SEsearchmap.php?Ecl=%2B03700212","boundary":"north","name":"370-02-12 개기일식"},"geometry":{"type":"LineString","coordinates":[[170.54688,-43.94252],[171,-44.05081],[171.5,-44.16895],[172,-44.28567],[172.5,-44.40096],[173,-44.51481],[173.5,-44.62722],[174,-44.73816],[174.5,-44.84764],[175,-44.95565],[175.5,-45.06217],[176,-45.1672],[176.5,-45.27074],[177,-45.37277],[177.5,-45.47328],[178,-45.57228],[178.5,-45.66974],[179,-45.76567],[179.5,-45.86006],[180,-45.95289]]}},{"type":"Feature","id":"+03700212:north:1","properties":{"id":"+03700212","year":370,"month":2,"day":12,"time_tdt":"21:36:02","type":"개기일식","type_code":"T","saros":75,"gamma":-0.34705,"magnitude":1.04248,"greatest":{"lat":-31.59683,"lng":-100.69879},"path_width_km":150.8,"duration":"03m23s","delta_t_seconds":6962.5,"catalog_number":5638,"source":"NASA Five Millennium Canon of Solar Eclipses","source_url":"https://eclipse.gsfc.nasa.gov/SEsearch/SEsearchmap.php?Ecl=%2B03700212","boundary":"north","name":"370-02-12 개기일식"},"geometry":{"type":"LineString","coordinates":[[-179.5,-46.04416],[-179,-46.13387],[-178.5,-46.22201],[-178,-46.30857],[-177.5,-46.39354],[-177,-46.47691],[-176.5,-46.55869],[-176,-46.63885],[-175.5,-46.7174],[-175,-46.79433],[-174.5,-46.86963],[-174,-46.9433],[-173.5,-47.01532],[-173,-47.08569],[-172.5,-47.15441],[-172,-47.22147],[-171.5,-47.28685],[-171,-47.35056],[-170.5,-47.41258],[-170,-47.47291],[-169.5,-47.53154],[-169,-47.58847],[-168.5,-47.64369],[-168,-47.69719],[-167.5,-47.74895],[-167,-47.79899],[-166.5,-47.84728],[-166,-47.89382],[-165.5,-47.93861],[-165,-47.98163],[-164.5,-48.02287],[-164,-48.06233],[-163.5,-48.10001],[-163,-48.13588],[-162.5,-48.16995],[-162,-48.2022],[-161.5,-48.23263],[-161,-48.26122],[-160.5,-48.28797],[-160,-48.31287],[-159.5,-48.3359],[-159,-48.35706],[-158.5,-48.37633],[-158,-48.39372],[-157.5,-48.4092],[-157,-48.42276],[-156.5,-48.43439],[-156,-48.44409],[-155.5,-48.45184],[-155,-48.45762],[-154.5,-48.46143],[-154,-48.46325],[-153.5,-48.46307],[-153,-48.46088],[-152.5,-48.45665],[-152,-48.45039],[-151.5,-48.44206],[-151,-48.43167],[-150.5,-48.41918],[-150,-48.40459],[-149.5,-48.38788],[-149,-48.36903],[-148.5,-48.34802],[-148,-48.32485],[-147.5,-48.29948],[-147,-48.2719],[-146.5,-48.24209],[-146,-48.21003],[-145.5,-48.1757],[-145,-48.13908],[-144.5,-48.10015],[-144,-48.05888],[-143.5,-48.01526],[-143,-47.96925],[-142.5,-47.92083],[-142,-47.86999],[-141.5,-47.81669],[-141,-47.7609],[-140.5,-47.7026],[-140,-47.64177],[-139.5,-47.57836],[-139,-47.51236],[-138.5,-47.44373],[-138,-47.37244],[-137.5,-47.29846],[-137,-47.22176],[-136.5,-47.14229],[-136,-47.06003],[-135.5,-46.97494],[-135,-46.88699],[-134.5,-46.79613],[-134,-46.70232],[-133.5,-46.60553],[-133,-46.50571],[-132.5,-46.40282],[-132,-46.29682],[-131.5,-46.18766],[-131,-46.07529],[-130.5,-45.95967],[-130,-45.84075],[-129.5,-45.71847],[-129,-45.59279],[-128.5,-45.46365],[-128,-45.331],[-127.5,-45.19478],[-127,-45.05494],[-126.5,-44.91141],[-126,-44.76413],[-125.5,-44.61304],[-125,-44.45808],[-124.5,-44.29918],[-124,-44.13627],[-123.5,-43.96929],[-123,-43.79816],[-122.5,-43.62281],[-122,-43.44316],[-121.5,-43.25915],[-121,-43.07069],[-120.5,-42.8777],[-120,-42.6801],[-119.5,-42.47781],[-119,-42.27075],[-118.5,-42.05882],[-118,-41.84194],[-117.5,-41.62002],[-117,-41.39297],[-116.5,-41.1607],[-116,-40.92311],[-115.5,-40.68012],[-115,-40.43161],[-114.5,-40.17751],[-114,-39.9177],[-113.5,-39.6521],[-113,-39.38061],[-112.5,-39.10313],[-112,-38.81956],[-111.5,-38.52981],[-111,-38.23379],[-110.5,-37.9314],[-110,-37.62256],[-109.5,-37.30717],[-109,-36.98516],[-108.5,-36.65644],[-108,-36.32094],[-107.5,-35.97861],[-107,-35.62936],[-106.5,-35.27316],[-106,-34.90995],[-105.5,-34.53971],[-105,-34.16241],[-104.5,-33.77803],[-104,-33.38659],[-103.5,-32.98809],[-103,-32.58257],[-102.5,-32.17008],[-102,-31.75069],[-101.5,-31.32448],[-101,-30.89157],[-100.5,-30.45209],[-100,-30.00619],[-99.5,-29.55405],[-99,-29.09587],[-98.5,-28.63188],[-98,-28.16234],[-97.5,-27.68752],[-97,-27.20773],[-96.5,-26.72329],[-96,-26.23456],[-95.5,-25.74192],[-95,-25.24574],[-94.5,-24.74646],[-94,-24.2445],[-93.5,-23.74029],[-93,-23.23431],[-92.5,-22.727],[-92,-22.21884],[-91.5,-21.7103],[-91,-21.20185],[-90.5,-20.69394],[-90,-20.18705],[-89.5,-19.68161],[-89,-19.17806],[-88.5,-18.67682],[-88,-18.1783],[-87.5,-17.68287],[-87,-17.1909],[-86.5,-16.70273],[-86,-16.21868],[-85.5,-15.73904],[-85,-15.26407],[-84.5,-14.79404],[-84,-14.32916],[-83.5,-13.86963],[-83,-13.41563],[-82.5,-12.96731],[-82,-12.52481],[-81.5,-12.08825],[-81,-11.65772],[-80.5,-11.23329],[-80,-10.81503],[-79.5,-10.40299],[-79,-9.9972],[-78.5,-9.59768],[-78,-9.20442],[-77.5,-8.81744],[-77,-8.43671],[-76.5,-8.06221],[-76,-7.69391],[-75.5,-7.33177],[-75,-6.97575],[-74.5,-6.62579],[-74,-6.28184],[-73.5,-5.94384],[-73,-5.61172],[-72.5,-5.28542],[-72,-4.96487],[-71.5,-4.65],[-71,-4.34072],[-70.5,-4.03698],[-70,-3.73869],[-69.5,-3.44577],[-69,-3.15816],[-68.5,-2.87576],[-68,-2.5985],[-67.5,-2.32631],[-67,-2.0591],[-66.5,-1.79681],[-66,-1.53935],[-65.5,-1.28665],[-65,-1.03863],[-64.5,-0.79522],[-64,-0.55635],[-63.5,-0.32194],[-63,-0.09193],[-62.5,0.13375],[-62,0.35518],[-61.5,0.57243],[-61,0.78555],[-60.5,0.99461],[-60,1.19967],[-59.5,1.40081],[-59,1.59808],[-58.5,1.79154],[-58,1.98124],[-57.5,2.16725],[-57,2.34963],[-56.5,2.52842],[-56,2.70369],[-55.5,2.87549],[-55,3.04386],[-54.5,3.20886],[-54,3.37053],[-53.5,3.52894],[-53,3.68412],[-52.5,3.83612],[-52,3.98498],[-51.5,4.13076],[-51,4.27348],[-50.5,4.41321],[-50,4.54997],[-49.5,4.68381],[-49,4.81477],[-48.5,4.94289],[-48,5.0682],[-47.5,5.19074],[-47,5.31056],[-46.58984,5.40682]]}},{"type":"Feature","id":"+03700212:center:0","properties":{"id":"+03700212","year":370,"month":2,"day":12,"time_tdt":"21:36:02","type":"개기일식","type_code":"T","saros":75,"gamma":-0.34705,"magnitude":1.04248,"greatest":{"lat":-31.59683,"lng":-100.69879},"path_width_km":150.8,"duration":"03m23s","delta_t_seconds":6962.5,"catalog_number":5638,"source":"NASA Five Millennium Canon of Solar Eclipses","source_url":"https://eclipse.gsfc.nasa.gov/SEsearch/SEsearchmap.php?Ecl=%2B03700212","boundary":"center","name":"370-02-12 개기일식"},"geometry":{"type":"LineString","coordinates":[[170.28952,-44.34249],[170.5,-44.37816],[171,-44.49914],[171.5,-44.6187],[172,-44.73682],[172.5,-44.8535],[173,-44.96873],[173.5,-45.0825],[174,-45.19481],[174.5,-45.30563],[175,-45.41497],[175.5,-45.52282],[176,-45.62917],[176.5,-45.73401],[177,-45.83734],[177.5,-45.93914],[178,-46.03941],[178.5,-46.13815],[179,-46.23534],[179.5,-46.33098],[180,-46.42505]]}},{"type":"Feature","id":"+03700212:center:1","properties":{"id":"+03700212","year":370,"month":2,"day":12,"time_tdt":"21:36:02","type":"개기일식","type_code":"T","saros":75,"gamma":-0.34705,"magnitude":1.04248,"greatest":{"lat":-31.59683,"lng":-100.69879},"path_width_km":150.8,"duration":"03m23s","delta_t_seconds":6962.5,"catalog_number":5638,"source":"NASA Five Millennium Canon of Solar Eclipses","source_url":"https://eclipse.gsfc.nasa.gov/SEsearch/SEsearchmap.php?Ecl=%2B03700212","boundary":"center","name":"370-02-12 개기일식"},"geometry":{"type":"LineString","coordinates":[[-179.5,-46.51757],[-179,-46.6085],[-178.5,-46.69786],[-178,-46.78563],[-177.5,-46.87181],[-177,-46.95639],[-176.5,-47.03936],[-176,-47.12072],[-175.5,-47.20046],[-175,-47.27857],[-174.5,-47.35505],[-174,-47.42989],[-173.5,-47.50308],[-173,-47.57462],[-172.5,-47.6445],[-172,-47.71272],[-171.5,-47.77926],[-171,-47.84412],[-170.5,-47.9073],[-170,-47.96879],[-169.5,-48.02858],[-169,-48.08667],[-168.5,-48.14304],[-168,-48.19769],[-167.5,-48.25062],[-167,-48.30181],[-166.5,-48.35127],[-166,-48.39898],[-165.5,-48.44493],[-165,-48.48912],[-164.5,-48.53155],[-164,-48.57219],[-163.5,-48.61105],[-163,-48.64812],[-162.5,-48.68339],[-162,-48.71685],[-161.5,-48.74849],[-161,-48.7783],[-160.5,-48.80628],[-160,-48.83241],[-159.5,-48.85669],[-159,-48.87911],[-158.5,-48.89965],[-158,-48.91832],[-157.5,-48.93508],[-157,-48.94995],[-156.5,-48.9629],[-156,-48.97393],[-155.5,-48.98302],[-155,-48.99016],[-154.5,-48.99534],[-154,-48.99855],[-153.5,-48.99977],[-153,-48.999],[-152.5,-48.99621],[-152,-48.9914],[-151.5,-48.98456],[-151,-48.97565],[-150.5,-48.96468],[-150,-48.95163],[-149.5,-48.93648],[-149,-48.91921],[-148.5,-48.89981],[-148,-48.87826],[-147.5,-48.85454],[-147,-48.82864],[-146.5,-48.80054],[-146,-48.77021],[-145.5,-48.73764],[-145,-48.70281],[-144.5,-48.66569],[-144,-48.62627],[-143.5,-48.58452],[-143,-48.54043],[-142.5,-48.49395],[-142,-48.44508],[-141.5,-48.39379],[-141,-48.34005],[-140.5,-48.28384],[-140,-48.22513],[-139.5,-48.16388],[-139,-48.10008],[-138.5,-48.03369],[-138,-47.96469],[-137.5,-47.89303],[-137,-47.8187],[-136.5,-47.74165],[-136,-47.66186],[-135.5,-47.57928],[-135,-47.49389],[-134.5,-47.40563],[-134,-47.31449],[-133.5,-47.22042],[-133,-47.12337],[-132.5,-47.0233],[-132,-46.92019],[-131.5,-46.81397],[-131,-46.7046],[-130.5,-46.59205],[-130,-46.47625],[-129.5,-46.35717],[-129,-46.23475],[-128.5,-46.10894],[-128,-45.97969],[-127.5,-45.84694],[-127,-45.71064],[-126.5,-45.57073],[-126,-45.42715],[-125.5,-45.27984],[-125,-45.12873],[-124.5,-44.97377],[-124,-44.81488],[-123.5,-44.65201],[-123,-44.48508],[-122.5,-44.31402],[-122,-44.13876],[-121.5,-43.95922],[-121,-43.77533],[-120.5,-43.58702],[-120,-43.39419],[-119.5,-43.19677],[-119,-42.99469],[-118.5,-42.78784],[-118,-42.57615],[-117.5,-42.35953],[-117,-42.13789],[-116.5,-41.91114],[-116,-41.67918],[-115.5,-41.44193],[-115,-41.19929],[-114.5,-40.95116],[-114,-40.69744],[-113.5,-40.43805],[-113,-40.17287],[-112.5,-39.90182],[-112,-39.6248],[-111.5,-39.34171],[-111,-39.05245],[-110.5,-38.75692],[-110,-38.45505],[-109.5,-38.14673],[-109,-37.83187],[-108.5,-37.5104],[-108,-37.18223],[-107.5,-36.84728],[-107,-36.50549],[-106.5,-36.1568],[-106,-35.80114],[-105.5,-35.43846],[-105,-35.06874],[-104.5,-34.69195],[-104,-34.30806],[-103.5,-33.91707],[-103,-33.51901],[-102.5,-33.11389],[-102,-32.70176],[-101.5,-32.28268],[-101,-31.85674],[-100.5,-31.42404],[-100,-30.9847],[-99.5,-30.53887],[-99,-30.08673],[-98.5,-29.62847],[-98,-29.16431],[-97.5,-28.6945],[-97,-28.21931],[-96.5,-27.73905],[-96,-27.25403],[-95.5,-26.7646],[-95,-26.27113],[-94.5,-25.77402],[-94,-25.27367],[-93.5,-24.7705],[-93,-24.26497],[-92.5,-23.75753],[-92,-23.24864],[-91.5,-22.73877],[-91,-22.2284],[-90.5,-21.71799],[-90,-21.20801],[-89.5,-20.69893],[-89,-20.19121],[-88.5,-19.68528],[-88,-19.18156],[-87.5,-18.68048],[-87,-18.18241],[-86.5,-17.68774],[-86,-17.1968],[-85.5,-16.70993],[-85,-16.22742],[-84.5,-15.74955],[-84,-15.27658],[-83.5,-14.80874],[-83,-14.34624],[-82.5,-13.88925],[-82,-13.43795],[-81.5,-12.99246],[-81,-12.55292],[-80.5,-12.11942],[-80,-11.69204],[-79.5,-11.27085],[-79,-10.8559],[-78.5,-10.44723],[-78,-10.04485],[-77.5,-9.64877],[-77,-9.259],[-76.5,-8.87552],[-76,-8.4983],[-75.5,-8.12732],[-75,-7.76255],[-74.5,-7.40392],[-74,-7.05141],[-73.5,-6.70494],[-73,-6.36446],[-72.5,-6.02991],[-72,-5.70122],[-71.5,-5.37831],[-71,-5.06113],[-70.5,-4.74959],[-70,-4.44361],[-69.5,-4.14313],[-69,-3.84806],[-68.5,-3.55833],[-68,-3.27385],[-67.5,-2.99456],[-67,-2.72036],[-66.5,-2.45119],[-66,-2.18697],[-65.5,-1.92761],[-65,-1.67305],[-64.5,-1.4232],[-64,-1.178],[-63.5,-0.93736],[-63,-0.70123],[-62.5,-0.46951],[-62,-0.24215],[-61.5,-0.01908],[-61,0.19978],[-60.5,0.41449],[-60,0.62511],[-59.5,0.83171],[-59,1.03436],[-58.5,1.23311],[-58,1.42802],[-57.5,1.61917],[-57,1.80659],[-56.5,1.99036],[-56,2.17052],[-55.5,2.34713],[-55,2.52025],[-54.5,2.68993],[-54,2.85621],[-53.5,3.01915],[-53,3.1788],[-52.5,3.3352],[-52,3.48841],[-51.5,3.63846],[-51,3.78541],[-50.5,3.92929],[-50,4.07015],[-49.5,4.20803],[-49,4.34298],[-48.5,4.47503],[-48,4.60422],[-47.5,4.73059],[-47,4.85417],[-46.5,4.97501],[-46.40551,4.99545]]}},{"type":"Feature","id":"+03700212:south:0","properties":{"id":"+03700212","year":370,"month":2,"day":12,"time_tdt":"21:36:02","type":"개기일식","type_code":"T","saros":75,"gamma":-0.34705,"magnitude":1.04248,"greatest":{"lat":-31.59683,"lng":-100.69879},"path_width_km":150.8,"duration":"03m23s","delta_t_seconds":6962.5,"catalog_number":5638,"source":"NASA Five Millennium Canon of Solar Eclipses","source_url":"https://eclipse.gsfc.nasa.gov/SEsearch/SEsearchmap.php?Ecl=%2B03700212","boundary":"south","name":"370-02-12 개기일식"},"geometry":{"type":"LineString","coordinates":[[170.01953,-44.70977],[170.5,-44.82872],[171,-44.95111],[171.5,-45.07206],[172,-45.19157],[172.5,-45.30962],[173,-45.42621],[173.5,-45.54133],[174,-45.65496],[174.5,-45.76712],[175,-45.87777],[175.5,-45.98692],[176,-46.09456],[176.5,-46.20069],[177,-46.30528],[177.5,-46.40835],[178,-46.50987],[178.5,-46.60985],[179,-46.70827],[179.5,-46.80514],[180,-46.90043]]}},{"type":"Feature","id":"+03700212:south:1","properties":{"id":"+03700212","year":370,"month":2,"day":12,"time_tdt":"21:36:02","type":"개기일식","type_code":"T","saros":75,"gamma":-0.34705,"magnitude":1.04248,"greatest":{"lat":-31.59683,"lng":-100.69879},"path_width_km":150.8,"duration":"03m23s","delta_t_seconds":6962.5,"catalog_number":5638,"source":"NASA Five Millennium Canon of Solar Eclipses","source_url":"https://eclipse.gsfc.nasa.gov/SEsearch/SEsearchmap.php?Ecl=%2B03700212","boundary":"south","name":"370-02-12 개기일식"},"geometry":{"type":"LineString","coordinates":[[-179.5,-46.99415],[-179,-47.08629],[-178.5,-47.17684],[-178,-47.2658],[-177.5,-47.35316],[-177,-47.43891],[-176.5,-47.52305],[-176,-47.60557],[-175.5,-47.68646],[-175,-47.76572],[-174.5,-47.84335],[-174,-47.91933],[-173.5,-47.99366],[-173,-48.06633],[-172.5,-48.13735],[-172,-48.20669],[-171.5,-48.27436],[-171,-48.34035],[-170.5,-48.40466],[-170,-48.46727],[-169.5,-48.52818],[-169,-48.58738],[-168.5,-48.64488],[-168,-48.70066],[-167.5,-48.75471],[-167,-48.80703],[-166.5,-48.85762],[-166,-48.90646],[-165.5,-48.95354],[-165,-48.99887],[-164.5,-49.04244],[-164,-49.08423],[-163.5,-49.12424],[-163,-49.16247],[-162.5,-49.1989],[-162,-49.23353],[-161.5,-49.26635],[-161,-49.29735],[-160.5,-49.32652],[-160,-49.35385],[-159.5,-49.37935],[-159,-49.40299],[-158.5,-49.42476],[-158,-49.44467],[-157.5,-49.46269],[-157,-49.47882],[-156.5,-49.49305],[-156,-49.50537],[-155.5,-49.51576],[-155,-49.52423],[-154.5,-49.53074],[-154,-49.5353],[-153.5,-49.53789],[-153,-49.5385],[-152.5,-49.53712],[-152,-49.53373],[-151.5,-49.52832],[-151,-49.52087],[-150.5,-49.51138],[-150,-49.49982],[-149.5,-49.48619],[-149,-49.47046],[-148.5,-49.45263],[-148,-49.43267],[-147.5,-49.41056],[-147,-49.3863],[-146.5,-49.35986],[-146,-49.33122],[-145.5,-49.30037],[-145,-49.26728],[-144.5,-49.23194],[-144,-49.19432],[-143.5,-49.15441],[-143,-49.11218],[-142.5,-49.06761],[-142,-49.02067],[-141.5,-48.97134],[-141,-48.91961],[-140.5,-48.86543],[-140,-48.80879],[-139.5,-48.74966],[-139,-48.68802],[-138.5,-48.62382],[-138,-48.55705],[-137.5,-48.48767],[-137,-48.41566],[-136.5,-48.34098],[-136,-48.2636],[-135.5,-48.18348],[-135,-48.10059],[-134.5,-48.01489],[-134,-47.92636],[-133.5,-47.83494],[-133,-47.7406],[-132.5,-47.64331],[-132,-47.54301],[-131.5,-47.43968],[-131,-47.33325],[-130.5,-47.2237],[-130,-47.11097],[-129.5,-46.99502],[-129,-46.87579],[-128.5,-46.75324],[-128,-46.62732],[-127.5,-46.49797],[-127,-46.36514],[-126.5,-46.22877],[-126,-46.08881],[-125.5,-45.94519],[-125,-45.79787],[-124.5,-45.64676],[-124,-45.49182],[-123.5,-45.33297],[-123,-45.17016],[-122.5,-45.0033],[-122,-44.83233],[-121.5,-44.65718],[-121,-44.47777],[-120.5,-44.29403],[-120,-44.10588],[-119.5,-43.91324],[-119,-43.71603],[-118.5,-43.51416],[-118,-43.30756],[-117.5,-43.09614],[-117,-42.8798],[-116.5,-42.65846],[-116,-42.43203],[-115.5,-42.20042],[-115,-41.96352],[-114.5,-41.72126],[-114,-41.47353],[-113.5,-41.22023],[-113,-40.96127],[-112.5,-40.69654],[-112,-40.42596],[-111.5,-40.14942],[-111,-39.86683],[-110.5,-39.57808],[-110,-39.28309],[-109.5,-38.98175],[-109,-38.67398],[-108.5,-38.35969],[-108,-38.03878],[-107.5,-37.71118],[-107,-37.37681],[-106.5,-37.03559],[-106,-36.68747],[-105.5,-36.33237],[-105,-35.97026],[-104.5,-35.60108],[-104,-35.22482],[-103.5,-34.84143],[-103,-34.45094],[-102.5,-34.05332],[-102,-33.64862],[-101.5,-33.23687],[-101,-32.81813],[-100.5,-32.39247],[-100,-31.95999],[-99.5,-31.52082],[-99,-31.07508],[-98.5,-30.62295],[-98,-30.16462],[-97.5,-29.7003],[-97,-29.23023],[-96.5,-28.75468],[-96,-28.27395],[-95.5,-27.78835],[-95,-27.29822],[-94.5,-26.80392],[-94,-26.30586],[-93.5,-25.80442],[-93,-25.30005],[-92.5,-24.79317],[-92,-24.28425],[-91.5,-23.77375],[-91,-23.26214],[-90.5,-22.74989],[-90,-22.23749],[-89.5,-21.7254],[-89,-21.2141],[-88.5,-20.70404],[-88,-20.19566],[-87.5,-19.68941],[-87,-19.18571],[-86.5,-18.68494],[-86,-18.18749],[-85.5,-17.69371],[-85,-17.20394],[-84.5,-16.71849],[-84,-16.23764],[-83.5,-15.76166],[-83,-15.29078],[-82.5,-14.82522],[-82,-14.36516],[-81.5,-13.91079],[-81,-13.46223],[-80.5,-13.01962],[-80,-12.58306],[-79.5,-12.15265],[-79,-11.72844],[-78.5,-11.3105],[-78,-10.89886],[-77.5,-10.49355],[-77,-10.09457],[-76.5,-9.70193],[-76,-9.31562],[-75.5,-8.93561],[-75,-8.56188],[-74.5,-8.19439],[-74,-7.8331],[-73.5,-7.47795],[-73,-7.1289],[-72.5,-6.78588],[-72,-6.44883],[-71.5,-6.11768],[-71,-5.79236],[-70.5,-5.4728],[-70,-5.15893],[-69.5,-4.85067],[-69,-4.54794],[-68.5,-4.25067],[-68,-3.95877],[-67.5,-3.67217],[-67,-3.39079],[-66.5,-3.11454],[-66,-2.84336],[-65.5,-2.57716],[-65,-2.31587],[-64.5,-2.0594],[-64,-1.80768],[-63.5,-1.56064],[-63,-1.3182],[-62.5,-1.0803],[-62,-0.84684],[-61.5,-0.61777],[-61,-0.39302],[-60.5,-0.17251],[-60,0.04381],[-59.5,0.25603],[-59,0.4642],[-58.5,0.66838],[-58,0.86864],[-57.5,1.06505],[-57,1.25765],[-56.5,1.44652],[-56,1.6317],[-55.5,1.81325],[-55,1.99123],[-54.5,2.1657],[-54,2.3367],[-53.5,2.50428],[-53,2.66851],[-52.5,2.82942],[-52,2.98707],[-51.5,3.1415],[-51,3.29276],[-50.5,3.4409],[-50,3.58595],[-49.5,3.72796],[-49,3.86698],[-48.5,4.00305],[-48,4.1362],[-47.5,4.26648],[-47,4.39392],[-46.5,4.51856],[-46.22656,4.58555]]}},{"type":"Feature","id":"+03700808:north:0","properties":{"id":"+03700808","year":370,"month":8,"day":8,"time_tdt":"03:22:48","type":"금환일식","type_code":"A","saros":80,"gamma":0.4533,"magnitude":0.97647,"greatest":{"lat":40.9949,"lng":172.61871},"path_width_km":93.6,"duration":"02m09s","delta_t_seconds":6957.7,"catalog_number":5639,"source":"NASA Five Millennium Canon of Solar Eclipses","source_url":"https://eclipse.gsfc.nasa.gov/SEsearch/SEsearchmap.php?Ecl=%2B03700808","boundary":"north","name":"370-08-08 금환일식"},"geometry":{"type":"LineString","coordinates":[[75.25,47.99254],[75.5,48.06951],[76,48.22246],[76.5,48.37408],[77,48.52437],[77.5,48.67331],[78,48.82089],[78.5,48.9671],[79,49.11192],[79.5,49.25535],[80,49.39736],[80.5,49.53797],[81,49.67714],[81.5,49.81488],[82,49.95116],[82.5,50.08599],[83,50.21936],[83.5,50.35125],[84,50.48165],[84.5,50.61057],[85,50.73798],[85.5,50.86388],[86,50.98827],[86.5,51.11107],[87,51.23246],[87.5,51.35226],[88,51.47051],[88.5,51.58721],[89,51.70235],[89.5,51.81593],[90,51.92794],[90.5,52.03837],[91,52.14723],[91.5,52.2545],[92,52.36018],[92.5,52.46427],[93,52.56676],[93.5,52.66764],[94,52.76692],[94.5,52.86458],[95,52.96063],[95.5,53.05506],[96,53.14786],[96.5,53.23904],[97,53.32858],[97.5,53.41649],[98,53.50277],[98.5,53.5874],[99,53.67039],[99.5,53.75173],[100,53.83142],[100.5,53.90946],[101,53.98584],[101.5,54.06057],[102,54.13363],[102.5,54.20503],[103,54.27476],[103.5,54.34282],[104,54.40921],[104.5,54.47392],[105,54.53695],[105.5,54.5983],[106,54.65797],[106.5,54.71595],[107,54.77224],[107.5,54.82683],[108,54.87973],[108.5,54.93093],[109,54.98042],[109.5,55.02821],[110,55.07428],[110.5,55.11865],[111,55.16129],[111.5,55.20221],[112,55.2414],[112.5,55.27886],[113,55.31459],[113.5,55.34857],[114,55.38081],[114.5,55.4113],[115,55.44004],[115.5,55.46701],[116,55.49222],[116.5,55.51565],[117,55.5373],[117.5,55.55717],[118,55.57525],[118.5,55.59153],[119,55.606],[119.5,55.61866],[120,55.6295],[120.5,55.6385],[121,55.64567],[121.5,55.65099],[122,55.65446],[122.5,55.65606],[123,55.65578],[123.5,55.65362],[124,55.64956],[124.5,55.6436],[125,55.63571],[125.5,55.6259],[126,55.61414],[126.5,55.60042],[127,55.58474],[127.5,55.56707],[128,55.54741],[128.5,55.52573],[129,55.50203],[129.5,55.47628],[130,55.44848],[130.5,55.4186],[131,55.38662],[131.5,55.35254],[132,55.31632],[132.5,55.27796],[133,55.23743],[133.5,55.19471],[134,55.14977],[134.5,55.10261],[135,55.05319],[135.5,55.00149],[136,54.94749],[136.5,54.89116],[137,54.83248],[137.5,54.77141],[138,54.70795],[138.5,54.64204],[139,54.57367],[139.5,54.50281],[140,54.42941],[140.5,54.35347],[141,54.27493],[141.5,54.19376],[142,54.10994],[142.5,54.02342],[143,53.93417],[143.5,53.84215],[144,53.74731],[144.5,53.64962],[145,53.54904],[145.5,53.44552],[146,53.33903],[146.5,53.2295],[147,53.1169],[147.5,53.00117],[148,52.88227],[148.5,52.76015],[149,52.63475],[149.5,52.50601],[150,52.37388],[150.5,52.23831],[151,52.09923],[151.5,51.95659],[152,51.81031],[152.5,51.66034],[153,51.5066],[153.5,51.34904],[154,51.18757],[154.5,51.02213],[155,50.85265],[155.5,50.67904],[156,50.50124],[156.5,50.31915],[157,50.13271],[157.5,49.94182],[158,49.74639],[158.5,49.54636],[159,49.34161],[159.5,49.13207],[160,48.91764],[160.5,48.69822],[161,48.47373],[161.5,48.24406],[162,48.00911],[162.5,47.76878],[163,47.52297],[163.5,47.27159],[164,47.01452],[164.5,46.75166],[165,46.48292],[165.5,46.20818],[166,45.92736],[166.5,45.64033],[167,45.34701],[167.5,45.04731],[168,44.74111],[168.5,44.42834],[169,44.1089],[169.5,43.78272],[170,43.44972],[170.5,43.10983],[171,42.76299],[171.5,42.40914],[172,42.04825],[172.5,41.68028],[173,41.30521],[173.5,40.92304],[174,40.53379],[174.5,40.13747],[175,39.73415],[175.5,39.32387],[176,38.90673],[176.5,38.48285],[177,38.05234],[177.5,37.61538],[178,37.17214],[178.5,36.72283],[179,36.26769],[179.5,35.80699],[180,35.34101]]}},{"type":"Feature","id":"+03700808:north:1","properties":{"id":"+03700808","year":370,"month":8,"day":8,"time_tdt":"03:22:48","type":"금환일식","type_code":"A","saros":80,"gamma":0.4533,"magnitude":0.97647,"greatest":{"lat":40.9949,"lng":172.61871},"path_width_km":93.6,"duration":"02m09s","delta_t_seconds":6957.7,"catalog_number":5639,"source":"NASA Five Millennium Canon of Solar Eclipses","source_url":"https://eclipse.gsfc.nasa.gov/SEsearch/SEsearchmap.php?Ecl=%2B03700808","boundary":"north","name":"370-08-08 금환일식"},"geometry":{"type":"LineString","coordinates":[[-179.5,34.87008],[-179,34.39453],[-178.5,33.91474],[-178,33.43109],[-177.5,32.944],[-177,32.45389],[-176.5,31.96122],[-176,31.46645],[-175.5,30.97005],[-175,30.47249],[-174.5,29.97426],[-174,29.47584],[-173.5,28.97771],[-173,28.48035],[-172.5,27.98421],[-172,27.48974],[-171.5,26.99739],[-171,26.50756],[-170.5,26.02066],[-170,25.53706],[-169.5,25.05711],[-169,24.58115],[-168.5,24.10947],[-168,23.64236],[-167.5,23.18008],[-167,22.72284],[-166.5,22.27085],[-166,21.82431],[-165.5,21.38336],[-165,20.94814],[-164.5,20.51877],[-164,20.09534],[-163.5,19.67793],[-163,19.26661],[-162.5,18.86141],[-162,18.46237],[-161.5,18.06951],[-161,17.68282],[-160.5,17.3023],[-160,16.92793],[-159.5,16.55969],[-159,16.19754],[-158.5,15.84144],[-158,15.49135],[-157.5,15.1472],[-157,14.80894],[-156.5,14.47651],[-156,14.14984],[-155.5,13.82887],[-155,13.51352],[-154.5,13.20371],[-154,12.89937],[-153.5,12.60044],[-153,12.30681],[-152.5,12.01843],[-152,11.73521],[-151.5,11.45708],[-151,11.18394],[-150.5,10.91574],[-150,10.65238],[-149.5,10.39379],[-149,10.1399],[-148.5,9.89063],[-148,9.6459],[-147.5,9.40564],[-147,9.16978],[-146.5,8.93825],[-146,8.71097],[-145.5,8.48788],[-145,8.2689],[-144.5,8.05398],[-144,7.84304],[-143.5,7.63603],[-143,7.43287],[-142.5,7.23351],[-142,7.03789],[-141.5,6.84594],[-141,6.65761],[-140.5,6.47285],[-140,6.29159],[-139.5,6.11378],[-139,5.93937],[-138.5,5.7683],[-138,5.60054],[-137.5,5.43602],[-137,5.27469],[-136.5,5.11652],[-136,4.96145],[-135.5,4.80944],[-135,4.66044],[-134.66406,4.562]]}},{"type":"Feature","id":"+03700808:center:0","properties":{"id":"+03700808","year":370,"month":8,"day":8,"time_tdt":"03:22:48","type":"금환일식","type_code":"A","saros":80,"gamma":0.4533,"magnitude":0.97647,"greatest":{"lat":40.9949,"lng":172.61871},"path_width_km":93.6,"duration":"02m09s","delta_t_seconds":6957.7,"catalog_number":5639,"source":"NASA Five Millennium Canon of Solar Eclipses","source_url":"https://eclipse.gsfc.nasa.gov/SEsearch/SEsearchmap.php?Ecl=%2B03700808","boundary":"center","name":"370-08-08 금환일식"},"geometry":{"type":"LineString","coordinates":[[75.68392,47.35041],[76,47.4271],[76.5,47.58223],[77,47.73603],[77.5,47.8885],[78,48.03961],[78.5,48.18935],[79,48.33771],[79.5,48.48468],[80,48.63025],[80.5,48.77441],[81,48.91714],[81.5,49.05843],[82,49.19827],[82.5,49.33666],[83,49.47358],[83.5,49.60902],[84,49.74297],[84.5,49.87543],[85,50.00638],[85.5,50.13582],[86,50.26373],[86.5,50.39012],[87,50.51496],[87.5,50.63826],[88,50.76],[88.5,50.88019],[89,50.9988],[89.5,51.11585],[90,51.23131],[90.5,51.34518],[91,51.45746],[91.5,51.56814],[92,51.67722],[92.5,51.78468],[93,51.89053],[93.5,51.99476],[94,52.09736],[94.5,52.19834],[95,52.29768],[95.5,52.39538],[96,52.49144],[96.5,52.58585],[97,52.6786],[97.5,52.76971],[98,52.85915],[98.5,52.94693],[99,53.03304],[99.5,53.11749],[100,53.20026],[100.5,53.28136],[101,53.36077],[101.5,53.4385],[102,53.51455],[102.5,53.5889],[103,53.66156],[103.5,53.73253],[104,53.8018],[104.5,53.86936],[105,53.93522],[105.5,53.99937],[106,54.06181],[106.5,54.12253],[107,54.18154],[107.5,54.23882],[108,54.29438],[108.5,54.34821],[109,54.40031],[109.5,54.45067],[110,54.49929],[110.5,54.54616],[111,54.59129],[111.5,54.63467],[112,54.67628],[112.5,54.71614],[113,54.75423],[113.5,54.79055],[114,54.8251],[114.5,54.85786],[115,54.88884],[115.5,54.91803],[116,54.94542],[116.5,54.971],[117,54.99478],[117.5,55.01673],[118,55.03687],[118.5,55.05517],[119,55.07163],[119.5,55.08625],[120,55.09902],[120.5,55.10992],[121,55.11896],[121.5,55.12611],[122,55.13137],[122.5,55.13474],[123,55.1362],[123.5,55.13574],[124,55.13335],[124.5,55.12901],[125,55.12273],[125.5,55.11448],[126,55.10425],[126.5,55.09204],[127,55.07782],[127.5,55.06159],[128,55.04332],[128.5,55.023],[129,55.00063],[129.5,54.97618],[130,54.94963],[130.5,54.92097],[131,54.89018],[131.5,54.85725],[132,54.82215],[132.5,54.78486],[133,54.74537],[133.5,54.70365],[134,54.65969],[134.5,54.61345],[135,54.56492],[135.5,54.51408],[136,54.46089],[136.5,54.40533],[137,54.34739],[137.5,54.28702],[138,54.2242],[138.5,54.15891],[139,54.09111],[139.5,54.02078],[140,53.94788],[140.5,53.87237],[141,53.79424],[141.5,53.71343],[142,53.62992],[142.5,53.54366],[143,53.45463],[143.5,53.36278],[144,53.26807],[144.5,53.17046],[145,53.06991],[145.5,52.96637],[146,52.8598],[146.5,52.75014],[147,52.63736],[147.5,52.5214],[148,52.40222],[148.5,52.27975],[149,52.15395],[149.5,52.02475],[150,51.89211],[150.5,51.75595],[151,51.61623],[151.5,51.47288],[152,51.32583],[152.5,51.17502],[153,51.02038],[153.5,50.86183],[154,50.69932],[154.5,50.53276],[155,50.36208],[155.5,50.1872],[156,50.00804],[156.5,49.82453],[157,49.63656],[157.5,49.44407],[158,49.24697],[158.5,49.04515],[159,48.83854],[159.5,48.62704],[160,48.41055],[160.5,48.18898],[161,47.96223],[161.5,47.7302],[162,47.49278],[162.5,47.24988],[163,47.0014],[163.5,46.74722],[164,46.48724],[164.5,46.22136],[165,45.94947],[165.5,45.67147],[166,45.38725],[166.5,45.09671],[167,44.79975],[167.5,44.49627],[168,44.18618],[168.5,43.86938],[169,43.54578],[169.5,43.21531],[170,42.87789],[170.5,42.53345],[171,42.18193],[171.5,41.82328],[172,41.45746],[172.5,41.08444],[173,40.70421],[173.5,40.31678],[174,39.92215],[174.5,39.52037],[175,39.11149],[175.5,38.69558],[176,38.27274],[176.5,37.84309],[177,37.40679],[177.5,36.96399],[178,36.5149],[178.5,36.05975],[179,35.59878],[179.5,35.13229],[180,34.66057]]}},{"type":"Feature","id":"+03700808:center:1","properties":{"id":"+03700808","year":370,"month":8,"day":8,"time_tdt":"03:22:48","type":"금환일식","type_code":"A","saros":80,"gamma":0.4533,"magnitude":0.97647,"greatest":{"lat":40.9949,"lng":172.61871},"path_width_km":93.6,"duration":"02m09s","delta_t_seconds":6957.7,"catalog_number":5639,"source":"NASA Five Millennium Canon of Solar Eclipses","source_url":"https://eclipse.gsfc.nasa.gov/SEsearch/SEsearchmap.php?Ecl=%2B03700808","boundary":"center","name":"370-08-08 금환일식"},"geometry":{"type":"LineString","coordinates":[[-179.5,34.18396],[-179,33.70282],[-178.5,33.21755],[-178,32.72854],[-177.5,32.23622],[-177,31.74105],[-176.5,31.24349],[-176,30.74401],[-175.5,30.24308],[-175,29.74122],[-174.5,29.23889],[-174,28.7366],[-173.5,28.23482],[-173,27.73404],[-172.5,27.23471],[-172,26.73729],[-171.5,26.24221],[-171,25.74988],[-170.5,25.2607],[-170,24.77503],[-169.5,24.29321],[-169,23.81557],[-168.5,23.34241],[-168,22.87399],[-167.5,22.41055],[-167,21.95231],[-166.5,21.49947],[-166,21.0522],[-165.5,20.61065],[-165,20.17493],[-164.5,19.74516],[-164,19.32143],[-163.5,18.90379],[-163,18.49231],[-162.5,18.08701],[-162,17.68792],[-161.5,17.29505],[-161,16.9084],[-160.5,16.52795],[-160,16.15367],[-159.5,15.78554],[-159,15.42352],[-158.5,15.06756],[-158,14.71761],[-157.5,14.3736],[-157,14.03549],[-156.5,13.7032],[-156,13.37666],[-155.5,13.05581],[-155,12.74056],[-154.5,12.43085],[-154,12.1266],[-153.5,11.82772],[-153,11.53414],[-152.5,11.24578],[-152,10.96256],[-151.5,10.68441],[-151,10.41123],[-150.5,10.14296],[-150,9.87952],[-149.5,9.62082],[-149,9.3668],[-148.5,9.11737],[-148,8.87246],[-147.5,8.632],[-147,8.39591],[-146.5,8.16412],[-146,7.93657],[-145.5,7.71318],[-145,7.49389],[-144.5,7.27862],[-144,7.06732],[-143.5,6.85992],[-143,6.65635],[-142.5,6.45657],[-142,6.26049],[-141.5,6.06807],[-141,5.87925],[-140.5,5.69398],[-140,5.51219],[-139.5,5.33383],[-139,5.15885],[-138.5,4.9872],[-138,4.81883],[-137.5,4.65369],[-137,4.49172],[-136.5,4.3329],[-136,4.17715],[-135.5,4.02446],[-135.04354,3.89912]]}},{"type":"Feature","id":"+03700808:south:0","properties":{"id":"+03700808","year":370,"month":8,"day":8,"time_tdt":"03:22:48","type":"금환일식","type_code":"A","saros":80,"gamma":0.4533,"magnitude":0.97647,"greatest":{"lat":40.9949,"lng":172.61871},"path_width_km":93.6,"duration":"02m09s","delta_t_seconds":6957.7,"catalog_number":5639,"source":"NASA Five Millennium Canon of Solar Eclipses","source_url":"https://eclipse.gsfc.nasa.gov/SEsearch/SEsearchmap.php?Ecl=%2B03700808","boundary":"south","name":"370-08-08 금환일식"},"geometry":{"type":"LineString","coordinates":[[76.27148,46.71904],[76.5,46.79137],[77,46.94868],[77.5,47.10466],[78,47.25929],[78.5,47.41257],[79,47.56446],[79.5,47.71498],[80,47.8641],[80.5,48.0118],[81,48.15808],[81.5,48.30293],[82,48.44634],[82.5,48.58828],[83,48.72876],[83.5,48.86776],[84,49.00527],[84.5,49.14128],[85,49.27578],[85.5,49.40876],[86,49.54021],[86.5,49.67013],[87,49.7985],[87.5,49.92532],[88,50.05058],[88.5,50.17426],[89,50.29637],[89.5,50.4169],[90,50.53583],[90.5,50.65316],[91,50.76888],[91.5,50.883],[92,50.99549],[92.5,51.10636],[93,51.2156],[93.5,51.3232],[94,51.42916],[94.5,51.53347],[95,51.63613],[95.5,51.73713],[96,51.83647],[96.5,51.93414],[97,52.03015],[97.5,52.12447],[98,52.21712],[98.5,52.30808],[99,52.39735],[99.5,52.48493],[100,52.57082],[100.5,52.655],[101,52.73748],[101.5,52.81825],[102,52.89732],[102.5,52.97466],[103,53.05029],[103.5,53.1242],[104,53.19638],[104.5,53.26684],[105,53.33556],[105.5,53.40255],[106,53.4678],[106.5,53.5313],[107,53.59306],[107.5,53.65307],[108,53.71132],[108.5,53.76782],[109,53.82256],[109.5,53.87553],[110,53.92673],[110.5,53.97616],[111,54.02381],[111.5,54.06968],[112,54.11376],[112.5,54.15605],[113,54.19655],[113.5,54.23524],[114,54.27213],[114.5,54.30721],[115,54.34046],[115.5,54.3719],[116,54.40151],[116.5,54.42928],[117,54.45521],[117.5,54.47929],[118,54.50151],[118.5,54.52188],[119,54.54037],[119.5,54.55698],[120,54.57171],[120.5,54.58455],[121,54.59548],[121.5,54.6045],[122,54.61159],[122.5,54.61676],[123,54.61998],[123.5,54.62126],[124,54.62056],[124.5,54.6179],[125,54.61325],[125.5,54.6066],[126,54.59794],[126.5,54.58725],[127,54.57453],[127.5,54.55975],[128,54.54291],[128.5,54.52399],[129,54.50297],[129.5,54.47984],[130,54.45458],[130.5,54.42717],[131,54.39759],[131.5,54.36584],[132,54.33188],[132.5,54.2957],[133,54.25727],[133.5,54.21658],[134,54.17361],[134.5,54.12832],[135,54.08071],[135.5,54.03074],[136,53.97838],[136.5,53.92363],[137,53.86643],[137.5,53.80678],[138,53.74464],[138.5,53.67998],[139,53.61278],[139.5,53.54299],[140,53.47059],[140.5,53.39555],[141,53.31783],[141.5,53.2374],[142,53.15421],[142.5,53.06824],[143,52.97944],[143.5,52.88778],[144,52.79321],[144.5,52.69569],[145,52.59517],[145.5,52.49162],[146,52.38499],[146.5,52.27522],[147,52.16227],[147.5,52.04608],[148,51.92661],[148.5,51.80381],[149,51.67761],[149.5,51.54795],[150,51.41479],[150.5,51.27806],[151,51.1377],[151.5,50.99363],[152,50.84581],[152.5,50.69416],[153,50.5386],[153.5,50.37908],[154,50.21551],[154.5,50.04782],[155,49.87593],[155.5,49.69977],[156,49.51924],[156.5,49.33428],[157,49.14478],[157.5,48.95067],[158,48.75186],[158.5,48.54824],[159,48.33974],[159.5,48.12625],[160,47.90768],[160.5,47.68392],[161,47.45488],[161.5,47.22045],[162,46.98054],[162.5,46.73503],[163,46.48381],[163.5,46.22679],[164,45.96386],[164.5,45.6949],[165,45.41981],[165.5,45.13849],[166,44.85082],[166.5,44.5567],[167,44.25604],[167.5,43.94872],[168,43.63466],[168.5,43.31375],[169,42.98592],[169.5,42.65108],[170,42.30916],[170.5,41.96009],[171,41.6038],[171.5,41.24026],[172,40.86943],[172.5,40.49128],[173,40.10581],[173.5,39.71301],[174,39.31293],[174.5,38.90559],[175,38.49106],[175.5,38.06944],[176,37.64082],[176.5,37.20534],[177,36.76316],[177.5,36.31447],[178,35.85947],[178.5,35.39842],[179,34.93157],[179.5,34.45924],[180,33.98174]]}},{"type":"Feature","id":"+03700808:south:1","properties":{"id":"+03700808","year":370,"month":8,"day":8,"time_tdt":"03:22:48","type":"금환일식","type_code":"A","saros":80,"gamma":0.4533,"magnitude":0.97647,"greatest":{"lat":40.9949,"lng":172.61871},"path_width_km":93.6,"duration":"02m09s","delta_t_seconds":6957.7,"catalog_number":5639,"source":"NASA Five Millennium Canon of Solar Eclipses","source_url":"https://eclipse.gsfc.nasa.gov/SEsearch/SEsearchmap.php?Ecl=%2B03700808","boundary":"south","name":"370-08-08 금환일식"},"geometry":{"type":"LineString","coordinates":[[-179.5,33.49944],[-179,33.0127],[-178.5,32.52193],[-178,32.02757],[-177.5,31.53004],[-177,31.02983],[-176.5,30.5274],[-176,30.02324],[-175.5,29.51785],[-175,29.01172],[-174.5,28.50536],[-174,27.99926],[-173.5,27.49391],[-173,26.98979],[-172.5,26.48735],[-172,25.98706],[-171.5,25.48933],[-171,24.99458],[-170.5,24.50319],[-170,24.01552],[-169.5,23.53192],[-169,23.05268],[-168.5,22.57809],[-168,22.10842],[-167.5,21.6439],[-167,21.18472],[-166.5,20.73108],[-166,20.28314],[-165.5,19.84102],[-165,19.40485],[-164.5,18.97472],[-164,18.5507],[-163.5,18.13287],[-163,17.72124],[-162.5,17.31587],[-162,16.91675],[-161.5,16.52389],[-161,16.13729],[-160.5,15.75691],[-160,15.38273],[-159.5,15.01472],[-159,14.65282],[-158.5,14.297],[-158,13.94718],[-157.5,13.60332],[-157,13.26534],[-156.5,12.93318],[-156,12.60677],[-155.5,12.28603],[-155,11.97088],[-154.5,11.66125],[-154,11.35706],[-153.5,11.05823],[-153,10.76469],[-152.5,10.47634],[-152,10.19311],[-151.5,9.91492],[-151,9.64169],[-150.5,9.37335],[-150,9.1098],[-149.5,8.85099],[-149,8.59681],[-148.5,8.34722],[-148,8.10211],[-147.5,7.86144],[-147,7.62511],[-146.5,7.39306],[-146,7.16522],[-145.5,6.94153],[-145,6.7219],[-144.5,6.50628],[-144,6.29461],[-143.5,6.08681],[-143,5.88283],[-142.5,5.6826],[-142,5.48607],[-141.5,5.29317],[-141,5.10385],[-140.5,4.91805],[-140,4.73573],[-139.5,4.55681],[-139,4.38126],[-138.5,4.20902],[-138,4.04004],[-137.5,3.87427],[-137,3.71167],[-136.5,3.55218],[-136,3.39576],[-135.5,3.24237],[-135.44336,3.22519]]}}],"attribution":"Eclipse Predictions by Fred Espenak and Jean Meeus (NASA's GSFC)","generated_at":"2026-09-23T01:44:49.582Z"}
