{"type":"FeatureCollection","year":374,"events":[{"id":"+03740528","year":374,"month":5,"day":28,"time_tdt":"01:04:03","type":"금환일식","type_code":"A","saros":82,"gamma":-0.00346,"magnitude":0.99034,"greatest":{"lat":21.44426,"lng":-168.70007},"path_width_km":34,"duration":"01m06s","delta_t_seconds":6920.3,"catalog_number":5648,"source":"NASA Five Millennium Canon of Solar Eclipses","source_url":"https://eclipse.gsfc.nasa.gov/SEsearch/SEsearchmap.php?Ecl=%2B03740528"},{"id":"+03741120","year":374,"month":11,"day":20,"time_tdt":"11:46:54","type":"개기일식","type_code":"T","saros":87,"gamma":0.20756,"magnitude":1.02828,"greatest":{"lat":-8.29869,"lng":30.80658},"path_width_km":97.9,"duration":"02m51s","delta_t_seconds":6915.6,"catalog_number":5649,"source":"NASA Five Millennium Canon of Solar Eclipses","source_url":"https://eclipse.gsfc.nasa.gov/SEsearch/SEsearchmap.php?Ecl=%2B03741120"}],"features":[{"type":"Feature","id":"+03740528:north:0","properties":{"id":"+03740528","year":374,"month":5,"day":28,"time_tdt":"01:04:03","type":"금환일식","type_code":"A","saros":82,"gamma":-0.00346,"magnitude":0.99034,"greatest":{"lat":21.44426,"lng":-168.70007},"path_width_km":34,"duration":"01m06s","delta_t_seconds":6920.3,"catalog_number":5648,"source":"NASA Five Millennium Canon of Solar Eclipses","source_url":"https://eclipse.gsfc.nasa.gov/SEsearch/SEsearchmap.php?Ecl=%2B03740528","boundary":"north","name":"374-05-28 금환일식"},"geometry":{"type":"LineString","coordinates":[[131.04492,-3.8995],[131.5,-3.72086],[132,-3.52328],[132.5,-3.32431],[133,-3.12397],[133.5,-2.92223],[134,-2.71911],[134.5,-2.51461],[135,-2.30871],[135.5,-2.10143],[136,-1.89276],[136.5,-1.6827],[137,-1.47125],[137.5,-1.25842],[138,-1.0442],[138.5,-0.8286],[139,-0.61163],[139.5,-0.39327],[140,-0.17355],[140.5,0.04754],[141,0.26998],[141.5,0.49378],[142,0.71893],[142.5,0.94542],[143,1.17323],[143.5,1.40236],[144,1.6328],[144.5,1.86453],[145,2.09755],[145.5,2.33184],[146,2.56738],[146.5,2.80415],[147,3.04215],[147.5,3.28134],[148,3.52171],[148.5,3.76324],[149,4.0059],[149.5,4.24967],[150,4.49452],[150.5,4.74042],[151,4.98734],[151.5,5.23525],[152,5.48412],[152.5,5.7339],[153,5.98457],[153.5,6.23607],[154,6.48838],[154.5,6.74143],[155,6.9952],[155.5,7.24962],[156,7.50464],[156.5,7.76022],[157,8.01629],[157.5,8.27279],[158,8.52967],[158.5,8.78685],[159,9.04427],[159.5,9.30187],[160,9.55956],[160.5,9.81727],[161,10.07493],[161.5,10.33245],[162,10.58975],[162.5,10.84674],[163,11.10333],[163.5,11.35943],[164,11.61495],[164.5,11.86979],[165,12.12385],[165.5,12.37702],[166,12.62921],[166.5,12.8803],[167,13.13019],[167.5,13.37877],[168,13.62592],[168.5,13.87153],[169,14.11549],[169.5,14.35768],[170,14.59797],[170.5,14.83626],[171,15.07242],[171.5,15.30634],[172,15.53788],[172.5,15.76694],[173,15.99339],[173.5,16.21712],[174,16.438],[174.5,16.65591],[175,16.87075],[175.5,17.08239],[176,17.29073],[176.5,17.49564],[177,17.69703],[177.5,17.89478],[178,18.08879],[178.5,18.27896],[179,18.46519],[179.5,18.64738],[180,18.82544]]}},{"type":"Feature","id":"+03740528:north:1","properties":{"id":"+03740528","year":374,"month":5,"day":28,"time_tdt":"01:04:03","type":"금환일식","type_code":"A","saros":82,"gamma":-0.00346,"magnitude":0.99034,"greatest":{"lat":21.44426,"lng":-168.70007},"path_width_km":34,"duration":"01m06s","delta_t_seconds":6920.3,"catalog_number":5648,"source":"NASA Five Millennium Canon of Solar Eclipses","source_url":"https://eclipse.gsfc.nasa.gov/SEsearch/SEsearchmap.php?Ecl=%2B03740528","boundary":"north","name":"374-05-28 금환일식"},"geometry":{"type":"LineString","coordinates":[[-179.5,18.99928],[-179,19.16883],[-178.5,19.33398],[-178,19.49467],[-177.5,19.65083],[-177,19.80237],[-176.5,19.94925],[-176,20.09138],[-175.5,20.22873],[-175,20.36122],[-174.5,20.48881],[-174,20.61146],[-173.5,20.72912],[-173,20.84176],[-172.5,20.94934],[-172,21.05183],[-171.5,21.14921],[-171,21.24145],[-170.5,21.32853],[-170,21.41045],[-169.5,21.48718],[-169,21.55873],[-168.5,21.62508],[-168,21.68624],[-167.5,21.74221],[-167,21.79299],[-166.5,21.8386],[-166,21.87905],[-165.5,21.91434],[-165,21.9445],[-164.5,21.96955],[-164,21.9895],[-163.5,22.0044],[-163,22.01425],[-162.5,22.0191],[-162,22.01898],[-161.5,22.01392],[-161,22.00395],[-160.5,21.98912],[-160,21.96947],[-159.5,21.94504],[-159,21.91587],[-158.5,21.88202],[-158,21.84352],[-157.5,21.80043],[-157,21.7528],[-156.5,21.70069],[-156,21.64414],[-155.5,21.58321],[-155,21.51797],[-154.5,21.44846],[-154,21.37476],[-153.5,21.29691],[-153,21.21498],[-152.5,21.12903],[-152,21.03913],[-151.5,20.94535],[-151,20.84774],[-150.5,20.74638],[-150,20.64133],[-149.5,20.53266],[-149,20.42043],[-148.5,20.30473],[-148,20.18562],[-147.5,20.06316],[-147,19.93744],[-146.5,19.80851],[-146,19.67646],[-145.5,19.54135],[-145,19.40326],[-144.5,19.26226],[-144,19.11842],[-143.5,18.97181],[-143,18.82251],[-142.5,18.67058],[-142,18.51611],[-141.5,18.35916],[-141,18.1998],[-140.5,18.0381],[-140,17.87414],[-139.5,17.70799],[-139,17.53972],[-138.5,17.36939],[-138,17.19707],[-137.5,17.02284],[-137,16.84676],[-136.5,16.6689],[-136,16.48933],[-135.5,16.3081],[-135,16.12529],[-134.5,15.94097],[-134,15.75518],[-133.5,15.568],[-133,15.37949],[-132.5,15.18971],[-132,14.99871],[-131.5,14.80656],[-131,14.61332],[-130.5,14.41903],[-130,14.22376],[-129.5,14.02757],[-129,13.83049],[-128.5,13.63259],[-128,13.43393],[-127.5,13.23454],[-127,13.03447],[-126.5,12.83379],[-126,12.63253],[-125.5,12.43073],[-125,12.22845],[-124.5,12.02573],[-124,11.82261],[-123.5,11.61913],[-123,11.41534],[-122.5,11.21127],[-122,11.00696],[-121.5,10.80244],[-121,10.59777],[-120.5,10.39296],[-120,10.18807],[-119.5,9.98311],[-119,9.77812],[-118.5,9.57314],[-118,9.36819],[-117.5,9.16331],[-117,8.95852],[-116.5,8.75385],[-116,8.54933],[-115.5,8.34499],[-115,8.14084],[-114.5,7.93693],[-114,7.73326],[-113.5,7.52986],[-113,7.32676],[-112.5,7.12398],[-112,6.92153],[-111.5,6.71944],[-111,6.51772],[-110.5,6.31641],[-110,6.1155],[-109.5,5.91503],[-109,5.71501],[-108.5,5.51545],[-108,5.31637],[-107.5,5.11779],[-107,4.91972],[-106.5,4.72217],[-106,4.52516],[-105.5,4.3287],[-105.26367,4.23604]]}},{"type":"Feature","id":"+03740528:center:0","properties":{"id":"+03740528","year":374,"month":5,"day":28,"time_tdt":"01:04:03","type":"금환일식","type_code":"A","saros":82,"gamma":-0.00346,"magnitude":0.99034,"greatest":{"lat":21.44426,"lng":-168.70007},"path_width_km":34,"duration":"01m06s","delta_t_seconds":6920.3,"catalog_number":5648,"source":"NASA Five Millennium Canon of Solar Eclipses","source_url":"https://eclipse.gsfc.nasa.gov/SEsearch/SEsearchmap.php?Ecl=%2B03740528","boundary":"center","name":"374-05-28 금환일식"},"geometry":{"type":"LineString","coordinates":[[131.2327,-4.2903],[131.5,-4.1856],[132,-3.98582],[132.5,-3.78463],[133,-3.58205],[133.5,-3.37806],[134,-3.17267],[134.5,-2.96587],[135,-2.75766],[135.5,-2.54804],[136,-2.33702],[136.5,-2.12459],[137,-1.91075],[137.5,-1.6955],[138,-1.47885],[138.5,-1.26079],[139,-1.04134],[139.5,-0.82049],[140,-0.59825],[140.5,-0.37462],[141,-0.14961],[141.5,0.07677],[142,0.30452],[142.5,0.53364],[143,0.7641],[143.5,0.9959],[144,1.22904],[144.5,1.46349],[145,1.69924],[145.5,1.93629],[146,2.17462],[146.5,2.4142],[147,2.65502],[147.5,2.89707],[148,3.14032],[148.5,3.38474],[149,3.63032],[149.5,3.87704],[150,4.12485],[150.5,4.37374],[151,4.62367],[151.5,4.87462],[152,5.12654],[152.5,5.3794],[153,5.63316],[153.5,5.88778],[154,6.14322],[154.5,6.39944],[155,6.65637],[155.5,6.91399],[156,7.17223],[156.5,7.43103],[157,7.69035],[157.5,7.95011],[158,8.21027],[158.5,8.47074],[159,8.73147],[159.5,8.99238],[160,9.2534],[160.5,9.51445],[161,9.77546],[161.5,10.03633],[162,10.29699],[162.5,10.55734],[163,10.8173],[163.5,11.07677],[164,11.33566],[164.5,11.59386],[165,11.85127],[165.5,12.1078],[166,12.36333],[166.5,12.61776],[167,12.87098],[167.5,13.12286],[168,13.37331],[168.5,13.62219],[169,13.8694],[169.5,14.11482],[170,14.35832],[170.5,14.59978],[171,14.83908],[171.5,15.07611],[172,15.31073],[172.5,15.54283],[173,15.77228],[173.5,15.99896],[174,16.22275],[174.5,16.44353],[175,16.66118],[175.5,16.87558],[176,17.08663],[176.5,17.2942],[177,17.49818],[177.5,17.69846],[178,17.89495],[178.5,18.08752],[179,18.2761],[179.5,18.46057],[180,18.64084]]}},{"type":"Feature","id":"+03740528:center:1","properties":{"id":"+03740528","year":374,"month":5,"day":28,"time_tdt":"01:04:03","type":"금환일식","type_code":"A","saros":82,"gamma":-0.00346,"magnitude":0.99034,"greatest":{"lat":21.44426,"lng":-168.70007},"path_width_km":34,"duration":"01m06s","delta_t_seconds":6920.3,"catalog_number":5648,"source":"NASA Five Millennium Canon of Solar Eclipses","source_url":"https://eclipse.gsfc.nasa.gov/SEsearch/SEsearchmap.php?Ecl=%2B03740528","boundary":"center","name":"374-05-28 금환일식"},"geometry":{"type":"LineString","coordinates":[[-179.5,18.81682],[-179,18.98843],[-178.5,19.15559],[-178,19.3182],[-177.5,19.4762],[-177,19.62953],[-176.5,19.7781],[-176,19.92185],[-175.5,20.06074],[-175,20.19469],[-174.5,20.32367],[-174,20.44763],[-173.5,20.56652],[-173,20.6803],[-172.5,20.78895],[-172,20.89243],[-171.5,20.99072],[-171,21.08378],[-170.5,21.17162],[-170,21.2542],[-169.5,21.33152],[-169,21.40358],[-168.5,21.47037],[-168,21.53188],[-167.5,21.58812],[-167,21.6391],[-166.5,21.68483],[-166,21.72531],[-165.5,21.76057],[-165,21.79062],[-164.5,21.81548],[-164,21.83518],[-163.5,21.84973],[-163,21.85918],[-162.5,21.86355],[-162,21.86287],[-161.5,21.85718],[-161,21.84651],[-160.5,21.83091],[-160,21.81042],[-159.5,21.78508],[-159,21.75494],[-158.5,21.72003],[-158,21.68043],[-157.5,21.63616],[-157,21.58729],[-156.5,21.53386],[-156,21.47594],[-155.5,21.41358],[-155,21.34684],[-154.5,21.27577],[-154,21.20045],[-153.5,21.12092],[-153,21.03725],[-152.5,20.94952],[-152,20.85777],[-151.5,20.76208],[-151,20.66251],[-150.5,20.55914],[-150,20.45203],[-149.5,20.34124],[-149,20.22686],[-148.5,20.10894],[-148,19.98757],[-147.5,19.86281],[-147,19.73474],[-146.5,19.60342],[-146,19.46894],[-145.5,19.33135],[-145,19.19075],[-144.5,19.0472],[-144,18.90077],[-143.5,18.75153],[-143,18.59957],[-142.5,18.44496],[-142,18.28776],[-141.5,18.12806],[-141,17.96592],[-140.5,17.80142],[-140,17.63462],[-139.5,17.46561],[-139,17.29446],[-138.5,17.12122],[-138,16.94599],[-137.5,16.76881],[-137,16.58977],[-136.5,16.40894],[-136,16.22637],[-135.5,16.04214],[-135,15.85631],[-134.5,15.66895],[-134,15.48013],[-133.5,15.2899],[-133,15.09833],[-132.5,14.90548],[-132,14.71141],[-131.5,14.51619],[-131,14.31986],[-130.5,14.12249],[-130,13.92414],[-129.5,13.72486],[-129,13.5247],[-128.5,13.32372],[-128,13.12197],[-127.5,12.9195],[-127,12.71637],[-126.5,12.51261],[-126,12.30829],[-125.5,12.10343],[-125,11.8981],[-124.5,11.69234],[-124,11.48618],[-123.5,11.27967],[-123,11.07286],[-122.5,10.86578],[-122,10.65847],[-121.5,10.45098],[-121,10.24332],[-120.5,10.03556],[-120,9.82771],[-119.5,9.61981],[-119,9.4119],[-118.5,9.204],[-118,8.99616],[-117.5,8.78839],[-117,8.58073],[-116.5,8.37321],[-116,8.16585],[-115.5,7.95868],[-115,7.75173],[-114.5,7.54502],[-114,7.33857],[-113.5,7.13242],[-113,6.92657],[-112.5,6.72106],[-112,6.5159],[-111.5,6.31112],[-111,6.10673],[-110.5,5.90275],[-110,5.6992],[-109.5,5.49611],[-109,5.29347],[-108.5,5.09132],[-108,4.88967],[-107.5,4.68853],[-107,4.48792],[-106.5,4.28785],[-106,4.08833],[-105.5,3.88939],[-105.44448,3.8672]]}},{"type":"Feature","id":"+03740528:south:0","properties":{"id":"+03740528","year":374,"month":5,"day":28,"time_tdt":"01:04:03","type":"금환일식","type_code":"A","saros":82,"gamma":-0.00346,"magnitude":0.99034,"greatest":{"lat":21.44426,"lng":-168.70007},"path_width_km":34,"duration":"01m06s","delta_t_seconds":6920.3,"catalog_number":5648,"source":"NASA Five Millennium Canon of Solar Eclipses","source_url":"https://eclipse.gsfc.nasa.gov/SEsearch/SEsearchmap.php?Ecl=%2B03740528","boundary":"south","name":"374-05-28 금환일식"},"geometry":{"type":"LineString","coordinates":[[131.42773,-4.68074],[131.5,-4.65167],[132,-4.44969],[132.5,-4.2463],[133,-4.04149],[133.5,-3.83525],[134,-3.62759],[134.5,-3.4185],[135,-3.20799],[135.5,-2.99605],[136,-2.78268],[136.5,-2.56788],[137,-2.35165],[137.5,-2.134],[138,-1.91492],[138.5,-1.69442],[139,-1.47249],[139.5,-1.24915],[140,-1.0244],[140.5,-0.79824],[141,-0.57067],[141.5,-0.34171],[142,-0.11135],[142.5,0.12038],[143,0.35349],[143.5,0.58796],[144,0.82379],[144.5,1.06095],[145,1.29945],[145.5,1.53925],[146,1.78036],[146.5,2.02275],[147,2.2664],[147.5,2.5113],[148,2.75742],[148.5,3.00475],[149,3.25325],[149.5,3.50291],[150,3.75369],[150.5,4.00557],[151,4.25852],[151.5,4.51249],[152,4.76747],[152.5,5.02341],[153,5.28028],[153.5,5.53802],[154,5.79661],[154.5,6.05598],[155,6.31611],[155.5,6.57692],[156,6.83838],[156.5,7.10043],[157,7.363],[157.5,7.62604],[158,7.88949],[158.5,8.15327],[159,8.41731],[159.5,8.68156],[160,8.94592],[160.5,9.21032],[161,9.47469],[161.5,9.73893],[162,10.00297],[162.5,10.2667],[163,10.53005],[163.5,10.7929],[164,11.05518],[164.5,11.31676],[165,11.57756],[165.5,11.83747],[166,12.09637],[166.5,12.35415],[167,12.61071],[167.5,12.86593],[168,13.1197],[168.5,13.37188],[169,13.62237],[169.5,13.87104],[170,14.11777],[170.5,14.36243],[171,14.60491],[171.5,14.84507],[172,15.0828],[172.5,15.31796],[173,15.55044],[173.5,15.7801],[174,16.00683],[174.5,16.2305],[175,16.45099],[175.5,16.66819],[176,16.88197],[176.5,17.09221],[177,17.29882],[177.5,17.50166],[178,17.70064],[178.5,17.89566],[179,18.0866],[179.5,18.27337],[180,18.45588]]}},{"type":"Feature","id":"+03740528:south:1","properties":{"id":"+03740528","year":374,"month":5,"day":28,"time_tdt":"01:04:03","type":"금환일식","type_code":"A","saros":82,"gamma":-0.00346,"magnitude":0.99034,"greatest":{"lat":21.44426,"lng":-168.70007},"path_width_km":34,"duration":"01m06s","delta_t_seconds":6920.3,"catalog_number":5648,"source":"NASA Five Millennium Canon of Solar Eclipses","source_url":"https://eclipse.gsfc.nasa.gov/SEsearch/SEsearchmap.php?Ecl=%2B03740528","boundary":"south","name":"374-05-28 금환일식"},"geometry":{"type":"LineString","coordinates":[[-179.5,18.63402],[-179,18.80772],[-178.5,18.97689],[-178,19.14145],[-177.5,19.30133],[-177,19.45644],[-176.5,19.60672],[-176,19.75212],[-175.5,19.89256],[-175,20.028],[-174.5,20.15838],[-174,20.28366],[-173.5,20.40379],[-173,20.51874],[-172.5,20.62846],[-172,20.73294],[-171.5,20.83215],[-171,20.92605],[-170.5,21.01464],[-170,21.09791],[-169.5,21.17583],[-169,21.2484],[-168.5,21.31562],[-168,21.37749],[-167.5,21.43401],[-167,21.4852],[-166.5,21.53104],[-166,21.57157],[-165.5,21.6068],[-165,21.63674],[-164.5,21.66141],[-164,21.68085],[-163.5,21.69507],[-163,21.7041],[-162.5,21.70799],[-162,21.70675],[-161.5,21.70043],[-161,21.68906],[-160.5,21.67269],[-160,21.65135],[-159.5,21.62509],[-159,21.59397],[-158.5,21.55801],[-158,21.51728],[-157.5,21.47183],[-157,21.4217],[-156.5,21.36696],[-156,21.30766],[-155.5,21.24385],[-155,21.1756],[-154.5,21.10297],[-154,21.02601],[-153.5,20.94479],[-153,20.85938],[-152.5,20.76984],[-152,20.67623],[-151.5,20.57862],[-151,20.47708],[-150.5,20.37168],[-150,20.26249],[-149.5,20.14957],[-149,20.03301],[-148.5,19.91287],[-148,19.78922],[-147.5,19.66214],[-147,19.5317],[-146.5,19.39798],[-146,19.26104],[-145.5,19.12096],[-145,18.97783],[-144.5,18.8317],[-144,18.68266],[-143.5,18.53079],[-143,18.37615],[-142.5,18.21882],[-142,18.05889],[-141.5,17.89641],[-141,17.73147],[-140.5,17.56414],[-140,17.39449],[-139.5,17.22261],[-139,17.04855],[-138.5,16.87239],[-138,16.69421],[-137.5,16.51407],[-137,16.33205],[-136.5,16.14822],[-136,15.96264],[-135.5,15.77539],[-135,15.58652],[-134.5,15.39611],[-134,15.20423],[-133.5,15.01093],[-133,14.81628],[-132.5,14.62035],[-132,14.4232],[-131.5,14.22488],[-131,14.02546],[-130.5,13.825],[-130,13.62354],[-129.5,13.42116],[-129,13.21791],[-128.5,13.01383],[-128,12.80898],[-127.5,12.60342],[-127,12.3972],[-126.5,12.19036],[-126,11.98296],[-125.5,11.77504],[-125,11.56664],[-124.5,11.35782],[-124,11.14862],[-123.5,10.93907],[-123,10.72923],[-122.5,10.51913],[-122,10.30882],[-121.5,10.09833],[-121,9.88769],[-120.5,9.67695],[-120,9.46614],[-119.5,9.2553],[-119,9.04446],[-118.5,8.83365],[-118,8.6229],[-117.5,8.41224],[-117,8.20171],[-116.5,7.99132],[-116,7.78112],[-115.5,7.57113],[-115,7.36136],[-114.5,7.15186],[-114,6.94263],[-113.5,6.73371],[-113,6.52512],[-112.5,6.31688],[-112,6.109],[-111.5,5.90152],[-111,5.69446],[-110.5,5.48782],[-110,5.28163],[-109.5,5.0759],[-109,4.87066],[-108.5,4.66592],[-108,4.46169],[-107.5,4.258],[-107,4.05485],[-106.5,3.85226],[-106,3.65024],[-105.625,3.49911]]}},{"type":"Feature","id":"+03741120:north:0","properties":{"id":"+03741120","year":374,"month":11,"day":20,"time_tdt":"11:46:54","type":"개기일식","type_code":"T","saros":87,"gamma":0.20756,"magnitude":1.02828,"greatest":{"lat":-8.29869,"lng":30.80658},"path_width_km":97.9,"duration":"02m51s","delta_t_seconds":6915.6,"catalog_number":5649,"source":"NASA Five Millennium Canon of Solar Eclipses","source_url":"https://eclipse.gsfc.nasa.gov/SEsearch/SEsearchmap.php?Ecl=%2B03741120","boundary":"north","name":"374-11-20 개기일식"},"geometry":{"type":"LineString","coordinates":[[-28.14844,18.03964],[-28,17.98523],[-27.5,17.80105],[-27,17.61547],[-26.5,17.42848],[-26,17.24008],[-25.5,17.05027],[-25,16.85903],[-24.5,16.66638],[-24,16.4723],[-23.5,16.27679],[-23,16.07984],[-22.5,15.88146],[-22,15.68165],[-21.5,15.48039],[-21,15.27769],[-20.5,15.07354],[-20,14.86795],[-19.5,14.66091],[-19,14.45242],[-18.5,14.24248],[-18,14.0311],[-17.5,13.81828],[-17,13.60401],[-16.5,13.38829],[-16,13.17114],[-15.5,12.95255],[-15,12.73253],[-14.5,12.51108],[-14,12.28821],[-13.5,12.06392],[-13,11.83822],[-12.5,11.61112],[-12,11.38264],[-11.5,11.15276],[-11,10.92152],[-10.5,10.68892],[-10,10.45498],[-9.5,10.2197],[-9,9.98311],[-8.5,9.74521],[-8,9.50604],[-7.5,9.26561],[-7,9.02394],[-6.5,8.78105],[-6,8.53697],[-5.5,8.29172],[-5,8.04534],[-4.5,7.79785],[-4,7.54929],[-3.5,7.29969],[-3,7.04908],[-2.5,6.7975],[-2,6.545],[-1.5,6.29161],[-1,6.03739],[-0.5,5.78238],[0,5.52663],[0.5,5.2702],[1,5.01313],[1.5,4.7555],[2,4.49735],[2.5,4.23877],[3,3.9798],[3.5,3.72053],[4,3.46103],[4.5,3.20138],[5,2.94165],[5.5,2.68193],[6,2.4223],[6.5,2.16287],[7,1.90371],[7.5,1.64493],[8,1.38663],[8.5,1.1289],[9,0.87186],[9.5,0.61562],[10,0.36029],[10.5,0.10597],[11,-0.1472],[11.5,-0.39911],[12,-0.64964],[12.5,-0.89866],[13,-1.14604],[13.5,-1.39166],[14,-1.63537],[14.5,-1.87706],[15,-2.11659],[15.5,-2.35381],[16,-2.5886],[16.5,-2.82083],[17,-3.05034],[17.5,-3.27702],[18,-3.50072],[18.5,-3.72131],[19,-3.93865],[19.5,-4.15262],[20,-4.36309],[20.5,-4.56992],[21,-4.773],[21.5,-4.97219],[22,-5.16739],[22.5,-5.35848],[23,-5.54534],[23.5,-5.72787],[24,-5.90596],[24.5,-6.07952],[25,-6.24844],[25.5,-6.41265],[26,-6.57205],[26.5,-6.72658],[27,-6.87614],[27.5,-7.02068],[28,-7.16013],[28.5,-7.29444],[29,-7.42355],[29.5,-7.54742],[30,-7.666],[30.5,-7.77927],[31,-7.88719],[31.5,-7.98973],[32,-8.08689],[32.5,-8.17864],[33,-8.26498],[33.5,-8.34591],[34,-8.42143],[34.5,-8.49154],[35,-8.55626],[35.5,-8.61559],[36,-8.66958],[36.5,-8.71823],[37,-8.76157],[37.5,-8.79964],[38,-8.83248],[38.5,-8.86012],[39,-8.8826],[39.5,-8.89998],[40,-8.9123],[40.5,-8.9196],[41,-8.92196],[41.5,-8.91941],[42,-8.91202],[42.5,-8.89986],[43,-8.88298],[43.5,-8.86144],[44,-8.83532],[44.5,-8.80468],[45,-8.76959],[45.5,-8.73012],[46,-8.68634],[46.5,-8.63832],[47,-8.58614],[47.5,-8.52986],[48,-8.46957],[48.5,-8.40534],[49,-8.33724],[49.5,-8.26535],[50,-8.18974],[50.5,-8.11049],[51,-8.02768],[51.5,-7.94138],[52,-7.85166],[52.5,-7.75861],[53,-7.6623],[53.5,-7.56279],[54,-7.46018],[54.5,-7.35453],[55,-7.24591],[55.5,-7.1344],[56,-7.02007],[56.5,-6.90299],[57,-6.78324],[57.5,-6.66088],[58,-6.53599],[58.5,-6.40863],[59,-6.27888],[59.5,-6.1468],[60,-6.01245],[60.5,-5.87591],[61,-5.73724],[61.5,-5.5965],[62,-5.45375],[62.5,-5.30907],[63,-5.1625],[63.5,-5.01412],[64,-4.86398],[64.5,-4.71213],[65,-4.55864],[65.5,-4.40357],[66,-4.24696],[66.5,-4.08887],[67,-3.92937],[67.5,-3.76849],[68,-3.60629],[68.5,-3.44283],[69,-3.27814],[69.5,-3.11229],[70,-2.94531],[70.5,-2.77726],[71,-2.60818],[71.5,-2.43811],[72,-2.2671],[72.5,-2.0952],[73,-1.92243],[73.5,-1.74886],[74,-1.5745],[74.5,-1.39941],[75,-1.22363],[75.5,-1.04718],[76,-0.87011],[76.5,-0.69246],[77,-0.51425],[77.5,-0.33552],[78,-0.1563],[78.5,0.02336],[79,0.20345],[79.5,0.38393],[80,0.56477],[80.5,0.74594],[81,0.92741],[81.5,1.10916],[82,1.29116],[82.5,1.47337],[83,1.65578],[83.5,1.83836],[84,2.02109],[84.5,2.20394],[85,2.38688],[85.5,2.5699],[86,2.75298],[86.5,2.93609],[87,3.11921],[87.5,3.30232],[88,3.4854],[88.5,3.66843],[89,3.8514],[89.5,4.03429],[90,4.21707],[90.5,4.39973],[91,4.58226],[91.5,4.76463],[91.88477,4.90486]]}},{"type":"Feature","id":"+03741120:center:0","properties":{"id":"+03741120","year":374,"month":11,"day":20,"time_tdt":"11:46:54","type":"개기일식","type_code":"T","saros":87,"gamma":0.20756,"magnitude":1.02828,"greatest":{"lat":-8.29869,"lng":30.80658},"path_width_km":97.9,"duration":"02m51s","delta_t_seconds":6915.6,"catalog_number":5649,"source":"NASA Five Millennium Canon of Solar Eclipses","source_url":"https://eclipse.gsfc.nasa.gov/SEsearch/SEsearchmap.php?Ecl=%2B03741120","boundary":"center","name":"374-11-20 개기일식"},"geometry":{"type":"LineString","coordinates":[[-28.20146,17.87665],[-28,17.79454],[-27.5,17.60758],[-27,17.41921],[-26.5,17.22941],[-26,17.03818],[-25.5,16.84551],[-25,16.65141],[-24.5,16.45587],[-24,16.25888],[-23.5,16.06044],[-23,15.86055],[-22.5,15.6592],[-22,15.4564],[-21.5,15.25213],[-21,15.04641],[-20.5,14.83922],[-20,14.63057],[-19.5,14.42045],[-19,14.20886],[-18.5,13.99581],[-18,13.78129],[-17.5,13.56532],[-17,13.34787],[-16.5,13.12897],[-16,12.90862],[-15.5,12.68681],[-15,12.46355],[-14.5,12.23885],[-14,12.01271],[-13.5,11.78514],[-13,11.55614],[-12.5,11.32574],[-12,11.09392],[-11.5,10.86072],[-11,10.62613],[-10.5,10.39017],[-10,10.15285],[-9.5,9.91419],[-9,9.67421],[-8.5,9.43292],[-8,9.19035],[-7.5,8.94651],[-7,8.70142],[-6.5,8.45512],[-6,8.20762],[-5.5,7.95895],[-5,7.70915],[-4.5,7.45824],[-4,7.20626],[-3.5,6.95325],[-3,6.69924],[-2.5,6.44427],[-2,6.18838],[-1.5,5.93162],[-1,5.67404],[-0.5,5.41569],[0,5.15661],[0.5,4.89687],[1,4.63653],[1.5,4.37563],[2,4.11426],[2.5,3.85247],[3,3.59034],[3.5,3.32794],[4,3.06534],[4.5,2.80263],[5,2.53989],[5.5,2.2772],[6,2.01466],[6.5,1.75236],[7,1.49039],[7.5,1.22885],[8,0.96786],[8.5,0.7075],[9,0.4479],[9.5,0.18916],[10,-0.0686],[10.5,-0.32527],[11,-0.58071],[11.5,-0.83482],[12,-1.08746],[12.5,-1.33851],[13,-1.58783],[13.5,-1.83531],[14,-2.08079],[14.5,-2.32415],[15,-2.56526],[15.5,-2.80397],[16,-3.04015],[16.5,-3.27367],[17,-3.50438],[17.5,-3.73216],[18,-3.95686],[18.5,-4.17835],[19,-4.39651],[19.5,-4.61119],[20,-4.82227],[20.5,-5.02962],[21,-5.23312],[21.5,-5.43265],[22,-5.6281],[22.5,-5.81934],[23,-6.00626],[23.5,-6.18877],[24,-6.36676],[24.5,-6.54014],[25,-6.70881],[25.5,-6.87268],[26,-7.03168],[26.5,-7.18573],[27,-7.33475],[27.5,-7.47869],[28,-7.61747],[28.5,-7.75105],[29,-7.87938],[29.5,-8.00242],[30,-8.12012],[30.5,-8.23245],[31,-8.33939],[31.5,-8.44091],[32,-8.53701],[32.5,-8.62766],[33,-8.71287],[33.5,-8.79262],[34,-8.86693],[34.5,-8.93581],[35,-8.99926],[35.5,-9.05731],[36,-9.10997],[36.5,-9.15727],[37,-9.19924],[37.5,-9.23592],[38,-9.26733],[38.5,-9.29353],[39,-9.31455],[39.5,-9.33043],[40,-9.34124],[40.5,-9.34701],[41,-9.34781],[41.5,-9.34369],[42,-9.33471],[42.5,-9.32092],[43,-9.3024],[43.5,-9.2792],[44,-9.2514],[44.5,-9.21905],[45,-9.18223],[45.5,-9.141],[46,-9.09545],[46.5,-9.04563],[47,-8.99162],[47.5,-8.9335],[48,-8.87134],[48.5,-8.80521],[49,-8.73518],[49.5,-8.66134],[50,-8.58376],[50.5,-8.50251],[51,-8.41767],[51.5,-8.32932],[52,-8.23753],[52.5,-8.14237],[53,-8.04392],[53.5,-7.94226],[54,-7.83746],[54.5,-7.7296],[55,-7.61875],[55.5,-7.50497],[56,-7.38836],[56.5,-7.26897],[57,-7.14688],[57.5,-7.02216],[58,-6.89488],[58.5,-6.76511],[59,-6.63292],[59.5,-6.49838],[60,-6.36155],[60.5,-6.2225],[61,-6.0813],[61.5,-5.93801],[62,-5.7927],[62.5,-5.64542],[63,-5.49625],[63.5,-5.34524],[64,-5.19244],[64.5,-5.03793],[65,-4.88176],[65.5,-4.72398],[66,-4.56466],[66.5,-4.40384],[67,-4.24159],[67.5,-4.07795],[68,-3.91298],[68.5,-3.74672],[69,-3.57924],[69.5,-3.41058],[70,-3.24078],[70.5,-3.0699],[71,-2.89798],[71.5,-2.72506],[72,-2.5512],[72.5,-2.37643],[73,-2.2008],[73.5,-2.02435],[74,-1.84711],[74.5,-1.66914],[75,-1.49047],[75.5,-1.31113],[76,-1.13117],[76.5,-0.95062],[77,-0.76951],[77.5,-0.58788],[78,-0.40577],[78.5,-0.22321],[79,-0.04022],[79.5,0.14315],[80,0.32688],[80.5,0.51094],[81,0.6953],[81.5,0.87993],[82,1.0648],[82.5,1.24989],[83,1.43517],[83.5,1.62062],[84,1.8062],[84.5,1.9919],[85,2.17769],[85.5,2.36355],[86,2.54945],[86.5,2.73538],[87,2.92131],[87.5,3.10723],[88,3.2931],[88.5,3.47892],[89,3.66467],[89.5,3.85032],[90,4.03586],[90.5,4.22127],[91,4.40653],[91.5,4.59163],[91.93792,4.75363]]}},{"type":"Feature","id":"+03741120:south:0","properties":{"id":"+03741120","year":374,"month":11,"day":20,"time_tdt":"11:46:54","type":"개기일식","type_code":"T","saros":87,"gamma":0.20756,"magnitude":1.02828,"greatest":{"lat":-8.29869,"lng":30.80658},"path_width_km":97.9,"duration":"02m51s","delta_t_seconds":6915.6,"catalog_number":5649,"source":"NASA Five Millennium Canon of Solar Eclipses","source_url":"https://eclipse.gsfc.nasa.gov/SEsearch/SEsearchmap.php?Ecl=%2B03741120","boundary":"south","name":"374-11-20 개기일식"},"geometry":{"type":"LineString","coordinates":[[-28.27539,17.70711],[-28,17.60321],[-27.5,17.41347],[-27,17.22228],[-26.5,17.02965],[-26,16.83557],[-25.5,16.64003],[-25,16.44304],[-24.5,16.24459],[-24,16.04467],[-23.5,15.84328],[-23,15.64042],[-22.5,15.43609],[-22,15.23027],[-21.5,15.02298],[-21,14.81421],[-20.5,14.60396],[-20,14.39222],[-19.5,14.179],[-19,13.96429],[-18.5,13.7481],[-18,13.53043],[-17.5,13.31127],[-17,13.09063],[-16.5,12.86852],[-16,12.64494],[-15.5,12.41988],[-15,12.19336],[-14.5,11.96538],[-14,11.73595],[-13.5,11.50507],[-13,11.27276],[-12.5,11.03901],[-12,10.80385],[-11.5,10.56728],[-11,10.32932],[-10.5,10.08997],[-10,9.84926],[-9.5,9.6072],[-9,9.3638],[-8.5,9.1191],[-8,8.87309],[-7.5,8.62582],[-7,8.3773],[-6.5,8.12755],[-6,7.87661],[-5.5,7.6245],[-5,7.37126],[-4.5,7.11691],[-4,6.8615],[-3.5,6.60506],[-3,6.34762],[-2.5,6.08924],[-2,5.82995],[-1.5,5.5698],[-1,5.30885],[-0.5,5.04714],[0,4.78473],[0.5,4.52167],[1,4.25803],[1.5,3.99388],[2,3.72927],[2.5,3.46427],[3,3.19897],[3.5,2.93343],[4,2.66774],[4.5,2.40198],[5,2.13623],[5.5,1.87058],[6,1.60514],[6.5,1.33998],[7,1.07521],[7.5,0.81094],[8,0.54726],[8.5,0.2843],[9,0.02215],[9.5,-0.23906],[10,-0.49922],[10.5,-0.7582],[11,-1.01589],[11.5,-1.27216],[12,-1.52688],[12.5,-1.77992],[13,-2.03114],[13.5,-2.28043],[14,-2.52763],[14.5,-2.77262],[15,-3.01526],[15.5,-3.25541],[16,-3.49293],[16.5,-3.72769],[17,-3.95955],[17.5,-4.18838],[18,-4.41403],[18.5,-4.63637],[19,-4.85528],[19.5,-5.07062],[20,-5.28226],[20.5,-5.49008],[21,-5.69396],[21.5,-5.89377],[22,-6.08941],[22.5,-6.28075],[23,-6.4677],[23.5,-6.65014],[24,-6.82799],[24.5,-7.00114],[25,-7.16951],[25.5,-7.33301],[26,-7.49157],[26.5,-7.6451],[27,-7.79355],[27.5,-7.93684],[28,-8.07493],[28.5,-8.20776],[29,-8.33528],[29.5,-8.45746],[30,-8.57425],[30.5,-8.68563],[31,-8.79158],[31.5,-8.89207],[32,-8.98709],[32.5,-9.07663],[33,-9.1607],[33.5,-9.23927],[34,-9.31238],[34.5,-9.38002],[35,-9.4422],[35.5,-9.49895],[36,-9.5503],[36.5,-9.59626],[37,-9.63686],[37.5,-9.67215],[38,-9.70215],[38.5,-9.72692],[39,-9.74648],[39.5,-9.76089],[40,-9.7702],[40.5,-9.77446],[41,-9.77372],[41.5,-9.76804],[42,-9.75748],[42.5,-9.7421],[43,-9.72195],[43.5,-9.69711],[44,-9.66764],[44.5,-9.63361],[45,-9.59508],[45.5,-9.55213],[46,-9.50481],[46.5,-9.45322],[47,-9.39741],[47.5,-9.33746],[48,-9.27345],[48.5,-9.20545],[49,-9.13352],[49.5,-9.05776],[50,-8.97822],[50.5,-8.895],[51,-8.80816],[51.5,-8.71777],[52,-8.62392],[52.5,-8.52668],[53,-8.42613],[53.5,-8.32233],[54,-8.21537],[54.5,-8.10532],[55,-7.99225],[55.5,-7.87623],[56,-7.75735],[56.5,-7.63566],[57,-7.51125],[57.5,-7.38419],[58,-7.25454],[58.5,-7.12237],[59,-6.98776],[59.5,-6.85077],[60,-6.71147],[60.5,-6.56993],[61,-6.42622],[61.5,-6.28039],[62,-6.13252],[62.5,-5.98266],[63,-5.83088],[63.5,-5.67725],[64,-5.52181],[64.5,-5.36464],[65,-5.20579],[65.5,-5.04532],[66,-4.88328],[66.5,-4.71974],[67,-4.55474],[67.5,-4.38834],[68,-4.2206],[68.5,-4.05156],[69,-3.88128],[69.5,-3.7098],[70,-3.53719],[70.5,-3.36347],[71,-3.18871],[71.5,-3.01294],[72,-2.83622],[72.5,-2.65859],[73,-2.48008],[73.5,-2.30075],[74,-2.12063],[74.5,-1.93977],[75,-1.7582],[75.5,-1.57597],[76,-1.3931],[76.5,-1.20965],[77,-1.02563],[77.5,-0.8411],[78,-0.65609],[78.5,-0.47062],[79,-0.28473],[79.5,-0.09845],[80,0.08818],[80.5,0.27514],[81,0.4624],[81.5,0.64992],[82,0.83769],[82.5,1.02566],[83,1.21382],[83.5,1.40214],[84,1.59059],[84.5,1.77915],[85,1.96779],[85.5,2.1565],[86,2.34525],[86.5,2.53401],[87,2.72277],[87.5,2.9115],[88,3.10018],[88.5,3.2888],[89,3.47733],[89.5,3.66576],[90,3.85407],[90.5,4.04224],[91,4.23024],[91.5,4.41808],[91.99023,4.60206]]}}],"attribution":"Eclipse Predictions by Fred Espenak and Jean Meeus (NASA's GSFC)","generated_at":"2026-09-23T01:44:49.699Z"}
