{"type":"FeatureCollection","year":393,"events":[{"id":"+03930527","year":393,"month":5,"day":27,"time_tdt":"11:00:05","type":"금환일식","type_code":"A","saros":92,"gamma":-0.70807,"magnitude":0.94706,"greatest":{"lat":-23.6464,"lng":44.91742},"path_width_km":275.7,"duration":"06m50s","delta_t_seconds":6733.1,"catalog_number":5691,"source":"NASA Five Millennium Canon of Solar Eclipses","source_url":"https://eclipse.gsfc.nasa.gov/SEsearch/SEsearchmap.php?Ecl=%2B03930527"},{"id":"+03931120","year":393,"month":11,"day":20,"time_tdt":"12:03:39","type":"개기일식","type_code":"T","saros":97,"gamma":0.86401,"magnitude":1.03734,"greatest":{"lat":39.42331,"lng":32.13861},"path_width_km":249.8,"duration":"03m05s","delta_t_seconds":6728.3,"catalog_number":5692,"source":"NASA Five Millennium Canon of Solar Eclipses","source_url":"https://eclipse.gsfc.nasa.gov/SEsearch/SEsearchmap.php?Ecl=%2B03931120"}],"features":[{"type":"Feature","id":"+03930527:north:0","properties":{"id":"+03930527","year":393,"month":5,"day":27,"time_tdt":"11:00:05","type":"금환일식","type_code":"A","saros":92,"gamma":-0.70807,"magnitude":0.94706,"greatest":{"lat":-23.6464,"lng":44.91742},"path_width_km":275.7,"duration":"06m50s","delta_t_seconds":6733.1,"catalog_number":5691,"source":"NASA Five Millennium Canon of Solar Eclipses","source_url":"https://eclipse.gsfc.nasa.gov/SEsearch/SEsearchmap.php?Ecl=%2B03930527","boundary":"north","name":"393-05-27 금환일식"},"geometry":{"type":"LineString","coordinates":[[-4.89453,-44.0217],[-4.5,-43.8551],[-4,-43.64286],[-3.5,-43.4294],[-3,-43.21472],[-2.5,-42.99882],[-2,-42.78171],[-1.5,-42.56338],[-1,-42.34384],[-0.5,-42.1231],[0,-41.90116],[0.5,-41.67802],[1,-41.4537],[1.5,-41.22819],[2,-41.00151],[2.5,-40.77366],[3,-40.54465],[3.5,-40.3145],[4,-40.0832],[4.5,-39.85077],[5,-39.61723],[5.5,-39.38258],[6,-39.14684],[6.5,-38.91003],[7,-38.67215],[7.5,-38.43323],[8,-38.19328],[8.5,-37.95232],[9,-37.71037],[9.5,-37.46746],[10,-37.2236],[10.5,-36.97883],[11,-36.73316],[11.5,-36.48663],[12,-36.23927],[12.5,-35.9911],[13,-35.74217],[13.5,-35.4925],[14,-35.24214],[14.5,-34.99112],[15,-34.73949],[15.5,-34.4873],[16,-34.23459],[16.5,-33.98141],[17,-33.72782],[17.5,-33.47388],[18,-33.21963],[18.5,-32.96516],[19,-32.71052],[19.5,-32.45578],[20,-32.20103],[20.5,-31.94633],[21,-31.69177],[21.5,-31.43744],[22,-31.18343],[22.5,-30.92983],[23,-30.67675],[23.5,-30.42429],[24,-30.17256],[24.5,-29.92167],[25,-29.67176],[25.5,-29.42293],[26,-29.17533],[26.5,-28.92909],[27,-28.68435],[27.5,-28.44126],[28,-28.19998],[28.5,-27.96066],[29,-27.72346],[29.5,-27.48857],[30,-27.25614],[30.5,-27.02636],[31,-26.79942],[31.5,-26.57551],[32,-26.35481],[32.5,-26.13753],[33,-25.92386],[33.5,-25.714],[34,-25.50817],[34.5,-25.30657],[35,-25.10941],[35.5,-24.91689],[36,-24.72923],[36.5,-24.54663],[37,-24.3693],[37.5,-24.19743],[38,-24.03123],[38.5,-23.87088],[39,-23.71659],[39.5,-23.56852],[40,-23.42685],[40.5,-23.29175],[41,-23.16337],[41.5,-23.04186],[42,-22.92734],[42.5,-22.81996],[43,-22.7198],[43.5,-22.62698],[44,-22.54157],[44.5,-22.46366],[45,-22.39328],[45.5,-22.33049],[46,-22.27531],[46.5,-22.22776],[47,-22.18784],[47.5,-22.15553],[48,-22.13081],[48.5,-22.11362],[49,-22.10393],[49.5,-22.10166],[50,-22.10674],[50.5,-22.11907],[51,-22.13856],[51.5,-22.1651],[52,-22.19858],[52.5,-22.23886],[53,-22.28582],[53.5,-22.33931],[54,-22.3992],[54.5,-22.46533],[55,-22.53755],[55.5,-22.6157],[56,-22.69963],[56.5,-22.78917],[57,-22.88415],[57.5,-22.98442],[58,-23.08982],[58.5,-23.20016],[59,-23.31531],[59.5,-23.43508],[60,-23.55932],[60.5,-23.68787],[61,-23.82057],[61.5,-23.95727],[62,-24.09781],[62.5,-24.24204],[63,-24.38983],[63.5,-24.54101],[64,-24.69546],[64.5,-24.85304],[65,-25.01361],[65.5,-25.17704],[66,-25.3432],[66.5,-25.51198],[67,-25.68324],[67.5,-25.85689],[68,-26.03279],[68.5,-26.21084],[69,-26.39095],[69.5,-26.57299],[70,-26.75689],[70.5,-26.94253],[71,-27.12982],[71.5,-27.31868],[72,-27.50903],[72.5,-27.70077],[73,-27.89382],[73.5,-28.08811],[74,-28.28357],[74.5,-28.48012],[75,-28.67768],[75.5,-28.8762],[76,-29.07561],[76.5,-29.27585],[77,-29.47685],[77.5,-29.67857],[78,-29.88093],[78.5,-30.0839],[79,-30.28741],[79.5,-30.49142],[80,-30.69589],[80.5,-30.90076],[81,-31.10598],[81.5,-31.31153],[82,-31.51735],[82.5,-31.72342],[83,-31.92968],[83.5,-32.1361],[84,-32.34265],[84.5,-32.5493],[85,-32.756],[85.5,-32.96274],[86,-33.16948],[86.5,-33.37619],[87,-33.58284],[87.5,-33.78941],[88,-33.99587],[88.5,-34.2022],[89,-34.40836],[89.5,-34.61435],[90,-34.82013],[90.5,-35.02569],[91,-35.231],[91.5,-35.43605],[92,-35.64081],[92.5,-35.84527],[93,-36.04941],[93.44922,-36.23253]]}},{"type":"Feature","id":"+03930527:center:0","properties":{"id":"+03930527","year":393,"month":5,"day":27,"time_tdt":"11:00:05","type":"금환일식","type_code":"A","saros":92,"gamma":-0.70807,"magnitude":0.94706,"greatest":{"lat":-23.6464,"lng":44.91742},"path_width_km":275.7,"duration":"06m50s","delta_t_seconds":6733.1,"catalog_number":5691,"source":"NASA Five Millennium Canon of Solar Eclipses","source_url":"https://eclipse.gsfc.nasa.gov/SEsearch/SEsearchmap.php?Ecl=%2B03930527","boundary":"center","name":"393-05-27 금환일식"},"geometry":{"type":"LineString","coordinates":[[-4.26216,-45.28745],[-4,-45.1648],[-3.5,-44.94848],[-3,-44.73092],[-2.5,-44.51213],[-2,-44.29212],[-1.5,-44.07088],[-1,-43.84843],[-0.5,-43.62476],[0,-43.39988],[0.5,-43.1738],[1,-42.94652],[1.5,-42.71805],[2,-42.4884],[2.5,-42.25758],[3,-42.02558],[3.5,-41.79244],[4,-41.55814],[4.5,-41.32271],[5,-41.08616],[5.5,-40.8485],[6,-40.60974],[6.5,-40.3699],[7,-40.12899],[7.5,-39.88704],[8,-39.64405],[8.5,-39.40006],[9,-39.15507],[9.5,-38.90911],[10,-38.66221],[10.5,-38.41439],[11,-38.16567],[11.5,-37.91609],[12,-37.66567],[12.5,-37.41445],[13,-37.16246],[13.5,-36.90974],[14,-36.65633],[14.5,-36.40226],[15,-36.14757],[15.5,-35.89233],[16,-35.63656],[16.5,-35.38033],[17,-35.12369],[17.5,-34.86669],[18,-34.6094],[18.5,-34.35188],[19,-34.09419],[19.5,-33.8364],[20,-33.5786],[20.5,-33.32086],[21,-33.06326],[21.5,-32.80589],[22,-32.54884],[22.5,-32.2922],[23,-32.03608],[23.5,-31.78058],[24,-31.52581],[24.5,-31.2719],[25,-31.01894],[25.5,-30.76709],[26,-30.51646],[26.5,-30.26719],[27,-30.01942],[27.5,-29.77331],[28,-29.52901],[28.5,-29.28667],[29,-29.04647],[29.5,-28.80856],[30,-28.57313],[30.5,-28.34036],[31,-28.11043],[31.5,-27.88354],[32,-27.65987],[32.5,-27.43963],[33,-27.22302],[33.5,-27.01024],[34,-26.8015],[34.5,-26.59702],[35,-26.397],[35.5,-26.20165],[36,-26.01118],[36.5,-25.82581],[37,-25.64575],[37.5,-25.47119],[38,-25.30235],[38.5,-25.13942],[39,-24.98259],[39.5,-24.83205],[40,-24.68798],[40.5,-24.55054],[41,-24.4199],[41.5,-24.29621],[42,-24.1796],[42.5,-24.07021],[43,-23.96816],[43.5,-23.87353],[44,-23.78643],[44.5,-23.70692],[45,-23.63507],[45.5,-23.57092],[46,-23.51451],[46.5,-23.46584],[47,-23.42493],[47.5,-23.39177],[48,-23.36631],[48.5,-23.34853],[49,-23.33838],[49.5,-23.33577],[50,-23.34065],[50.5,-23.35292],[51,-23.37247],[51.5,-23.39921],[52,-23.43301],[52.5,-23.47374],[53,-23.52127],[53.5,-23.57546],[54,-23.63617],[54.5,-23.70323],[55,-23.7765],[55.5,-23.85581],[56,-23.94101],[56.5,-24.03192],[57,-24.12838],[57.5,-24.23023],[58,-24.33729],[58.5,-24.4494],[59,-24.56639],[59.5,-24.68809],[60,-24.81434],[60.5,-24.94498],[61,-25.07985],[61.5,-25.21878],[62,-25.36163],[62.5,-25.50824],[63,-25.65845],[63.5,-25.81214],[64,-25.96914],[64.5,-26.12932],[65,-26.29254],[65.5,-26.45867],[66,-26.62759],[66.5,-26.79916],[67,-26.97327],[67.5,-27.14979],[68,-27.32861],[68.5,-27.50962],[69,-27.69272],[69.5,-27.87779],[70,-28.06473],[70.5,-28.25345],[71,-28.44386],[71.5,-28.63586],[72,-28.82937],[72.5,-29.0243],[73,-29.22056],[73.5,-29.41809],[74,-29.61679],[74.5,-29.81661],[75,-30.01747],[75.5,-30.21929],[76,-30.42203],[76.5,-30.6256],[77,-30.82996],[77.5,-31.03503],[78,-31.24078],[78.5,-31.44713],[79,-31.65405],[79.5,-31.86147],[80,-32.06935],[80.5,-32.27765],[81,-32.48631],[81.5,-32.6953],[82,-32.90458],[82.5,-33.1141],[83,-33.32382],[83.5,-33.53371],[84,-33.74374],[84.5,-33.95386],[85,-34.16405],[85.5,-34.37427],[86,-34.58449],[86.5,-34.79469],[87,-35.00484],[87.5,-35.2149],[88,-35.42485],[88.5,-35.63467],[89,-35.84433],[89.5,-36.0538],[90,-36.26308],[90.5,-36.47212],[91,-36.68092],[91.5,-36.88946],[92,-37.0977],[92.5,-37.30564],[93,-37.51326],[93.04547,-37.53446]]}},{"type":"Feature","id":"+03930527:south:0","properties":{"id":"+03930527","year":393,"month":5,"day":27,"time_tdt":"11:00:05","type":"금환일식","type_code":"A","saros":92,"gamma":-0.70807,"magnitude":0.94706,"greatest":{"lat":-23.6464,"lng":44.91742},"path_width_km":275.7,"duration":"06m50s","delta_t_seconds":6733.1,"catalog_number":5691,"source":"NASA Five Millennium Canon of Solar Eclipses","source_url":"https://eclipse.gsfc.nasa.gov/SEsearch/SEsearchmap.php?Ecl=%2B03930527","boundary":"south","name":"393-05-27 금환일식"},"geometry":{"type":"LineString","coordinates":[[-3.5,-46.52097],[-3,-46.30035],[-2.5,-46.07848],[-2,-45.85538],[-1.5,-45.63104],[-1,-45.40547],[-0.5,-45.17867],[0,-44.95066],[0.5,-44.72144],[1,-44.491],[1.5,-44.25937],[2,-44.02655],[2.5,-43.79255],[3,-43.55737],[3.5,-43.32103],[4,-43.08354],[4.5,-42.84491],[5,-42.60515],[5.5,-42.36427],[6,-42.12229],[6.5,-41.87923],[7,-41.6351],[7.5,-41.38991],[8,-41.14369],[8.5,-40.89646],[9,-40.64823],[9.5,-40.39904],[10,-40.1489],[10.5,-39.89783],[11,-39.64587],[11.5,-39.39305],[12,-39.13939],[12.5,-38.88493],[13,-38.62971],[13.5,-38.37375],[14,-38.11709],[14.5,-37.85979],[15,-37.60187],[15.5,-37.34339],[16,-37.0844],[16.5,-36.82495],[17,-36.56508],[17.5,-36.30486],[18,-36.04435],[18.5,-35.78362],[19,-35.52272],[19.5,-35.26173],[20,-35.00073],[20.5,-34.73979],[21,-34.47899],[21.5,-34.21843],[22,-33.95819],[22.5,-33.69838],[23,-33.43908],[23.5,-33.18041],[24,-32.92247],[24.5,-32.66539],[25,-32.40928],[25.5,-32.15427],[26,-31.90049],[26.5,-31.64807],[27,-31.39717],[27.5,-31.14792],[28,-30.90049],[28.5,-30.65503],[29,-30.41171],[29.5,-30.1707],[30,-29.93217],[30.5,-29.69631],[31,-29.4633],[31.5,-29.23333],[32,-29.00661],[32.5,-28.78333],[33,-28.56369],[33.5,-28.3479],[34,-28.13618],[34.5,-27.92873],[35,-27.72577],[35.5,-27.5275],[36,-27.33416],[36.5,-27.14594],[37,-26.96307],[37.5,-26.78575],[38,-26.61419],[38.5,-26.4486],[39,-26.28916],[39.5,-26.13606],[40,-25.9895],[40.5,-25.84965],[41,-25.71667],[41.5,-25.59072],[42,-25.47194],[42.5,-25.36046],[43,-25.25641],[43.5,-25.1599],[44,-25.07101],[44.5,-24.98982],[45,-24.91641],[45.5,-24.85081],[46,-24.79307],[46.5,-24.74321],[47,-24.70122],[47.5,-24.6671],[48,-24.64083],[48.5,-24.62236],[49,-24.61165],[49.5,-24.60863],[50,-24.61322],[50.5,-24.62533],[51,-24.64487],[51.5,-24.67172],[52,-24.70576],[52.5,-24.74687],[53,-24.7949],[53.5,-24.84972],[54,-24.91117],[54.5,-24.97911],[55,-25.05337],[55.5,-25.13378],[56,-25.22019],[56.5,-25.31243],[57,-25.41032],[57.5,-25.5137],[58,-25.62239],[58.5,-25.73622],[59,-25.85503],[59.5,-25.97864],[60,-26.10689],[60.5,-26.2396],[61,-26.37662],[61.5,-26.51779],[62,-26.66294],[62.5,-26.81192],[63,-26.96457],[63.5,-27.12076],[64,-27.28032],[64.5,-27.44313],[65,-27.60903],[65.5,-27.7779],[66,-27.9496],[66.5,-28.12401],[67,-28.301],[67.5,-28.48045],[68,-28.66224],[68.5,-28.84626],[69,-29.0324],[69.5,-29.22055],[70,-29.41062],[70.5,-29.6025],[71,-29.79609],[71.5,-29.99131],[72,-30.18806],[72.5,-30.38626],[73,-30.58583],[73.5,-30.78668],[74,-30.98873],[74.5,-31.19192],[75,-31.39617],[75.5,-31.60141],[76,-31.80758],[76.5,-32.01461],[77,-32.22243],[77.5,-32.431],[78,-32.64024],[78.5,-32.85011],[79,-33.06056],[79.5,-33.27153],[80,-33.48297],[80.5,-33.69483],[81,-33.90708],[81.5,-34.11966],[82,-34.33253],[82.5,-34.54566],[83,-34.759],[83.5,-34.97252],[84,-35.18618],[84.5,-35.39994],[85,-35.61377],[85.5,-35.82764],[86,-36.04152],[86.5,-36.25538],[87,-36.46918],[87.5,-36.68291],[88,-36.89653],[88.5,-37.11002],[89,-37.32336],[89.5,-37.53651],[90,-37.74946],[90.5,-37.96218],[91,-38.17466],[91.5,-38.38687],[92,-38.59879],[92.5,-38.81041]]}},{"type":"Feature","id":"+03931120:north:0","properties":{"id":"+03931120","year":393,"month":11,"day":20,"time_tdt":"12:03:39","type":"개기일식","type_code":"T","saros":97,"gamma":0.86401,"magnitude":1.03734,"greatest":{"lat":39.42331,"lng":32.13861},"path_width_km":249.8,"duration":"03m05s","delta_t_seconds":6728.3,"catalog_number":5692,"source":"NASA Five Millennium Canon of Solar Eclipses","source_url":"https://eclipse.gsfc.nasa.gov/SEsearch/SEsearchmap.php?Ecl=%2B03931120","boundary":"north","name":"393-11-20 개기일식"},"geometry":{"type":"LineString","coordinates":[[-12.625,60.41783],[-12.5,60.3582],[-12,60.11897],[-11.5,59.87863],[-11,59.6372],[-10.5,59.39471],[-10,59.15118],[-9.5,58.90663],[-9,58.6611],[-8.5,58.4146],[-8,58.16717],[-7.5,57.91884],[-7,57.66963],[-6.5,57.41957],[-6,57.16869],[-5.5,56.91704],[-5,56.66463],[-4.5,56.41152],[-4,56.15773],[-3.5,55.90329],[-3,55.64826],[-2.5,55.39267],[-2,55.13655],[-1.5,54.87997],[-1,54.62295],[-0.5,54.36554],[0,54.1078],[0.5,53.84977],[1,53.59151],[1.5,53.33306],[2,53.07448],[2.5,52.81583],[3,52.55716],[3.5,52.29855],[4,52.04004],[4.5,51.7817],[5,51.52361],[5.5,51.26582],[6,51.00842],[6.5,50.75147],[7,50.49505],[7.5,50.23924],[8,49.98412],[8.5,49.72977],[9,49.47628],[9.5,49.22374],[10,48.97223],[10.5,48.72185],[11,48.4727],[11.5,48.22487],[12,47.97846],[12.5,47.73358],[13,47.49033],[13.5,47.24882],[14,47.00916],[14.5,46.77145],[15,46.53582],[15.5,46.30238],[16,46.07125],[16.5,45.84255],[17,45.6164],[17.5,45.39291],[18,45.17222],[18.5,44.95445],[19,44.73973],[19.5,44.52818],[20,44.31993],[20.5,44.11511],[21,43.91383],[21.5,43.71624],[22,43.52245],[22.5,43.33259],[23,43.14678],[23.5,42.96514],[24,42.7878],[24.5,42.61487],[25,42.44646],[25.5,42.28269],[26,42.12366],[26.5,41.96948],[27,41.82026],[27.5,41.67608],[28,41.53704],[28.5,41.40322],[29,41.27471],[29.5,41.15159],[30,41.03392],[30.5,40.92177],[31,40.8152],[31.5,40.71427],[32,40.61901],[32.5,40.52948],[33,40.4457],[33.5,40.3677],[34,40.29551],[34.5,40.22914],[35,40.16859],[35.5,40.11388],[36,40.06499],[36.5,40.02191],[37,39.98464],[37.5,39.95314],[38,39.92739],[38.5,39.90736],[39,39.893],[39.5,39.88428],[40,39.88115],[40.5,39.88355],[41,39.89143],[41.5,39.90472],[42,39.92336],[42.5,39.94728],[43,39.97642],[43.5,40.01069],[44,40.05002],[44.5,40.09434],[45,40.14355],[45.5,40.19757],[46,40.25632],[46.5,40.31972],[47,40.38767],[47.5,40.46009],[48,40.53688],[48.5,40.61795],[49,40.70322],[49.5,40.7926],[50,40.88598],[50.5,40.98329],[51,41.08443],[51.5,41.18931],[52,41.29783],[52.5,41.40992],[53,41.52548],[53.5,41.64443],[54,41.76667],[54.5,41.89212],[55,42.0207],[55.5,42.15232],[56,42.2869],[56.5,42.42436],[57,42.56462],[57.5,42.70759],[58,42.85321],[58.5,43.00139],[59,43.15207],[59.5,43.30516],[60,43.46059],[60.5,43.61829],[61,43.77821],[61.5,43.94025],[62,44.10437],[62.5,44.27049],[63,44.43855],[63.5,44.60849],[64,44.78024],[64.5,44.95376],[65,45.12897],[65.5,45.30582],[66,45.48426],[66.5,45.66423],[67,45.84568],[67.5,46.02856],[68,46.21281],[68.5,46.39838],[69,46.58523],[69.5,46.77331],[70,46.96258],[70.5,47.15298],[71,47.34447],[71.5,47.53702],[72,47.73057],[72.5,47.9251],[73,48.12054],[73.5,48.31688],[74,48.51407],[74.5,48.71207],[75,48.91084],[75.5,49.11035],[76,49.31057],[76.33398,49.44468]]}},{"type":"Feature","id":"+03931120:center:0","properties":{"id":"+03931120","year":393,"month":11,"day":20,"time_tdt":"12:03:39","type":"개기일식","type_code":"T","saros":97,"gamma":0.86401,"magnitude":1.03734,"greatest":{"lat":39.42331,"lng":32.13861},"path_width_km":249.8,"duration":"03m05s","delta_t_seconds":6728.3,"catalog_number":5692,"source":"NASA Five Millennium Canon of Solar Eclipses","source_url":"https://eclipse.gsfc.nasa.gov/SEsearch/SEsearchmap.php?Ecl=%2B03931120","boundary":"center","name":"393-11-20 개기일식"},"geometry":{"type":"LineString","coordinates":[[-13.26358,59.85827],[-13.5,59.79137],[-13,59.55251],[-12.5,59.31249],[-12,59.07132],[-11.5,58.82904],[-11,58.58565],[-10.5,58.34118],[-10,58.09566],[-9.5,57.84911],[-9,57.60155],[-8.5,57.35302],[-8,57.10354],[-7.5,56.85314],[-7,56.60185],[-6.5,56.34969],[-6,56.09671],[-5.5,55.84292],[-5,55.58837],[-4.5,55.3331],[-4,55.07713],[-3.5,54.82051],[-3,54.56327],[-2.5,54.30546],[-2,54.04711],[-1.5,53.78828],[-1,53.529],[-0.5,53.26933],[0,53.0093],[0.5,52.74898],[1,52.48841],[1.5,52.22765],[2,51.96675],[2.5,51.70577],[3,51.44477],[3.5,51.18381],[4,50.92296],[4.5,50.66229],[5,50.40185],[5.5,50.14173],[6,49.88199],[6.5,49.62271],[7,49.36398],[7.5,49.10586],[8,48.84844],[8.5,48.59181],[9,48.33605],[9.5,48.08127],[10,47.82754],[10.5,47.57496],[11,47.32364],[11.5,47.07368],[12,46.82517],[12.5,46.57823],[13,46.33295],[13.5,46.08947],[14,45.84788],[14.5,45.6083],[15,45.37085],[15.5,45.13564],[16,44.90281],[16.5,44.67248],[17,44.44476],[17.5,44.21979],[18,43.99769],[18.5,43.77859],[19,43.56262],[19.5,43.34992],[20,43.1406],[20.5,42.93481],[21,42.73267],[21.5,42.53431],[22,42.33986],[22.5,42.14944],[23,41.96319],[23.5,41.78123],[24,41.60367],[24.5,41.43064],[25,41.26226],[25.5,41.09864],[26,40.93988],[26.5,40.7861],[27,40.63739],[27.5,40.49385],[28,40.35558],[28.5,40.22266],[29,40.09517],[29.5,39.97319],[30,39.85679],[30.5,39.74604],[31,39.64098],[31.5,39.54168],[32,39.44818],[32.5,39.36051],[33,39.27871],[33.5,39.2028],[34,39.13281],[34.5,39.06874],[35,39.0106],[35.5,38.95838],[36,38.91209],[36.5,38.8717],[37,38.8372],[37.5,38.80856],[38,38.78575],[38.5,38.76873],[39,38.75746],[39.5,38.75189],[40,38.75198],[40.5,38.75765],[41,38.76886],[41.5,38.78554],[42,38.80762],[42.5,38.83502],[43,38.86768],[43.5,38.90551],[44,38.94843],[44.5,38.99637],[45,39.04923],[45.5,39.10693],[46,39.16937],[46.5,39.23648],[47,39.30816],[47.5,39.38431],[48,39.46485],[48.5,39.54968],[49,39.63871],[49.5,39.73185],[50,39.82899],[50.5,39.93006],[51,40.03494],[51.5,40.14357],[52,40.25583],[52.5,40.37164],[53,40.49092],[53.5,40.61356],[54,40.73948],[54.5,40.8686],[55,41.00082],[55.5,41.13607],[56,41.27426],[56.5,41.4153],[57,41.55912],[57.5,41.70563],[58,41.85475],[58.5,42.00642],[59,42.16054],[59.5,42.31706],[60,42.47589],[60.5,42.63696],[61,42.80021],[61.5,42.96556],[62,43.13295],[62.5,43.30231],[63,43.47358],[63.5,43.6467],[64,43.82159],[64.5,43.99822],[65,44.1765],[65.5,44.35639],[66,44.53784],[66.5,44.72077],[67,44.90516],[67.5,45.09093],[68,45.27804],[68.5,45.46644],[69,45.65608],[69.5,45.84691],[70,46.03889],[70.5,46.23196],[71,46.4261],[71.5,46.62125],[72,46.81737],[72.5,47.01442],[73,47.21236],[73.5,47.41115],[74,47.61076],[74.5,47.81113],[75,48.01225],[75.5,48.21407],[76,48.41656],[76.5,48.61968],[76.64979,48.66932]]}},{"type":"Feature","id":"+03931120:south:0","properties":{"id":"+03931120","year":393,"month":11,"day":20,"time_tdt":"12:03:39","type":"개기일식","type_code":"T","saros":97,"gamma":0.86401,"magnitude":1.03734,"greatest":{"lat":39.42331,"lng":32.13861},"path_width_km":249.8,"duration":"03m05s","delta_t_seconds":6728.3,"catalog_number":5692,"source":"NASA Five Millennium Canon of Solar Eclipses","source_url":"https://eclipse.gsfc.nasa.gov/SEsearch/SEsearchmap.php?Ecl=%2B03931120","boundary":"south","name":"393-11-20 개기일식"},"geometry":{"type":"LineString","coordinates":[[-14,59.02121],[-13.5,58.78146],[-13,58.54051],[-12.5,58.29838],[-12,58.0551],[-11.5,57.81068],[-11,57.56514],[-10.5,57.31852],[-10,57.07082],[-9.5,56.82208],[-9,56.57233],[-8.5,56.32158],[-8,56.06986],[-7.5,55.81721],[-7,55.56365],[-6.5,55.30921],[-6,55.05393],[-5.5,54.79783],[-5,54.54096],[-4.5,54.2834],[-4,54.02502],[-3.5,53.76602],[-3,53.5064],[-2.5,53.24619],[-2,52.98544],[-1.5,52.72418],[-1,52.46246],[-0.5,52.20034],[0,51.93786],[0.5,51.67507],[1,51.41202],[1.5,51.14878],[2,50.88539],[2.5,50.62192],[3,50.35842],[3.5,50.09497],[4,49.83162],[4.5,49.56844],[5,49.30551],[5.5,49.0429],[6,48.78067],[6.5,48.51892],[7,48.25771],[7.5,47.99714],[8,47.73729],[8.5,47.47824],[9,47.22008],[9.5,46.96292],[10,46.70684],[10.5,46.45194],[11,46.19833],[11.5,45.94611],[12,45.69539],[12.5,45.44627],[13,45.19887],[13.5,44.9533],[14,44.70968],[14.5,44.46813],[15,44.22876],[15.5,43.99171],[16,43.7571],[16.5,43.52505],[17,43.29569],[17.5,43.06916],[18,42.84558],[18.5,42.62509],[19,42.40782],[19.5,42.1939],[20,41.98347],[20.5,41.77666],[21,41.57361],[21.5,41.37444],[22,41.17929],[22.5,40.98829],[23,40.80156],[23.5,40.61924],[24,40.44145],[24.5,40.26831],[25,40.09993],[25.5,39.93644],[26,39.77794],[26.5,39.62454],[27,39.47634],[27.5,39.33344],[28,39.19593],[28.5,39.0639],[29,38.93743],[29.5,38.81659],[30,38.70146],[30.5,38.5921],[31,38.48855],[31.5,38.39088],[32,38.29913],[32.5,38.21332],[33,38.1335],[33.5,38.05968],[34,37.99187],[34.5,37.9301],[35,37.87435],[35.5,37.82463],[36,37.78092],[36.5,37.74321],[37,37.71147],[37.5,37.68567],[38,37.66578],[38.5,37.65176],[39,37.64356],[39.5,37.64112],[40,37.6444],[40.5,37.65333],[41,37.66785],[41.5,37.68789],[42,37.71337],[42.5,37.74423],[43,37.78037],[43.5,37.82173],[44,37.86822],[44.5,37.91974],[45,37.97622],[45.5,38.03756],[46,38.10367],[46.5,38.17446],[47,38.24983],[47.5,38.32969],[48,38.41394],[48.5,38.5025],[49,38.59525],[49.5,38.69212],[50,38.79299],[50.5,38.89778],[51,39.00639],[51.5,39.11873],[52,39.23471],[52.5,39.35422],[53,39.47718],[53.5,39.6035],[54,39.73308],[54.5,39.86584],[55,40.00169],[55.5,40.14055],[56,40.28233],[56.5,40.42694],[57,40.5743],[57.5,40.72433],[58,40.87696],[58.5,41.03209],[59,41.18967],[59.5,41.34961],[60,41.51183],[60.5,41.67627],[61,41.84286],[61.5,42.01152],[62,42.18219],[62.5,42.35481],[63,42.52929],[63.5,42.7056],[64,42.88365],[64.5,43.0634],[65,43.24477],[65.5,43.42773],[66,43.6122],[66.5,43.79813],[67,43.98547],[67.5,44.17416],[68,44.36417],[68.5,44.55542],[69,44.74788],[69.5,44.9415],[70,45.13624],[70.5,45.33203],[71,45.52885],[71.5,45.72665],[72,45.92539],[72.5,46.12502],[73,46.3255],[73.5,46.5268],[74,46.72888],[74.5,46.93169],[75,47.13521],[75.5,47.3394],[76,47.54422],[76.5,47.74964],[77,47.95562]]}}],"attribution":"Eclipse Predictions by Fred Espenak and Jean Meeus (NASA's GSFC)","generated_at":"2026-09-23T01:44:50.029Z"}
