{"type":"FeatureCollection","year":4,"events":[{"id":"+00040408","year":4,"month":4,"day":8,"time_tdt":"11:39:14","type":"금환일식","type_code":"A","saros":58,"gamma":0.86474,"magnitude":0.9486,"greatest":{"lat":61.67308,"lng":16.79675},"path_width_km":375,"duration":"04m15s","delta_t_seconds":10491.1,"catalog_number":4782,"source":"NASA Five Millennium Canon of Solar Eclipses","source_url":"https://eclipse.gsfc.nasa.gov/SEsearch/SEsearchmap.php?Ecl=%2B00040408"},{"id":"+00041002","year":4,"month":10,"day":2,"time_tdt":"23:52:25","type":"혼성일식","type_code":"H","saros":63,"gamma":-0.73685,"magnitude":1.00954,"greatest":{"lat":-47.80138,"lng":-156.30841},"path_width_km":48.4,"duration":"00m46s","delta_t_seconds":10486.2,"catalog_number":4783,"source":"NASA Five Millennium Canon of Solar Eclipses","source_url":"https://eclipse.gsfc.nasa.gov/SEsearch/SEsearchmap.php?Ecl=%2B00041002"}],"features":[{"type":"Feature","id":"+00040408:north:0","properties":{"id":"+00040408","year":4,"month":4,"day":8,"time_tdt":"11:39:14","type":"금환일식","type_code":"A","saros":58,"gamma":0.86474,"magnitude":0.9486,"greatest":{"lat":61.67308,"lng":16.79675},"path_width_km":375,"duration":"04m15s","delta_t_seconds":10491.1,"catalog_number":4782,"source":"NASA Five Millennium Canon of Solar Eclipses","source_url":"https://eclipse.gsfc.nasa.gov/SEsearch/SEsearchmap.php?Ecl=%2B00040408","boundary":"north","name":"4-04-08 금환일식"},"geometry":{"type":"LineString","coordinates":[[-33.25,44.67856],[-33,44.70579],[-32.5,44.76201],[-32,44.8206],[-31.5,44.88159],[-31,44.94501],[-30.5,45.01089],[-30,45.07927],[-29.5,45.15017],[-29,45.22364],[-28.5,45.29969],[-28,45.37838],[-27.5,45.45973],[-27,45.54377],[-26.5,45.63054],[-26,45.72009],[-25.5,45.81243],[-25,45.90761],[-24.5,46.00567],[-24,46.10664],[-23.5,46.21056],[-23,46.31746],[-22.5,46.42738],[-22,46.54037],[-21.5,46.65644],[-21,46.77565],[-20.5,46.89803],[-20,47.02361],[-19.5,47.15244],[-19,47.28454],[-18.5,47.41995],[-18,47.55871],[-17.5,47.70085],[-17,47.84641],[-16.5,47.99541],[-16,48.14789],[-15.5,48.30387],[-15,48.4634],[-14.5,48.62648],[-14,48.79315],[-13.5,48.96344],[-13,49.13736],[-12.5,49.31493],[-12,49.49617],[-11.5,49.68109],[-11,49.86971],[-10.5,50.06203],[-10,50.25806],[-9.5,50.4578],[-9,50.66125],[-8.5,50.8684],[-8,51.07924],[-7.5,51.29375],[-7,51.51191],[-6.5,51.7337],[-6,51.95909],[-5.5,52.18803],[-5,52.4205],[-4.5,52.65644],[-4,52.89579],[-3.5,53.13849],[-3,53.38448],[-2.5,53.63369],[-2,53.88603],[-1.5,54.14141],[-1,54.39974],[-0.5,54.66093],[0,54.92485],[0.5,55.19141],[1,55.46047],[1.5,55.7319],[2,56.00559],[2.5,56.28138],[3,56.55913],[3.5,56.83869],[4,57.11991],[4.5,57.40263],[5,57.68669],[5.5,57.97191],[6,58.25814],[6.5,58.5452],[7,58.83292],[7.5,59.12112],[8,59.40964],[8.5,59.6983],[9,59.98692],[9.5,60.27535],[10,60.5634],[10.5,60.85092],[11,61.13774],[11.5,61.4237],[12,61.70865],[12.5,61.99243],[13,62.27491],[13.5,62.55594],[14,62.83538],[14.5,63.11311],[15,63.38901],[15.5,63.66296],[16,63.93484],[16.5,64.20456],[17,64.47201],[17.5,64.73711],[18,64.99977],[18.5,65.25992],[18.5,65.25991],[19,65.51747],[19.5,65.77236],[20,66.02454],[20.5,66.27395],[21,66.52054],[21.5,66.76427],[22,67.0051],[22.5,67.24299],[23,67.47793],[23.5,67.70988],[24,67.93884],[24.5,68.16478],[25,68.38769],[25.5,68.60757],[26,68.82442],[26.5,69.03823],[27,69.24901],[27.5,69.45677],[28,69.66152],[28.5,69.86326],[29,70.06201],[29.5,70.2578],[30,70.45063],[30.5,70.64053],[31,70.82751],[31.5,71.01162],[32,71.19286],[32.5,71.37126],[33,71.54686],[33.5,71.71968],[34,71.88975],[34.5,72.05711],[35,72.22177],[35.5,72.38378],[36,72.54316],[36.5,72.69996],[37,72.85419],[37.5,73.0059],[38,73.15512],[38.5,73.30188],[39,73.44622],[39.5,73.58817],[40,73.72776],[40.5,73.86503],[41,74.00001],[41.5,74.13273],[42,74.26323],[42,74.26324],[42.5,74.39155],[43,74.51771],[43.5,74.64175],[44,74.76369],[44.5,74.88358],[45,75.00145],[45.5,75.11732],[46,75.23123],[46.5,75.3432],[47,75.45328],[47.5,75.56148],[48,75.66784],[48.5,75.77239],[49,75.87516],[49.5,75.97617],[50,76.07546],[50.5,76.17304],[51,76.26896],[51.5,76.36323],[52,76.45588],[52.5,76.54694],[53,76.63644],[53.5,76.72439],[54,76.81083],[54.5,76.89577],[55,76.97924],[55.5,77.06127],[56,77.14188],[56.5,77.22109],[57,77.29891],[57.5,77.37539],[58,77.45053],[58,77.45052],[58.5,77.52435],[59,77.59688],[59.5,77.66814],[60,77.73815],[60.5,77.80692],[61,77.87447],[61.5,77.94083],[62,78.00602],[62.5,78.07004],[63,78.13292],[63.5,78.19467],[64,78.25531],[64.5,78.31487],[65,78.37334],[65.5,78.43076],[66,78.48713],[66.5,78.54247],[67,78.5968],[67.5,78.65012],[68,78.70246],[68.5,78.75383],[69,78.80424],[69.5,78.8537],[70,78.90223],[70.5,78.94984],[71,78.99655],[71.5,79.04236],[72,79.08728],[72.5,79.13134],[72.5,79.13133],[73,79.17453],[73.5,79.21687],[74,79.25838],[74.5,79.29906],[75,79.33892],[75.5,79.37798],[76,79.41624],[76.5,79.45371],[77,79.4904],[77.5,79.52633],[78,79.56149],[78.5,79.59591],[79,79.62958],[79.5,79.66252],[80,79.69473],[80.5,79.72623],[81,79.75701],[81.5,79.7871],[82,79.81649],[82.5,79.84519],[83,79.87321],[83.5,79.90056],[84,79.92724],[84.5,79.95326],[85,79.97863],[85.5,80.00335],[86,80.02742],[86.5,80.05087],[87,80.07368],[87.5,80.09586],[88,80.11743],[88.5,80.13838],[89,80.15873],[89.5,80.17847],[90,80.19761],[90.5,80.21615],[91,80.2341],[91.5,80.25147],[92,80.26826],[92.5,80.28447],[93,80.3001],[93.5,80.31517],[94,80.32966],[94.5,80.3436],[95,80.35697],[95.5,80.36979],[96,80.38206],[96.5,80.39377],[97,80.40494],[97.5,80.41556],[98,80.42564],[98.5,80.43519],[99,80.44419],[99.5,80.45266],[100,80.4606],[100.5,80.468],[101,80.47488],[101.5,80.48123],[102,80.48706],[102.5,80.49236],[103,80.49714],[103.5,80.5014],[104,80.50514],[104.5,80.50836],[105,80.51106],[105.5,80.51325],[106,80.51493],[106.5,80.51608],[107,80.51673],[107.5,80.51686],[108,80.51648],[108.5,80.51558],[109,80.51417],[109.5,80.51225],[110,80.50982],[110.5,80.50687],[111,80.50342],[111.5,80.49945],[112,80.49496],[112.5,80.48996],[113,80.48445],[113.5,80.47843],[114,80.47188],[114.5,80.46482],[115,80.45725],[115.5,80.44915],[116,80.44053],[116.5,80.4314],[117,80.42174],[117.5,80.41155],[118,80.40084],[118.5,80.3896],[119,80.37784],[119.5,80.36554],[120,80.35271],[120.5,80.33935],[121,80.32544],[121,80.32545],[121.5,80.311],[122,80.29602],[122.5,80.28049],[123,80.26442],[123.5,80.2478],[124,80.23062],[124.5,80.21289],[125,80.1946],[125,80.19461],[125.5,80.17576],[126,80.15634],[126.5,80.13636],[127,80.11581],[127.5,80.09469],[128,80.07299],[128.5,80.05071],[129,80.02784],[129.5,80.00438],[130,79.98033],[130.5,79.95569],[131,79.93044],[131.5,79.90459],[132,79.87813],[132.5,79.85106],[133,79.82337],[133.5,79.79505],[134,79.76611],[134.5,79.73654],[135,79.70633],[135.5,79.67547],[136,79.64397],[136.5,79.61182],[137,79.57901],[137.5,79.54554],[138,79.5114],[138.5,79.47658],[139,79.44109],[139.5,79.40491],[140,79.36804],[140.5,79.33047],[141,79.2922],[141.5,79.25322],[142,79.21353],[142.5,79.17311],[143,79.13197],[143.5,79.09009],[144,79.04747],[144.5,79.00411],[145,78.95999],[145.5,78.91511],[146,78.86947],[146.5,78.82305],[147,78.77585],[147.5,78.72786],[148,78.67907],[148.5,78.62949],[149,78.5791],[149.5,78.52789],[150,78.47585],[150.5,78.42299],[151,78.36929],[151.5,78.31474],[152,78.25935],[152.5,78.20309],[153,78.14596],[153.5,78.08796],[154,78.02908],[154.5,77.96931],[156.5,77.72119],[155,77.90865],[156,77.78459],[155.5,77.84707],[156,77.78459],[155.5,77.84707],[155.875,77.8003]]}},{"type":"Feature","id":"+00040408:center:0","properties":{"id":"+00040408","year":4,"month":4,"day":8,"time_tdt":"11:39:14","type":"금환일식","type_code":"A","saros":58,"gamma":0.86474,"magnitude":0.9486,"greatest":{"lat":61.67308,"lng":16.79675},"path_width_km":375,"duration":"04m15s","delta_t_seconds":10491.1,"catalog_number":4782,"source":"NASA Five Millennium Canon of Solar Eclipses","source_url":"https://eclipse.gsfc.nasa.gov/SEsearch/SEsearchmap.php?Ecl=%2B00040408","boundary":"center","name":"4-04-08 금환일식"},"geometry":{"type":"LineString","coordinates":[[-32.07509,42.66056],[-32,42.66478],[-31.5,42.72307],[-31,42.78369],[-30.5,42.84664],[-30,42.91197],[-29.5,42.9797],[-29,43.04987],[-28.5,43.12251],[-28,43.19764],[-27.5,43.27531],[-27,43.35554],[-26.5,43.43837],[-26,43.52382],[-25.5,43.61194],[-25,43.70276],[-24.5,43.79632],[-24,43.89264],[-23.5,43.99176],[-23,44.09372],[-22.5,44.19855],[-22,44.30629],[-21.5,44.41697],[-21,44.53063],[-20.5,44.6473],[-20,44.76703],[-19.5,44.88984],[-19,45.01576],[-18.5,45.14484],[-18,45.27711],[-17.5,45.41261],[-17,45.55135],[-16.5,45.69339],[-16,45.83875],[-15.5,45.98745],[-15,46.13954],[-14.5,46.29504],[-14,46.45398],[-13.5,46.61638],[-13,46.78227],[-12.5,46.95167],[-12,47.1246],[-11.5,47.30108],[-11,47.48113],[-10.5,47.66477],[-10,47.85199],[-9.5,48.04282],[-9,48.23725],[-8.5,48.4353],[-8,48.63694],[-7.5,48.84219],[-7,49.05103],[-6.5,49.26345],[-6,49.47943],[-5.5,49.69894],[-5,49.92196],[-4.5,50.14845],[-4,50.37837],[-4,50.37838],[-3.5,50.61169],[-3,50.84834],[-2.5,51.08827],[-2,51.33143],[-1.5,51.57773],[-1,51.8271],[-0.5,52.07947],[0,52.33473],[0.5,52.59281],[1,52.85359],[1.5,53.11696],[2,53.38282],[2.5,53.65104],[3,53.9215],[3.5,54.19406],[4,54.46859],[4.5,54.74494],[5,55.02296],[5.5,55.30251],[6,55.58343],[6.5,55.86556],[7,56.14874],[7.5,56.4328],[8,56.71758],[8.5,57.00292],[9,57.28864],[9.5,57.57459],[10,57.86059],[10.5,58.14647],[11,58.43208],[11.5,58.71726],[12,59.00184],[12.5,59.28567],[13,59.5686],[13.5,59.85048],[14,60.13117],[14.5,60.41054],[15,60.68844],[15.5,60.96475],[16,61.23936],[16.5,61.51214],[17,61.78299],[17.5,62.0518],[18,62.31847],[18.5,62.58292],[19,62.84505],[19.5,63.1048],[20,63.36208],[20.5,63.61683],[21,63.86899],[21.5,64.1185],[22,64.36532],[22.5,64.60939],[23,64.85069],[23.5,65.08917],[24,65.3248],[24.5,65.55756],[25,65.78743],[25.5,66.0144],[26,66.23845],[26.5,66.45956],[27,66.67775],[27.5,66.89299],[27.5,66.893],[28,67.10531],[28.5,67.31469],[29,67.52115],[29.5,67.7247],[30,67.92534],[30.5,68.12309],[31,68.31797],[31.5,68.50999],[32,68.69918],[32.5,68.88556],[33,69.06914],[33.5,69.24995],[34,69.42802],[34.5,69.60337],[35,69.77603],[35.5,69.94602],[36,70.11338],[36.5,70.27814],[37,70.44032],[37.5,70.59995],[38,70.75706],[38.5,70.91169],[39,71.06386],[39.5,71.21362],[39.5,71.21361],[40,71.36097],[40.5,71.50597],[41,71.64864],[41.5,71.78901],[42,71.92712],[42.5,72.06299],[43,72.19666],[43.5,72.32815],[44,72.45751],[44.5,72.58475],[45,72.70991],[45.5,72.83303],[46,72.95412],[46.5,73.07322],[47,73.19036],[47.5,73.30557],[48,73.41887],[48.5,73.5303],[49,73.63989],[49.5,73.74765],[50,73.85362],[50.5,73.95783],[51,74.06029],[51.5,74.16105],[52,74.26011],[52.5,74.35752],[53,74.45329],[53.5,74.54744],[54,74.64001],[54.5,74.73102],[55,74.82048],[55.5,74.90843],[56,74.99488],[56.5,75.07986],[57,75.16338],[57.5,75.24548],[58,75.32617],[58.5,75.40547],[59,75.4834],[59.5,75.55999],[60,75.63525],[60.5,75.70919],[61,75.78185],[61.5,75.85324],[62,75.92337],[62.5,75.99226],[63,76.05994],[63.5,76.12642],[64,76.19171],[64.5,76.25583],[65,76.3188],[65.5,76.38064],[66,76.44135],[66.5,76.50096],[67,76.55948],[67.5,76.61692],[68,76.67329],[68.5,76.72862],[69,76.78292],[69.5,76.83619],[70,76.88845],[70.5,76.93972],[71,76.99],[71.5,77.03932],[72,77.08767],[72.5,77.13508],[73,77.18155],[73.5,77.2271],[74,77.27173],[74.5,77.31546],[75,77.3583],[75.5,77.40025],[75.5,77.40026],[76,77.44134],[76.5,77.48156],[77,77.52093],[77.5,77.55945],[78,77.59714],[78.5,77.634],[79,77.67005],[79.5,77.70529],[80,77.73973],[80.5,77.77337],[81,77.80623],[81.5,77.83832],[82,77.86963],[82.5,77.90019],[83,77.92999],[83.5,77.95904],[84,77.98735],[84.5,78.01493],[85,78.04177],[85.5,78.0679],[86,78.09331],[86.5,78.11801],[87,78.14201],[87.5,78.1653],[88,78.18791],[88.5,78.20982],[89,78.23106],[89.5,78.25161],[90,78.27149],[90.5,78.29071],[91,78.30926],[91.5,78.32715],[92,78.34438],[92.5,78.36096],[93,78.3769],[93.5,78.39219],[94,78.40684],[94.5,78.42086],[95,78.43424],[95.5,78.44699],[96,78.45911],[96.5,78.47061],[97,78.48149],[97.5,78.49175],[98,78.5014],[98.5,78.51043],[99,78.51885],[99.5,78.52666],[100,78.53387],[100.5,78.54047],[101,78.54647],[101.5,78.55186],[102,78.55666],[102.5,78.56086],[103,78.56446],[103.5,78.56747],[104,78.56989],[104.5,78.57171],[105,78.57294],[105.5,78.57357],[106,78.57362],[106.5,78.57308],[107,78.57195],[107.5,78.57023],[108,78.56792],[108.5,78.56502],[109,78.56154],[109.5,78.55747],[110,78.55281],[110.5,78.54756],[111,78.54172],[111.5,78.53529],[112,78.52828],[112.5,78.52067],[113,78.51247],[113.5,78.50368],[114,78.4943],[114.5,78.48433],[115,78.47376],[115.5,78.46259],[116,78.45083],[116.5,78.43846],[117,78.4255],[117.5,78.41194],[118,78.39777],[118.5,78.383],[119,78.36762],[119.5,78.35163],[120,78.33503],[120.5,78.31782],[121,78.29999],[121.5,78.28155],[122,78.26248],[122.5,78.24279],[122.5,78.2428],[123,78.22248],[123.5,78.20154],[124,78.17997],[124.5,78.15776],[125,78.13492],[125.5,78.11144],[126,78.08731],[126.5,78.06254],[127,78.03712],[127.5,78.01104],[128,77.98431],[128.5,77.95692],[129,77.92887],[129.5,77.90015],[130,77.87075],[130,77.87076],[130.5,77.84069],[131,77.80994],[131.5,77.77851],[132,77.74639],[132.5,77.71358],[132.5,77.71359],[133,77.68008],[133.5,77.64587],[133.5,77.64588],[134,77.61097],[134.5,77.57535],[135,77.53901],[135.5,77.50196],[136,77.46419],[136.5,77.42568],[136.5,77.42569],[137,77.38645],[137.5,77.34648],[138,77.30576],[138.5,77.2643],[139,77.22208],[139.5,77.1791],[140,77.13536],[140,77.13537],[140.5,77.09086],[141,77.04558],[141.5,76.99952],[142,76.95267],[142.5,76.90503],[142.5,76.90504],[143,76.8566],[143.5,76.80737],[144,76.75733],[144.5,76.70648],[145,76.65481],[145.5,76.60232],[146,76.549],[146.5,76.49484],[147,76.43984],[147.5,76.384],[148,76.3273],[148.5,76.26975],[149,76.21133],[149.5,76.15205],[150,76.09189],[150.5,76.03085],[151,75.96892],[151,75.96893],[151.5,75.90611],[151.58011,75.89874]]}},{"type":"Feature","id":"+00040408:south:0","properties":{"id":"+00040408","year":4,"month":4,"day":8,"time_tdt":"11:39:14","type":"금환일식","type_code":"A","saros":58,"gamma":0.86474,"magnitude":0.9486,"greatest":{"lat":61.67308,"lng":16.79675},"path_width_km":375,"duration":"04m15s","delta_t_seconds":10491.1,"catalog_number":4782,"source":"NASA Five Millennium Canon of Solar Eclipses","source_url":"https://eclipse.gsfc.nasa.gov/SEsearch/SEsearchmap.php?Ecl=%2B00040408","boundary":"south","name":"4-04-08 금환일식"},"geometry":{"type":"LineString","coordinates":[[-30.83594,40.76962],[-30.5,40.8107],[-30,40.87375],[-29.5,40.93911],[-29,41.00679],[-29,41.0068],[-28.5,41.07685],[-28,41.14929],[-27.5,41.22416],[-27,41.30149],[-26.5,41.3813],[-26,41.46364],[-25.5,41.54852],[-25,41.63599],[-24.5,41.72608],[-24,41.81881],[-23.5,41.91423],[-23,42.01237],[-22.5,42.11325],[-22.5,42.11326],[-22,42.21693],[-21.5,42.32342],[-21,42.43277],[-20.5,42.545],[-20,42.66016],[-19.5,42.77827],[-19,42.89938],[-18.5,43.02351],[-18,43.1507],[-17.5,43.28098],[-17,43.41439],[-16.5,43.55096],[-16.5,43.55097],[-16,43.69073],[-15.5,43.83372],[-15,43.97996],[-14.5,44.12949],[-14,44.28233],[-13.5,44.43852],[-13,44.59807],[-12.5,44.76102],[-12,44.92739],[-11.5,45.09721],[-11,45.27048],[-10.5,45.44724],[-10,45.62749],[-9.5,45.81126],[-9,45.99855],[-8.5,46.18937],[-8,46.38372],[-7.5,46.58162],[-7,46.78305],[-6.5,46.98802],[-6,47.19651],[-5.5,47.40851],[-5,47.62401],[-4.5,47.84298],[-4,48.06539],[-3.5,48.29122],[-3,48.52042],[-2.5,48.75296],[-2,48.98878],[-1.5,49.22783],[-1,49.47006],[-0.5,49.71538],[0,49.96374],[0.5,50.21506],[1,50.46924],[1.5,50.7262],[2,50.98583],[2.5,51.24804],[3,51.51272],[3.5,51.77974],[4,52.04899],[4.5,52.32034],[5,52.59365],[5.5,52.86879],[6,53.14561],[6.5,53.42397],[7,53.70371],[7.5,53.98469],[8,54.26674],[8.5,54.5497],[9,54.83342],[9.5,55.11773],[10,55.40247],[10.5,55.68747],[11,55.97257],[11.5,56.25761],[12,56.54243],[12.5,56.82686],[13,57.11076],[13.5,57.39397],[14,57.67634],[14.5,57.95773],[15,58.23799],[15.5,58.51699],[16,58.79459],[16.5,59.07068],[17,59.34512],[17.5,59.61781],[18,59.88863],[18.5,60.15748],[19,60.42426],[19.5,60.68889],[20,60.95127],[20.5,61.21133],[21,61.46899],[21.5,61.72418],[22,61.97685],[22.5,62.22694],[23,62.47439],[23.5,62.71916],[24,62.96121],[24.5,63.2005],[25,63.43701],[25.5,63.6707],[26,63.90156],[26.5,64.12956],[27,64.3547],[27.5,64.57696],[28,64.79633],[28.5,65.01282],[29,65.22642],[29.5,65.43713],[30,65.64496],[30.5,65.84992],[31,66.05202],[31.5,66.25126],[32,66.44767],[32.5,66.64126],[33,66.83205],[33.5,67.02006],[34,67.2053],[34.5,67.38781],[35,67.5676],[35.5,67.7447],[36,67.91913],[36.5,68.09092],[37,68.26009],[37.5,68.42669],[38,68.59072],[38.5,68.75222],[39,68.91123],[39.5,69.06778],[39.5,69.06776],[40,69.22185],[40.5,69.37353],[41,69.52283],[41.5,69.66977],[42,69.8144],[42.5,69.95673],[43,70.0968],[43.5,70.23464],[44,70.37028],[44.5,70.50375],[45,70.63507],[45.5,70.76428],[46,70.89141],[46.5,71.01649],[47,71.13954],[47.5,71.26059],[48,71.37967],[48.5,71.49682],[49,71.61204],[49.5,71.72539],[50,71.83687],[50.5,71.94652],[51,72.05437],[51.5,72.16043],[52,72.26474],[52.5,72.36732],[53,72.46819],[53.5,72.56738],[54,72.66492],[54.5,72.76082],[55,72.85511],[55.5,72.94782],[56,73.03896],[56.5,73.12856],[57,73.21664],[57.5,73.30322],[58,73.38832],[58.5,73.47197],[59,73.55418],[59.5,73.63497],[60,73.71436],[60.5,73.79238],[61,73.86903],[61.5,73.94435],[62,74.01834],[62.5,74.09102],[63,74.16242],[63.5,74.23255],[64,74.30143],[64.5,74.36907],[65,74.43548],[65.5,74.50069],[66,74.56472],[66.5,74.62757],[67,74.68925],[67.5,74.7498],[68,74.80921],[68.5,74.86751],[69,74.9247],[69.5,74.9808],[70,75.03583],[70.5,75.0898],[71,75.14271],[71.5,75.19459],[72,75.24543],[72.5,75.29527],[73,75.3441],[73.5,75.39194],[74,75.4388],[74.5,75.48469],[75,75.52962],[75.5,75.5736],[76,75.61664],[76.5,75.65875],[77,75.69994],[77,75.69995],[77.5,75.74023],[78,75.77961],[78.5,75.8181],[79,75.85571],[79.5,75.89244],[80,75.92831],[80.5,75.96332],[81,75.99747],[81.5,76.03079],[82,76.06327],[82.5,76.09493],[83,76.12576],[83.5,76.15578],[84,76.18499],[84.5,76.21341],[85,76.24103],[85.5,76.26786],[86,76.29391],[86.5,76.31919],[87,76.3437],[87.5,76.36744],[88,76.39042],[88.5,76.41266],[89,76.43414],[89.5,76.45488],[90,76.47489],[90,76.47488],[90.5,76.49415],[91,76.51269],[91.5,76.53051],[92,76.5476],[92.5,76.56398],[93,76.57965],[93.5,76.5946],[94,76.60886],[94.5,76.62241],[95,76.63526],[95.5,76.64741],[96,76.65888],[96.5,76.66965],[97,76.67974],[97.5,76.68914],[98,76.69787],[98.5,76.70591],[99,76.71328],[99.5,76.71998],[100,76.726],[100.5,76.73135],[101,76.73604],[101.5,76.74005],[102,76.74341],[102.5,76.7461],[103,76.74812],[103.5,76.74949],[104,76.75019],[104.5,76.75024],[105,76.74963],[105.5,76.74836],[106,76.74644],[106.5,76.74386],[107,76.74063],[107.5,76.73674],[108,76.73219],[108.5,76.72699],[109,76.72114],[109.5,76.71463],[110,76.70747],[110.5,76.69965],[111,76.69118],[111.5,76.68205],[112,76.67226],[112.5,76.66182],[113,76.65072],[113.5,76.63896],[114,76.62654],[114.5,76.61346],[115,76.59972],[115.5,76.58532],[116,76.57025],[116.5,76.55452],[117,76.53812],[117.5,76.52105],[118,76.50331],[118.5,76.4849],[119,76.46581],[119.5,76.44605],[120,76.42561],[120.5,76.40449],[121,76.38268],[121.5,76.36019],[122,76.33702],[122.5,76.31315],[123,76.2886],[123.5,76.26335],[124,76.2374],[124.5,76.21075],[125,76.1834],[125.5,76.15534],[126,76.12657],[126.5,76.09709],[127,76.0669],[127.5,76.03598],[128,76.00435],[128.5,75.97199],[129,75.9389],[129.5,75.90508],[130,75.87052],[130.5,75.83523],[131,75.79919],[131.5,75.76241],[132,75.72487],[132.5,75.68658],[133,75.64754],[133.5,75.60773],[134,75.56715],[134.5,75.52581],[135,75.48369],[135.5,75.44079],[136,75.39711],[136.5,75.35264],[137,75.30738],[137,75.30739],[137.5,75.26133],[138,75.21448],[138.5,75.16682],[139,75.11836],[139.5,75.06908],[140,75.01899],[140.5,74.96807],[141,74.91633],[141.5,74.86376],[142,74.81036],[142.5,74.75611],[143,74.70102],[143.5,74.64509],[144,74.5883],[144.5,74.53065],[145,74.47215],[145.5,74.41278],[146,74.35253],[146.5,74.29142],[147,74.22942],[147.47266,74.17001]]}},{"type":"Feature","id":"+00041002:north:0","properties":{"id":"+00041002","year":4,"month":10,"day":2,"time_tdt":"23:52:25","type":"혼성일식","type_code":"H","saros":63,"gamma":-0.73685,"magnitude":1.00954,"greatest":{"lat":-47.80138,"lng":-156.30841},"path_width_km":48.4,"duration":"00m46s","delta_t_seconds":10486.2,"catalog_number":4783,"source":"NASA Five Millennium Canon of Solar Eclipses","source_url":"https://eclipse.gsfc.nasa.gov/SEsearch/SEsearchmap.php?Ecl=%2B00041002","boundary":"north","name":"4-10-02 혼성일식"},"geometry":{"type":"LineString","coordinates":[[149.62695,-29.73321],[150,-29.75648],[150.5,-29.78934],[151,-29.82414],[151.5,-29.8609],[152,-29.89964],[152.5,-29.9404],[153,-29.98319],[153.5,-30.02804],[154,-30.07498],[154.5,-30.12404],[155,-30.17524],[155.5,-30.22862],[156,-30.28419],[156.5,-30.34199],[157,-30.40205],[157.5,-30.46439],[158,-30.52904],[158.5,-30.59604],[159,-30.6644],[159.5,-30.72921],[160,-30.7964],[160.5,-30.86601],[161,-30.93806],[161.5,-31.01259],[162,-31.08962],[162.5,-31.1692],[163,-31.25136],[163.5,-31.33612],[164,-31.42351],[164.5,-31.51358],[165,-31.60636],[165.5,-31.70187],[166,-31.80014],[166.5,-31.90123],[167,-32.00515],[167.5,-32.11193],[168,-32.22162],[168.5,-32.33424],[169,-32.44983],[169.5,-32.56841],[170,-32.69002],[170.5,-32.81469],[171,-32.94245],[171.5,-33.07333],[172,-33.20736],[172.5,-33.34457],[173,-33.48497],[173.5,-33.62861],[174,-33.7755],[174.5,-33.92567],[175,-34.07913],[175.5,-34.23592],[176,-34.39604],[176.5,-34.55951],[177,-34.72635],[177.5,-34.89658],[178,-35.07019],[178.5,-35.2472],[179,-35.42761],[179.5,-35.61143],[180,-35.79865]]}},{"type":"Feature","id":"+00041002:north:1","properties":{"id":"+00041002","year":4,"month":10,"day":2,"time_tdt":"23:52:25","type":"혼성일식","type_code":"H","saros":63,"gamma":-0.73685,"magnitude":1.00954,"greatest":{"lat":-47.80138,"lng":-156.30841},"path_width_km":48.4,"duration":"00m46s","delta_t_seconds":10486.2,"catalog_number":4783,"source":"NASA Five Millennium Canon of Solar Eclipses","source_url":"https://eclipse.gsfc.nasa.gov/SEsearch/SEsearchmap.php?Ecl=%2B00041002","boundary":"north","name":"4-10-02 혼성일식"},"geometry":{"type":"LineString","coordinates":[[-179.5,-35.98926],[-179,-36.18326],[-178.5,-36.38064],[-178,-36.58138],[-177.5,-36.78546],[-177,-36.99286],[-176.5,-37.20355],[-176,-37.41749],[-175.5,-37.63464],[-175,-37.85498],[-174.5,-38.07843],[-174,-38.30497],[-173.5,-38.53451],[-173,-38.76702],[-172.5,-39.0024],[-172,-39.2406],[-171.5,-39.48153],[-171,-39.72511],[-170.5,-39.97125],[-170,-40.21986],[-169.5,-40.47083],[-169,-40.72406],[-168.5,-40.97944],[-168,-41.23687],[-167.5,-41.49621],[-167,-41.75736],[-166.5,-42.02019],[-166,-42.28456],[-165.5,-42.55035],[-165,-42.81742],[-164.5,-43.08564],[-164,-43.35487],[-163.5,-43.62497],[-163,-43.89581],[-162.5,-44.16723],[-162,-44.43911],[-161.5,-44.7113],[-161,-44.98366],[-160.5,-45.25606],[-160,-45.52835],[-159.5,-45.80041],[-159,-46.07211],[-158.5,-46.34331],[-158,-46.61388],[-157.5,-46.88371],[-157,-47.15268],[-156.5,-47.42066],[-156,-47.68756],[-155.5,-47.95325],[-155,-48.21765],[-154.5,-48.48064],[-154,-48.74215],[-153.5,-49.00206],[-153,-49.26031],[-152.5,-49.51681],[-152,-49.77149],[-151.5,-50.02427],[-151,-50.2751],[-150.5,-50.5239],[-150,-50.77062],[-149.5,-51.01521],[-149,-51.25761],[-148.5,-51.49779],[-148,-51.73571],[-147.5,-51.97132],[-147,-52.20459],[-146.5,-52.4355],[-146,-52.66402],[-145.5,-52.89012],[-145,-53.11379],[-144.5,-53.33501],[-144,-53.55376],[-143.5,-53.77004],[-143,-53.98384],[-142.5,-54.19514],[-142,-54.40395],[-141.5,-54.61027],[-141,-54.8141],[-140.5,-55.01543],[-140,-55.21427],[-139.5,-55.41063],[-139,-55.60451],[-138.5,-55.79593],[-138,-55.98489],[-137.5,-56.17141],[-137,-56.35549],[-136.5,-56.53715],[-136,-56.71641],[-135.5,-56.89327],[-135,-57.06776],[-134.5,-57.23989],[-134,-57.40968],[-133.5,-57.57715],[-133,-57.74231],[-132.5,-57.90518],[-132,-58.06579],[-131.5,-58.22414],[-131,-58.38027],[-130.5,-58.53419],[-130,-58.68592],[-129.5,-58.83549],[-129,-58.9829],[-128.5,-59.12819],[-128,-59.27138],[-127.5,-59.41248],[-127,-59.55151],[-126.5,-59.6885],[-126,-59.82347],[-125.5,-59.95644],[-125,-60.08742],[-124.5,-60.21644],[-124,-60.34353],[-123.5,-60.46869],[-123,-60.59195],[-122.5,-60.71333],[-122,-60.83286],[-121.5,-60.95054],[-121,-61.0664],[-120.5,-61.18046],[-120,-61.29274],[-119.5,-61.40325],[-119,-61.51202],[-118.5,-61.61906],[-118,-61.7244],[-117.5,-61.82804],[-117,-61.93002],[-116.5,-62.03034],[-116,-62.12902],[-115.5,-62.22608],[-115,-62.32154],[-114.5,-62.41542],[-114,-62.50772],[-113.5,-62.59848],[-113,-62.68769],[-112.5,-62.77538],[-112,-62.86157],[-111.5,-62.94627],[-111,-63.02949],[-110.5,-63.11125],[-110,-63.19156],[-109.5,-63.27044],[-109,-63.34791],[-108.5,-63.42397],[-108,-63.49864],[-107.5,-63.57193],[-107,-63.64386],[-106.5,-63.71444],[-106,-63.78368],[-105.5,-63.85159],[-105,-63.91819],[-104.5,-63.98349],[-104,-64.0475],[-103.5,-64.11023],[-103,-64.1717],[-102.5,-64.23191],[-102,-64.29087],[-101.5,-64.34861],[-101,-64.40512],[-100.5,-64.46041],[-100,-64.51451],[-99.5,-64.56741],[-99,-64.61913],[-98.5,-64.66968],[-98,-64.71907],[-97.5,-64.7673],[-97,-64.81439],[-96.5,-64.86034],[-96,-64.90516],[-95.5,-64.94887],[-95,-64.99146],[-94.5,-65.03295],[-94,-65.07335],[-93.5,-65.11267],[-93,-65.1509],[-92.5,-65.18806],[-92,-65.22416],[-91.5,-65.25921],[-91,-65.2932],[-90.5,-65.32616],[-90,-65.35807],[-89.5,-65.38896],[-89,-65.41883],[-88.5,-65.44768],[-88,-65.47552],[-87.5,-65.50236],[-87,-65.5282],[-86.5,-65.55305],[-86,-65.57691],[-85.5,-65.59979],[-85,-65.62169],[-84.5,-65.64263],[-84,-65.6626],[-83.5,-65.68161],[-83,-65.69967],[-82.5,-65.71678],[-82,-65.73294],[-81.5,-65.74816],[-81,-65.76244],[-80.5,-65.77579],[-80,-65.78822],[-79.5,-65.79972],[-79,-65.8103],[-78.5,-65.81997],[-78,-65.82872],[-77.5,-65.83657],[-77,-65.84351],[-76.5,-65.84955],[-76,-65.85469],[-75.5,-65.85894],[-75,-65.8623],[-74.5,-65.86477],[-74,-65.86636],[-73.5,-65.86706],[-73,-65.86688],[-72.5,-65.86583],[-72,-65.86391],[-71.5,-65.86112],[-71,-65.85745],[-70.5,-65.85258],[-70,-65.84428],[-69.5,-65.83512],[-69,-65.82509],[-68.5,-65.8142],[-68,-65.80244],[-67.5,-65.78984],[-67,-65.77637],[-66.5,-65.76205],[-66,-65.74687],[-65.5,-65.73085],[-65,-65.71398],[-64.5,-65.69625],[-64,-65.67768],[-63.5,-65.65827],[-63,-65.63801],[-62.5,-65.61691],[-62,-65.59497],[-61.5,-65.57218],[-61,-65.54856],[-60.5,-65.5241],[-60,-65.49881],[-59.5,-65.47268],[-59,-65.44571],[-58.5,-65.41792],[-58,-65.38929],[-57.84766,-65.3804]]}},{"type":"Feature","id":"+00041002:center:0","properties":{"id":"+00041002","year":4,"month":10,"day":2,"time_tdt":"23:52:25","type":"혼성일식","type_code":"H","saros":63,"gamma":-0.73685,"magnitude":1.00954,"greatest":{"lat":-47.80138,"lng":-156.30841},"path_width_km":48.4,"duration":"00m46s","delta_t_seconds":10486.2,"catalog_number":4783,"source":"NASA Five Millennium Canon of Solar Eclipses","source_url":"https://eclipse.gsfc.nasa.gov/SEsearch/SEsearchmap.php?Ecl=%2B00041002","boundary":"center","name":"4-10-02 혼성일식"},"geometry":{"type":"LineString","coordinates":[[149.59652,-29.79534],[150,-29.8146],[150.5,-29.84441],[151,-29.87614],[151.5,-29.9098],[152,-29.94542],[152.5,-29.98302],[153,-30.02265],[153.5,-30.06431],[154,-30.10803],[154.5,-30.15385],[155,-30.20178],[155.5,-30.25186],[156,-30.30412],[156.5,-30.35857],[157,-30.41526],[157.5,-30.47421],[158,-30.53545],[158.5,-30.59901],[159,-30.66491],[159.5,-30.7332],[160,-30.80389],[160.5,-30.87703],[161,-30.95263],[161.5,-31.03075],[162,-31.11139],[162.5,-31.19461],[163,-31.28042],[163.5,-31.36886],[164,-31.45997],[164.5,-31.55378],[165,-31.65031],[165.5,-31.74961],[166,-31.8517],[166.5,-31.95662],[167,-32.0644],[167.5,-32.17507],[168,-32.28867],[168.5,-32.40522],[169,-32.52476],[169.5,-32.64733],[170,-32.77294],[170.5,-32.90163],[171,-33.03343],[171.5,-33.16837],[172,-33.30648],[172.5,-33.44777],[173,-33.59229],[173.5,-33.74005],[174,-33.89108],[174.5,-34.0454],[175,-34.20303],[175.5,-34.36398],[176,-34.52828],[176.5,-34.69594],[177,-34.86696],[177.5,-35.04137],[178,-35.21917],[178.5,-35.40036],[179,-35.58495],[179.5,-35.77293],[180,-35.9643]]}},{"type":"Feature","id":"+00041002:center:1","properties":{"id":"+00041002","year":4,"month":10,"day":2,"time_tdt":"23:52:25","type":"혼성일식","type_code":"H","saros":63,"gamma":-0.73685,"magnitude":1.00954,"greatest":{"lat":-47.80138,"lng":-156.30841},"path_width_km":48.4,"duration":"00m46s","delta_t_seconds":10486.2,"catalog_number":4783,"source":"NASA Five Millennium Canon of Solar Eclipses","source_url":"https://eclipse.gsfc.nasa.gov/SEsearch/SEsearchmap.php?Ecl=%2B00041002","boundary":"center","name":"4-10-02 혼성일식"},"geometry":{"type":"LineString","coordinates":[[-179.5,-36.15905],[-179,-36.35717],[-178.5,-36.55865],[-178,-36.76346],[-177.5,-36.97158],[-177,-37.18299],[-176.5,-37.39764],[-176,-37.61551],[-175.5,-37.83656],[-175,-38.06072],[-174.5,-38.28796],[-174,-38.51822],[-173.5,-38.75143],[-173,-38.98752],[-172.5,-39.22643],[-172,-39.46808],[-171.5,-39.71237],[-171,-39.95923],[-170.5,-40.20856],[-170,-40.46025],[-169.5,-40.71422],[-169,-40.97034],[-168.5,-41.22851],[-168,-41.48861],[-167.5,-41.75052],[-167,-42.01411],[-166.5,-42.27926],[-166,-42.54584],[-165.5,-42.8137],[-165,-43.08272],[-164.5,-43.35276],[-164,-43.62368],[-163.5,-43.89534],[-163,-44.1676],[-162.5,-44.44032],[-162,-44.71336],[-161.5,-44.98657],[-161,-45.25983],[-160.5,-45.53299],[-160,-45.80592],[-159.5,-46.07848],[-159,-46.35056],[-158.5,-46.62201],[-158,-46.89272],[-157.5,-47.16256],[-157,-47.43143],[-156.5,-47.6992],[-156,-47.96577],[-155.5,-48.23103],[-155,-48.4949],[-154.5,-48.75726],[-154,-49.01803],[-153.5,-49.27713],[-153,-49.53447],[-152.5,-49.78998],[-152,-50.04359],[-151.5,-50.29522],[-151,-50.54482],[-150.5,-50.79233],[-150,-51.0377],[-149.5,-51.28087],[-149,-51.5218],[-148.5,-51.76045],[-148,-51.99678],[-147.5,-52.23076],[-147,-52.46236],[-146.5,-52.69156],[-146,-52.91832],[-145.5,-53.14263],[-145,-53.36448],[-144.5,-53.58384],[-144,-53.80072],[-143.5,-54.01509],[-143,-54.22696],[-142.5,-54.43631],[-142,-54.64315],[-141.5,-54.84749],[-141,-55.04931],[-140.5,-55.24862],[-140,-55.44544],[-139.5,-55.63976],[-139,-55.83161],[-138.5,-56.02097],[-138,-56.20788],[-137.5,-56.39233],[-137,-56.57435],[-136.5,-56.75394],[-136,-56.93113],[-135.5,-57.10593],[-135,-57.27835],[-134.5,-57.44842],[-134,-57.61614],[-133.5,-57.78155],[-133,-57.94465],[-132.5,-58.10547],[-132,-58.26403],[-131.5,-58.42035],[-131,-58.57444],[-130.5,-58.72634],[-130,-58.87605],[-129.5,-59.0236],[-129,-59.16901],[-128.5,-59.3123],[-128,-59.4535],[-127.5,-59.59262],[-127,-59.72968],[-126.5,-59.8647],[-126,-59.99772],[-125.5,-60.12874],[-125,-60.25779],[-124.5,-60.38489],[-124,-60.51005],[-123.5,-60.63331],[-123,-60.75467],[-122.5,-60.87417],[-122,-60.99181],[-121.5,-61.10763],[-121,-61.22163],[-120.5,-61.33385],[-120,-61.44429],[-119.5,-61.55297],[-119,-61.65992],[-118.5,-61.76516],[-118,-61.8687],[-117.5,-61.97055],[-117,-62.07075],[-116.5,-62.1693],[-116,-62.26622],[-115.5,-62.36153],[-115,-62.45525],[-114.5,-62.5474],[-114,-62.63798],[-113.5,-62.72702],[-113,-62.81453],[-112.5,-62.90052],[-112,-62.98502],[-111.5,-63.06804],[-111,-63.14959],[-110.5,-63.22969],[-110,-63.30835],[-109.5,-63.38558],[-109,-63.46141],[-108.5,-63.53583],[-108,-63.60888],[-107.5,-63.68056],[-107,-63.75088],[-106.5,-63.81985],[-106,-63.8875],[-105.5,-63.95383],[-105,-64.01885],[-104.5,-64.08257],[-104,-64.14501],[-103.5,-64.20618],[-103,-64.26609],[-102.5,-64.32476],[-102,-64.38218],[-101.5,-64.43838],[-101,-64.49335],[-100.5,-64.54713],[-100,-64.5997],[-99.5,-64.65109],[-99,-64.7013],[-98.5,-64.75034],[-98,-64.79823],[-97.5,-64.84496],[-97,-64.89056],[-96.5,-64.93502],[-96,-64.97836],[-95.5,-65.02059],[-95,-65.06171],[-94.5,-65.10173],[-94,-65.14066],[-93.5,-65.17851],[-93,-65.21528],[-92.5,-65.25099],[-92,-65.28563],[-91.5,-65.31923],[-91,-65.35177],[-90.5,-65.38328],[-90,-65.41375],[-89.5,-65.4432],[-89,-65.47162],[-88.5,-65.49904],[-88,-65.52544],[-87.5,-65.55084],[-87,-65.57525],[-86.5,-65.59867],[-86,-65.6211],[-85.5,-65.64255],[-85,-65.66303],[-84.5,-65.68254],[-84,-65.70108],[-83.5,-65.71867],[-83,-65.7353],[-82.5,-65.75098],[-82,-65.76572],[-81.5,-65.77952],[-81,-65.79238],[-80.5,-65.80431],[-80,-65.81531],[-79.5,-65.82538],[-79,-65.83454],[-78.5,-65.84278],[-78,-65.85011],[-77.5,-65.85653],[-77,-65.86204],[-76.5,-65.86665],[-76,-65.87036],[-75.5,-65.87318],[-75,-65.87511],[-74.5,-65.87614],[-74,-65.87629],[-73.5,-65.87556],[-73,-65.87394],[-72.5,-65.87145],[-72,-65.86808],[-71.5,-65.86384],[-71,-65.85873],[-70.5,-65.85275],[-70,-65.84591],[-69.5,-65.8382],[-69,-65.82963],[-68.5,-65.8202],[-68,-65.80992],[-67.5,-65.79878],[-67,-65.78679],[-66.5,-65.77394],[-66,-65.76025],[-65.5,-65.74571],[-65,-65.73032],[-64.5,-65.71409],[-64,-65.69702],[-63.5,-65.6791],[-63,-65.66035],[-62.5,-65.64075],[-62,-65.62032],[-61.5,-65.59906],[-61,-65.57696],[-60.5,-65.55402],[-60,-65.53026],[-59.5,-65.50566],[-59,-65.48024],[-58.5,-65.45399],[-58,-65.42691],[-57.82117,-65.41375]]}},{"type":"Feature","id":"+00041002:south:0","properties":{"id":"+00041002","year":4,"month":10,"day":2,"time_tdt":"23:52:25","type":"혼성일식","type_code":"H","saros":63,"gamma":-0.73685,"magnitude":1.00954,"greatest":{"lat":-47.80138,"lng":-156.30841},"path_width_km":48.4,"duration":"00m46s","delta_t_seconds":10486.2,"catalog_number":4783,"source":"NASA Five Millennium Canon of Solar Eclipses","source_url":"https://eclipse.gsfc.nasa.gov/SEsearch/SEsearchmap.php?Ecl=%2B00041002","boundary":"south","name":"4-10-02 혼성일식"},"geometry":{"type":"LineString","coordinates":[[149.625,-29.85363],[150,-29.87248],[150.5,-29.89925],[151,-29.92791],[151.5,-29.95848],[152,-29.99099],[152.5,-30.02547],[153,-30.06193],[153.5,-30.10041],[154,-30.14093],[154.5,-30.18351],[155,-30.2282],[155.5,-30.275],[156,-30.32395],[156.5,-30.37508],[157,-30.42842],[157.5,-30.48399],[158,-30.54182],[158.5,-30.60195],[159,-30.66542],[159.5,-30.7372],[160,-30.81142],[160.5,-30.8881],[161,-30.96728],[161.5,-31.04899],[162,-31.13327],[162.5,-31.22013],[163,-31.30962],[163.5,-31.40177],[164,-31.49661],[164.5,-31.59417],[165,-31.69449],[165.5,-31.79759],[166,-31.90352],[166.5,-32.01229],[167,-32.12396],[167.5,-32.23853],[168,-32.35606],[168.5,-32.47657],[169,-32.60009],[169.5,-32.72664],[170,-32.85628],[170.5,-32.98901],[171,-33.12487],[171.5,-33.26389],[172,-33.40609],[172.5,-33.5515],[173,-33.70015],[173.5,-33.85206],[174,-34.00724],[174.5,-34.16573],[175,-34.32753],[175.5,-34.49267],[176,-34.66116],[176.5,-34.83302],[177,-35.00825],[177.5,-35.18685],[178,-35.36885],[178.5,-35.55423],[179,-35.743],[179.5,-35.93515],[180,-36.13068]]}},{"type":"Feature","id":"+00041002:south:1","properties":{"id":"+00041002","year":4,"month":10,"day":2,"time_tdt":"23:52:25","type":"혼성일식","type_code":"H","saros":63,"gamma":-0.73685,"magnitude":1.00954,"greatest":{"lat":-47.80138,"lng":-156.30841},"path_width_km":48.4,"duration":"00m46s","delta_t_seconds":10486.2,"catalog_number":4783,"source":"NASA Five Millennium Canon of Solar Eclipses","source_url":"https://eclipse.gsfc.nasa.gov/SEsearch/SEsearchmap.php?Ecl=%2B00041002","boundary":"south","name":"4-10-02 혼성일식"},"geometry":{"type":"LineString","coordinates":[[-179.5,-36.32957],[-179,-36.53181],[-178.5,-36.73738],[-178,-36.94626],[-177.5,-37.15842],[-177,-37.37382],[-176.5,-37.59244],[-176,-37.81423],[-175.5,-38.03914],[-175,-38.26713],[-174.5,-38.49813],[-174,-38.73209],[-173.5,-38.96893],[-173,-39.20859],[-172.5,-39.45099],[-172,-39.69604],[-171.5,-39.94366],[-171,-40.19376],[-170.5,-40.44623],[-170,-40.70098],[-169.5,-40.95789],[-169,-41.21686],[-168.5,-41.47776],[-168,-41.74048],[-167.5,-42.00489],[-167,-42.27087],[-166.5,-42.53828],[-166,-42.80699],[-165.5,-43.07687],[-165,-43.34777],[-164.5,-43.61956],[-164,-43.89211],[-163.5,-44.16525],[-163,-44.43887],[-162.5,-44.71281],[-162,-44.98693],[-161.5,-45.26111],[-161,-45.53519],[-160.5,-45.80904],[-160,-46.08254],[-159.5,-46.35555],[-159,-46.62793],[-158.5,-46.89958],[-158,-47.17036],[-157.5,-47.44016],[-157,-47.70886],[-156.5,-47.97637],[-156,-48.24256],[-155.5,-48.50734],[-155,-48.77062],[-154.5,-49.03231],[-154,-49.29231],[-153.5,-49.55055],[-153,-49.80694],[-152.5,-50.06143],[-152,-50.31393],[-151.5,-50.56438],[-151,-50.81273],[-150.5,-51.05893],[-150,-51.30291],[-149.5,-51.54465],[-149,-51.78408],[-148.5,-52.02119],[-148,-52.25593],[-147.5,-52.48827],[-147,-52.71818],[-146.5,-52.94565],[-146,-53.17066],[-145.5,-53.39318],[-145,-53.6132],[-144.5,-53.83071],[-144,-54.0457],[-143.5,-54.25817],[-143,-54.46811],[-142.5,-54.67552],[-142,-54.8804],[-141.5,-55.08275],[-141,-55.28258],[-140.5,-55.4799],[-140,-55.6747],[-139.5,-55.867],[-139,-56.05681],[-138.5,-56.24414],[-138,-56.429],[-137.5,-56.61141],[-137,-56.79138],[-136.5,-56.96892],[-136,-57.14406],[-135.5,-57.31681],[-135,-57.48718],[-134.5,-57.6552],[-134,-57.82088],[-133.5,-57.98425],[-133,-58.14532],[-132.5,-58.30411],[-132,-58.46064],[-131.5,-58.61494],[-131,-58.76702],[-130.5,-58.91691],[-130,-59.06462],[-129.5,-59.21018],[-129,-59.35361],[-128.5,-59.49492],[-128,-59.63415],[-127.5,-59.77131],[-127,-59.90642],[-126.5,-60.03951],[-126,-60.17059],[-125.5,-60.29969],[-125,-60.42682],[-124.5,-60.55202],[-124,-60.67529],[-123.5,-60.79666],[-123,-60.91615],[-122.5,-61.03378],[-122,-61.14958],[-121.5,-61.26354],[-121,-61.37571],[-120.5,-61.4861],[-120,-61.59472],[-119.5,-61.7016],[-119,-61.80676],[-118.5,-61.91021],[-118,-62.01197],[-117.5,-62.11206],[-117,-62.21049],[-116.5,-62.30729],[-116,-62.40248],[-115.5,-62.49606],[-115,-62.58806],[-114.5,-62.67849],[-114,-62.76737],[-113.5,-62.85471],[-113,-62.94053],[-112.5,-63.02485],[-112,-63.10768],[-111.5,-63.18904],[-111,-63.26894],[-110.5,-63.34739],[-110,-63.42441],[-109.5,-63.50002],[-109,-63.57423],[-108.5,-63.64704],[-108,-63.71848],[-107.5,-63.78856],[-107,-63.85729],[-106.5,-63.92468],[-106,-63.99075],[-105.5,-64.0555],[-105,-64.11896],[-104.5,-64.18113],[-104,-64.24202],[-103.5,-64.30164],[-103,-64.36001],[-102.5,-64.41714],[-102,-64.47304],[-101.5,-64.52771],[-101,-64.58117],[-100.5,-64.63343],[-100,-64.6845],[-99.5,-64.73439],[-99,-64.7831],[-98.5,-64.83065],[-98,-64.87705],[-97.5,-64.9223],[-97,-64.96642],[-96.5,-65.00941],[-96,-65.05128],[-95.5,-65.09203],[-95,-65.13169],[-94.5,-65.17025],[-94,-65.20772],[-93.5,-65.24412],[-93,-65.27944],[-92.5,-65.3137],[-92,-65.3469],[-91.5,-65.37905],[-91,-65.41015],[-90.5,-65.44022],[-90,-65.46926],[-89.5,-65.49727],[-89,-65.52427],[-88.5,-65.55025],[-88,-65.57523],[-87.5,-65.5992],[-87,-65.62219],[-86.5,-65.64418],[-86,-65.66519],[-85.5,-65.68522],[-85,-65.70428],[-84.5,-65.72236],[-84,-65.73949],[-83.5,-65.75566],[-83,-65.77087],[-82.5,-65.78513],[-82,-65.79845],[-81.5,-65.81083],[-81,-65.82227],[-80.5,-65.83278],[-80,-65.84236],[-79.5,-65.85102],[-79,-65.85875],[-78.5,-65.86557],[-78,-65.87148],[-77.5,-65.87647],[-77,-65.88056],[-76.5,-65.88374],[-76,-65.88603],[-75.5,-65.88742],[-75,-65.88791],[-74.5,-65.88751],[-74,-65.88623],[-73.5,-65.88406],[-73,-65.881],[-72.5,-65.87707],[-72,-65.87226],[-71.5,-65.86657],[-71,-65.86001],[-70.5,-65.85293],[-70,-65.84753],[-69.5,-65.84128],[-69,-65.83417],[-68.5,-65.82621],[-68,-65.81739],[-67.5,-65.80771],[-67,-65.79719],[-66.5,-65.78582],[-66,-65.77361],[-65.5,-65.76055],[-65,-65.74664],[-64.5,-65.7319],[-64,-65.71632],[-63.5,-65.6999],[-63,-65.68264],[-62.5,-65.66455],[-62,-65.64563],[-61.5,-65.62588],[-61,-65.60529],[-60.5,-65.58388],[-60,-65.56164],[-59.5,-65.53857],[-59,-65.51468],[-58,-65.46442],[-58.5,-65.48996],[-58.125,-65.47089]]}}],"attribution":"Eclipse Predictions by Fred Espenak and Jean Meeus (NASA's GSFC)","generated_at":"2026-09-23T01:44:42.496Z"}
