{"type":"FeatureCollection","year":41,"events":[{"id":"+00410419","year":41,"month":4,"day":19,"time_tdt":"07:54:46","type":"혼성일식","type_code":"H","saros":68,"gamma":0.2062,"magnitude":1.01393,"greatest":{"lat":21.96945,"lng":99.51898},"path_width_km":48.9,"duration":"01m24s","delta_t_seconds":10122.6,"catalog_number":4876,"source":"NASA Five Millennium Canon of Solar Eclipses","source_url":"https://eclipse.gsfc.nasa.gov/SEsearch/SEsearchmap.php?Ecl=%2B00410419"},{"id":"+00411014","year":41,"month":10,"day":14,"time_tdt":"00:26:01","type":"금환일식","type_code":"A","saros":73,"gamma":-0.07625,"magnitude":0.95189,"greatest":{"lat":-11.75271,"lng":-148.57562},"path_width_km":176.6,"duration":"05m47s","delta_t_seconds":10117.8,"catalog_number":4877,"source":"NASA Five Millennium Canon of Solar Eclipses","source_url":"https://eclipse.gsfc.nasa.gov/SEsearch/SEsearchmap.php?Ecl=%2B00411014"}],"features":[{"type":"Feature","id":"+00410419:north:0","properties":{"id":"+00410419","year":41,"month":4,"day":19,"time_tdt":"07:54:46","type":"혼성일식","type_code":"H","saros":68,"gamma":0.2062,"magnitude":1.01393,"greatest":{"lat":21.96945,"lng":99.51898},"path_width_km":48.9,"duration":"01m24s","delta_t_seconds":10122.6,"catalog_number":4876,"source":"NASA Five Millennium Canon of Solar Eclipses","source_url":"https://eclipse.gsfc.nasa.gov/SEsearch/SEsearchmap.php?Ecl=%2B00410419","boundary":"north","name":"41-04-19 혼성일식"},"geometry":{"type":"LineString","coordinates":[[40.5,-3.77521],[41,-3.68462],[41.5,-3.59235],[42,-3.49837],[42.5,-3.40267],[43,-3.30523],[43.5,-3.20604],[44,-3.10506],[44.5,-3.00229],[45,-2.8977],[45.5,-2.79127],[46,-2.68299],[46.5,-2.5722],[47,-2.45482],[47.5,-2.33548],[48,-2.21417],[48.5,-2.09087],[49,-1.96554],[49.5,-1.83818],[50,-1.70875],[50.5,-1.57723],[51,-1.44361],[51.5,-1.30785],[52,-1.16993],[52.5,-1.02984],[53,-0.88754],[53.5,-0.743],[54,-0.59622],[54.5,-0.44715],[55,-0.29578],[55.5,-0.14208],[56,0.01397],[56.5,0.17241],[57,0.33325],[57.5,0.49653],[58,0.66226],[58.5,0.83047],[59,1.0012],[59.5,1.17446],[60,1.35028],[60.5,1.52869],[61,1.70972],[61.5,1.89337],[62,2.0797],[62.5,2.2687],[63,2.46042],[63.5,2.65488],[64,2.85209],[64.5,3.05208],[65,3.25487],[65.5,3.46048],[66,3.66894],[66.5,3.88026],[67,4.09445],[67.5,4.31155],[68,4.53155],[68.5,4.75447],[69,4.98033],[69.5,5.20914],[70,5.44089],[70.5,5.67561],[71,5.91328],[71.5,6.15392],[72,6.39752],[72.5,6.64407],[73,6.89356],[73.5,7.14598],[74,7.40132],[74.5,7.65956],[75,7.92067],[75.5,8.18462],[76,8.45138],[76.5,8.72091],[77,8.99316],[77.5,9.2681],[78,9.54566],[78.5,9.82578],[79,10.10839],[79.5,10.39343],[80,10.68081],[80.5,10.97044],[81,11.26223],[81.5,11.55609],[82,11.85189],[82.5,12.14954],[83,12.4489],[83.5,12.74984],[84,13.05224],[84.5,13.35595],[85,13.66081],[85.5,13.96668],[86,14.2734],[86.5,14.58079],[87,14.88868],[87.5,15.1969],[88,15.50526],[88.5,15.81359],[89,16.12169],[89.5,16.42937],[90,16.73645],[90.5,17.04272],[91,17.348],[91.5,17.6521],[92,17.95482],[92.5,18.25597],[93,18.55537],[93.5,18.85284],[94,19.14819],[94.5,19.44126],[95,19.73188],[95.5,20.01988],[96,20.3051],[96.5,20.5874],[97,20.86664],[97.5,21.14268],[98,21.41539],[98.5,21.68466],[99,21.95037],[99.5,22.21242],[100,22.47071],[100.5,22.72517],[101,22.9757],[101.5,23.22225],[102,23.46474],[102.5,23.70312],[103,23.93735],[103.5,24.16737],[104,24.39316],[104.5,24.6147],[105,24.83195],[105.5,25.0449],[106,25.25354],[106.5,25.45786],[107,25.65787],[107.5,25.85357],[108,26.04497],[108.5,26.23208],[109,26.41491],[109.5,26.5935],[110,26.76785],[110.5,26.93799],[111,27.10396],[111.5,27.26578],[112,27.42348],[112.5,27.5771],[113,27.72668],[113.5,27.87225],[114,28.01385],[114.5,28.15153],[115,28.28531],[115.5,28.41526],[116,28.54139],[116.5,28.66377],[117,28.78243],[117.5,28.89741],[118,29.00877],[118.5,29.11654],[119,29.22077],[119.5,29.3215],[120,29.41878],[120.5,29.51265],[121,29.60315],[121.5,29.69033],[122,29.77424],[122.5,29.85491],[123,29.93239],[123.5,30.00671],[124,30.07793],[124.5,30.14608],[125,30.21121],[125.5,30.27335],[126,30.33254],[126.5,30.38883],[127,30.44225],[127.5,30.49284],[128,30.54065],[128.5,30.5857],[129,30.62803],[129.5,30.66769],[130,30.7047],[130.5,30.7391],[131,30.77093],[131.5,30.80023],[132,30.82702],[132.5,30.85134],[133,30.87322],[133.5,30.89269],[134,30.90979],[134.5,30.92455],[135,30.937],[135.5,30.94717],[136,30.95508],[136.5,30.96078],[137,30.96429],[137.5,30.96563],[138,30.96484],[138.5,30.96194],[139,30.95696],[139.5,30.94993],[140,30.94088],[140.5,30.92983],[141,30.9168],[141.5,30.90183],[142,30.88494],[142.5,30.86616],[143,30.8455],[143.5,30.82299],[144,30.79866],[144.5,30.77253],[145,30.74463],[145.5,30.71497],[146,30.68358],[146.5,30.65048],[147,30.6157],[147.5,30.57926],[148,30.54117],[148.5,30.50146],[149,30.46016],[149.5,30.41727],[150,30.37283],[150.5,30.32685],[151,30.27935],[151.5,30.23036],[152,30.17989],[152.5,30.12796],[153,30.07459],[153.5,30.01981],[154,29.96362],[154.5,29.90605],[155,29.84712],[155.5,29.78685],[156,29.72524],[156.5,29.66233],[157,29.59813],[157.5,29.53266],[158,29.46593],[158.5,29.39797],[159,29.32878],[159.5,29.25968],[160,29.19271],[160.5,29.12457],[161,29.05527],[161.5,28.98484],[162,28.91329],[162.5,28.84063],[163,28.76688],[163.5,28.69205],[164,28.61617],[164.5,28.53924],[165,28.46128],[165.5,28.38231],[166,28.30234],[166.5,28.22138],[167,28.13946],[167.5,28.05657],[168,27.97275],[168.5,27.888],[169,27.80233],[169.5,27.71577],[170,27.62831],[170.5,27.53999],[171,27.45081],[171.5,27.36078]]}},{"type":"Feature","id":"+00410419:center:0","properties":{"id":"+00410419","year":41,"month":4,"day":19,"time_tdt":"07:54:46","type":"혼성일식","type_code":"H","saros":68,"gamma":0.2062,"magnitude":1.01393,"greatest":{"lat":21.96945,"lng":99.51898},"path_width_km":48.9,"duration":"01m24s","delta_t_seconds":10122.6,"catalog_number":4876,"source":"NASA Five Millennium Canon of Solar Eclipses","source_url":"https://eclipse.gsfc.nasa.gov/SEsearch/SEsearchmap.php?Ecl=%2B00410419","boundary":"center","name":"41-04-19 혼성일식"},"geometry":{"type":"LineString","coordinates":[[40.48658,-3.80737],[40.5,-3.8055],[41,-3.71245],[41.5,-3.6177],[42,-3.52123],[42.5,-3.42302],[43,-3.32306],[43.5,-3.22132],[44,-3.11778],[44.5,-3.01243],[45,-2.90525],[45.5,-2.79622],[46,-2.68531],[46.5,-2.57251],[47,-2.4578],[47.5,-2.34115],[48,-2.22254],[48.5,-2.10195],[49,-1.97936],[49.5,-1.85475],[50,-1.7281],[50.5,-1.59937],[51,-1.46856],[51.5,-1.33563],[52,-1.20056],[52.5,-1.06333],[53,-0.92391],[53.5,-0.78228],[54,-0.63842],[54.5,-0.49229],[55,-0.34388],[55.5,-0.19316],[56,-0.04011],[56.5,0.11531],[57,0.27311],[57.5,0.43333],[58,0.59598],[58.5,0.7611],[59,0.92872],[59.5,1.09884],[60,1.27151],[60.5,1.44675],[61,1.62458],[61.5,1.80503],[62,1.98812],[62.5,2.17388],[63,2.36234],[63.5,2.55351],[64,2.74742],[64.5,2.9441],[65,3.14356],[65.5,3.34583],[66,3.55092],[66.5,3.75887],[67,3.96968],[67.5,4.18337],[68,4.39996],[68.5,4.61947],[69,4.8419],[69.5,5.06727],[70,5.29559],[70.5,5.52685],[71,5.76108],[71.5,5.99827],[72,6.23841],[72.5,6.48151],[73,6.72756],[73.5,6.97655],[74,7.22847],[74.5,7.48329],[75,7.741],[75.5,8.00157],[76,8.26497],[76.5,8.53117],[77,8.80012],[77.5,9.07178],[78,9.3461],[78.5,9.62302],[79,9.90248],[79.5,10.1844],[80,10.46873],[80.5,10.75536],[81,11.04421],[81.5,11.33519],[82,11.62819],[82.5,11.9231],[83,12.21981],[83.5,12.51819],[84,12.81811],[84.5,13.11943],[85,13.42201],[85.5,13.7257],[86,14.03034],[86.5,14.33576],[87,14.6418],[87.5,14.94829],[88,15.25504],[88.5,15.56187],[89,15.86861],[89.5,16.17505],[90,16.48102],[90.5,16.78632],[91,17.09075],[91.5,17.39413],[92,17.69627],[92.5,17.99697],[93,18.29606],[93.5,18.59333],[94,18.88862],[94.5,19.18175],[95,19.47255],[95.5,19.76085],[96,20.04649],[96.5,20.32931],[97,20.60919],[97.5,20.88597],[98,21.15952],[98.5,21.42972],[99,21.69646],[99.5,21.95963],[100,22.21912],[100.5,22.47485],[101,22.72674],[101.5,22.97471],[102,23.21868],[102.5,23.45861],[103,23.69444],[103.5,23.92612],[104,24.15362],[104.5,24.3769],[105,24.59594],[105.5,24.81072],[106,25.02123],[106.5,25.22745],[107,25.42939],[107.5,25.62704],[108,25.82041],[108.5,26.00952],[109,26.19437],[109.5,26.37499],[110,26.55139],[110.5,26.7236],[111,26.89164],[111.5,27.05554],[112,27.21534],[112.5,27.37107],[113,27.52276],[113.5,27.67045],[114,27.81417],[114.5,27.95397],[115,28.08989],[115.5,28.22196],[116,28.35023],[116.5,28.47474],[117,28.59554],[117.5,28.71267],[118,28.82616],[118.5,28.93607],[119,29.04244],[119.5,29.14532],[120,29.24474],[120.5,29.34075],[121,29.43339],[121.5,29.52272],[122,29.60876],[122.5,29.69157],[123,29.77119],[123.5,29.84766],[124,29.92102],[124.5,29.99131],[125,30.05858],[125.5,30.12286],[126,30.1842],[126.5,30.24263],[127,30.29819],[127.5,30.35093],[128,30.40088],[128.5,30.44808],[129,30.49256],[129.5,30.53436],[130,30.57352],[130.5,30.61008],[131,30.64407],[131.5,30.67552],[132,30.70446],[132.5,30.73094],[133,30.75498],[133.5,30.77662],[134,30.79589],[134.5,30.81282],[135,30.82744],[135.5,30.83978],[136,30.84987],[136.5,30.85775],[137,30.86344],[137.5,30.86697],[138,30.86837],[138.5,30.86766],[139,30.86488],[139.5,30.86005],[140,30.8532],[140.5,30.84436],[141,30.83354],[141.5,30.82079],[142,30.80611],[142.5,30.78955],[143,30.77111],[143.5,30.75083],[144,30.72873],[144.5,30.70484],[145,30.67917],[145.5,30.65175],[146,30.62261],[146.5,30.59176],[147,30.55923],[147.5,30.52504],[148,30.48921],[148.5,30.45176],[149,30.41272],[149.5,30.3721],[150,30.32993],[150.5,30.28622],[151,30.241],[151.5,30.19428],[152,30.14609],[152.5,30.09645],[153,30.04536],[153.5,29.99287],[154,29.93897],[154.5,29.88369],[155,29.82706],[155.5,29.76908],[156,29.70977],[156.5,29.64916],[157,29.58726],[157.5,29.52409],[158,29.45967],[158.5,29.394],[159,29.32712],[159.5,29.25903],[160,29.18976],[160.5,29.11932],[161,29.04773],[161.5,28.97499],[162,28.90114],[162.5,28.82618],[163,28.75013],[163.5,28.673],[164,28.59482],[164.5,28.51559],[165,28.43534],[165.5,28.35407],[166,28.27181],[166.5,28.18856],[167,28.10434],[167.5,28.01917],[168,27.93306],[168.5,27.84602],[169,27.75807],[169.5,27.66923],[170,27.5795],[170.5,27.4889],[171,27.39745],[171.5,27.30515],[171.61172,27.28889]]}},{"type":"Feature","id":"+00410419:south:0","properties":{"id":"+00410419","year":41,"month":4,"day":19,"time_tdt":"07:54:46","type":"혼성일식","type_code":"H","saros":68,"gamma":0.2062,"magnitude":1.01393,"greatest":{"lat":21.96945,"lng":99.51898},"path_width_km":48.9,"duration":"01m24s","delta_t_seconds":10122.6,"catalog_number":4876,"source":"NASA Five Millennium Canon of Solar Eclipses","source_url":"https://eclipse.gsfc.nasa.gov/SEsearch/SEsearchmap.php?Ecl=%2B00410419","boundary":"south","name":"41-04-19 혼성일식"},"geometry":{"type":"LineString","coordinates":[[40.49805,-3.83625],[40.5,-3.83588],[41,-3.74036],[41.5,-3.64312],[42,-3.54415],[42.5,-3.44343],[43,-3.34093],[43.5,-3.23664],[44,-3.13054],[44.5,-3.02261],[45,-2.91283],[45.5,-2.80119],[46,-2.68765],[46.5,-2.57283],[47,-2.46077],[47.5,-2.34679],[48,-2.23088],[48.5,-2.113],[49,-1.99314],[49.5,-1.87127],[50,-1.74738],[50.5,-1.62144],[51,-1.49342],[51.5,-1.36331],[52,-1.23107],[52.5,-1.0967],[53,-0.96015],[53.5,-0.82141],[54,-0.68046],[54.5,-0.53727],[55,-0.3918],[55.5,-0.24405],[56,-0.09398],[56.5,0.05843],[57,0.21321],[57.5,0.37039],[58,0.52998],[58.5,0.69202],[59,0.85653],[59.5,1.02354],[60,1.19307],[60.5,1.36515],[61,1.5398],[61.5,1.71706],[62,1.89694],[62.5,2.07947],[63,2.26468],[63.5,2.45259],[64,2.64322],[64.5,2.8366],[65,3.03275],[65.5,3.2317],[66,3.43345],[66.5,3.63804],[67,3.84548],[67.5,4.05579],[68,4.269],[68.5,4.4851],[69,4.70412],[69.5,4.92607],[70,5.15096],[70.5,5.3788],[71,5.60959],[71.5,5.84334],[72,6.08005],[72.5,6.31972],[73,6.56234],[73.5,6.80791],[74,7.05641],[74.5,7.30783],[75,7.56216],[75.5,7.81936],[76,8.07941],[76.5,8.34227],[77,8.60792],[77.5,8.87631],[78,9.14739],[78.5,9.42111],[79,9.69741],[79.5,9.97623],[80,10.25748],[80.5,10.54111],[81,10.82701],[81.5,11.1151],[82,11.40528],[82.5,11.69744],[83,11.99148],[83.5,12.28728],[84,12.58469],[84.5,12.88361],[85,13.18387],[85.5,13.48534],[86,13.78787],[86.5,14.09129],[87,14.39544],[87.5,14.70015],[88,15.00525],[88.5,15.31055],[89,15.61587],[89.5,15.92104],[90,16.22585],[90.5,16.53012],[91,16.83367],[91.5,17.13629],[92,17.43779],[92.5,17.738],[93,18.03671],[93.5,18.33375],[94,18.62893],[94.5,18.92207],[95,19.213],[95.5,19.50156],[96,19.78757],[96.5,20.07089],[97,20.35136],[97.5,20.62884],[98,20.9032],[98.5,21.17431],[99,21.44205],[99.5,21.70631],[100,21.96697],[100.5,22.22396],[101,22.47718],[101.5,22.72654],[102,22.97199],[102.5,23.21345],[103,23.45087],[103.5,23.6842],[104,23.91339],[104.5,24.13842],[105,24.35924],[105.5,24.57585],[106,24.78822],[106.5,24.99634],[107,25.2002],[107.5,25.39981],[108,25.59516],[108.5,25.78627],[109,25.97315],[109.5,26.15581],[110,26.33426],[110.5,26.50855],[111,26.67867],[111.5,26.84467],[112,27.00658],[112.5,27.16442],[113,27.31824],[113.5,27.46805],[114,27.61391],[114.5,27.75585],[115,27.89391],[115.5,28.02813],[116,28.15855],[116.5,28.28521],[117,28.40816],[117.5,28.52744],[118,28.64309],[118.5,28.75516],[119,28.86369],[119.5,28.96872],[120,29.07029],[120.5,29.16846],[121,29.26326],[121.5,29.35474],[122,29.44294],[122.5,29.52791],[123,29.60968],[123.5,29.68831],[124,29.76382],[124.5,29.83627],[125,29.90569],[125.5,29.97213],[126,30.03562],[126.5,30.09621],[127,30.15393],[127.5,30.20882],[128,30.26093],[128.5,30.31028],[129,30.35692],[129.5,30.40089],[130,30.44221],[130.5,30.48093],[131,30.51708],[131.5,30.5507],[132,30.58181],[132.5,30.61046],[133,30.63667],[133.5,30.66049],[134,30.68193],[134.5,30.70104],[135,30.71784],[135.5,30.73236],[136,30.74464],[136.5,30.75471],[137,30.76258],[137.5,30.76831],[138,30.7719],[138.5,30.7734],[139,30.77282],[139.5,30.77019],[140,30.76555],[140.5,30.75892],[141,30.75032],[141.5,30.73978],[142,30.72732],[142.5,30.71298],[143,30.69677],[143.5,30.67872],[144,30.65886],[144.5,30.6372],[145,30.61377],[145.5,30.5886],[146,30.5617],[146.5,30.5331],[147,30.50282],[147.5,30.47088],[148,30.43731],[148.5,30.40212],[149,30.36534],[149.5,30.32699],[150,30.28709],[150.5,30.24565],[151,30.2027],[151.5,30.15826],[152,30.11235],[152.5,30.06499],[153,30.01619],[153.5,29.96597],[154,29.91436],[154.5,29.86138],[155,29.80703],[155.5,29.75134],[156,29.69433],[156.5,29.63602],[157,29.57641],[157.5,29.51554],[158,29.45341],[158.5,29.39005],[159,29.32547],[159.5,29.25839],[160,29.18681],[160.5,29.11406],[161,29.04016],[161.5,28.96512],[162,28.88896],[162.5,28.81169],[163,28.73333],[163.5,28.6539],[164,28.57341],[164.5,28.49188],[165,28.40933],[165.5,28.32576],[166,28.24119],[166.5,28.15564],[167,28.06913],[167.5,27.98166],[168,27.89326],[168.5,27.80393],[169,27.71369],[169.5,27.62256],[170,27.53055],[170.5,27.43767],[171,27.34394],[171.5,27.24937],[171.59961,27.23043]]}},{"type":"Feature","id":"+00411014:north:0","properties":{"id":"+00411014","year":41,"month":10,"day":14,"time_tdt":"00:26:01","type":"금환일식","type_code":"A","saros":73,"gamma":-0.07625,"magnitude":0.95189,"greatest":{"lat":-11.75271,"lng":-148.57562},"path_width_km":176.6,"duration":"05m47s","delta_t_seconds":10117.8,"catalog_number":4877,"source":"NASA Five Millennium Canon of Solar Eclipses","source_url":"https://eclipse.gsfc.nasa.gov/SEsearch/SEsearchmap.php?Ecl=%2B00411014","boundary":"north","name":"41-10-14 금환일식"},"geometry":{"type":"LineString","coordinates":[[153.5,13.42234],[154,13.35242],[154.5,13.28092],[155,13.20781],[155.5,13.13307],[156,13.05669],[156.5,12.97865],[157,12.89892],[157.5,12.81749],[158,12.73434],[158.5,12.64945],[159,12.56279],[159.5,12.47434],[160,12.38408],[160.5,12.292],[161,12.19806],[161.5,12.10225],[162,12.00454],[162.5,11.90491],[163,11.80332],[163.5,11.69977],[164,11.59422],[164.5,11.48665],[165,11.37702],[165.5,11.26532],[166,11.15152],[166.5,11.03559],[167,10.91749],[167.5,10.79721],[168,10.67471],[168.5,10.54997],[169,10.42295],[169.5,10.29361],[170,10.16194],[170.5,10.0279],[171,9.89146],[171.5,9.75257],[172,9.61122],[172.5,9.46736],[173,9.32096],[173.5,9.17199],[174,9.02042],[174.5,8.86619],[175,8.70928],[175.5,8.54966],[176,8.38727],[176.5,8.2221],[177,8.05409],[177.5,7.88321],[178,7.70942],[178.5,7.53268],[179,7.35296],[179.5,7.1702],[180,6.98438]]}},{"type":"Feature","id":"+00411014:north:1","properties":{"id":"+00411014","year":41,"month":10,"day":14,"time_tdt":"00:26:01","type":"금환일식","type_code":"A","saros":73,"gamma":-0.07625,"magnitude":0.95189,"greatest":{"lat":-11.75271,"lng":-148.57562},"path_width_km":176.6,"duration":"05m47s","delta_t_seconds":10117.8,"catalog_number":4877,"source":"NASA Five Millennium Canon of Solar Eclipses","source_url":"https://eclipse.gsfc.nasa.gov/SEsearch/SEsearchmap.php?Ecl=%2B00411014","boundary":"north","name":"41-10-14 금환일식"},"geometry":{"type":"LineString","coordinates":[[-179.5,6.79545],[-179,6.60338],[-178.5,6.40812],[-178,6.20963],[-177.5,6.00788],[-177,5.80282],[-176.5,5.59442],[-176,5.38265],[-175.5,5.16746],[-175,4.94882],[-174.5,4.72669],[-174,4.50105],[-173.5,4.27185],[-173,4.03908],[-172.5,3.8027],[-172,3.56269],[-171.5,3.31902],[-171,3.07168],[-170.5,2.82064],[-170,2.56591],[-169.5,2.30746],[-169,2.04529],[-168.5,1.77941],[-168,1.50982],[-167.5,1.23653],[-167,0.95956],[-166.5,0.67893],[-166,0.39467],[-165.5,0.10683],[-165,-0.18455],[-164.5,-0.47941],[-164,-0.77768],[-163.5,-1.0793],[-163,-1.38417],[-162.5,-1.6922],[-162,-2.00329],[-161.5,-2.3173],[-161,-2.63411],[-160.5,-2.95357],[-160,-3.27554],[-159.5,-3.59984],[-159,-3.92629],[-158.5,-4.25469],[-158,-4.58485],[-157.5,-4.91655],[-157,-5.24956],[-156.5,-5.58363],[-156,-5.91853],[-155.5,-6.254],[-155,-6.58977],[-154.5,-6.92557],[-154,-7.26113],[-153.5,-7.59617],[-153,-7.93041],[-152.5,-8.26355],[-152,-8.59533],[-151.5,-8.92546],[-151,-9.25367],[-150.5,-9.57968],[-150,-9.90323],[-149.5,-10.22407],[-149,-10.54194],[-148.5,-10.85662],[-148,-11.16787],[-147.5,-11.47548],[-147,-11.77926],[-146.5,-12.07901],[-146,-12.37456],[-145.5,-12.66576],[-145,-12.95246],[-144.5,-13.23452],[-144,-13.51184],[-143.5,-13.78431],[-143,-14.05184],[-142.5,-14.31435],[-142,-14.57179],[-141.5,-14.8241],[-141,-15.07124],[-140.5,-15.31317],[-140,-15.54989],[-139.5,-15.78139],[-139,-16.00765],[-138.5,-16.2287],[-138,-16.44454],[-137.5,-16.6552],[-137,-16.8607],[-136.5,-17.06108],[-136,-17.25638],[-135.5,-17.44664],[-135,-17.63191],[-134.5,-17.81224],[-134,-17.98768],[-133.5,-18.1583],[-133,-18.32414],[-132.5,-18.48528],[-132,-18.64177],[-131.5,-18.79368],[-131,-18.94107],[-130.5,-19.08401],[-130,-19.22257],[-129.5,-19.35681],[-129,-19.48681],[-128.5,-19.61262],[-128,-19.73431],[-127.5,-19.85196],[-127,-19.96563],[-126.5,-20.07537],[-126,-20.18127],[-125.5,-20.28339],[-125,-20.38178],[-124.5,-20.47651],[-124,-20.56764],[-123.5,-20.65524],[-123,-20.73937],[-122.5,-20.82008],[-122,-20.89744],[-121.5,-20.9715],[-121,-21.04231],[-120.5,-21.10994],[-120,-21.17445],[-119.5,-21.23587],[-119,-21.29427],[-118.5,-21.3497],[-118,-21.40221],[-117.5,-21.45184],[-117,-21.49866],[-116.5,-21.5427],[-116,-21.58401],[-115.5,-21.62264],[-115,-21.65863],[-114.5,-21.69204],[-114,-21.72289],[-113.5,-21.75124],[-113,-21.77712],[-112.5,-21.80058],[-112,-21.82166],[-111.5,-21.84039],[-111,-21.85682],[-110.5,-21.87098],[-110,-21.8829],[-109.5,-21.89264],[-109,-21.90021],[-108.5,-21.90566],[-108,-21.90902],[-107.5,-21.91032],[-107,-21.90959],[-106.5,-21.90688],[-106,-21.9022],[-105.5,-21.89559],[-105,-21.88709],[-104.5,-21.87671],[-104,-21.8645],[-103.5,-21.85047],[-103,-21.83466],[-102.5,-21.8171],[-102,-21.7978],[-101.5,-21.77681],[-101,-21.75414],[-100.5,-21.72981],[-100,-21.70387],[-99.5,-21.67632],[-99,-21.6472],[-98.5,-21.61653],[-98,-21.58433],[-97.5,-21.55062],[-97,-21.51543],[-96.5,-21.47879],[-96,-21.4407],[-95.5,-21.4012],[-95,-21.36031],[-94.5,-21.31804],[-94,-21.27442],[-93.5,-21.22946],[-93,-21.1832],[-92.5,-21.13564],[-92,-21.08681],[-91.5,-21.03672],[-91,-20.98539],[-90.5,-20.93285],[-90,-20.87911],[-89.5,-20.82419],[-89,-20.76811],[-88.5,-20.71088],[-88,-20.65252],[-87.5,-20.59305],[-87,-20.53248],[-86.5,-20.47083],[-86,-20.40813],[-85.5,-20.34437],[-85,-20.27959],[-84.5,-20.21378],[-84,-20.14698],[-83.5,-20.0792],[-83.24219,-20.04386]]}},{"type":"Feature","id":"+00411014:center:0","properties":{"id":"+00411014","year":41,"month":10,"day":14,"time_tdt":"00:26:01","type":"금환일식","type_code":"A","saros":73,"gamma":-0.07625,"magnitude":0.95189,"greatest":{"lat":-11.75271,"lng":-148.57562},"path_width_km":176.6,"duration":"05m47s","delta_t_seconds":10117.8,"catalog_number":4877,"source":"NASA Five Millennium Canon of Solar Eclipses","source_url":"https://eclipse.gsfc.nasa.gov/SEsearch/SEsearchmap.php?Ecl=%2B00411014","boundary":"center","name":"41-10-14 금환일식"},"geometry":{"type":"LineString","coordinates":[[153.01862,12.39444],[153.5,12.3291],[154,12.26086],[154.5,12.19103],[155,12.11959],[155.5,12.04652],[156,11.97179],[156.5,11.8954],[157,11.81732],[157.5,11.73753],[158,11.656],[158.5,11.57273],[159,11.48768],[159.5,11.40084],[160,11.31219],[160.5,11.22169],[161,11.12933],[161.5,11.03509],[162,10.93894],[162.5,10.84086],[163,10.74081],[163.5,10.63879],[164,10.53475],[164.5,10.42868],[165,10.32055],[165.5,10.21033],[166,10.09799],[166.5,9.98351],[167,9.86685],[167.5,9.74799],[168,9.6269],[168.5,9.50355],[169,9.3779],[169.5,9.24993],[170,9.1196],[170.5,8.98688],[171,8.85174],[171.5,8.71415],[172,8.57406],[172.5,8.43146],[173,8.28629],[173.5,8.13853],[174,7.98813],[174.5,7.83507],[175,7.67931],[175.5,7.52081],[176,7.35952],[176.5,7.19542],[177,7.02846],[177.5,6.85861],[178,6.68582],[178.5,6.51006],[179,6.33128],[179.5,6.14945],[180,5.96453]]}},{"type":"Feature","id":"+00411014:center:1","properties":{"id":"+00411014","year":41,"month":10,"day":14,"time_tdt":"00:26:01","type":"금환일식","type_code":"A","saros":73,"gamma":-0.07625,"magnitude":0.95189,"greatest":{"lat":-11.75271,"lng":-148.57562},"path_width_km":176.6,"duration":"05m47s","delta_t_seconds":10117.8,"catalog_number":4877,"source":"NASA Five Millennium Canon of Solar Eclipses","source_url":"https://eclipse.gsfc.nasa.gov/SEsearch/SEsearchmap.php?Ecl=%2B00411014","boundary":"center","name":"41-10-14 금환일식"},"geometry":{"type":"LineString","coordinates":[[-179.5,5.77648],[-179,5.58525],[-178.5,5.3908],[-178,5.19311],[-177.5,4.99212],[-177,4.78781],[-176.5,4.58012],[-176,4.36903],[-175.5,4.1545],[-175,3.9365],[-174.5,3.71498],[-174,3.48992],[-173.5,3.26129],[-173,3.02905],[-172.5,2.79319],[-172,2.55367],[-171.5,2.31048],[-171,2.0636],[-170.5,1.81302],[-170,1.55872],[-169.5,1.30069],[-169,1.03894],[-168.5,0.77347],[-168,0.50429],[-167.5,0.23141],[-167,-0.04514],[-166.5,-0.32535],[-166,-0.60916],[-165.5,-0.89654],[-165,-1.18744],[-164.5,-1.48179],[-164,-1.77952],[-163.5,-2.08055],[-163,-2.3848],[-162.5,-2.69215],[-162,-3.00249],[-161.5,-3.3157],[-161,-3.63164],[-160.5,-3.95016],[-160,-4.27109],[-159.5,-4.59427],[-159,-4.91951],[-158.5,-5.2466],[-158,-5.57534],[-157.5,-5.90552],[-157,-6.23689],[-156.5,-6.56921],[-156,-6.90224],[-155.5,-7.23573],[-155,-7.56939],[-154.5,-7.90297],[-154,-8.23619],[-153.5,-8.56878],[-153,-8.90045],[-152.5,-9.23093],[-152,-9.55994],[-151.5,-9.88721],[-151,-10.21247],[-150.5,-10.53546],[-150,-10.85592],[-149.5,-11.1736],[-149,-11.48828],[-148.5,-11.79972],[-148,-12.10771],[-147.5,-12.41204],[-147,-12.71253],[-146.5,-13.00901],[-146,-13.3013],[-145.5,-13.58927],[-145,-13.87277],[-144.5,-14.15169],[-144,-14.42592],[-143.5,-14.69536],[-143,-14.95994],[-142.5,-15.21958],[-142,-15.47423],[-141.5,-15.72385],[-141,-15.9684],[-140.5,-16.20785],[-140,-16.44219],[-139.5,-16.67141],[-139,-16.89552],[-138.5,-17.11453],[-138,-17.32846],[-137.5,-17.53732],[-137,-17.74115],[-136.5,-17.93997],[-136,-18.13384],[-135.5,-18.32279],[-135,-18.50688],[-134.5,-18.68614],[-134,-18.86064],[-133.5,-19.03042],[-133,-19.19556],[-132.5,-19.3561],[-132,-19.51211],[-131.5,-19.66364],[-131,-19.81078],[-130.5,-19.95356],[-130,-20.09207],[-129.5,-20.22637],[-129,-20.35652],[-128.5,-20.48258],[-128,-20.60462],[-127.5,-20.72271],[-127,-20.8369],[-126.5,-20.94727],[-126,-21.05387],[-125.5,-21.15677],[-125,-21.25603],[-124.5,-21.35171],[-124,-21.44387],[-123.5,-21.53256],[-123,-21.61786],[-122.5,-21.69981],[-122,-21.77847],[-121.5,-21.8539],[-121,-21.92615],[-120.5,-21.99528],[-120,-22.06133],[-119.5,-22.12436],[-119,-22.18443],[-118.5,-22.24158],[-118,-22.29586],[-117.5,-22.34731],[-117,-22.39599],[-116.5,-22.44195],[-116,-22.48522],[-115.5,-22.52585],[-115,-22.56389],[-114.5,-22.59937],[-114,-22.63235],[-113.5,-22.66285],[-113,-22.69093],[-112.5,-22.71662],[-112,-22.73996],[-111.5,-22.76098],[-111,-22.77973],[-110.5,-22.79624],[-110,-22.81055],[-109.5,-22.82269],[-109,-22.83269],[-108.5,-22.8406],[-108,-22.84643],[-107.5,-22.85024],[-107,-22.85204],[-106.5,-22.85186],[-106,-22.84975],[-105.5,-22.84573],[-105,-22.83982],[-104.5,-22.83206],[-104,-22.82247],[-103.5,-22.81109],[-103,-22.79794],[-102.5,-22.78305],[-102,-22.76644],[-101.5,-22.74814],[-101,-22.72818],[-100.5,-22.70658],[-100,-22.68336],[-99.5,-22.65855],[-99,-22.63217],[-98.5,-22.60425],[-98,-22.57481],[-97.5,-22.54387],[-97,-22.51145],[-96.5,-22.47758],[-96,-22.44227],[-95.5,-22.40555],[-95,-22.36744],[-94.5,-22.32797],[-94,-22.28713],[-93.5,-22.24497],[-93,-22.2015],[-92.5,-22.15673],[-92,-22.1107],[-91.5,-22.0634],[-91,-22.01487],[-90.5,-21.96512],[-90,-21.91417],[-89.5,-21.86204],[-89,-21.80874],[-88.5,-21.75429],[-88,-21.69871],[-87.5,-21.64202],[-87,-21.58422],[-86.5,-21.52535],[-86,-21.4654],[-85.5,-21.4044],[-85,-21.34237],[-84.5,-21.27931],[-84,-21.21525],[-83.5,-21.1502],[-83.02355,-21.093]]}},{"type":"Feature","id":"+00411014:south:0","properties":{"id":"+00411014","year":41,"month":10,"day":14,"time_tdt":"00:26:01","type":"금환일식","type_code":"A","saros":73,"gamma":-0.07625,"magnitude":0.95189,"greatest":{"lat":-11.75271,"lng":-148.57562},"path_width_km":176.6,"duration":"05m47s","delta_t_seconds":10117.8,"catalog_number":4877,"source":"NASA Five Millennium Canon of Solar Eclipses","source_url":"https://eclipse.gsfc.nasa.gov/SEsearch/SEsearchmap.php?Ecl=%2B00411014","boundary":"south","name":"41-10-14 금환일식"},"geometry":{"type":"LineString","coordinates":[[152.79297,11.32623],[153,11.29979],[153.5,11.23482],[154,11.16827],[154.5,11.10012],[155,11.03035],[155.5,10.95895],[156,10.88588],[156.5,10.81115],[157,10.73471],[157.5,10.65656],[158,10.57668],[158.5,10.49503],[159,10.4116],[159.5,10.32637],[160,10.23932],[160.5,10.15042],[161,10.05965],[161.5,9.96698],[162,9.87239],[162.5,9.77586],[163,9.67736],[163.5,9.57687],[164,9.47435],[164.5,9.36979],[165,9.26315],[165.5,9.15441],[166,9.04354],[166.5,8.93051],[167,8.8153],[167.5,8.69786],[168,8.57818],[168.5,8.45622],[169,8.33195],[169.5,8.20534],[170,8.07635],[170.5,7.94496],[171,7.81113],[171.5,7.67482],[172,7.53601],[172.5,7.39465],[173,7.25071],[173.5,7.10415],[174,6.95495],[174.5,6.80305],[175,6.64843],[175.5,6.49104],[176,6.33086],[176.5,6.16783],[177,6.00192],[177.5,5.83309],[178,5.6613],[178.5,5.48651],[179,5.30868],[179.5,5.12777],[180,4.94374]]}},{"type":"Feature","id":"+00411014:south:1","properties":{"id":"+00411014","year":41,"month":10,"day":14,"time_tdt":"00:26:01","type":"금환일식","type_code":"A","saros":73,"gamma":-0.07625,"magnitude":0.95189,"greatest":{"lat":-11.75271,"lng":-148.57562},"path_width_km":176.6,"duration":"05m47s","delta_t_seconds":10117.8,"catalog_number":4877,"source":"NASA Five Millennium Canon of Solar Eclipses","source_url":"https://eclipse.gsfc.nasa.gov/SEsearch/SEsearchmap.php?Ecl=%2B00411014","boundary":"south","name":"41-10-14 금환일식"},"geometry":{"type":"LineString","coordinates":[[-179.5,4.75655],[-179,4.56617],[-178.5,4.37254],[-178,4.17563],[-177.5,3.97541],[-177,3.77183],[-176.5,3.56485],[-176,3.35444],[-175.5,3.14057],[-175,2.92319],[-174.5,2.70228],[-174,2.47781],[-173.5,2.24973],[-173,2.01804],[-172.5,1.78269],[-172,1.54367],[-171.5,1.30097],[-171,1.05455],[-170.5,0.80442],[-170,0.55056],[-169.5,0.29296],[-169,0.03164],[-168.5,-0.23341],[-168,-0.50217],[-167.5,-0.77462],[-167,-1.05074],[-166.5,-1.33049],[-166,-1.61384],[-165.5,-1.90074],[-165,-2.19113],[-164.5,-2.48493],[-164,-2.78208],[-163.5,-3.08249],[-163,-3.38606],[-162.5,-3.69269],[-162,-4.00224],[-161.5,-4.31459],[-161,-4.6296],[-160.5,-4.94711],[-160,-5.26695],[-159.5,-5.58895],[-159,-5.9129],[-158.5,-6.23861],[-158,-6.56587],[-157.5,-6.89445],[-157,-7.22411],[-156.5,-7.55461],[-156,-7.88571],[-155.5,-8.21713],[-155,-8.54863],[-154.5,-8.87992],[-154,-9.21075],[-153.5,-9.54082],[-153,-9.86988],[-152.5,-10.19765],[-152,-10.52385],[-151.5,-10.84823],[-151,-11.17051],[-150.5,-11.49046],[-150,-11.80782],[-149.5,-12.12235],[-149,-12.43383],[-148.5,-12.74205],[-148,-13.04679],[-147.5,-13.34788],[-147,-13.64512],[-146.5,-13.93836],[-146,-14.22744],[-145.5,-14.51223],[-145,-14.79259],[-144.5,-15.06842],[-144,-15.33963],[-143.5,-15.60611],[-143,-15.86781],[-142.5,-16.12465],[-142,-16.3766],[-141.5,-16.6236],[-141,-16.86563],[-140.5,-17.10267],[-140,-17.33471],[-139.5,-17.56175],[-139,-17.78378],[-138.5,-18.00083],[-138,-18.21291],[-137.5,-18.42005],[-137,-18.62227],[-136.5,-18.81961],[-136,-19.01211],[-135.5,-19.19982],[-135,-19.38277],[-134.5,-19.56103],[-134,-19.73463],[-133.5,-19.90364],[-133,-20.06811],[-132.5,-20.2281],[-132,-20.38367],[-131.5,-20.53488],[-131,-20.68178],[-130.5,-20.82445],[-130,-20.96294],[-129.5,-21.09732],[-129,-21.22764],[-128.5,-21.35398],[-128,-21.47639],[-127.5,-21.59494],[-127,-21.70968],[-126.5,-21.82068],[-126,-21.928],[-125.5,-22.03169],[-125,-22.13183],[-124.5,-22.22846],[-124,-22.32164],[-123.5,-22.41144],[-123,-22.4979],[-122.5,-22.58109],[-122,-22.66105],[-121.5,-22.73785],[-121,-22.81153],[-120.5,-22.88214],[-120,-22.94974],[-119.5,-23.01438],[-119,-23.0761],[-118.5,-23.13495],[-118,-23.19099],[-117.5,-23.24425],[-117,-23.29479],[-116.5,-23.34264],[-116,-23.38786],[-115.5,-23.43048],[-115,-23.47054],[-114.5,-23.50809],[-114,-23.54317],[-113.5,-23.57582],[-113,-23.60607],[-112.5,-23.63397],[-112,-23.65955],[-111.5,-23.68285],[-111,-23.70391],[-110.5,-23.72275],[-110,-23.73942],[-109.5,-23.75395],[-109,-23.76637],[-108.5,-23.77671],[-108,-23.78501],[-107.5,-23.79129],[-107,-23.7956],[-106.5,-23.79795],[-106,-23.79838],[-105.5,-23.79692],[-105,-23.79359],[-104.5,-23.78843],[-104,-23.78146],[-103.5,-23.77271],[-103,-23.7622],[-102.5,-23.74997],[-102,-23.73603],[-101.5,-23.72041],[-101,-23.70314],[-100.5,-23.68424],[-100,-23.66373],[-99.5,-23.64164],[-99,-23.61799],[-98.5,-23.59281],[-98,-23.56611],[-97.5,-23.53792],[-97,-23.50826],[-96.5,-23.47715],[-96,-23.44461],[-95.5,-23.41067],[-95,-23.37533],[-94.5,-23.33863],[-94,-23.30058],[-93.5,-23.2612],[-93,-23.22051],[-92.5,-23.17853],[-92,-23.13528],[-91.5,-23.09077],[-91,-23.04503],[-90.5,-22.99806],[-90,-22.9499],[-89.5,-22.90054],[-89,-22.85002],[-88.5,-22.79835],[-88,-22.74555],[-87.5,-22.69162],[-87,-22.6366],[-86.5,-22.58048],[-86,-22.52329],[-85.5,-22.46505],[-85,-22.40577],[-84.5,-22.34545],[-84,-22.28413],[-83.5,-22.22181],[-83,-22.15851]]}}],"attribution":"Eclipse Predictions by Fred Espenak and Jean Meeus (NASA's GSFC)","generated_at":"2026-09-23T01:44:43.495Z"}
