{"type":"FeatureCollection","year":410,"events":[{"id":"+04100618","year":410,"month":6,"day":18,"time_tdt":"14:33:19","type":"금환일식","type_code":"A","saros":82,"gamma":0.1623,"magnitude":0.98346,"greatest":{"lat":33.10287,"lng":-10.74615},"path_width_km":59.4,"duration":"01m47s","delta_t_seconds":6564.5,"catalog_number":5730,"source":"NASA Five Millennium Canon of Solar Eclipses","source_url":"https://eclipse.gsfc.nasa.gov/SEsearch/SEsearchmap.php?Ecl=%2B04100618"},{"id":"+04101212","year":410,"month":12,"day":12,"time_tdt":"05:25:03","type":"개기일식","type_code":"T","saros":87,"gamma":0.20413,"magnitude":1.0318,"greatest":{"lat":-11.67676,"lng":125.14734},"path_width_km":109.7,"duration":"03m11s","delta_t_seconds":6559.7,"catalog_number":5731,"source":"NASA Five Millennium Canon of Solar Eclipses","source_url":"https://eclipse.gsfc.nasa.gov/SEsearch/SEsearchmap.php?Ecl=%2B04101212"}],"features":[{"type":"Feature","id":"+04100618:north:0","properties":{"id":"+04100618","year":410,"month":6,"day":18,"time_tdt":"14:33:19","type":"금환일식","type_code":"A","saros":82,"gamma":0.1623,"magnitude":0.98346,"greatest":{"lat":33.10287,"lng":-10.74615},"path_width_km":59.4,"duration":"01m47s","delta_t_seconds":6564.5,"catalog_number":5730,"source":"NASA Five Millennium Canon of Solar Eclipses","source_url":"https://eclipse.gsfc.nasa.gov/SEsearch/SEsearchmap.php?Ecl=%2B04100618","boundary":"north","name":"410-06-18 금환일식"},"geometry":{"type":"LineString","coordinates":[[-79.41406,13.06231],[-79,13.24321],[-78.5,13.46228],[-78,13.68203],[-77.5,13.90243],[-77,14.12347],[-76.5,14.34514],[-76,14.5674],[-75.5,14.79024],[-75,15.01365],[-74.5,15.2376],[-74,15.46206],[-73.5,15.68703],[-73,15.91247],[-72.5,16.13836],[-72,16.36467],[-71.5,16.59138],[-71,16.81847],[-70.5,17.0459],[-70,17.27364],[-69.5,17.50167],[-69,17.72996],[-68.5,17.95848],[-68,18.18719],[-67.5,18.41606],[-67,18.64506],[-66.5,18.87415],[-66,19.10329],[-65.5,19.33246],[-65,19.5616],[-64.5,19.79069],[-64,20.01968],[-63.5,20.24854],[-63,20.47721],[-62.5,20.70566],[-62,20.93385],[-61.5,21.16172],[-61,21.38924],[-60.5,21.61635],[-60,21.84302],[-59.5,22.06919],[-59,22.29481],[-58.5,22.51983],[-58,22.74421],[-57.5,22.96788],[-57,23.1908],[-56.5,23.41292],[-56,23.63418],[-55.5,23.85453],[-55,24.0739],[-54.5,24.29225],[-54,24.50952],[-53.5,24.72566],[-53,24.94059],[-52.5,25.15428],[-52,25.36665],[-51.5,25.57765],[-51,25.78722],[-50.5,25.99531],[-50,26.20185],[-49.5,26.40678],[-49,26.61004],[-48.5,26.81158],[-48,27.01133],[-47.5,27.20924],[-47,27.40524],[-46.5,27.59928],[-46,27.7913],[-45.5,27.98123],[-45,28.16902],[-44.5,28.35462],[-44,28.53796],[-43.5,28.71898],[-43,28.89764],[-42.5,29.07387],[-42,29.24762],[-41.5,29.41883],[-41,29.58745],[-40.5,29.75342],[-40,29.9167],[-39.5,30.07723],[-39,30.23496],[-38.5,30.38984],[-38,30.54182],[-37.5,30.69085],[-37,30.83688],[-36.5,30.97986],[-36,31.11976],[-35.5,31.25653],[-35,31.39011],[-34.5,31.52047],[-34,31.64757],[-33.5,31.77136],[-33,31.8918],[-32.5,32.00886],[-32,32.1225],[-31.5,32.23267],[-31,32.33934],[-30.5,32.44248],[-30,32.54204],[-29.5,32.63801],[-29,32.73033],[-28.5,32.81898],[-28,32.90393],[-27.5,32.98515],[-27,33.0626],[-26.5,33.13626],[-26,33.20609],[-25.5,33.27208],[-25,33.33418],[-24.5,33.39238],[-24,33.44665],[-23.5,33.49696],[-23,33.54329],[-22.5,33.5856],[-22,33.62389],[-21.5,33.65812],[-21,33.68827],[-20.5,33.71433],[-20,33.73625],[-19.5,33.75404],[-19,33.76766],[-18.5,33.77709],[-18,33.78231],[-17.5,33.78331],[-17,33.78006],[-16.5,33.77255],[-16,33.76076],[-15.5,33.74466],[-15,33.72425],[-14.5,33.6995],[-14,33.6704],[-13.5,33.63694],[-13,33.59909],[-12.5,33.55685],[-12,33.5102],[-11.5,33.45913],[-11,33.40363],[-10.5,33.34368],[-10,33.27927],[-9.5,33.2104],[-9,33.13706],[-8.5,33.05924],[-8,32.97693],[-7.5,32.89013],[-7,32.79884],[-6.5,32.70304],[-6,32.60275],[-5.5,32.49797],[-5,32.38869],[-4.5,32.27491],[-4,32.15666],[-3.5,32.03393],[-3,31.90673],[-2.5,31.77507],[-2,31.63898],[-1.5,31.49846],[-1,31.35354],[-0.5,31.20424],[0,31.05057],[0.5,30.89258],[1,30.73028],[1.5,30.56371],[2,30.39291],[2.5,30.21791],[3,30.03876],[3.5,29.8555],[4,29.66817],[4.5,29.47684],[5,29.28154],[5.5,29.08235],[6,28.87931],[6.5,28.67251],[7,28.46199],[7.5,28.24784],[8,28.03012],[8.5,27.80891],[9,27.5843],[9.5,27.35636],[10,27.12518],[10.5,26.89085],[11,26.65346],[11.5,26.4131],[12,26.16987],[12.5,25.92387],[13,25.67519],[13.5,25.42394],[14,25.17021],[14.5,24.91413],[15,24.65578],[15.5,24.39528],[16,24.13273],[16.5,23.86825],[17,23.60194],[17.5,23.33392],[18,23.06428],[18.5,22.79314],[19,22.52061],[19.5,22.24679],[20,21.97179],[20.5,21.69572],[21,21.41869],[21.5,21.14079],[22,20.86212],[22.5,20.5828],[23,20.30291],[23.5,20.02255],[24,19.74182],[24.5,19.46081],[25,19.17961],[25.5,18.89831],[26,18.617],[26.5,18.33575],[27,18.05465],[27.5,17.77377],[28,17.4932],[28.5,17.213],[29,16.93325],[29.5,16.65401],[30,16.37535],[30.5,16.09734],[31,15.82002],[31.5,15.54347],[32,15.26773],[32.5,14.99285],[33,14.7189],[33.5,14.44591],[34,14.17394],[34.5,13.90302],[35,13.6332],[35.5,13.36452],[36,13.097],[36.5,12.8307],[37,12.56564],[37.5,12.30184],[38,12.03935],[38.5,11.77819],[39,11.51838],[39.5,11.25995],[40,11.00292],[40.5,10.7473],[41,10.49313],[41.5,10.24042],[42,9.98918],[42.5,9.73942],[43,9.49118],[43.5,9.24444],[44,8.99923],[44.5,8.75556],[45,8.51344],[45.5,8.27287],[46,8.03386],[46.5,7.79642],[47,7.56056],[47.5,7.32627],[48,7.09357],[48.5,6.86245],[49,6.63292],[49.5,6.40498],[50,6.17863],[50.5,5.95387],[51,5.7307],[51.5,5.50913],[52,5.28914],[52.5,5.07075],[52.61133,5.02234]]}},{"type":"Feature","id":"+04100618:center:0","properties":{"id":"+04100618","year":410,"month":6,"day":18,"time_tdt":"14:33:19","type":"금환일식","type_code":"A","saros":82,"gamma":0.1623,"magnitude":0.98346,"greatest":{"lat":33.10287,"lng":-10.74615},"path_width_km":59.4,"duration":"01m47s","delta_t_seconds":6564.5,"catalog_number":5730,"source":"NASA Five Millennium Canon of Solar Eclipses","source_url":"https://eclipse.gsfc.nasa.gov/SEsearch/SEsearchmap.php?Ecl=%2B04100618","boundary":"center","name":"410-06-18 금환일식"},"geometry":{"type":"LineString","coordinates":[[-79.1006,12.57625],[-79,12.61996],[-78.5,12.8414],[-78,13.06355],[-77.5,13.28638],[-77,13.50988],[-76.5,13.73402],[-76,13.95879],[-75.5,14.18417],[-75,14.41015],[-74.5,14.63669],[-74,14.86378],[-73.5,15.0914],[-73,15.31952],[-72.5,15.54812],[-72,15.77717],[-71.5,16.00665],[-71,16.23653],[-70.5,16.46679],[-70,16.69739],[-69.5,16.92831],[-69,17.15952],[-68.5,17.39098],[-68,17.62266],[-67.5,17.85453],[-67,18.08656],[-66.5,18.31871],[-66,18.55095],[-65.5,18.78323],[-65,19.01552],[-64.5,19.24778],[-64,19.47997],[-63.5,19.71205],[-63,19.94397],[-62.5,20.17571],[-62,20.4072],[-61.5,20.6384],[-61,20.86927],[-60.5,21.09977],[-60,21.32983],[-59.5,21.55943],[-59,21.78849],[-58.5,22.01698],[-58,22.24484],[-57.5,22.47202],[-57,22.69847],[-56.5,22.92413],[-56,23.14895],[-55.5,23.37287],[-55,23.59583],[-54.5,23.81778],[-54,24.03867],[-53.5,24.25842],[-53,24.47699],[-52.5,24.69432],[-52,24.91034],[-51.5,25.12499],[-51,25.33822],[-50.5,25.54996],[-50,25.76016],[-49.5,25.96875],[-49,26.17567],[-48.5,26.38086],[-48,26.58426],[-47.5,26.78581],[-47,26.98544],[-46.5,27.1831],[-46,27.37872],[-45.5,27.57225],[-45,27.76362],[-44.5,27.95278],[-44,28.13966],[-43.5,28.32421],[-43,28.50636],[-42.5,28.68607],[-42,28.86327],[-41.5,29.0379],[-41,29.20991],[-40.5,29.37925],[-40,29.54586],[-39.5,29.70969],[-39,29.87068],[-38.5,30.02879],[-38,30.18395],[-37.5,30.33613],[-37,30.48526],[-36.5,30.63132],[-36,30.77423],[-35.5,30.91397],[-35,31.05048],[-34.5,31.18373],[-34,31.31366],[-33.5,31.44023],[-33,31.5634],[-32.5,31.68314],[-32,31.7994],[-31.5,31.91214],[-31,32.02132],[-30.5,32.12692],[-30,32.22888],[-29.5,32.32719],[-29,32.42179],[-28.5,32.51267],[-28,32.59978],[-27.5,32.68309],[-27,32.76258],[-26.5,32.83822],[-26,32.90996],[-25.5,32.9778],[-25,33.04168],[-24.5,33.1016],[-24,33.15752],[-23.5,33.20942],[-23,33.25726],[-22.5,33.30103],[-22,33.3407],[-21.5,33.37625],[-21,33.40765],[-20.5,33.43487],[-20,33.45791],[-19.5,33.47673],[-19,33.49132],[-18.5,33.50164],[-18,33.50769],[-17.5,33.50944],[-17,33.50688],[-16.5,33.49997],[-16,33.48871],[-15.5,33.47308],[-15,33.45306],[-14.5,33.42863],[-14,33.39977],[-13.5,33.36648],[-13,33.32872],[-12.5,33.2865],[-12,33.23979],[-11.5,33.18859],[-11,33.13287],[-10.5,33.07264],[-10,33.00787],[-9.5,32.93856],[-9,32.86471],[-8.5,32.78629],[-8,32.70331],[-7.5,32.61576],[-7,32.52364],[-6.5,32.42695],[-6,32.32567],[-5.5,32.21983],[-5,32.10941],[-4.5,31.99442],[-4,31.87487],[-3.5,31.75077],[-3,31.62212],[-2.5,31.48894],[-2,31.35124],[-1.5,31.20904],[-1,31.06236],[-0.5,30.91123],[0,30.75565],[0.5,30.59568],[1,30.43132],[1.5,30.26262],[2,30.08962],[2.5,29.91234],[3,29.73084],[3.5,29.54517],[4,29.35536],[4.5,29.16147],[5,28.96356],[5.5,28.76169],[6,28.55592],[6.5,28.34631],[7,28.13294],[7.5,27.91587],[8,27.69518],[8.5,27.47096],[9,27.24327],[9.5,27.01222],[10,26.77787],[10.5,26.54033],[11,26.2997],[11.5,26.05605],[12,25.8095],[12.5,25.56014],[13,25.30807],[13.5,25.05341],[14,24.79624],[14.5,24.53669],[15,24.27487],[15.5,24.01087],[16,23.74481],[16.5,23.4768],[17,23.20696],[17.5,22.93539],[18,22.6622],[18.5,22.38751],[19,22.11143],[19.5,21.83406],[20,21.55552],[20.5,21.27592],[21,20.99535],[21.5,20.71393],[22,20.43176],[22.5,20.14895],[23,19.86558],[23.5,19.58177],[24,19.2976],[24.5,19.01317],[25,18.72857],[25.5,18.44389],[26,18.15922],[26.5,17.87465],[27,17.59024],[27.5,17.30609],[28,17.02227],[28.5,16.73885],[29,16.4559],[29.5,16.1735],[30,15.89171],[30.5,15.61058],[31,15.33019],[31.5,15.05059],[32,14.77184],[32.5,14.49398],[33,14.21707],[33.5,13.94116],[34,13.6663],[34.5,13.39252],[35,13.11986],[35.5,12.84838],[36,12.57809],[36.5,12.30905],[37,12.04127],[37.5,11.7748],[38,11.50966],[38.5,11.24587],[39,10.98346],[39.5,10.72247],[40,10.46289],[40.5,10.20477],[41,9.94812],[41.5,9.69295],[42,9.43927],[42.5,9.18712],[43,8.93649],[43.5,8.68741],[44,8.43987],[44.5,8.1939],[45,7.9495],[45.5,7.70667],[46,7.46543],[46.5,7.22579],[47,6.98774],[47.5,6.75129],[48,6.51644],[48.5,6.28321],[49,6.05158],[49.5,5.82156],[50,5.59316],[50.5,5.36636],[51,5.14118],[51.5,4.91761],[52,4.69565],[52.31916,4.55548]]}},{"type":"Feature","id":"+04100618:south:0","properties":{"id":"+04100618","year":410,"month":6,"day":18,"time_tdt":"14:33:19","type":"금환일식","type_code":"A","saros":82,"gamma":0.1623,"magnitude":0.98346,"greatest":{"lat":33.10287,"lng":-10.74615},"path_width_km":59.4,"duration":"01m47s","delta_t_seconds":6564.5,"catalog_number":5730,"source":"NASA Five Millennium Canon of Solar Eclipses","source_url":"https://eclipse.gsfc.nasa.gov/SEsearch/SEsearchmap.php?Ecl=%2B04100618","boundary":"south","name":"410-06-18 금환일식"},"geometry":{"type":"LineString","coordinates":[[-78.7832,12.09252],[-78.5,12.21937],[-78,12.4439],[-77.5,12.66914],[-77,12.89508],[-76.5,13.12169],[-76,13.34896],[-75.5,13.57687],[-75,13.80539],[-74.5,14.03452],[-74,14.26422],[-73.5,14.49448],[-73,14.72526],[-72.5,14.95656],[-72,15.18834],[-71.5,15.42058],[-71,15.65325],[-70.5,15.88632],[-70,16.11977],[-69.5,16.35357],[-69,16.58768],[-68.5,16.82207],[-68,17.05672],[-67.5,17.29159],[-67,17.52664],[-66.5,17.76184],[-66,17.99716],[-65.5,18.23255],[-65,18.46798],[-64.5,18.70341],[-64,18.9388],[-63.5,19.17411],[-63,19.40928],[-62.5,19.64429],[-62,19.87909],[-61.5,20.11362],[-61,20.34785],[-60.5,20.58173],[-60,20.8152],[-59.5,21.04822],[-59,21.28074],[-58.5,21.51271],[-58,21.74406],[-57.5,21.97476],[-57,22.20474],[-56.5,22.43395],[-56,22.66234],[-55.5,22.88985],[-55,23.11641],[-54.5,23.34198],[-54,23.56649],[-53.5,23.78989],[-53,24.01211],[-52.5,24.23309],[-52,24.45278],[-51.5,24.67111],[-51,24.88801],[-50.5,25.10344],[-50,25.31732],[-49.5,25.52959],[-49,25.74019],[-48.5,25.94906],[-48,26.15613],[-47.5,26.36135],[-47,26.56464],[-46.5,26.76595],[-46,26.96521],[-45.5,27.16236],[-45,27.35735],[-44.5,27.5501],[-44,27.74055],[-43.5,27.92866],[-43,28.11434],[-42.5,28.29756],[-42,28.47824],[-41.5,28.65633],[-41,28.83178],[-40.5,29.00452],[-40,29.17449],[-39.5,29.34165],[-39,29.50594],[-38.5,29.66731],[-38,29.82569],[-37.5,29.98105],[-37,30.13333],[-36.5,30.28249],[-36,30.42846],[-35.5,30.57121],[-35,30.71068],[-34.5,30.84684],[-34,30.97963],[-33.5,31.10902],[-33,31.23495],[-32.5,31.3574],[-32,31.47631],[-31.5,31.59165],[-31,31.70338],[-30.5,31.81146],[-30,31.91586],[-29.5,32.01653],[-29,32.11345],[-28.5,32.20657],[-28,32.29587],[-27.5,32.38132],[-27,32.46287],[-26.5,32.5405],[-26,32.61418],[-25.5,32.68389],[-25,32.74958],[-24.5,32.81123],[-24,32.86883],[-23.5,32.92232],[-23,32.97171],[-22.5,33.01694],[-22,33.05801],[-21.5,33.09489],[-21,33.12755],[-20.5,33.15597],[-20,33.18012],[-19.5,33.19999],[-19,33.21556],[-18.5,33.22679],[-18,33.23367],[-17.5,33.23618],[-17,33.23431],[-16.5,33.22802],[-16,33.2173],[-15.5,33.20213],[-15,33.1825],[-14.5,33.15839],[-14,33.12978],[-13.5,33.09665],[-13,33.05899],[-12.5,33.01678],[-12,32.97001],[-11.5,32.91867],[-11,32.86274],[-10.5,32.80221],[-10,32.73708],[-9.5,32.66732],[-9,32.59294],[-8.5,32.51392],[-8,32.43026],[-7.5,32.34195],[-7,32.24899],[-6.5,32.15137],[-6,32.04911],[-5.5,31.94218],[-5,31.83061],[-4.5,31.71439],[-4,31.59352],[-3.5,31.46802],[-3,31.3379],[-2.5,31.20317],[-2,31.06385],[-1.5,30.91994],[-1,30.77148],[-0.5,30.61848],[0,30.46098],[0.5,30.29898],[1,30.13254],[1.5,29.96168],[2,29.78644],[2.5,29.60686],[3,29.42299],[3.5,29.23486],[4,29.04254],[4.5,28.84607],[5,28.64551],[5.5,28.44093],[6,28.23238],[6.5,28.01993],[7,27.80367],[7.5,27.58365],[8,27.35995],[8.5,27.13267],[9,26.90188],[9.5,26.66766],[10,26.43012],[10.5,26.18934],[11,25.94541],[11.5,25.69844],[12,25.44853],[12.5,25.19578],[13,24.94029],[13.5,24.68218],[14,24.42154],[14.5,24.1585],[15,23.89316],[15.5,23.62563],[16,23.35603],[16.5,23.08446],[17,22.81105],[17.5,22.53591],[18,22.25915],[18.5,21.98089],[19,21.70123],[19.5,21.42029],[20,21.13819],[20.5,20.85502],[21,20.57091],[21.5,20.28595],[22,20.00026],[22.5,19.71394],[23,19.42708],[23.5,19.13979],[24,18.85217],[24.5,18.56431],[25,18.2763],[25.5,17.98824],[26,17.7002],[26.5,17.41229],[27,17.12458],[27.5,16.83715],[28,16.55007],[28.5,16.26343],[29,15.97728],[29.5,15.69172],[30,15.40679],[30.5,15.12256],[31,14.83909],[31.5,14.55645],[32,14.27468],[32.5,13.99384],[33,13.71399],[33.5,13.43516],[34,13.1574],[34.5,12.88077],[35,12.60529],[35.5,12.33101],[36,12.05796],[36.5,11.78618],[37,11.5157],[37.5,11.24656],[38,10.97877],[38.5,10.71237],[39,10.44738],[39.5,10.18382],[40,9.92172],[40.5,9.6611],[41,9.40197],[41.5,9.14436],[42,8.88827],[42.5,8.63372],[43,8.38073],[43.5,8.1293],[44,7.87945],[44.5,7.63119],[45,7.38452],[45.5,7.13945],[46,6.896],[46.5,6.65415],[47,6.41393],[47.5,6.17533],[48,5.93836],[48.5,5.70302],[49,5.46931],[49.5,5.23723],[50,5.00678],[50.5,4.77797],[51,4.55078],[51.5,4.32523],[52,4.10131],[52.02539,4.08998]]}},{"type":"Feature","id":"+04101212:north:0","properties":{"id":"+04101212","year":410,"month":12,"day":12,"time_tdt":"05:25:03","type":"개기일식","type_code":"T","saros":87,"gamma":0.20413,"magnitude":1.0318,"greatest":{"lat":-11.67676,"lng":125.14734},"path_width_km":109.7,"duration":"03m11s","delta_t_seconds":6559.7,"catalog_number":5731,"source":"NASA Five Millennium Canon of Solar Eclipses","source_url":"https://eclipse.gsfc.nasa.gov/SEsearch/SEsearchmap.php?Ecl=%2B04101212","boundary":"north","name":"410-12-12 개기일식"},"geometry":{"type":"LineString","coordinates":[[65.16211,9.23637],[65.5,9.09076],[66,8.87463],[66.5,8.65772],[67,8.44005],[67.5,8.22163],[68,8.00247],[68.5,7.78259],[69,7.56199],[69.5,7.3407],[70,7.11873],[70.5,6.8961],[71,6.67282],[71.5,6.4489],[72,6.22438],[72.5,5.99926],[73,5.77357],[73.5,5.54732],[74,5.32054],[74.5,5.09326],[75,4.86548],[75.5,4.63725],[76,4.40857],[76.5,4.17949],[77,3.95002],[77.5,3.72019],[78,3.49004],[78.5,3.25959],[79,3.02887],[79.5,2.79792],[80,2.56677],[80.5,2.33546],[81,2.10401],[81.5,1.87248],[82,1.64089],[82.5,1.40929],[83,1.17771],[83.5,0.94621],[84,0.71482],[84.5,0.48358],[85,0.25256],[85.5,0.02179],[86,-0.20868],[86.5,-0.43879],[87,-0.66849],[87.5,-0.89773],[88,-1.12646],[88.5,-1.35461],[89,-1.58212],[89.5,-1.80894],[90,-2.035],[90.5,-2.26025],[91,-2.48461],[91.5,-2.70801],[92,-2.9304],[92.5,-3.1517],[93,-3.37183],[93.5,-3.59074],[94,-3.80833],[94.5,-4.02454],[95,-4.23929],[95.5,-4.4525],[96,-4.66408],[96.5,-4.87397],[97,-5.08207],[97.5,-5.28831],[98,-5.49259],[98.5,-5.69482],[99,-5.89494],[99.5,-6.09283],[100,-6.28842],[100.5,-6.48162],[101,-6.67233],[101.5,-6.86046],[102,-7.04592],[102.5,-7.22862],[103,-7.40846],[103.5,-7.58535],[104,-7.7592],[104.5,-7.92991],[105,-8.09739],[105.5,-8.26154],[106,-8.42227],[106.5,-8.57948],[107,-8.73309],[107.5,-8.88301],[108,-9.02913],[108.5,-9.17137],[109,-9.30964],[109.5,-9.44384],[110,-9.5739],[110.5,-9.69972],[111,-9.82123],[111.5,-9.93832],[112,-10.05093],[112.5,-10.15898],[113,-10.26237],[113.5,-10.36105],[114,-10.45493],[114.5,-10.54393],[115,-10.628],[115.5,-10.70706],[116,-10.78105],[116.5,-10.8499],[117,-10.91356],[117.5,-10.97197],[118,-11.02507],[118.5,-11.07282],[119,-11.11516],[119.5,-11.15205],[120,-11.18345],[120.5,-11.20933],[121,-11.22964],[121.5,-11.24435],[122,-11.25345],[122.5,-11.2569],[123,-11.25468],[123.5,-11.24678],[124,-11.23318],[124.5,-11.21389],[125,-11.18888],[125.5,-11.15816],[126,-11.12174],[126.5,-11.07962],[127,-11.03182],[127.5,-10.97834],[128,-10.91921],[128.5,-10.85446],[129,-10.7841],[129.5,-10.70818],[130,-10.62672],[130.5,-10.53977],[131,-10.44738],[131.5,-10.34958],[132,-10.24645],[132.5,-10.13802],[133,-10.02435],[133.5,-9.90553],[134,-9.7816],[134.5,-9.65265],[135,-9.51874],[135.5,-9.37996],[136,-9.23639],[136.5,-9.08811],[137,-8.9352],[137.5,-8.77777],[138,-8.6159],[138.5,-8.44969],[139,-8.27923],[139.5,-8.10463],[140,-7.92599],[140.5,-7.74341],[141,-7.55701],[141.5,-7.36688],[142,-7.17313],[142.5,-6.97589],[143,-6.77525],[143.5,-6.57133],[144,-6.36424],[144.5,-6.15409],[145,-5.941],[145.5,-5.72508],[146,-5.50645],[146.5,-5.28521],[147,-5.06147],[147.5,-4.83535],[148,-4.60697],[148.5,-4.37641],[149,-4.14381],[149.5,-3.90926],[150,-3.67287],[150.5,-3.43474],[151,-3.19497],[151.5,-2.95368],[152,-2.71095],[152.5,-2.46688],[153,-2.22158],[153.5,-1.97513],[154,-1.72762],[154.5,-1.47914],[155,-1.22979],[155.5,-0.97965],[156,-0.72879],[156.5,-0.4773],[157,-0.22526],[157.5,0.02725],[158,0.28016],[158.5,0.53341],[159,0.78691],[159.5,1.04061],[160,1.29443],[160.5,1.54832],[161,1.80221],[161.5,2.05604],[162,2.30977],[162.5,2.56333],[163,2.81667],[163.5,3.06974],[164,3.32249],[164.5,3.57488],[165,3.82685],[165.5,4.07838],[166,4.32941],[166.5,4.57991],[167,4.82984],[167.5,5.07917],[168,5.32785],[168.5,5.57585],[169,5.82315],[169.5,6.06972],[170,6.31551],[170.5,6.56052],[171,6.80471],[171.5,7.04805],[172,7.29053],[172.5,7.53212],[173,7.7728],[173.5,8.01255],[174,8.25135],[174.5,8.48918],[175,8.72603],[175.5,8.96188],[176,9.19671],[176.5,9.43051],[177,9.66327],[177.5,9.89497],[178,10.1256],[178.5,10.35515],[179,10.58362],[179.5,10.81098],[180,11.03724]]}},{"type":"Feature","id":"+04101212:north:1","properties":{"id":"+04101212","year":410,"month":12,"day":12,"time_tdt":"05:25:03","type":"개기일식","type_code":"T","saros":87,"gamma":0.20413,"magnitude":1.0318,"greatest":{"lat":-11.67676,"lng":125.14734},"path_width_km":109.7,"duration":"03m11s","delta_t_seconds":6559.7,"catalog_number":5731,"source":"NASA Five Millennium Canon of Solar Eclipses","source_url":"https://eclipse.gsfc.nasa.gov/SEsearch/SEsearchmap.php?Ecl=%2B04101212","boundary":"north","name":"410-12-12 개기일식"},"geometry":{"type":"LineString","coordinates":[[-179.5,11.26238],[-179,11.48639],[-178.5,11.70927],[-178,11.93101],[-177.5,12.15161],[-177,12.37105],[-176.5,12.58934],[-176,12.80647],[-175.69531,12.93821]]}},{"type":"Feature","id":"+04101212:center:0","properties":{"id":"+04101212","year":410,"month":12,"day":12,"time_tdt":"05:25:03","type":"개기일식","type_code":"T","saros":87,"gamma":0.20413,"magnitude":1.0318,"greatest":{"lat":-11.67676,"lng":125.14734},"path_width_km":109.7,"duration":"03m11s","delta_t_seconds":6559.7,"catalog_number":5731,"source":"NASA Five Millennium Canon of Solar Eclipses","source_url":"https://eclipse.gsfc.nasa.gov/SEsearch/SEsearchmap.php?Ecl=%2B04101212","boundary":"center","name":"410-12-12 개기일식"},"geometry":{"type":"LineString","coordinates":[[65.07416,9.0271],[65.5,8.84007],[66,8.62099],[66.5,8.40113],[67,8.18049],[67.5,7.95909],[68,7.73694],[68.5,7.51405],[69,7.29043],[69.5,7.06611],[70,6.8411],[70.5,6.61541],[71,6.38906],[71.5,6.16207],[72,5.93446],[72.5,5.70625],[73,5.47745],[73.5,5.2481],[74,5.0182],[74.5,4.78778],[75,4.55688],[75.5,4.32551],[76,4.09369],[76.5,3.86146],[77,3.62884],[77.5,3.39586],[78,3.16255],[78.5,2.92895],[79,2.69508],[79.5,2.46097],[80,2.22667],[80.5,1.99221],[81,1.75762],[81.5,1.52294],[82,1.28822],[82.5,1.05349],[83,0.81879],[83.5,0.58418],[84,0.34969],[84.5,0.11537],[85,-0.11873],[85.5,-0.35256],[86,-0.58607],[86.5,-0.81921],[87,-1.05192],[87.5,-1.28415],[88,-1.51584],[88.5,-1.74693],[89,-1.97737],[89.5,-2.20709],[90,-2.43602],[90.5,-2.6641],[91,-2.89127],[91.5,-3.11746],[92,-3.3426],[92.5,-3.56661],[93,-3.78943],[93.5,-4.01097],[94,-4.23117],[94.5,-4.44995],[95,-4.66722],[95.5,-4.88292],[96,-5.09694],[96.5,-5.30923],[97,-5.51968],[97.5,-5.72822],[98,-5.93476],[98.5,-6.13921],[99,-6.34148],[99.5,-6.54149],[100,-6.73914],[100.5,-6.93434],[101,-7.12701],[101.5,-7.31704],[102,-7.50435],[102.5,-7.68885],[103,-7.87043],[103.5,-8.04901],[104,-8.2245],[104.5,-8.39679],[105,-8.56579],[105.5,-8.73142],[106,-8.89357],[106.5,-9.05216],[107,-9.20709],[107.5,-9.35826],[108,-9.5056],[108.5,-9.64901],[109,-9.78839],[109.5,-9.92367],[110,-10.05475],[110.5,-10.18155],[111,-10.30399],[111.5,-10.42197],[112,-10.53543],[112.5,-10.64428],[113,-10.74845],[113.5,-10.84786],[114,-10.94243],[114.5,-11.0321],[115,-11.1168],[115.5,-11.19645],[116,-11.27101],[116.5,-11.3404],[117,-11.40457],[117.5,-11.46346],[118,-11.51703],[118.5,-11.56521],[119,-11.60796],[119.5,-11.64525],[120,-11.67702],[120.5,-11.70325],[121,-11.72389],[121.5,-11.73892],[122,-11.74831],[122.5,-11.75204],[123,-11.75008],[123.5,-11.74243],[124,-11.72906],[124.5,-11.70997],[125,-11.68516],[125.5,-11.65462],[126,-11.61835],[126.5,-11.57636],[127,-11.52867],[127.5,-11.47529],[128,-11.41622],[128.5,-11.35151],[129,-11.28117],[129.5,-11.20524],[130,-11.12374],[130.5,-11.03673],[131,-10.94423],[131.5,-10.8463],[132,-10.74298],[132.5,-10.63434],[133,-10.52042],[133.5,-10.40129],[134,-10.27703],[134.5,-10.14768],[135,-10.01334],[135.5,-9.87406],[136,-9.72994],[136.5,-9.58106],[137,-9.4275],[137.5,-9.26934],[138,-9.10669],[138.5,-8.93963],[139,-8.76827],[139.5,-8.5927],[140,-8.41302],[140.5,-8.22933],[141,-8.04175],[141.5,-7.85037],[142,-7.65531],[142.5,-7.45667],[143,-7.25457],[143.5,-7.04911],[144,-6.84042],[144.5,-6.62859],[145,-6.41375],[145.5,-6.19601],[146,-5.97548],[146.5,-5.75227],[147,-5.5265],[147.5,-5.29828],[148,-5.06772],[148.5,-4.83494],[149,-4.60003],[149.5,-4.36311],[150,-4.12429],[150.5,-3.88367],[151,-3.64136],[151.5,-3.39746],[152,-3.15207],[152.5,-2.90529],[153,-2.65722],[153.5,-2.40795],[154,-2.15758],[154.5,-1.90619],[155,-1.65389],[155.5,-1.40075],[156,-1.14686],[156.5,-0.8923],[157,-0.63715],[157.5,-0.3815],[158,-0.12542],[158.5,0.13103],[159,0.38776],[159.5,0.64471],[160,0.9018],[160.5,1.15899],[161,1.4162],[161.5,1.67336],[162,1.93044],[162.5,2.18736],[163,2.44407],[163.5,2.70053],[164,2.95668],[164.5,3.21247],[165,3.46786],[165.5,3.7228],[166,3.97725],[166.5,4.23116],[167,4.48451],[167.5,4.73725],[168,4.98935],[168.5,5.24077],[169,5.49148],[169.5,5.74145],[170,5.99064],[170.5,6.23904],[171,6.48661],[171.5,6.73333],[172,6.97917],[172.5,7.22412],[173,7.46814],[173.5,7.71122],[174,7.95333],[174.5,8.19447],[175,8.43461],[175.5,8.67373],[176,8.91183],[176.5,9.14887],[177,9.38486],[177.5,9.61978],[178,9.85361],[178.5,10.08634],[179,10.31797],[179.5,10.54848],[180,10.77786]]}},{"type":"Feature","id":"+04101212:center:1","properties":{"id":"+04101212","year":410,"month":12,"day":12,"time_tdt":"05:25:03","type":"개기일식","type_code":"T","saros":87,"gamma":0.20413,"magnitude":1.0318,"greatest":{"lat":-11.67676,"lng":125.14734},"path_width_km":109.7,"duration":"03m11s","delta_t_seconds":6559.7,"catalog_number":5731,"source":"NASA Five Millennium Canon of Solar Eclipses","source_url":"https://eclipse.gsfc.nasa.gov/SEsearch/SEsearchmap.php?Ecl=%2B04101212","boundary":"center","name":"410-12-12 개기일식"},"geometry":{"type":"LineString","coordinates":[[-179.5,11.00611],[-179,11.23321],[-178.5,11.45916],[-178,11.68396],[-177.5,11.90759],[-177,12.13004],[-176.5,12.35133],[-176,12.57143],[-175.61446,12.74348]]}},{"type":"Feature","id":"+04101212:south:0","properties":{"id":"+04101212","year":410,"month":12,"day":12,"time_tdt":"05:25:03","type":"개기일식","type_code":"T","saros":87,"gamma":0.20413,"magnitude":1.0318,"greatest":{"lat":-11.67676,"lng":125.14734},"path_width_km":109.7,"duration":"03m11s","delta_t_seconds":6559.7,"catalog_number":5731,"source":"NASA Five Millennium Canon of Solar Eclipses","source_url":"https://eclipse.gsfc.nasa.gov/SEsearch/SEsearchmap.php?Ecl=%2B04101212","boundary":"south","name":"410-12-12 개기일식"},"geometry":{"type":"LineString","coordinates":[[64.98242,8.81735],[65,8.80959],[65.5,8.58837],[66,8.36634],[66.5,8.1435],[67,7.91988],[67.5,7.69547],[68,7.4703],[68.5,7.24438],[69,7.01773],[69.5,6.79036],[70,6.56228],[70.5,6.33351],[71,6.10408],[71.5,5.87399],[72,5.64328],[72.5,5.41195],[73,5.18003],[73.5,4.94754],[74,4.7145],[74.5,4.48094],[75,4.24689],[75.5,4.01235],[76,3.77738],[76.5,3.54198],[77,3.30619],[77.5,3.07004],[78,2.83356],[78.5,2.59678],[79,2.35974],[79.5,2.12246],[80,1.88499],[80.5,1.64737],[81,1.40962],[81.5,1.17178],[82,0.93391],[82.5,0.69604],[83,0.45822],[83.5,0.22048],[84,-0.01712],[84.5,-0.25453],[85,-0.49171],[85.5,-0.72861],[86,-0.96517],[86.5,-1.20134],[87,-1.43707],[87.5,-1.67229],[88,-1.90695],[88.5,-2.14099],[89,-2.37435],[89.5,-2.60696],[90,-2.83876],[90.5,-3.06968],[91,-3.29966],[91.5,-3.52862],[92,-3.7565],[92.5,-3.98322],[93,-4.2087],[93.5,-4.43288],[94,-4.65567],[94.5,-4.877],[95,-5.09678],[95.5,-5.31494],[96,-5.53139],[96.5,-5.74605],[97,-5.95883],[97.5,-6.16965],[98,-6.37843],[98.5,-6.58506],[99,-6.78946],[99.5,-6.99155],[100,-7.19123],[100.5,-7.38842],[101,-7.583],[101.5,-7.77491],[102,-7.96404],[102.5,-8.15029],[103,-8.33359],[103.5,-8.51382],[104,-8.6909],[104.5,-8.86474],[105,-9.03523],[105.5,-9.2023],[106,-9.36583],[106.5,-9.52575],[107,-9.68196],[107.5,-9.83436],[108,-9.98288],[108.5,-10.12741],[109,-10.26788],[109.5,-10.40418],[110,-10.53625],[110.5,-10.66399],[111,-10.78732],[111.5,-10.90617],[112,-11.02044],[112.5,-11.13006],[113,-11.23497],[113.5,-11.33507],[114,-11.43031],[114.5,-11.52061],[115,-11.60591],[115.5,-11.68613],[116,-11.76123],[116.5,-11.83113],[117,-11.89579],[117.5,-11.95515],[118,-12.00915],[118.5,-12.05775],[119,-12.1009],[119.5,-12.13856],[120,-12.17069],[120.5,-12.19726],[121,-12.21822],[121.5,-12.23356],[122,-12.24324],[122.5,-12.24724],[123,-12.24555],[123.5,-12.23814],[124,-12.225],[124.5,-12.20612],[125,-12.1815],[125.5,-12.15114],[126,-12.11504],[126.5,-12.0732],[127,-12.02563],[127.5,-11.97235],[128,-11.91337],[128.5,-11.84872],[129,-11.77842],[129.5,-11.7025],[130,-11.62099],[130.5,-11.53392],[131,-11.44135],[131.5,-11.34331],[132,-11.23985],[132.5,-11.13102],[133,-11.01689],[133.5,-10.8975],[134,-10.77293],[134.5,-10.64323],[135,-10.50848],[135.5,-10.36876],[136,-10.22414],[136.5,-10.0747],[137,-9.92052],[137.5,-9.76169],[138,-9.59831],[138.5,-9.43046],[139,-9.25824],[139.5,-9.08174],[140,-8.90107],[140.5,-8.71632],[141,-8.52761],[141.5,-8.33503],[142,-8.1387],[142.5,-7.93872],[143,-7.73521],[143.5,-7.52826],[144,-7.31801],[144.5,-7.10455],[145,-6.888],[145.5,-6.66848],[146,-6.4461],[146.5,-6.22096],[147,-5.9932],[147.5,-5.76291],[148,-5.53022],[148.5,-5.29523],[149,-5.05805],[149.5,-4.8188],[150,-4.57758],[150.5,-4.33449],[151,-4.08966],[151.5,-3.84317],[152,-3.59514],[152.5,-3.34567],[153,-3.09485],[153.5,-2.84278],[154,-2.58955],[154.5,-2.33527],[155,-2.08002],[155.5,-1.82389],[156,-1.56698],[156.5,-1.30935],[157,-1.0511],[157.5,-0.79231],[158,-0.53305],[158.5,-0.2734],[159,-0.01344],[159.5,0.24676],[160,0.50714],[160.5,0.76763],[161,1.02817],[161.5,1.28868],[162,1.54912],[162.5,1.80942],[163,2.06952],[163.5,2.32938],[164,2.58894],[164.5,2.84815],[165,3.10697],[165.5,3.36534],[166,3.62323],[166.5,3.88059],[167,4.13738],[167.5,4.39356],[168,4.6491],[168.5,4.90395],[169,5.15809],[169.5,5.41149],[170,5.66411],[170.5,5.91592],[171,6.1669],[171.5,6.41702],[172,6.66625],[172.5,6.91458],[173,7.16197],[173.5,7.4084],[174,7.65386],[174.5,7.89833],[175,8.14179],[175.5,8.38421],[176,8.62559],[176.5,8.86591],[177,9.10516],[177.5,9.34331],[178,9.58037],[178.5,9.81631],[179,10.05112],[179.5,10.2848],[180,10.51733]]}},{"type":"Feature","id":"+04101212:south:1","properties":{"id":"+04101212","year":410,"month":12,"day":12,"time_tdt":"05:25:03","type":"개기일식","type_code":"T","saros":87,"gamma":0.20413,"magnitude":1.0318,"greatest":{"lat":-11.67676,"lng":125.14734},"path_width_km":109.7,"duration":"03m11s","delta_t_seconds":6559.7,"catalog_number":5731,"source":"NASA Five Millennium Canon of Solar Eclipses","source_url":"https://eclipse.gsfc.nasa.gov/SEsearch/SEsearchmap.php?Ecl=%2B04101212","boundary":"south","name":"410-12-12 개기일식"},"geometry":{"type":"LineString","coordinates":[[-179.5,10.74872],[-179,10.97893],[-178.5,11.20798],[-178,11.43585],[-177.5,11.66254],[-177,11.88803],[-176.5,12.11233],[-176,12.33543],[-175.52148,12.54782]]}}],"attribution":"Eclipse Predictions by Fred Espenak and Jean Meeus (NASA's GSFC)","generated_at":"2026-09-23T01:44:50.324Z"}
