{"type":"FeatureCollection","year":429,"events":[{"id":"+04290617","year":429,"month":6,"day":17,"time_tdt":"23:43:27","type":"금환일식","type_code":"A","saros":92,"gamma":-0.53249,"magnitude":0.94751,"greatest":{"lat":-8.55263,"lng":-152.21722},"path_width_km":227.9,"duration":"07m19s","delta_t_seconds":6376.5,"catalog_number":5773,"source":"NASA Five Millennium Canon of Solar Eclipses","source_url":"https://eclipse.gsfc.nasa.gov/SEsearch/SEsearchmap.php?Ecl=%2B04290617"},{"id":"+04291212","year":429,"month":12,"day":12,"time_tdt":"05:50:23","type":"개기일식","type_code":"T","saros":97,"gamma":0.86204,"magnitude":1.03558,"greatest":{"lat":36.40839,"lng":116.24756},"path_width_km":237.1,"duration":"03m02s","delta_t_seconds":6371.7,"catalog_number":5774,"source":"NASA Five Millennium Canon of Solar Eclipses","source_url":"https://eclipse.gsfc.nasa.gov/SEsearch/SEsearchmap.php?Ecl=%2B04291212"}],"features":[{"type":"Feature","id":"+04290617:north:0","properties":{"id":"+04290617","year":429,"month":6,"day":17,"time_tdt":"23:43:27","type":"금환일식","type_code":"A","saros":92,"gamma":-0.53249,"magnitude":0.94751,"greatest":{"lat":-8.55263,"lng":-152.21722},"path_width_km":227.9,"duration":"07m19s","delta_t_seconds":6376.5,"catalog_number":5773,"source":"NASA Five Millennium Canon of Solar Eclipses","source_url":"https://eclipse.gsfc.nasa.gov/SEsearch/SEsearchmap.php?Ecl=%2B04290617","boundary":"north","name":"429-06-17 금환일식"},"geometry":{"type":"LineString","coordinates":[[156.81836,-24.40853],[157,-24.32808],[157.5,-24.10619],[158,-23.88371],[158.5,-23.66063],[159,-23.43698],[159.5,-23.21278],[160,-22.98802],[160.5,-22.76274],[161,-22.53695],[161.5,-22.31067],[162,-22.08392],[162.5,-21.85671],[163,-21.62907],[163.5,-21.40103],[164,-21.1726],[164.5,-20.9438],[165,-20.71467],[165.5,-20.48523],[166,-20.2555],[166.5,-20.02551],[167,-19.79531],[167.5,-19.5649],[168,-19.33433],[168.5,-19.10364],[169,-18.87285],[169.5,-18.642],[170,-18.41114],[170.5,-18.1803],[171,-17.94952],[171.5,-17.71884],[172,-17.48832],[172.5,-17.258],[173,-17.02793],[173.5,-16.79816],[174,-16.56874],[174.5,-16.33973],[175,-16.11119],[175.5,-15.88318],[176,-15.65576],[176.5,-15.42899],[177,-15.20295],[177.5,-14.97771],[178,-14.75333],[178.5,-14.5299],[179,-14.30749],[179.5,-14.0862],[180,-13.86609]]}},{"type":"Feature","id":"+04290617:north:1","properties":{"id":"+04290617","year":429,"month":6,"day":17,"time_tdt":"23:43:27","type":"금환일식","type_code":"A","saros":92,"gamma":-0.53249,"magnitude":0.94751,"greatest":{"lat":-8.55263,"lng":-152.21722},"path_width_km":227.9,"duration":"07m19s","delta_t_seconds":6376.5,"catalog_number":5773,"source":"NASA Five Millennium Canon of Solar Eclipses","source_url":"https://eclipse.gsfc.nasa.gov/SEsearch/SEsearchmap.php?Ecl=%2B04290617","boundary":"north","name":"429-06-17 금환일식"},"geometry":{"type":"LineString","coordinates":[[-179.5,-13.64727],[-179,-13.42983],[-178.5,-13.21385],[-178,-12.99944],[-177.5,-12.78671],[-177,-12.57575],[-176.5,-12.36668],[-176,-12.15962],[-175.5,-11.95467],[-175,-11.75197],[-174.5,-11.55163],[-174,-11.35379],[-173.5,-11.15857],[-173,-10.96612],[-172.5,-10.77658],[-172,-10.59009],[-171.5,-10.4068],[-171,-10.22686],[-170.5,-10.05043],[-170,-9.87766],[-169.5,-9.70873],[-169,-9.54379],[-168.5,-9.38302],[-168,-9.2266],[-167.5,-9.07468],[-167,-8.92747],[-166.5,-8.78512],[-166,-8.64783],[-165.5,-8.51578],[-165,-8.38915],[-164.5,-8.26813],[-164,-8.15291],[-163.5,-8.04367],[-163,-7.94059],[-162.5,-7.84385],[-162,-7.75365],[-161.5,-7.67015],[-161,-7.59354],[-160.5,-7.52398],[-160,-7.46163],[-159.5,-7.40667],[-159,-7.35924],[-158.5,-7.31949],[-158,-7.28757],[-157.5,-7.2636],[-157,-7.2477],[-156.5,-7.23998],[-156,-7.24055],[-155.5,-7.2495],[-155,-7.26689],[-154.5,-7.2928],[-154,-7.32727],[-153.5,-7.37034],[-153,-7.42203],[-152.5,-7.48234],[-152,-7.55127],[-151.5,-7.62879],[-151,-7.71485],[-150.5,-7.80941],[-150,-7.91239],[-149.5,-8.0237],[-149,-8.14325],[-148.5,-8.27091],[-148,-8.40655],[-147.5,-8.55002],[-147,-8.70118],[-146.5,-8.85985],[-146,-9.02584],[-145.5,-9.19897],[-145,-9.37904],[-144.5,-9.56583],[-144,-9.75912],[-143.5,-9.95869],[-143,-10.16432],[-142.5,-10.37576],[-142,-10.59278],[-141.5,-10.81514],[-141,-11.04259],[-140.5,-11.2749],[-140,-11.51181],[-139.5,-11.7531],[-139,-11.99851],[-138.5,-12.24782],[-138,-12.50079],[-137.5,-12.75719],[-137,-13.01679],[-136.5,-13.27937],[-136,-13.54472],[-135.5,-13.81263],[-135,-14.0829],[-134.5,-14.35532],[-134,-14.62971],[-133.5,-14.90589],[-133,-15.18367],[-132.5,-15.46288],[-132,-15.74336],[-131.5,-16.02496],[-131,-16.30751],[-130.5,-16.59088],[-130,-16.87492],[-129.5,-17.15952],[-129,-17.44453],[-128.5,-17.72984],[-128,-18.01534],[-127.5,-18.30092],[-127,-18.58648],[-126.5,-18.87192],[-126,-19.15714],[-125.5,-19.44207],[-125,-19.72662],[-124.5,-20.01071],[-124,-20.29427],[-123.5,-20.57723],[-123,-20.85953],[-122.5,-21.1411],[-122,-21.4219],[-121.5,-21.70186],[-121,-21.98093],[-120.5,-22.25907],[-120,-22.53624],[-119.5,-22.81239],[-119,-23.08749],[-118.5,-23.3615],[-118,-23.63438],[-117.5,-23.90611],[-117,-24.17666],[-116.5,-24.446],[-116,-24.7141],[-115.5,-24.98095],[-115,-25.24652],[-114.5,-25.5108],[-114,-25.77376],[-113.5,-26.03539],[-113,-26.29567],[-112.5,-26.5546],[-112,-26.81215],[-111.5,-27.06832],[-111,-27.3231],[-110.5,-27.57648],[-110,-27.82845],[-109.5,-28.07901],[-109,-28.32814],[-108.5,-28.57585],[-108,-28.82212],[-107.5,-29.06696],[-107,-29.31036],[-106.5,-29.55231],[-106,-29.79283],[-105.5,-30.03189],[-105,-30.26952],[-104.5,-30.50569],[-104,-30.74042],[-103.5,-30.97371],[-103,-31.20555],[-102.5,-31.43594],[-102,-31.66489],[-101.5,-31.89241],[-101.08398,-32.08061]]}},{"type":"Feature","id":"+04290617:center:0","properties":{"id":"+04290617","year":429,"month":6,"day":17,"time_tdt":"23:43:27","type":"금환일식","type_code":"A","saros":92,"gamma":-0.53249,"magnitude":0.94751,"greatest":{"lat":-8.55263,"lng":-152.21722},"path_width_km":227.9,"duration":"07m19s","delta_t_seconds":6376.5,"catalog_number":5773,"source":"NASA Five Millennium Canon of Solar Eclipses","source_url":"https://eclipse.gsfc.nasa.gov/SEsearch/SEsearchmap.php?Ecl=%2B04290617","boundary":"center","name":"429-06-17 금환일식"},"geometry":{"type":"LineString","coordinates":[[157.22677,-25.53505],[157.5,-25.40428],[158,-25.17902],[158.5,-24.95315],[159,-24.72669],[159.5,-24.49966],[160,-24.27206],[160.5,-24.04393],[161,-23.81527],[161.5,-23.5861],[162,-23.35644],[162.5,-23.12632],[163,-22.89575],[163.5,-22.66475],[164,-22.43335],[164.5,-22.20157],[165,-21.96944],[165.5,-21.73698],[166,-21.50422],[166.5,-21.27119],[167,-21.03791],[167.5,-20.80442],[168,-20.57076],[168.5,-20.33694],[169,-20.10302],[169.5,-19.86902],[170,-19.63498],[170.5,-19.40095],[171,-19.16697],[171.5,-18.93307],[172,-18.69931],[172.5,-18.46574],[173,-18.23239],[173.5,-17.99932],[174,-17.7666],[174.5,-17.53426],[175,-17.30238],[175.5,-17.07101],[176,-16.84021],[176.5,-16.61005],[177,-16.3806],[177.5,-16.15194],[178,-15.92412],[178.5,-15.69724],[179,-15.47137],[179.5,-15.24659],[180,-15.02299]]}},{"type":"Feature","id":"+04290617:center:1","properties":{"id":"+04290617","year":429,"month":6,"day":17,"time_tdt":"23:43:27","type":"금환일식","type_code":"A","saros":92,"gamma":-0.53249,"magnitude":0.94751,"greatest":{"lat":-8.55263,"lng":-152.21722},"path_width_km":227.9,"duration":"07m19s","delta_t_seconds":6376.5,"catalog_number":5773,"source":"NASA Five Millennium Canon of Solar Eclipses","source_url":"https://eclipse.gsfc.nasa.gov/SEsearch/SEsearchmap.php?Ecl=%2B04290617","boundary":"center","name":"429-06-17 금환일식"},"geometry":{"type":"LineString","coordinates":[[-179.5,-14.80066],[-179,-14.5797],[-178.5,-14.3602],[-178,-14.14226],[-177.5,-13.92598],[-177,-13.71148],[-176.5,-13.49886],[-176,-13.28824],[-175.5,-13.07974],[-175,-12.87348],[-174.5,-12.66959],[-174,-12.4682],[-173.5,-12.26944],[-173,-12.07346],[-172.5,-11.8804],[-172,-11.69041],[-171.5,-11.50364],[-171,-11.32024],[-170.5,-11.14038],[-170,-10.96422],[-169.5,-10.79192],[-169,-10.62366],[-168.5,-10.45961],[-168,-10.29996],[-167.5,-10.14487],[-167,-9.99453],[-166.5,-9.84914],[-166,-9.70887],[-165.5,-9.57392],[-165,-9.44448],[-164.5,-9.32074],[-164,-9.20289],[-163.5,-9.09113],[-163,-8.98564],[-162.5,-8.88662],[-162,-8.79426],[-161.5,-8.70873],[-161,-8.63023],[-160.5,-8.55893],[-160,-8.495],[-159.5,-8.43861],[-159,-8.38992],[-158.5,-8.34909],[-158,-8.31626],[-157.5,-8.29157],[-157,-8.27514],[-156.5,-8.26709],[-156,-8.26751],[-155.5,-8.27651],[-155,-8.29417],[-154.5,-8.32053],[-154,-8.35567],[-153.5,-8.3996],[-153,-8.45235],[-152.5,-8.51392],[-152,-8.58431],[-151.5,-8.66347],[-151,-8.75137],[-150.5,-8.84794],[-150,-8.95311],[-149.5,-9.06678],[-149,-9.18884],[-148.5,-9.31916],[-148,-9.45761],[-147.5,-9.60403],[-147,-9.75825],[-146.5,-9.92009],[-146,-10.08937],[-145.5,-10.26588],[-145,-10.4494],[-144.5,-10.63972],[-144,-10.83662],[-143.5,-11.03984],[-143,-11.24917],[-142.5,-11.46435],[-142,-11.68514],[-141.5,-11.91128],[-141,-12.14254],[-140.5,-12.37865],[-140,-12.61938],[-139.5,-12.86447],[-139,-13.11368],[-138.5,-13.36676],[-138,-13.62349],[-137.5,-13.88362],[-137,-14.14692],[-136.5,-14.41318],[-136,-14.68218],[-135.5,-14.9537],[-135,-15.22754],[-134.5,-15.50349],[-134,-15.78138],[-133.5,-16.06101],[-133,-16.3422],[-132.5,-16.62479],[-132,-16.9086],[-131.5,-17.19349],[-131,-17.47929],[-130.5,-17.76587],[-130,-18.05309],[-129.5,-18.34082],[-129,-18.62893],[-128.5,-18.9173],[-128,-19.20582],[-127.5,-19.49439],[-127,-19.7829],[-126.5,-20.07126],[-126,-20.35937],[-125.5,-20.64715],[-125,-20.93453],[-124.5,-21.22142],[-124,-21.50775],[-123.5,-21.79345],[-123,-22.07846],[-122.5,-22.36273],[-122,-22.64619],[-121.5,-22.92879],[-121,-23.21048],[-120.5,-23.49122],[-120,-23.77097],[-119.5,-24.04968],[-119,-24.32731],[-118.5,-24.60384],[-118,-24.87922],[-117.5,-25.15344],[-117,-25.42645],[-116.5,-25.69824],[-116,-25.96878],[-115.5,-26.23804],[-115,-26.50602],[-114.5,-26.77268],[-114,-27.03801],[-113.5,-27.302],[-113,-27.56463],[-112.5,-27.82589],[-112,-28.08577],[-111.5,-28.34425],[-111,-28.60133],[-110.5,-28.85699],[-110,-29.11124],[-109.5,-29.36405],[-109,-29.61543],[-108.5,-29.86538],[-108,-30.11388],[-107.5,-30.36094],[-107,-30.60654],[-106.5,-30.85069],[-106,-31.09339],[-105.5,-31.33463],[-105,-31.57442],[-104.5,-31.81275],[-104,-32.04962],[-103.5,-32.28504],[-103,-32.519],[-102.5,-32.75151],[-102,-32.98256],[-101.60362,-33.19069]]}},{"type":"Feature","id":"+04290617:south:0","properties":{"id":"+04290617","year":429,"month":6,"day":17,"time_tdt":"23:43:27","type":"금환일식","type_code":"A","saros":92,"gamma":-0.53249,"magnitude":0.94751,"greatest":{"lat":-8.55263,"lng":-152.21722},"path_width_km":227.9,"duration":"07m19s","delta_t_seconds":6376.5,"catalog_number":5773,"source":"NASA Five Millennium Canon of Solar Eclipses","source_url":"https://eclipse.gsfc.nasa.gov/SEsearch/SEsearchmap.php?Ecl=%2B04290617","boundary":"south","name":"429-06-17 금환일식"},"geometry":{"type":"LineString","coordinates":[[157.58398,-26.68332],[158,-26.49349],[158.5,-26.26477],[159,-26.03545],[159.5,-25.80553],[160,-25.57505],[160.5,-25.344],[161,-25.11241],[161.5,-24.8803],[162,-24.64769],[162.5,-24.4146],[163,-24.18104],[163.5,-23.94704],[164,-23.71262],[164.5,-23.47781],[165,-23.24263],[165.5,-23.00711],[166,-22.77127],[166.5,-22.53514],[167,-22.29875],[167.5,-22.06213],[168,-21.82532],[168.5,-21.58835],[169,-21.35125],[169.5,-21.11405],[170,-20.87681],[170.5,-20.63955],[171,-20.40232],[171.5,-20.16517],[172,-19.92813],[172.5,-19.69126],[173,-19.45461],[173.5,-19.21822],[174,-18.98215],[174.5,-18.74646],[175,-18.51121],[175.5,-18.27644],[176,-18.04224],[176.5,-17.80867],[177,-17.57578],[177.5,-17.34367],[178,-17.11239],[178.5,-16.88203],[179,-16.65267],[179.5,-16.42439],[180,-16.19728]]}},{"type":"Feature","id":"+04290617:south:1","properties":{"id":"+04290617","year":429,"month":6,"day":17,"time_tdt":"23:43:27","type":"금환일식","type_code":"A","saros":92,"gamma":-0.53249,"magnitude":0.94751,"greatest":{"lat":-8.55263,"lng":-152.21722},"path_width_km":227.9,"duration":"07m19s","delta_t_seconds":6376.5,"catalog_number":5773,"source":"NASA Five Millennium Canon of Solar Eclipses","source_url":"https://eclipse.gsfc.nasa.gov/SEsearch/SEsearchmap.php?Ecl=%2B04290617","boundary":"south","name":"429-06-17 금환일식"},"geometry":{"type":"LineString","coordinates":[[-179.5,-15.97143],[-179,-15.74694],[-178.5,-15.52389],[-178,-15.3024],[-177.5,-15.08257],[-177,-14.86451],[-176.5,-14.64832],[-176,-14.43413],[-175.5,-14.22206],[-175,-14.01224],[-174.5,-13.80478],[-174,-13.59984],[-173.5,-13.39753],[-173,-13.19802],[-172.5,-13.00143],[-172,-12.80794],[-171.5,-12.61768],[-171,-12.43082],[-170.5,-12.24752],[-170,-12.06795],[-169.5,-11.89229],[-169,-11.7207],[-168.5,-11.55337],[-168,-11.39048],[-167.5,-11.23221],[-167,-11.07877],[-166.5,-10.93032],[-166,-10.78708],[-165.5,-10.64923],[-165,-10.51698],[-164.5,-10.39052],[-164,-10.27006],[-163.5,-10.15578],[-163,-10.0479],[-162.5,-9.9466],[-162,-9.85208],[-161.5,-9.76454],[-161,-9.68417],[-160.5,-9.61115],[-160,-9.54565],[-159.5,-9.48786],[-159,-9.43795],[-158.5,-9.39606],[-158,-9.36236],[-157.5,-9.33698],[-157,-9.32006],[-156.5,-9.31171],[-156,-9.31204],[-155.5,-9.32114],[-155,-9.3391],[-154.5,-9.36598],[-154,-9.40183],[-153.5,-9.44668],[-153,-9.50056],[-152.5,-9.56346],[-152,-9.63536],[-151.5,-9.71624],[-151,-9.80604],[-150.5,-9.90469],[-150,-10.01212],[-149.5,-10.12821],[-149,-10.25285],[-148.5,-10.3859],[-148,-10.52722],[-147.5,-10.67664],[-147,-10.83399],[-146.5,-10.99907],[-146,-11.17168],[-145.5,-11.35162],[-145,-11.53865],[-144.5,-11.73256],[-144,-11.93309],[-143.5,-12.14001],[-143,-12.35308],[-142.5,-12.57203],[-142,-12.79661],[-141.5,-13.02657],[-141,-13.26166],[-140.5,-13.5016],[-140,-13.74616],[-139.5,-13.99507],[-139,-14.24808],[-138.5,-14.50496],[-138,-14.76545],[-137.5,-15.02932],[-137,-15.29634],[-136.5,-15.56628],[-136,-15.83893],[-135.5,-16.11406],[-135,-16.39148],[-134.5,-16.67097],[-134,-16.95236],[-133.5,-17.23545],[-133,-17.52006],[-132.5,-17.80603],[-132,-18.09318],[-131.5,-18.38137],[-131,-18.67043],[-130.5,-18.96024],[-130,-19.25064],[-129.5,-19.54151],[-129,-19.83273],[-128.5,-20.12418],[-128,-20.41574],[-127.5,-20.70732],[-127,-20.9988],[-126.5,-21.2901],[-126,-21.58112],[-125.5,-21.87179],[-125,-22.16202],[-124.5,-22.45173],[-124,-22.74086],[-123.5,-23.02933],[-123,-23.3171],[-122.5,-23.60408],[-122,-23.89024],[-121.5,-24.17552],[-121,-24.45987],[-120.5,-24.74325],[-120,-25.02561],[-119.5,-25.30692],[-119,-25.58713],[-118.5,-25.86622],[-118,-26.14415],[-117.5,-26.42089],[-117,-26.69641],[-116.5,-26.9707],[-116,-27.24372],[-115.5,-27.51545],[-115,-27.78587],[-114.5,-28.05497],[-114,-28.32273],[-113.5,-28.58913],[-113,-28.85416],[-112.5,-29.11781],[-112,-29.38006],[-111.5,-29.6409],[-111,-29.90033],[-110.5,-30.15833],[-110,-30.4149],[-109.5,-30.67003],[-109,-30.92372],[-108.5,-31.17596],[-108,-31.42674],[-107.5,-31.67607],[-107,-31.92393],[-106.5,-32.17033],[-106,-32.41527],[-105.5,-32.65874],[-105,-32.90075],[-104.5,-33.14128],[-104,-33.38035],[-103.5,-33.61796],[-103,-33.85408],[-102.5,-34.08877],[-102.125,-34.26381]]}},{"type":"Feature","id":"+04291212:north:0","properties":{"id":"+04291212","year":429,"month":12,"day":12,"time_tdt":"05:50:23","type":"개기일식","type_code":"T","saros":97,"gamma":0.86204,"magnitude":1.03558,"greatest":{"lat":36.40839,"lng":116.24756},"path_width_km":237.1,"duration":"03m02s","delta_t_seconds":6371.7,"catalog_number":5774,"source":"NASA Five Millennium Canon of Solar Eclipses","source_url":"https://eclipse.gsfc.nasa.gov/SEsearch/SEsearchmap.php?Ecl=%2B04291212","boundary":"north","name":"429-12-12 개기일식"},"geometry":{"type":"LineString","coordinates":[[74.2168,51.57542],[74.5,51.43131],[75,51.17704],[75.5,50.92302],[76,50.66927],[76.5,50.41584],[77,50.16277],[77.5,49.91011],[78,49.65789],[78.5,49.40616],[79,49.15497],[79.5,48.90437],[80,48.6544],[80.5,48.40511],[81,48.15656],[81.5,47.9088],[82,47.66188],[82.5,47.41586],[83,47.1708],[83.5,46.92676],[84,46.68379],[84.5,46.44197],[85,46.20135],[85.5,45.962],[86,45.72399],[86.5,45.4874],[87,45.25228],[87.5,45.01872],[88,44.78678],[88.5,44.55656],[89,44.32813],[89.5,44.10156],[90,43.87695],[90.5,43.65438],[91,43.43394],[91.5,43.21571],[92,42.9998],[92.5,42.78629],[93,42.57528],[93.5,42.36687],[94,42.16117],[94.5,41.95826],[95,41.75826],[95.5,41.56128],[96,41.36742],[96.5,41.17679],[97,40.98951],[97.5,40.80568],[98,40.62542],[98.5,40.44886],[99,40.2761],[99.5,40.10727],[100,39.94248],[100.5,39.78185],[101,39.62551],[101.5,39.47358],[102,39.32618],[102.5,39.18343],[103,39.04545],[103.5,38.91236],[104,38.78428],[104.5,38.66134],[105,38.54364],[105.5,38.4313],[106,38.32445],[106.5,38.22318],[107,38.1276],[107.5,38.03783],[108,37.95396],[108.5,37.8761],[109,37.80433],[109.5,37.73875],[110,37.67943],[110.5,37.62647],[111,37.57993],[111.5,37.53989],[112,37.5064],[112.5,37.47952],[113,37.45931],[113.5,37.4458],[114,37.43904],[114.5,37.43904],[115,37.44583],[115.5,37.45943],[116,37.47984],[116.5,37.50706],[117,37.54108],[117.5,37.58189],[118,37.62945],[118.5,37.68375],[119,37.74473],[119.5,37.81235],[120,37.88656],[120.5,37.9673],[121,38.0545],[121.5,38.14808],[122,38.24797],[122.5,38.35408],[123,38.46631],[123.5,38.58458],[124,38.70877],[124.5,38.83879],[125,38.97451],[125.5,39.11583],[126,39.26263],[126.5,39.41479],[127,39.57218],[127.5,39.73468],[128,39.90215],[128.5,40.07447],[129,40.25151],[129.5,40.43313],[130,40.6192],[130.5,40.80959],[131,41.00416],[131.5,41.20278],[132,41.40532],[132.5,41.61165],[133,41.82163],[133.5,42.03513],[134,42.25203],[134.5,42.4722],[135,42.6955],[135.5,42.92183],[136,43.15104],[136.5,43.38304],[137,43.61769],[137.5,43.85488],[138,44.0945],[138.5,44.33644],[139,44.58058],[139.5,44.82683],[140,45.07507],[140.5,45.32521],[141,45.57714],[141.5,45.83078],[142,46.08602],[142.5,46.34278],[143,46.60096],[143.5,46.86048],[144,47.12125],[144.5,47.3832],[145,47.64623],[145.5,47.91029],[146,48.17528],[146.5,48.44114],[147,48.7078],[147.5,48.97518],[148,49.24322],[148.5,49.51186],[149,49.78103],[149.5,50.05068],[150,50.32074],[150.5,50.59115],[151,50.86186],[151.5,51.13282],[152,51.40397],[152.5,51.67526],[153,51.94665],[153.5,52.21809],[154,52.48952],[154.5,52.76091],[155,53.03221],[155.5,53.30338],[156,53.57437],[156.5,53.84515],[157,54.11568],[157.5,54.38592],[158,54.65583],[158.11914,54.7201]]}},{"type":"Feature","id":"+04291212:center:0","properties":{"id":"+04291212","year":429,"month":12,"day":12,"time_tdt":"05:50:23","type":"개기일식","type_code":"T","saros":97,"gamma":0.86204,"magnitude":1.03558,"greatest":{"lat":36.40839,"lng":116.24756},"path_width_km":237.1,"duration":"03m02s","delta_t_seconds":6371.7,"catalog_number":5774,"source":"NASA Five Millennium Canon of Solar Eclipses","source_url":"https://eclipse.gsfc.nasa.gov/SEsearch/SEsearchmap.php?Ecl=%2B04291212","boundary":"center","name":"429-12-12 개기일식"},"geometry":{"type":"LineString","coordinates":[[73.78594,50.94383],[74,50.80044],[74.5,50.54413],[75,50.28798],[75.5,50.03203],[76,49.77633],[76.5,49.5209],[77,49.2658],[77.5,49.01106],[78,48.75674],[78.5,48.50286],[79,48.24949],[79.5,47.99667],[80,47.74445],[80.5,47.49287],[81,47.242],[81.5,46.99188],[82,46.74257],[82.5,46.49413],[83,46.24661],[83.5,46.00008],[84,45.7546],[84.5,45.51022],[85,45.26702],[85.5,45.02506],[86,44.78442],[86.5,44.54515],[87,44.30734],[87.5,44.07106],[88,43.83639],[88.5,43.6034],[89,43.37218],[89.5,43.14281],[90,42.91537],[90.5,42.68996],[91,42.46665],[91.5,42.24555],[92,42.02675],[92.5,41.81034],[93,41.59641],[93.5,41.38508],[94,41.17645],[94.5,40.97061],[95,40.76768],[95.5,40.56775],[96,40.37096],[96.5,40.17739],[97,39.98718],[97.5,39.80043],[98,39.61726],[98.5,39.4378],[99,39.26215],[99.5,39.09045],[100,38.92281],[100.5,38.75936],[101,38.60022],[101.5,38.44552],[102,38.29537],[102.5,38.14991],[103,38.00925],[103.5,37.87353],[104,37.74286],[104.5,37.61737],[105,37.49717],[105.5,37.38238],[106,37.27313],[106.5,37.16952],[107,37.07167],[107.5,36.97968],[108,36.89366],[108.5,36.81371],[109,36.73993],[109.5,36.6724],[110,36.61123],[110.5,36.55648],[111,36.50824],[111.5,36.46658],[112,36.43156],[112.5,36.40324],[113,36.38168],[113.5,36.36691],[114,36.35898],[114.5,36.35792],[115,36.36374],[115.5,36.37647],[116,36.39611],[116.5,36.42267],[117,36.45612],[117.5,36.49647],[118,36.54368],[118.5,36.59772],[119,36.65855],[119.5,36.72613],[120,36.8004],[120.5,36.8813],[121,36.96877],[121.5,37.06272],[122,37.16308],[122.5,37.26976],[123,37.38266],[123.5,37.50169],[124,37.62674],[124.5,37.75771],[125,37.89447],[125.5,38.03693],[126,38.18494],[126.5,38.3384],[127,38.49717],[127.5,38.66112],[128,38.83013],[128.5,39.00406],[129,39.18277],[129.5,39.36613],[130,39.55401],[130.5,39.74626],[131,39.94276],[131.5,40.14336],[132,40.34792],[132.5,40.55632],[133,40.76842],[133.5,40.98408],[134,41.20318],[134.5,41.42558],[135,41.65114],[135.5,41.87976],[136,42.1113],[136.5,42.34563],[137,42.58264],[137.5,42.82221],[138,43.06423],[138.5,43.30857],[139,43.55512],[139.5,43.80379],[140,44.05446],[140.5,44.30702],[141,44.56138],[141.5,44.81744],[142,45.07511],[142.5,45.33428],[143,45.59486],[143.5,45.85678],[144,46.11994],[144.5,46.38426],[145,46.64965],[145.5,46.91605],[146,47.18336],[146.5,47.45152],[147,47.72046],[147.5,47.99011],[148,48.26039],[148.5,48.53124],[149,48.80261],[149.5,49.07442],[150,49.34661],[150.5,49.61913],[151,49.89193],[151.5,50.16494],[152,50.43812],[152.5,50.71141],[153,50.98476],[153.5,51.25813],[154,51.53147],[154.5,51.80473],[155,52.07787],[155.5,52.35084],[156,52.62361],[156.5,52.89614],[157,53.16838],[157.5,53.44029],[158,53.71185],[158.5,53.98301],[158.63675,54.14401]]}},{"type":"Feature","id":"+04291212:south:0","properties":{"id":"+04291212","year":429,"month":12,"day":12,"time_tdt":"05:50:23","type":"개기일식","type_code":"T","saros":97,"gamma":0.86204,"magnitude":1.03558,"greatest":{"lat":36.40839,"lng":116.24756},"path_width_km":237.1,"duration":"03m02s","delta_t_seconds":6371.7,"catalog_number":5774,"source":"NASA Five Millennium Canon of Solar Eclipses","source_url":"https://eclipse.gsfc.nasa.gov/SEsearch/SEsearchmap.php?Ecl=%2B04291212","boundary":"south","name":"429-12-12 개기일식"},"geometry":{"type":"LineString","coordinates":[[73.5,50.19423],[74,49.93585],[74.5,49.67756],[75,49.4194],[75.5,49.1614],[76,48.90361],[76.5,48.64606],[77,48.3888],[77.5,48.13187],[78,47.87531],[78.5,47.61918],[79,47.36351],[79.5,47.10836],[80,46.85378],[80.5,46.59981],[81,46.34651],[81.5,46.09393],[82,45.84213],[82.5,45.59117],[83,45.3411],[83.5,45.09199],[84,44.84389],[84.5,44.59688],[85,44.35102],[85.5,44.10637],[86,43.863],[86.5,43.621],[87,43.38042],[87.5,43.14135],[88,42.90387],[88.5,42.66805],[89,42.43398],[89.5,42.20174],[90,41.97142],[90.5,41.7431],[91,41.51688],[91.5,41.29285],[92,41.07111],[92.5,40.85175],[93,40.63487],[93.5,40.42058],[94,40.20897],[94.5,40.00017],[95,39.79426],[95.5,39.59137],[96,39.3916],[96.5,39.19508],[97,39.00191],[97.5,38.81222],[98,38.62612],[98.5,38.44374],[99,38.26519],[99.5,38.09061],[100,37.92011],[100.5,37.75382],[101,37.59187],[101.5,37.43439],[102,37.28149],[102.5,37.13332],[103,36.98999],[103.5,36.85163],[104,36.71837],[104.5,36.59033],[105,36.46763],[105.5,36.3504],[106,36.23876],[106.5,36.13282],[107,36.03269],[107.5,35.93849],[108,35.85033],[108.5,35.7683],[109,35.69251],[109.5,35.62306],[110,35.56003],[110.5,35.50351],[111,35.45358],[111.5,35.4103],[112,35.37376],[112.5,35.34401],[113,35.3211],[113.5,35.30508],[114,35.29599],[114.5,35.29386],[115,35.29872],[115.5,35.31059],[116,35.32946],[116.5,35.35535],[117,35.38824],[117.5,35.42813],[118,35.47498],[118.5,35.52877],[119,35.58946],[119.5,35.65699],[120,35.73132],[120.5,35.81239],[121,35.90012],[121.5,35.99444],[122,36.09527],[122.5,36.20252],[123,36.31609],[123.5,36.43589],[124,36.56181],[124.5,36.69373],[125,36.83155],[125.5,36.97514],[126,37.12438],[126.5,37.27915],[127,37.43932],[127.5,37.60475],[128,37.77531],[128.5,37.95086],[129,38.13127],[129.5,38.3164],[130,38.50611],[130.5,38.70027],[131,38.89872],[131.5,39.10133],[132,39.30796],[132.5,39.51848],[133,39.73274],[133.5,39.95061],[134,40.17195],[134.5,40.39664],[135,40.62453],[135.5,40.8555],[136,41.08942],[136.5,41.32616],[137,41.56561],[137.5,41.80763],[138,42.05211],[138.5,42.29894],[139,42.54799],[139.5,42.79917],[140,43.05235],[140.5,43.30744],[141,43.56432],[141.5,43.82291],[142,44.08309],[142.5,44.34479],[143,44.60789],[143.5,44.87231],[144,45.13797],[144.5,45.40478],[145,45.67265],[145.5,45.94151],[146,46.21128],[146.5,46.48187],[147,46.75323],[147.5,47.02527],[148,47.29793],[148.5,47.57114],[149,47.84483],[149.5,48.11895],[150,48.39344],[150.5,48.66822],[151,48.94326],[151.5,49.21848],[152,49.49384],[152.5,49.76929],[153,50.04477],[153.5,50.32024],[154,50.59573],[154.5,50.87096],[155,51.14611],[155.5,51.42107],[156,51.69579],[156.5,51.97024],[157,52.24437],[157.5,52.51816],[158,52.79155],[158.5,53.06451],[159,53.33702],[159.25,53.47309]]}}],"attribution":"Eclipse Predictions by Fred Espenak and Jean Meeus (NASA's GSFC)","generated_at":"2026-09-23T01:44:50.677Z"}
