{"type":"FeatureCollection","year":438,"events":[{"id":"+04380608","year":438,"month":6,"day":8,"time_tdt":"19:25:47","type":"금환일식","type_code":"A","saros":73,"gamma":-0.95576,"magnitude":0.93879,"greatest":{"lat":-48.94953,"lng":-70.30377},"path_width_km":783.3,"duration":"06m17s","delta_t_seconds":6287.7,"catalog_number":5794,"source":"NASA Five Millennium Canon of Solar Eclipses","source_url":"https://eclipse.gsfc.nasa.gov/SEsearch/SEsearchmap.php?Ecl=%2B04380608"},{"id":"+04381203","year":438,"month":12,"day":3,"time_tdt":"04:50:38","type":"개기일식","type_code":"T","saros":78,"gamma":0.49815,"magnitude":1.03567,"greatest":{"lat":6.73374,"lng":138.50714},"path_width_km":137.9,"duration":"03m27s","delta_t_seconds":6282.9,"catalog_number":5795,"source":"NASA Five Millennium Canon of Solar Eclipses","source_url":"https://eclipse.gsfc.nasa.gov/SEsearch/SEsearchmap.php?Ecl=%2B04381203"}],"features":[{"type":"Feature","id":"+04380608:north:0","properties":{"id":"+04380608","year":438,"month":6,"day":8,"time_tdt":"19:25:47","type":"금환일식","type_code":"A","saros":73,"gamma":-0.95576,"magnitude":0.93879,"greatest":{"lat":-48.94953,"lng":-70.30377},"path_width_km":783.3,"duration":"06m17s","delta_t_seconds":6287.7,"catalog_number":5794,"source":"NASA Five Millennium Canon of Solar Eclipses","source_url":"https://eclipse.gsfc.nasa.gov/SEsearch/SEsearchmap.php?Ecl=%2B04380608","boundary":"north","name":"438-06-08 금환일식"},"geometry":{"type":"LineString","coordinates":[[-98.33789,-65.30652],[-98,-64.93856],[-97.5,-64.403],[-97,-63.87713],[-96.5,-63.36004],[-96,-62.851],[-95.5,-62.34942],[-95,-61.85479],[-94.5,-61.3667],[-94,-60.88482],[-93.5,-60.40887],[-93,-59.93863],[-92.5,-59.47393],[-92,-59.01463],[-91.5,-58.56065],[-91,-58.1119],[-90.5,-57.66837],[-90,-57.23003],[-89.5,-56.7969],[-89,-56.36903],[-88.5,-55.94646],[-88,-55.52926],[-87.5,-55.11755],[-87,-54.71141],[-86.5,-54.31097],[-86,-53.91637],[-85.5,-53.52775],[-85,-53.14528],[-84.5,-52.76912],[-84,-52.39945],[-83.5,-52.03646],[-83,-51.68032],[-82.5,-51.33125],[-82,-50.98944],[-81.5,-50.65509],[-81,-50.32841],[-80.5,-50.0096],[-80,-49.69887],[-79.5,-49.3964],[-79,-49.10241],[-78.5,-48.81708],[-78,-48.54059],[-77.5,-48.27312],[-77,-48.01485],[-76.5,-47.76592],[-76,-47.52648],[-75.5,-47.29667],[-75,-47.07661],[-74.5,-46.8664],[-74,-46.66615],[-73.5,-46.47592],[-73,-46.29579],[-72.5,-46.12579],[-72,-45.96597],[-71.5,-45.81634],[-71,-45.6769],[-70.5,-45.54764],[-70,-45.42853],[-69.5,-45.31952],[-69,-45.22057],[-68.5,-45.13159],[-68,-45.05251],[-67.5,-44.98323],[-67,-44.92366],[-66.5,-44.87366],[-66,-44.83311],[-65.5,-44.80189],[-65,-44.77985],[-64.5,-44.76685],[-64,-44.76272],[-63.5,-44.7673],[-63,-44.78044],[-62.5,-44.80197],[-62,-44.83172],[-61.5,-44.8695],[-61,-44.91516],[-60.5,-44.9685],[-60,-45.02936],[-59.5,-45.09757],[-59,-45.17294],[-58.5,-45.25529],[-58,-45.34447],[-57.5,-45.4403],[-57,-45.5426],[-56.5,-45.65122],[-56,-45.76599],[-55.5,-45.88674],[-55,-46.01333],[-54.5,-46.14559],[-54,-46.28337],[-53.5,-46.42653],[-53,-46.57493],[-52.5,-46.72842],[-52,-46.88686],[-51.5,-47.05013],[-51,-47.21809],[-50.5,-47.39063],[-50,-47.56761],[-49.5,-47.74892],[-49,-47.93445],[-48.5,-48.12409],[-48,-48.31773],[-47.5,-48.51527],[-47,-48.71661],[-46.5,-48.92166],[-46,-49.13032],[-45.5,-49.3425],[-45,-49.55813],[-44.5,-49.77712],[-44,-49.9994],[-43.5,-50.22488],[-43,-50.4535],[-42.5,-50.6852],[-42,-50.9199],[-41.5,-51.15754],[-41,-51.39807],[-40.5,-51.64144],[-40,-51.88758],[-39.63672,-52.06814]]}},{"type":"Feature","id":"+04380608:center:0","properties":{"id":"+04380608","year":438,"month":6,"day":8,"time_tdt":"19:25:47","type":"금환일식","type_code":"A","saros":73,"gamma":-0.95576,"magnitude":0.93879,"greatest":{"lat":-48.94953,"lng":-70.30377},"path_width_km":783.3,"duration":"06m17s","delta_t_seconds":6287.7,"catalog_number":5794,"source":"NASA Five Millennium Canon of Solar Eclipses","source_url":"https://eclipse.gsfc.nasa.gov/SEsearch/SEsearchmap.php?Ecl=%2B04380608","boundary":"center","name":"438-06-08 금환일식"},"geometry":{"type":"LineString","coordinates":[[-89.52644,-66.47771],[-91.5,-65.64514],[-91,-64.86748],[-90.5,-64.14597],[-90,-63.46731],[-89.5,-62.82293],[-89,-62.20701],[-88.5,-61.61536],[-88,-61.0449],[-87.5,-60.4933],[-87,-59.95877],[-86.5,-59.43991],[-86,-58.93559],[-85.5,-58.44496],[-85,-57.9673],[-84.5,-57.50207],[-84,-57.04883],[-83.5,-56.60723],[-83,-56.177],[-82.5,-55.75795],[-82,-55.34992],[-81.5,-54.95282],[-81,-54.56657],[-80.5,-54.19115],[-80,-53.82653],[-79.5,-53.47274],[-79,-53.1298],[-78.5,-52.79776],[-78,-52.47665],[-77.5,-52.16653],[-77,-51.86747],[-76.5,-51.57952],[-76,-51.30274],[-75.5,-51.03718],[-75,-50.78291],[-74.5,-50.53995],[-74,-50.30835],[-73.5,-50.08814],[-73,-49.87932],[-72.5,-49.68191],[-72,-49.49591],[-71.5,-49.32129],[-71,-49.15802],[-70.5,-49.00606],[-70,-48.86537],[-69.5,-48.73587],[-69,-48.61748],[-68.5,-48.51012],[-68,-48.41368],[-67.5,-48.32805],[-67,-48.25312],[-66.5,-48.18874],[-66,-48.13478],[-65.5,-48.0911],[-65,-48.05753],[-64.5,-48.03393],[-64,-48.02011],[-63.5,-48.01591],[-63,-48.02117],[-62.5,-48.03569],[-62,-48.05929],[-61.5,-48.0918],[-61,-48.13304],[-60.5,-48.18281],[-60,-48.24093],[-59.5,-48.30723],[-59,-48.38151],[-58.5,-48.4636],[-58,-48.55332],[-57.5,-48.65049],[-57,-48.75494],[-56.5,-48.8665],[-56,-48.985],[-55.5,-49.11028],[-55,-49.24217],[-54.5,-49.38053],[-54,-49.52521],[-53.5,-49.67604],[-53,-49.8329],[-52.5,-49.99565],[-52,-50.16415],[-51.5,-50.33827],[-51,-50.5179],[-50.5,-50.7029],[-50,-50.89318],[-49.5,-51.08862],[-49,-51.28912],[-48.5,-51.49459],[-48,-51.70492],[-47.5,-51.92003],[-47,-52.13985],[-46.5,-52.36429],[-46,-52.59328],[-45.5,-52.82676],[-45,-53.06468],[-44.5,-53.30696],[-44,-53.55358],[-43.5,-53.80447],[-43,-54.05962],[-42.5,-54.31899],[-42,-54.58255],[-41.81975,-54.58094]]}},{"type":"Feature","id":"+04380608:south:0","properties":{"id":"+04380608","year":438,"month":6,"day":8,"time_tdt":"19:25:47","type":"금환일식","type_code":"A","saros":73,"gamma":-0.95576,"magnitude":0.93879,"greatest":{"lat":-48.94953,"lng":-70.30377},"path_width_km":783.3,"duration":"06m17s","delta_t_seconds":6287.7,"catalog_number":5794,"source":"NASA Five Millennium Canon of Solar Eclipses","source_url":"https://eclipse.gsfc.nasa.gov/SEsearch/SEsearchmap.php?Ecl=%2B04380608","boundary":"south","name":"438-06-08 금환일식"},"geometry":{"type":"LineString","coordinates":[[-83.05469,-66.65128],[-83,-66.27331],[-82.5,-64.54378],[-82,-63.45827],[-81.5,-62.57863],[-81,-61.81458],[-80.5,-61.12858],[-80,-60.50081],[-79.5,-59.91937],[-79,-59.37644],[-78.5,-58.86665],[-78,-58.38608],[-77.5,-57.93183],[-77,-57.50168],[-76.5,-57.09388],[-76,-56.70706],[-75.5,-56.34007],[-75,-55.99202],[-74.5,-55.66214],[-74,-55.34978],[-73.5,-55.05439],[-73,-54.77549],[-72.5,-54.51268],[-72,-54.26557],[-71.5,-54.03384],[-71,-53.81717],[-70.5,-53.61527],[-70,-53.42789],[-69.5,-53.25476],[-69,-53.09564],[-68.5,-52.95029],[-68,-52.81847],[-67.5,-52.69995],[-67,-52.59452],[-66.5,-52.50193],[-66,-52.42198],[-65.5,-52.35442],[-65,-52.29905],[-64.5,-52.25563],[-64,-52.22395],[-63.5,-52.20378],[-63,-52.19491],[-62.5,-52.19712],[-62,-52.2102],[-61.5,-52.23392],[-61,-52.26809],[-60.5,-52.31248],[-60,-52.36692],[-59.5,-52.43118],[-59,-52.50509],[-58.5,-52.58845],[-58,-52.68107],[-57.5,-52.78279],[-57,-52.89344],[-56.5,-53.01284],[-56,-53.14085],[-55.5,-53.27731],[-55,-53.42209],[-54.5,-53.57505],[-54,-53.73608],[-53.5,-53.90506],[-53,-54.08189],[-52.5,-54.26647],[-52,-54.45873],[-51.5,-54.65859],[-51,-54.86601],[-50.5,-55.08093],[-50,-55.30334],[-49.5,-55.53322],[-49,-55.77057],[-48.5,-56.01541],[-48,-56.2678],[-47.5,-56.52779],[-47,-56.79547],[-46.5,-57.07096],[-46,-57.35442],[-45.5,-57.64602]]}},{"type":"Feature","id":"+04381203:north:0","properties":{"id":"+04381203","year":438,"month":12,"day":3,"time_tdt":"04:50:38","type":"개기일식","type_code":"T","saros":78,"gamma":0.49815,"magnitude":1.03567,"greatest":{"lat":6.73374,"lng":138.50714},"path_width_km":137.9,"duration":"03m27s","delta_t_seconds":6282.9,"catalog_number":5795,"source":"NASA Five Millennium Canon of Solar Eclipses","source_url":"https://eclipse.gsfc.nasa.gov/SEsearch/SEsearchmap.php?Ecl=%2B04381203","boundary":"north","name":"438-12-03 개기일식"},"geometry":{"type":"LineString","coordinates":[[84.38086,39.57014],[84.5,39.51801],[85,39.29797],[85.5,39.07591],[86,38.85182],[86.5,38.62568],[87,38.39748],[87.5,38.16721],[88,37.93484],[88.5,37.70038],[89,37.46381],[89.5,37.2251],[90,36.98426],[90.5,36.74127],[91,36.49611],[91.5,36.24878],[92,35.99926],[92.5,35.74753],[93,35.4936],[93.5,35.23745],[94,34.97907],[94.5,34.71844],[95,34.45556],[95.5,34.19042],[96,33.92302],[96.5,33.65333],[97,33.38136],[97.5,33.10709],[98,32.83053],[98.5,32.55167],[99,32.27049],[99.5,31.98701],[100,31.70121],[100.5,31.4131],[101,31.12267],[101.5,30.82993],[102,30.53488],[102.5,30.23752],[103,29.93786],[103.5,29.6359],[104,29.33166],[104.5,29.02515],[105,28.71637],[105.5,28.40535],[106,28.0921],[106.5,27.77664],[107,27.45899],[107.5,27.13918],[108,26.81724],[108.5,26.4932],[109,26.16709],[109.5,25.83895],[110,25.50883],[110.5,25.17677],[111,24.84282],[111.5,24.50704],[112,24.16947],[112.5,23.8302],[113,23.48928],[113.5,23.1468],[114,22.80282],[114.5,22.45744],[115,22.11075],[115.5,21.76284],[116,21.41381],[116.5,21.06379],[117,20.71288],[117.5,20.36121],[118,20.00891],[118.5,19.65611],[119,19.30297],[119.5,18.94963],[120,18.59625],[120.5,18.243],[121,17.89006],[121.5,17.53761],[122,17.18583],[122.5,16.83492],[123,16.48509],[123.5,16.13653],[124,15.78948],[124.5,15.44414],[125,15.10074],[125.5,14.75951],[126,14.42069],[126.5,14.08452],[127,13.75122],[127.5,13.42106],[128,13.09427],[128.5,12.77109],[129,12.45176],[129.5,12.13654],[130,11.82566],[130.5,11.51936],[131,11.21787],[131.5,10.92141],[132,10.63022],[132.5,10.3445],[133,10.06446],[133.5,9.79031],[134,9.52224],[134.5,9.26042],[135,9.00502],[135.5,8.75621],[136,8.51414],[136.5,8.27895],[137,8.05075],[137.5,7.82967],[138,7.6158],[138.5,7.40924],[139,7.21007],[139.5,7.01834],[140,6.83412],[140.5,6.65744],[141,6.48834],[141.5,6.32684],[142,6.17295],[142.5,6.02667],[143,5.88798],[143.5,5.75686],[144,5.6333],[144.5,5.51724],[145,5.40866],[145.5,5.30748],[146,5.21367],[146.5,5.12714],[147,5.04783],[147.5,4.97566],[148,4.91056],[148.5,4.85243],[149,4.80118],[149.5,4.75673],[150,4.71897],[150.5,4.68781],[151,4.66314],[151.5,4.64486],[152,4.63287],[152.5,4.62705],[153,4.6273],[153.5,4.6335],[154,4.64556],[154.5,4.66335],[155,4.68677],[155.5,4.7157],[156,4.75004],[156.5,4.78967],[157,4.83448],[157.5,4.88437],[158,4.93922],[158.5,4.99892],[159,5.06337],[159.5,5.13246],[160,5.20609],[160.5,5.28414],[161,5.36653],[161.5,5.45314],[162,5.54387],[162.5,5.63862],[163,5.73731],[163.5,5.83982],[164,5.94607],[164.5,6.05595],[165,6.16939],[165.5,6.28628],[166,6.40654],[166.5,6.53007],[167,6.6568],[167.5,6.78664],[168,6.9195],[168.5,7.05531],[169,7.19397],[169.5,7.33542],[170,7.47957],[170.5,7.62635],[171,7.77569],[171.5,7.92751],[172,8.08173],[172.5,8.2383],[173,8.39713],[173.5,8.55817],[174,8.72135],[174.5,8.88659],[175,9.05385],[175.5,9.22305],[176,9.39413],[176.5,9.56704],[177,9.74172],[177.5,9.91811],[178,10.09615],[178.5,10.2758],[179,10.45698],[179.5,10.63967],[180,10.82379]]}},{"type":"Feature","id":"+04381203:north:1","properties":{"id":"+04381203","year":438,"month":12,"day":3,"time_tdt":"04:50:38","type":"개기일식","type_code":"T","saros":78,"gamma":0.49815,"magnitude":1.03567,"greatest":{"lat":6.73374,"lng":138.50714},"path_width_km":137.9,"duration":"03m27s","delta_t_seconds":6282.9,"catalog_number":5795,"source":"NASA Five Millennium Canon of Solar Eclipses","source_url":"https://eclipse.gsfc.nasa.gov/SEsearch/SEsearchmap.php?Ecl=%2B04381203","boundary":"north","name":"438-12-03 개기일식"},"geometry":{"type":"LineString","coordinates":[[-179.5,11.00931],[-179,11.19617],[-178.5,11.38433],[-178,11.57374],[-177.5,11.76435],[-177,11.95612],[-176.5,12.14901],[-176,12.34297],[-175.5,12.53796],[-175,12.73394],[-174.5,12.93087],[-174,13.12871],[-173.5,13.32742],[-173,13.52697],[-172.5,13.72732],[-172,13.92844],[-171.5,14.13028],[-171,14.33282],[-170.5,14.53602],[-170,14.73986],[-169.5,14.94429],[-169,15.14929],[-168.5,15.35482],[-168,15.56087],[-167.5,15.76739],[-167.24805,15.87163]]}},{"type":"Feature","id":"+04381203:center:0","properties":{"id":"+04381203","year":438,"month":12,"day":3,"time_tdt":"04:50:38","type":"개기일식","type_code":"T","saros":78,"gamma":0.49815,"magnitude":1.03567,"greatest":{"lat":6.73374,"lng":138.50714},"path_width_km":137.9,"duration":"03m27s","delta_t_seconds":6282.9,"catalog_number":5795,"source":"NASA Five Millennium Canon of Solar Eclipses","source_url":"https://eclipse.gsfc.nasa.gov/SEsearch/SEsearchmap.php?Ecl=%2B04381203","boundary":"center","name":"438-12-03 개기일식"},"geometry":{"type":"LineString","coordinates":[[84.22897,39.27639],[84.5,39.14573],[85,38.92271],[85.5,38.69763],[86,38.4705],[86.5,38.24128],[87,38.00998],[87.5,37.77657],[88,37.54104],[88.5,37.30338],[89,37.06358],[89.5,36.82161],[90,36.57748],[90.5,36.33117],[91,36.08265],[91.5,35.83193],[92,35.57899],[92.5,35.32382],[93,35.06641],[93.5,34.80674],[94,34.5448],[94.5,34.28059],[95,34.0141],[95.5,33.74531],[96,33.47421],[96.5,33.20081],[97,32.92509],[97.5,32.64704],[98,32.36666],[98.5,32.08395],[99,31.79889],[99.5,31.5115],[100,31.22175],[100.5,30.92966],[101,30.63523],[101.5,30.33844],[102,30.03932],[102.5,29.73786],[103,29.43408],[103.5,29.12796],[104,28.81954],[104.5,28.50882],[105,28.19581],[105.5,27.88053],[106,27.563],[106.5,27.24324],[107,26.92127],[107.5,26.59713],[108,26.27084],[108.5,25.94243],[109,25.61195],[109.5,25.27943],[110,24.94492],[110.5,24.60847],[111,24.27013],[111.5,23.92996],[112,23.58802],[112.5,23.24437],[113,22.8991],[113.5,22.55228],[114,22.20399],[114.5,21.85433],[115,21.50339],[115.5,21.15126],[116,20.79807],[116.5,20.44393],[117,20.08895],[117.5,19.73327],[118,19.37703],[118.5,19.02037],[119,18.66344],[119.5,18.3064],[120,17.94941],[120.5,17.59266],[121,17.23632],[121.5,16.88058],[122,16.52563],[122.5,16.17169],[123,15.81895],[123.5,15.46763],[124,15.11795],[124.5,14.77015],[125,14.42444],[125.5,14.08107],[126,13.74028],[126.5,13.40231],[127,13.06739],[127.5,12.73579],[128,12.40773],[128.5,12.08348],[129,11.76328],[129.5,11.44736],[130,11.13597],[130.5,10.82935],[131,10.52772],[131.5,10.23132],[132,9.94036],[132.5,9.65505],[133,9.3756],[133.5,9.1022],[134,8.83504],[134.5,8.5743],[135,8.32013],[135.5,8.0727],[136,7.83214],[136.5,7.59859],[137,7.37216],[137.5,7.15297],[138,6.9411],[138.5,6.73664],[139,6.53965],[139.5,6.35021],[140,6.16835],[140.5,5.9941],[141,5.8275],[141.5,5.66856],[142,5.51728],[142.5,5.37365],[143,5.23766],[143.5,5.10929],[144,4.98849],[144.5,4.87523],[145,4.76946],[145.5,4.67112],[146,4.58015],[146.5,4.49649],[147,4.42005],[147.5,4.35077],[148,4.28855],[148.5,4.2333],[149,4.18495],[149.5,4.14338],[150,4.10851],[150.5,4.08023],[151,4.05844],[151.5,4.04304],[152,4.03392],[152.5,4.03098],[153,4.03409],[153.5,4.04316],[154,4.05807],[154.5,4.07872],[155,4.10499],[155.5,4.13677],[156,4.17395],[156.5,4.21642],[157,4.26407],[157.5,4.31679],[158,4.37448],[158.5,4.43702],[159,4.5043],[159.5,4.57623],[160,4.65269],[160.5,4.73358],[161,4.8188],[161.5,4.90825],[162,5.00182],[162.5,5.09942],[163,5.20095],[163.5,5.30631],[164,5.41541],[164.5,5.52816],[165,5.64445],[165.5,5.76421],[166,5.88733],[166.5,6.01374],[167,6.14335],[167.5,6.27607],[168,6.41182],[168.5,6.55051],[169,6.69207],[169.5,6.83641],[170,6.98347],[170.5,7.13316],[171,7.2854],[171.5,7.44013],[172,7.59728],[172.5,7.75676],[173,7.91852],[173.5,8.08248],[174,8.24859],[174.5,8.41676],[175,8.58695],[175.5,8.75908],[176,8.93311],[176.5,9.10895],[177,9.28657],[177.5,9.46589],[178,9.64687],[178.5,9.82945],[179,10.01358],[179.5,10.1992],[180,10.38626]]}},{"type":"Feature","id":"+04381203:center:1","properties":{"id":"+04381203","year":438,"month":12,"day":3,"time_tdt":"04:50:38","type":"개기일식","type_code":"T","saros":78,"gamma":0.49815,"magnitude":1.03567,"greatest":{"lat":6.73374,"lng":138.50714},"path_width_km":137.9,"duration":"03m27s","delta_t_seconds":6282.9,"catalog_number":5795,"source":"NASA Five Millennium Canon of Solar Eclipses","source_url":"https://eclipse.gsfc.nasa.gov/SEsearch/SEsearchmap.php?Ecl=%2B04381203","boundary":"center","name":"438-12-03 개기일식"},"geometry":{"type":"LineString","coordinates":[[-179.5,10.57471],[-179,10.7645],[-178.5,10.95559],[-178,11.14792],[-177.5,11.34145],[-177,11.53614],[-176.5,11.73194],[-176,11.92881],[-175.5,12.12671],[-175,12.32559],[-174.5,12.52541],[-174,12.72614],[-173.5,12.92774],[-173,13.13017],[-172.5,13.33339],[-172,13.53736],[-171.5,13.74206],[-171,13.94745],[-170.5,14.15349],[-170,14.36016],[-169.5,14.56741],[-169,14.77522],[-168.5,14.98356],[-168,15.19241],[-167.5,15.40172],[-167.16121,15.54315]]}},{"type":"Feature","id":"+04381203:south:0","properties":{"id":"+04381203","year":438,"month":12,"day":3,"time_tdt":"04:50:38","type":"개기일식","type_code":"T","saros":78,"gamma":0.49815,"magnitude":1.03567,"greatest":{"lat":6.73374,"lng":138.50714},"path_width_km":137.9,"duration":"03m27s","delta_t_seconds":6282.9,"catalog_number":5795,"source":"NASA Five Millennium Canon of Solar Eclipses","source_url":"https://eclipse.gsfc.nasa.gov/SEsearch/SEsearchmap.php?Ecl=%2B04381203","boundary":"south","name":"438-12-03 개기일식"},"geometry":{"type":"LineString","coordinates":[[84.05469,38.97259],[84.5,38.77302],[85,38.54698],[85.5,38.31887],[86,38.08865],[86.5,37.85633],[87,37.62189],[87.5,37.38532],[88,37.14659],[88.5,36.9057],[89,36.66263],[89.5,36.41738],[90,36.16992],[90.5,35.92025],[91,35.66834],[91.5,35.4142],[92,35.1578],[92.5,34.89914],[93,34.6382],[93.5,34.37497],[94,34.10945],[94.5,33.84161],[95,33.57146],[95.5,33.29898],[96,33.02416],[96.5,32.747],[97,32.46748],[97.5,32.1856],[98,31.90137],[98.5,31.61476],[99,31.32577],[99.5,31.03442],[100,30.74068],[100.5,30.44456],[101,30.14607],[101.5,29.8452],[102,29.54196],[102.5,29.23636],[103,28.92839],[103.5,28.61808],[104,28.30542],[104.5,27.99044],[105,27.67315],[105.5,27.35356],[106,27.03171],[106.5,26.7076],[107,26.38127],[107.5,26.05274],[108,25.72206],[108.5,25.38924],[109,25.05435],[109.5,24.7174],[110,24.37847],[110.5,24.03759],[111,23.69482],[111.5,23.35022],[112,23.00387],[112.5,22.65583],[113,22.30618],[113.5,21.955],[114,21.60238],[114.5,21.24841],[115,20.8932],[115.5,20.53685],[116,20.17949],[116.5,19.82122],[117,19.46218],[117.5,19.1025],[118,18.74233],[118.5,18.38182],[119,18.02113],[119.5,17.66042],[120,17.29986],[120.5,16.93965],[121,16.57995],[121.5,16.22098],[122,15.86292],[122.5,15.50601],[123,15.15043],[123.5,14.79643],[124,14.44422],[124.5,14.09404],[125,13.74613],[125.5,13.40072],[126,13.05807],[126.5,12.7184],[127,12.38199],[127.5,12.04906],[128,11.71988],[128.5,11.39469],[129,11.07373],[129.5,10.75725],[130,10.44549],[130.5,10.13868],[131,9.83705],[131.5,9.54084],[132,9.25024],[132.5,8.96547],[133,8.68674],[133.5,8.41422],[134,8.1481],[134.5,7.88856],[135,7.63573],[135.5,7.38979],[136,7.15085],[136.5,6.91904],[137,6.69448],[137.5,6.47726],[138,6.26747],[138.5,6.06518],[139,5.87047],[139.5,5.68336],[140,5.50392],[140.5,5.33216],[141,5.16811],[141.5,5.01176],[142,4.86312],[142.5,4.72218],[143,4.58892],[143.5,4.46329],[144,4.34527],[144.5,4.23482],[145,4.13187],[145.5,4.03636],[146,3.94824],[146.5,3.86743],[147,3.79386],[147.5,3.72744],[148,3.66808],[148.5,3.61571],[149,3.57021],[149.5,3.53151],[150,3.4995],[150.5,3.47408],[151,3.45514],[151.5,3.44259],[152,3.43631],[152.5,3.4362],[153,3.44214],[153.5,3.45404],[154,3.47177],[154.5,3.49524],[155,3.52432],[155.5,3.55891],[156,3.59889],[156.5,3.64417],[157,3.69462],[157.5,3.75014],[158,3.81062],[158.5,3.87596],[159,3.94604],[159.5,4.02076],[160,4.10002],[160.5,4.18371],[161,4.27174],[161.5,4.36399],[162,4.46037],[162.5,4.56078],[163,4.66512],[163.5,4.7733],[164,4.88522],[164.5,5.00079],[165,5.11992],[165.5,5.24251],[166,5.36848],[166.5,5.49773],[167,5.63019],[167.5,5.76576],[168,5.90437],[168.5,6.04593],[169,6.19036],[169.5,6.33758],[170,6.48752],[170.5,6.64009],[171,6.79523],[171.5,6.95286],[172,7.1129],[172.5,7.27529],[173,7.43995],[173.5,7.60683],[174,7.77584],[174.5,7.94694],[175,8.12005],[175.5,8.2951],[176,8.47205],[176.5,8.65082],[177,8.83136],[177.5,9.01362],[178,9.19753],[178.5,9.38304],[179,9.57009],[179.5,9.75864],[180,9.94863]]}},{"type":"Feature","id":"+04381203:south:1","properties":{"id":"+04381203","year":438,"month":12,"day":3,"time_tdt":"04:50:38","type":"개기일식","type_code":"T","saros":78,"gamma":0.49815,"magnitude":1.03567,"greatest":{"lat":6.73374,"lng":138.50714},"path_width_km":137.9,"duration":"03m27s","delta_t_seconds":6282.9,"catalog_number":5795,"source":"NASA Five Millennium Canon of Solar Eclipses","source_url":"https://eclipse.gsfc.nasa.gov/SEsearch/SEsearchmap.php?Ecl=%2B04381203","boundary":"south","name":"438-12-03 개기일식"},"geometry":{"type":"LineString","coordinates":[[-179.5,10.14001],[-179,10.33273],[-178.5,10.52674],[-178,10.72199],[-177.5,10.91845],[-177,11.11605],[-176.5,11.31476],[-176,11.51454],[-175.5,11.71534],[-175,11.91712],[-174.5,12.11984],[-174,12.32346],[-173.5,12.52795],[-173,12.73325],[-172.5,12.93934],[-172,13.14619],[-171.5,13.35375],[-171,13.56198],[-170.5,13.77087],[-170,13.98037],[-169.5,14.19045],[-169,14.40109],[-168.5,14.61224],[-168,14.82388],[-167.5,15.03598],[-167.06836,15.21943]]}}],"attribution":"Eclipse Predictions by Fred Espenak and Jean Meeus (NASA's GSFC)","generated_at":"2026-09-23T01:44:50.862Z"}
