{"type":"FeatureCollection","year":44,"events":[{"id":"+00440217","year":44,"month":2,"day":17,"time_tdt":"18:26:46","type":"금환일식","type_code":"A","saros":60,"gamma":0.66527,"magnitude":0.98811,"greatest":{"lat":27.86804,"lng":-61.17328},"path_width_km":55.7,"duration":"01m13s","delta_t_seconds":10094.8,"catalog_number":4884,"source":"NASA Five Millennium Canon of Solar Eclipses","source_url":"https://eclipse.gsfc.nasa.gov/SEsearch/SEsearchmap.php?Ecl=%2B00440217"},{"id":"+00440811","year":44,"month":8,"day":11,"time_tdt":"20:31:57","type":"개기일식","type_code":"T","saros":65,"gamma":-0.74774,"magnitude":1.02901,"greatest":{"lat":-31.52641,"lng":-95.80261},"path_width_km":147.2,"duration":"02m39s","delta_t_seconds":10090,"catalog_number":4885,"source":"NASA Five Millennium Canon of Solar Eclipses","source_url":"https://eclipse.gsfc.nasa.gov/SEsearch/SEsearchmap.php?Ecl=%2B00440811"}],"features":[{"type":"Feature","id":"+00440217:north:0","properties":{"id":"+00440217","year":44,"month":2,"day":17,"time_tdt":"18:26:46","type":"금환일식","type_code":"A","saros":60,"gamma":0.66527,"magnitude":0.98811,"greatest":{"lat":27.86804,"lng":-61.17328},"path_width_km":55.7,"duration":"01m13s","delta_t_seconds":10094.8,"catalog_number":4884,"source":"NASA Five Millennium Canon of Solar Eclipses","source_url":"https://eclipse.gsfc.nasa.gov/SEsearch/SEsearchmap.php?Ecl=%2B00440217","boundary":"north","name":"44-02-17 금환일식"},"geometry":{"type":"LineString","coordinates":[[-113.125,27.1781],[-113,27.14895],[-112.5,27.03293],[-112,26.91785],[-111.5,26.80373],[-111,26.6906],[-110.5,26.57849],[-110,26.46742],[-109.5,26.35742],[-109,26.24851],[-108.5,26.14073],[-108,26.0341],[-107.5,25.92865],[-107,25.82441],[-106.5,25.72142],[-106,25.6197],[-105.5,25.51929],[-105,25.42022],[-104.5,25.32252],[-104,25.22623],[-103.5,25.13138],[-103,25.03802],[-102.5,24.94617],[-102,24.85588],[-101.5,24.76718],[-101,24.68011],[-100.5,24.59472],[-100,24.51105],[-99.5,24.42914],[-99,24.34903],[-98.5,24.27077],[-98,24.1944],[-97.5,24.11997],[-97,24.04753],[-96.5,23.97713],[-96,23.90882],[-95.5,23.84265],[-95,23.77867],[-94.5,23.71694],[-94,23.65751],[-93.5,23.60044],[-93,23.54578],[-92.5,23.4936],[-92,23.44395],[-91.5,23.3969],[-91,23.35251],[-90.5,23.31084],[-90,23.27197],[-89.5,23.23594],[-89,23.20284],[-88.5,23.17274],[-88,23.1457],[-87.5,23.12179],[-87,23.1011],[-86.5,23.08369],[-86,23.06964],[-85.5,23.05902],[-85,23.05192],[-84.5,23.04841],[-84,23.04858],[-83.5,23.0525],[-83,23.06026],[-82.5,23.07194],[-82,23.08761],[-81.5,23.10738],[-81,23.13131],[-80.5,23.1595],[-80,23.19203],[-79.5,23.22898],[-79,23.27044],[-78.5,23.31648],[-78,23.3672],[-77.5,23.42267],[-77,23.48298],[-76.5,23.54819],[-76,23.6184],[-75.5,23.69367],[-75,23.77407],[-74.5,23.85967],[-74,23.95054],[-73.5,24.04674],[-73,24.14833],[-72.5,24.25535],[-72,24.36786],[-71.5,24.4859],[-71,24.6095],[-70.5,24.73869],[-70,24.87349],[-69.5,25.01392],[-69,25.15999],[-68.5,25.31168],[-68,25.469],[-67.5,25.63193],[-67,25.80043],[-66.5,25.97447],[-66,26.15399],[-65.5,26.33895],[-65,26.52926],[-64.5,26.72487],[-64,26.92566],[-63.5,27.13155],[-63,27.34244],[-62.5,27.55818],[-62,27.77868],[-61.5,28.00377],[-61,28.23332],[-60.5,28.46718],[-60,28.70518],[-59.5,28.94716],[-59,29.19293],[-58.5,29.44233],[-58,29.69517],[-57.5,29.95125],[-57,30.21038],[-56.5,30.47238],[-56,30.73705],[-55.5,31.00418],[-55,31.27358],[-54.5,31.54506],[-54,31.81842],[-53.5,32.09347],[-53,32.37001],[-52.5,32.64787],[-52,32.92685],[-51.5,33.20678],[-51,33.48749],[-50.5,33.76879],[-50,34.05054],[-49.5,34.33258],[-49,34.61474],[-48.5,34.89688],[-48,35.17887],[-47.5,35.46057],[-47,35.74184],[-46.5,36.02257],[-46,36.30264],[-45.5,36.58195],[-45,36.86038],[-44.5,37.13784],[-44,37.41423],[-43.5,37.68948],[-43,37.9635],[-42.5,38.23621],[-42,38.50754],[-41.5,38.77743],[-41,39.04582],[-40.5,39.31264],[-40,39.57786],[-39.5,39.84141],[-39,40.10325],[-38.5,40.36335],[-38,40.62167],[-37.5,40.87817],[-37,41.13283],[-36.5,41.38561],[-36,41.63649],[-35.5,41.88546],[-35,42.13248],[-34.5,42.37755],[-34,42.62066],[-33.5,42.86178],[-33,43.1009],[-32.5,43.33803],[-32,43.57315],[-31.5,43.80626],[-31,44.03735],[-30.5,44.26643],[-30,44.49348],[-29.5,44.71852],[-29,44.94154],[-28.5,45.16254],[-28,45.38153],[-27.5,45.59852],[-27,45.8135],[-26.5,46.02649],[-26,46.2375],[-25.5,46.44651],[-25,46.65356],[-24.5,46.85864],[-24,47.06177],[-23.5,47.26295],[-23,47.46219],[-22.5,47.65951],[-22,47.85491],[-21.5,48.04841],[-21,48.24002],[-20.5,48.42974],[-20,48.6176],[-19.5,48.8036],[-19,48.98775],[-18.5,49.17006],[-18,49.35056],[-17.5,49.52925],[-17,49.70614],[-16.5,49.88125],[-16,50.05458],[-15.5,50.22616],[-15,50.396],[-14.5,50.5641],[-14,50.73049],[-13.5,50.89516],[-13,51.05815],[-12.5,51.21945],[-12,51.37908],[-11.5,51.53706],[-11,51.6934],[-10.5,51.8481],[-10,52.00119],[-9.5,52.15268],[-9,52.30257],[-8.5,52.45088],[-8,52.59762],[-7.5,52.74281],[-7,52.88646],[-6.5,53.02857],[-6,53.16917],[-5.5,53.30826],[-5,53.44585],[-4.5,53.58196],[-4,53.71659],[-3.5,53.84977],[-3,53.9815],[-2.5,54.11179],[-2,54.24065],[-1.5,54.3681],[-1,54.49414],[-0.5,54.61879],[0,54.74206],[0.5,54.86395]]}},{"type":"Feature","id":"+00440217:center:0","properties":{"id":"+00440217","year":44,"month":2,"day":17,"time_tdt":"18:26:46","type":"금환일식","type_code":"A","saros":60,"gamma":0.66527,"magnitude":0.98811,"greatest":{"lat":27.86804,"lng":-61.17328},"path_width_km":55.7,"duration":"01m13s","delta_t_seconds":10094.8,"catalog_number":4884,"source":"NASA Five Millennium Canon of Solar Eclipses","source_url":"https://eclipse.gsfc.nasa.gov/SEsearch/SEsearchmap.php?Ecl=%2B00440217","boundary":"center","name":"44-02-17 금환일식"},"geometry":{"type":"LineString","coordinates":[[-113.22525,26.68551],[-113,26.63397],[-112.5,26.52078],[-112,26.40853],[-111.5,26.29725],[-111,26.18697],[-110.5,26.07771],[-110,25.96949],[-109.5,25.86235],[-109,25.75631],[-108.5,25.6514],[-108,25.54765],[-107.5,25.44509],[-107,25.34374],[-106.5,25.24364],[-106,25.14481],[-105.5,25.0473],[-105,24.95113],[-104.5,24.85634],[-104,24.76296],[-103.5,24.67103],[-103,24.58057],[-102.5,24.49164],[-102,24.40426],[-101.5,24.31848],[-101,24.23433],[-100.5,24.15186],[-100,24.07111],[-99.5,23.99211],[-99,23.91491],[-98.5,23.83957],[-98,23.76611],[-97.5,23.69459],[-97,23.62506],[-96.5,23.55756],[-96,23.49215],[-95.5,23.42887],[-95,23.36778],[-94.5,23.30893],[-94,23.25237],[-93.5,23.19817],[-93,23.14637],[-92.5,23.09704],[-92,23.05024],[-91.5,23.00602],[-91,22.96445],[-90.5,22.92559],[-90,22.88951],[-89.5,22.85627],[-89,22.82594],[-88.5,22.79858],[-88,22.77428],[-87.5,22.75309],[-87,22.7351],[-86.5,22.72037],[-86,22.70898],[-85.5,22.701],[-85,22.69652],[-84.5,22.6956],[-84,22.69834],[-83.5,22.7048],[-83,22.71507],[-82.5,22.72923],[-82,22.74736],[-81.5,22.76955],[-81,22.79587],[-80.5,22.82642],[-80,22.86126],[-79.5,22.90049],[-79,22.94419],[-78.5,22.99243],[-78,23.04531],[-77.5,23.10289],[-77,23.16526],[-76.5,23.2325],[-76,23.30467],[-75.5,23.38186],[-75,23.46413],[-74.5,23.55154],[-74,23.64417],[-73.5,23.74207],[-73,23.84529],[-72.5,23.95389],[-72,24.06791],[-71.5,24.1874],[-71,24.31238],[-70.5,24.44288],[-70,24.57893],[-69.5,24.72053],[-69,24.8677],[-68.5,25.02042],[-68,25.17869],[-67.5,25.34249],[-67,25.51179],[-66.5,25.68654],[-66,25.86671],[-65.5,26.05222],[-65,26.24302],[-64.5,26.43902],[-64,26.64013],[-63.5,26.84626],[-63,27.05729],[-62.5,27.27311],[-62,27.49359],[-61.5,27.71859],[-61,27.94797],[-60.5,28.18157],[-60,28.41923],[-59.5,28.66079],[-59,28.90608],[-58.5,29.15491],[-58,29.4071],[-57.5,29.66246],[-57,29.92081],[-56.5,30.18195],[-56,30.44568],[-55.5,30.71181],[-55,30.98015],[-54.5,31.25051],[-54,31.52268],[-53.5,31.79648],[-53,32.07171],[-52.5,32.34821],[-52,32.62578],[-51.5,32.90424],[-51,33.18343],[-50.5,33.46317],[-50,33.74331],[-49.5,34.02369],[-49,34.30416],[-48.5,34.58457],[-48,34.86479],[-47.5,35.14468],[-47,35.42411],[-46.5,35.70297],[-46,35.98114],[-45.5,36.25851],[-45,36.53499],[-44.5,36.81046],[-44,37.08485],[-43.5,37.35807],[-43,37.63004],[-42.5,37.90069],[-42,38.16993],[-41.5,38.43772],[-41,38.70399],[-40.5,38.96869],[-40,39.23175],[-39.5,39.49315],[-39,39.75283],[-38.5,40.01075],[-38,40.26688],[-37.5,40.52119],[-37,40.77365],[-36.5,41.02422],[-36,41.2729],[-35.5,41.51965],[-35,41.76446],[-34.5,42.00731],[-34,42.24818],[-33.5,42.48708],[-33,42.72398],[-32.5,42.95889],[-32,43.19178],[-31.5,43.42266],[-31,43.65153],[-30.5,43.87839],[-30,44.10322],[-29.5,44.32604],[-29,44.54685],[-28.5,44.76564],[-28,44.98243],[-27.5,45.19722],[-27,45.41001],[-26.5,45.6208],[-26,45.82962],[-25.5,46.03646],[-25,46.24133],[-24.5,46.44425],[-24,46.64521],[-23.5,46.84424],[-23,47.04133],[-22.5,47.23651],[-22,47.42978],[-21.5,47.62115],[-21,47.81064],[-20.5,47.99825],[-20,48.18401],[-19.5,48.36791],[-19,48.54997],[-18.5,48.73021],[-18,48.90864],[-17.5,49.08527],[-17,49.26011],[-16.5,49.43317],[-16,49.60448],[-15.5,49.77403],[-15,49.94185],[-14.5,50.10795],[-14,50.27233],[-13.5,50.43502],[-13,50.59602],[-12.5,50.75536],[-12,50.91303],[-11.5,51.06906],[-11,51.22345],[-10.5,51.37623],[-10,51.52739],[-9.5,51.67696],[-9,51.82495],[-8.5,51.97137],[-8,52.11622],[-7.5,52.25954],[-7,52.40131],[-6.5,52.54157],[-6,52.68032],[-5.5,52.81757],[-5,52.95333],[-4.5,53.08762],[-4,53.22044],[-3.5,53.35182],[-3,53.48175],[-2.5,53.61026],[-2,53.73735],[-1.5,53.86303],[-1,53.98731],[-0.5,54.11021],[0,54.23174],[0.5,54.3519],[0.80578,54.42811]]}},{"type":"Feature","id":"+00440217:south:0","properties":{"id":"+00440217","year":44,"month":2,"day":17,"time_tdt":"18:26:46","type":"금환일식","type_code":"A","saros":60,"gamma":0.66527,"magnitude":0.98811,"greatest":{"lat":27.86804,"lng":-61.17328},"path_width_km":55.7,"duration":"01m13s","delta_t_seconds":10094.8,"catalog_number":4884,"source":"NASA Five Millennium Canon of Solar Eclipses","source_url":"https://eclipse.gsfc.nasa.gov/SEsearch/SEsearchmap.php?Ecl=%2B00440217","boundary":"south","name":"44-02-17 금환일식"},"geometry":{"type":"LineString","coordinates":[[-113.2168,26.17087],[-113,26.12271],[-112.5,26.01232],[-112,25.90289],[-111.5,25.79443],[-111,25.68697],[-110.5,25.58054],[-110,25.47517],[-109.5,25.37087],[-109,25.26768],[-108.5,25.16563],[-108,25.06473],[-107.5,24.96503],[-107,24.86655],[-106.5,24.76933],[-106,24.67338],[-105.5,24.57875],[-105,24.48546],[-104.5,24.39356],[-104,24.30307],[-103.5,24.21403],[-103,24.12647],[-102.5,24.04043],[-102,23.95595],[-101.5,23.87307],[-101,23.79183],[-100.5,23.71225],[-100,23.6344],[-99.5,23.5583],[-99,23.484],[-98.5,23.41155],[-98,23.34099],[-97.5,23.27237],[-97,23.20572],[-96.5,23.14111],[-96,23.07858],[-95.5,23.01818],[-95,22.95996],[-94.5,22.90398],[-94,22.85029],[-93.5,22.79894],[-93,22.74999],[-92.5,22.70349],[-92,22.65952],[-91.5,22.61812],[-91,22.57935],[-90.5,22.54329],[-90,22.50999],[-89.5,22.47952],[-89,22.45195],[-88.5,22.42734],[-88,22.40576],[-87.5,22.38728],[-87,22.37198],[-86.5,22.35992],[-86,22.35118],[-85.5,22.34584],[-85,22.34396],[-84.5,22.34563],[-84,22.35093],[-83.5,22.35992],[-83,22.3727],[-82.5,22.38934],[-82,22.40992],[-81.5,22.43453],[-81,22.46324],[-80.5,22.49613],[-80,22.53329],[-79.5,22.5748],[-79,22.62074],[-78.5,22.67118],[-78,22.72622],[-77.5,22.78592],[-77,22.85036],[-76.5,22.91962],[-76,22.99377],[-75.5,23.07288],[-75,23.15702],[-74.5,23.24625],[-74,23.34064],[-73.5,23.44025],[-73,23.54512],[-72.5,23.65531],[-72,23.77086],[-71.5,23.8918],[-71,24.01818],[-70.5,24.15001],[-70,24.28732],[-69.5,24.43012],[-69,24.5784],[-68.5,24.73218],[-68,24.89142],[-67.5,25.05612],[-67,25.22624],[-66.5,25.40174],[-66,25.58257],[-65.5,25.76867],[-65,25.95997],[-64.5,26.1564],[-64,26.35786],[-63.5,26.56425],[-63,26.77547],[-62.5,26.99139],[-62,27.21189],[-61.5,27.43683],[-61,27.66607],[-60.5,27.89945],[-60,28.13682],[-59.5,28.37801],[-59,28.62284],[-58.5,28.87114],[-58,29.12273],[-57.5,29.37741],[-57,29.63501],[-56.5,29.89533],[-56,30.15817],[-55.5,30.42335],[-55,30.69067],[-54.5,30.95994],[-54,31.23096],[-53.5,31.50356],[-53,31.77753],[-52.5,32.05271],[-52,32.3289],[-51.5,32.60594],[-51,32.88366],[-50.5,33.16188],[-50,33.44046],[-49.5,33.71923],[-49,33.99804],[-48.5,34.27676],[-48,34.55525],[-47.5,34.83337],[-47,35.11101],[-46.5,35.38804],[-46,35.66435],[-45.5,35.93983],[-45,36.21438],[-44.5,36.48792],[-44,36.76034],[-43.5,37.03157],[-43,37.30153],[-42.5,37.57014],[-42,37.83734],[-41.5,38.10307],[-41,38.36725],[-40.5,38.62985],[-40,38.89081],[-39.5,39.15009],[-39,39.40763],[-38.5,39.66341],[-38,39.9174],[-37.5,40.16954],[-37,40.41983],[-36.5,40.66824],[-36,40.91473],[-35.5,41.1593],[-35,41.40192],[-34.5,41.64258],[-34,41.88126],[-33.5,42.11796],[-33,42.35267],[-32.5,42.58537],[-32,42.81607],[-31.5,43.04475],[-31,43.27142],[-30.5,43.49608],[-30,43.71872],[-29.5,43.93935],[-29,44.15796],[-28.5,44.37457],[-28,44.58918],[-27.5,44.80178],[-27,45.0124],[-26.5,45.22103],[-26,45.42768],[-25.5,45.63236],[-25,45.83507],[-24.5,46.03584],[-24,46.23466],[-23.5,46.43154],[-23,46.62651],[-22.5,46.81956],[-22,47.01071],[-21.5,47.19997],[-21,47.38736],[-20.5,47.57287],[-20,47.75654],[-19.5,47.93836],[-19,48.11835],[-18.5,48.29652],[-18,48.47289],[-17.5,48.64746],[-17,48.82026],[-16.5,48.99129],[-16,49.16057],[-15.5,49.32811],[-15,49.49392],[-14.5,49.65801],[-14,49.82041],[-13.5,49.98111],[-13,50.14014],[-12.5,50.2975],[-12,50.45322],[-11.5,50.6073],[-11,50.75975],[-10.5,50.9106],[-10,51.05984],[-9.5,51.2075],[-9,51.35358],[-8.5,51.4981],[-8,51.64107],[-7.5,51.7825],[-7,51.92241],[-6.5,52.06081],[-6,52.1977],[-5.5,52.33311],[-5,52.46704],[-4.5,52.5995],[-4,52.73051],[-3.5,52.86007],[-3,52.98821],[-2.5,53.11492],[-2,53.24022],[-1.5,53.36413],[-1,53.48665],[-0.5,53.60779],[0,53.72757],[0.5,53.84599],[0.98633,53.95988]]}},{"type":"Feature","id":"+00440811:north:0","properties":{"id":"+00440811","year":44,"month":8,"day":11,"time_tdt":"20:31:57","type":"개기일식","type_code":"T","saros":65,"gamma":-0.74774,"magnitude":1.02901,"greatest":{"lat":-31.52641,"lng":-95.80261},"path_width_km":147.2,"duration":"02m39s","delta_t_seconds":10090,"catalog_number":4885,"source":"NASA Five Millennium Canon of Solar Eclipses","source_url":"https://eclipse.gsfc.nasa.gov/SEsearch/SEsearchmap.php?Ecl=%2B00440811","boundary":"north","name":"44-08-11 개기일식"},"geometry":{"type":"LineString","coordinates":[[-146,-34.50386],[-145.5,-34.35408],[-145,-34.20504],[-144.5,-34.05678],[-144,-33.90931],[-143.5,-33.76267],[-143,-33.61688],[-142.5,-33.47197],[-142,-33.32796],[-141.5,-33.1849],[-141,-33.04281],[-140.5,-32.90171],[-140,-32.76165],[-139.5,-32.62266],[-139,-32.48476],[-138.5,-32.348],[-138,-32.2124],[-137.5,-32.07801],[-137,-31.94486],[-136.5,-31.81299],[-136,-31.68243],[-135.5,-31.55323],[-135,-31.42542],[-134.5,-31.29906],[-134,-31.17417],[-133.5,-31.05081],[-133,-30.92902],[-132.5,-30.80884],[-132,-30.69032],[-131.5,-30.5735],[-131,-30.45845],[-130.5,-30.3452],[-130,-30.23381],[-129.5,-30.12432],[-129,-30.0168],[-128.5,-29.9113],[-128,-29.80787],[-127.5,-29.70657],[-127,-29.60746],[-126.5,-29.5106],[-126,-29.41605],[-125.5,-29.32387],[-125,-29.23412],[-124.5,-29.14688],[-124,-29.0622],[-123.5,-28.98016],[-123,-28.90082],[-122.5,-28.82425],[-122,-28.75053],[-121.5,-28.67972],[-121,-28.61191],[-120.5,-28.54716],[-120,-28.48556],[-119.5,-28.42717],[-119,-28.37209],[-118.5,-28.32038],[-118,-28.27214],[-117.5,-28.22744],[-117,-28.18636],[-116.5,-28.14899],[-116,-28.11541],[-115.5,-28.08571],[-115,-28.05998],[-114.5,-28.03829],[-114,-28.02074],[-113.5,-28.00741],[-113,-27.99838],[-112.5,-27.99375],[-112,-27.9936],[-111.5,-27.99801],[-111,-28.00706],[-110.5,-28.02085],[-110,-28.03944],[-109.5,-28.06293],[-109,-28.09138],[-108.5,-28.12488],[-108,-28.1635],[-107.5,-28.2073],[-107,-28.25636],[-106.5,-28.31074],[-106,-28.37049],[-105.5,-28.43568],[-105,-28.50635],[-104.5,-28.58256],[-104,-28.66434],[-103.5,-28.75173],[-103,-28.84475],[-102.5,-28.94344],[-102,-29.0478],[-101.5,-29.15785],[-101,-29.27359],[-100.5,-29.39502],[-100,-29.52212],[-99.5,-29.65487],[-99,-29.79324],[-98.5,-29.9372],[-98,-30.0867],[-97.5,-30.24168],[-97,-30.40209],[-96.5,-30.56785],[-96,-30.73889],[-95.5,-30.91511],[-95,-31.09643],[-94.5,-31.28273],[-94,-31.47392],[-93.5,-31.66986],[-93,-31.87045],[-92.5,-32.07554],[-92,-32.28501],[-91.5,-32.4987],[-91,-32.71648],[-90.5,-32.93819],[-90,-33.16368],[-89.5,-33.39279],[-89,-33.62536],[-88.5,-33.86123],[-88,-34.10023],[-87.5,-34.34219],[-87,-34.58696],[-86.5,-34.83436],[-86,-35.08423],[-85.5,-35.33641],[-85,-35.59072],[-84.5,-35.84702],[-84,-36.10513],[-83.5,-36.36491],[-83,-36.6262],[-82.5,-36.88885],[-82,-37.15271],[-81.5,-37.41764],[-81,-37.6835],[-80.5,-37.95015],[-80,-38.21746],[-79.5,-38.48531],[-79,-38.75357],[-78.5,-39.02212],[-78,-39.29085],[-77.5,-39.55965],[-77,-39.82841],[-76.5,-40.09704],[-76,-40.36543],[-75.5,-40.63349],[-75,-40.90114],[-74.5,-41.1683],[-74,-41.43487],[-73.5,-41.70079],[-73,-41.96599],[-72.5,-42.23039],[-72,-42.49393],[-71.5,-42.75656],[-71,-43.0182],[-70.5,-43.27882],[-70,-43.53835],[-69.5,-43.79675],[-69,-44.05398],[-68.5,-44.30998],[-68,-44.56473],[-67.5,-44.81818],[-67,-45.0703],[-66.5,-45.32106],[-66,-45.57043],[-65.5,-45.81838],[-65,-46.06488],[-64.5,-46.3099],[-64,-46.55344],[-63.5,-46.79547],[-63,-47.03596],[-62.5,-47.2749],[-62,-47.51228],[-61.5,-47.74809],[-61,-47.9823],[-60.5,-48.21491],[-60,-48.4459],[-59.5,-48.67528],[-59,-48.90302],[-58.5,-49.12913],[-58,-49.3536],[-57.5,-49.57641],[-57,-49.79758],[-56.5,-50.01709],[-56,-50.23494],[-55.5,-50.45113],[-55,-50.66566],[-54.5,-50.87853],[-54,-51.08974],[-53.5,-51.29929],[-53,-51.50717],[-52.5,-51.7134],[-52,-51.91797],[-51.5,-52.12089],[-51,-52.32216],[-50.5,-52.52178],[-50,-52.71976],[-49.5,-52.91609],[-49,-53.1108],[-48.5,-53.30387],[-48,-53.49532],[-47.5,-53.68515],[-47,-53.87336],[-46.5,-54.05997],[-46,-54.24497],[-45.5,-54.42838],[-45,-54.6102],[-44.5,-54.79044],[-44,-54.9691],[-43.5,-55.14619],[-43,-55.32172],[-42.5,-55.49569],[-42,-55.66812],[-41.5,-55.839],[-41,-56.00836],[-40.5,-56.17619],[-40,-56.3425],[-39.5,-56.5073],[-39,-56.6706]]}},{"type":"Feature","id":"+00440811:center:0","properties":{"id":"+00440811","year":44,"month":8,"day":11,"time_tdt":"20:31:57","type":"개기일식","type_code":"T","saros":65,"gamma":-0.74774,"magnitude":1.02901,"greatest":{"lat":-31.52641,"lng":-95.80261},"path_width_km":147.2,"duration":"02m39s","delta_t_seconds":10090,"catalog_number":4885,"source":"NASA Five Millennium Canon of Solar Eclipses","source_url":"https://eclipse.gsfc.nasa.gov/SEsearch/SEsearchmap.php?Ecl=%2B00440811","boundary":"center","name":"44-08-11 개기일식"},"geometry":{"type":"LineString","coordinates":[[-145.98852,-34.89806],[-145.5,-34.75658],[-145,-34.61038],[-144.5,-34.46497],[-144,-34.32037],[-143.5,-34.17661],[-143,-34.03372],[-142.5,-33.89173],[-142,-33.75067],[-141.5,-33.61057],[-141,-33.47145],[-140.5,-33.33336],[-140,-33.19631],[-139.5,-33.06035],[-139,-32.9255],[-138.5,-32.79181],[-138,-32.6593],[-137.5,-32.52801],[-137,-32.39799],[-136.5,-32.26926],[-136,-32.14186],[-135.5,-32.01584],[-135,-31.89123],[-134.5,-31.76808],[-134,-31.64643],[-133.5,-31.52632],[-133,-31.40779],[-132.5,-31.2909],[-132,-31.17568],[-131.5,-31.06219],[-131,-30.95047],[-130.5,-30.84058],[-130,-30.73256],[-129.5,-30.62647],[-129,-30.52236],[-128.5,-30.42028],[-128,-30.32029],[-127.5,-30.22245],[-127,-30.12682],[-126.5,-30.03345],[-126,-29.9424],[-125.5,-29.85374],[-125,-29.76753],[-124.5,-29.68384],[-124,-29.60273],[-123.5,-29.52426],[-123,-29.44852],[-122.5,-29.37555],[-122,-29.30545],[-121.5,-29.23828],[-121,-29.1741],[-120.5,-29.11301],[-120,-29.05506],[-119.5,-29.00035],[-119,-28.94895],[-118.5,-28.90093],[-118,-28.85638],[-117.5,-28.81537],[-117,-28.778],[-116.5,-28.74434],[-116,-28.71447],[-115.5,-28.68848],[-115,-28.66645],[-114.5,-28.64847],[-114,-28.63461],[-113.5,-28.62498],[-113,-28.61964],[-112.5,-28.61868],[-112,-28.62219],[-111.5,-28.63025],[-111,-28.64293],[-110.5,-28.66033],[-110,-28.68251],[-109.5,-28.70956],[-109,-28.74155],[-108.5,-28.77855],[-108,-28.82063],[-107.5,-28.86785],[-107,-28.92029],[-106.5,-28.978],[-106,-29.04104],[-105.5,-29.10946],[-105,-29.1833],[-104.5,-29.26261],[-104,-29.34742],[-103.5,-29.43777],[-103,-29.53367],[-102.5,-29.63515],[-102,-29.74223],[-101.5,-29.85489],[-101,-29.97315],[-100.5,-30.09698],[-100,-30.22638],[-99.5,-30.36132],[-99,-30.50176],[-98.5,-30.64766],[-98,-30.79897],[-97.5,-30.95564],[-97,-31.11759],[-96.5,-31.28476],[-96,-31.45705],[-95.5,-31.63439],[-95,-31.81666],[-94.5,-32.00377],[-94,-32.19561],[-93.5,-32.39205],[-93,-32.59297],[-92.5,-32.79824],[-92,-33.00772],[-91.5,-33.22127],[-91,-33.43875],[-90.5,-33.65999],[-90,-33.88486],[-89.5,-34.1132],[-89,-34.34483],[-88.5,-34.57962],[-88,-34.81739],[-87.5,-35.05798],[-87,-35.30122],[-86.5,-35.54697],[-86,-35.79505],[-85.5,-36.0453],[-85,-36.29757],[-84.5,-36.5517],[-84,-36.80753],[-83.5,-37.06492],[-83,-37.32371],[-82.5,-37.58375],[-82,-37.84492],[-81.5,-38.10706],[-81,-38.37004],[-80.5,-38.63374],[-80,-38.89802],[-79.5,-39.16277],[-79,-39.42786],[-78.5,-39.69318],[-78,-39.95862],[-77.5,-40.22408],[-77,-40.48945],[-76.5,-40.75464],[-76,-41.01956],[-75.5,-41.28412],[-75,-41.54823],[-74.5,-41.81181],[-74,-42.07479],[-73.5,-42.33709],[-73,-42.59865],[-72.5,-42.8594],[-72,-43.11927],[-71.5,-43.37822],[-71,-43.63618],[-70.5,-43.8931],[-70,-44.14893],[-69.5,-44.40364],[-69,-44.65716],[-68.5,-44.90947],[-68,-45.16053],[-67.5,-45.4103],[-67,-45.65874],[-66.5,-45.90583],[-66,-46.15153],[-65.5,-46.39583],[-65,-46.63869],[-64.5,-46.8801],[-64,-47.12003],[-63.5,-47.35846],[-63,-47.59537],[-62.5,-47.83075],[-62,-48.06459],[-61.5,-48.29687],[-61,-48.52757],[-60.5,-48.75669],[-60,-48.98422],[-59.5,-49.21015],[-59,-49.43446],[-58.5,-49.65716],[-58,-49.87824],[-57.5,-50.0977],[-57,-50.31552],[-56.5,-50.53171],[-56,-50.74626],[-55.5,-50.95918],[-55,-51.17046],[-54.5,-51.38009],[-54,-51.58809],[-53.5,-51.79445],[-53,-51.99918],[-52.5,-52.20226],[-52,-52.40372],[-51.5,-52.60354],[-51,-52.80174],[-50.5,-52.99831],[-50,-53.19326],[-49.5,-53.38659],[-49,-53.57832],[-48.5,-53.76843],[-48,-53.95694],[-47.5,-54.14386],[-47,-54.32918],[-46.5,-54.51292],[-46,-54.69508],[-45.5,-54.87566],[-45,-55.05468],[-44.5,-55.23213],[-44,-55.40803],[-43.5,-55.58239],[-43,-55.7552],[-42.5,-55.92648],[-42,-56.09623],[-41.5,-56.26447],[-41,-56.43119],[-40.5,-56.59641],[-40,-56.76013],[-39.5,-56.92236],[-39.08785,-57.05779]]}},{"type":"Feature","id":"+00440811:south:0","properties":{"id":"+00440811","year":44,"month":8,"day":11,"time_tdt":"20:31:57","type":"개기일식","type_code":"T","saros":65,"gamma":-0.74774,"magnitude":1.02901,"greatest":{"lat":-31.52641,"lng":-95.80261},"path_width_km":147.2,"duration":"02m39s","delta_t_seconds":10090,"catalog_number":4885,"source":"NASA Five Millennium Canon of Solar Eclipses","source_url":"https://eclipse.gsfc.nasa.gov/SEsearch/SEsearchmap.php?Ecl=%2B00440811","boundary":"south","name":"44-08-11 개기일식"},"geometry":{"type":"LineString","coordinates":[[-145.95508,-35.29284],[-145.5,-35.16168],[-145,-35.01832],[-144.5,-34.87577],[-144,-34.73405],[-143.5,-34.59319],[-143,-34.45323],[-142.5,-34.31417],[-142,-34.17607],[-141.5,-34.03894],[-141,-33.90281],[-140.5,-33.76773],[-140,-33.63371],[-139.5,-33.5008],[-139,-33.36902],[-138.5,-33.23841],[-138,-33.109],[-137.5,-32.98084],[-137,-32.85395],[-136.5,-32.72838],[-136,-32.60416],[-135.5,-32.48134],[-135,-32.35994],[-134.5,-32.24003],[-134,-32.12162],[-133.5,-32.00478],[-133,-31.88954],[-132.5,-31.77596],[-132,-31.66406],[-131.5,-31.55392],[-131,-31.44556],[-130.5,-31.33904],[-130,-31.23442],[-129.5,-31.13174],[-129,-31.03106],[-128.5,-30.93242],[-128,-30.8359],[-127.5,-30.74154],[-127,-30.6494],[-126.5,-30.55954],[-126,-30.47203],[-125.5,-30.38691],[-125,-30.30426],[-124.5,-30.22414],[-124,-30.14662],[-123.5,-30.07176],[-123,-29.99963],[-122.5,-29.93029],[-122,-29.86383],[-121.5,-29.80031],[-121,-29.7398],[-120.5,-29.68238],[-120,-29.62812],[-119.5,-29.5771],[-119,-29.5294],[-118.5,-29.48509],[-118,-29.44425],[-117.5,-29.40697],[-117,-29.37332],[-116.5,-29.34338],[-116,-29.31724],[-115.5,-29.29497],[-115,-29.27667],[-114.5,-29.2624],[-114,-29.25226],[-113.5,-29.24633],[-113,-29.24469],[-112.5,-29.24742],[-112,-29.2546],[-111.5,-29.26631],[-111,-29.28263],[-110.5,-29.30364],[-110,-29.32941],[-109.5,-29.36001],[-109,-29.39553],[-108.5,-29.43602],[-108,-29.48155],[-107.5,-29.53219],[-107,-29.58799],[-106.5,-29.64901],[-106,-29.71531],[-105.5,-29.78693],[-105,-29.86391],[-104.5,-29.94628],[-104,-30.03409],[-103.5,-30.12736],[-103,-30.2261],[-102.5,-30.33033],[-102,-30.44005],[-101.5,-30.55527],[-101,-30.67598],[-100.5,-30.80217],[-100,-30.9338],[-99.5,-31.07085],[-99,-31.21328],[-98.5,-31.36105],[-98,-31.5141],[-97.5,-31.67237],[-97,-31.83578],[-96.5,-32.00426],[-96,-32.17773],[-95.5,-32.35608],[-95,-32.53923],[-94.5,-32.72706],[-94,-32.91945],[-93.5,-33.1163],[-93,-33.31746],[-92.5,-33.52281],[-92,-33.73222],[-91.5,-33.94554],[-91,-34.16262],[-90.5,-34.38332],[-90,-34.60748],[-89.5,-34.83496],[-89,-35.06559],[-88.5,-35.29922],[-88,-35.53568],[-87.5,-35.77482],[-87,-36.01649],[-86.5,-36.26051],[-86,-36.50674],[-85.5,-36.75502],[-85,-37.0052],[-84.5,-37.25711],[-84,-37.51062],[-83.5,-37.76557],[-83,-38.02182],[-82.5,-38.27924],[-82,-38.53768],[-81.5,-38.79701],[-81,-39.0571],[-80.5,-39.31782],[-80,-39.57906],[-79.5,-39.84069],[-79,-40.1026],[-78.5,-40.36469],[-78,-40.62685],[-77.5,-40.88896],[-77,-41.15095],[-76.5,-41.41272],[-76,-41.67417],[-75.5,-41.93523],[-75,-42.19581],[-74.5,-42.45584],[-74,-42.71523],[-73.5,-42.97393],[-73,-43.23187],[-72.5,-43.48899],[-72,-43.74522],[-71.5,-44.0005],[-71,-44.2548],[-70.5,-44.50805],[-70,-44.76022],[-69.5,-45.01125],[-69,-45.2611],[-68.5,-45.50974],[-68,-45.75713],[-67.5,-46.00324],[-67,-46.24803],[-66.5,-46.49148],[-66,-46.73355],[-65.5,-46.97422],[-65,-47.21348],[-64.5,-47.45129],[-64,-47.68763],[-63.5,-47.9225],[-63,-48.15586],[-62.5,-48.38771],[-62,-48.61803],[-61.5,-48.8468],[-61,-49.07403],[-60.5,-49.29969],[-60,-49.52377],[-59.5,-49.74627],[-59,-49.96719],[-58.5,-50.18651],[-58,-50.40423],[-57.5,-50.62034],[-57,-50.83485],[-56.5,-51.04774],[-56,-51.25902],[-55.5,-51.46868],[-55,-51.67673],[-54.5,-51.88315],[-54,-52.08797],[-53.5,-52.29116],[-53,-52.49274],[-52.5,-52.69271],[-52,-52.89107],[-51.5,-53.08782],[-51,-53.28296],[-50.5,-53.4765],[-50,-53.66844],[-49.5,-53.85879],[-49,-54.04755],[-48.5,-54.23473],[-48,-54.42032],[-47.5,-54.60434],[-47,-54.78679],[-46.5,-54.96767],[-46,-55.147],[-45.5,-55.32477],[-45,-55.501],[-44.5,-55.67569],[-44,-55.84885],[-43.5,-56.02048],[-43,-56.19059],[-42.5,-56.35919],[-42,-56.52628],[-41.5,-56.69187],[-41,-56.85598],[-40.5,-57.01859],[-40,-57.17974],[-39.5,-57.33941],[-39.32812,-57.39396]]}}],"attribution":"Eclipse Predictions by Fred Espenak and Jean Meeus (NASA's GSFC)","generated_at":"2026-09-23T01:44:43.601Z"}
