{"type":"FeatureCollection","year":45,"events":[{"id":"+00450205","year":45,"month":2,"day":5,"time_tdt":"23:45:29","type":"금환일식","type_code":"A","saros":70,"gamma":-0.05137,"magnitude":0.94022,"greatest":{"lat":-19.2439,"lng":-129.2912},"path_width_km":221.9,"duration":"07m34s","delta_t_seconds":10085.3,"catalog_number":4886,"source":"NASA Five Millennium Canon of Solar Eclipses","source_url":"https://eclipse.gsfc.nasa.gov/SEsearch/SEsearchmap.php?Ecl=%2B00450205"},{"id":"+00450801","year":45,"month":8,"day":1,"time_tdt":"12:10:30","type":"개기일식","type_code":"Tm","saros":75,"gamma":-0.00114,"magnitude":1.07242,"greatest":{"lat":18.93399,"lng":40.19495},"path_width_km":235.3,"duration":"06m30s","delta_t_seconds":10080.5,"catalog_number":4887,"source":"NASA Five Millennium Canon of Solar Eclipses","source_url":"https://eclipse.gsfc.nasa.gov/SEsearch/SEsearchmap.php?Ecl=%2B00450801"}],"features":[{"type":"Feature","id":"+00450205:north:0","properties":{"id":"+00450205","year":45,"month":2,"day":5,"time_tdt":"23:45:29","type":"금환일식","type_code":"A","saros":70,"gamma":-0.05137,"magnitude":0.94022,"greatest":{"lat":-19.2439,"lng":-129.2912},"path_width_km":221.9,"duration":"07m34s","delta_t_seconds":10085.3,"catalog_number":4886,"source":"NASA Five Millennium Canon of Solar Eclipses","source_url":"https://eclipse.gsfc.nasa.gov/SEsearch/SEsearchmap.php?Ecl=%2B00450205","boundary":"north","name":"45-02-05 금환일식"},"geometry":{"type":"LineString","coordinates":[[165.58398,-12.91357],[166,-13.03802],[166.5,-13.1873],[167,-13.33626],[167.5,-13.48487],[168,-13.63313],[168.5,-13.78101],[169,-13.92849],[169.5,-14.07555],[170,-14.22218],[170.5,-14.36835],[171,-14.51404],[171.5,-14.65924],[172,-14.80391],[172.5,-14.94805],[173,-15.09163],[173.5,-15.23462],[174,-15.37701],[174.5,-15.51876],[175,-15.65987],[175.5,-15.80029],[176,-15.94002],[176.5,-16.07902],[177,-16.21726],[177.5,-16.35474],[178,-16.4914],[178.5,-16.62724],[179,-16.76222],[179.5,-16.89632],[180,-17.02951]]}},{"type":"Feature","id":"+00450205:north:1","properties":{"id":"+00450205","year":45,"month":2,"day":5,"time_tdt":"23:45:29","type":"금환일식","type_code":"A","saros":70,"gamma":-0.05137,"magnitude":0.94022,"greatest":{"lat":-19.2439,"lng":-129.2912},"path_width_km":221.9,"duration":"07m34s","delta_t_seconds":10085.3,"catalog_number":4886,"source":"NASA Five Millennium Canon of Solar Eclipses","source_url":"https://eclipse.gsfc.nasa.gov/SEsearch/SEsearchmap.php?Ecl=%2B00450205","boundary":"north","name":"45-02-05 금환일식"},"geometry":{"type":"LineString","coordinates":[[-179.5,-17.16175],[-179,-17.29302],[-178.5,-17.4233],[-178,-17.55255],[-177.5,-17.68073],[-177,-17.80783],[-176.5,-17.9338],[-176,-18.05862],[-175.5,-18.18226],[-175,-18.30467],[-174.5,-18.42583],[-174,-18.5457],[-173.5,-18.66425],[-173,-18.78144],[-172.5,-18.89724],[-172,-19.01161],[-171.5,-19.12451],[-171,-19.23591],[-170.5,-19.34577],[-170,-19.45405],[-169.5,-19.5607],[-169,-19.6657],[-168.5,-19.76899],[-168,-19.87055],[-167.5,-19.97032],[-167,-20.06827],[-166.5,-20.16434],[-166,-20.25851],[-165.5,-20.35072],[-165,-20.44093],[-164.5,-20.52909],[-164,-20.61516],[-163.5,-20.69909],[-163,-20.78084],[-162.5,-20.86035],[-162,-20.93757],[-161.5,-21.01247],[-161,-21.08497],[-160.5,-21.15505],[-160,-21.22264],[-159.5,-21.28769],[-159,-21.35014],[-158.5,-21.40996],[-158,-21.46707],[-157.5,-21.52143],[-157,-21.57298],[-156.5,-21.62166],[-156,-21.66742],[-155.5,-21.71019],[-155,-21.74992],[-154.5,-21.78655],[-154,-21.82002],[-153.5,-21.85027],[-153,-21.87723],[-152.5,-21.90085],[-152,-21.92105],[-151.5,-21.93778],[-151,-21.95098],[-150.5,-21.96057],[-150,-21.96649],[-149.5,-21.96867],[-149,-21.96705],[-148.5,-21.96156],[-148,-21.95213],[-147.5,-21.9387],[-147,-21.92119],[-146.5,-21.89954],[-146,-21.87367],[-145.5,-21.84351],[-145,-21.80901],[-144.5,-21.77008],[-144,-21.72665],[-143.5,-21.67866],[-143,-21.62604],[-142.5,-21.56872],[-142,-21.50663],[-141.5,-21.4397],[-141,-21.36787],[-140.5,-21.29107],[-140,-21.20923],[-139.5,-21.1223],[-139,-21.0302],[-138.5,-20.93289],[-138,-20.83031],[-137.5,-20.7224],[-137,-20.6091],[-136.5,-20.49038],[-136,-20.36619],[-135.5,-20.23648],[-135,-20.10122],[-134.5,-19.96038],[-134,-19.81392],[-133.5,-19.66184],[-133,-19.5041],[-132.5,-19.34071],[-132,-19.17165],[-131.5,-18.99693],[-131,-18.81657],[-130.5,-18.63057],[-130,-18.43897],[-129.5,-18.24181],[-129,-18.03912],[-128.5,-17.83096],[-128,-17.6174],[-127.5,-17.39849],[-127,-17.17434],[-126.5,-16.94502],[-126,-16.71064],[-125.5,-16.47131],[-125,-16.22716],[-124.5,-15.97831],[-124,-15.7249],[-123.5,-15.46708],[-123,-15.20501],[-122.5,-14.93885],[-122,-14.66879],[-121.5,-14.395],[-121,-14.11766],[-120.5,-13.83698],[-120,-13.55315],[-119.5,-13.26637],[-119,-12.97685],[-118.5,-12.68479],[-118,-12.39042],[-117.5,-12.09394],[-117,-11.79555],[-116.5,-11.49549],[-116,-11.19394],[-115.5,-10.89113],[-115,-10.58725],[-114.5,-10.2825],[-114,-9.9771],[-113.5,-9.67121],[-113,-9.36504],[-112.5,-9.05877],[-112,-8.75256],[-111.5,-8.44659],[-111,-8.14102],[-110.5,-7.836],[-110,-7.53169],[-109.5,-7.22822],[-109,-6.92572],[-108.5,-6.62433],[-108,-6.32417],[-107.5,-6.02534],[-107,-5.72795],[-106.5,-5.4321],[-106,-5.13788],[-105.5,-4.84538],[-105,-4.55467],[-104.5,-4.26583],[-104,-3.97892],[-103.5,-3.69401],[-103,-3.41116],[-102.5,-3.1304],[-102,-2.8518],[-101.5,-2.57538],[-101,-2.30119],[-100.5,-2.02926],[-100,-1.75961],[-99.5,-1.49228],[-99,-1.22728],[-98.5,-0.96464],[-98,-0.70436],[-97.5,-0.44646],[-97,-0.19094],[-96.5,0.06218],[-96,0.3129],[-95.5,0.56121],[-95,0.80713],[-94.5,1.05064],[-94,1.29176],[-93.5,1.53048],[-93,1.76682],[-92.5,2.00077],[-92,2.23236],[-91.5,2.46159],[-91,2.68846],[-90.5,2.913],[-90,3.13521],[-89.5,3.35511],[-89,3.57272],[-88.5,3.78803],[-88,4.00109],[-87.5,4.21188],[-87,4.42044],[-86.5,4.62679],[-86,4.83093],[-85.5,5.03288],[-85,5.23266],[-84.5,5.4303],[-84,5.62579],[-83.5,5.81918],[-83,6.01046],[-82.5,6.19967],[-82,6.38681],[-81.5,6.57191],[-81,6.75499],[-80.5,6.93605],[-80,7.11513],[-79.5,7.29223],[-79,7.46738],[-78.5,7.6406],[-78,7.81189],[-77.5,7.98129],[-77,8.1488],[-76.5,8.31444],[-76,8.47824],[-75.5,8.6402],[-75,8.80035],[-74.5,8.9587],[-74,9.11526],[-73.5,9.27006],[-73,9.42311],[-72.5,9.57443],[-72.11133,9.69087]]}},{"type":"Feature","id":"+00450205:center:0","properties":{"id":"+00450205","year":45,"month":2,"day":5,"time_tdt":"23:45:29","type":"금환일식","type_code":"A","saros":70,"gamma":-0.05137,"magnitude":0.94022,"greatest":{"lat":-19.2439,"lng":-129.2912},"path_width_km":221.9,"duration":"07m34s","delta_t_seconds":10085.3,"catalog_number":4886,"source":"NASA Five Millennium Canon of Solar Eclipses","source_url":"https://eclipse.gsfc.nasa.gov/SEsearch/SEsearchmap.php?Ecl=%2B00450205","boundary":"center","name":"45-02-05 금환일식"},"geometry":{"type":"LineString","coordinates":[[165.08698,-14.12419],[165.5,-14.24603],[166,-14.39281],[166.5,-14.53926],[167,-14.68536],[167.5,-14.83108],[168,-14.97642],[168.5,-15.12135],[169,-15.26586],[169.5,-15.40992],[170,-15.55352],[170.5,-15.69663],[171,-15.83924],[171.5,-15.98132],[172,-16.12286],[172.5,-16.26384],[173,-16.40422],[173.5,-16.544],[174,-16.68314],[174.5,-16.82163],[175,-16.95943],[175.5,-17.09654],[176,-17.23292],[176.5,-17.36854],[177,-17.50339],[177.5,-17.63744],[178,-17.77067],[178.5,-17.90303],[179,-18.03452],[179.5,-18.1651],[180,-18.29475]]}},{"type":"Feature","id":"+00450205:center:1","properties":{"id":"+00450205","year":45,"month":2,"day":5,"time_tdt":"23:45:29","type":"금환일식","type_code":"A","saros":70,"gamma":-0.05137,"magnitude":0.94022,"greatest":{"lat":-19.2439,"lng":-129.2912},"path_width_km":221.9,"duration":"07m34s","delta_t_seconds":10085.3,"catalog_number":4886,"source":"NASA Five Millennium Canon of Solar Eclipses","source_url":"https://eclipse.gsfc.nasa.gov/SEsearch/SEsearchmap.php?Ecl=%2B00450205","boundary":"center","name":"45-02-05 금환일식"},"geometry":{"type":"LineString","coordinates":[[-179.5,-18.42343],[-179,-18.55113],[-178.5,-18.6778],[-178,-18.80342],[-177.5,-18.92797],[-177,-19.0514],[-176.5,-19.1737],[-176,-19.29482],[-175.5,-19.41474],[-175,-19.53343],[-174.5,-19.65084],[-174,-19.76696],[-173.5,-19.88174],[-173,-19.99515],[-172.5,-20.10715],[-172,-20.21772],[-171.5,-20.32681],[-171,-20.43439],[-170.5,-20.54042],[-170,-20.64487],[-169.5,-20.74769],[-169,-20.84885],[-168.5,-20.94831],[-168,-21.04603],[-167.5,-21.14197],[-167,-21.23608],[-166.5,-21.32833],[-166,-21.41868],[-165.5,-21.50708],[-165,-21.59349],[-164.5,-21.67787],[-164,-21.76017],[-163.5,-21.84034],[-163,-21.91835],[-162.5,-21.99414],[-162,-22.06767],[-161.5,-22.1389],[-161,-22.20776],[-160.5,-22.27423],[-160,-22.33824],[-159.5,-22.39974],[-159,-22.45869],[-158.5,-22.51504],[-158,-22.56873],[-157.5,-22.6197],[-157,-22.66792],[-156.5,-22.71332],[-156,-22.75585],[-155.5,-22.79545],[-155,-22.83207],[-154.5,-22.86566],[-154,-22.89614],[-153.5,-22.92348],[-153,-22.94761],[-152.5,-22.96846],[-152,-22.98598],[-151.5,-23.00012],[-151,-23.0108],[-150.5,-23.01797],[-150,-23.02156],[-149.5,-23.02152],[-149,-23.01778],[-148.5,-23.01027],[-148,-22.99893],[-147.5,-22.9837],[-147,-22.96452],[-146.5,-22.94131],[-146,-22.91401],[-145.5,-22.88256],[-145,-22.84689],[-144.5,-22.80693],[-144,-22.76262],[-143.5,-22.71389],[-143,-22.66068],[-142.5,-22.60292],[-142,-22.54055],[-141.5,-22.4735],[-141,-22.40171],[-140.5,-22.32512],[-140,-22.24367],[-139.5,-22.15729],[-139,-22.06594],[-138.5,-21.96954],[-138,-21.86805],[-137.5,-21.76141],[-137,-21.64958],[-136.5,-21.53251],[-136,-21.41015],[-135.5,-21.28247],[-135,-21.14942],[-134.5,-21.01098],[-134,-20.86711],[-133.5,-20.71779],[-133,-20.56301],[-132.5,-20.40274],[-132,-20.237],[-131.5,-20.06576],[-131,-19.88905],[-130.5,-19.70687],[-130,-19.51924],[-129.5,-19.32619],[-129,-19.12777],[-128.5,-18.92401],[-128,-18.71497],[-127.5,-18.5007],[-127,-18.2813],[-126.5,-18.05682],[-126,-17.82737],[-125.5,-17.59305],[-125,-17.35395],[-124.5,-17.11021],[-124,-16.86195],[-123.5,-16.60931],[-123,-16.35243],[-122.5,-16.09146],[-122,-15.82658],[-121.5,-15.55793],[-121,-15.28571],[-120.5,-15.01009],[-120,-14.73127],[-119.5,-14.44942],[-119,-14.16476],[-118.5,-13.87747],[-118,-13.58777],[-117.5,-13.29585],[-117,-13.00193],[-116.5,-12.7062],[-116,-12.40887],[-115.5,-12.11014],[-115,-11.81022],[-114.5,-11.50931],[-114,-11.2076],[-113.5,-10.90527],[-113,-10.60252],[-112.5,-10.29954],[-112,-9.99648],[-111.5,-9.69354],[-111,-9.39086],[-110.5,-9.08861],[-110,-8.78694],[-109.5,-8.48599],[-109,-8.1859],[-108.5,-7.8868],[-108,-7.58882],[-107.5,-7.29207],[-107,-6.99666],[-106.5,-6.7027],[-106,-6.41027],[-105.5,-6.11948],[-105,-5.8304],[-104.5,-5.54311],[-104,-5.25768],[-103.5,-4.97419],[-103,-4.69268],[-102.5,-4.41321],[-102,-4.13584],[-101.5,-3.86061],[-101,-3.58756],[-100.5,-3.31672],[-100,-3.04813],[-99.5,-2.78181],[-99,-2.5178],[-98.5,-2.2561],[-98,-1.99675],[-97.5,-1.73974],[-97,-1.48511],[-96.5,-1.23285],[-96,-0.98297],[-95.5,-0.73548],[-95,-0.49037],[-94.5,-0.24766],[-94,-0.00733],[-93.5,0.23061],[-93,0.46618],[-92.5,0.69936],[-92,0.93019],[-91.5,1.15865],[-91,1.38477],[-90.5,1.60855],[-90,1.83],[-89.5,2.04914],[-89,2.26598],[-88.5,2.48054],[-88,2.69282],[-87.5,2.90285],[-87,3.11063],[-86.5,3.3162],[-86,3.51955],[-85.5,3.72071],[-85,3.9197],[-84.5,4.11653],[-84,4.31122],[-83.5,4.50378],[-83,4.69424],[-82.5,4.88262],[-82,5.06892],[-81.5,5.25318],[-81,5.4354],[-80.5,5.6156],[-80,5.79381],[-79.5,5.97004],[-79,6.14431],[-78.5,6.31663],[-78,6.48702],[-77.5,6.65551],[-77,6.82211],[-76.5,6.98683],[-76,7.14969],[-75.5,7.31072],[-75,7.46992],[-74.5,7.62732],[-74,7.78292],[-73.5,7.93676],[-73,8.08883],[-72.5,8.23917],[-72,8.38778],[-71.6379,8.49417]]}},{"type":"Feature","id":"+00450205:south:0","properties":{"id":"+00450205","year":45,"month":2,"day":5,"time_tdt":"23:45:29","type":"금환일식","type_code":"A","saros":70,"gamma":-0.05137,"magnitude":0.94022,"greatest":{"lat":-19.2439,"lng":-129.2912},"path_width_km":221.9,"duration":"07m34s","delta_t_seconds":10085.3,"catalog_number":4886,"source":"NASA Five Millennium Canon of Solar Eclipses","source_url":"https://eclipse.gsfc.nasa.gov/SEsearch/SEsearchmap.php?Ecl=%2B00450205","boundary":"south","name":"45-02-05 금환일식"},"geometry":{"type":"LineString","coordinates":[[164.57812,-15.33822],[165,-15.46022],[165.5,-15.60451],[166,-15.74845],[166.5,-15.89203],[167,-16.03522],[167.5,-16.17804],[168,-16.32043],[168.5,-16.46238],[169,-16.60388],[169.5,-16.74491],[170,-16.88545],[170.5,-17.02548],[171,-17.16498],[171.5,-17.30393],[172,-17.4423],[172.5,-17.58008],[173,-17.71725],[173.5,-17.85378],[174,-17.98965],[174.5,-18.12484],[175,-18.25932],[175.5,-18.39308],[176,-18.52609],[176.5,-18.65832],[177,-18.78975],[177.5,-18.92035],[178,-19.05011],[178.5,-19.17898],[179,-19.30696],[179.5,-19.43401],[180,-19.56009]]}},{"type":"Feature","id":"+00450205:south:1","properties":{"id":"+00450205","year":45,"month":2,"day":5,"time_tdt":"23:45:29","type":"금환일식","type_code":"A","saros":70,"gamma":-0.05137,"magnitude":0.94022,"greatest":{"lat":-19.2439,"lng":-129.2912},"path_width_km":221.9,"duration":"07m34s","delta_t_seconds":10085.3,"catalog_number":4886,"source":"NASA Five Millennium Canon of Solar Eclipses","source_url":"https://eclipse.gsfc.nasa.gov/SEsearch/SEsearchmap.php?Ecl=%2B00450205","boundary":"south","name":"45-02-05 금환일식"},"geometry":{"type":"LineString","coordinates":[[-179.5,-19.6852],[-179,-19.8093],[-178.5,-19.93235],[-178,-20.05434],[-177.5,-20.17523],[-177,-20.29499],[-176.5,-20.41359],[-176,-20.53101],[-175.5,-20.64721],[-175,-20.76216],[-174.5,-20.87582],[-174,-20.98818],[-173.5,-21.09918],[-173,-21.20881],[-172.5,-21.31702],[-172,-21.42378],[-171.5,-21.52907],[-171,-21.63283],[-170.5,-21.73504],[-170,-21.83566],[-169.5,-21.93466],[-169,-22.03199],[-168.5,-22.12763],[-168,-22.22152],[-167.5,-22.31364],[-167,-22.40394],[-166.5,-22.49238],[-166,-22.57893],[-165.5,-22.66354],[-165,-22.74617],[-164.5,-22.82679],[-164,-22.90534],[-163.5,-22.98178],[-163,-23.05608],[-162.5,-23.12819],[-162,-23.19805],[-161.5,-23.26564],[-161,-23.3309],[-160.5,-23.39378],[-160,-23.45425],[-159.5,-23.51224],[-159,-23.56772],[-158.5,-23.62063],[-158,-23.67094],[-157.5,-23.71857],[-157,-23.7635],[-156.5,-23.80565],[-156,-23.845],[-155.5,-23.88147],[-155,-23.91502],[-154.5,-23.9456],[-154,-23.97314],[-153.5,-23.99761],[-153,-24.01893],[-152.5,-24.03707],[-152,-24.05195],[-151.5,-24.06352],[-151,-24.07173],[-150.5,-24.07651],[-150,-24.07781],[-149.5,-24.07558],[-149,-24.06974],[-148.5,-24.06024],[-148,-24.04702],[-147.5,-24.03002],[-147,-24.00918],[-146.5,-23.98443],[-146,-23.95571],[-145.5,-23.92297],[-145,-23.88614],[-144.5,-23.84516],[-144,-23.79996],[-143.5,-23.75049],[-143,-23.69668],[-142.5,-23.63846],[-142,-23.57579],[-141.5,-23.5086],[-141,-23.43683],[-140.5,-23.36041],[-140,-23.2793],[-139.5,-23.19343],[-139,-23.10275],[-138.5,-23.00721],[-138,-22.90675],[-137.5,-22.80132],[-137,-22.69088],[-136.5,-22.57537],[-136,-22.45476],[-135.5,-22.329],[-135,-22.19807],[-134.5,-22.06192],[-134,-21.92052],[-133.5,-21.77386],[-133,-21.62192],[-132.5,-21.46467],[-132,-21.3021],[-131.5,-21.13423],[-131,-20.96104],[-130.5,-20.78254],[-130,-20.59876],[-129.5,-20.4097],[-129,-20.21542],[-128.5,-20.01593],[-128,-19.81129],[-127.5,-19.60155],[-127,-19.38678],[-126.5,-19.16704],[-126,-18.94242],[-125.5,-18.713],[-125,-18.47889],[-124.5,-18.24019],[-124,-17.99701],[-123.5,-17.74949],[-123,-17.49775],[-122.5,-17.24194],[-122,-16.9822],[-121.5,-16.71869],[-121,-16.45158],[-120.5,-16.18104],[-120,-15.90724],[-119.5,-15.63037],[-119,-15.35061],[-118.5,-15.06814],[-118,-14.78318],[-117.5,-14.4959],[-117,-14.20651],[-116.5,-13.91521],[-116,-13.6222],[-115.5,-13.32767],[-115,-13.03182],[-114.5,-12.73485],[-114,-12.43695],[-113.5,-12.13831],[-113,-11.83911],[-112.5,-11.53954],[-112,-11.23978],[-111.5,-10.93998],[-111,-10.64033],[-110.5,-10.34098],[-110,-10.04208],[-109.5,-9.74378],[-109,-9.44622],[-108.5,-9.14953],[-108,-8.85385],[-107.5,-8.5593],[-107,-8.26598],[-106.5,-7.97401],[-106,-7.68348],[-105.5,-7.39449],[-105,-7.10714],[-104.5,-6.82149],[-104,-6.53763],[-103.5,-6.25562],[-103,-5.97554],[-102.5,-5.69744],[-102,-5.42137],[-101.5,-5.14739],[-101,-4.87553],[-100.5,-4.60584],[-100,-4.33836],[-99.5,-4.07311],[-99,-3.81012],[-98.5,-3.54942],[-98,-3.29103],[-97.5,-3.03496],[-97,-2.78124],[-96.5,-2.52986],[-96,-2.28085],[-95.5,-2.03421],[-95,-1.78994],[-94.5,-1.54804],[-94,-1.30852],[-93.5,-1.07137],[-93,-0.8366],[-92.5,-0.60419],[-92,-0.37414],[-91.5,-0.14645],[-91,0.0789],[-90.5,0.30192],[-90,0.52261],[-89.5,0.74099],[-89,0.95707],[-88.5,1.17086],[-88,1.38237],[-87.5,1.59163],[-87,1.79864],[-86.5,2.00343],[-86,2.206],[-85.5,2.40638],[-85,2.60457],[-84.5,2.8006],[-84,2.99449],[-83.5,3.18624],[-83,3.37589],[-82.5,3.56344],[-82,3.74891],[-81.5,3.93233],[-81,4.1137],[-80.5,4.29306],[-80,4.4704],[-79.5,4.64576],[-79,4.81916],[-78.5,4.99059],[-78,5.1601],[-77.5,5.32769],[-77,5.49338],[-76.5,5.65719],[-76,5.81913],[-75.5,5.97923],[-75,6.13749],[-74.5,6.29394],[-74,6.4486],[-73.5,6.60148],[-73,6.75259],[-72.5,6.90195],[-72,7.04959],[-71.5,7.1955],[-71.1543,7.2954]]}},{"type":"Feature","id":"+00450801:north:0","properties":{"id":"+00450801","year":45,"month":8,"day":1,"time_tdt":"12:10:30","type":"개기일식","type_code":"Tm","saros":75,"gamma":-0.00114,"magnitude":1.07242,"greatest":{"lat":18.93399,"lng":40.19495},"path_width_km":235.3,"duration":"06m30s","delta_t_seconds":10080.5,"catalog_number":4887,"source":"NASA Five Millennium Canon of Solar Eclipses","source_url":"https://eclipse.gsfc.nasa.gov/SEsearch/SEsearchmap.php?Ecl=%2B00450801","boundary":"north","name":"45-08-01 개기일식"},"geometry":{"type":"LineString","coordinates":[[-27.28906,9.15064],[-27,9.25189],[-26.5,9.42699],[-26,9.60203],[-25.5,9.77698],[-25,9.95182],[-24.5,10.12655],[-24,10.30113],[-23.5,10.47555],[-23,10.64979],[-22.5,10.82383],[-22,10.99765],[-21.5,11.17122],[-21,11.34452],[-20.5,11.51754],[-20,11.69025],[-19.5,11.86263],[-19,12.03465],[-18.5,12.20629],[-18,12.37752],[-17.5,12.54833],[-17,12.71868],[-16.5,12.88855],[-16,13.05791],[-15.5,13.22675],[-15,13.39502],[-14.5,13.5627],[-14,13.72977],[-13.5,13.8962],[-13,14.06196],[-12.5,14.22701],[-12,14.39134],[-11.5,14.5549],[-11,14.71767],[-10.5,14.87962],[-10,15.04071],[-9.5,15.20092],[-9,15.36021],[-8.5,15.51855],[-8,15.6759],[-7.5,15.83224],[-7,15.98752],[-6.5,16.14171],[-6,16.29479],[-5.5,16.4467],[-5,16.59743],[-4.5,16.74692],[-4,16.89514],[-3.5,17.04207],[-3,17.18765],[-2.5,17.33185],[-2,17.47464],[-1.5,17.61597],[-1,17.75581],[-0.5,17.89411],[0,18.03084],[0.5,18.16596],[1,18.29942],[1.5,18.43119],[2,18.56123],[2.5,18.68949],[3,18.81593],[3.5,18.94051],[4,19.06318],[4.5,19.18392],[5,19.30267],[5.5,19.41938],[6,19.53403],[6.5,19.64656],[7,19.75693],[7.5,19.86509],[8,19.97101],[8.5,20.07464],[9,20.17594],[9.5,20.27485],[10,20.37134],[10.5,20.46536],[11,20.55687],[11.5,20.64582],[12,20.73217],[12.5,20.81587],[13,20.89687],[13.5,20.97514],[14,21.05062],[14.5,21.12328],[15,21.19306],[15.5,21.25992],[16,21.32382],[16.5,21.38471],[17,21.44254],[17.5,21.49728],[18,21.54887],[18.5,21.59727],[19,21.64244],[19.5,21.68432],[20,21.72289],[20.5,21.75809],[21,21.78988],[21.5,21.81821],[22,21.84304],[22.5,21.86433],[23,21.88204],[23.5,21.89612],[24,21.90653],[24.5,21.91322],[25,21.91616],[25.5,21.91531],[26,21.91062],[26.5,21.90206],[27,21.88958],[27.5,21.87315],[28,21.85273],[28.5,21.82828],[29,21.79976],[29.5,21.76714],[30,21.73039],[30.5,21.68947],[31,21.64435],[31.5,21.59499],[32,21.54137],[32.5,21.48346],[33,21.42123],[33.5,21.35466],[34,21.28371],[34.5,21.20837],[35,21.12862],[35.5,21.04444],[36,20.9558],[36.5,20.86271],[37,20.76513],[37.5,20.66307],[38,20.55652],[38.5,20.44546],[39,20.3299],[39.5,20.20984],[40,20.08528],[40.5,19.95622],[41,19.82269],[41.5,19.68468],[42,19.54222],[42.5,19.39532],[43,19.24401],[43.5,19.08832],[44,18.92827],[44.5,18.76391],[45,18.59526],[45.5,18.42238],[46,18.2453],[46.5,18.06409],[47,17.87879],[47.5,17.68946],[48,17.49617],[48.5,17.29898],[49,17.09797],[49.5,16.89321],[50,16.68477],[50.5,16.47275],[51,16.25723],[51.5,16.03829],[52,15.81604],[52.5,15.59057],[53,15.36197],[53.5,15.13036],[54,14.89583],[54.5,14.6585],[55,14.41847],[55.5,14.17586],[56,13.93079],[56.5,13.68336],[57,13.43369],[57.5,13.18191],[58,12.92813],[58.5,12.67247],[59,12.41505],[59.5,12.15599],[60,11.8954],[60.5,11.63342],[61,11.37014],[61.5,11.1057],[62,10.84021],[62.5,10.57378],[63,10.30652],[63.5,10.03855],[64,9.76995],[64.5,9.50089],[65,9.23141],[65.5,8.96165],[66,8.69168],[66.5,8.42163],[67,8.15156],[67.5,7.88159],[68,7.61179],[68.5,7.34226],[69,7.07307],[69.5,6.8043],[70,6.53604],[70.5,6.26835],[71,6.0013],[71.5,5.73497],[72,5.46942],[72.5,5.20471],[73,4.94089],[73.5,4.67804],[74,4.41619],[74.5,4.1554],[75,3.89572],[75.5,3.63719],[76,3.37987],[76.5,3.12377],[77,2.86896],[77.5,2.61545],[78,2.3633],[78.5,2.11252],[79,1.86314],[79.5,1.6152],[80,1.36872],[80.5,1.12373],[81,0.88024],[81.5,0.63827],[82,0.39786],[82.5,0.159],[83,-0.07828],[83.5,-0.31397],[84,-0.54805],[84.5,-0.78052],[85,-1.01136],[85.5,-1.24056],[86,-1.46812],[86.5,-1.69403],[87,-1.91829],[87.5,-2.14088],[88,-2.36181],[88.5,-2.58106],[89,-2.79865],[89.5,-3.01457],[90,-3.22881],[90.5,-3.44137],[91,-3.65227],[91.5,-3.86149],[92,-4.06903],[92.5,-4.27492],[93,-4.47913],[93.5,-4.68168],[94,-4.88257],[94.5,-5.08181],[95,-5.27939],[95.5,-5.47533],[96,-5.66962],[96.5,-5.86228],[97,-6.05331],[97.5,-6.24271],[98,-6.43049],[98.5,-6.61666],[99,-6.80122],[99.5,-6.98419],[100,-7.16556],[100.5,-7.34534],[101,-7.52355],[101.5,-7.70019],[101.84766,-7.82208]]}},{"type":"Feature","id":"+00450801:center:0","properties":{"id":"+00450801","year":45,"month":8,"day":1,"time_tdt":"12:10:30","type":"개기일식","type_code":"Tm","saros":75,"gamma":-0.00114,"magnitude":1.07242,"greatest":{"lat":18.93399,"lng":40.19495},"path_width_km":235.3,"duration":"06m30s","delta_t_seconds":10080.5,"catalog_number":4887,"source":"NASA Five Millennium Canon of Solar Eclipses","source_url":"https://eclipse.gsfc.nasa.gov/SEsearch/SEsearchmap.php?Ecl=%2B00450801","boundary":"center","name":"45-08-01 개기일식"},"geometry":{"type":"LineString","coordinates":[[-26.97482,8.40007],[-26.5,8.56391],[-26,8.73634],[-25.5,8.90869],[-25,9.08094],[-24.5,9.25307],[-24,9.42507],[-23.5,9.59691],[-23,9.76858],[-22.5,9.94006],[-22,10.11132],[-21.5,10.28235],[-21,10.45313],[-20.5,10.62363],[-20,10.79383],[-19.5,10.9637],[-19,11.13324],[-18.5,11.30241],[-18,11.47118],[-17.5,11.63955],[-17,11.80747],[-16.5,11.97493],[-16,12.1419],[-15.5,12.30835],[-15,12.47426],[-14.5,12.63961],[-14,12.80436],[-13.5,12.96848],[-13,13.13195],[-12.5,13.29475],[-12,13.45683],[-11.5,13.61817],[-11,13.77875],[-10.5,13.93853],[-10,14.09747],[-9.5,14.25555],[-9,14.41274],[-8.5,14.56901],[-8,14.72431],[-7.5,14.87863],[-7,15.03191],[-6.5,15.18414],[-6,15.33527],[-5.5,15.48527],[-5,15.63411],[-4.5,15.78174],[-4,15.92814],[-3.5,16.07326],[-3,16.21707],[-2.5,16.35953],[-2,16.5006],[-1.5,16.64025],[-1,16.77843],[-0.5,16.91511],[0,17.05024],[0.5,17.18379],[1,17.31571],[1.5,17.44597],[2,17.57452],[2.5,17.70132],[3,17.82633],[3.5,17.94951],[4,18.07081],[4.5,18.1902],[5,18.30762],[5.5,18.42304],[6,18.53641],[6.5,18.64769],[7,18.75684],[7.5,18.8638],[8,18.96853],[8.5,19.071],[9,19.17115],[9.5,19.26893],[10,19.36431],[10.5,19.45724],[11,19.54767],[11.5,19.63555],[12,19.72084],[12.5,19.80349],[13,19.88346],[13.5,19.9607],[14,20.03516],[14.5,20.1068],[15,20.17556],[15.5,20.24141],[16,20.30429],[16.5,20.36416],[17,20.42097],[17.5,20.47468],[18,20.52523],[18.5,20.57259],[19,20.6167],[19.5,20.65752],[20,20.69499],[20.5,20.72909],[21,20.75975],[21.5,20.78694],[22,20.81061],[22.5,20.8307],[23,20.84719],[23.5,20.86002],[24,20.86915],[24.5,20.87453],[25,20.87613],[25.5,20.8739],[26,20.86779],[26.5,20.85777],[27,20.8438],[27.5,20.82583],[28,20.80383],[28.5,20.77775],[29,20.74756],[29.5,20.71323],[30,20.67472],[30.5,20.63198],[31,20.585],[31.5,20.53374],[32,20.47816],[32.5,20.41825],[33,20.35396],[33.5,20.28529],[34,20.21219],[34.5,20.13466],[35,20.05266],[35.5,19.96619],[36,19.87523],[36.5,19.77976],[37,19.67978],[37.5,19.57527],[38,19.46623],[38.5,19.35266],[39,19.23456],[39.5,19.11193],[40,18.98479],[40.5,18.85313],[41,18.71697],[41.5,18.57633],[42,18.43124],[42.5,18.28171],[43,18.12778],[43.5,17.96947],[44,17.80683],[44.5,17.63989],[45,17.4687],[45.5,17.2933],[46,17.11376],[46.5,16.93013],[47,16.74246],[47.5,16.55083],[48,16.3553],[48.5,16.15595],[49,15.95285],[49.5,15.7461],[50,15.53576],[50.5,15.32194],[51,15.10472],[51.5,14.8842],[52,14.66048],[52.5,14.43366],[53,14.20384],[53.5,13.97114],[54,13.73567],[54.5,13.49753],[55,13.25684],[55.5,13.01372],[56,12.76828],[56.5,12.52064],[57,12.27092],[57.5,12.01924],[58,11.76571],[58.5,11.51047],[59,11.25363],[59.5,10.9953],[60,10.73562],[60.5,10.47468],[61,10.21262],[61.5,9.94954],[62,9.68556],[62.5,9.4208],[63,9.15535],[63.5,8.88934],[64,8.62286],[64.5,8.35601],[65,8.08891],[65.5,7.82164],[66,7.5543],[66.5,7.28699],[67,7.01979],[67.5,6.75279],[68,6.48607],[68.5,6.21972],[69,5.95382],[69.5,5.68843],[70,5.42363],[70.5,5.15949],[71,4.89608],[71.5,4.63345],[72,4.37168],[72.5,4.11081],[73,3.8509],[73.5,3.59201],[74,3.33417],[74.5,3.07745],[75,2.82188],[75.5,2.5675],[76,2.31436],[76.5,2.06249],[77,1.81193],[77.5,1.56271],[78,1.31485],[78.5,1.0684],[79,0.82336],[79.5,0.57978],[80,0.33767],[80.5,0.09705],[81,-0.14206],[81.5,-0.37964],[82,-0.61566],[82.5,-0.85013],[83,-1.08302],[83.5,-1.31433],[84,-1.54404],[84.5,-1.77213],[85,-1.99862],[85.5,-2.22347],[86,-2.4467],[86.5,-2.66829],[87,-2.88824],[87.5,-3.10654],[88,-3.3232],[88.5,-3.5382],[89,-3.75156],[89.5,-3.96326],[90,-4.17331],[90.5,-4.38171],[91,-4.58846],[91.5,-4.79356],[92,-4.99701],[92.5,-5.19882],[93,-5.39898],[93.5,-5.59751],[94,-5.79441],[94.5,-5.98968],[95,-6.18332],[95.5,-6.37534],[96,-6.56575],[96.5,-6.75455],[97,-6.94175],[97.5,-7.12735],[98,-7.31136],[98.5,-7.49379],[99,-7.67464],[99.5,-7.85391],[100,-8.03163],[100.5,-8.20779],[101,-8.38239],[101.5,-8.55546],[101.53802,-8.56728]]}},{"type":"Feature","id":"+00450801:south:0","properties":{"id":"+00450801","year":45,"month":8,"day":1,"time_tdt":"12:10:30","type":"개기일식","type_code":"Tm","saros":75,"gamma":-0.00114,"magnitude":1.07242,"greatest":{"lat":18.93399,"lng":40.19495},"path_width_km":235.3,"duration":"06m30s","delta_t_seconds":10080.5,"catalog_number":4887,"source":"NASA Five Millennium Canon of Solar Eclipses","source_url":"https://eclipse.gsfc.nasa.gov/SEsearch/SEsearchmap.php?Ecl=%2B00450801","boundary":"south","name":"45-08-01 개기일식"},"geometry":{"type":"LineString","coordinates":[[-26.66211,7.65084],[-26.5,7.70592],[-26,7.87576],[-25.5,8.04552],[-25,8.21519],[-24.5,8.38474],[-24,8.55417],[-23.5,8.72345],[-23,8.89256],[-22.5,9.06148],[-22,9.2302],[-21.5,9.3987],[-21,9.56694],[-20.5,9.73492],[-20,9.90261],[-19.5,10.06999],[-19,10.23704],[-18.5,10.40373],[-18,10.57004],[-17.5,10.73596],[-17,10.90144],[-16.5,11.06648],[-16,11.23104],[-15.5,11.39511],[-15,11.55864],[-14.5,11.72163],[-14,11.88403],[-13.5,12.04583],[-13,12.207],[-12.5,12.36751],[-12,12.52733],[-11.5,12.68642],[-11,12.84477],[-10.5,13.00235],[-10,13.15911],[-9.5,13.31503],[-9,13.47008],[-8.5,13.62423],[-8,13.77745],[-7.5,13.9297],[-7,14.08094],[-6.5,14.23115],[-6,14.38029],[-5.5,14.52833],[-5,14.67523],[-4.5,14.82095],[-4,14.96546],[-3.5,15.10872],[-3,15.2507],[-2.5,15.39136],[-2,15.53065],[-1.5,15.66855],[-1,15.80501],[-0.5,15.93999],[0,16.07346],[0.5,16.20537],[1,16.33568],[1.5,16.46435],[2,16.59134],[2.5,16.71661],[3,16.84012],[3.5,16.96182],[4,17.08167],[4.5,17.19963],[5,17.31565],[5.5,17.4297],[6,17.54171],[6.5,17.65166],[7,17.75949],[7.5,17.86516],[8,17.96863],[8.5,18.06985],[9,18.16877],[9.5,18.26534],[10,18.35953],[10.5,18.45127],[11,18.54053],[11.5,18.62726],[12,18.71142],[12.5,18.79294],[13,18.87179],[13.5,18.94791],[14,19.02126],[14.5,19.0918],[15,19.15946],[15.5,19.22421],[16,19.286],[16.5,19.34477],[17,19.40047],[17.5,19.45307],[18,19.50251],[18.5,19.54874],[19,19.59171],[19.5,19.63138],[20,19.66769],[20.5,19.70061],[21,19.73007],[21.5,19.75604],[22,19.77846],[22.5,19.7973],[23,19.81249],[23.5,19.82401],[24,19.83179],[24.5,19.83579],[25,19.83598],[25.5,19.8323],[26,19.82471],[26.5,19.81317],[27,19.79764],[27.5,19.77807],[28,19.75443],[28.5,19.72667],[29,19.69476],[29.5,19.65866],[30,19.61833],[30.5,19.57373],[31,19.52484],[31.5,19.47163],[32,19.41405],[32.5,19.35209],[33,19.28571],[33.5,19.2149],[34,19.13962],[34.5,19.05986],[35,18.9756],[35.5,18.88682],[36,18.79351],[36.5,18.69565],[37,18.59325],[37.5,18.48629],[38,18.37477],[38.5,18.25869],[39,18.13806],[39.5,18.01288],[40,17.88317],[40.5,17.74893],[41,17.61019],[41.5,17.46697],[42,17.31929],[42.5,17.16719],[43,17.01069],[43.5,16.84984],[44,16.68468],[44.5,16.51526],[45,16.34162],[45.5,16.16382],[46,15.98193],[46.5,15.79599],[47,15.60609],[47.5,15.41229],[48,15.21468],[48.5,15.01332],[49,14.80831],[49.5,14.59973],[50,14.38767],[50.5,14.17224],[51,13.95352],[51.5,13.73161],[52,13.50663],[52.5,13.27868],[53,13.04787],[53.5,12.81431],[54,12.57812],[54.5,12.33941],[55,12.09829],[55.5,11.85489],[56,11.60933],[56.5,11.36172],[57,11.11218],[57.5,10.86084],[58,10.60782],[58.5,10.35323],[59,10.0972],[59.5,9.83984],[60,9.58128],[60.5,9.32162],[61,9.06098],[61.5,8.79948],[62,8.53723],[62.5,8.27432],[63,8.01089],[63.5,7.74701],[64,7.48281],[64.5,7.21837],[65,6.95379],[65.5,6.68917],[66,6.42461],[66.5,6.16017],[67,5.89596],[67.5,5.63206],[68,5.36854],[68.5,5.10548],[69,4.84295],[69.5,4.58102],[70,4.31977],[70.5,4.05925],[71,3.79953],[71.5,3.54066],[72,3.28271],[72.5,3.02572],[73,2.76975],[73.5,2.51484],[74,2.26104],[74.5,2.00839],[75,1.75693],[75.5,1.5067],[76,1.25774],[76.5,1.01008],[77,0.76375],[77.5,0.51878],[78,0.2752],[78.5,0.03303],[79,-0.2077],[79.5,-0.44697],[80,-0.68476],[80.5,-0.92105],[81,-1.15583],[81.5,-1.38907],[82,-1.62077],[82.5,-1.85091],[83,-2.07949],[83.5,-2.30648],[84,-2.53188],[84.5,-2.75568],[85,-2.97788],[85.5,-3.19846],[86,-3.41743],[86.5,-3.63478],[87,-3.8505],[87.5,-4.06459],[88,-4.27706],[88.5,-4.4879],[89,-4.6971],[89.5,-4.90468],[90,-5.11062],[90.5,-5.31494],[91,-5.51762],[91.5,-5.71869],[92,-5.91813],[92.5,-6.11595],[93,-6.31216],[93.5,-6.50675],[94,-6.69974],[94.5,-6.89113],[95,-7.08091],[95.5,-7.26911],[96,-7.45572],[96.5,-7.64075],[97,-7.8242],[97.5,-8.00608],[98,-8.1864],[98.5,-8.36517],[99,-8.54238],[99.5,-8.71806],[100,-8.89219],[100.5,-9.0648],[101,-9.23589],[101.1875,-9.29966]]}}],"attribution":"Eclipse Predictions by Fred Espenak and Jean Meeus (NASA's GSFC)","generated_at":"2026-09-23T01:44:43.628Z"}
