{"type":"FeatureCollection","year":456,"events":[{"id":"+04560123","year":456,"month":1,"day":23,"time_tdt":"08:46:30","type":"부분일식","type_code":"Pb","saros":106,"gamma":-1.53321,"magnitude":0.01122,"greatest":{"lat":-68.99689,"lng":-126.49139},"path_width_km":0,"duration":"00m00s","delta_t_seconds":6113.5,"catalog_number":5834,"source":"NASA Five Millennium Canon of Solar Eclipses","source_url":"https://eclipse.gsfc.nasa.gov/SEsearch/SEsearchmap.php?Ecl=%2B04560123"},{"id":"+04560619","year":456,"month":6,"day":19,"time_tdt":"01:47:00","type":"부분일식","type_code":"P","saros":73,"gamma":-1.04313,"magnitude":0.88874,"greatest":{"lat":-65.55828,"lng":-166.09894},"path_width_km":0,"duration":"00m00s","delta_t_seconds":6109.5,"catalog_number":5835,"source":"NASA Five Millennium Canon of Solar Eclipses","source_url":"https://eclipse.gsfc.nasa.gov/SEsearch/SEsearchmap.php?Ecl=%2B04560619"},{"id":"+04561213","year":456,"month":12,"day":13,"time_tdt":"13:41:28","type":"개기일식","type_code":"T","saros":78,"gamma":0.50102,"magnitude":1.03418,"greatest":{"lat":6.33597,"lng":4.01331},"path_width_km":132.8,"duration":"03m23s","delta_t_seconds":6104.7,"catalog_number":5836,"source":"NASA Five Millennium Canon of Solar Eclipses","source_url":"https://eclipse.gsfc.nasa.gov/SEsearch/SEsearchmap.php?Ecl=%2B04561213"}],"features":[{"type":"Feature","id":"+04561213:north:0","properties":{"id":"+04561213","year":456,"month":12,"day":13,"time_tdt":"13:41:28","type":"개기일식","type_code":"T","saros":78,"gamma":0.50102,"magnitude":1.03418,"greatest":{"lat":6.33597,"lng":4.01331},"path_width_km":132.8,"duration":"03m23s","delta_t_seconds":6104.7,"catalog_number":5836,"source":"NASA Five Millennium Canon of Solar Eclipses","source_url":"https://eclipse.gsfc.nasa.gov/SEsearch/SEsearchmap.php?Ecl=%2B04561213","boundary":"north","name":"456-12-13 개기일식"},"geometry":{"type":"LineString","coordinates":[[-49.90234,35.23536],[-49.5,35.05245],[-49,34.82364],[-48.5,34.59316],[-48,34.36099],[-47.5,34.12714],[-47,33.8916],[-46.5,33.65436],[-46,33.41543],[-45.5,33.17481],[-45,32.93248],[-44.5,32.68845],[-44,32.44272],[-43.5,32.19528],[-43,31.94614],[-42.5,31.69529],[-42,31.44274],[-41.5,31.18849],[-41,30.93255],[-40.5,30.6749],[-40,30.41556],[-39.5,30.15454],[-39,29.89182],[-38.5,29.62744],[-38,29.36138],[-37.5,29.09366],[-37,28.82429],[-36.5,28.55327],[-36,28.28063],[-35.5,28.00636],[-35,27.7305],[-34.5,27.45304],[-34,27.17401],[-33.5,26.89343],[-33,26.61131],[-32.5,26.32768],[-32,26.04257],[-31.5,25.75599],[-31,25.46798],[-30.5,25.17856],[-30,24.88777],[-29.5,24.59564],[-29,24.30221],[-28.5,24.00752],[-28,23.7116],[-27.5,23.41451],[-27,23.11629],[-26.5,22.817],[-26,22.51667],[-25.5,22.21538],[-25,21.91319],[-24.5,21.61015],[-24,21.30634],[-23.5,21.00182],[-23,20.69667],[-22.5,20.39098],[-22,20.08482],[-21.5,19.77829],[-21,19.47147],[-20.5,19.16446],[-20,18.85736],[-19.5,18.55029],[-19,18.24335],[-18.5,17.93665],[-18,17.63032],[-17.5,17.32448],[-17,17.01927],[-16.5,16.71481],[-16,16.41125],[-15.5,16.10874],[-15,15.80742],[-14.5,15.50744],[-14,15.20897],[-13.5,14.91217],[-13,14.6172],[-12.5,14.32424],[-12,14.03346],[-11.5,13.74504],[-11,13.45916],[-10.5,13.17601],[-10,12.89577],[-9.5,12.61862],[-9,12.34477],[-8.5,12.07439],[-8,11.80768],[-7.5,11.54484],[-7,11.28604],[-6.5,11.03149],[-6,10.78136],[-5.5,10.53585],[-5,10.29513],[-4.5,10.05939],[-4,9.8288],[-3.5,9.60352],[-3,9.38373],[-2.5,9.16959],[-2,8.96124],[-1.5,8.75884],[-1,8.56252],[-0.5,8.37241],[0,8.18865],[0.5,8.01134],[1,7.84059],[1.5,7.67651],[2,7.51917],[2.5,7.36867],[3,7.22507],[3.5,7.08843],[4,6.95881],[4.5,6.83625],[5,6.72079],[5.5,6.61245],[6,6.51124],[6.5,6.41717],[7,6.33025],[7.5,6.25046],[8,6.17778],[8.5,6.11219],[9,6.05366],[9.5,6.00215],[10,5.9576],[10.5,5.91998],[11,5.88921],[11.5,5.86523],[12,5.84798],[12.5,5.83737],[13,5.83333],[13.5,5.83577],[14,5.84461],[14.5,5.85974],[15,5.88109],[15.5,5.90854],[16,5.94199],[16.5,5.98135],[17,6.02651],[17.5,6.07735],[18,6.13378],[18.5,6.19568],[19,6.26293],[19.5,6.33544],[20,6.41307],[20.5,6.49573],[21,6.5833],[21.5,6.67565],[22,6.77269],[22.5,6.8743],[23,6.98036],[23.5,7.09076],[24,7.20539],[24.5,7.32415],[25,7.44691],[25.5,7.57357],[26,7.70403],[26.5,7.83818],[27,7.97591],[27.5,8.11711],[28,8.2617],[28.5,8.40956],[29,8.56059],[29.5,8.7147],[30,8.8718],[30.5,9.03178],[31,9.19455],[31.5,9.36003],[32,9.52811],[32.5,9.69873],[33,9.87178],[33.5,10.04718],[34,10.22485],[34.5,10.40471],[35,10.58668],[35.5,10.77068],[36,10.95664],[36.5,11.14447],[37,11.33411],[37.5,11.52549],[38,11.71854],[38.5,11.91318],[39,12.10936],[39.5,12.307],[40,12.50605],[40.5,12.70643],[41,12.90811],[41.5,13.111],[42,13.31506],[42.5,13.52023],[43,13.72646],[43.5,13.93369],[44,14.14188],[44.5,14.35096],[45,14.5609],[45.5,14.77164],[46,14.98315],[46.5,15.19536],[47,15.40825],[47.5,15.62176],[48,15.83585],[48.5,16.0505],[49,16.26565],[49.5,16.48126],[50,16.69731],[50.5,16.91375],[51,17.13055],[51.5,17.34767],[52,17.56509],[52.5,17.78276],[53,18.00067],[53.5,18.21877],[54,18.43704],[54.5,18.65545],[55,18.87397],[55.5,19.09257],[56,19.31123],[56.5,19.52992],[57,19.74862],[57.5,19.96731],[58,20.18595],[58.13672,20.24572]]}},{"type":"Feature","id":"+04561213:center:0","properties":{"id":"+04561213","year":456,"month":12,"day":13,"time_tdt":"13:41:28","type":"개기일식","type_code":"T","saros":78,"gamma":0.50102,"magnitude":1.03418,"greatest":{"lat":6.33597,"lng":4.01331},"path_width_km":132.8,"duration":"03m23s","delta_t_seconds":6104.7,"catalog_number":5836,"source":"NASA Five Millennium Canon of Solar Eclipses","source_url":"https://eclipse.gsfc.nasa.gov/SEsearch/SEsearchmap.php?Ecl=%2B04561213","boundary":"center","name":"456-12-13 개기일식"},"geometry":{"type":"LineString","coordinates":[[-49.99298,34.97054],[-50,34.93764],[-49.5,34.70755],[-49,34.47575],[-48.5,34.24226],[-48,34.00706],[-47.5,33.77014],[-47,33.53151],[-46.5,33.29116],[-46,33.0491],[-45.5,32.8053],[-45,32.55978],[-44.5,32.31254],[-44,32.06356],[-43.5,31.81286],[-43,31.56042],[-42.5,31.30626],[-42,31.05036],[-41.5,30.79274],[-41,30.5334],[-40.5,30.27233],[-40,30.00954],[-39.5,29.74505],[-39,29.47884],[-38.5,29.21093],[-38,28.94133],[-37.5,28.67004],[-37,28.39708],[-36.5,28.12245],[-36,27.84617],[-35.5,27.56824],[-35,27.2887],[-34.5,27.00754],[-34,26.72479],[-33.5,26.44047],[-33,26.1546],[-32.5,25.8672],[-32,25.57829],[-31.5,25.28791],[-31,24.99608],[-30.5,24.70284],[-30,24.40821],[-29.5,24.11223],[-29,23.81494],[-28.5,23.51638],[-28,23.21659],[-27.5,22.91563],[-27,22.61354],[-26.5,22.31037],[-26,22.00617],[-25.5,21.70102],[-25,21.39497],[-24.5,21.08809],[-24,20.78044],[-23.5,20.47211],[-23,20.16317],[-22.5,19.8537],[-22,19.54379],[-21.5,19.23354],[-21,18.92303],[-20.5,18.61237],[-20,18.30166],[-19.5,17.99102],[-19,17.68055],[-18.5,17.37038],[-18,17.06064],[-17.5,16.75144],[-17,16.44294],[-16.5,16.13525],[-16,15.82854],[-15.5,15.52295],[-15,15.21863],[-14.5,14.91574],[-14,14.61444],[-13.5,14.31491],[-13,14.01731],[-12.5,13.72182],[-12,13.42861],[-11.5,13.13787],[-11,12.84979],[-10.5,12.56454],[-10,12.28232],[-9.5,12.00332],[-9,11.72774],[-8.5,11.45575],[-8,11.18757],[-7.5,10.92337],[-7,10.66335],[-6.5,10.4077],[-6,10.15661],[-5.5,9.91026],[-5,9.66884],[-4.5,9.43252],[-4,9.20147],[-3.5,8.97588],[-3,8.75588],[-2.5,8.54166],[-2,8.33335],[-1.5,8.1311],[-1,7.93504],[-0.5,7.74531],[0,7.56202],[0.5,7.38529],[1,7.21522],[1.5,7.05191],[2,6.89543],[2.5,6.74587],[3,6.6033],[3.5,6.46776],[4,6.33932],[4.5,6.218],[5,6.10384],[5.5,5.99686],[6,5.89708],[6.5,5.80449],[7,5.7191],[7.5,5.64088],[8,5.56982],[8.5,5.5059],[9,5.44907],[9.5,5.39929],[10,5.35652],[10.5,5.3207],[11,5.29177],[11.5,5.26966],[12,5.2543],[12.5,5.24562],[13,5.24353],[13.5,5.24794],[14,5.25878],[14.5,5.27594],[15,5.29933],[15.5,5.32885],[16,5.3644],[16.5,5.40588],[17,5.45318],[17.5,5.50619],[18,5.5648],[18.5,5.62891],[19,5.6984],[19.5,5.77316],[20,5.85308],[20.5,5.93804],[21,6.02793],[21.5,6.12264],[22,6.22205],[22.5,6.32605],[23,6.43453],[23.5,6.54738],[24,6.66448],[24.5,6.78572],[25,6.911],[25.5,7.0402],[26,7.17322],[26.5,7.30995],[27,7.45028],[27.5,7.59412],[28,7.74135],[28.5,7.89187],[29,8.0456],[29.5,8.20242],[30,8.36225],[30.5,8.52498],[31,8.69052],[31.5,8.85878],[32,9.02967],[32.5,9.20311],[33,9.379],[33.5,9.55725],[34,9.7378],[34.5,9.92054],[35,10.10541],[35.5,10.29232],[36,10.4812],[36.5,10.67197],[37,10.86456],[37.5,11.0589],[38,11.25491],[38.5,11.45253],[39,11.65169],[39.5,11.85232],[40,12.05436],[40.5,12.25776],[41,12.46244],[41.5,12.66835],[42,12.87543],[42.5,13.08362],[43,13.29287],[43.5,13.50313],[44,13.71434],[44.5,13.92645],[45,14.13941],[45.5,14.35318],[46,14.56771],[46.5,14.78295],[47,14.99885],[47.5,15.21538],[48,15.43249],[48.5,15.65015],[49,15.8683],[49.5,16.08692],[50,16.30596],[50.5,16.52538],[51,16.74517],[51.5,16.96526],[52,17.18565],[52.5,17.40628],[53,17.62714],[53.5,17.84818],[54,18.06938],[54.5,18.29071],[55,18.51215],[55.5,18.73365],[56,18.95521],[56.5,19.17678],[57,19.39835],[57.5,19.61989],[58,19.84138],[58.22248,19.94079]]}},{"type":"Feature","id":"+04561213:south:0","properties":{"id":"+04561213","year":456,"month":12,"day":13,"time_tdt":"13:41:28","type":"개기일식","type_code":"T","saros":78,"gamma":0.50102,"magnitude":1.03418,"greatest":{"lat":6.33597,"lng":4.01331},"path_width_km":132.8,"duration":"03m23s","delta_t_seconds":6104.7,"catalog_number":5836,"source":"NASA Five Millennium Canon of Solar Eclipses","source_url":"https://eclipse.gsfc.nasa.gov/SEsearch/SEsearchmap.php?Ecl=%2B04561213","boundary":"south","name":"456-12-13 개기일식"},"geometry":{"type":"LineString","coordinates":[[-50.17773,34.67769],[-50,34.59525],[-49.5,34.36217],[-49,34.12737],[-48.5,33.89084],[-48,33.65257],[-47.5,33.41257],[-47,33.17083],[-46.5,32.92734],[-46,32.6821],[-45.5,32.43512],[-45,32.18638],[-44.5,31.93589],[-44,31.68364],[-43.5,31.42964],[-43,31.17388],[-42.5,30.91636],[-42,30.65709],[-41.5,30.39607],[-41,30.13329],[-40.5,29.86877],[-40,29.6025],[-39.5,29.3345],[-39,29.06476],[-38.5,28.7933],[-38,28.52012],[-37.5,28.24523],[-37,27.96864],[-36.5,27.69036],[-36,27.41041],[-35.5,27.12879],[-35,26.84553],[-34.5,26.56064],[-34,26.27414],[-33.5,25.98604],[-33,25.69638],[-32.5,25.40517],[-32,25.11245],[-31.5,24.81823],[-31,24.52255],[-30.5,24.22544],[-30,23.92693],[-29.5,23.62707],[-29,23.32589],[-28.5,23.02343],[-28,22.71975],[-27.5,22.41488],[-27,22.10889],[-26.5,21.80182],[-26,21.49373],[-25.5,21.18469],[-25,20.87476],[-24.5,20.564],[-24,20.25251],[-23.5,19.94034],[-23,19.62759],[-22.5,19.31433],[-22,19.00066],[-21.5,18.68668],[-21,18.37247],[-20.5,18.05816],[-20,17.74383],[-19.5,17.42962],[-19,17.11564],[-18.5,16.80201],[-18,16.48885],[-17.5,16.17632],[-17,15.86453],[-16.5,15.55364],[-16,15.2438],[-15.5,14.93516],[-15,14.62787],[-14.5,14.32211],[-14,14.01803],[-13.5,13.71581],[-13,13.41562],[-12.5,13.11765],[-12,12.82206],[-11.5,12.52906],[-11,12.23883],[-10.5,11.95156],[-10,11.66743],[-9.5,11.38665],[-9,11.1094],[-8.5,10.83588],[-8,10.56629],[-7.5,10.30082],[-7,10.03966],[-6.5,9.783],[-6,9.53102],[-5.5,9.28393],[-5,9.04188],[-4.5,8.80507],[-4,8.57365],[-3.5,8.34781],[-3,8.1277],[-2.5,7.91347],[-2,7.70528],[-1.5,7.50326],[-1,7.30754],[-0.5,7.11825],[0,6.93551],[0.5,6.75943],[1,6.5901],[1.5,6.42761],[2,6.27205],[2.5,6.12349],[3,5.98198],[3.5,5.84759],[4,5.72036],[4.5,5.60033],[5,5.48751],[5.5,5.38193],[6,5.28359],[6.5,5.19251],[7,5.10866],[7.5,5.03203],[8,4.96261],[8.5,4.90035],[9,4.84523],[9.5,4.79719],[10,4.75619],[10.5,4.72218],[11,4.69508],[11.5,4.67482],[12,4.66135],[12.5,4.65458],[13,4.65442],[13.5,4.66079],[14,4.67361],[14.5,4.69277],[15,4.71819],[15.5,4.74975],[16,4.78738],[16.5,4.83095],[17,4.88036],[17.5,4.9355],[18,4.99628],[18.5,5.06257],[19,5.13426],[19.5,5.21124],[20,5.29341],[20.5,5.38064],[21,5.47283],[21.5,5.56986],[22,5.67161],[22.5,5.77798],[23,5.88885],[23.5,6.00411],[24,6.12365],[24.5,6.24735],[25,6.37511],[25.5,6.50682],[26,6.64237],[26.5,6.78166],[27,6.92457],[27.5,7.071],[28,7.22086],[28.5,7.37403],[29,7.53042],[29.5,7.68993],[30,7.85247],[30.5,8.01793],[31,8.18622],[31.5,8.35725],[32,8.53093],[32.5,8.70717],[33,8.88588],[33.5,9.06698],[34,9.25038],[34.5,9.43599],[35,9.62375],[35.5,9.81356],[36,10.00535],[36.5,10.19905],[37,10.39458],[37.5,10.59186],[38,10.79084],[38.5,10.99143],[39,11.19356],[39.5,11.39718],[40,11.60222],[40.5,11.80862],[41,12.01631],[41.5,12.22523],[42,12.43532],[42.5,12.64654],[43,12.85881],[43.5,13.0721],[44,13.28634],[44.5,13.50148],[45,13.71747],[45.5,13.93427],[46,14.15183],[46.5,14.3701],[47,14.58903],[47.5,14.80858],[48,15.02871],[48.5,15.24938],[49,15.47055],[49.5,15.69217],[50,15.91421],[50.5,16.13664],[51,16.35941],[51.5,16.58249],[52,16.80585],[52.5,17.02945],[53,17.25327],[53.5,17.47726],[54,17.7014],[54.5,17.92567],[55,18.15002],[55.5,18.37444],[56,18.5989],[56.5,18.82337],[57,19.04782],[57.5,19.27223],[58,19.49658],[58.33008,19.64463]]}}],"attribution":"Eclipse Predictions by Fred Espenak and Jean Meeus (NASA's GSFC)","generated_at":"2026-09-23T01:44:51.077Z"}
