{"type":"FeatureCollection","year":474,"events":[{"id":"+04740104","year":474,"month":1,"day":4,"time_tdt":"06:50:38","type":"부분일식","type_code":"P","saros":68,"gamma":1.15892,"magnitude":0.70949,"greatest":{"lat":67.26984,"lng":101.12042},"path_width_km":0,"duration":"00m00s","delta_t_seconds":5936.7,"catalog_number":5876,"source":"NASA Five Millennium Canon of Solar Eclipses","source_url":"https://eclipse.gsfc.nasa.gov/SEsearch/SEsearchmap.php?Ecl=%2B04740104"},{"id":"+04740202","year":474,"month":2,"day":2,"time_tdt":"17:16:01","type":"부분일식","type_code":"P","saros":106,"gamma":-1.51451,"magnitude":0.0438,"greatest":{"lat":-69.91891,"lng":93.09241},"path_width_km":0,"duration":"00m00s","delta_t_seconds":5935.9,"catalog_number":5877,"source":"NASA Five Millennium Canon of Solar Eclipses","source_url":"https://eclipse.gsfc.nasa.gov/SEsearch/SEsearchmap.php?Ecl=%2B04740202"},{"id":"+04740630","year":474,"month":6,"day":30,"time_tdt":"08:10:05","type":"부분일식","type_code":"P","saros":73,"gamma":-1.12851,"magnitude":0.74251,"greatest":{"lat":-66.57199,"lng":87.021},"path_width_km":0,"duration":"00m00s","delta_t_seconds":5931.9,"catalog_number":5878,"source":"NASA Five Millennium Canon of Solar Eclipses","source_url":"https://eclipse.gsfc.nasa.gov/SEsearch/SEsearchmap.php?Ecl=%2B04740630"},{"id":"+04741224","year":474,"month":12,"day":24,"time_tdt":"22:31:52","type":"개기일식","type_code":"T","saros":78,"gamma":0.5039,"magnitude":1.03317,"greatest":{"lat":6.71458,"lng":-130.38489},"path_width_km":129.4,"duration":"03m20s","delta_t_seconds":5927.2,"catalog_number":5879,"source":"NASA Five Millennium Canon of Solar Eclipses","source_url":"https://eclipse.gsfc.nasa.gov/SEsearch/SEsearchmap.php?Ecl=%2B04741224"}],"features":[{"type":"Feature","id":"+04741224:north:0","properties":{"id":"+04741224","year":474,"month":12,"day":24,"time_tdt":"22:31:52","type":"개기일식","type_code":"T","saros":78,"gamma":0.5039,"magnitude":1.03317,"greatest":{"lat":6.71458,"lng":-130.38489},"path_width_km":129.4,"duration":"03m20s","delta_t_seconds":5927.2,"catalog_number":5879,"source":"NASA Five Millennium Canon of Solar Eclipses","source_url":"https://eclipse.gsfc.nasa.gov/SEsearch/SEsearchmap.php?Ecl=%2B04741224","boundary":"north","name":"474-12-24 개기일식"},"geometry":{"type":"LineString","coordinates":[[175.48438,31.05505],[175.5,31.04804],[176,30.82329],[176.5,30.59732],[177,30.37014],[177.5,30.14175],[178,29.91216],[178.5,29.68137],[179,29.44939],[179.5,29.21623],[180,28.9819]]}},{"type":"Feature","id":"+04741224:north:1","properties":{"id":"+04741224","year":474,"month":12,"day":24,"time_tdt":"22:31:52","type":"개기일식","type_code":"T","saros":78,"gamma":0.5039,"magnitude":1.03317,"greatest":{"lat":6.71458,"lng":-130.38489},"path_width_km":129.4,"duration":"03m20s","delta_t_seconds":5927.2,"catalog_number":5879,"source":"NASA Five Millennium Canon of Solar Eclipses","source_url":"https://eclipse.gsfc.nasa.gov/SEsearch/SEsearchmap.php?Ecl=%2B04741224","boundary":"north","name":"474-12-24 개기일식"},"geometry":{"type":"LineString","coordinates":[[-179.5,28.74639],[-179,28.50973],[-178.5,28.27191],[-178,28.03296],[-177.5,27.79288],[-177,27.55168],[-176.5,27.30938],[-176,27.06598],[-175.5,26.8215],[-175,26.57596],[-174.5,26.32938],[-174,26.08176],[-173.5,25.83313],[-173,25.58351],[-172.5,25.33291],[-172,25.08135],[-171.5,24.82887],[-171,24.57548],[-170.5,24.32121],[-170,24.06608],[-169.5,23.81012],[-169,23.55336],[-168.5,23.29584],[-168,23.03758],[-167.5,22.77861],[-167,22.51898],[-166.5,22.25873],[-166,21.99788],[-165.5,21.73648],[-165,21.47459],[-164.5,21.21223],[-164,20.94946],[-163.5,20.68634],[-163,20.4229],[-162.5,20.15922],[-162,19.89533],[-161.5,19.63131],[-161,19.36722],[-160.5,19.10312],[-160,18.83908],[-159.5,18.57516],[-159,18.31146],[-158.5,18.04803],[-158,17.78496],[-157.5,17.52234],[-157,17.26024],[-156.5,16.99877],[-156,16.738],[-155.5,16.47804],[-155,16.21898],[-154.5,15.96093],[-154,15.70399],[-153.5,15.44827],[-153,15.19389],[-152.5,14.94095],[-152,14.68958],[-151.5,14.43989],[-151,14.19202],[-150.5,13.94609],[-150,13.70223],[-149.5,13.46057],[-149,13.22126],[-148.5,12.98442],[-148,12.75021],[-147.5,12.51875],[-147,12.29021],[-146.5,12.06473],[-146,11.84245],[-145.5,11.62352],[-145,11.4081],[-144.5,11.19633],[-144,10.98837],[-143.5,10.78438],[-143,10.58449],[-142.5,10.38887],[-142,10.19766],[-141.5,10.01101],[-141,9.82906],[-140.5,9.65197],[-140,9.47987],[-139.5,9.31291],[-139,9.15121],[-138.5,8.9949],[-138,8.84413],[-137.5,8.699],[-137,8.55964],[-136.5,8.42616],[-136,8.29867],[-135.5,8.17726],[-135,8.06203],[-134.5,7.95307],[-134,7.85046],[-133.5,7.75428],[-133,7.66459],[-132.5,7.58145],[-132,7.50491],[-131.5,7.43502],[-131,7.37182],[-130.5,7.31533],[-130,7.26557],[-129.5,7.22257],[-129,7.18631],[-128.5,7.15681],[-128,7.13405],[-127.5,7.11802],[-127,7.10868],[-126.5,7.10601],[-126,7.10997],[-125.5,7.12052],[-125,7.1376],[-124.5,7.16115],[-124,7.19111],[-123.5,7.22741],[-123,7.26998],[-122.5,7.31873],[-122,7.37358],[-121.5,7.43444],[-121,7.50121],[-120.5,7.5738],[-120,7.65211],[-119.5,7.73602],[-119,7.82544],[-118.5,7.92025],[-118,8.02034],[-117.5,8.1256],[-117,8.2359],[-116.5,8.35113],[-116,8.47117],[-115.5,8.5959],[-115,8.7252],[-114.5,8.85894],[-114,8.99701],[-113.5,9.13928],[-113,9.28562],[-112.5,9.43593],[-112,9.59008],[-111.5,9.74794],[-111,9.9094],[-110.5,10.07434],[-110,10.24264],[-109.5,10.41419],[-109,10.58887],[-108.5,10.76657],[-108,10.94718],[-107.5,11.13058],[-107,11.31667],[-106.5,11.50535],[-106,11.6965],[-105.5,11.89003],[-105,12.08584],[-104.5,12.28383],[-104,12.4839],[-103.5,12.68595],[-103,12.88991],[-102.5,13.09566],[-102,13.30314],[-101.5,13.51225],[-101,13.72291],[-100.5,13.93504],[-100,14.14855],[-99.5,14.36338],[-99,14.57944],[-98.5,14.79667],[-98,15.01499],[-97.5,15.23434],[-97,15.45463],[-96.5,15.67583],[-96,15.89785],[-95.5,16.12063],[-95,16.34413],[-94.5,16.56827],[-94,16.79301],[-93.5,17.01829],[-93,17.24405],[-92.5,17.47025],[-92,17.69684],[-91.5,17.92377],[-91,18.15099],[-90.5,18.37847],[-90,18.60615],[-89.5,18.83399],[-89,19.06196],[-88.5,19.29001],[-88,19.51811],[-87.5,19.74622],[-87,19.97431],[-86.5,20.20235],[-86,20.43029],[-85.5,20.65811],[-85,20.88578],[-84.5,21.11327],[-84,21.34055],[-83.5,21.56759],[-83,21.79436],[-82.5,22.02085],[-82,22.24702],[-81.5,22.47286],[-81,22.69834],[-80.5,22.92343],[-80,23.14812],[-79.5,23.37239],[-79,23.59622],[-78.5,23.81958],[-78,24.04246],[-77.5,24.26484],[-77,24.48671],[-76.5,24.70804],[-76.20898,24.83662]]}},{"type":"Feature","id":"+04741224:center:0","properties":{"id":"+04741224","year":474,"month":12,"day":24,"time_tdt":"22:31:52","type":"개기일식","type_code":"T","saros":78,"gamma":0.5039,"magnitude":1.03317,"greatest":{"lat":6.71458,"lng":-130.38489},"path_width_km":129.4,"duration":"03m20s","delta_t_seconds":5927.2,"catalog_number":5879,"source":"NASA Five Millennium Canon of Solar Eclipses","source_url":"https://eclipse.gsfc.nasa.gov/SEsearch/SEsearchmap.php?Ecl=%2B04741224","boundary":"center","name":"474-12-24 개기일식"},"geometry":{"type":"LineString","coordinates":[[175.40531,30.79169],[175.5,30.7272],[176,30.49954],[176.5,30.27064],[177,30.04051],[177.5,29.80915],[178,29.57657],[178.5,29.34277],[179,29.10776],[179.5,28.87155],[180,28.63413]]}},{"type":"Feature","id":"+04741224:center:1","properties":{"id":"+04741224","year":474,"month":12,"day":24,"time_tdt":"22:31:52","type":"개기일식","type_code":"T","saros":78,"gamma":0.5039,"magnitude":1.03317,"greatest":{"lat":6.71458,"lng":-130.38489},"path_width_km":129.4,"duration":"03m20s","delta_t_seconds":5927.2,"catalog_number":5879,"source":"NASA Five Millennium Canon of Solar Eclipses","source_url":"https://eclipse.gsfc.nasa.gov/SEsearch/SEsearchmap.php?Ecl=%2B04741224","boundary":"center","name":"474-12-24 개기일식"},"geometry":{"type":"LineString","coordinates":[[-179.5,28.39554],[-179,28.15576],[-178.5,27.91481],[-178,27.6727],[-177.5,27.42945],[-177,27.18505],[-176.5,26.93954],[-176,26.69291],[-175.5,26.44519],[-175,26.19638],[-174.5,25.94651],[-174,25.69559],[-173.5,25.44364],[-173,25.19068],[-172.5,24.93673],[-172,24.68181],[-171.5,24.42595],[-171,24.16916],[-170.5,23.91148],[-170,23.65293],[-169.5,23.39354],[-169,23.13334],[-168.5,22.87236],[-168,22.61063],[-167.5,22.3482],[-167,22.08509],[-166.5,21.82134],[-166,21.557],[-165.5,21.29211],[-165,21.02672],[-164.5,20.76086],[-164,20.4946],[-163.5,20.22797],[-163,19.96104],[-162.5,19.69386],[-162,19.42649],[-161.5,19.159],[-161,18.89144],[-160.5,18.62388],[-160,18.35639],[-159.5,18.08905],[-159,17.82193],[-158.5,17.55512],[-158,17.28868],[-157.5,17.02271],[-157,16.75729],[-156.5,16.49252],[-156,16.2285],[-155.5,15.96531],[-155,15.70306],[-154.5,15.44185],[-154,15.1818],[-153.5,14.92301],[-153,14.6656],[-152.5,14.40969],[-152,14.15539],[-151.5,13.90283],[-151,13.65215],[-150.5,13.40346],[-150,13.15691],[-149.5,12.91262],[-149,12.67074],[-148.5,12.43141],[-148,12.19477],[-147.5,11.96097],[-147,11.73015],[-146.5,11.50247],[-146,11.27807],[-145.5,11.0571],[-145,10.83972],[-144.5,10.62608],[-144,10.41633],[-143.5,10.21063],[-143,10.00913],[-142.5,9.81198],[-142,9.61932],[-141.5,9.43132],[-141,9.24811],[-140.5,9.06984],[-140,8.89665],[-139.5,8.72868],[-139,8.56606],[-138.5,8.40892],[-138,8.2574],[-137.5,8.11161],[-137,7.97167],[-136.5,7.83769],[-136,7.70977],[-135.5,7.58802],[-135,7.47252],[-134.5,7.36337],[-134,7.26064],[-133.5,7.16441],[-133,7.07474],[-132.5,6.99169],[-132,6.9153],[-131.5,6.84563],[-131,6.78271],[-130.5,6.72656],[-130,6.6772],[-129.5,6.63466],[-129,6.59892],[-128.5,6.56998],[-128,6.54785],[-127.5,6.53249],[-127,6.52388],[-126.5,6.52199],[-126,6.52679],[-125.5,6.53822],[-125,6.55623],[-124.5,6.58076],[-124,6.61175],[-123.5,6.64914],[-123,6.69283],[-122.5,6.74276],[-122,6.79884],[-121.5,6.86097],[-121,6.92907],[-120.5,7.00304],[-120,7.08277],[-119.5,7.16815],[-119,7.25909],[-118.5,7.35548],[-118,7.45719],[-117.5,7.56411],[-117,7.67613],[-116.5,7.79313],[-116,7.91498],[-115.5,8.04158],[-115,8.17279],[-114.5,8.3085],[-114,8.44857],[-113.5,8.5929],[-113,8.74135],[-112.5,8.89381],[-112,9.05015],[-111.5,9.21026],[-111,9.37401],[-110.5,9.54128],[-110,9.71195],[-109.5,9.88591],[-109,10.06305],[-108.5,10.24324],[-108,10.42638],[-107.5,10.61236],[-107,10.80106],[-106.5,10.99238],[-106,11.18621],[-105.5,11.38245],[-105,11.581],[-104.5,11.78176],[-104,11.98464],[-103.5,12.18952],[-103,12.39633],[-102.5,12.60498],[-102,12.81536],[-101.5,13.0274],[-101,13.24101],[-100.5,13.45611],[-100,13.67262],[-99.5,13.89046],[-99,14.10955],[-98.5,14.32981],[-98,14.55119],[-97.5,14.7736],[-97,14.99698],[-96.5,15.22127],[-96,15.44639],[-95.5,15.67228],[-95,15.89889],[-94.5,16.12616],[-94,16.35403],[-93.5,16.58244],[-93,16.81134],[-92.5,17.04068],[-92,17.27041],[-91.5,17.50048],[-91,17.73084],[-90.5,17.96145],[-90,18.19227],[-89.5,18.42325],[-89,18.65435],[-88.5,18.88553],[-88,19.11675],[-87.5,19.34799],[-87,19.57919],[-86.5,19.81032],[-86,20.04136],[-85.5,20.27228],[-85,20.50303],[-84.5,20.73359],[-84,20.96393],[-83.5,21.19402],[-83,21.42384],[-82.5,21.65336],[-82,21.88256],[-81.5,22.1114],[-81,22.33988],[-80.5,22.56796],[-80,22.79562],[-79.5,23.02285],[-79,23.24962],[-78.5,23.47591],[-78,23.70171],[-77.5,23.927],[-77,24.15176],[-76.5,24.37597],[-76.12502,24.54924]]}},{"type":"Feature","id":"+04741224:south:0","properties":{"id":"+04741224","year":474,"month":12,"day":24,"time_tdt":"22:31:52","type":"개기일식","type_code":"T","saros":78,"gamma":0.5039,"magnitude":1.03317,"greatest":{"lat":6.71458,"lng":-130.38489},"path_width_km":129.4,"duration":"03m20s","delta_t_seconds":5927.2,"catalog_number":5879,"source":"NASA Five Millennium Canon of Solar Eclipses","source_url":"https://eclipse.gsfc.nasa.gov/SEsearch/SEsearchmap.php?Ecl=%2B04741224","boundary":"south","name":"474-12-24 개기일식"},"geometry":{"type":"LineString","coordinates":[[175.25586,30.51811],[175.5,30.40598],[176,30.17539],[176.5,29.94355],[177,29.71045],[177.5,29.4761],[178,29.2405],[178.5,29.00367],[179,28.7656],[179.5,28.52631],[180,28.28581]]}},{"type":"Feature","id":"+04741224:south:1","properties":{"id":"+04741224","year":474,"month":12,"day":24,"time_tdt":"22:31:52","type":"개기일식","type_code":"T","saros":78,"gamma":0.5039,"magnitude":1.03317,"greatest":{"lat":6.71458,"lng":-130.38489},"path_width_km":129.4,"duration":"03m20s","delta_t_seconds":5927.2,"catalog_number":5879,"source":"NASA Five Millennium Canon of Solar Eclipses","source_url":"https://eclipse.gsfc.nasa.gov/SEsearch/SEsearchmap.php?Ecl=%2B04741224","boundary":"south","name":"474-12-24 개기일식"},"geometry":{"type":"LineString","coordinates":[[-179.5,28.04409],[-179,27.80118],[-178.5,27.55707],[-178,27.31179],[-177.5,27.06534],[-177,26.81773],[-176.5,26.56898],[-176,26.31909],[-175.5,26.0681],[-175,25.816],[-174.5,25.56282],[-174,25.30857],[-173.5,25.05328],[-173,24.79696],[-172.5,24.53964],[-172,24.28133],[-171.5,24.02206],[-171,23.76185],[-170.5,23.50074],[-170,23.23874],[-169.5,22.97589],[-169,22.71222],[-168.5,22.44776],[-168,22.18255],[-167.5,21.91662],[-167,21.65001],[-166.5,21.38275],[-166,21.1149],[-165.5,20.8465],[-165,20.57758],[-164.5,20.30821],[-164,20.03842],[-163.5,19.76828],[-163,19.49784],[-162.5,19.22715],[-162,18.95628],[-161.5,18.68529],[-161,18.41425],[-160.5,18.14322],[-160,17.87228],[-159.5,17.6015],[-159,17.33096],[-158.5,17.06074],[-158,16.79093],[-157.5,16.52161],[-157,16.25287],[-156.5,15.98481],[-156,15.71752],[-155.5,15.4511],[-155,15.18566],[-154.5,14.92131],[-154,14.65815],[-153.5,14.3963],[-153,14.13588],[-152.5,13.87701],[-152,13.6198],[-151.5,13.3644],[-151,13.11092],[-150.5,12.8595],[-150,12.61027],[-149.5,12.36338],[-149,12.11897],[-148.5,11.87718],[-148,11.63815],[-147.5,11.40203],[-147,11.16897],[-146.5,10.93913],[-146,10.71265],[-145.5,10.48968],[-145,10.27039],[-144.5,10.05492],[-144,9.84343],[-143.5,9.63608],[-143,9.43301],[-142.5,9.23437],[-142,9.04033],[-141.5,8.85102],[-141,8.66659],[-140.5,8.4872],[-140,8.31297],[-139.5,8.14404],[-139,7.98056],[-138.5,7.82264],[-138,7.67042],[-137.5,7.52401],[-137,7.38353],[-136.5,7.2491],[-136,7.1208],[-135.5,6.99875],[-135,6.88302],[-134.5,6.77372],[-134,6.6709],[-133.5,6.57465],[-133,6.48503],[-132.5,6.4021],[-132,6.32589],[-131.5,6.25646],[-131,6.19384],[-130.5,6.13805],[-130,6.08911],[-129.5,6.04703],[-129,6.01181],[-128.5,5.98346],[-128,5.96195],[-127.5,5.94727],[-127,5.93939],[-126.5,5.93828],[-126,5.9439],[-125.5,5.9562],[-125,5.97514],[-124.5,6.00064],[-124,6.03265],[-123.5,6.0711],[-123,6.1159],[-122.5,6.16699],[-122,6.22427],[-121.5,6.28766],[-121,6.35706],[-120.5,6.43237],[-120,6.5135],[-119.5,6.60033],[-119,6.69277],[-118.5,6.79069],[-118,6.89399],[-117.5,7.00255],[-117,7.11626],[-116.5,7.23499],[-116,7.35863],[-115.5,7.48706],[-115,7.62016],[-114.5,7.75779],[-114,7.89985],[-113.5,8.0462],[-113,8.19673],[-112.5,8.35131],[-112,8.50982],[-111.5,8.67214],[-111,8.83815],[-110.5,9.00772],[-110,9.18074],[-109.5,9.35709],[-109,9.53666],[-108.5,9.71933],[-108,9.90498],[-107.5,10.09351],[-107,10.2848],[-106.5,10.47874],[-106,10.67524],[-105.5,10.87417],[-105,11.07545],[-104.5,11.27897],[-104,11.48464],[-103.5,11.69234],[-103,11.902],[-102.5,12.11352],[-102,12.3268],[-101.5,12.54176],[-101,12.75832],[-100.5,12.97639],[-100,13.19588],[-99.5,13.41673],[-99,13.63884],[-98.5,13.86215],[-98,14.08659],[-97.5,14.31207],[-97,14.53853],[-96.5,14.76591],[-96,14.99413],[-95.5,15.22314],[-95,15.45288],[-94.5,15.68327],[-94,15.91427],[-93.5,16.14582],[-93,16.37787],[-92.5,16.61036],[-92,16.84324],[-91.5,17.07646],[-91,17.30997],[-90.5,17.54373],[-90,17.7777],[-89.5,18.01183],[-89,18.24607],[-88.5,18.48039],[-88,18.71475],[-87.5,18.94911],[-87,19.18344],[-86.5,19.41769],[-86,19.65185],[-85.5,19.88586],[-85,20.11971],[-84.5,20.35335],[-84,20.58677],[-83.5,20.81993],[-83,21.05281],[-82.5,21.28538],[-82,21.51761],[-81.5,21.74948],[-81,21.98096],[-80.5,22.21204],[-80,22.44269],[-79.5,22.6729],[-79,22.90263],[-78.5,23.13187],[-78,23.3606],[-77.5,23.58881],[-77,23.81647],[-76.5,24.04357],[-76.00586,24.26745]]}}],"attribution":"Eclipse Predictions by Fred Espenak and Jean Meeus (NASA's GSFC)","generated_at":"2026-09-23T01:44:51.362Z"}
