{"type":"FeatureCollection","year":475,"events":[{"id":"+04750619","year":475,"month":6,"day":19,"time_tdt":"10:40:23","type":"금환일식","type_code":"A","saros":83,"gamma":-0.3401,"magnitude":0.98018,"greatest":{"lat":3.8811,"lng":46.28967},"path_width_km":74.9,"duration":"02m29s","delta_t_seconds":5922.4,"catalog_number":5880,"source":"NASA Five Millennium Canon of Solar Eclipses","source_url":"https://eclipse.gsfc.nasa.gov/SEsearch/SEsearchmap.php?Ecl=%2B04750619"},{"id":"+04751214","year":475,"month":12,"day":14,"time_tdt":"10:57:44","type":"금환일식","type_code":"A","saros":88,"gamma":-0.18354,"magnitude":0.98541,"greatest":{"lat":-34.14555,"lng":38.15485},"path_width_km":52.5,"duration":"01m27s","delta_t_seconds":5917.6,"catalog_number":5881,"source":"NASA Five Millennium Canon of Solar Eclipses","source_url":"https://eclipse.gsfc.nasa.gov/SEsearch/SEsearchmap.php?Ecl=%2B04751214"}],"features":[{"type":"Feature","id":"+04750619:north:0","properties":{"id":"+04750619","year":475,"month":6,"day":19,"time_tdt":"10:40:23","type":"금환일식","type_code":"A","saros":83,"gamma":-0.3401,"magnitude":0.98018,"greatest":{"lat":3.8811,"lng":46.28967},"path_width_km":74.9,"duration":"02m29s","delta_t_seconds":5922.4,"catalog_number":5880,"source":"NASA Five Millennium Canon of Solar Eclipses","source_url":"https://eclipse.gsfc.nasa.gov/SEsearch/SEsearchmap.php?Ecl=%2B04750619","boundary":"north","name":"475-06-19 금환일식"},"geometry":{"type":"LineString","coordinates":[[-7.99219,-23.72618],[-7.5,-23.50739],[-7,-23.28349],[-6.5,-23.05791],[-6,-22.83066],[-5.5,-22.60172],[-5,-22.37109],[-4.5,-22.13876],[-4,-21.90473],[-3.5,-21.66899],[-3,-21.43154],[-2.5,-21.19237],[-2,-20.95147],[-1.5,-20.70885],[-1,-20.46449],[-0.5,-20.21841],[0,-19.97058],[0.5,-19.72101],[1,-19.4697],[1.5,-19.21665],[2,-18.96186],[2.5,-18.70532],[3,-18.44705],[3.5,-18.18703],[4,-17.92528],[4.5,-17.6618],[5,-17.3966],[5.5,-17.12967],[6,-16.86103],[6.5,-16.59068],[7,-16.31865],[7.5,-16.04492],[8,-15.76953],[8.5,-15.49249],[9,-15.2138],[9.5,-14.9335],[10,-14.65159],[10.5,-14.3681],[11,-14.08306],[11.5,-13.7965],[12,-13.50843],[12.5,-13.21889],[13,-12.92792],[13.5,-12.63556],[14,-12.34183],[14.5,-12.0468],[15,-11.75049],[15.5,-11.45297],[16,-11.15428],[16.5,-10.85448],[17,-10.55364],[17.5,-10.25181],[18,-9.94908],[18.5,-9.6455],[19,-9.34116],[19.5,-9.03615],[20,-8.73054],[20.5,-8.42444],[21,-8.11795],[21.5,-7.81116],[22,-7.50418],[22.5,-7.19713],[23,-6.89014],[23.5,-6.58332],[24,-6.27682],[24.5,-5.97076],[25,-5.66529],[25.5,-5.36057],[26,-5.05674],[26.5,-4.75398],[27,-4.45244],[27.5,-4.15231],[28,-3.85376],[28.5,-3.55698],[29,-3.26215],[29.5,-2.96946],[30,-2.67913],[30.5,-2.39135],[31,-2.10632],[31.5,-1.82425],[32,-1.54536],[32.5,-1.26986],[33,-0.99797],[33.5,-0.72989],[34,-0.46585],[34.5,-0.20606],[35,0.04926],[35.5,0.2999],[36,0.54566],[36.5,0.78633],[37,1.02169],[37.5,1.25157],[38,1.47576],[38.5,1.69408],[39,1.90636],[39.5,2.11241],[40,2.31208],[40.5,2.50522],[41,2.69167],[41.5,2.8713],[42,3.04398],[42.5,3.20961],[43,3.36806],[43.5,3.51925],[44,3.66309],[44.5,3.79952],[45,3.92845],[45.5,4.04985],[46,4.16367],[46.5,4.26987],[47,4.36845],[47.5,4.45938],[48,4.54267],[48.5,4.61833],[49,4.68636],[49.5,4.74681],[50,4.79971],[50.5,4.84509],[51,4.88301],[51.5,4.91353],[52,4.93672],[52.5,4.95264],[53,4.96139],[53.5,4.96303],[54,4.95767],[54.5,4.94539],[55,4.92629],[55.5,4.90049],[56,4.86809],[56.5,4.82919],[57,4.78392],[57.5,4.73239],[58,4.67471],[58.5,4.61103],[59,4.54144],[59.5,4.46609],[60,4.3851],[60.5,4.29859],[61,4.2067],[61.5,4.10955],[62,4.00728],[62.5,3.90001],[63,3.78788],[63.5,3.671],[64,3.54952],[64.5,3.42356],[65,3.29324],[65.5,3.1587],[66,3.02007],[66.5,2.87745],[67,2.73099],[67.5,2.58079],[68,2.42699],[68.5,2.26969],[69,2.10902],[69.5,1.9451],[70,1.77803],[70.5,1.60793],[71,1.43491],[71.5,1.25907],[72,1.08053],[72.5,0.89938],[73,0.71574],[73.5,0.52969],[74,0.34134],[74.5,0.15078],[75,-0.04189],[75.5,-0.23659],[76,-0.43321],[76.5,-0.63169],[77,-0.83192],[77.5,-1.03383],[78,-1.23733],[78.5,-1.44235],[79,-1.64881],[79.5,-1.85664],[80,-2.06576],[80.5,-2.27609],[81,-2.48758],[81.5,-2.70016],[82,-2.91375],[82.5,-3.1283],[83,-3.34374],[83.5,-3.56002],[84,-3.77708],[84.5,-3.99485],[85,-4.21329],[85.5,-4.43235],[86,-4.65197],[86.5,-4.8721],[87,-5.09269],[87.5,-5.3137],[88,-5.53509],[88.5,-5.7568],[89,-5.9788],[89.5,-6.20105],[90,-6.4235],[90.5,-6.64612],[91,-6.86887],[91.5,-7.09172],[92,-7.31462],[92.5,-7.53756],[93,-7.76049],[93.5,-7.98338],[94,-8.20621],[94.5,-8.42895],[95,-8.65156],[95.5,-8.87402],[96,-9.0963],[96.5,-9.31839],[97,-9.54025],[97.5,-9.76185],[98,-9.98319],[98.5,-10.20424],[99,-10.42497],[99.5,-10.64536],[100,-10.8654],[100.5,-11.08507],[101,-11.30435],[101.5,-11.52321],[101.95508,-11.72205]]}},{"type":"Feature","id":"+04750619:center:0","properties":{"id":"+04750619","year":475,"month":6,"day":19,"time_tdt":"10:40:23","type":"금환일식","type_code":"A","saros":83,"gamma":-0.3401,"magnitude":0.98018,"greatest":{"lat":3.8811,"lng":46.28967},"path_width_km":74.9,"duration":"02m29s","delta_t_seconds":5922.4,"catalog_number":5880,"source":"NASA Five Millennium Canon of Solar Eclipses","source_url":"https://eclipse.gsfc.nasa.gov/SEsearch/SEsearchmap.php?Ecl=%2B04750619","boundary":"center","name":"475-06-19 금환일식"},"geometry":{"type":"LineString","coordinates":[[-7.73194,-24.24914],[-7.5,-24.12689],[-7,-23.90092],[-6.5,-23.67325],[-6,-23.4439],[-5.5,-23.21285],[-5,-22.9801],[-4.5,-22.74563],[-4,-22.50945],[-3.5,-22.27154],[-3,-22.0319],[-2.5,-21.79053],[-2,-21.54742],[-1.5,-21.30257],[-1,-21.05597],[-0.5,-20.80762],[0,-20.55752],[0.5,-20.30566],[1,-20.05204],[1.5,-19.79666],[2,-19.53953],[2.5,-19.28063],[3,-19.01998],[3.5,-18.75758],[4,-18.49342],[4.5,-18.22751],[5,-17.95986],[5.5,-17.69047],[6,-17.41935],[6.5,-17.1465],[7,-16.87195],[7.5,-16.59569],[8,-16.31774],[8.5,-16.03812],[9,-15.75685],[9.5,-15.47393],[10,-15.18939],[10.5,-14.90325],[11,-14.61554],[11.5,-14.32628],[12,-14.0355],[12.5,-13.74323],[13,-13.44951],[13.5,-13.15437],[14,-12.85785],[14.5,-12.56],[15,-12.26085],[15.5,-11.96047],[16,-11.65891],[16.5,-11.35621],[17,-11.05245],[17.5,-10.74768],[18,-10.44198],[18.5,-10.13542],[19,-9.82808],[19.5,-9.52005],[20,-9.21141],[20.5,-8.90225],[21,-8.59267],[21.5,-8.28278],[22,-7.9727],[22.5,-7.66252],[23,-7.35238],[23.5,-7.04241],[24,-6.73273],[24.5,-6.42349],[25,-6.11483],[25.5,-5.80691],[26,-5.49987],[26.5,-5.1939],[27,-4.88915],[27.5,-4.5858],[28,-4.28403],[28.5,-3.98403],[29,-3.686],[29.5,-3.39012],[30,-3.0966],[30.5,-2.80564],[31,-2.51746],[31.5,-2.23227],[32,-1.95028],[32.5,-1.67171],[33,-1.39677],[33.5,-1.12569],[34,-0.85869],[34.5,-0.59599],[35,-0.33781],[35.5,-0.08435],[36,0.16415],[36.5,0.4075],[37,0.64549],[37.5,0.87791],[38,1.10457],[38.5,1.32527],[39,1.53985],[39.5,1.74811],[40,1.94989],[40.5,2.14504],[41,2.33341],[41.5,2.51484],[42,2.68923],[42.5,2.85644],[43,3.01637],[43.5,3.16891],[44,3.31399],[44.5,3.45153],[45,3.58145],[45.5,3.70371],[46,3.81827],[46.5,3.92509],[47,4.02414],[47.5,4.11543],[48,4.19894],[48.5,4.27469],[49,4.34269],[49.5,4.40297],[50,4.45558],[50.5,4.50054],[51,4.53792],[51.5,4.56778],[52,4.59018],[52.5,4.6052],[53,4.61291],[53.5,4.61341],[54,4.60679],[54.5,4.59315],[55,4.57258],[55.5,4.54519],[56,4.5111],[56.5,4.47042],[57,4.42327],[57.5,4.36976],[58,4.31001],[58.5,4.24417],[59,4.17234],[59.5,4.09466],[60,4.01127],[60.5,3.92228],[61,3.82784],[61.5,3.72806],[62,3.6231],[62.5,3.51308],[63,3.39813],[63.5,3.27838],[64,3.15398],[64.5,3.02504],[65,2.8917],[65.5,2.75409],[66,2.61234],[66.5,2.46657],[67,2.31692],[67.5,2.1635],[68,2.00643],[68.5,1.84585],[69,1.68187],[69.5,1.51461],[70,1.34418],[70.5,1.1707],[71,0.99428],[71.5,0.81503],[72,0.63306],[72.5,0.44847],[73,0.26138],[73.5,0.07187],[74,-0.11995],[74.5,-0.31398],[75,-0.51012],[75.5,-0.70829],[76,-0.90839],[76.5,-1.11034],[77,-1.31404],[77.5,-1.51942],[78,-1.72639],[78.5,-1.93486],[79,-2.14478],[79.5,-2.35604],[80,-2.56859],[80.5,-2.78235],[81,-2.99725],[81.5,-3.21323],[82,-3.43021],[82.5,-3.64813],[83,-3.86694],[83.5,-4.08656],[84,-4.30695],[84.5,-4.52804],[85,-4.74979],[85.5,-4.97212],[86,-5.19501],[86.5,-5.41839],[87,-5.64221],[87.5,-5.86644],[88,-6.09102],[88.5,-6.31591],[89,-6.54106],[89.5,-6.76645],[90,-6.99202],[90.5,-7.21774],[91,-7.44357],[91.5,-7.66947],[92,-7.89542],[92.5,-8.12138],[93,-8.34731],[93.5,-8.57318],[94,-8.79897],[94.5,-9.02464],[95,-9.25017],[95.5,-9.47552],[96,-9.70069],[96.5,-9.92562],[97,-10.15032],[97.5,-10.37474],[98,-10.59887],[98.5,-10.82269],[99,-11.04618],[99.5,-11.2693],[100,-11.49206],[100.5,-11.71442],[101,-11.93637],[101.5,-12.15789],[101.74472,-12.2672]]}},{"type":"Feature","id":"+04750619:south:0","properties":{"id":"+04750619","year":475,"month":6,"day":19,"time_tdt":"10:40:23","type":"금환일식","type_code":"A","saros":83,"gamma":-0.3401,"magnitude":0.98018,"greatest":{"lat":3.8811,"lng":46.28967},"path_width_km":74.9,"duration":"02m29s","delta_t_seconds":5922.4,"catalog_number":5880,"source":"NASA Five Millennium Canon of Solar Eclipses","source_url":"https://eclipse.gsfc.nasa.gov/SEsearch/SEsearchmap.php?Ecl=%2B04750619","boundary":"south","name":"475-06-19 금환일식"},"geometry":{"type":"LineString","coordinates":[[-7.5,-24.75016],[-7,-24.52212],[-6.5,-24.29238],[-6,-24.06093],[-5.5,-23.82777],[-5,-23.59289],[-4.5,-23.35628],[-4,-23.11795],[-3.5,-22.87787],[-3,-22.63605],[-2.5,-22.39248],[-2,-22.14716],[-1.5,-21.90007],[-1,-21.65123],[-0.5,-21.40062],[0,-21.14824],[0.5,-20.89408],[1,-20.63816],[1.5,-20.38046],[2,-20.12098],[2.5,-19.85973],[3,-19.5967],[3.5,-19.3319],[4,-19.06533],[4.5,-18.79699],[5,-18.52689],[5.5,-18.25504],[6,-17.98143],[6.5,-17.70609],[7,-17.42901],[7.5,-17.15022],[8,-16.86971],[8.5,-16.58752],[9,-16.30364],[9.5,-16.0181],[10,-15.73093],[10.5,-15.44213],[11,-15.15175],[11.5,-14.85979],[12,-14.56629],[12.5,-14.27128],[13,-13.9748],[13.5,-13.67688],[14,-13.37756],[14.5,-13.07688],[15,-12.77489],[15.5,-12.47165],[16,-12.16719],[16.5,-11.86159],[17,-11.55489],[17.5,-11.24718],[18,-10.93851],[18.5,-10.62895],[19,-10.3186],[19.5,-10.00753],[20,-9.69583],[20.5,-9.3836],[21,-9.07093],[21.5,-8.75793],[22,-8.44472],[22.5,-8.1314],[23,-7.8181],[23.5,-7.50494],[24,-7.19207],[24.5,-6.87963],[25,-6.56775],[25.5,-6.2566],[26,-5.94634],[26.5,-5.63712],[27,-5.32913],[27.5,-5.02253],[28,-4.71752],[28.5,-4.41428],[29,-4.113],[29.5,-3.81389],[30,-3.51716],[30.5,-3.223],[31,-2.93163],[31.5,-2.64328],[32,-2.35814],[32.5,-2.07646],[33,-1.79845],[33.5,-1.52433],[34,-1.25433],[34.5,-0.98867],[35,-0.72758],[35.5,-0.47128],[36,-0.21998],[36.5,0.0261],[37,0.26674],[37.5,0.50175],[38,0.73091],[38.5,0.95405],[39,1.17096],[39.5,1.38147],[40,1.58541],[40.5,1.78261],[41,1.97293],[41.5,2.15621],[42,2.33233],[42.5,2.50117],[43,2.6626],[43.5,2.81653],[44,2.96288],[44.5,3.10155],[45,3.23249],[45.5,3.35565],[46,3.47096],[46.5,3.57841],[47,3.67797],[47.5,3.76962],[48,3.85337],[48.5,3.92922],[49,3.9972],[49.5,4.05733],[50,4.10965],[50.5,4.1542],[51,4.19104],[51.5,4.22023],[52,4.24184],[52.5,4.25595],[53,4.26263],[53.5,4.26199],[54,4.2541],[54.5,4.23908],[55,4.21702],[55.5,4.18804],[56,4.15224],[56.5,4.10976],[57,4.0607],[57.5,4.00519],[58,3.94336],[58.5,3.87533],[59,3.80124],[59.5,3.72121],[60,3.63538],[60.5,3.54389],[61,3.44686],[61.5,3.34444],[62,3.23676],[62.5,3.12396],[63,3.00616],[63.5,2.88352],[64,2.75616],[64.5,2.62421],[65,2.48782],[65.5,2.34711],[66,2.20221],[66.5,2.05326],[67,1.90039],[67.5,1.74371],[68,1.58336],[68.5,1.41947],[69,1.25214],[69.5,1.08151],[70,0.9077],[70.5,0.73081],[71,0.55096],[71.5,0.36827],[72,0.18285],[72.5,-0.00521],[73,-0.19578],[73.5,-0.38877],[74,-0.58408],[74.5,-0.7816],[75,-0.98124],[75.5,-1.18291],[76,-1.38651],[76.5,-1.59195],[77,-1.79914],[77.5,-2.00801],[78,-2.21846],[78.5,-2.43041],[79,-2.64379],[79.5,-2.85852],[80,-3.07452],[80.5,-3.29172],[81,-3.51005],[81.5,-3.72944],[82,-3.94983],[82.5,-4.17114],[83,-4.39332],[83.5,-4.61631],[84,-4.84004],[84.5,-5.06446],[85,-5.28951],[85.5,-5.51515],[86,-5.74131],[86.5,-5.96795],[87,-6.19502],[87.5,-6.42246],[88,-6.65025],[88.5,-6.87832],[89,-7.10665],[89.5,-7.33518],[90,-7.56387],[90.5,-7.7927],[91,-8.02162],[91.5,-8.25059],[92,-8.47958],[92.5,-8.70856],[93,-8.9375],[93.5,-9.16636],[94,-9.39511],[94.5,-9.62372],[95,-9.85217],[95.5,-10.08043],[96,-10.30848],[96.5,-10.53628],[97,-10.76381],[97.5,-10.99105],[98,-11.21798],[98.5,-11.44458],[99,-11.67082],[99.5,-11.89668],[100,-12.12216],[100.5,-12.34721],[101,-12.57184],[101.5,-12.79602]]}},{"type":"Feature","id":"+04751214:north:0","properties":{"id":"+04751214","year":475,"month":12,"day":14,"time_tdt":"10:57:44","type":"금환일식","type_code":"A","saros":88,"gamma":-0.18354,"magnitude":0.98541,"greatest":{"lat":-34.14555,"lng":38.15485},"path_width_km":52.5,"duration":"01m27s","delta_t_seconds":5917.6,"catalog_number":5881,"source":"NASA Five Millennium Canon of Solar Eclipses","source_url":"https://eclipse.gsfc.nasa.gov/SEsearch/SEsearchmap.php?Ecl=%2B04751214","boundary":"north","name":"475-12-14 금환일식"},"geometry":{"type":"LineString","coordinates":[[-23.62891,-1.61119],[-23.5,-1.66846],[-23,-1.89187],[-22.5,-2.11726],[-22,-2.34466],[-21.5,-2.57408],[-21,-2.80551],[-20.5,-3.03897],[-20,-3.27446],[-19.5,-3.512],[-19,-3.75159],[-18.5,-3.99323],[-18,-4.23694],[-17.5,-4.48272],[-17,-4.73057],[-16.5,-4.9805],[-16,-5.2325],[-15.5,-5.48659],[-15,-5.74276],[-14.5,-6.00101],[-14,-6.26135],[-13.5,-6.52377],[-13,-6.78826],[-12.5,-7.05483],[-12,-7.32347],[-11.5,-7.59418],[-11,-7.86693],[-10.5,-8.14174],[-10,-8.41857],[-9.5,-8.69743],[-9,-8.9783],[-8.5,-9.26115],[-8,-9.54598],[-7.5,-9.83276],[-7,-10.12146],[-6.5,-10.41207],[-6,-10.70455],[-5.5,-10.99889],[-5,-11.29503],[-4.5,-11.59295],[-4,-11.89262],[-3.5,-12.19398],[-3,-12.497],[-2.5,-12.80163],[-2,-13.10782],[-1.5,-13.41552],[-1,-13.72466],[-0.5,-14.03519],[0,-14.34705],[0.5,-14.66016],[1,-14.97446],[1.5,-15.28987],[2,-15.60631],[2.5,-15.9237],[3,-16.24196],[3.5,-16.56099],[4,-16.8807],[4.5,-17.20099],[5,-17.52176],[5.5,-17.8429],[6,-18.16431],[6.5,-18.48587],[7,-18.80747],[7.5,-19.12899],[8,-19.4503],[8.5,-19.77128],[9,-20.09181],[9.5,-20.41175],[10,-20.73096],[10.5,-21.04933],[11,-21.3667],[11.5,-21.68294],[12,-21.99791],[12.5,-22.31147],[13,-22.62348],[13.5,-22.93381],[14,-23.2423],[14.5,-23.54882],[15,-23.85324],[15.5,-24.15541],[16,-24.45519],[16.5,-24.75246],[17,-25.04708],[17.5,-25.33893],[18,-25.62787],[18.5,-25.91378],[19,-26.19654],[19.5,-26.47604],[20,-26.75216],[20.5,-27.0248],[21,-27.29385],[21.5,-27.55921],[22,-27.82079],[22.5,-28.07849],[23,-28.33223],[23.5,-28.58194],[24,-28.82753],[24.5,-29.06893],[25,-29.30608],[25.5,-29.53892],[26,-29.76739],[26.5,-29.99143],[27,-30.21101],[27.5,-30.42607],[28,-30.63659],[28.5,-30.84252],[29,-31.04383],[29.5,-31.24051],[30,-31.43252],[30.5,-31.61986],[31,-31.8025],[31.5,-31.98044],[32,-32.15366],[32.5,-32.32216],[33,-32.48595],[33.5,-32.64501],[34,-32.79936],[34.5,-32.94899],[35,-33.09392],[35.5,-33.23416],[36,-33.36971],[36.5,-33.50059],[37,-33.62682],[37.5,-33.74841],[38,-33.86538],[38.5,-33.97775],[39,-34.08554],[39.5,-34.18876],[40,-34.28745],[40.5,-34.38163],[41,-34.47131],[41.5,-34.55653],[42,-34.6373],[42.5,-34.71366],[43,-34.78562],[43.5,-34.85322],[44,-34.91648],[44.5,-34.97543],[45,-35.03009],[45.5,-35.08049],[46,-35.12665],[46.5,-35.16862],[47,-35.2064],[47.5,-35.24003],[48,-35.26953],[48.5,-35.29494],[49,-35.31628],[49.5,-35.33357],[50,-35.34684],[50.5,-35.35613],[51,-35.36145],[51.5,-35.36283],[52,-35.36029],[52.5,-35.35388],[53,-35.3436],[53.5,-35.32949],[54,-35.31157],[54.5,-35.28987],[55,-35.26442],[55.5,-35.23524],[56,-35.20235],[56.5,-35.16578],[57,-35.12557],[57.5,-35.08173],[58,-35.03429],[58.5,-34.98327],[59,-34.92871],[59.5,-34.87063],[60,-34.80905],[60.5,-34.74401],[61,-34.67552],[61.5,-34.60363],[62,-34.52834],[62.5,-34.4497],[63,-34.36772],[63.5,-34.28245],[64,-34.19389],[64.5,-34.1021],[65,-34.00708],[65.5,-33.90888],[66,-33.80752],[66.5,-33.70303],[67,-33.59545],[67.5,-33.48481],[68,-33.37112],[68.5,-33.25444],[69,-33.13479],[69.5,-33.01221],[70,-32.88672],[70.5,-32.75837],[71,-32.62718],[71.5,-32.49319],[72,-32.35644],[72.5,-32.21697],[73,-32.0748],[73.5,-31.92999],[74,-31.78256],[74.5,-31.63256],[75,-31.48002],[75.5,-31.32498],[76,-31.16749],[76.5,-31.00758],[77,-30.8453],[77.5,-30.68068],[78,-30.51377],[78.5,-30.34461],[79,-30.17324],[79.5,-29.99971],[80,-29.82407],[80.5,-29.64634],[81,-29.46659],[81.5,-29.28484],[82,-29.10116],[82.5,-28.91558],[83,-28.72815],[83.5,-28.53892],[84,-28.34792],[84.5,-28.15522],[85,-27.96084],[85.5,-27.76485],[86,-27.56728],[86.5,-27.36819],[87,-27.16761],[87.5,-26.9656],[88,-26.7622],[88.5,-26.55745],[89,-26.35141],[89.5,-26.14412],[90,-25.93563],[90.5,-25.72598],[91,-25.51521],[91.5,-25.30337],[92,-25.09051],[92.5,-24.87668],[93,-24.6619],[93.5,-24.44623],[94,-24.22972],[94.5,-24.0124],[95,-23.79432],[95.5,-23.57551],[96,-23.35603],[96.5,-23.1359],[97,-22.91518],[97.5,-22.6939],[98,-22.4721],[98.5,-22.24982],[99,-22.0271],[99.5,-21.80398],[100,-21.58048],[100.5,-21.35666],[101,-21.13254],[101.5,-20.90816],[102,-20.68355],[102.5,-20.45876],[103,-20.2338],[103.5,-20.00872],[104,-19.78354],[104.5,-19.5583],[105,-19.33303],[105.5,-19.10775],[106,-18.8825],[106.5,-18.65731],[107,-18.43219],[107.5,-18.20719],[108,-17.98232],[108.5,-17.75762],[109,-17.5331],[109.5,-17.3088],[110,-17.08473],[110.48828,-16.86617]]}},{"type":"Feature","id":"+04751214:center:0","properties":{"id":"+04751214","year":475,"month":12,"day":14,"time_tdt":"10:57:44","type":"금환일식","type_code":"A","saros":88,"gamma":-0.18354,"magnitude":0.98541,"greatest":{"lat":-34.14555,"lng":38.15485},"path_width_km":52.5,"duration":"01m27s","delta_t_seconds":5917.6,"catalog_number":5881,"source":"NASA Five Millennium Canon of Solar Eclipses","source_url":"https://eclipse.gsfc.nasa.gov/SEsearch/SEsearchmap.php?Ecl=%2B04751214","boundary":"center","name":"475-12-14 금환일식"},"geometry":{"type":"LineString","coordinates":[[-23.92765,-2.08164],[-23.5,-2.26496],[-23,-2.48647],[-22.5,-2.70996],[-22,-2.93543],[-21.5,-3.16289],[-21,-3.39234],[-20.5,-3.62381],[-20,-3.85729],[-19.5,-4.09279],[-19,-4.33032],[-18.5,-4.56988],[-18,-4.81148],[-17.5,-5.05512],[-17,-5.30082],[-16.5,-5.54856],[-16,-5.79836],[-15.5,-6.05021],[-15,-6.30412],[-14.5,-6.56009],[-14,-6.81811],[-13.5,-7.07818],[-13,-7.34031],[-12.5,-7.60448],[-12,-7.87068],[-11.5,-8.13892],[-11,-8.40919],[-10.5,-8.68146],[-10,-8.95574],[-9.5,-9.23201],[-9,-9.51025],[-8.5,-9.79044],[-8,-10.07257],[-7.5,-10.35662],[-7,-10.64256],[-6.5,-10.93037],[-6,-11.22001],[-5.5,-11.51147],[-5,-11.8047],[-4.5,-12.09967],[-4,-12.39634],[-3.5,-12.69468],[-3,-12.99463],[-2.5,-13.29615],[-2,-13.59919],[-1.5,-13.90369],[-1,-14.20961],[-0.5,-14.51687],[0,-14.82542],[0.5,-15.13518],[1,-15.44609],[1.5,-15.75808],[2,-16.07105],[2.5,-16.38494],[3,-16.69966],[3.5,-17.01511],[4,-17.3312],[4.5,-17.64784],[5,-17.96493],[5.5,-18.28235],[6,-18.60002],[6.5,-18.9178],[7,-19.23559],[7.5,-19.55328],[8,-19.87074],[8.5,-20.18784],[9,-20.50447],[9.5,-20.82049],[10,-21.13578],[10.5,-21.4502],[11,-21.76361],[11.5,-22.07589],[12,-22.3869],[12.5,-22.6965],[13,-23.00455],[13.5,-23.31091],[14,-23.61546],[14.5,-23.91805],[15,-24.21854],[15.5,-24.51681],[16,-24.81271],[16.5,-25.10612],[17,-25.39692],[17.5,-25.68497],[18,-25.97015],[18.5,-26.25234],[19,-26.53142],[19.5,-26.80729],[20,-27.07982],[20.5,-27.34893],[21,-27.61449],[21.5,-27.87643],[22,-28.13464],[22.5,-28.38904],[23,-28.63954],[23.5,-28.88607],[24,-29.12856],[24.5,-29.36692],[25,-29.6011],[25.5,-29.83105],[26,-30.05669],[26.5,-30.27799],[27,-30.4949],[27.5,-30.70737],[28,-30.91536],[28.5,-31.11886],[29,-31.31782],[29.5,-31.51222],[30,-31.70203],[30.5,-31.88725],[31,-32.06786],[31.5,-32.24384],[32,-32.41518],[32.5,-32.58189],[33,-32.74396],[33.5,-32.90139],[34,-33.05418],[34.5,-33.20233],[35,-33.34586],[35.5,-33.48478],[36,-33.61909],[36.5,-33.7488],[37,-33.87394],[37.5,-33.99452],[38,-34.11055],[38.5,-34.22205],[39,-34.32905],[39.5,-34.43156],[40,-34.5296],[40.5,-34.6232],[41,-34.71239],[41.5,-34.79717],[42,-34.87758],[42.5,-34.95364],[43,-35.02538],[43.5,-35.09283],[44,-35.156],[44.5,-35.21492],[45,-35.26962],[45.5,-35.32013],[46,-35.36647],[46.5,-35.40867],[47,-35.44676],[47.5,-35.48075],[48,-35.51068],[48.5,-35.53658],[49,-35.55846],[49.5,-35.57637],[50,-35.59031],[50.5,-35.60033],[51,-35.60643],[51.5,-35.60866],[52,-35.60704],[52.5,-35.60159],[53,-35.59234],[53.5,-35.57931],[54,-35.56253],[54.5,-35.54203],[55,-35.51782],[55.5,-35.48994],[56,-35.45842],[56.5,-35.42327],[57,-35.38453],[57.5,-35.34221],[58,-35.29635],[58.5,-35.24696],[59,-35.19409],[59.5,-35.13774],[60,-35.07795],[60.5,-35.01475],[61,-34.94815],[61.5,-34.87819],[62,-34.8049],[62.5,-34.7283],[63,-34.64841],[63.5,-34.56527],[64,-34.4789],[64.5,-34.38934],[65,-34.2966],[65.5,-34.20073],[66,-34.10174],[66.5,-33.99967],[67,-33.89455],[67.5,-33.7864],[68,-33.67527],[68.5,-33.56117],[69,-33.44415],[69.5,-33.32424],[70,-33.20146],[70.5,-33.07585],[71,-32.94745],[71.5,-32.81629],[72,-32.6824],[72.5,-32.54582],[73,-32.40659],[73.5,-32.26474],[74,-32.12031],[74.5,-31.97333],[75,-31.82385],[75.5,-31.6719],[76,-31.51752],[76.5,-31.36076],[77,-31.20164],[77.5,-31.04022],[78,-30.87653],[78.5,-30.71061],[79,-30.54251],[79.5,-30.37226],[80,-30.19992],[80.5,-30.02551],[81,-29.84909],[81.5,-29.67071],[82,-29.49039],[82.5,-29.30819],[83,-29.12416],[83.5,-28.93833],[84,-28.75075],[84.5,-28.56146],[85,-28.37052],[85.5,-28.17796],[86,-27.98384],[86.5,-27.78819],[87,-27.59106],[87.5,-27.39249],[88,-27.19254],[88.5,-26.99125],[89,-26.78866],[89.5,-26.58481],[90,-26.37976],[90.5,-26.17354],[91,-25.96621],[91.5,-25.75779],[92,-25.54835],[92.5,-25.33792],[93,-25.12654],[93.5,-24.91426],[94,-24.70112],[94.5,-24.48717],[95,-24.27243],[95.5,-24.05697],[96,-23.84081],[96.5,-23.62399],[97,-23.40656],[97.5,-23.18856],[98,-22.97002],[98.5,-22.75098],[99,-22.53148],[99.5,-22.31156],[100,-22.09125],[100.5,-21.87059],[101,-21.64961],[101.5,-21.42836],[102,-21.20685],[102.5,-20.98514],[103,-20.76324],[103.5,-20.54119],[104,-20.31903],[104.5,-20.09678],[105,-19.87448],[105.5,-19.65215],[106,-19.42982],[106.5,-19.20752],[107,-18.98529],[107.5,-18.76313],[108,-18.5411],[108.5,-18.3192],[109,-18.09746],[109.5,-17.87591],[110,-17.65457],[110.5,-17.43347],[110.78033,-17.30909]]}},{"type":"Feature","id":"+04751214:south:0","properties":{"id":"+04751214","year":475,"month":12,"day":14,"time_tdt":"10:57:44","type":"금환일식","type_code":"A","saros":88,"gamma":-0.18354,"magnitude":0.98541,"greatest":{"lat":-34.14555,"lng":38.15485},"path_width_km":52.5,"duration":"01m27s","delta_t_seconds":5917.6,"catalog_number":5881,"source":"NASA Five Millennium Canon of Solar Eclipses","source_url":"https://eclipse.gsfc.nasa.gov/SEsearch/SEsearchmap.php?Ecl=%2B04751214","boundary":"south","name":"475-12-14 금환일식"},"geometry":{"type":"LineString","coordinates":[[-24.21484,-2.54987],[-24,-2.6428],[-23.5,-2.86046],[-23,-3.08006],[-22.5,-3.30162],[-22,-3.52514],[-21.5,-3.75063],[-21,-3.9781],[-20.5,-4.20755],[-20,-4.439],[-19.5,-4.67244],[-19,-4.90789],[-18.5,-5.14535],[-18,-5.38483],[-17.5,-5.62633],[-17,-5.86985],[-16.5,-6.11539],[-16,-6.36296],[-15.5,-6.61257],[-15,-6.8642],[-14.5,-7.11786],[-14,-7.37355],[-13.5,-7.63127],[-13,-7.891],[-12.5,-8.15275],[-12,-8.41651],[-11.5,-8.68227],[-11,-8.95002],[-10.5,-9.21976],[-10,-9.49146],[-9.5,-9.76512],[-9,-10.04072],[-8.5,-10.31824],[-8,-10.59767],[-7.5,-10.87897],[-7,-11.16213],[-6.5,-11.44713],[-6,-11.73392],[-5.5,-12.02249],[-5,-12.31279],[-4.5,-12.6048],[-4,-12.89847],[-3.5,-13.19377],[-3,-13.49064],[-2.5,-13.78905],[-2,-14.08893],[-1.5,-14.39024],[-1,-14.69292],[-0.5,-14.99691],[0,-15.30215],[0.5,-15.60857],[1,-15.91609],[1.5,-16.22465],[2,-16.53416],[2.5,-16.84455],[3,-17.15572],[3.5,-17.4676],[4,-17.78009],[4.5,-18.09309],[5,-18.4065],[5.5,-18.72022],[6,-19.03415],[6.5,-19.34817],[7,-19.66218],[7.5,-19.97605],[8,-20.28967],[8.5,-20.60292],[9,-20.91567],[9.5,-21.2278],[10,-21.53918],[10.5,-21.84968],[11,-22.15917],[11.5,-22.46752],[12,-22.7746],[12.5,-23.08026],[13,-23.38439],[13.5,-23.68683],[14,-23.98746],[14.5,-24.28615],[15,-24.58276],[15.5,-24.87716],[16,-25.16923],[16.5,-25.45883],[17,-25.74584],[17.5,-26.03013],[18,-26.3116],[18.5,-26.59011],[19,-26.86556],[19.5,-27.13784],[20,-27.40683],[20.5,-27.67245],[21,-27.93458],[21.5,-28.19313],[22,-28.44802],[22.5,-28.69916],[23,-28.94647],[23.5,-29.18986],[24,-29.42928],[24.5,-29.66465],[25,-29.8959],[25.5,-30.12299],[26,-30.34585],[26.5,-30.56444],[27,-30.77872],[27.5,-30.98863],[28,-31.19415],[28.5,-31.39524],[29,-31.59188],[29.5,-31.78403],[30,-31.97168],[30.5,-32.15482],[31,-32.33341],[31.5,-32.50747],[32,-32.67696],[32.5,-32.8419],[33,-33.00228],[33.5,-33.1581],[34,-33.30935],[34.5,-33.45605],[35,-33.5982],[35.5,-33.73582],[36,-33.8689],[36.5,-33.99747],[37,-34.12153],[37.5,-34.24111],[38,-34.35622],[38.5,-34.46687],[39,-34.57309],[39.5,-34.6749],[40,-34.77231],[40.5,-34.86535],[41,-34.95403],[41.5,-35.03839],[42,-35.11845],[42.5,-35.19423],[43,-35.26575],[43.5,-35.33304],[44,-35.39613],[44.5,-35.45503],[45,-35.50978],[45.5,-35.5604],[46,-35.60692],[46.5,-35.64935],[47,-35.68774],[47.5,-35.7221],[48,-35.75246],[48.5,-35.77884],[49,-35.80127],[49.5,-35.81978],[50,-35.83439],[50.5,-35.84513],[51,-35.85203],[51.5,-35.8551],[52,-35.85438],[52.5,-35.84989],[53,-35.84165],[53.5,-35.82969],[54,-35.81404],[54.5,-35.79472],[55,-35.77176],[55.5,-35.74518],[56,-35.715],[56.5,-35.68126],[57,-35.64397],[57.5,-35.60316],[58,-35.55886],[58.5,-35.51109],[59,-35.45989],[59.5,-35.40526],[60,-35.34724],[60.5,-35.28586],[61,-35.22114],[61.5,-35.1531],[62,-35.08178],[62.5,-35.00719],[63,-34.92938],[63.5,-34.84835],[64,-34.76415],[64.5,-34.67679],[65,-34.58632],[65.5,-34.49274],[66,-34.3961],[66.5,-34.29642],[67,-34.19374],[67.5,-34.08807],[68,-33.97946],[68.5,-33.86793],[69,-33.75351],[69.5,-33.63624],[70,-33.51614],[70.5,-33.39326],[71,-33.26762],[71.5,-33.13925],[72,-33.0082],[72.5,-32.87449],[73,-32.73815],[73.5,-32.59924],[74,-32.45777],[74.5,-32.3138],[75,-32.16735],[75.5,-32.01846],[76,-31.86717],[76.5,-31.71352],[77,-31.55754],[77.5,-31.39928],[78,-31.23878],[78.5,-31.07608],[79,-30.91121],[79.5,-30.74422],[80,-30.57515],[80.5,-30.40404],[81,-30.23093],[81.5,-30.05587],[82,-29.8789],[82.5,-29.70006],[83,-29.51939],[83.5,-29.33694],[84,-29.15275],[84.5,-28.96686],[85,-28.77933],[85.5,-28.59018],[86,-28.39947],[86.5,-28.20725],[87,-28.01355],[87.5,-27.81841],[88,-27.62189],[88.5,-27.42403],[89,-27.22487],[89.5,-27.02445],[90,-26.82282],[90.5,-26.62002],[91,-26.4161],[91.5,-26.21109],[92,-26.00505],[92.5,-25.79801],[93,-25.59002],[93.5,-25.38112],[94,-25.17134],[94.5,-24.96074],[95,-24.74935],[95.5,-24.53721],[96,-24.32436],[96.5,-24.11084],[97,-23.8967],[97.5,-23.68196],[98,-23.46667],[98.5,-23.25087],[99,-23.03459],[99.5,-22.81787],[100,-22.60074],[100.5,-22.38324],[101,-22.16541],[101.5,-21.94728],[102,-21.72887],[102.5,-21.51024],[103,-21.2914],[103.5,-21.07239],[104,-20.85325],[104.5,-20.63399],[105,-20.41466],[105.5,-20.19528],[106,-19.97588],[106.5,-19.75649],[107,-19.53713],[107.5,-19.31783],[108,-19.09863],[108.5,-18.87953],[109,-18.66058],[109.5,-18.44179],[110,-18.22319],[110.5,-18.00481],[111,-17.78665]]}}],"attribution":"Eclipse Predictions by Fred Espenak and Jean Meeus (NASA's GSFC)","generated_at":"2026-09-23T01:44:51.403Z"}
