{"type":"FeatureCollection","year":487,"events":[{"id":"+04870509","year":487,"month":5,"day":9,"time_tdt":"04:51:29","type":"개기일식","type_code":"T","saros":94,"gamma":-0.62835,"magnitude":1.05588,"greatest":{"lat":-20.91426,"lng":136.85583},"path_width_km":236.2,"duration":"05m11s","delta_t_seconds":5805.9,"catalog_number":5907,"source":"NASA Five Millennium Canon of Solar Eclipses","source_url":"https://eclipse.gsfc.nasa.gov/SEsearch/SEsearchmap.php?Ecl=%2B04870509"},{"id":"+04871101","year":487,"month":11,"day":1,"time_tdt":"12:41:08","type":"금환일식","type_code":"A","saros":99,"gamma":0.75048,"magnitude":0.95682,"greatest":{"lat":32.58234,"lng":21.60071},"path_width_km":236.4,"duration":"04m39s","delta_t_seconds":5801.2,"catalog_number":5908,"source":"NASA Five Millennium Canon of Solar Eclipses","source_url":"https://eclipse.gsfc.nasa.gov/SEsearch/SEsearchmap.php?Ecl=%2B04871101"}],"features":[{"type":"Feature","id":"+04870509:north:0","properties":{"id":"+04870509","year":487,"month":5,"day":9,"time_tdt":"04:51:29","type":"개기일식","type_code":"T","saros":94,"gamma":-0.62835,"magnitude":1.05588,"greatest":{"lat":-20.91426,"lng":136.85583},"path_width_km":236.2,"duration":"05m11s","delta_t_seconds":5805.9,"catalog_number":5907,"source":"NASA Five Millennium Canon of Solar Eclipses","source_url":"https://eclipse.gsfc.nasa.gov/SEsearch/SEsearchmap.php?Ecl=%2B04870509","boundary":"north","name":"487-05-09 개기일식"},"geometry":{"type":"LineString","coordinates":[[79.4375,-45.91811],[79.5,-45.89683],[80,-45.72579],[80.5,-45.5533],[81,-45.37936],[81.5,-45.20395],[82,-45.02708],[82.5,-44.84873],[83,-44.66891],[83.5,-44.48759],[84,-44.30478],[84.5,-44.12047],[85,-43.93466],[85.5,-43.74733],[86,-43.55848],[86.5,-43.36811],[87,-43.17621],[87.5,-42.98278],[88,-42.7878],[88.5,-42.59128],[89,-42.39322],[89.5,-42.19359],[90,-41.99242],[90.5,-41.78968],[91,-41.58537],[91.5,-41.3795],[92,-41.17206],[92.5,-40.96305],[93,-40.75246],[93.5,-40.54029],[94,-40.32655],[94.5,-40.11123],[95,-39.89434],[95.5,-39.67587],[96,-39.45582],[96.5,-39.2342],[97,-39.01101],[97.5,-38.78625],[98,-38.55994],[98.5,-38.33206],[99,-38.10263],[99.5,-37.87166],[100,-37.63915],[100.5,-37.40512],[101,-37.16956],[101.5,-36.9325],[102,-36.69395],[102.5,-36.45392],[103,-36.21242],[103.5,-35.96948],[104,-35.72511],[104.5,-35.47932],[105,-35.23216],[105.5,-34.98362],[106,-34.73375],[106.5,-34.48257],[107,-34.2301],[107.5,-33.97639],[108,-33.72146],[108.5,-33.46535],[109,-33.2081],[109.5,-32.94975],[110,-32.69035],[110.5,-32.42994],[111,-32.16858],[111.5,-31.90631],[112,-31.6432],[112.5,-31.3793],[113,-31.11468],[113.5,-30.84941],[114,-30.58355],[114.5,-30.31718],[115,-30.05037],[115.5,-29.78322],[116,-29.51581],[116.5,-29.24823],[117,-28.98057],[117.5,-28.71294],[118,-28.44543],[118.5,-28.17816],[119,-27.91124],[119.5,-27.64478],[120,-27.37891],[120.5,-27.11376],[121,-26.84944],[121.5,-26.58611],[122,-26.32389],[122.5,-26.06292],[123,-25.80336],[123.5,-25.54536],[124,-25.28906],[124.5,-25.03462],[125,-24.7822],[125.5,-24.53196],[126,-24.28407],[126.5,-24.03868],[127,-23.79597],[127.5,-23.5561],[128,-23.31923],[128.5,-23.08554],[129,-22.85518],[129.5,-22.62833],[130,-22.40514],[130.5,-22.18578],[131,-21.9704],[131.5,-21.75916],[132,-21.5522],[132.5,-21.34967],[133,-21.15171],[133.5,-20.95846],[134,-20.77004],[134.5,-20.58657],[135,-20.40818],[135.5,-20.23496],[136,-20.06702],[136.5,-19.90445],[137,-19.74734],[137.5,-19.59576],[138,-19.44978],[138.5,-19.30946],[139,-19.17485],[139.5,-19.046],[140,-18.92293],[140.5,-18.80568],[141,-18.69427],[141.5,-18.5887],[142,-18.48898],[142.5,-18.39509],[143,-18.30704],[143.5,-18.2248],[144,-18.14834],[144.5,-18.07764],[145,-18.01265],[145.5,-17.95333],[146,-17.89963],[146.5,-17.8515],[147,-17.80888],[147.5,-17.7717],[148,-17.7399],[148.5,-17.71341],[149,-17.69216],[149.5,-17.67606],[150,-17.66504],[150.5,-17.65902],[151,-17.65791],[151.5,-17.66163],[152,-17.67009],[152.5,-17.68321],[153,-17.70089],[153.5,-17.72305],[154,-17.74959],[154.5,-17.78043],[155,-17.81547],[155.5,-17.85463],[156,-17.89781],[156.5,-17.94493],[157,-17.99589],[157.5,-18.0506],[158,-18.10898],[158.5,-18.17095],[159,-18.2364],[159.5,-18.30526],[160,-18.37744],[160.5,-18.45287],[161,-18.53144],[161.5,-18.6131],[162,-18.69775],[162.5,-18.78531],[163,-18.87572],[163.5,-18.96888],[164,-19.06474],[164.5,-19.16321],[165,-19.26422],[165.5,-19.3677],[166,-19.47359],[166.5,-19.58181],[167,-19.6923],[167.5,-19.80499],[168,-19.91982],[168.5,-20.03673],[169,-20.15565],[169.5,-20.27653],[170,-20.39931],[170.5,-20.52393],[171,-20.65033],[171.5,-20.77847],[172,-20.90827],[172.5,-21.03971],[173,-21.17272],[173.5,-21.30725],[174,-21.44326],[174.5,-21.58069],[175,-21.71951],[175.5,-21.85967],[176,-22.00111],[176.5,-22.14381],[177,-22.28771],[177.5,-22.43278],[178,-22.57898],[178.5,-22.72627],[179,-22.8746],[179.5,-23.02395],[180,-23.17427]]}},{"type":"Feature","id":"+04870509:north:1","properties":{"id":"+04870509","year":487,"month":5,"day":9,"time_tdt":"04:51:29","type":"개기일식","type_code":"T","saros":94,"gamma":-0.62835,"magnitude":1.05588,"greatest":{"lat":-20.91426,"lng":136.85583},"path_width_km":236.2,"duration":"05m11s","delta_t_seconds":5805.9,"catalog_number":5907,"source":"NASA Five Millennium Canon of Solar Eclipses","source_url":"https://eclipse.gsfc.nasa.gov/SEsearch/SEsearchmap.php?Ecl=%2B04870509","boundary":"north","name":"487-05-09 개기일식"},"geometry":{"type":"LineString","coordinates":[[-179.5,-23.32554],[-179,-23.47771],[-178.5,-23.63075],[-178,-23.78463],[-177.5,-23.93932],[-177,-24.09479],[-176.5,-24.251],[-176,-24.40793],[-175.5,-24.56555],[-175,-24.72382],[-174.5,-24.88273],[-174,-25.04224],[-173.5,-25.20232],[-173,-25.36296],[-172.5,-25.52413],[-172,-25.68579],[-171.5,-25.84794],[-171,-26.01054],[-170.5,-26.17357],[-170,-26.33702],[-169.875,-26.37794]]}},{"type":"Feature","id":"+04870509:center:0","properties":{"id":"+04870509","year":487,"month":5,"day":9,"time_tdt":"04:51:29","type":"개기일식","type_code":"T","saros":94,"gamma":-0.62835,"magnitude":1.05588,"greatest":{"lat":-20.91426,"lng":136.85583},"path_width_km":236.2,"duration":"05m11s","delta_t_seconds":5805.9,"catalog_number":5907,"source":"NASA Five Millennium Canon of Solar Eclipses","source_url":"https://eclipse.gsfc.nasa.gov/SEsearch/SEsearchmap.php?Ecl=%2B04870509","boundary":"center","name":"487-05-09 개기일식"},"geometry":{"type":"LineString","coordinates":[[79.7609,-46.68127],[80,-46.54165],[80.5,-46.37188],[81,-46.20069],[81.5,-46.02805],[82,-45.85397],[82.5,-45.67845],[83,-45.50146],[83.5,-45.32301],[84,-45.14309],[84.5,-44.96169],[85,-44.77881],[85.5,-44.59445],[86,-44.40859],[86.5,-44.22123],[87,-44.03237],[87.5,-43.842],[88,-43.65011],[88.5,-43.45671],[89,-43.26178],[89.5,-43.06533],[90,-42.86734],[90.5,-42.66782],[91,-42.46676],[91.5,-42.26416],[92,-42.06001],[92.5,-41.85432],[93,-41.64708],[93.5,-41.43829],[94,-41.22795],[94.5,-41.01606],[95,-40.80262],[95.5,-40.58763],[96,-40.37109],[96.5,-40.153],[97,-39.93337],[97.5,-39.7122],[98,-39.48949],[98.5,-39.26525],[99,-39.03947],[99.5,-38.81218],[100,-38.58338],[100.5,-38.35307],[101,-38.12127],[101.5,-37.88798],[102,-37.65322],[102.5,-37.417],[103,-37.17933],[103.5,-36.94024],[104,-36.69973],[104.5,-36.45783],[105,-36.21456],[105.5,-35.96994],[106,-35.72399],[106.5,-35.47675],[107,-35.22823],[107.5,-34.97846],[108,-34.72749],[108.5,-34.47535],[109,-34.22206],[109.5,-33.96767],[110,-33.71223],[110.5,-33.45578],[111,-33.19836],[111.5,-32.94003],[112,-32.68083],[112.5,-32.42084],[113,-32.1601],[113.5,-31.89868],[114,-31.63665],[114.5,-31.37408],[115,-31.11104],[115.5,-30.84761],[116,-30.58388],[116.5,-30.31992],[117,-30.05584],[117.5,-29.79173],[118,-29.52768],[118.5,-29.26379],[119,-29.00018],[119.5,-28.73696],[120,-28.47424],[120.5,-28.21215],[121,-27.9508],[121.5,-27.69033],[122,-27.43087],[122.5,-27.17255],[123,-26.91553],[123.5,-26.65993],[124,-26.40591],[124.5,-26.15363],[125,-25.90322],[125.5,-25.65485],[126,-25.40868],[126.5,-25.16487],[127,-24.92358],[127.5,-24.68497],[128,-24.44921],[128.5,-24.21646],[129,-23.98688],[129.5,-23.76063],[130,-23.53788],[130.5,-23.31879],[131,-23.10351],[131.5,-22.89219],[132,-22.68499],[132.5,-22.48206],[133,-22.28353],[133.5,-22.08954],[134,-21.90022],[134.5,-21.7157],[135,-21.53609],[135.5,-21.36152],[136,-21.19207],[136.5,-21.02786],[137,-20.86896],[137.5,-20.71547],[138,-20.56745],[138.5,-20.42497],[139,-20.28808],[139.5,-20.15685],[140,-20.0313],[140.5,-19.91147],[141,-19.79738],[141.5,-19.68905],[142,-19.58648],[142.5,-19.48969],[143,-19.39866],[143.5,-19.31337],[144,-19.23381],[144.5,-19.15995],[145,-19.09176],[145.5,-19.02919],[146,-18.9722],[146.5,-18.92075],[147,-18.87477],[147.5,-18.83422],[148,-18.79901],[148.5,-18.7691],[149,-18.74439],[149.5,-18.72484],[150,-18.71034],[150.5,-18.70084],[151,-18.69624],[151.5,-18.69646],[152,-18.70143],[152.5,-18.71104],[153,-18.72522],[153.5,-18.74387],[154,-18.76691],[154.5,-18.79425],[155,-18.8258],[155.5,-18.86147],[156,-18.90117],[156.5,-18.94481],[157,-18.9923],[157.5,-19.04355],[158,-19.09848],[158.5,-19.157],[159,-19.21902],[159.5,-19.28446],[160,-19.35323],[160.5,-19.42526],[161,-19.50045],[161.5,-19.57872],[162,-19.66001],[162.5,-19.74422],[163,-19.83128],[163.5,-19.92112],[164,-20.01366],[164.5,-20.10883],[165,-20.20655],[165.5,-20.30676],[166,-20.40938],[166.5,-20.51435],[167,-20.6216],[167.5,-20.73107],[168,-20.8427],[168.5,-20.95641],[169,-21.07215],[169.5,-21.18986],[170,-21.30949],[170.5,-21.43097],[171,-21.55425],[171.5,-21.67927],[172,-21.80598],[172.5,-21.93434],[173,-22.06428],[173.5,-22.19576],[174,-22.32873],[174.5,-22.46314],[175,-22.59895],[175.5,-22.73611],[176,-22.87458],[176.5,-23.01432],[177,-23.15527],[177.5,-23.29741],[178,-23.44069],[178.5,-23.58508],[179,-23.73052],[179.5,-23.877],[180,-24.02447]]}},{"type":"Feature","id":"+04870509:center:1","properties":{"id":"+04870509","year":487,"month":5,"day":9,"time_tdt":"04:51:29","type":"개기일식","type_code":"T","saros":94,"gamma":-0.62835,"magnitude":1.05588,"greatest":{"lat":-20.91426,"lng":136.85583},"path_width_km":236.2,"duration":"05m11s","delta_t_seconds":5805.9,"catalog_number":5907,"source":"NASA Five Millennium Canon of Solar Eclipses","source_url":"https://eclipse.gsfc.nasa.gov/SEsearch/SEsearchmap.php?Ecl=%2B04870509","boundary":"center","name":"487-05-09 개기일식"},"geometry":{"type":"LineString","coordinates":[[-179.5,-24.17289],[-179,-24.32224],[-178.5,-24.47247],[-178,-24.62356],[-177.5,-24.77548],[-177,-24.92818],[-176.5,-25.08165],[-176,-25.23585],[-175.5,-25.39075],[-175,-25.54633],[-174.5,-25.70255],[-174,-25.8594],[-173.5,-26.01684],[-173,-26.17484],[-172.5,-26.33339],[-172,-26.49246],[-171.5,-26.65202],[-171,-26.81206],[-170.5,-26.97254],[-170,-27.13345],[-169.89777,-27.16252]]}},{"type":"Feature","id":"+04870509:south:0","properties":{"id":"+04870509","year":487,"month":5,"day":9,"time_tdt":"04:51:29","type":"개기일식","type_code":"T","saros":94,"gamma":-0.62835,"magnitude":1.05588,"greatest":{"lat":-20.91426,"lng":136.85583},"path_width_km":236.2,"duration":"05m11s","delta_t_seconds":5805.9,"catalog_number":5907,"source":"NASA Five Millennium Canon of Solar Eclipses","source_url":"https://eclipse.gsfc.nasa.gov/SEsearch/SEsearchmap.php?Ecl=%2B04870509","boundary":"south","name":"487-05-09 개기일식"},"geometry":{"type":"LineString","coordinates":[[80,-47.36475],[80.5,-47.19768],[81,-47.02921],[81.5,-46.85932],[82,-46.68801],[82.5,-46.51527],[83,-46.34109],[83.5,-46.16548],[84,-45.98842],[84.5,-45.8099],[85,-45.62993],[85.5,-45.4485],[86,-45.26559],[86.5,-45.08121],[87,-44.89536],[87.5,-44.70801],[88,-44.51918],[88.5,-44.32886],[89,-44.13704],[89.5,-43.94371],[90,-43.74888],[90.5,-43.55254],[91,-43.35469],[91.5,-43.15532],[92,-42.95443],[92.5,-42.75202],[93,-42.54809],[93.5,-42.34264],[94,-42.13566],[94.5,-41.92716],[95,-41.71713],[95.5,-41.50558],[96,-41.2925],[96.5,-41.0779],[97,-40.86179],[97.5,-40.64415],[98,-40.42501],[98.5,-40.20435],[99,-39.98219],[99.5,-39.75854],[100,-39.53339],[100.5,-39.30677],[101,-39.07867],[101.5,-38.84911],[102,-38.6181],[102.5,-38.38565],[103,-38.15177],[103.5,-37.91648],[104,-37.6798],[104.5,-37.44174],[105,-37.20233],[105.5,-36.96158],[106,-36.71952],[106.5,-36.47616],[107,-36.23155],[107.5,-35.98571],[108,-35.73866],[108.5,-35.49044],[109,-35.24108],[109.5,-34.99063],[110,-34.73912],[110.5,-34.48659],[111,-34.23309],[111.5,-33.97867],[112,-33.72338],[112.5,-33.46727],[113,-33.2104],[113.5,-32.95283],[114,-32.69463],[114.5,-32.43585],[115,-32.17657],[115.5,-31.91688],[116,-31.65683],[116.5,-31.39652],[117,-31.13604],[117.5,-30.87546],[118,-30.61489],[118.5,-30.35443],[119,-30.09418],[119.5,-29.83424],[120,-29.57472],[120.5,-29.31574],[121,-29.05743],[121.5,-28.79989],[122,-28.54327],[122.5,-28.28768],[123,-28.03328],[123.5,-27.78019],[124,-27.52855],[124.5,-27.27852],[125,-27.03024],[125.5,-26.78387],[126,-26.53955],[126.5,-26.29744],[127,-26.0577],[127.5,-25.8205],[128,-25.58598],[128.5,-25.35431],[129,-25.12565],[129.5,-24.90016],[130,-24.67801],[130.5,-24.45934],[131,-24.24431],[131.5,-24.03308],[132,-23.8258],[132.5,-23.62261],[133,-23.42366],[133.5,-23.22909],[134,-23.03902],[134.5,-22.85359],[135,-22.67292],[135.5,-22.49712],[136,-22.3263],[136.5,-22.16057],[137,-22.00001],[137.5,-21.84472],[138,-21.69477],[138.5,-21.55023],[139,-21.41117],[139.5,-21.27763],[140,-21.14968],[140.5,-21.02734],[141,-20.91064],[141.5,-20.79961],[142,-20.69425],[142.5,-20.59459],[143,-20.50061],[143.5,-20.41231],[144,-20.32967],[144.5,-20.25266],[145,-20.18127],[145.5,-20.11546],[146,-20.05518],[146.5,-20.0004],[147,-19.95105],[147.5,-19.90709],[148,-19.86845],[148.5,-19.83508],[149,-19.8069],[149.5,-19.78384],[150,-19.76584],[150.5,-19.7528],[151,-19.74466],[151.5,-19.74134],[152,-19.74274],[152.5,-19.7488],[153,-19.75941],[153.5,-19.7745],[154,-19.79398],[154.5,-19.81776],[155,-19.84575],[155.5,-19.87787],[156,-19.91402],[156.5,-19.95411],[157,-19.99807],[157.5,-20.0458],[158,-20.09721],[158.5,-20.15222],[159,-20.21075],[159.5,-20.2727],[160,-20.338],[160.5,-20.40655],[161,-20.47829],[161.5,-20.55313],[162,-20.63099],[162.5,-20.71178],[163,-20.79545],[163.5,-20.8819],[164,-20.97106],[164.5,-21.06287],[165,-21.15725],[165.5,-21.25412],[166,-21.35343],[166.5,-21.4551],[167,-21.55907],[167.5,-21.66526],[168,-21.77363],[168.5,-21.8841],[169,-21.99661],[169.5,-22.11111],[170,-22.22754],[170.5,-22.34584],[171,-22.46595],[171.5,-22.58782],[172,-22.7114],[172.5,-22.83664],[173,-22.96348],[173.5,-23.09187],[174,-23.22177],[174.5,-23.35313],[175,-23.4859],[175.5,-23.62004],[176,-23.7555],[176.5,-23.89224],[177,-24.03022],[177.5,-24.1694],[178,-24.30974],[178.5,-24.4512],[179,-24.59374],[179.5,-24.73733],[180,-24.88192]]}},{"type":"Feature","id":"+04870509:south:1","properties":{"id":"+04870509","year":487,"month":5,"day":9,"time_tdt":"04:51:29","type":"개기일식","type_code":"T","saros":94,"gamma":-0.62835,"magnitude":1.05588,"greatest":{"lat":-20.91426,"lng":136.85583},"path_width_km":236.2,"duration":"05m11s","delta_t_seconds":5805.9,"catalog_number":5907,"source":"NASA Five Millennium Canon of Solar Eclipses","source_url":"https://eclipse.gsfc.nasa.gov/SEsearch/SEsearchmap.php?Ecl=%2B04870509","boundary":"south","name":"487-05-09 개기일식"},"geometry":{"type":"LineString","coordinates":[[-179.5,-25.02748],[-179,-25.17399],[-178.5,-25.3214],[-178,-25.46968],[-177.5,-25.6188],[-177,-25.76873],[-176.5,-25.91944],[-176,-26.07089],[-175.5,-26.22307],[-175,-26.37594],[-174.5,-26.52947],[-174,-26.68364],[-173.5,-26.83842],[-173,-26.99379],[-172.5,-27.14971],[-172,-27.30617],[-171.5,-27.46315],[-171,-27.62061],[-170.5,-27.77853],[-170,-27.9369],[-169.98828,-27.94062]]}},{"type":"Feature","id":"+04871101:north:0","properties":{"id":"+04871101","year":487,"month":11,"day":1,"time_tdt":"12:41:08","type":"금환일식","type_code":"A","saros":99,"gamma":0.75048,"magnitude":0.95682,"greatest":{"lat":32.58234,"lng":21.60071},"path_width_km":236.4,"duration":"04m39s","delta_t_seconds":5801.2,"catalog_number":5908,"source":"NASA Five Millennium Canon of Solar Eclipses","source_url":"https://eclipse.gsfc.nasa.gov/SEsearch/SEsearchmap.php?Ecl=%2B04871101","boundary":"north","name":"487-11-01 금환일식"},"geometry":{"type":"LineString","coordinates":[[-34,59.1995],[-34.5,59.3539],[-33.5,59.04359],[-33,58.88617],[-32.5,58.72722],[-32,58.56673],[-31.5,58.4047],[-31,58.24112],[-30.5,58.07597],[-30,57.90924],[-29.5,57.74093],[-29,57.57104],[-28.5,57.39953],[-28,57.22642],[-27.5,57.05169],[-27,56.87533],[-26.5,56.69733],[-26,56.51768],[-25.5,56.33638],[-25,56.15341],[-24.5,55.96877],[-24,55.78245],[-23.5,55.59444],[-23,55.40474],[-22.5,55.21333],[-22,55.02021],[-21.5,54.82537],[-21,54.62881],[-20.5,54.43052],[-20,54.23048],[-19.5,54.0287],[-19,53.82518],[-18.5,53.6199],[-18,53.41286],[-17.5,53.20405],[-17,52.99348],[-16.5,52.78114],[-16,52.56702],[-15.5,52.35113],[-15,52.13346],[-14.5,51.91402],[-14,51.6928],[-13.5,51.4698],[-13,51.24503],[-12.5,51.01848],[-12,50.79017],[-11.5,50.56009],[-11,50.32826],[-10.5,50.09467],[-10,49.85934],[-9.5,49.62227],[-9,49.38348],[-8.5,49.14298],[-8,48.90079],[-7.5,48.65691],[-7,48.41137],[-6.5,48.16418],[-6,47.91537],[-5.5,47.66495],[-5,47.41297],[-4.5,47.15943],[-4,46.90438],[-3.5,46.64784],[-3,46.38985],[-2.5,46.13046],[-2,45.86969],[-1.5,45.6076],[-1,45.34424],[-0.5,45.07965],[0,44.81389],[0.5,44.54702],[1,44.27911],[1.5,44.01022],[2,43.74042],[2.5,43.46979],[3,43.19841],[3.5,42.92636],[4,42.65374],[4.5,42.38064],[5,42.10716],[5.5,41.83341],[6,41.5595],[6.5,41.28555],[7,41.01167],[7.5,40.738],[8,40.46466],[8.5,40.19181],[9,39.91958],[9.5,39.64811],[10,39.37758],[10.5,39.10813],[11,38.83994],[11.5,38.57316],[12,38.30798],[12.5,38.04457],[13,37.78311],[13.5,37.52378],[14,37.26678],[14.5,37.01229],[15,36.7605],[15.5,36.5116],[16,36.26579],[16.5,36.02324],[17,35.78416],[17.5,35.54872],[18,35.31712],[18.5,35.08952],[19,34.86612],[19.5,34.64707],[20,34.43255],[20.5,34.22272],[21,34.01772],[21.5,33.8177],[22,33.6228],[22.5,33.43314],[23,33.24884],[23.5,33.07001],[24,32.89675],[24.5,32.72915],[25,32.56728],[25.5,32.41121],[26,32.26101],[26.5,32.11671],[27,31.97836],[27.5,31.84598],[28,31.71958],[28.5,31.59918],[29,31.48478],[29.5,31.37636],[30,31.2739],[30.5,31.17737],[31,31.08675],[31.5,31.00198],[32,30.92303],[32.5,30.84982],[33,30.78232],[33.5,30.72044],[34,30.66411],[34.5,30.61327],[35,30.56784],[35.5,30.52772],[36,30.49284],[36.5,30.46311],[37,30.43844],[37.5,30.41874],[38,30.40391],[38.5,30.39385],[39,30.38849],[39.5,30.38771],[40,30.39142],[40.5,30.39953],[41,30.41194],[41.5,30.42856],[42,30.44928],[42.5,30.47402],[43,30.50268],[43.5,30.53517],[44,30.57139],[44.5,30.61126],[45,30.65468],[45.5,30.70158],[46,30.75185],[46.5,30.80543],[47,30.86221],[47.5,30.92213],[48,30.98509],[48.5,31.05102],[49,31.11985],[49.5,31.1915],[50,31.26588],[50.5,31.34294],[51,31.4226],[51.5,31.50478],[52,31.58943],[52.5,31.67647],[53,31.76584],[53.5,31.85747],[54,31.95132],[54.5,32.0473],[55,32.14537],[55.5,32.24547],[56,32.34755],[56.5,32.45153],[57,32.55739],[57.5,32.66505],[58,32.77448],[58.5,32.88562],[59,32.99842],[59.5,33.11284],[60,33.22883],[60.5,33.34634],[61,33.46534],[61.5,33.58578],[62,33.70762],[62.5,33.83082],[63,33.95534],[63.5,34.08114],[64,34.20818],[64.5,34.33644],[65,34.46586],[65.5,34.59642],[66,34.72809],[66.5,34.86082],[67,34.9946],[67.5,35.12938],[68,35.26514],[68.5,35.40185],[69,35.53947],[69.5,35.67799],[70,35.81737],[70.5,35.95758],[70.75,36.02799]]}},{"type":"Feature","id":"+04871101:center:0","properties":{"id":"+04871101","year":487,"month":11,"day":1,"time_tdt":"12:41:08","type":"금환일식","type_code":"A","saros":99,"gamma":0.75048,"magnitude":0.95682,"greatest":{"lat":32.58234,"lng":21.60071},"path_width_km":236.4,"duration":"04m39s","delta_t_seconds":5801.2,"catalog_number":5908,"source":"NASA Five Millennium Canon of Solar Eclipses","source_url":"https://eclipse.gsfc.nasa.gov/SEsearch/SEsearchmap.php?Ecl=%2B04871101","boundary":"center","name":"487-11-01 금환일식"},"geometry":{"type":"LineString","coordinates":[[-35.29294,58.23155],[-35,58.09204],[-34.5,57.94067],[-34,57.78781],[-33.5,57.63347],[-33,57.47762],[-32.5,57.32027],[-32,57.16139],[-31.5,57.00099],[-31,56.83905],[-30.5,56.67556],[-30,56.51052],[-29.5,56.3439],[-29,56.17571],[-28.5,56.00594],[-28,55.83456],[-27.5,55.66159],[-27,55.487],[-26.5,55.31078],[-26,55.13293],[-25.5,54.95345],[-25,54.77231],[-24.5,54.58951],[-24,54.40504],[-23.5,54.2189],[-23,54.03108],[-22.5,53.84156],[-22,53.65035],[-21.5,53.45742],[-21,53.26278],[-20.5,53.06642],[-20,52.86834],[-19.5,52.66851],[-19,52.46695],[-18.5,52.26364],[-18,52.05858],[-17.5,51.85177],[-17,51.64319],[-16.5,51.43285],[-16,51.22075],[-15.5,51.00687],[-15,50.79122],[-14.5,50.5738],[-14,50.35461],[-13.5,50.13364],[-13,49.9109],[-12.5,49.68639],[-12,49.46012],[-11.5,49.23208],[-11,49.00228],[-10.5,48.77073],[-10,48.53744],[-9.5,48.30242],[-9,48.06566],[-8.5,47.8272],[-8,47.58704],[-7.5,47.34519],[-7,47.10167],[-6.5,46.8565],[-6,46.60971],[-5.5,46.36131],[-5,46.11132],[-4.5,45.85979],[-4,45.60673],[-3.5,45.35218],[-3,45.09618],[-2.5,44.83876],[-2,44.57997],[-1.5,44.31984],[-1,44.05844],[-0.5,43.7958],[0,43.53199],[0.5,43.26706],[1,43.00108],[1.5,42.73411],[2,42.46623],[2.5,42.19752],[3,41.92805],[3.5,41.65791],[4,41.3872],[4.5,41.116],[5,40.84442],[5.5,40.57258],[6,40.30056],[6.5,40.02851],[7,39.75654],[7.5,39.48477],[8,39.21335],[8.5,38.94241],[9,38.67211],[9.5,38.40258],[10,38.13398],[10.5,37.86649],[11,37.60025],[11.5,37.33545],[12,37.07225],[12.5,36.81083],[13,36.55139],[13.5,36.29409],[14,36.03913],[14.5,35.78669],[15,35.53696],[15.5,35.29014],[16,35.04642],[16.5,34.80597],[17,34.569],[17.5,34.33568],[18,34.1062],[18.5,33.88073],[19,33.65945],[19.5,33.44253],[20,33.23013],[20.5,33.02241],[21,32.8195],[21.5,32.62156],[22,32.42872],[22.5,32.24109],[23,32.0588],[23.5,31.88194],[24,31.71061],[24.5,31.5449],[25,31.38487],[25.5,31.2306],[26,31.08212],[26.5,30.9395],[27,30.80275],[27.5,30.6719],[28,30.54697],[28.5,30.42796],[29,30.31486],[29.5,30.20767],[30,30.10634],[30.5,30.01087],[31,29.92121],[31.5,29.83731],[32,29.75913],[32.5,29.6866],[33,29.61968],[33.5,29.55828],[34,29.50235],[34.5,29.45179],[35,29.40655],[35.5,29.36652],[36,29.33164],[36.5,29.3018],[37,29.27693],[37.5,29.25693],[38,29.2417],[38.5,29.23116],[39,29.22522],[39.5,29.22377],[40,29.22672],[40.5,29.23398],[41,29.24545],[41.5,29.26104],[42,29.28066],[42.5,29.30422],[43,29.33161],[43.5,29.36275],[44,29.39756],[44.5,29.43593],[45,29.47779],[45.5,29.52305],[46,29.57162],[46.5,29.62342],[47,29.67837],[47.5,29.73638],[48,29.79739],[48.5,29.8613],[49,29.92805],[49.5,29.99757],[50,30.06977],[50.5,30.14459],[51,30.22195],[51.5,30.3018],[52,30.38406],[52.5,30.46867],[53,30.55556],[53.5,30.64468],[54,30.73596],[54.5,30.82934],[55,30.92477],[55.5,31.02219],[56,31.12155],[56.5,31.22279],[57,31.32586],[57.5,31.43071],[58,31.53729],[58.5,31.64555],[59,31.75545],[59.5,31.86693],[60,31.97996],[60.5,32.09449],[61,32.21048],[61.5,32.32788],[62,32.44666],[62.5,32.56677],[63,32.68819],[63.5,32.81086],[64,32.93476],[64.5,33.05985],[65,33.18609],[65.5,33.31345],[66,33.4419],[66.5,33.5714],[67,33.70192],[67.5,33.83344],[68,33.96592],[68.5,34.09934],[69,34.23366],[69.5,34.36886],[70,34.50491],[70.5,34.64178],[70.85597,34.73508]]}},{"type":"Feature","id":"+04871101:south:0","properties":{"id":"+04871101","year":487,"month":11,"day":1,"time_tdt":"12:41:08","type":"금환일식","type_code":"A","saros":99,"gamma":0.75048,"magnitude":0.95682,"greatest":{"lat":32.58234,"lng":21.60071},"path_width_km":236.4,"duration":"04m39s","delta_t_seconds":5801.2,"catalog_number":5908,"source":"NASA Five Millennium Canon of Solar Eclipses","source_url":"https://eclipse.gsfc.nasa.gov/SEsearch/SEsearchmap.php?Ecl=%2B04871101","boundary":"south","name":"487-11-01 금환일식"},"geometry":{"type":"LineString","coordinates":[[-36.10547,57.05799],[-36,57.02718],[-35.5,56.88025],[-35,56.73188],[-34.5,56.58204],[-34,56.43074],[-33.5,56.27797],[-33,56.1237],[-32.5,55.96794],[-32,55.81068],[-31.5,55.65189],[-31,55.49159],[-30.5,55.32974],[-30,55.16636],[-29.5,55.00141],[-29,54.8349],[-28.5,54.66682],[-28,54.49715],[-27.5,54.32589],[-27,54.15303],[-26.5,53.97855],[-26,53.80246],[-25.5,53.62473],[-25,53.44536],[-24.5,53.26434],[-24,53.08167],[-23.5,52.89732],[-23,52.71131],[-22.5,52.52361],[-22,52.33421],[-21.5,52.14312],[-21,51.95032],[-20.5,51.75581],[-20,51.55957],[-19.5,51.36161],[-19,51.16191],[-18.5,50.96047],[-18,50.75729],[-17.5,50.55235],[-17,50.34566],[-16.5,50.13721],[-16,49.92699],[-15.5,49.71501],[-15,49.50126],[-14.5,49.28573],[-14,49.06843],[-13.5,48.84937],[-13,48.62853],[-12.5,48.40591],[-12,48.18154],[-11.5,47.95539],[-11,47.72749],[-10.5,47.49783],[-10,47.26643],[-9.5,47.03329],[-9,46.79842],[-8.5,46.56183],[-8,46.32354],[-7.5,46.08356],[-7,45.8419],[-6.5,45.59859],[-6,45.35364],[-5.5,45.10709],[-5,44.85894],[-4.5,44.60924],[-4,44.358],[-3.5,44.10527],[-3,43.85107],[-2.5,43.59545],[-2,43.33845],[-1.5,43.08011],[-1,42.82048],[-0.5,42.55961],[0,42.29756],[0.5,42.03439],[1,41.77015],[1.5,41.50493],[2,41.23879],[2.5,40.9718],[3,40.70406],[3.5,40.43564],[4,40.16665],[4.5,39.89717],[5,39.6273],[5.5,39.35717],[6,39.08687],[6.5,38.81653],[7,38.54628],[7.5,38.27624],[8,38.00654],[8.5,37.73734],[9,37.46877],[9.5,37.20098],[10,36.93415],[10.5,36.66841],[11,36.40395],[11.5,36.14094],[12,35.87954],[12.5,35.61994],[13,35.36232],[13.5,35.10687],[14,34.85376],[14.5,34.60319],[15,34.35535],[15.5,34.11042],[16,33.8686],[16.5,33.63008],[17,33.39503],[17.5,33.16364],[18,32.9361],[18.5,32.71257],[19,32.49324],[19.5,32.27825],[20,32.06778],[20.5,31.86197],[21,31.66097],[21.5,31.46492],[22,31.27394],[22.5,31.08816],[23,30.90767],[23.5,30.73259],[24,30.563],[24.5,30.39898],[25,30.24059],[25.5,30.08791],[26,29.94097],[26.5,29.79982],[27,29.66448],[27.5,29.53498],[28,29.41132],[28.5,29.2935],[29,29.18152],[29.5,29.07535],[30,28.97498],[30.5,28.88037],[31,28.79149],[31.5,28.70827],[32,28.63069],[32.5,28.55867],[33,28.49216],[33.5,28.43108],[34,28.37536],[34.5,28.32494],[35,28.27973],[35.5,28.23964],[36,28.2046],[36.5,28.17452],[37,28.1493],[37.5,28.12887],[38,28.11312],[38.5,28.10197],[39,28.09533],[39.5,28.09309],[40,28.09517],[40.5,28.10148],[41,28.11192],[41.5,28.12639],[42,28.14482],[42.5,28.1671],[43,28.19315],[43.5,28.22287],[44,28.25618],[44.5,28.293],[45,28.33323],[45.5,28.3768],[46,28.42361],[46.5,28.4736],[47,28.52667],[47.5,28.58274],[48,28.64176],[48.5,28.70362],[49,28.76827],[49.5,28.83563],[50,28.90563],[50.5,28.9782],[51,29.05326],[51.5,29.13077],[52,29.21064],[52.5,29.29282],[53,29.37725],[53.5,29.46386],[54,29.55259],[54.5,29.64339],[55,29.73621],[55.5,29.83097],[56,29.92765],[56.5,30.02617],[57,30.1265],[57.5,30.22857],[58,30.33234],[58.5,30.43777],[59,30.54481],[59.5,30.65342],[60,30.76354],[60.5,30.87514],[61,30.98817],[61.5,31.1026],[62,31.21839],[62.5,31.33549],[63,31.45387],[63.5,31.5735],[64,31.69433],[64.5,31.81633],[65,31.93947],[65.5,32.06372],[66,32.18903],[66.5,32.31539],[67,32.44276],[67.5,32.57111],[68,32.70042],[68.5,32.83064],[69,32.96176],[69.5,33.09374],[70,33.22657],[70.5,33.36021],[70.92578,33.47464]]}}],"attribution":"Eclipse Predictions by Fred Espenak and Jean Meeus (NASA's GSFC)","generated_at":"2026-09-23T01:44:51.601Z"}
