{"type":"FeatureCollection","year":497,"events":[{"id":"+04970418","year":497,"month":4,"day":18,"time_tdt":"15:24:14","type":"금환일식","type_code":"A","saros":85,"gamma":0.05535,"magnitude":0.98728,"greatest":{"lat":14.34594,"lng":-29.31281},"path_width_km":45,"duration":"01m18s","delta_t_seconds":5709,"catalog_number":5932,"source":"NASA Five Millennium Canon of Solar Eclipses","source_url":"https://eclipse.gsfc.nasa.gov/SEsearch/SEsearchmap.php?Ecl=%2B04970418"},{"id":"+04971011","year":497,"month":10,"day":11,"time_tdt":"21:04:41","type":"개기일식","type_code":"T","saros":90,"gamma":-0.02425,"magnitude":1.03537,"greatest":{"lat":-9.23209,"lng":-116.23956},"path_width_km":119,"duration":"03m04s","delta_t_seconds":5704.3,"catalog_number":5933,"source":"NASA Five Millennium Canon of Solar Eclipses","source_url":"https://eclipse.gsfc.nasa.gov/SEsearch/SEsearchmap.php?Ecl=%2B04971011"}],"features":[{"type":"Feature","id":"+04970418:north:0","properties":{"id":"+04970418","year":497,"month":4,"day":18,"time_tdt":"15:24:14","type":"금환일식","type_code":"A","saros":85,"gamma":0.05535,"magnitude":0.98728,"greatest":{"lat":14.34594,"lng":-29.31281},"path_width_km":45,"duration":"01m18s","delta_t_seconds":5709,"catalog_number":5932,"source":"NASA Five Millennium Canon of Solar Eclipses","source_url":"https://eclipse.gsfc.nasa.gov/SEsearch/SEsearchmap.php?Ecl=%2B04970418","boundary":"north","name":"497-04-18 금환일식"},"geometry":{"type":"LineString","coordinates":[[-84.93359,-22.55402],[-84.5,-22.46692],[-84,-22.36429],[-83.5,-22.25928],[-83,-22.15185],[-82.5,-22.04197],[-82,-21.92962],[-81.5,-21.81475],[-81,-21.69734],[-80.5,-21.57735],[-80,-21.45474],[-79.5,-21.32948],[-79,-21.20153],[-78.5,-21.07086],[-78,-20.93741],[-77.5,-20.80115],[-77,-20.66204],[-76.5,-20.52004],[-76,-20.3751],[-75.5,-20.22718],[-75,-20.07623],[-74.5,-19.92221],[-74,-19.76506],[-73.5,-19.60474],[-73,-19.44119],[-72.5,-19.27436],[-72,-19.1042],[-71.5,-18.93065],[-71,-18.75365],[-70.5,-18.57316],[-70,-18.38909],[-69.5,-18.2014],[-69,-18.01003],[-68.5,-17.81489],[-68,-17.61593],[-67.5,-17.41309],[-67,-17.20628],[-66.5,-16.99543],[-66,-16.78047],[-65.5,-16.56133],[-65,-16.33792],[-64.5,-16.11016],[-64,-15.87798],[-63.5,-15.64127],[-63,-15.39996],[-62.5,-15.15396],[-62,-14.90317],[-61.5,-14.6475],[-61,-14.38685],[-60.5,-14.12111],[-60,-13.8502],[-59.5,-13.574],[-59,-13.29241],[-58.5,-13.00532],[-58,-12.71262],[-57.5,-12.41418],[-57,-12.10991],[-56.5,-11.79967],[-56,-11.48335],[-55.5,-11.16083],[-55,-10.83198],[-54.5,-10.49668],[-54,-10.1548],[-53.5,-9.80623],[-53,-9.45082],[-52.5,-9.08846],[-52,-8.71902],[-51.5,-8.34238],[-51,-7.95842],[-50.5,-7.56701],[-50,-7.16805],[-49.5,-6.76143],[-49,-6.34703],[-48.5,-5.92478],[-48,-5.49457],[-47.5,-5.05634],[-47,-4.61003],[-46.5,-4.15559],[-46,-3.69298],[-45.5,-3.22219],[-45,-2.74324],[-44.5,-2.25616],[-44,-1.76101],[-43.5,-1.25788],[-43,-0.7469],[-42.5,-0.22822],[-42,0.29795],[-41.5,0.83137],[-41,1.37176],[-40.5,1.91879],[-40,2.47208],[-39.5,3.03121],[-39,3.59569],[-38.5,4.16502],[-38,4.7386],[-37.5,5.31583],[-37,5.89605],[-36.5,6.47856],[-36,7.06262],[-35.5,7.64749],[-35,8.23237],[-34.5,8.81648],[-34,9.39903],[-33.5,9.97922],[-33,10.55627],[-32.5,11.12942],[-32,11.69793],[-31.5,12.2611],[-31,12.81827],[-30.5,13.36882],[-30,13.91217],[-29.5,14.44781],[-29,14.97527],[-28.5,15.49414],[-28,16.00405],[-27.5,16.50471],[-27,16.99585],[-26.5,17.47727],[-26,17.94881],[-25.5,18.41034],[-25,18.8618],[-24.5,19.30313],[-24,19.73432],[-23.5,20.15541],[-23,20.56643],[-22.5,20.96745],[-22,21.35857],[-21.5,21.73989],[-21,22.11153],[-20.5,22.47363],[-20,22.82633],[-19.5,23.16979],[-19,23.50417],[-18.5,23.82963],[-18,24.14634],[-17.5,24.45447],[-17,24.75419],[-16.5,25.04568],[-16,25.32911],[-15.5,25.60466],[-15,25.87248],[-14.5,26.13275],[-14,26.38564],[-13.5,26.63131],[-13,26.86992],[-12.5,27.10163],[-12,27.32658],[-11.5,27.54493],[-11,27.75683],[-10.5,27.96241],[-10,28.16182],[-9.5,28.3552],[-9,28.54266],[-8.5,28.72435],[-8,28.90038],[-7.5,29.07088],[-7,29.23595],[-6.5,29.39573],[-6,29.5503],[-5.5,29.69979],[-5,29.8443],[-4.5,29.98392],[-4,30.11875],[-3.5,30.24889],[-3,30.37443],[-2.5,30.49545],[-2,30.61205],[-1.5,30.7243],[-1,30.83229],[-0.5,30.93609],[0,31.03578],[0.5,31.13144],[1,31.22313],[1.5,31.31093],[2,31.3949],[2.5,31.4751],[3,31.5516],[3.5,31.62446],[4,31.69374],[4.5,31.7595],[5,31.82179],[5.5,31.88067],[6,31.93619],[6.5,31.9884],[7,32.03735],[7.5,32.08309],[8,32.12568],[8.5,32.16514],[9,32.20153],[9.5,32.2349],[10,32.26527],[10.5,32.29271],[11,32.31723],[11.5,32.3389],[12,32.35773],[12.5,32.37377],[13,32.38706],[13.5,32.39763],[14,32.40552],[14.5,32.41075],[15,32.41337],[15.5,32.4134],[16,32.41087],[16.5,32.40583],[17,32.39828],[17.5,32.38828],[18,32.37584],[18.5,32.36102],[19,32.34376],[19.5,32.32417],[20,32.30226],[20.5,32.27805],[21,32.25156],[21.5,32.22283],[22,32.19186],[22.5,32.1587],[23,32.12335],[23.5,32.08586],[24,32.04622],[24.5,32.00448],[25,31.96065],[25.5,31.91476],[26,31.86682],[26.5,31.81685],[27,31.76488],[27.5,31.71093],[28,31.65502],[28.5,31.59717],[29,31.53739],[29.5,31.47571],[30,31.41214],[30.5,31.34671],[31,31.27944],[31.5,31.21033],[32,31.13942],[32.5,31.06671],[33,30.99223],[33.5,30.916],[34,30.83802],[34.5,30.75833],[35,30.67693],[35.5,30.59384],[36,30.50909],[36.5,30.42268],[37,30.33464],[37.5,30.24498],[38,30.15371],[38.5,30.06086],[39,29.96644],[39.5,29.87047],[40,29.77295],[40.5,29.67392]]}},{"type":"Feature","id":"+04970418:center:0","properties":{"id":"+04970418","year":497,"month":4,"day":18,"time_tdt":"15:24:14","type":"금환일식","type_code":"A","saros":85,"gamma":0.05535,"magnitude":0.98728,"greatest":{"lat":14.34594,"lng":-29.31281},"path_width_km":45,"duration":"01m18s","delta_t_seconds":5709,"catalog_number":5932,"source":"NASA Five Millennium Canon of Solar Eclipses","source_url":"https://eclipse.gsfc.nasa.gov/SEsearch/SEsearchmap.php?Ecl=%2B04970418","boundary":"center","name":"497-04-18 금환일식"},"geometry":{"type":"LineString","coordinates":[[-84.77599,-23.02819],[-84.5,-22.96002],[-84,-22.85579],[-83.5,-22.74918],[-83,-22.64016],[-82.5,-22.5287],[-82,-22.41475],[-81.5,-22.2983],[-81,-22.1793],[-80.5,-22.05772],[-80,-21.93353],[-79.5,-21.80669],[-79,-21.67716],[-78.5,-21.5449],[-78,-21.40988],[-77.5,-21.27205],[-77,-21.13136],[-76.5,-20.98779],[-76,-20.84129],[-75.5,-20.6918],[-75,-20.53929],[-74.5,-20.3837],[-74,-20.22499],[-73.5,-20.06311],[-73,-19.89801],[-72.5,-19.72963],[-72,-19.55792],[-71.5,-19.38283],[-71,-19.20429],[-70.5,-19.02226],[-70,-18.83666],[-69.5,-18.64744],[-69,-18.45453],[-68.5,-18.25787],[-68,-18.0574],[-67.5,-17.85304],[-67,-17.64471],[-66.5,-17.43236],[-66,-17.2159],[-65.5,-16.99526],[-65,-16.77036],[-64.5,-16.54111],[-64,-16.30744],[-63.5,-16.06925],[-63,-15.82647],[-62.5,-15.579],[-62,-15.32674],[-61.5,-15.06961],[-61,-14.80751],[-60.5,-14.54033],[-60,-14.26797],[-59.5,-13.99033],[-59,-13.70731],[-58.5,-13.41879],[-58,-13.12466],[-57.5,-12.82481],[-57,-12.51912],[-56.5,-12.20747],[-56,-11.88975],[-55.5,-11.56583],[-55,-11.23558],[-54.5,-10.89889],[-54,-10.55562],[-53.5,-10.20566],[-53,-9.84887],[-52.5,-9.48512],[-52,-9.1143],[-51.5,-8.73628],[-51,-8.35092],[-50.5,-7.95813],[-50,-7.55777],[-49.5,-7.14974],[-49,-6.73394],[-48.5,-6.31026],[-48,-5.87863],[-47.5,-5.43895],[-47,-4.99118],[-46.5,-4.53525],[-46,-4.07113],[-45.5,-3.59882],[-45,-3.11831],[-44.5,-2.62963],[-44,-2.13285],[-43.5,-1.62805],[-43,-1.11536],[-42.5,-0.59492],[-42,-0.06694],[-41.5,0.46836],[-41,1.01068],[-40.5,1.55971],[-40,2.11507],[-39.5,2.67633],[-39,3.24302],[-38.5,3.81463],[-38,4.39057],[-37.5,4.97023],[-37,5.55295],[-36.5,6.13803],[-36,6.72473],[-35.5,7.3123],[-35,7.89993],[-34.5,8.48685],[-34,9.07224],[-33.5,9.6553],[-33,10.23524],[-32.5,10.81128],[-32,11.38269],[-31.5,11.94874],[-31,12.50877],[-30.5,13.06213],[-30,13.60826],[-29.5,14.14662],[-29,14.67674],[-28.5,15.19819],[-28,15.7106],[-27.5,16.21367],[-27,16.70713],[-26.5,17.19076],[-26,17.66441],[-25.5,18.12796],[-25,18.58131],[-24.5,19.02443],[-24,19.45731],[-23.5,19.87996],[-23,20.29244],[-22.5,20.69481],[-22,21.08717],[-21.5,21.46962],[-21,21.8423],[-20.5,22.20532],[-20,22.55885],[-19.5,22.90304],[-19,23.23805],[-18.5,23.56405],[-18,23.88121],[-17.5,24.1897],[-17,24.4897],[-16.5,24.78139],[-16,25.06493],[-15.5,25.34051],[-15,25.6083],[-14.5,25.86846],[-14,26.12117],[-13.5,26.3666],[-13,26.60489],[-12.5,26.83622],[-12,27.06074],[-11.5,27.27859],[-11,27.48994],[-10.5,27.69491],[-10,27.89366],[-9.5,28.08632],[-9,28.27303],[-8.5,28.4539],[-8,28.62907],[-7.5,28.79866],[-7,28.96279],[-6.5,29.12157],[-6,29.27511],[-5.5,29.42352],[-5,29.56691],[-4.5,29.70538],[-4,29.83902],[-3.5,29.96793],[-3,30.09221],[-2.5,30.21193],[-2,30.3272],[-1.5,30.43808],[-1,30.54468],[-0.5,30.64705],[0,30.74529],[0.5,30.83945],[1,30.92963],[1.5,31.01588],[2,31.09827],[2.5,31.17687],[3,31.25174],[3.5,31.32295],[4,31.39055],[4.5,31.4546],[5,31.51517],[5.5,31.57229],[6,31.62604],[6.5,31.67645],[7,31.72358],[7.5,31.76747],[8,31.80819],[8.5,31.84576],[9,31.88025],[9.5,31.91168],[10,31.94011],[10.5,31.96557],[11,31.98811],[11.5,32.00776],[12,32.02457],[12.5,32.03856],[13,32.04979],[13.5,32.05827],[14,32.06406],[14.5,32.06718],[15,32.06766],[15.5,32.06554],[16,32.06085],[16.5,32.05362],[17,32.04388],[17.5,32.03166],[18,32.01699],[18.5,31.9999],[19,31.98041],[19.5,31.95856],[20,31.93436],[20.5,31.90785],[21,31.87906],[21.5,31.848],[22,31.8147],[22.5,31.77918],[23,31.74148],[23.5,31.70161],[24,31.65959],[24.5,31.61546],[25,31.56922],[25.5,31.52091],[26,31.47054],[26.5,31.41814],[27,31.36373],[27.5,31.30733],[28,31.24895],[28.5,31.18862],[29,31.12637],[29.5,31.0622],[30,30.99614],[30.5,30.9282],[31,30.85842],[31.5,30.78679],[32,30.71336],[32.5,30.63812],[33,30.56111],[33.5,30.48233],[34,30.40181],[34.5,30.31956],[35,30.23561],[35.5,30.14997],[36,30.06265],[36.5,29.97368],[37,29.88306],[37.5,29.79083],[38,29.69699],[38.5,29.60156],[39,29.50456],[39.5,29.406],[40,29.3059],[40.5,29.20428],[40.49177,29.22294]]}},{"type":"Feature","id":"+04970418:south:0","properties":{"id":"+04970418","year":497,"month":4,"day":18,"time_tdt":"15:24:14","type":"금환일식","type_code":"A","saros":85,"gamma":0.05535,"magnitude":0.98728,"greatest":{"lat":14.34594,"lng":-29.31281},"path_width_km":45,"duration":"01m18s","delta_t_seconds":5709,"catalog_number":5932,"source":"NASA Five Millennium Canon of Solar Eclipses","source_url":"https://eclipse.gsfc.nasa.gov/SEsearch/SEsearchmap.php?Ecl=%2B04970418","boundary":"south","name":"497-04-18 금환일식"},"geometry":{"type":"LineString","coordinates":[[-84.5,-23.45371],[-84,-23.3479],[-83.5,-23.23971],[-83,-23.12911],[-82.5,-23.01607],[-82,-22.90055],[-81.5,-22.78252],[-81,-22.66195],[-80.5,-22.5388],[-80,-22.41304],[-79.5,-22.28463],[-79,-22.15353],[-78.5,-22.01971],[-78,-21.88312],[-77.5,-21.74373],[-77,-21.60149],[-76.5,-21.45636],[-76,-21.3083],[-75.5,-21.15726],[-75,-21.00319],[-74.5,-20.84606],[-74,-20.68581],[-73.5,-20.52238],[-73,-20.35574],[-72.5,-20.18582],[-72,-20.01258],[-71.5,-19.83596],[-71,-19.6559],[-70.5,-19.47233],[-70,-19.28522],[-69.5,-19.09448],[-69,-18.90006],[-68.5,-18.70189],[-68,-18.49991],[-67.5,-18.29404],[-67,-18.08422],[-66.5,-17.87037],[-66,-17.65243],[-65.5,-17.4303],[-65,-17.20391],[-64.5,-16.97319],[-64,-16.73805],[-63.5,-16.49839],[-63,-16.25415],[-62.5,-16.00522],[-62,-15.75151],[-61.5,-15.49293],[-61,-15.22938],[-60.5,-14.96076],[-60,-14.68698],[-59.5,-14.40791],[-59,-14.12346],[-58.5,-13.83353],[-58,-13.53798],[-57.5,-13.23673],[-57,-12.92963],[-56.5,-12.61659],[-56,-12.29747],[-55.5,-11.97215],[-55,-11.64052],[-54.5,-11.30244],[-54,-10.9578],[-53.5,-10.60645],[-53,-10.24828],[-52.5,-9.88316],[-52,-9.51096],[-51.5,-9.13155],[-51,-8.74482],[-50.5,-8.35064],[-50,-7.94889],[-49.5,-7.53947],[-49,-7.12226],[-48.5,-6.69717],[-48,-6.2641],[-47.5,-5.82299],[-47,-5.37375],[-46.5,-4.91634],[-46,-4.45073],[-45.5,-3.97688],[-45,-3.49481],[-44.5,-3.00454],[-44,-2.50613],[-43.5,-1.99966],[-43,-1.48525],[-42.5,-0.96304],[-42,-0.43324],[-41.5,0.10394],[-41,0.6482],[-40.5,1.19924],[-40,1.75667],[-39.5,2.32008],[-39,2.889],[-38.5,3.46291],[-38,4.04122],[-37.5,4.62334],[-37,5.20859],[-36.5,5.79627],[-36,6.38564],[-35.5,6.97594],[-35,7.56637],[-34.5,8.15612],[-34,8.74439],[-33.5,9.33037],[-33,9.91324],[-32.5,10.49224],[-32,11.06659],[-31.5,11.63558],[-31,12.19851],[-30.5,12.75476],[-30,13.30372],[-29.5,13.84485],[-29,14.37768],[-28.5,14.90177],[-28,15.41673],[-27.5,15.92227],[-27,16.4181],[-26.5,16.904],[-26,17.37982],[-25.5,17.84542],[-25,18.30072],[-24.5,18.74568],[-24,19.18028],[-23.5,19.60454],[-23,20.01852],[-22.5,20.42228],[-22,20.81592],[-21.5,21.19954],[-21,21.57328],[-20.5,21.93726],[-20,22.29165],[-19.5,22.63659],[-19,22.97226],[-18.5,23.29882],[-18,23.61645],[-17.5,23.92533],[-17,24.22562],[-16.5,24.51752],[-16,24.8012],[-15.5,25.07683],[-15,25.3446],[-14.5,25.60466],[-14,25.85721],[-13.5,26.10239],[-13,26.34039],[-12.5,26.57135],[-12,26.79544],[-11.5,27.0128],[-11,27.2236],[-10.5,27.42798],[-10,27.62607],[-9.5,27.81802],[-9,28.00396],[-8.5,28.18402],[-8,28.35833],[-7.5,28.52702],[-7,28.69019],[-6.5,28.84798],[-6,29.00048],[-5.5,29.14782],[-5,29.29009],[-4.5,29.4274],[-4,29.55984],[-3.5,29.68752],[-3,29.81053],[-2.5,29.92895],[-2,30.04288],[-1.5,30.15239],[-1,30.25758],[-0.5,30.35852],[0,30.45529],[0.5,30.54796],[1,30.63661],[1.5,30.7213],[2,30.80211],[2.5,30.8791],[3,30.95234],[3.5,31.02188],[4,31.08779],[4.5,31.15012],[5,31.20895],[5.5,31.2643],[6,31.31626],[6.5,31.36486],[7,31.41015],[7.5,31.45219],[8,31.49102],[8.5,31.5267],[9,31.55925],[9.5,31.58874],[10,31.61521],[10.5,31.63868],[11,31.65922],[11.5,31.67684],[12,31.69161],[12.5,31.70354],[13,31.71269],[13.5,31.71908],[14,31.72275],[14.5,31.72373],[15,31.72206],[15.5,31.71778],[16,31.7109],[16.5,31.70147],[17,31.68952],[17.5,31.67507],[18,31.65816],[18.5,31.6388],[19,31.61704],[19.5,31.5929],[20,31.5664],[20.5,31.53758],[21,31.50645],[21.5,31.47305],[22,31.43739],[22.5,31.39951],[23,31.35943],[23.5,31.31717],[24,31.27275],[24.5,31.22621],[25,31.17755],[25.5,31.1268],[26,31.07399],[26.5,31.01914],[27,30.96226],[27.5,30.90339],[28,30.84253],[28.5,30.77972],[29,30.71496],[29.5,30.64829],[30,30.57971],[30.5,30.50926],[31,30.43695],[31.5,30.36279],[32,30.28681],[32.5,30.20903],[33,30.12946],[33.5,30.04813],[34,29.96505],[34.5,29.88024],[35,29.79371],[35.5,29.70549],[36,29.6156],[36.5,29.52404],[37,29.43084],[37.5,29.33602],[38,29.23959],[38.5,29.14157],[39,29.04197],[39.5,28.94082],[40,28.83812],[40.35547,28.76419]]}},{"type":"Feature","id":"+04971011:north:0","properties":{"id":"+04971011","year":497,"month":10,"day":11,"time_tdt":"21:04:41","type":"개기일식","type_code":"T","saros":90,"gamma":-0.02425,"magnitude":1.03537,"greatest":{"lat":-9.23209,"lng":-116.23956},"path_width_km":119,"duration":"03m04s","delta_t_seconds":5704.3,"catalog_number":5933,"source":"NASA Five Millennium Canon of Solar Eclipses","source_url":"https://eclipse.gsfc.nasa.gov/SEsearch/SEsearchmap.php?Ecl=%2B04971011","boundary":"north","name":"497-10-11 개기일식"},"geometry":{"type":"LineString","coordinates":[[-175.33398,26.77738],[-175,26.73153],[-174.5,26.6611],[-174,26.5885],[-173.5,26.51372],[-173,26.43671],[-172.5,26.35746],[-172,26.27595],[-171.5,26.19214],[-171,26.10601],[-170.5,26.01753],[-170,25.92667],[-169.5,25.83341],[-169,25.73771],[-168.5,25.63955],[-168,25.53888],[-167.5,25.43569],[-167,25.32994],[-166.5,25.22159],[-166,25.11061],[-165.5,24.99696],[-165,24.88061],[-164.5,24.76153],[-164,24.63967],[-163.5,24.51499],[-163,24.38746],[-162.5,24.25704],[-162,24.12367],[-161.5,23.98733],[-161,23.84796],[-160.5,23.70553],[-160,23.55998],[-159.5,23.41127],[-159,23.25934],[-158.5,23.10416],[-158,22.94566],[-157.5,22.7838],[-157,22.61852],[-156.5,22.44977],[-156,22.27749],[-155.5,22.10162],[-155,21.9221],[-154.5,21.73888],[-154,21.55188],[-153.5,21.36104],[-153,21.16631],[-152.5,20.9676],[-152,20.76485],[-151.5,20.558],[-151,20.34696],[-150.5,20.13166],[-150,19.91202],[-149.5,19.68797],[-149,19.45942],[-148.5,19.2263],[-148,18.98852],[-147.5,18.74598],[-147,18.49861],[-146.5,18.24631],[-146,17.98899],[-145.5,17.72655],[-145,17.45891],[-144.5,17.18595],[-144,16.90758],[-143.5,16.6237],[-143,16.3342],[-142.5,16.03899],[-142,15.73794],[-141.5,15.43096],[-141,15.11794],[-140.5,14.79876],[-140,14.47331],[-139.5,14.14149],[-139,13.80318],[-138.5,13.45828],[-138,13.10667],[-137.5,12.74824],[-137,12.3829],[-136.5,12.01053],[-136,11.63103],[-135.5,11.24432],[-135,10.85029],[-134.5,10.44887],[-134,10.03997],[-133.5,9.62353],[-133,9.19949],[-132.5,8.7678],[-132,8.32843],[-131.5,7.88135],[-131,7.42656],[-130.5,6.96407],[-130,6.49393],[-129.5,6.01618],[-129,5.53091],[-128.5,5.03822],[-128,4.53826],[-127.5,4.03118],[-127,3.5172],[-126.5,2.99653],[-126,2.46946],[-125.5,1.93629],[-125,1.39737],[-124.5,0.85309],[-124,0.30385],[-123.5,-0.24986],[-123,-0.80756],[-122.5,-1.36871],[-122,-1.93274],[-121.5,-2.49907],[-121,-3.06707],[-120.5,-3.6361],[-120,-4.2055],[-119.5,-4.77462],[-119,-5.34277],[-118.5,-5.9093],[-118,-6.47352],[-117.5,-7.03481],[-117,-7.59252],[-116.5,-8.14604],[-116,-8.69479],[-115.5,-9.23822],[-115,-9.77583],[-114.5,-10.30712],[-114,-10.83167],[-113.5,-11.34908],[-113,-11.85899],[-112.5,-12.36108],[-112,-12.85509],[-111.5,-13.34077],[-111,-13.81794],[-110.5,-14.28643],[-110,-14.74612],[-109.5,-15.19691],[-109,-15.63874],[-108.5,-16.07158],[-108,-16.49541],[-107.5,-16.91024],[-107,-17.31611],[-106.5,-17.71307],[-106,-18.10117],[-105.5,-18.48051],[-105,-18.85116],[-104.5,-19.21324],[-104,-19.56686],[-103.5,-19.91212],[-103,-20.24917],[-102.5,-20.57812],[-102,-20.8991],[-101.5,-21.21226],[-101,-21.51774],[-100.5,-21.81566],[-100,-22.10618],[-99.5,-22.38942],[-99,-22.66554],[-98.5,-22.93467],[-98,-23.19694],[-97.5,-23.45249],[-97,-23.70146],[-96.5,-23.94397],[-96,-24.18016],[-95.5,-24.41016],[-95,-24.63408],[-94.5,-24.85205],[-94,-25.0642],[-93.5,-25.27063],[-93,-25.47146],[-92.5,-25.66681],[-92,-25.85678],[-91.5,-26.04147],[-91,-26.221],[-90.5,-26.39545],[-90,-26.56493],[-89.5,-26.72954],[-89,-26.88936],[-88.5,-27.04449],[-88,-27.19501],[-87.5,-27.34101],[-87,-27.48258],[-86.5,-27.61978],[-86,-27.75271],[-85.5,-27.88143],[-85,-28.00602],[-84.5,-28.12656],[-84,-28.24311],[-83.5,-28.35573],[-83,-28.46451],[-82.5,-28.56949],[-82,-28.67074],[-81.5,-28.76833],[-81,-28.86231],[-80.5,-28.95274],[-80,-29.03968],[-79.5,-29.12317],[-79,-29.20328],[-78.5,-29.28005],[-78,-29.35353],[-77.5,-29.42377],[-77,-29.49083],[-76.5,-29.55473],[-76,-29.61554],[-75.5,-29.67329],[-75,-29.72803],[-74.5,-29.77979],[-74,-29.82863],[-73.5,-29.87457],[-73,-29.91765],[-72.5,-29.95792],[-72,-29.9954],[-71.5,-30.03014],[-71,-30.06217],[-70.5,-30.09153],[-70,-30.11824],[-69.5,-30.14233],[-69,-30.16385],[-68.5,-30.18282],[-68,-30.19927],[-67.5,-30.21323],[-67,-30.22473],[-66.5,-30.23379],[-66,-30.24045],[-65.5,-30.24473],[-65,-30.24666],[-64.5,-30.24626],[-64,-30.24356],[-63.5,-30.23858],[-63,-30.23135],[-62.5,-30.22189],[-62,-30.21023],[-61.5,-30.19638],[-61,-30.18037],[-60.5,-30.16222],[-60,-30.14196],[-59.5,-30.1196],[-59,-30.09516],[-58.5,-30.06867],[-58,-30.04015],[-57.5,-30.00961],[-57,-29.97707],[-56.5,-29.94256],[-56,-29.90609],[-55.5,-29.86768],[-55,-29.82735],[-54.5,-29.78511],[-54,-29.74099],[-53.5,-29.69501],[-53,-29.64717],[-52.5,-29.59749],[-52,-29.546],[-51.5,-29.49271],[-51,-29.43764],[-50.5,-29.38079],[-50,-29.3222],[-49.5,-29.26186],[-49,-29.19981],[-48.5,-29.13605],[-48,-29.0706],[-47.5,-29.00347],[-47.34766,-28.98268]]}},{"type":"Feature","id":"+04971011:center:0","properties":{"id":"+04971011","year":497,"month":10,"day":11,"time_tdt":"21:04:41","type":"개기일식","type_code":"T","saros":90,"gamma":-0.02425,"magnitude":1.03537,"greatest":{"lat":-9.23209,"lng":-116.23956},"path_width_km":119,"duration":"03m04s","delta_t_seconds":5704.3,"catalog_number":5933,"source":"NASA Five Millennium Canon of Solar Eclipses","source_url":"https://eclipse.gsfc.nasa.gov/SEsearch/SEsearchmap.php?Ecl=%2B04971011","boundary":"center","name":"497-10-11 개기일식"},"geometry":{"type":"LineString","coordinates":[[-175.3728,26.52291],[-175,26.44794],[-174.5,26.37507],[-174,26.30001],[-173.5,26.22274],[-173,26.14323],[-172.5,26.06145],[-172,25.97738],[-171.5,25.89099],[-171,25.80225],[-170.5,25.71114],[-170,25.61762],[-169.5,25.52167],[-169,25.42325],[-168.5,25.32234],[-168,25.2189],[-167.5,25.1129],[-167,25.00431],[-166.5,24.89309],[-166,24.7792],[-165.5,24.66262],[-165,24.5433],[-164.5,24.42121],[-164,24.2963],[-163.5,24.16854],[-163,24.03789],[-162.5,23.9043],[-162,23.76774],[-161.5,23.62816],[-161,23.48551],[-160.5,23.33974],[-160,23.19082],[-159.5,23.03869],[-159,22.8833],[-158.5,22.7246],[-158,22.56254],[-157.5,22.39706],[-157,22.22812],[-156.5,22.05564],[-156,21.87958],[-155.5,21.69988],[-155,21.51647],[-154.5,21.32929],[-154,21.13827],[-153.5,20.94336],[-153,20.74448],[-152.5,20.54157],[-152,20.33454],[-151.5,20.12334],[-151,19.90788],[-150.5,19.68808],[-150,19.46388],[-149.5,19.23518],[-149,19.00191],[-148.5,18.76397],[-148,18.5213],[-147.5,18.27378],[-147,18.02134],[-146.5,17.76388],[-146,17.50131],[-145.5,17.23353],[-145,16.96045],[-144.5,16.68195],[-144,16.39794],[-143.5,16.10832],[-143,15.81298],[-142.5,15.51181],[-142,15.20471],[-141.5,14.89156],[-141,14.57226],[-140.5,14.24669],[-140,13.91475],[-139.5,13.57632],[-139,13.23129],[-138.5,12.87955],[-138,12.52099],[-137.5,12.15551],[-137,11.783],[-136.5,11.40336],[-136,11.0165],[-135.5,10.62231],[-135,10.22073],[-134.5,9.81166],[-134,9.39503],[-133.5,8.9708],[-133,8.5389],[-132.5,8.0993],[-132,7.65199],[-131.5,7.19694],[-131,6.73418],[-130.5,6.26375],[-130,5.78568],[-129.5,5.30007],[-129,4.80701],[-128.5,4.30665],[-128,3.79915],[-127.5,3.2847],[-127,2.76355],[-126.5,2.23595],[-126,1.70221],[-125.5,1.16268],[-125,0.61775],[-124.5,0.06783],[-124,-0.48662],[-123.5,-1.0451],[-123,-1.60707],[-122.5,-2.17198],[-122,-2.73922],[-121.5,-3.30819],[-121,-3.87822],[-120.5,-4.44868],[-120,-5.0189],[-119.5,-5.58819],[-119,-6.15589],[-118.5,-6.72134],[-118,-7.28387],[-117.5,-7.84286],[-117,-8.3977],[-116.5,-8.94779],[-116,-9.4926],[-115.5,-10.03159],[-115,-10.56429],[-114.5,-11.09025],[-114,-11.60909],[-113.5,-12.12044],[-113,-12.62398],[-112.5,-13.11943],[-112,-13.60657],[-111.5,-14.08519],[-111,-14.55512],[-110.5,-15.01625],[-110,-15.46848],[-109.5,-15.91173],[-109,-16.34598],[-108.5,-16.77121],[-108,-17.18743],[-107.5,-17.59468],[-107,-17.99299],[-106.5,-18.38244],[-106,-18.7631],[-105.5,-19.13506],[-105,-19.49843],[-104.5,-19.85332],[-104,-20.19984],[-103.5,-20.53812],[-103,-20.86828],[-102.5,-21.19047],[-102,-21.50481],[-101.5,-21.81144],[-101,-22.1105],[-100.5,-22.40214],[-100,-22.68649],[-99.5,-22.96369],[-99,-23.23388],[-98.5,-23.49719],[-98,-23.75377],[-97.5,-24.00375],[-97,-24.24726],[-96.5,-24.48442],[-96,-24.71537],[-95.5,-24.94023],[-95,-25.15913],[-94.5,-25.37217],[-94,-25.57949],[-93.5,-25.78119],[-93,-25.97739],[-92.5,-26.1682],[-92,-26.35371],[-91.5,-26.53404],[-91,-26.70928],[-90.5,-26.87954],[-90,-27.0449],[-89.5,-27.20547],[-89,-27.36133],[-88.5,-27.51256],[-88,-27.65926],[-87.5,-27.80151],[-87,-27.93938],[-86.5,-28.07296],[-86,-28.20233],[-85.5,-28.32755],[-85,-28.4487],[-84.5,-28.56585],[-84,-28.67906],[-83.5,-28.78841],[-83,-28.89395],[-82.5,-28.99575],[-82,-29.09388],[-81.5,-29.18838],[-81,-29.27932],[-80.5,-29.36675],[-80,-29.45073],[-79.5,-29.5313],[-79,-29.60853],[-78.5,-29.68246],[-78,-29.75314],[-77.5,-29.82061],[-77,-29.88493],[-76.5,-29.94614],[-76,-30.00427],[-75.5,-30.05938],[-75,-30.11151],[-74.5,-30.16069],[-74,-30.20697],[-73.5,-30.25038],[-73,-30.29096],[-72.5,-30.32875],[-72,-30.36378],[-71.5,-30.39609],[-71,-30.42571],[-70.5,-30.45268],[-70,-30.47702],[-69.5,-30.49877],[-69,-30.51796],[-68.5,-30.53462],[-68,-30.54878],[-67.5,-30.56046],[-67,-30.5697],[-66.5,-30.57653],[-66,-30.58096],[-65.5,-30.58303],[-65,-30.58276],[-64.5,-30.58017],[-64,-30.5753],[-63.5,-30.56817],[-63,-30.55879],[-62.5,-30.5472],[-62,-30.53341],[-61.5,-30.51745],[-61,-30.49934],[-60.5,-30.4791],[-60,-30.45675],[-59.5,-30.43232],[-59,-30.40582],[-58.5,-30.37727],[-58,-30.3467],[-57.5,-30.31411],[-57,-30.27955],[-56.5,-30.24301],[-56,-30.20452],[-55.5,-30.16409],[-55,-30.12176],[-54.5,-30.07752],[-54,-30.03141],[-53.5,-29.98343],[-53,-29.93361],[-52.5,-29.88195],[-52,-29.82849],[-51.5,-29.77323],[-51,-29.71619],[-50.5,-29.65738],[-50,-29.59683],[-49.5,-29.53454],[-49,-29.47054],[-48.5,-29.40483],[-48,-29.33743],[-47.5,-29.26837],[-47.3043,-29.2601]]}},{"type":"Feature","id":"+04971011:south:0","properties":{"id":"+04971011","year":497,"month":10,"day":11,"time_tdt":"21:04:41","type":"개기일식","type_code":"T","saros":90,"gamma":-0.02425,"magnitude":1.03537,"greatest":{"lat":-9.23209,"lng":-116.23956},"path_width_km":119,"duration":"03m04s","delta_t_seconds":5704.3,"catalog_number":5933,"source":"NASA Five Millennium Canon of Solar Eclipses","source_url":"https://eclipse.gsfc.nasa.gov/SEsearch/SEsearchmap.php?Ecl=%2B04971011","boundary":"south","name":"497-10-11 개기일식"},"geometry":{"type":"LineString","coordinates":[[-175.45117,26.22978],[-175,26.16369],[-174.5,26.08836],[-174,26.01082],[-173.5,25.93103],[-173,25.84899],[-172.5,25.76465],[-172,25.678],[-171.5,25.589],[-171,25.49762],[-170.5,25.40385],[-170,25.30764],[-169.5,25.20897],[-169,25.1078],[-168.5,25.00411],[-168,24.89786],[-167.5,24.78902],[-167,24.67755],[-166.5,24.56342],[-166,24.4466],[-165.5,24.32703],[-165,24.2047],[-164.5,24.07956],[-164,23.95157],[-163.5,23.82068],[-163,23.68687],[-162.5,23.55008],[-162,23.41027],[-161.5,23.26739],[-161,23.12141],[-160.5,22.97227],[-160,22.81992],[-159.5,22.66432],[-159,22.5054],[-158.5,22.34314],[-158,22.17745],[-157.5,22.0083],[-157,21.83563],[-156.5,21.65937],[-156,21.47947],[-155.5,21.29586],[-155,21.10849],[-154.5,20.91729],[-154,20.72219],[-153.5,20.52313],[-153,20.32003],[-152.5,20.11283],[-152,19.90145],[-151.5,19.68582],[-151,19.46586],[-150.5,19.24148],[-150,19.01262],[-149.5,18.77918],[-149,18.54109],[-148.5,18.29825],[-148,18.05059],[-147.5,17.79799],[-147,17.54038],[-146.5,17.27766],[-146,17.00974],[-145.5,16.7365],[-145,16.45786],[-144.5,16.17371],[-144,15.88395],[-143.5,15.58847],[-143,15.28716],[-142.5,14.97992],[-142,14.66663],[-141.5,14.34719],[-141,14.02148],[-140.5,13.6894],[-140,13.35082],[-139.5,13.00565],[-139,12.65376],[-138.5,12.29505],[-138,11.92941],[-137.5,11.55674],[-137,11.17694],[-136.5,10.7899],[-136,10.39553],[-135.5,9.99376],[-135,9.58449],[-134.5,9.16766],[-134,8.7432],[-133.5,8.31107],[-133,7.87122],[-132.5,7.42364],[-132,6.96831],[-131.5,6.50525],[-131,6.03448],[-130.5,5.55607],[-130,5.07009],[-129.5,4.57663],[-129,4.07584],[-128.5,3.56788],[-128,3.05294],[-127.5,2.53125],[-127,2.00309],[-126.5,1.46875],[-126,0.92858],[-125.5,0.38296],[-125,-0.16769],[-124.5,-0.72291],[-124,-1.28221],[-123.5,-1.84504],[-123,-2.41086],[-122.5,-2.97906],[-122,-3.54903],[-121.5,-4.12011],[-121,-4.69166],[-120.5,-5.26301],[-120,-5.83348],[-119.5,-6.4024],[-119,-6.9691],[-118.5,-7.53292],[-118,-8.09323],[-117.5,-8.64942],[-117,-9.20089],[-116.5,-9.74709],[-116,-10.2875],[-115.5,-10.82164],[-115,-11.34905],[-114.5,-11.86935],[-114,-12.38217],[-113.5,-12.88718],[-113,-13.38411],[-112.5,-13.87272],[-112,-14.35281],[-111.5,-14.82422],[-111,-15.28681],[-110.5,-15.74049],[-110,-16.18519],[-109.5,-16.62088],[-109,-17.04753],[-108.5,-17.46516],[-108,-17.87379],[-107.5,-18.27348],[-107,-18.66429],[-106.5,-19.04629],[-106,-19.41958],[-105.5,-19.78426],[-105,-20.14043],[-104.5,-20.48822],[-104,-20.82775],[-103.5,-21.15915],[-103,-21.48255],[-102.5,-21.79808],[-102,-22.10589],[-101.5,-22.40611],[-101,-22.69888],[-100.5,-22.98435],[-100,-23.26265],[-99.5,-23.53392],[-99,-23.79829],[-98.5,-24.05592],[-98,-24.30692],[-97.5,-24.55143],[-97,-24.78958],[-96.5,-25.0215],[-96,-25.24732],[-95.5,-25.46715],[-95,-25.68111],[-94.5,-25.88933],[-94,-26.09192],[-93.5,-26.28899],[-93,-26.48065],[-92.5,-26.667],[-92,-26.84815],[-91.5,-27.0242],[-91,-27.19524],[-90.5,-27.36138],[-90,-27.52271],[-89.5,-27.67931],[-89,-27.83127],[-88.5,-27.97869],[-88,-28.12164],[-87.5,-28.2602],[-87,-28.39445],[-86.5,-28.52448],[-86,-28.65034],[-85.5,-28.77213],[-85,-28.88989],[-84.5,-29.00371],[-84,-29.11365],[-83.5,-29.21978],[-83,-29.32214],[-82.5,-29.42082],[-82,-29.51586],[-81.5,-29.60733],[-81,-29.69528],[-80.5,-29.77976],[-80,-29.86083],[-79.5,-29.93853],[-79,-30.01293],[-78.5,-30.08406],[-78,-30.15198],[-77.5,-30.21673],[-77,-30.27835],[-76.5,-30.3369],[-76,-30.3924],[-75.5,-30.44491],[-75,-30.49446],[-74.5,-30.5411],[-74,-30.58486],[-73.5,-30.62577],[-73,-30.66389],[-72.5,-30.69923],[-72,-30.73184],[-71.5,-30.76175],[-71,-30.789],[-70.5,-30.8136],[-70,-30.83561],[-69.5,-30.85504],[-69,-30.87193],[-68.5,-30.88631],[-68,-30.8982],[-67.5,-30.90764],[-67,-30.91465],[-66.5,-30.91925],[-66,-30.92148],[-65.5,-30.92136],[-65,-30.91892],[-64.5,-30.91418],[-64,-30.90716],[-63.5,-30.89788],[-63,-30.88638],[-62.5,-30.87267],[-62,-30.85678],[-61.5,-30.83873],[-61,-30.81854],[-60.5,-30.79622],[-60,-30.77181],[-59.5,-30.74532],[-59,-30.71677],[-58.5,-30.68619],[-58,-30.65358],[-57.5,-30.61898],[-57,-30.58239],[-56.5,-30.54384],[-56,-30.50334],[-55.5,-30.46092],[-55,-30.41659],[-54.5,-30.37037],[-54,-30.32227],[-53.5,-30.27232],[-53,-30.22052],[-52.5,-30.1669],[-52,-30.11148],[-51.5,-30.05426],[-51,-29.99526],[-50.5,-29.9345],[-50,-29.872],[-49.5,-29.80777],[-49,-29.74182],[-48.5,-29.67418],[-48,-29.60485],[-47.5,-29.53385],[-47.23242,-29.49517]]}}],"attribution":"Eclipse Predictions by Fred Espenak and Jean Meeus (NASA's GSFC)","generated_at":"2026-09-23T01:44:51.731Z"}
