{"type":"FeatureCollection","year":5,"events":[{"id":"+00050328","year":5,"month":3,"day":28,"time_tdt":"17:23:34","type":"혼성일식","type_code":"H","saros":68,"gamma":0.07892,"magnitude":1.00223,"greatest":{"lat":6.58321,"lng":-37.19202},"path_width_km":7.8,"duration":"00m14s","delta_t_seconds":10481.4,"catalog_number":4784,"source":"NASA Five Millennium Canon of Solar Eclipses","source_url":"https://eclipse.gsfc.nasa.gov/SEsearch/SEsearchmap.php?Ecl=%2B00050328"},{"id":"+00050922","year":5,"month":9,"day":22,"time_tdt":"08:42:23","type":"금환일식","type_code":"A","saros":73,"gamma":-0.0291,"magnitude":0.96261,"greatest":{"lat":-0.36438,"lng":90.98712},"path_width_km":135.4,"duration":"04m25s","delta_t_seconds":10476.5,"catalog_number":4785,"source":"NASA Five Millennium Canon of Solar Eclipses","source_url":"https://eclipse.gsfc.nasa.gov/SEsearch/SEsearchmap.php?Ecl=%2B00050922"}],"features":[{"type":"Feature","id":"+00050328:north:0","properties":{"id":"+00050328","year":5,"month":3,"day":28,"time_tdt":"17:23:34","type":"혼성일식","type_code":"H","saros":68,"gamma":0.07892,"magnitude":1.00223,"greatest":{"lat":6.58321,"lng":-37.19202},"path_width_km":7.8,"duration":"00m14s","delta_t_seconds":10481.4,"catalog_number":4784,"source":"NASA Five Millennium Canon of Solar Eclipses","source_url":"https://eclipse.gsfc.nasa.gov/SEsearch/SEsearchmap.php?Ecl=%2B00050328","boundary":"north","name":"5-03-28 혼성일식"},"geometry":{"type":"LineString","coordinates":[[-97.73828,-13.23908],[-97.5,-13.23078],[-97,-13.21231],[-96.5,-13.19244],[-96,-13.17113],[-95.5,-13.14837],[-95,-13.12415],[-94.5,-13.09845],[-94,-13.07124],[-93.5,-13.04251],[-93,-13.01225],[-92.5,-12.98042],[-92,-12.94702],[-91.5,-12.91203],[-91,-12.87542],[-90.5,-12.83717],[-90,-12.79726],[-89.5,-12.75568],[-89,-12.7124],[-88.5,-12.66739],[-88,-12.62064],[-87.5,-12.57213],[-87,-12.52182],[-86.5,-12.4697],[-86,-12.41574],[-85.5,-12.35992],[-85,-12.30221],[-84.5,-12.24259],[-84,-12.18103],[-83.5,-12.11751],[-83,-12.05199],[-82.5,-11.98445],[-82,-11.91487],[-81.5,-11.8432],[-81,-11.76943],[-80.5,-11.69353],[-80,-11.61546],[-79.5,-11.53519],[-79,-11.45269],[-78.5,-11.36793],[-78,-11.28088],[-77.5,-11.1915],[-77,-11.09976],[-76.5,-11.00563],[-76,-10.90906],[-75.5,-10.81003],[-75,-10.7085],[-74.5,-10.60443],[-74,-10.49777],[-73.5,-10.38851],[-73,-10.27658],[-72.5,-10.16197],[-72,-10.04461],[-71.5,-9.92448],[-71,-9.80153],[-70.5,-9.67573],[-70,-9.54701],[-69.5,-9.41536],[-69,-9.28071],[-68.5,-9.14303],[-68,-9.00226],[-67.5,-8.85837],[-67,-8.71132],[-66.5,-8.56104],[-66,-8.4075],[-65.5,-8.25065],[-65,-8.09044],[-64.5,-7.92683],[-64,-7.75976],[-63.5,-7.5892],[-63,-7.41509],[-62.5,-7.23739],[-62,-7.05605],[-61.5,-6.87103],[-61,-6.68228],[-60.5,-6.48976],[-60,-6.29343],[-59.5,-6.09324],[-59,-5.88915],[-58.5,-5.68114],[-58,-5.46915],[-57.5,-5.25316],[-57,-5.03314],[-56.5,-4.80905],[-56,-4.58088],[-55.5,-4.3486],[-55,-4.1122],[-54.5,-3.87166],[-54,-3.62698],[-53.5,-3.37815],[-53,-3.12057],[-52.5,-2.85884],[-52,-2.59306],[-51.5,-2.32327],[-51,-2.04951],[-50.5,-1.77181],[-50,-1.49024],[-49.5,-1.20487],[-49,-0.91577],[-48.5,-0.62302],[-48,-0.32673],[-47.5,-0.027],[-47,0.27604],[-46.5,0.58227],[-46,0.89154],[-45.5,1.20369],[-45,1.51856],[-44.5,1.83596],[-44,2.15572],[-43.5,2.47762],[-43,2.80145],[-42.5,3.127],[-42,3.45403],[-41.5,3.78231],[-41,4.11159],[-40.5,4.44161],[-40,4.77213],[-39.5,5.10289],[-39,5.43361],[-38.5,5.76405],[-38,6.09394],[-37.5,6.42301],[-37,6.75101],[-36.5,7.07769],[-36,7.40281],[-35.5,7.72611],[-35,8.04738],[-34.5,8.36638],[-34,8.6829],[-33.5,8.99675],[-33,9.30772],[-32.5,9.61563],[-32,9.92032],[-31.5,10.22163],[-31,10.51941],[-30.5,10.81353],[-30,11.10388],[-29.5,11.39033],[-29,11.67279],[-28.5,11.95119],[-28,12.22543],[-27.5,12.49546],[-27,12.76123],[-26.5,13.02268],[-26,13.27978],[-25.5,13.53251],[-25,13.78084],[-24.5,14.02477],[-24,14.26429],[-23.5,14.49939],[-23,14.73246],[-22.5,14.96331],[-22,15.18983],[-21.5,15.41203],[-21,15.62995],[-20.5,15.84361],[-20,16.05304],[-19.5,16.25827],[-19,16.45934],[-18.5,16.65629],[-18,16.84916],[-17.5,17.038],[-17,17.22284],[-16.5,17.40373],[-16,17.58072],[-15.5,17.75386],[-15,17.9232],[-14.5,18.08878],[-14,18.25066],[-13.5,18.40888],[-13,18.5635],[-12.5,18.71456],[-12,18.86212],[-11.5,19.00623],[-11,19.14693],[-10.5,19.28428],[-10,19.41832],[-9.5,19.54911],[-9,19.67669],[-8.5,19.80111],[-8,19.92241],[-7.5,20.04065],[-7,20.15587],[-6.5,20.26811],[-6,20.37742],[-5.5,20.48385],[-5,20.58743],[-4.5,20.68822],[-4,20.78624],[-3.5,20.88155],[-3,20.97418],[-2.5,21.06418],[-2,21.15158],[-1.5,21.23642],[-1,21.31874],[-0.5,21.39858],[0,21.47597],[0.5,21.55095],[1,21.62355],[1.5,21.69381],[2,21.76177],[2.5,21.82745],[3,21.89088],[3.5,21.95211],[4,22.01116],[4.5,22.06806],[5,22.12284],[5.5,22.17554],[6,22.22617],[6.5,22.27478],[7,22.32138],[7.5,22.366],[8,22.40868],[8.5,22.44943],[9,22.48829],[9.5,22.52528],[10,22.56042],[10.5,22.59373],[11,22.62525],[11.5,22.655],[12,22.68299],[12.5,22.70926],[13,22.73382],[13.5,22.75669],[14,22.7779],[14.5,22.79747],[15,22.81542],[15.5,22.83176],[16,22.84653],[16.5,22.85973],[17,22.87139],[17.5,22.88153],[18,22.89016],[18.5,22.89731],[19,22.90299],[19.5,22.90722],[20,22.91001],[20.5,22.91139],[21,22.91137],[21.5,22.90996],[22,22.90719],[22.5,22.90307],[23,22.89761],[23.5,22.89084],[24,22.88276],[24.5,22.87339],[25,22.86275],[25.5,22.85084],[26,22.8377],[26.5,22.82332],[27,22.80772],[27.5,22.79092],[27.62891,22.7864]]}},{"type":"Feature","id":"+00050328:center:0","properties":{"id":"+00050328","year":5,"month":3,"day":28,"time_tdt":"17:23:34","type":"혼성일식","type_code":"H","saros":68,"gamma":0.07892,"magnitude":1.00223,"greatest":{"lat":6.58321,"lng":-37.19202},"path_width_km":7.8,"duration":"00m14s","delta_t_seconds":10481.4,"catalog_number":4784,"source":"NASA Five Millennium Canon of Solar Eclipses","source_url":"https://eclipse.gsfc.nasa.gov/SEsearch/SEsearchmap.php?Ecl=%2B00050328","boundary":"center","name":"5-03-28 혼성일식"},"geometry":{"type":"LineString","coordinates":[[-97.71826,-13.45741],[-97.5,-13.44678],[-97,-13.42609],[-96.5,-13.40398],[-96,-13.38043],[-95.5,-13.35542],[-95,-13.32894],[-94.5,-13.30098],[-94,-13.2715],[-93.5,-13.2405],[-93,-13.20795],[-92.5,-13.17384],[-92,-13.13814],[-91.5,-13.10085],[-91,-13.06193],[-90.5,-13.02137],[-90,-12.97914],[-89.5,-12.93523],[-89,-12.88961],[-88.5,-12.84227],[-88,-12.79317],[-87.5,-12.7423],[-87,-12.68964],[-86.5,-12.63515],[-86,-12.57882],[-85.5,-12.52062],[-85,-12.46053],[-84.5,-12.39852],[-84,-12.33456],[-83.5,-12.26863],[-83,-12.2007],[-82.5,-12.13075],[-82,-12.05874],[-81.5,-11.98465],[-81,-11.90844],[-80.5,-11.8301],[-80,-11.74958],[-79.5,-11.66686],[-79,-11.5819],[-78.5,-11.49468],[-78,-11.40516],[-77.5,-11.3133],[-77,-11.21908],[-76.5,-11.12246],[-76,-11.0234],[-75.5,-10.92187],[-75,-10.81783],[-74.5,-10.71124],[-74,-10.60208],[-73.5,-10.49029],[-73,-10.37584],[-72.5,-10.25869],[-72,-10.13879],[-71.5,-10.01612],[-71,-9.89063],[-70.5,-9.76227],[-70,-9.631],[-69.5,-9.49678],[-69,-9.35957],[-68.5,-9.21932],[-68,-9.07598],[-67.5,-8.92952],[-67,-8.77988],[-66.5,-8.62702],[-66,-8.4709],[-65.5,-8.31146],[-65,-8.14866],[-64.5,-7.98246],[-64,-7.81281],[-63.5,-7.63966],[-63,-7.46296],[-62.5,-7.28267],[-62,-7.09875],[-61.5,-6.91114],[-61,-6.71982],[-60.5,-6.52472],[-60,-6.32582],[-59.5,-6.12306],[-59,-5.91642],[-58.5,-5.70585],[-58,-5.49133],[-57.5,-5.27281],[-57,-5.05027],[-56.5,-4.82369],[-56,-4.59303],[-55.5,-4.35829],[-55,-4.11944],[-54.5,-3.87648],[-54,-3.62939],[-53.5,-3.37819],[-53,-3.12288],[-52.5,-2.86347],[-52,-2.59997],[-51.5,-2.33243],[-51,-2.06086],[-50.5,-1.78533],[-50,-1.50587],[-49.5,-1.22256],[-49,-0.93546],[-48.5,-0.64466],[-48,-0.35025],[-47.5,-0.05234],[-47,0.24895],[-46.5,0.55351],[-46,0.86119],[-45.5,1.17183],[-45,1.48527],[-44.5,1.80135],[-44,2.11986],[-43.5,2.44062],[-43,2.76341],[-42.5,3.08803],[-42,3.41423],[-41.5,3.74179],[-41,4.07045],[-40.5,4.39999],[-40,4.73013],[-39.5,5.06061],[-39,5.39119],[-38.5,5.7216],[-38,6.05157],[-37.5,6.38084],[-37,6.70916],[-36.5,7.03626],[-36,7.36192],[-35.5,7.68587],[-35,8.00789],[-34.5,8.32774],[-34,8.64522],[-33.5,8.96012],[-33,9.27223],[-32.5,9.58138],[-32,9.88739],[-31.5,10.1901],[-31,10.48936],[-30.5,10.78504],[-30,11.07701],[-29.5,11.36515],[-29,11.64937],[-28.5,11.92957],[-28,12.20568],[-27.5,12.47762],[-27,12.74535],[-26.5,13.00881],[-26,13.26796],[-25.5,13.52278],[-25,13.77323],[-24.5,14.01932],[-24,14.26102],[-23.5,14.49834],[-23,14.73128],[-22.5,14.95985],[-22,15.18408],[-21.5,15.40397],[-21,15.61956],[-20.5,15.83088],[-20,16.03795],[-19.5,16.24081],[-19,16.43949],[-18.5,16.63405],[-18,16.82451],[-17.5,17.01093],[-17,17.19335],[-16.5,17.37181],[-16,17.54637],[-15.5,17.71707],[-15,17.88396],[-14.5,18.0471],[-14,18.20652],[-13.5,18.36229],[-13,18.51445],[-12.5,18.66306],[-12,18.80816],[-11.5,18.94981],[-11,19.08805],[-10.5,19.22293],[-10,19.35451],[-9.5,19.48284],[-9,19.60795],[-8.5,19.72991],[-8,19.84875],[-7.5,19.96453],[-7,20.07729],[-6.5,20.18707],[-6,20.29393],[-5.5,20.3979],[-5,20.49903],[-4.5,20.59736],[-4,20.69294],[-3.5,20.7858],[-3,20.87599],[-2.5,20.96354],[-2,21.0485],[-1.5,21.1309],[-1,21.21079],[-0.5,21.28819],[0,21.36315],[0.5,21.4357],[1,21.50588],[1.5,21.57371],[2,21.63925],[2.5,21.70251],[3,21.76353],[3.5,21.82235],[4,21.87899],[4.5,21.93348],[5,21.98586],[5.5,22.03615],[6,22.08439],[6.5,22.1306],[7,22.17481],[7.5,22.21705],[8,22.25734],[8.5,22.29571],[9,22.33219],[9.5,22.36681],[10,22.39958],[10.5,22.43053],[11,22.45968],[11.5,22.48707],[12,22.51271],[12.5,22.53662],[13,22.55883],[13.5,22.57936],[14,22.59823],[14.5,22.61546],[15,22.63108],[15.5,22.64509],[16,22.65753],[16.5,22.66842],[17,22.67776],[17.5,22.68559],[18,22.69191],[18.5,22.69676],[19,22.70014],[19.5,22.70207],[20,22.70258],[20.5,22.70167],[21,22.69937],[21.5,22.69569],[22,22.69065],[22.5,22.68426],[23,22.67654],[23.5,22.66751],[24,22.65718],[24.5,22.64556],[25,22.63268],[25.5,22.61854],[26,22.60317],[26.5,22.58656],[27,22.56875],[27.5,22.54973],[27.60376,22.54885]]}},{"type":"Feature","id":"+00050328:south:0","properties":{"id":"+00050328","year":5,"month":3,"day":28,"time_tdt":"17:23:34","type":"혼성일식","type_code":"H","saros":68,"gamma":0.07892,"magnitude":1.00223,"greatest":{"lat":6.58321,"lng":-37.19202},"path_width_km":7.8,"duration":"00m14s","delta_t_seconds":10481.4,"catalog_number":4784,"source":"NASA Five Millennium Canon of Solar Eclipses","source_url":"https://eclipse.gsfc.nasa.gov/SEsearch/SEsearchmap.php?Ecl=%2B00050328","boundary":"south","name":"5-03-28 혼성일식"},"geometry":{"type":"LineString","coordinates":[[-97.70117,-13.67168],[-97.5,-13.66286],[-97,-13.63995],[-96.5,-13.6156],[-96,-13.58981],[-95.5,-13.56256],[-95,-13.53383],[-94.5,-13.50361],[-94,-13.47187],[-93.5,-13.43859],[-93,-13.40377],[-92.5,-13.36737],[-92,-13.32939],[-91.5,-13.28979],[-91,-13.24857],[-90.5,-13.2057],[-90,-13.16115],[-89.5,-13.11492],[-89,-13.06697],[-88.5,-13.01729],[-88,-12.96585],[-87.5,-12.91263],[-87,-12.85761],[-86.5,-12.80076],[-86,-12.74206],[-85.5,-12.68149],[-85,-12.61902],[-84.5,-12.55462],[-84,-12.48826],[-83.5,-12.41993],[-83,-12.3496],[-82.5,-12.27723],[-82,-12.2028],[-81.5,-12.12628],[-81,-12.04765],[-80.5,-11.96686],[-80,-11.8839],[-79.5,-11.79872],[-79,-11.71131],[-78.5,-11.62162],[-78,-11.52963],[-77.5,-11.4353],[-77,-11.3386],[-76.5,-11.23949],[-76,-11.13793],[-75.5,-11.0339],[-75,-10.92736],[-74.5,-10.81826],[-74,-10.70657],[-73.5,-10.59226],[-73,-10.47528],[-72.5,-10.3556],[-72,-10.23317],[-71.5,-10.10795],[-71,-9.97991],[-70.5,-9.84899],[-70,-9.71516],[-69.5,-9.57838],[-69,-9.4386],[-68.5,-9.29578],[-68,-9.14987],[-67.5,-9.00082],[-67,-8.8486],[-66.5,-8.69316],[-66,-8.53445],[-65.5,-8.37242],[-65,-8.20703],[-64.5,-8.03824],[-64,-7.86599],[-63.5,-7.69024],[-63,-7.51095],[-62.5,-7.32807],[-62,-7.14156],[-61.5,-6.95136],[-61,-6.75745],[-60.5,-6.55977],[-60,-6.35829],[-59.5,-6.15296],[-59,-5.94376],[-58.5,-5.73064],[-58,-5.51357],[-57.5,-5.29252],[-57,-5.06746],[-56.5,-4.83836],[-56,-4.60522],[-55.5,-4.368],[-55,-4.1267],[-54.5,-3.88131],[-54,-3.63182],[-53.5,-3.37824],[-53,-3.12518],[-52.5,-2.86808],[-52,-2.60686],[-51.5,-2.34156],[-51,-2.07219],[-50.5,-1.79881],[-50,-1.52147],[-49.5,-1.24021],[-49,-0.95511],[-48.5,-0.66626],[-48,-0.37373],[-47.5,-0.07764],[-47,0.22191],[-46.5,0.5248],[-46,0.83088],[-45.5,1.14001],[-45,1.45203],[-44.5,1.76676],[-44,2.08404],[-43.5,2.40365],[-43,2.7254],[-42.5,3.04907],[-42,3.37444],[-41.5,3.70127],[-41,4.02932],[-40.5,4.35835],[-40,4.6881],[-39.5,5.01832],[-39,5.34874],[-38.5,5.67911],[-38,6.00915],[-37.5,6.33862],[-37,6.66725],[-36.5,6.99478],[-36,7.32096],[-35.5,7.64555],[-35,7.96832],[-34.5,8.28903],[-34,8.60746],[-33.5,8.92341],[-33,9.23666],[-32.5,9.54705],[-32,9.85438],[-31.5,10.15849],[-31,10.45923],[-30.5,10.75647],[-30,11.05006],[-29.5,11.33989],[-29,11.62586],[-28.5,11.90788],[-28,12.18586],[-27.5,12.45973],[-27,12.72942],[-26.5,12.9949],[-26,13.2561],[-25.5,13.51301],[-25,13.7656],[-24.5,14.01384],[-24,14.25774],[-23.5,14.49728],[-23,14.7301],[-22.5,14.95641],[-22,15.17835],[-21.5,15.39594],[-21,15.60921],[-20.5,15.81819],[-20,16.02291],[-19.5,16.2234],[-19,16.41971],[-18.5,16.61188],[-18,16.79994],[-17.5,16.98396],[-17,17.16396],[-16.5,17.34],[-16,17.51213],[-15.5,17.6804],[-15,17.84485],[-14.5,18.00555],[-14,18.16253],[-13.5,18.31585],[-13,18.46556],[-12.5,18.61171],[-12,18.75436],[-11.5,18.89354],[-11,19.02933],[-10.5,19.16175],[-10,19.29088],[-9.5,19.41674],[-9,19.5394],[-8.5,19.65889],[-8,19.77528],[-7.5,19.8886],[-7,19.9989],[-6.5,20.10623],[-6,20.21063],[-5.5,20.31215],[-5,20.41083],[-4.5,20.50671],[-4,20.59983],[-3.5,20.69025],[-3,20.77799],[-2.5,20.8631],[-2,20.94561],[-1.5,21.02558],[-1,21.10302],[-0.5,21.17799],[0,21.25052],[0.5,21.32064],[1,21.38839],[1.5,21.4538],[2,21.51691],[2.5,21.57775],[3,21.63635],[3.5,21.69275],[4,21.74698],[4.5,21.79906],[5,21.84904],[5.5,21.89693],[6,21.94276],[6.5,21.98657],[7,22.02839],[7.5,22.06824],[8,22.10614],[8.5,22.14213],[9,22.17623],[9.5,22.20846],[10,22.23885],[10.5,22.26743],[11,22.29422],[11.5,22.31924],[12,22.34252],[12.5,22.36407],[13,22.38393],[13.5,22.40211],[14,22.41863],[14.5,22.43352],[15,22.4468],[15.5,22.45848],[16,22.46859],[16.5,22.47715],[17,22.48417],[17.5,22.48968],[18,22.49369],[18.5,22.49622],[19,22.4973],[19.5,22.49693],[20,22.49514],[20.5,22.49194],[21,22.48735],[21.5,22.48139],[22,22.47407],[22.5,22.46541],[23,22.45542],[23.5,22.44413],[24,22.43154],[24.5,22.41767],[25,22.40254],[25.5,22.38616],[26,22.36855],[26.5,22.34971],[27,22.32967],[27.5,22.30844],[27.58594,22.30467]]}},{"type":"Feature","id":"+00050922:north:0","properties":{"id":"+00050922","year":5,"month":9,"day":22,"time_tdt":"08:42:23","type":"금환일식","type_code":"A","saros":73,"gamma":-0.0291,"magnitude":0.96261,"greatest":{"lat":-0.36438,"lng":90.98712},"path_width_km":135.4,"duration":"04m25s","delta_t_seconds":10476.5,"catalog_number":4785,"source":"NASA Five Millennium Canon of Solar Eclipses","source_url":"https://eclipse.gsfc.nasa.gov/SEsearch/SEsearchmap.php?Ecl=%2B00050922","boundary":"north","name":"5-09-22 금환일식"},"geometry":{"type":"LineString","coordinates":[[29.63672,17.24483],[30,17.25087],[30.5,17.2581],[31,17.26405],[31.5,17.2687],[32,17.27203],[32.5,17.27403],[33,17.27469],[33.5,17.27398],[34,17.27189],[34.5,17.26841],[35,17.2635],[35.5,17.25716],[36,17.24937],[36.5,17.2401],[37,17.22935],[37.5,17.21708],[38,17.20328],[38.5,17.18792],[39,17.171],[39.5,17.15248],[40,17.13235],[40.5,17.11058],[41,17.08714],[41.5,17.06203],[42,17.03521],[42.5,17.00666],[43,16.97636],[43.5,16.94428],[44,16.91039],[44.5,16.87467],[45,16.8371],[45.5,16.79765],[46,16.75628],[46.5,16.71298],[47,16.66771],[47.5,16.62044],[48,16.57115],[48.5,16.51981],[49,16.46637],[49.5,16.41082],[50,16.35312],[50.5,16.29323],[51,16.23112],[51.5,16.16677],[52,16.10012],[52.5,16.03116],[53,15.95983],[53.5,15.88611],[54,15.80995],[54.5,15.73132],[55,15.65017],[55.5,15.56647],[56,15.48017],[56.5,15.39123],[57,15.29961],[57.5,15.20527],[58,15.10816],[58.5,15.00822],[59,14.90543],[59.5,14.79972],[60,14.69106],[60.5,14.57938],[61,14.46465],[61.5,14.3468],[62,14.2258],[62.5,14.10157],[63,13.97408],[63.5,13.84326],[64,13.70906],[64.5,13.57143],[65,13.43031],[65.5,13.28563],[66,13.13735],[66.5,12.9854],[67,12.82973],[67.5,12.67027],[68,12.50697],[68.5,12.33977],[69,12.1686],[69.5,11.99341],[70,11.81414],[70.5,11.63073],[71,11.44312],[71.5,11.25126],[72,11.05508],[72.5,10.85455],[73,10.6496],[73.5,10.44019],[74,10.22626],[74.5,10.00778],[75,9.78469],[75.5,9.55698],[76,9.3246],[76.5,9.08752],[77,8.84572],[77.5,8.59919],[78,8.34792],[78.5,8.0919],[79,7.83115],[79.5,7.56566],[80,7.29548],[80.5,7.02062],[81,6.74114],[81.5,6.45709],[82,6.16855],[82.5,5.87558],[83,5.57829],[83.5,5.27679],[84,4.97119],[84.5,4.66164],[85,4.34829],[85.5,4.0313],[86,3.71087],[86.5,3.38718],[87,3.06045],[87.5,2.73091],[88,2.3988],[88.5,2.06437],[89,1.72788],[89.5,1.38962],[90,1.04986],[90.5,0.7089],[91,0.36705],[91.5,0.02459],[92,-0.31816],[92.5,-0.6609],[93,-1.00333],[93.5,-1.34513],[94,-1.68601],[94.5,-2.02568],[95,-2.36385],[95.5,-2.70026],[96,-3.03463],[96.5,-3.36671],[97,-3.69626],[97.5,-4.02306],[98,-4.34689],[98.5,-4.66755],[99,-4.98487],[99.5,-5.29866],[100,-5.60878],[100.5,-5.91508],[101,-6.21745],[101.5,-6.51576],[102,-6.80994],[102.5,-7.09988],[103,-7.38551],[103.5,-7.66679],[104,-7.94366],[104.5,-8.21607],[105,-8.48401],[105.5,-8.74746],[106,-9.0064],[106.5,-9.26083],[107,-9.51075],[107.5,-9.75618],[108,-9.99714],[108.5,-10.23364],[109,-10.46571],[109.5,-10.69338],[110,-10.9167],[110.5,-11.13569],[111,-11.35041],[111.5,-11.56089],[112,-11.76718],[112.5,-11.96932],[113,-12.16738],[113.5,-12.3614],[114,-12.55143],[114.5,-12.73752],[115,-12.91974],[115.5,-13.09813],[116,-13.27274],[116.5,-13.44365],[117,-13.61089],[117.5,-13.77452],[118,-13.9346],[118.5,-14.09119],[119,-14.24433],[119.5,-14.39408],[120,-14.54049],[120.5,-14.68362],[121,-14.82352],[121.5,-14.96023],[122,-15.09381],[122.5,-15.2243],[123,-15.35177],[123.5,-15.47624],[124,-15.59778],[124.5,-15.71643],[125,-15.83223],[125.5,-15.94522],[126,-16.05546],[126.5,-16.16299],[127,-16.26784],[127.5,-16.37006],[128,-16.46969],[128.5,-16.56678],[129,-16.66135],[129.5,-16.75345],[130,-16.84311],[130.5,-16.93038],[131,-17.01529],[131.5,-17.09787],[132,-17.17815],[132.5,-17.25619],[133,-17.33199],[133.5,-17.40561],[134,-17.47707],[134.5,-17.54639],[135,-17.61362],[135.5,-17.67879],[136,-17.74191],[136.5,-17.80303],[137,-17.86217],[137.5,-17.91935],[138,-17.97461],[138.5,-18.02796],[139,-18.07945],[139.5,-18.12908],[140,-18.1769],[140.5,-18.22291],[141,-18.26715],[141.5,-18.30964],[142,-18.3504],[142.5,-18.38946],[143,-18.42683],[143.5,-18.46255],[144,-18.49662],[144.5,-18.52907],[145,-18.55993],[145.5,-18.58921],[146,-18.61693],[146.5,-18.64311],[147,-18.66777],[147.5,-18.69093],[148,-18.7126],[148.5,-18.73282],[149,-18.75158],[149.5,-18.76891],[150,-18.78484],[150.5,-18.79936],[151,-18.81251],[151.5,-18.82429],[152,-18.83473],[152.5,-18.84383],[152.57227,-18.84504]]}},{"type":"Feature","id":"+00050922:center:0","properties":{"id":"+00050922","year":5,"month":9,"day":22,"time_tdt":"08:42:23","type":"금환일식","type_code":"A","saros":73,"gamma":-0.0291,"magnitude":0.96261,"greatest":{"lat":-0.36438,"lng":90.98712},"path_width_km":135.4,"duration":"04m25s","delta_t_seconds":10476.5,"catalog_number":4785,"source":"NASA Five Millennium Canon of Solar Eclipses","source_url":"https://eclipse.gsfc.nasa.gov/SEsearch/SEsearchmap.php?Ecl=%2B00050922","boundary":"center","name":"5-09-22 금환일식"},"geometry":{"type":"LineString","coordinates":[[29.65642,16.35682],[30,16.36201],[30.5,16.37153],[31,16.37977],[31.5,16.38672],[32,16.39235],[32.5,16.39665],[33,16.39961],[33.5,16.4012],[34,16.40141],[34.5,16.40022],[35,16.39761],[35.5,16.39357],[36,16.38807],[36.5,16.3811],[37,16.37263],[37.5,16.36266],[38,16.35114],[38.5,16.33807],[39,16.32343],[39.5,16.30719],[40,16.28933],[40.5,16.26983],[41,16.24866],[41.5,16.22581],[42,16.20124],[42.5,16.17494],[43,16.14688],[43.5,16.11703],[44,16.08537],[44.5,16.05187],[45,16.01651],[45.5,15.97925],[46,15.94008],[46.5,15.89896],[47,15.85586],[47.5,15.81076],[48,15.76362],[48.5,15.71441],[49,15.6631],[49.5,15.60966],[50,15.55405],[50.5,15.49625],[51,15.43621],[51.5,15.3739],[52,15.30929],[52.5,15.24234],[53,15.17302],[53.5,15.10127],[54,15.02708],[54.5,14.95038],[55,14.87116],[55.5,14.78935],[56,14.70493],[56.5,14.61784],[57,14.52805],[57.5,14.4355],[58,14.34016],[58.5,14.24197],[59,14.1409],[59.5,14.03688],[60,13.92987],[60.5,13.81982],[61,13.70667],[61.5,13.59038],[62,13.4709],[62.5,13.34816],[63,13.22212],[63.5,13.09271],[64,12.95988],[64.5,12.82358],[65,12.68375],[65.5,12.54032],[66,12.39323],[66.5,12.24244],[67,12.08787],[67.5,11.92948],[68,11.76718],[68.5,11.60094],[69,11.43068],[69.5,11.25634],[70,11.07788],[70.5,10.89521],[71,10.7083],[71.5,10.51707],[72,10.32148],[72.5,10.12146],[73,9.91698],[73.5,9.70797],[74,9.49439],[74.5,9.27619],[75,9.05334],[75.5,8.82579],[76,8.59353],[76.5,8.3565],[77,8.11471],[77.5,7.86813],[78,7.61675],[78.5,7.36057],[79,7.0996],[79.5,6.83386],[80,6.56338],[80.5,6.28819],[81,6.00833],[81.5,5.72388],[82,5.4349],[82.5,5.14148],[83,4.84371],[83.5,4.54172],[84,4.23563],[84.5,3.92558],[85,3.61173],[85.5,3.29426],[86,2.97335],[86.5,2.64921],[87,2.32206],[87.5,1.99213],[88,1.65967],[88.5,1.32493],[89,0.98819],[89.5,0.64972],[90,0.30981],[90.5,-0.03125],[91,-0.37314],[91.5,-0.71558],[92,-1.05825],[92.5,-1.40084],[93,-1.74306],[93.5,-2.0846],[94,-2.42516],[94.5,-2.76446],[95,-3.10222],[95.5,-3.43816],[96,-3.77203],[96.5,-4.10357],[97,-4.43256],[97.5,-4.75877],[98,-5.08199],[98.5,-5.40203],[99,-5.71872],[99.5,-6.03189],[100,-6.34139],[100.5,-6.64708],[101,-6.94886],[101.5,-7.2466],[102,-7.54023],[102.5,-7.82965],[103,-8.11481],[103.5,-8.39564],[104,-8.6721],[104.5,-8.94415],[105,-9.21178],[105.5,-9.47496],[106,-9.73368],[106.5,-9.98794],[107,-10.23776],[107.5,-10.48313],[108,-10.72408],[108.5,-10.96064],[109,-11.19282],[109.5,-11.42067],[110,-11.64421],[110.5,-11.86349],[111,-12.07854],[111.5,-12.28941],[112,-12.49615],[112.5,-12.6988],[113,-12.89742],[113.5,-13.09204],[114,-13.28274],[114.5,-13.46955],[115,-13.65253],[115.5,-13.83173],[116,-14.00722],[116.5,-14.17903],[117,-14.34723],[117.5,-14.51187],[118,-14.673],[118.5,-14.83067],[119,-14.98495],[119.5,-15.13587],[120,-15.28349],[120.5,-15.42787],[121,-15.56906],[121.5,-15.70709],[122,-15.84203],[122.5,-15.97392],[123,-16.10281],[123.5,-16.22875],[124,-16.35178],[124.5,-16.47194],[125,-16.58929],[125.5,-16.70387],[126,-16.81571],[126.5,-16.92487],[127,-17.03138],[127.5,-17.13529],[128,-17.23663],[128.5,-17.33544],[129,-17.43176],[129.5,-17.52564],[130,-17.6171],[130.5,-17.70618],[131,-17.79292],[131.5,-17.87735],[132,-17.95951],[132.5,-18.03944],[133,-18.11715],[133.5,-18.19269],[134,-18.26608],[134.5,-18.33736],[135,-18.40656],[135.5,-18.4737],[136,-18.53882],[136.5,-18.60194],[137,-18.66309],[137.5,-18.7223],[138,-18.7796],[138.5,-18.83501],[139,-18.88855],[139.5,-18.94026],[140,-18.99015],[140.5,-19.03825],[141,-19.08459],[141.5,-19.12918],[142,-19.17206],[142.5,-19.21323],[143,-19.25273],[143.5,-19.29058],[144,-19.32679],[144.5,-19.36139],[145,-19.39439],[145.5,-19.42582],[146,-19.4557],[146.5,-19.48405],[147,-19.51087],[147.5,-19.5362],[148,-19.56005],[148.5,-19.58244],[149,-19.60339],[149.5,-19.6229],[150,-19.64101],[150.5,-19.65772],[151,-19.67306],[151.5,-19.68703],[152,-19.69966],[152.5,-19.71095],[152.54812,-19.71844]]}},{"type":"Feature","id":"+00050922:south:0","properties":{"id":"+00050922","year":5,"month":9,"day":22,"time_tdt":"08:42:23","type":"금환일식","type_code":"A","saros":73,"gamma":-0.0291,"magnitude":0.96261,"greatest":{"lat":-0.36438,"lng":90.98712},"path_width_km":135.4,"duration":"04m25s","delta_t_seconds":10476.5,"catalog_number":4785,"source":"NASA Five Millennium Canon of Solar Eclipses","source_url":"https://eclipse.gsfc.nasa.gov/SEsearch/SEsearchmap.php?Ecl=%2B00050922","boundary":"south","name":"5-09-22 금환일식"},"geometry":{"type":"LineString","coordinates":[[29.66406,15.46408],[30,15.47273],[30.5,15.48456],[31,15.4951],[31.5,15.50435],[32,15.51229],[32.5,15.5189],[33,15.52417],[33.5,15.52807],[34,15.53059],[34.5,15.53171],[35,15.53141],[35.5,15.52968],[36,15.52649],[36.5,15.52182],[37,15.51566],[37.5,15.50798],[38,15.49877],[38.5,15.488],[39,15.47565],[39.5,15.4617],[40,15.44612],[40.5,15.4289],[41,15.41001],[41.5,15.38943],[42,15.36713],[42.5,15.34309],[43,15.31728],[43.5,15.28968],[44,15.26026],[44.5,15.229],[45,15.19586],[45.5,15.16082],[46,15.12386],[46.5,15.08493],[47,15.04402],[47.5,15.00109],[48,14.95611],[48.5,14.90905],[49,14.85988],[49.5,14.80856],[50,14.75507],[50.5,14.69936],[51,14.6414],[51.5,14.58116],[52,14.5186],[52.5,14.45368],[53,14.38636],[53.5,14.31661],[54,14.24439],[54.5,14.16965],[55,14.09235],[55.5,14.01245],[56,13.92991],[56.5,13.84469],[57,13.75673],[57.5,13.66599],[58,13.57243],[58.5,13.476],[59,13.37665],[59.5,13.27432],[60,13.16897],[60.5,13.06055],[61,12.94901],[61.5,12.83428],[62,12.71633],[62.5,12.59508],[63,12.47049],[63.5,12.34249],[64,12.21104],[64.5,12.07607],[65,11.93752],[65.5,11.79533],[66,11.64945],[66.5,11.49981],[67,11.34635],[67.5,11.18901],[68,11.02772],[68.5,10.86243],[69,10.69307],[69.5,10.51958],[70,10.34191],[70.5,10.15998],[71,9.97375],[71.5,9.78315],[72,9.58812],[72.5,9.38861],[73,9.18458],[73.5,8.97596],[74,8.76271],[74.5,8.54478],[75,8.32214],[75.5,8.09475],[76,7.86257],[76.5,7.62558],[77,7.38377],[77.5,7.13711],[78,6.8856],[78.5,6.62924],[79,6.36805],[79.5,6.10204],[80,5.83123],[80.5,5.55568],[81,5.27544],[81.5,4.99056],[82,4.70113],[82.5,4.40723],[83,4.10898],[83.5,3.80648],[84,3.49988],[84.5,3.18932],[85,2.87497],[85.5,2.557],[86,2.23562],[86.5,1.91103],[87,1.58346],[87.5,1.25314],[88,0.92033],[88.5,0.58529],[89,0.24829],[89.5,-0.09039],[90,-0.43044],[90.5,-0.77159],[91,-1.11351],[91.5,-1.45592],[92,-1.79849],[92.5,-2.14093],[93,-2.48294],[93.5,-2.82421],[94,-3.16445],[94.5,-3.50338],[95,-3.84071],[95.5,-4.17619],[96,-4.50956],[96.5,-4.84057],[97,-5.169],[97.5,-5.49463],[98,-5.81726],[98.5,-6.13669],[99,-6.45277],[99.5,-6.76533],[100,-7.07423],[100.5,-7.37934],[101,-7.68054],[101.5,-7.97773],[102,-8.27084],[102.5,-8.55977],[103,-8.84446],[103.5,-9.12487],[104,-9.40096],[104.5,-9.67268],[105,-9.94001],[105.5,-10.20295],[106,-10.46148],[106.5,-10.71561],[107,-10.96533],[107.5,-11.21068],[108,-11.45165],[108.5,-11.68829],[109,-11.92061],[109.5,-12.14864],[110,-12.37243],[110.5,-12.592],[111,-12.80741],[111.5,-13.0187],[112,-13.2259],[112.5,-13.42907],[113,-13.62826],[113.5,-13.82351],[114,-14.01488],[114.5,-14.20242],[115,-14.38618],[115.5,-14.56621],[116,-14.74256],[116.5,-14.9153],[117,-15.08446],[117.5,-15.25011],[118,-15.41229],[118.5,-15.57106],[119,-15.72647],[119.5,-15.87857],[120,-16.0274],[120.5,-16.17303],[121,-16.31551],[121.5,-16.45487],[122,-16.59116],[122.5,-16.72445],[123,-16.85476],[123.5,-16.98215],[124,-17.10667],[124.5,-17.22835],[125,-17.34725],[125.5,-17.4634],[126,-17.57684],[126.5,-17.68763],[127,-17.79579],[127.5,-17.90137],[128,-18.00441],[128.5,-18.10494],[129,-18.20301],[129.5,-18.29865],[130,-18.3919],[130.5,-18.48279],[131,-18.57135],[131.5,-18.65763],[132,-18.74165],[132.5,-18.82345],[133,-18.90305],[133.5,-18.9805],[134,-19.05582],[134.5,-19.12904],[135,-19.20019],[135.5,-19.2693],[136,-19.3364],[136.5,-19.40152],[137,-19.46468],[137.5,-19.52591],[138,-19.58523],[138.5,-19.64268],[139,-19.69827],[139.5,-19.75204],[140,-19.804],[140.5,-19.85418],[141,-19.9026],[141.5,-19.94928],[142,-19.99426],[142.5,-20.03754],[143,-20.07915],[143.5,-20.11912],[144,-20.15746],[144.5,-20.19419],[145,-20.22933],[145.5,-20.2629],[146,-20.29493],[146.5,-20.32542],[147,-20.3544],[147.5,-20.38189],[148,-20.40791],[148.5,-20.43246],[149,-20.45557],[149.5,-20.47726],[150,-20.49754],[150.5,-20.51643],[151,-20.53394],[151.5,-20.55009],[152,-20.5649],[152.5,-20.57837]]}}],"attribution":"Eclipse Predictions by Fred Espenak and Jean Meeus (NASA's GSFC)","generated_at":"2026-09-23T01:44:42.421Z"}
