{"type":"FeatureCollection","year":500,"events":[{"id":"+05000215","year":500,"month":2,"day":15,"time_tdt":"11:06:27","type":"혼성일식","type_code":"H","saros":77,"gamma":-0.56159,"magnitude":1.00461,"greatest":{"lat":-42.24141,"lng":60.56689},"path_width_km":19.1,"duration":"00m22s","delta_t_seconds":5681.4,"catalog_number":5940,"source":"NASA Five Millennium Canon of Solar Eclipses","source_url":"https://eclipse.gsfc.nasa.gov/SEsearch/SEsearchmap.php?Ecl=%2B05000215"},{"id":"+05000811","year":500,"month":8,"day":11,"time_tdt":"00:35:02","type":"금환일식","type_code":"A","saros":82,"gamma":0.54583,"magnitude":0.95821,"greatest":{"lat":44.65038,"lng":-146.13959},"path_width_km":179.7,"duration":"03m50s","delta_t_seconds":5676.6,"catalog_number":5941,"source":"NASA Five Millennium Canon of Solar Eclipses","source_url":"https://eclipse.gsfc.nasa.gov/SEsearch/SEsearchmap.php?Ecl=%2B05000811"}],"features":[{"type":"Feature","id":"+05000215:north:0","properties":{"id":"+05000215","year":500,"month":2,"day":15,"time_tdt":"11:06:27","type":"혼성일식","type_code":"H","saros":77,"gamma":-0.56159,"magnitude":1.00461,"greatest":{"lat":-42.24141,"lng":60.56689},"path_width_km":19.1,"duration":"00m22s","delta_t_seconds":5681.4,"catalog_number":5940,"source":"NASA Five Millennium Canon of Solar Eclipses","source_url":"https://eclipse.gsfc.nasa.gov/SEsearch/SEsearchmap.php?Ecl=%2B05000215","boundary":"north","name":"500-02-15 혼성일식"},"geometry":{"type":"LineString","coordinates":[[-46.81641,-57.99827],[-46.5,-58.07289],[-46,-58.18962],[-45.5,-58.30489],[-45,-58.41871],[-44.5,-58.53106],[-44,-58.64197],[-43.5,-58.75141],[-43,-58.8594],[-42.5,-58.96593],[-42,-59.07101],[-41.5,-59.17463],[-41,-59.2768],[-40.5,-59.37751],[-40,-59.47677],[-39.5,-59.57458],[-39,-59.67094],[-38.5,-59.76585],[-38,-59.85931],[-37.5,-59.95133],[-37,-60.0419],[-36.5,-60.13103],[-36,-60.21873],[-35.5,-60.30498],[-35,-60.3898],[-34.5,-60.47318],[-34,-60.55514],[-33.5,-60.63566],[-33,-60.71476],[-32.5,-60.79243],[-32,-60.86869],[-31.5,-60.94352],[-31,-61.01693],[-30.5,-61.08893],[-30,-61.15952],[-29.5,-61.2287],[-29,-61.29647],[-28.5,-61.36284],[-28,-61.4278],[-27.5,-61.49136],[-27,-61.55353],[-26.5,-61.61429],[-26,-61.67367],[-25.5,-61.73165],[-25,-61.78825],[-24.5,-61.84345],[-24,-61.89727],[-23.5,-61.94971],[-23,-62.00077],[-22.5,-62.05045],[-22,-62.09874],[-21.5,-62.14567],[-21,-62.19121],[-20.5,-62.23538],[-20,-62.27818],[-19.5,-62.31961],[-19,-62.35967],[-18.5,-62.39835],[-18,-62.43567],[-17.5,-62.47162],[-17,-62.5062],[-16.5,-62.53941],[-16,-62.57126],[-15.5,-62.60174],[-15,-62.63085],[-14.5,-62.65859],[-14,-62.68496],[-13.5,-62.70997],[-13,-62.7336],[-12.5,-62.75586],[-12,-62.77675],[-11.5,-62.79627],[-11,-62.81441],[-10.5,-62.83118],[-10,-62.84656],[-9.5,-62.86056],[-9,-62.87318],[-8.5,-62.88442],[-8,-62.89426],[-7.5,-62.90271],[-7,-62.90976],[-6.5,-62.91542],[-6,-62.91967],[-5.5,-62.92252],[-5,-62.92395],[-4.5,-62.92397],[-4,-62.92257],[-3.5,-62.91974],[-3,-62.91548],[-2.5,-62.90978],[-2,-62.90264],[-1.5,-62.89405],[-1,-62.884],[-0.5,-62.87249],[0,-62.85951],[0.5,-62.84506],[1,-62.82912],[1.5,-62.81168],[2,-62.79275],[2.5,-62.7723],[3,-62.75033],[3.5,-62.72684],[4,-62.7018],[4.5,-62.67522],[5,-62.64707],[5.5,-62.61736],[6,-62.58606],[6.5,-62.55317],[7,-62.51867],[7.5,-62.48255],[8,-62.4448],[8.5,-62.4054],[9,-62.36434],[9.5,-62.32161],[10,-62.27719],[10.5,-62.23106],[11,-62.18321],[11.5,-62.13362],[12,-62.08228],[12.5,-62.02916],[13,-61.97426],[13.5,-61.91754],[14,-61.859],[14.5,-61.7986],[15,-61.73634],[15.5,-61.67194],[16,-61.60346],[16.5,-61.53303],[17,-61.46064],[17.5,-61.38627],[18,-61.30987],[18.5,-61.23144],[19,-61.15094],[19.5,-61.06835],[20,-60.98364],[20.5,-60.89677],[21,-60.80773],[21.5,-60.71647],[22,-60.62298],[22.5,-60.5272],[23,-60.42912],[23.5,-60.3287],[24,-60.2259],[24.5,-60.12068],[25,-60.01302],[25.5,-59.90286],[26,-59.79017],[26.5,-59.67492],[27,-59.55705],[27.5,-59.43653],[28,-59.31331],[28.5,-59.18734],[29,-59.05858],[29.5,-58.92699],[30,-58.7925],[30.5,-58.65508],[31,-58.51467],[31.5,-58.37121],[32,-58.22464],[32.5,-58.07493],[33,-57.92199],[33.5,-57.76578],[34,-57.60624],[34.5,-57.44329],[35,-57.27688],[35.5,-57.10693],[36,-56.93339],[36.5,-56.75617],[37,-56.57521],[37.5,-56.39043],[38,-56.20176],[38.5,-56.00912],[39,-55.81242],[39.5,-55.61159],[40,-55.40654],[40.5,-55.19719],[41,-54.98344],[41.5,-54.76521],[42,-54.5424],[42.5,-54.31493],[43,-54.08269],[43.5,-53.84558],[44,-53.60351],[44.5,-53.35637],[45,-53.10407],[45.5,-52.84649],[46,-52.58352],[46.5,-52.31507],[47,-52.04102],[47.5,-51.76125],[48,-51.47567],[48.5,-51.18416],[49,-50.8866],[49.5,-50.58289],[50,-50.27291],[50.5,-49.95656],[51,-49.63372],[51.5,-49.3043],[52,-48.96819],[52.5,-48.6253],[53,-48.27552],[53.5,-47.91876],[54,-47.55496],[54.5,-47.18403],[55,-46.8059],[55.5,-46.42052],[56,-46.02784],[56.5,-45.62783],[57,-45.22048],[57.5,-44.80578],[58,-44.38374],[58.5,-43.9544],[59,-43.51782],[59.5,-43.07406],[60,-42.62324],[60.5,-42.16548],[61,-41.70093],[61.5,-41.22978],[62,-40.75224],[62.5,-40.26856],[63,-39.77901],[63.5,-39.28389],[64,-38.78356],[64.5,-38.27837],[65,-37.76873],[65.5,-37.25508],[66,-36.73787],[66.5,-36.21757],[67,-35.6947],[67.5,-35.16977],[68,-34.64333],[68.5,-34.11593],[69,-33.58812],[69.5,-33.06045],[70,-32.5335],[70.5,-32.00781],[71,-31.48391],[71.5,-30.96235],[72,-30.44362],[72.5,-29.92822],[73,-29.41662],[73.5,-28.90925],[74,-28.40652],[74.5,-27.90882],[75,-27.4165],[75.5,-26.92987],[76,-26.44923],[76.5,-25.97483],[77,-25.50691],[77.5,-25.04566],[78,-24.59124],[78.5,-24.14381],[79,-23.70348],[79.5,-23.27034],[80,-22.84447],[80.5,-22.42591],[81,-22.0147],[81.5,-21.61084],[82,-21.2065],[82.5,-20.80724],[83,-20.4154],[83.5,-20.03093],[84,-19.65379],[84.5,-19.28392],[85,-18.92126],[85.5,-18.56573],[86,-18.21726],[86.5,-17.87575],[87,-17.54113],[87.5,-17.21329],[88,-16.89214],[88.5,-16.57758],[89,-16.26951],[89.5,-15.96782],[90,-15.67242],[90.5,-15.38319],[91,-15.10004],[91.5,-14.82287],[92,-14.55155],[92.5,-14.28601],[93,-14.02612],[93.5,-13.7718],[94,-13.52295],[94.5,-13.27945],[95,-13.04123],[95.5,-12.80818],[96,-12.58021],[96.5,-12.35723],[97,-12.13914],[97.5,-11.92587],[98,-11.71732],[98.5,-11.51341],[99,-11.31406],[99.5,-11.11918],[100,-10.9287],[100.5,-10.74254],[101,-10.56062],[101.5,-10.38287],[102,-10.20922],[102.5,-10.0396],[103,-9.87394],[103.5,-9.71217],[104,-9.55423],[104.5,-9.40005],[105,-9.24958],[105.5,-9.10274],[106,-8.95949],[106.5,-8.81975],[107,-8.68349],[107.5,-8.55064],[108,-8.42114],[108.5,-8.29496],[109,-8.17203],[109.5,-8.0523],[110,-7.93573],[110.4082,-7.84288]]}},{"type":"Feature","id":"+05000215:center:0","properties":{"id":"+05000215","year":500,"month":2,"day":15,"time_tdt":"11:06:27","type":"혼성일식","type_code":"H","saros":77,"gamma":-0.56159,"magnitude":1.00461,"greatest":{"lat":-42.24141,"lng":60.56689},"path_width_km":19.1,"duration":"00m22s","delta_t_seconds":5681.4,"catalog_number":5940,"source":"NASA Five Millennium Canon of Solar Eclipses","source_url":"https://eclipse.gsfc.nasa.gov/SEsearch/SEsearchmap.php?Ecl=%2B05000215","boundary":"center","name":"500-02-15 혼성일식"},"geometry":{"type":"LineString","coordinates":[[-46.99477,-58.15023],[-46.5,-58.2659],[-46,-58.38032],[-45.5,-58.4933],[-45,-58.60483],[-44.5,-58.71493],[-44,-58.82358],[-43.5,-58.93079],[-43,-59.03656],[-42.5,-59.14089],[-42,-59.24377],[-41.5,-59.34522],[-41,-59.44523],[-40.5,-59.54379],[-40,-59.64092],[-39.5,-59.73662],[-39,-59.83088],[-38.5,-59.92371],[-38,-60.0151],[-37.5,-60.10507],[-37,-60.19361],[-36.5,-60.28072],[-36,-60.36641],[-35.5,-60.45067],[-35,-60.53352],[-34.5,-60.61494],[-34,-60.69495],[-33.5,-60.77355],[-33,-60.85074],[-32.5,-60.92651],[-32,-61.00088],[-31.5,-61.07385],[-31,-61.14541],[-30.5,-61.21558],[-30,-61.28434],[-29.5,-61.35172],[-29,-61.41769],[-28.5,-61.48228],[-28,-61.54548],[-27.5,-61.6073],[-27,-61.66772],[-26.5,-61.72677],[-26,-61.78444],[-25.5,-61.84073],[-25,-61.89565],[-24.5,-61.94919],[-24,-62.00136],[-23.5,-62.05215],[-23,-62.10158],[-22.5,-62.14965],[-22,-62.19634],[-21.5,-62.24168],[-21,-62.28565],[-20.5,-62.32826],[-20,-62.3695],[-19.5,-62.40939],[-19,-62.44792],[-18.5,-62.48509],[-18,-62.5209],[-17.5,-62.55536],[-17,-62.58845],[-16.5,-62.62019],[-16,-62.65058],[-15.5,-62.6796],[-15,-62.70727],[-14.5,-62.73358],[-14,-62.75854],[-13.5,-62.78213],[-13,-62.80436],[-12.5,-62.82523],[-12,-62.84474],[-11.5,-62.86288],[-11,-62.87965],[-10.5,-62.89506],[-10,-62.90909],[-9.5,-62.92175],[-9,-62.93304],[-8.5,-62.94295],[-8,-62.95147],[-7.5,-62.95861],[-7,-62.96436],[-6.5,-62.96872],[-6,-62.97168],[-5.5,-62.97324],[-5,-62.9734],[-4.5,-62.97214],[-4,-62.96948],[-3.5,-62.96539],[-3,-62.95987],[-2.5,-62.95292],[-2,-62.94454],[-1.5,-62.93471],[-1,-62.92343],[-0.5,-62.91069],[0,-62.89648],[0.5,-62.8808],[1,-62.86364],[1.5,-62.84499],[2,-62.82485],[2.5,-62.80319],[3,-62.78002],[3.5,-62.75532],[4,-62.72909],[4.5,-62.7013],[5,-62.67196],[5.5,-62.64105],[6,-62.60856],[6.5,-62.57448],[7,-62.53879],[7.5,-62.50148],[8,-62.46255],[8.5,-62.42196],[9,-62.37972],[9.5,-62.3358],[10,-62.29019],[10.5,-62.24287],[11,-62.19383],[11.5,-62.14306],[12,-62.09053],[12.5,-62.03622],[13,-61.98012],[13.5,-61.92221],[14,-61.86247],[14.5,-61.80088],[15,-61.73742],[15.5,-61.67207],[16,-61.6048],[16.5,-61.53559],[17,-61.46442],[17.5,-61.39126],[18,-61.3161],[18.5,-61.2389],[19,-61.15964],[19.5,-61.07829],[20,-60.99483],[20.5,-60.90921],[21,-60.82143],[21.5,-60.73144],[22,-60.63921],[22.5,-60.54471],[23,-60.44792],[23.5,-60.34879],[24,-60.24728],[24.5,-60.14337],[25,-60.03702],[25.5,-59.92819],[26,-59.81683],[26.5,-59.70292],[27,-59.5864],[27.5,-59.46723],[28,-59.34538],[28.5,-59.22079],[29,-59.09343],[29.5,-58.96323],[30,-58.83016],[30.5,-58.69415],[31,-58.55517],[31.5,-58.41316],[32,-58.26805],[32.5,-58.1198],[33,-57.96835],[33.5,-57.81364],[34,-57.6556],[34.5,-57.49417],[35,-57.3293],[35.5,-57.1609],[36,-56.98892],[36.5,-56.81328],[37,-56.63391],[37.5,-56.45074],[38,-56.26369],[38.5,-56.07269],[39,-55.87764],[39.5,-55.67848],[40,-55.47512],[40.5,-55.26746],[41,-55.05543],[41.5,-54.83893],[42,-54.61787],[42.5,-54.39216],[43,-54.1617],[43.5,-53.92638],[44,-53.68612],[44.5,-53.4408],[45,-53.19033],[45.5,-52.93459],[46,-52.67349],[46.5,-52.4069],[47,-52.13473],[47.5,-51.85686],[48,-51.57317],[48.5,-51.28356],[49,-50.9879],[49.5,-50.6861],[50,-50.37803],[50.5,-50.06358],[51,-49.74265],[51.5,-49.41512],[52,-49.08089],[52.5,-48.73986],[53,-48.39192],[53.5,-48.03699],[54,-47.67497],[54.5,-47.3058],[55,-46.92938],[55.5,-46.54567],[56,-46.15461],[56.5,-45.75616],[57,-45.35029],[57.5,-44.937],[58,-44.51628],[58.5,-44.08817],[59,-43.6527],[59.5,-43.20995],[60,-42.76],[60.5,-42.30298],[61,-41.83902],[61.5,-41.3683],[62,-40.89102],[62.5,-40.40741],[63,-39.91774],[63.5,-39.4223],[64,-38.92143],[64.5,-38.41549],[65,-37.90486],[65.5,-37.38998],[66,-36.87129],[66.5,-36.34928],[67,-35.82444],[67.5,-35.29729],[68,-34.76839],[68.5,-34.23827],[69,-33.70751],[69.5,-33.17666],[70,-32.64629],[70.5,-32.11696],[71,-31.58923],[71.5,-31.06363],[72,-30.54069],[72.5,-30.02091],[73,-29.50477],[73.5,-28.99273],[74,-28.48521],[74.5,-27.98261],[75,-27.48529],[75.5,-26.99359],[76,-26.50782],[76.5,-26.02823],[77,-25.55509],[77.5,-25.08858],[78,-24.62891],[78.5,-24.17621],[79,-23.73062],[79.5,-23.29223],[80,-22.86113],[80.5,-22.43737],[81,-22.021],[81.5,-21.61202],[82,-21.21044],[82.5,-20.81624],[83,-20.42941],[83.5,-20.04989],[84,-19.67765],[84.5,-19.31262],[85,-18.95474],[85.5,-18.60393],[86,-18.26011],[86.5,-17.9232],[87,-17.5931],[87.5,-17.26972],[88,-16.95297],[88.5,-16.64275],[89,-16.33895],[89.5,-16.04148],[90,-15.75023],[90.5,-15.46509],[91,-15.18598],[91.5,-14.91277],[92,-14.64538],[92.5,-14.38369],[93,-14.12762],[93.5,-13.87705],[94,-13.6319],[94.5,-13.39206],[95,-13.15743],[95.5,-12.92793],[96,-12.70347],[96.5,-12.48395],[97,-12.26928],[97.5,-12.05937],[98,-11.85415],[98.5,-11.65353],[99,-11.45742],[99.5,-11.26575],[100,-11.07843],[100.5,-10.8954],[101,-10.71658],[101.5,-10.54189],[102,-10.37126],[102.5,-10.20463],[103,-10.04192],[103.5,-9.88307],[104,-9.72802],[104.5,-9.57671],[105,-9.42906],[105.5,-9.28502],[106,-9.14454],[106.5,-9.00755],[107,-8.87401],[107.5,-8.74385],[108,-8.61702],[108.5,-8.49348],[109,-8.37316],[109.5,-8.25603],[110,-8.14203],[110.5,-8.03112],[110.51494,-8.0361]]}},{"type":"Feature","id":"+05000215:south:0","properties":{"id":"+05000215","year":500,"month":2,"day":15,"time_tdt":"11:06:27","type":"혼성일식","type_code":"H","saros":77,"gamma":-0.56159,"magnitude":1.00461,"greatest":{"lat":-42.24141,"lng":60.56689},"path_width_km":19.1,"duration":"00m22s","delta_t_seconds":5681.4,"catalog_number":5940,"source":"NASA Five Millennium Canon of Solar Eclipses","source_url":"https://eclipse.gsfc.nasa.gov/SEsearch/SEsearchmap.php?Ecl=%2B05000215","boundary":"south","name":"500-02-15 혼성일식"},"geometry":{"type":"LineString","coordinates":[[-47,-58.34454],[-46.5,-58.45809],[-46,-58.57023],[-45.5,-58.68093],[-45,-58.79021],[-44.5,-58.89806],[-44,-59.00449],[-43.5,-59.10948],[-43,-59.21305],[-42.5,-59.31519],[-42,-59.41591],[-41.5,-59.5152],[-41,-59.61307],[-40.5,-59.70951],[-40,-59.80453],[-39.5,-59.89813],[-39,-59.99031],[-38.5,-60.08107],[-38,-60.17042],[-37.5,-60.25835],[-37,-60.34487],[-36.5,-60.42998],[-36,-60.51368],[-35.5,-60.59597],[-35,-60.67686],[-34.5,-60.75635],[-34,-60.83443],[-33.5,-60.91112],[-33,-60.98641],[-32.5,-61.0603],[-32,-61.13281],[-31.5,-61.20392],[-31,-61.27365],[-30.5,-61.34199],[-30,-61.40895],[-29.5,-61.47453],[-29,-61.53873],[-28.5,-61.60155],[-28,-61.663],[-27.5,-61.72307],[-27,-61.78178],[-26.5,-61.83912],[-26,-61.89509],[-25.5,-61.9497],[-25,-62.00295],[-24.5,-62.05483],[-24,-62.10536],[-23.5,-62.15453],[-23,-62.20234],[-22.5,-62.2488],[-22,-62.29391],[-21.5,-62.33766],[-21,-62.38006],[-20.5,-62.42112],[-20,-62.46082],[-19.5,-62.49918],[-19,-62.53619],[-18.5,-62.57185],[-18,-62.60616],[-17.5,-62.63913],[-17,-62.67075],[-16.5,-62.70102],[-16,-62.72995],[-15.5,-62.75753],[-15,-62.78376],[-14.5,-62.80865],[-14,-62.83219],[-13.5,-62.85437],[-13,-62.8752],[-12.5,-62.89468],[-12,-62.91281],[-11.5,-62.92958],[-11,-62.94499],[-10.5,-62.95904],[-10,-62.97173],[-9.5,-62.98305],[-9,-62.99301],[-8.5,-63.00159],[-8,-63.0088],[-7.5,-63.01463],[-7,-63.01908],[-6.5,-63.02214],[-6,-63.02382],[-5.5,-63.02409],[-5,-63.02297],[-4.5,-63.02045],[-4,-63.01651],[-3.5,-63.01116],[-3,-63.00439],[-2.5,-62.9962],[-2,-62.98657],[-1.5,-62.9755],[-1,-62.96298],[-0.5,-62.94901],[0,-62.93358],[0.5,-62.91667],[1,-62.89829],[1.5,-62.87843],[2,-62.85707],[2.5,-62.8342],[3,-62.80982],[3.5,-62.78392],[4,-62.75648],[4.5,-62.7275],[5,-62.69696],[5.5,-62.66485],[6,-62.63117],[6.5,-62.59589],[7,-62.55901],[7.5,-62.52051],[8,-62.48038],[8.5,-62.4386],[9,-62.39516],[9.5,-62.35005],[10,-62.30325],[10.5,-62.25474],[11,-62.20451],[11.5,-62.15255],[12,-62.09882],[12.5,-62.04332],[13,-61.98602],[13.5,-61.92691],[14,-61.86597],[14.5,-61.80317],[15,-61.73851],[15.5,-61.67219],[16,-61.60613],[16.5,-61.53813],[17,-61.46817],[17.5,-61.39623],[18,-61.32229],[18.5,-61.24632],[19,-61.16828],[19.5,-61.08817],[20,-61.00594],[20.5,-60.92157],[21,-60.83504],[21.5,-60.7463],[22,-60.65534],[22.5,-60.56211],[23,-60.46659],[23.5,-60.36874],[24,-60.26852],[24.5,-60.16591],[25,-60.06086],[25.5,-59.95334],[26,-59.8433],[26.5,-59.73071],[27,-59.61553],[27.5,-59.49772],[28,-59.37722],[28.5,-59.254],[29,-59.12801],[29.5,-58.9992],[30,-58.86752],[30.5,-58.73293],[31,-58.59537],[31.5,-58.45478],[32,-58.31112],[32.5,-58.16433],[33,-58.01435],[33.5,-57.86111],[34,-57.70457],[34.5,-57.54465],[35,-57.3813],[35.5,-57.21444],[36,-57.044],[36.5,-56.86993],[37,-56.69214],[37.5,-56.51056],[38,-56.32512],[38.5,-56.13574],[39,-55.94233],[39.5,-55.74482],[40,-55.54313],[40.5,-55.33716],[41,-55.12683],[41.5,-54.91204],[42,-54.69272],[42.5,-54.46875],[43,-54.24005],[43.5,-54.00651],[44,-53.76803],[44.5,-53.52452],[45,-53.27587],[45.5,-53.02196],[46,-52.7627],[46.5,-52.49797],[47,-52.22766],[47.5,-51.95166],[48,-51.66986],[48.5,-51.38213],[49,-51.08837],[49.5,-50.78847],[50,-50.48229],[50.5,-50.16974],[51,-49.8507],[51.5,-49.52506],[52,-49.1927],[52.5,-48.85352],[53,-48.50743],[53.5,-48.15432],[54,-47.79409],[54.5,-47.42667],[55,-47.05198],[55.5,-46.66995],[56,-46.28051],[56.5,-45.88362],[57,-45.47925],[57.5,-45.06738],[58,-44.64801],[58.5,-44.22114],[59,-43.78682],[59.5,-43.3451],[60,-42.89607],[60.5,-42.43981],[61,-41.97648],[61.5,-41.50623],[62,-41.02925],[62.5,-40.54577],[63,-40.05603],[63.5,-39.56032],[64,-39.05896],[64.5,-38.55231],[65,-38.04075],[65.5,-37.5247],[66,-37.00459],[66.5,-36.48092],[67,-35.95417],[67.5,-35.42486],[68,-34.89354],[68.5,-34.36076],[69,-33.82708],[69.5,-33.29309],[70,-32.75934],[70.5,-32.22641],[71,-31.69486],[71.5,-31.16525],[72,-30.63812],[72.5,-30.11397],[73,-29.5933],[73.5,-29.07659],[74,-28.56428],[74.5,-28.05677],[75,-27.55444],[75.5,-27.05766],[76,-26.56673],[76.5,-26.08194],[77,-25.60355],[77.5,-25.13177],[78,-24.66681],[78.5,-24.20881],[79,-23.75793],[79.5,-23.31426],[80,-22.8779],[80.5,-22.44891],[81,-22.02733],[81.5,-21.6132],[82,-21.21434],[82.5,-20.82518],[83,-20.44333],[83.5,-20.06874],[84,-19.70137],[84.5,-19.34115],[85,-18.98801],[85.5,-18.64189],[86,-18.3027],[86.5,-17.97035],[87,-17.64475],[87.5,-17.32581],[88,-17.01344],[88.5,-16.70753],[89,-16.40799],[89.5,-16.1147],[90,-15.82759],[90.5,-15.54653],[91,-15.27143],[91.5,-15.00218],[92,-14.73869],[92.5,-14.48085],[93,-14.22857],[93.5,-13.98175],[94,-13.74028],[94.5,-13.50408],[95,-13.27305],[95.5,-13.0471],[96,-12.82613],[96.5,-12.61006],[97,-12.3988],[97.5,-12.19226],[98,-11.99036],[98.5,-11.79301],[99,-11.60015],[99.5,-11.41168],[100,-11.22752],[100.5,-11.04762],[101,-10.87188],[101.5,-10.70025],[102,-10.53264],[102.5,-10.369],[103,-10.20925],[103.5,-10.05332],[104,-9.90116],[104.5,-9.75271],[105,-9.60789],[105.5,-9.46666],[106,-9.32895],[106.5,-9.19471],[107,-9.06388],[107.5,-8.93642],[108,-8.81226],[108.5,-8.69136],[109,-8.57366],[109.5,-8.45912],[110,-8.3477],[110.5,-8.23933]]}},{"type":"Feature","id":"+05000811:north:0","properties":{"id":"+05000811","year":500,"month":8,"day":11,"time_tdt":"00:35:02","type":"금환일식","type_code":"A","saros":82,"gamma":0.54583,"magnitude":0.95821,"greatest":{"lat":44.65038,"lng":-146.13959},"path_width_km":179.7,"duration":"03m50s","delta_t_seconds":5676.6,"catalog_number":5941,"source":"NASA Five Millennium Canon of Solar Eclipses","source_url":"https://eclipse.gsfc.nasa.gov/SEsearch/SEsearchmap.php?Ecl=%2B05000811","boundary":"north","name":"500-08-11 금환일식"},"geometry":{"type":"LineString","coordinates":[[106.75,55.47942],[107,55.55142],[106.5,55.40707],[107.5,55.69435],[108,55.83584],[108.5,55.97588],[109,56.11448],[109.5,56.25161],[110,56.38728],[110.5,56.52148],[111,56.65421],[111.5,56.78545],[112,56.91522],[112.5,57.04349],[113,57.17028],[113.5,57.29557],[114,57.41936],[114.5,57.54165],[115,57.66244],[115.5,57.78172],[116,57.89949],[116.5,58.01576],[117,58.13051],[117.5,58.24375],[118,58.35548],[118.5,58.46569],[119,58.57439],[119.5,58.68157],[120,58.78724],[120.5,58.89139],[121,58.99402],[121.5,59.09515],[122,59.19475],[122.5,59.29285],[123,59.38943],[123.5,59.4845],[124,59.57806],[124.5,59.6701],[125,59.76065],[125.5,59.84968],[126,59.93721],[126.5,60.02324],[127,60.10776],[127.5,60.19079],[128,60.27231],[128.5,60.35234],[129,60.43088],[129.5,60.50792],[130,60.58348],[130.5,60.65755],[131,60.73013],[131.5,60.80123],[132,60.87084],[132.5,60.93898],[133,61.00564],[133.5,61.07082],[134,61.13453],[134.5,61.19677],[135,61.25753],[135.5,61.31683],[136,61.37467],[136.5,61.43104],[137,61.48595],[137.5,61.53939],[138,61.59138],[138.5,61.64191],[139,61.69098],[139.5,61.73859],[140,61.78476],[140.5,61.82947],[141,61.87272],[141.5,61.91453],[142,61.95488],[142.5,61.99378],[143,62.03123],[143.5,62.06723],[144,62.10178],[144.5,62.13488],[145,62.16653],[145.5,62.19672],[146,62.22547],[146.5,62.25276],[147,62.27859],[147.5,62.30298],[148,62.3259],[148.5,62.34737],[149,62.36737],[149.5,62.38591],[150,62.40299],[150.5,62.4186],[151,62.43274],[151.5,62.4454],[152,62.45659],[152.5,62.4663],[153,62.47452],[153.5,62.48125],[154,62.48649],[154.5,62.49024],[155,62.49248],[155.5,62.49321],[156,62.49243],[156.5,62.49013],[157,62.4863],[157.5,62.48094],[158,62.47405],[158.5,62.4656],[159,62.45561],[159.5,62.44405],[160,62.43092],[160.5,62.41621],[161,62.39991],[161.5,62.38202],[162,62.36252],[162.5,62.34141],[163,62.31866],[163.5,62.29428],[164,62.26825],[164.5,62.24056],[165,62.21119],[165.5,62.18013],[166,62.14738],[166.5,62.11291],[167,62.07671],[167.5,62.03877],[168,61.99907],[168.5,61.95759],[169,61.91433],[169.5,61.86925],[170,61.82235],[170.5,61.77361],[171,61.723],[171.5,61.67052],[172,61.61613],[172.5,61.55982],[173,61.50156],[173.5,61.44134],[174,61.37913],[174.5,61.3149],[175,61.24865],[175.5,61.18032],[176,61.10992],[176.5,61.03739],[177,60.96273],[177.5,60.8859],[178,60.80686],[178.5,60.7256],[179,60.64208],[179.5,60.55627],[180,60.46813]]}},{"type":"Feature","id":"+05000811:north:1","properties":{"id":"+05000811","year":500,"month":8,"day":11,"time_tdt":"00:35:02","type":"금환일식","type_code":"A","saros":82,"gamma":0.54583,"magnitude":0.95821,"greatest":{"lat":44.65038,"lng":-146.13959},"path_width_km":179.7,"duration":"03m50s","delta_t_seconds":5676.6,"catalog_number":5941,"source":"NASA Five Millennium Canon of Solar Eclipses","source_url":"https://eclipse.gsfc.nasa.gov/SEsearch/SEsearchmap.php?Ecl=%2B05000811","boundary":"north","name":"500-08-11 금환일식"},"geometry":{"type":"LineString","coordinates":[[-179.5,60.37763],[-179,60.28474],[-178.5,60.18941],[-178,60.09162],[-177.5,59.99132],[-177,59.88848],[-176.5,59.78305],[-176,59.67499],[-175.5,59.56427],[-175,59.45082],[-174.5,59.33461],[-174,59.21559],[-173.5,59.09372],[-173,58.96893],[-172.5,58.84119],[-172,58.71043],[-171.5,58.5766],[-171,58.43965],[-170.5,58.29951],[-170,58.15613],[-169.5,58.00945],[-169,57.85939],[-168.5,57.70591],[-168,57.54892],[-167.5,57.38836],[-167,57.22415],[-166.5,57.05623],[-166,56.88452],[-165.5,56.70894],[-165,56.52942],[-164.5,56.34586],[-164,56.15818],[-163.5,55.96631],[-163,55.77014],[-162.5,55.56959],[-162,55.36456],[-161.5,55.15497],[-161,54.9407],[-160.5,54.72166],[-160,54.49775],[-159.5,54.26885],[-159,54.03487],[-158.5,53.7957],[-158,53.55121],[-157.5,53.3013],[-157,53.04586],[-156.5,52.78475],[-156,52.51787],[-155.5,52.2451],[-155,51.96631],[-154.5,51.68138],[-154,51.39019],[-153.5,51.09261],[-153,50.78853],[-152.5,50.47783],[-152,50.16038],[-151.5,49.83606],[-151,49.50477],[-150.5,49.1664],[-150,48.82084],[-149.5,48.468],[-149,48.10777],[-148.5,47.74009],[-148,47.36487],[-147.5,46.98205],[-147,46.59159],[-146.5,46.19346],[-146,45.78763],[-145.5,45.37411],[-145,44.95291],[-144.5,44.52409],[-144,44.0877],[-143.5,43.64385],[-143,43.19265],[-142.5,42.73426],[-142,42.26886],[-141.5,41.79666],[-141,41.31792],[-140.5,40.83292],[-140,40.34198],[-139.5,39.84546],[-139,39.34374],[-138.5,38.83725],[-138,38.32644],[-137.5,37.8118],[-137,37.29383],[-136.5,36.77308],[-136,36.25009],[-135.5,35.72544],[-135,35.1997],[-134.5,34.67347],[-134,34.14732],[-133.5,33.62184],[-133,33.09761],[-132.5,32.57519],[-132,32.05512],[-131.5,31.53793],[-131,31.02411],[-130.5,30.51414],[-130,30.00847],[-129.5,29.50749],[-129,29.01159],[-128.5,28.52112],[-128,28.03639],[-127.5,27.55767],[-127,27.08521],[-126.5,26.61923],[-126,26.15991],[-125.5,25.7074],[-125,25.26183],[-124.5,24.8233],[-124,24.39189],[-123.5,23.96766],[-123,23.55064],[-122.5,23.14084],[-122,22.73827],[-121.5,22.34291],[-121,21.95473],[-120.5,21.57369],[-120,21.19974],[-119.5,20.83281],[-119,20.47285],[-118.5,20.11977],[-118,19.77349],[-117.5,19.43393],[-117,19.10099],[-116.5,18.77458],[-116,18.4546],[-115.5,18.14096],[-115,17.83355],[-114.5,17.53227],[-114,17.23702],[-113.5,16.9477],[-113,16.6642],[-112.5,16.38642],[-112,16.11427],[-111.5,15.84764],[-111,15.58643],[-110.5,15.33054],[-110,15.07988],[-109.5,14.83436],[-109,14.59387],[-108.5,14.35833],[-108,14.12765],[-107.5,13.90173],[-107,13.68049],[-106.5,13.46385],[-106,13.25172],[-105.5,13.04403],[-105,12.84068],[-104.5,12.64161],[-104,12.44673],[-103.5,12.25598],[-103,12.06928],[-102.5,11.88656],[-102,11.70775],[-101.5,11.53278],[-101,11.36159],[-100.5,11.19411],[-100,11.03029],[-99.5,10.87005],[-99,10.71334],[-98.5,10.56011],[-98,10.41029],[-97.5,10.26384],[-97,10.12068],[-96.5,9.98079],[-96,9.84409],[-95.64258,9.74831]]}},{"type":"Feature","id":"+05000811:center:0","properties":{"id":"+05000811","year":500,"month":8,"day":11,"time_tdt":"00:35:02","type":"금환일식","type_code":"A","saros":82,"gamma":0.54583,"magnitude":0.95821,"greatest":{"lat":44.65038,"lng":-146.13959},"path_width_km":179.7,"duration":"03m50s","delta_t_seconds":5676.6,"catalog_number":5941,"source":"NASA Five Millennium Canon of Solar Eclipses","source_url":"https://eclipse.gsfc.nasa.gov/SEsearch/SEsearchmap.php?Ecl=%2B05000811","boundary":"center","name":"500-08-11 금환일식"},"geometry":{"type":"LineString","coordinates":[[107.61633,54.41812],[108,54.5189],[108.5,54.66372],[109,54.8071],[109.5,54.94903],[110,55.08952],[110.5,55.22854],[111,55.3661],[111.5,55.50219],[112,55.6368],[112.5,55.76992],[113,55.90156],[113.5,56.03171],[114,56.16036],[114.5,56.2875],[115,56.41314],[115.5,56.53728],[116,56.65989],[116.5,56.781],[117,56.90058],[117.5,57.01864],[118,57.13517],[118.5,57.25018],[119,57.36367],[119.5,57.47562],[120,57.58604],[120.5,57.69493],[121,57.80229],[121.5,57.90811],[122,58.0124],[122.5,58.11516],[123,58.21638],[123.5,58.31606],[124,58.41421],[124.5,58.51083],[125,58.60591],[125.5,58.69946],[126,58.79148],[126.5,58.88196],[127,58.97092],[127.5,59.05834],[128,59.14424],[128.5,59.22861],[129,59.31145],[129.5,59.39277],[130,59.47256],[130.5,59.55083],[131,59.62758],[131.5,59.70281],[132,59.77652],[132.5,59.84872],[133,59.9194],[133.5,59.98857],[134,60.05623],[134.5,60.12237],[135,60.18701],[135.5,60.25014],[136,60.31176],[136.5,60.37188],[137,60.4305],[137.5,60.48761],[138,60.54322],[138.5,60.59734],[139,60.64995],[139.5,60.70107],[140,60.75068],[140.5,60.7988],[141,60.84543],[141.5,60.89056],[142,60.93419],[142.5,60.97633],[143,61.01697],[143.5,61.05612],[144,61.09377],[144.5,61.12993],[145,61.16459],[145.5,61.19775],[146,61.22942],[146.5,61.25958],[147,61.28825],[147.5,61.31541],[148,61.34107],[148.5,61.36523],[149,61.38788],[149.5,61.40901],[150,61.42864],[150.5,61.44675],[151,61.46334],[151.5,61.47842],[152,61.49196],[152.5,61.50398],[153,61.51447],[153.5,61.52342],[154,61.53082],[154.5,61.53668],[155,61.54099],[155.5,61.54375],[156,61.54494],[156.5,61.54456],[157,61.54261],[157.5,61.53907],[158,61.53395],[158.5,61.52723],[159,61.51891],[159.5,61.50897],[160,61.49742],[160.5,61.48423],[161,61.46941],[161.5,61.45294],[162,61.43481],[162.5,61.41501],[163,61.39353],[163.5,61.37036],[164,61.34549],[164.5,61.31891],[165,61.29059],[165.5,61.26054],[166,61.22873],[166.5,61.19515],[167,61.15979],[167.5,61.12264],[168,61.08366],[168.5,61.04286],[169,61.00021],[169.5,60.9557],[170,60.9093],[170.5,60.861],[171,60.81078],[171.5,60.75862],[172,60.7045],[172.5,60.64839],[173,60.59029],[173.5,60.53015],[174,60.46796],[174.5,60.4037],[175,60.33734],[175.5,60.26885],[176,60.19821],[176.5,60.12539],[177,60.05036],[177.5,59.9731],[178,59.89356],[178.5,59.81173],[179,59.72757],[179.5,59.64104],[180,59.55212]]}},{"type":"Feature","id":"+05000811:center:1","properties":{"id":"+05000811","year":500,"month":8,"day":11,"time_tdt":"00:35:02","type":"금환일식","type_code":"A","saros":82,"gamma":0.54583,"magnitude":0.95821,"greatest":{"lat":44.65038,"lng":-146.13959},"path_width_km":179.7,"duration":"03m50s","delta_t_seconds":5676.6,"catalog_number":5941,"source":"NASA Five Millennium Canon of Solar Eclipses","source_url":"https://eclipse.gsfc.nasa.gov/SEsearch/SEsearchmap.php?Ecl=%2B05000811","boundary":"center","name":"500-08-11 금환일식"},"geometry":{"type":"LineString","coordinates":[[-179.5,59.46076],[-179,59.36693],[-178.5,59.2706],[-178,59.17172],[-177.5,59.07025],[-177,58.96616],[-176.5,58.8594],[-176,58.74993],[-175.5,58.63771],[-175,58.52267],[-174.5,58.40479],[-174,58.28401],[-173.5,58.16028],[-173,58.03355],[-172.5,57.90376],[-172,57.77086],[-171.5,57.63479],[-171,57.49549],[-170.5,57.35291],[-170,57.20697],[-169.5,57.05762],[-169,56.90479],[-168.5,56.74842],[-168,56.58842],[-167.5,56.42473],[-167,56.25728],[-166.5,56.08599],[-166,55.91078],[-165.5,55.73157],[-165,55.54827],[-164.5,55.36081],[-164,55.16909],[-163.5,54.97302],[-163,54.77251],[-162.5,54.56747],[-162,54.3578],[-161.5,54.14339],[-161,53.92416],[-160.5,53.69998],[-160,53.47076],[-159.5,53.23639],[-159,52.99675],[-158.5,52.75173],[-158,52.50122],[-157.5,52.2451],[-157,51.98324],[-156.5,51.71553],[-156,51.44185],[-155.5,51.16207],[-155,50.87606],[-154.5,50.58371],[-154,50.28489],[-153.5,49.97947],[-153,49.66734],[-152.5,49.34837],[-152,49.02245],[-151.5,48.68945],[-151,48.34927],[-150.5,48.0018],[-150,47.64695],[-149.5,47.28462],[-149,46.91472],[-148.5,46.53719],[-148,46.15196],[-147.5,45.75898],[-147,45.35823],[-146.5,44.94968],[-146,44.53335],[-145.5,44.10924],[-145,43.67741],[-144.5,43.23794],[-144,42.79091],[-143.5,42.33646],[-143,41.87474],[-142.5,41.40595],[-142,40.93031],[-141.5,40.44808],[-141,39.95955],[-140.5,39.46505],[-140,38.96495],[-139.5,38.45964],[-139,37.94956],[-138.5,37.43518],[-138,36.917],[-137.5,36.39552],[-137,35.8713],[-136.5,35.34491],[-136,34.81691],[-135.5,34.28791],[-135,33.75848],[-134.5,33.22922],[-134,32.70073],[-133.5,32.17358],[-133,31.64833],[-132.5,31.12554],[-132,30.60571],[-131.5,30.08936],[-131,29.57695],[-130.5,29.06892],[-130,28.56568],[-129.5,28.0676],[-129,27.57502],[-128.5,27.08824],[-128,26.60755],[-127.5,26.13318],[-127,25.66534],[-126.5,25.2042],[-126,24.74992],[-125.5,24.30261],[-125,23.86238],[-124.5,23.42929],[-124,23.00339],[-123.5,22.58472],[-123,22.17329],[-122.5,21.76909],[-122,21.37211],[-121.5,20.9823],[-121,20.59964],[-120.5,20.22406],[-120,19.8555],[-119.5,19.49389],[-119,19.13916],[-118.5,18.79121],[-118,18.44996],[-117.5,18.11532],[-117,17.7872],[-116.5,17.46549],[-116,17.1501],[-115.5,16.84092],[-115,16.53785],[-114.5,16.2408],[-114,15.94965],[-113.5,15.66431],[-113,15.38467],[-112.5,15.11063],[-112,14.8421],[-111.5,14.57897],[-111,14.32114],[-110.5,14.06853],[-110,13.82102],[-109.5,13.57854],[-109,13.34099],[-108.5,13.10827],[-108,12.88031],[-107.5,12.657],[-107,12.43828],[-106.5,12.22406],[-106,12.01425],[-105.5,11.80877],[-105,11.60756],[-104.5,11.41053],[-104,11.2176],[-103.5,11.02872],[-103,10.8438],[-102.5,10.66278],[-102,10.48558],[-101.5,10.31216],[-101,10.14243],[-100.5,9.97635],[-100,9.81384],[-99.5,9.65486],[-99,9.49933],[-98.5,9.34721],[-98,9.19845],[-97.5,9.05297],[-97,8.91075],[-96.5,8.77172],[-96.27265,8.71238]]}},{"type":"Feature","id":"+05000811:south:0","properties":{"id":"+05000811","year":500,"month":8,"day":11,"time_tdt":"00:35:02","type":"금환일식","type_code":"A","saros":82,"gamma":0.54583,"magnitude":0.95821,"greatest":{"lat":44.65038,"lng":-146.13959},"path_width_km":179.7,"duration":"03m50s","delta_t_seconds":5676.6,"catalog_number":5941,"source":"NASA Five Millennium Canon of Solar Eclipses","source_url":"https://eclipse.gsfc.nasa.gov/SEsearch/SEsearchmap.php?Ecl=%2B05000811","boundary":"south","name":"500-08-11 금환일식"},"geometry":{"type":"LineString","coordinates":[[108.77344,53.4424],[109,53.50932],[109.5,53.65595],[110,53.80114],[110.5,53.94489],[111,54.08719],[111.5,54.22803],[112,54.3674],[112.5,54.5053],[113,54.64171],[113.5,54.77664],[114,54.91007],[114.5,55.04201],[115,55.17244],[115.5,55.30136],[116,55.42876],[116.5,55.55465],[117,55.67901],[117.5,55.80185],[118,55.92315],[118.5,56.04292],[119,56.16116],[119.5,56.27785],[120,56.393],[120.5,56.5066],[121,56.61866],[121.5,56.72917],[122,56.83813],[122.5,56.94553],[123,57.05139],[123.5,57.15568],[124,57.25842],[124.5,57.35961],[125,57.45924],[125.5,57.55731],[126,57.65383],[126.5,57.74878],[127,57.84218],[127.5,57.93402],[128,58.02431],[128.5,58.11304],[129,58.20021],[129.5,58.28583],[130,58.36989],[130.5,58.4524],[131,58.53335],[131.5,58.61275],[132,58.6906],[132.5,58.7669],[133,58.84165],[133.5,58.91485],[134,58.9865],[134.5,59.0566],[135,59.12516],[135.5,59.19217],[136,59.25763],[136.5,59.32156],[137,59.38394],[137.5,59.44478],[138,59.50407],[138.5,59.56183],[139,59.61804],[139.5,59.67272],[140,59.72586],[140.5,59.77746],[141,59.82752],[141.5,59.87604],[142,59.92302],[142.5,59.96846],[143,60.01237],[143.5,60.05473],[144,60.09556],[144.5,60.13485],[145,60.17259],[145.5,60.2088],[146,60.24346],[146.5,60.27657],[147,60.30814],[147.5,60.33816],[148,60.36664],[148.5,60.39356],[149,60.41892],[149.5,60.44274],[150,60.46499],[150.5,60.48568],[151,60.5048],[151.5,60.52236],[152,60.53834],[152.5,60.55275],[153,60.56558],[153.5,60.57682],[154,60.58648],[154.5,60.59454],[155,60.601],[155.5,60.60585],[156,60.60909],[156.5,60.61072],[157,60.61072],[157.5,60.60909],[158,60.60582],[158.5,60.60091],[159,60.59434],[159.5,60.58611],[160,60.5762],[160.5,60.56462],[161,60.55135],[161.5,60.53638],[162,60.5197],[162.5,60.50129],[163,60.48116],[163.5,60.45929],[164,60.43565],[164.5,60.41025],[165,60.38307],[165.5,60.3541],[166,60.32331],[166.5,60.29071],[167,60.25626],[167.5,60.21996],[168,60.1818],[168.5,60.14174],[169,60.09978],[169.5,60.0559],[170,60.01008],[170.5,59.9623],[171,59.91254],[171.5,59.86077],[172,59.80699],[172.5,59.75117],[173,59.69327],[173.5,59.63329],[174,59.5712],[174.5,59.50697],[175,59.44057],[175.5,59.37198],[176,59.30117],[176.5,59.22812],[177,59.15279],[177.5,59.07515],[178,58.99518],[178.5,58.91284],[179,58.8281],[179.5,58.74091],[180,58.65126]]}},{"type":"Feature","id":"+05000811:south:1","properties":{"id":"+05000811","year":500,"month":8,"day":11,"time_tdt":"00:35:02","type":"금환일식","type_code":"A","saros":82,"gamma":0.54583,"magnitude":0.95821,"greatest":{"lat":44.65038,"lng":-146.13959},"path_width_km":179.7,"duration":"03m50s","delta_t_seconds":5676.6,"catalog_number":5941,"source":"NASA Five Millennium Canon of Solar Eclipses","source_url":"https://eclipse.gsfc.nasa.gov/SEsearch/SEsearchmap.php?Ecl=%2B05000811","boundary":"south","name":"500-08-11 금환일식"},"geometry":{"type":"LineString","coordinates":[[-179.5,58.5591],[-179,58.46439],[-178.5,58.3671],[-178,58.26718],[-177.5,58.1646],[-177,58.05931],[-176.5,57.95126],[-176,57.84042],[-175.5,57.72674],[-175,57.61017],[-174.5,57.49065],[-174,57.36815],[-173.5,57.24259],[-173,57.11394],[-172.5,56.98214],[-172,56.84713],[-171.5,56.70884],[-171,56.56722],[-170.5,56.42221],[-170,56.27374],[-169.5,56.12174],[-169,55.96615],[-168.5,55.80689],[-168,55.64389],[-167.5,55.47708],[-167,55.30638],[-166.5,55.13171],[-166,54.95298],[-165.5,54.77013],[-165,54.58304],[-164.5,54.39165],[-164,54.19586],[-163.5,53.99557],[-163,53.79068],[-162.5,53.58111],[-162,53.36675],[-161.5,53.14749],[-161,52.92322],[-160.5,52.69385],[-160,52.45926],[-159.5,52.21933],[-159,51.97396],[-158.5,51.72301],[-158,51.46638],[-157.5,51.20395],[-157,50.93558],[-156.5,50.66116],[-156,50.38055],[-155.5,50.09364],[-155,49.8003],[-154.5,49.5004],[-154,49.19382],[-153.5,48.88042],[-153,48.5601],[-152.5,48.23272],[-152,47.89817],[-151.5,47.55634],[-151,47.20712],[-150.5,46.85041],[-150,46.48611],[-149.5,46.11415],[-149,45.73445],[-148.5,45.34694],[-148,44.95158],[-147.5,44.54833],[-147,44.13719],[-146.5,43.71815],[-146,43.29124],[-145.5,42.85651],[-145,42.41404],[-144.5,41.96393],[-144,41.50631],[-143.5,41.04134],[-143,40.56923],[-142.5,40.0902],[-142,39.60452],[-141.5,39.11249],[-141,38.61446],[-140.5,38.11079],[-140,37.6019],[-139.5,37.08823],[-139,36.57026],[-138.5,36.0485],[-138,35.52348],[-137.5,34.99575],[-137,34.46588],[-136.5,33.93447],[-136,33.4021],[-135.5,32.86939],[-135,32.33692],[-134.5,31.8053],[-134,31.2751],[-133.5,30.74689],[-133,30.22122],[-132.5,29.69861],[-132,29.17956],[-131.5,28.66454],[-131,28.15398],[-130.5,27.64829],[-130,27.14784],[-129.5,26.65296],[-129,26.16396],[-128.5,25.6811],[-128,25.20461],[-127.5,24.73471],[-127,24.27156],[-126.5,23.8153],[-126,23.36606],[-125.5,22.92391],[-125,22.48894],[-124.5,22.06119],[-124,21.64068],[-123.5,21.22742],[-123,20.8214],[-122.5,20.42261],[-122,20.031],[-121.5,19.64653],[-121,19.26914],[-120.5,18.89877],[-120,18.53534],[-119.5,18.17878],[-119,17.829],[-118.5,17.48591],[-118,17.14942],[-117.5,16.81942],[-117,16.49583],[-116.5,16.17854],[-116,15.86745],[-115.5,15.56246],[-115,15.26347],[-114.5,14.97037],[-114,14.68305],[-113.5,14.40143],[-113,14.12539],[-112.5,13.85484],[-112,13.58967],[-111.5,13.3298],[-111,13.07512],[-110.5,12.82553],[-110,12.58095],[-109.5,12.34129],[-109,12.10645],[-108.5,11.87635],[-108,11.65089],[-107.5,11.43],[-107,11.2136],[-106.5,11.00159],[-106,10.79391],[-105.5,10.59048],[-105,10.39122],[-104.5,10.19605],[-104,10.00491],[-103.5,9.81773],[-103,9.63443],[-102.5,9.45495],[-102,9.27923],[-101.5,9.1072],[-101,8.9388],[-100.5,8.77397],[-100,8.61265],[-99.5,8.45478],[-99,8.30031],[-98.5,8.14918],[-98,8.00135],[-97.5,7.85674],[-97,7.71533],[-96.89453,7.6859]]}}],"attribution":"Eclipse Predictions by Fred Espenak and Jean Meeus (NASA's GSFC)","generated_at":"2026-09-23T01:44:51.752Z"}
