{"type":"FeatureCollection","year":525,"events":[{"id":"+05250408","year":525,"month":4,"day":8,"time_tdt":"21:08:45","type":"금환일식","type_code":"A","saros":76,"gamma":0.7309,"magnitude":0.9369,"greatest":{"lat":52.38905,"lng":-134.33447},"path_width_km":341.7,"duration":"06m01s","delta_t_seconds":5434.5,"catalog_number":6001,"source":"NASA Five Millennium Canon of Solar Eclipses","source_url":"https://eclipse.gsfc.nasa.gov/SEsearch/SEsearchmap.php?Ecl=%2B05250408"},{"id":"+05251002","year":525,"month":10,"day":2,"time_tdt":"20:48:13","type":"개기일식","type_code":"T","saros":81,"gamma":-0.65214,"magnitude":1.04687,"greatest":{"lat":-43.0678,"lng":-127.73328},"path_width_km":204.6,"duration":"03m35s","delta_t_seconds":5429.7,"catalog_number":6002,"source":"NASA Five Millennium Canon of Solar Eclipses","source_url":"https://eclipse.gsfc.nasa.gov/SEsearch/SEsearchmap.php?Ecl=%2B05251002"}],"features":[{"type":"Feature","id":"+05250408:north:0","properties":{"id":"+05250408","year":525,"month":4,"day":8,"time_tdt":"21:08:45","type":"금환일식","type_code":"A","saros":76,"gamma":0.7309,"magnitude":0.9369,"greatest":{"lat":52.38905,"lng":-134.33447},"path_width_km":341.7,"duration":"06m01s","delta_t_seconds":5434.5,"catalog_number":6001,"source":"NASA Five Millennium Canon of Solar Eclipses","source_url":"https://eclipse.gsfc.nasa.gov/SEsearch/SEsearchmap.php?Ecl=%2B05250408","boundary":"north","name":"525-04-08 금환일식"},"geometry":{"type":"LineString","coordinates":[[170.03516,32.09333],[170.5,32.15715],[171,32.22777],[171.5,32.30047],[172,32.37527],[172.5,32.4522],[173,32.53128],[173.5,32.61255],[174,32.69603],[174.5,32.78174],[175,32.86972],[175.5,32.95999],[176,33.05258],[176.5,33.14752],[177,33.24485],[177.5,33.34458],[178,33.44675],[178.5,33.55139],[179,33.65853],[179.5,33.7682],[180,33.88043]]}},{"type":"Feature","id":"+05250408:north:1","properties":{"id":"+05250408","year":525,"month":4,"day":8,"time_tdt":"21:08:45","type":"금환일식","type_code":"A","saros":76,"gamma":0.7309,"magnitude":0.9369,"greatest":{"lat":52.38905,"lng":-134.33447},"path_width_km":341.7,"duration":"06m01s","delta_t_seconds":5434.5,"catalog_number":6001,"source":"NASA Five Millennium Canon of Solar Eclipses","source_url":"https://eclipse.gsfc.nasa.gov/SEsearch/SEsearchmap.php?Ecl=%2B05250408","boundary":"north","name":"525-04-08 금환일식"},"geometry":{"type":"LineString","coordinates":[[-179.5,33.99525],[-179,34.11269],[-178.5,34.23279],[-178,34.35556],[-177.5,34.48106],[-177,34.60929],[-176.5,34.7403],[-176,34.87412],[-175.5,35.01078],[-175,35.1503],[-174.5,35.29272],[-174,35.43806],[-173.5,35.58636],[-173,35.73764],[-172.5,35.89193],[-172,36.04926],[-171.5,36.20965],[-171,36.37312],[-170.5,36.53971],[-170,36.70942],[-169.5,36.88229],[-169,37.05834],[-168.5,37.23757],[-168,37.42001],[-167.5,37.60566],[-167,37.79455],[-166.5,37.98667],[-166.5,37.98668],[-166,38.18205],[-165.5,38.38067],[-165,38.58254],[-164.5,38.78766],[-164,38.99602],[-163.5,39.20761],[-163,39.42242],[-162.5,39.64044],[-162.5,39.64043],[-162,39.86163],[-161.5,40.08597],[-161,40.31344],[-160.5,40.544],[-160,40.7776],[-159.5,41.01421],[-159,41.25376],[-158.5,41.49621],[-158,41.74149],[-157.5,41.98954],[-157.5,41.98953],[-157,42.24027],[-156.5,42.49361],[-156,42.74948],[-155.5,43.00777],[-155,43.26841],[-154.5,43.53127],[-154,43.79626],[-153.5,44.06326],[-153,44.33215],[-152.5,44.6028],[-152,44.87509],[-151.5,45.14889],[-151,45.42405],[-150.5,45.70043],[-150,45.97789],[-149.5,46.25629],[-149,46.53546],[-148.5,46.81527],[-148,47.09555],[-147.5,47.37616],[-147,47.65694],[-146.5,47.93773],[-146,48.21838],[-145.5,48.49875],[-145,48.77868],[-144.5,49.05802],[-144,49.33663],[-143.5,49.61436],[-143,49.89109],[-142.5,50.16666],[-142,50.44097],[-141.5,50.71387],[-141,50.98525],[-140.5,51.25499],[-140,51.52299],[-139.5,51.78914],[-139,52.05334],[-138.5,52.31549],[-138,52.57552],[-137.5,52.83333],[-137,53.08885],[-136.5,53.34201],[-136,53.59275],[-135.5,53.841],[-135,54.08671],[-134.5,54.32984],[-134,54.57033],[-133.5,54.80815],[-133,55.04326],[-132.5,55.27563],[-132.5,55.27564],[-132,55.50525],[-131.5,55.73207],[-131,55.9561],[-130.5,56.1773],[-130,56.39568],[-129.5,56.61123],[-129,56.82393],[-128.5,57.0338],[-128,57.24082],[-127.5,57.44501],[-127,57.64637],[-126.5,57.84491],[-126,58.04064],[-125.5,58.23357],[-125,58.42372],[-124.5,58.6111],[-124,58.79573],[-123.5,58.97762],[-123,59.15681],[-122.5,59.3333],[-122.5,59.33331],[-122,59.50713],[-121.5,59.67831],[-121,59.84686],[-120.5,60.01282],[-120,60.1762],[-119.5,60.33703],[-119,60.49533],[-118.5,60.65114],[-118,60.80448],[-117.5,60.95537],[-117,61.10384],[-116.5,61.24992],[-116,61.39363],[-115.5,61.53501],[-115,61.67407],[-114.5,61.81085],[-114,61.94537],[-114,61.94538],[-113.5,62.07767],[-113,62.20775],[-112.5,62.33566],[-112,62.46142],[-111.5,62.58504],[-111,62.70657],[-110.5,62.82603],[-110,62.94343],[-109.5,63.05881],[-109,63.17219],[-108.5,63.28359],[-108,63.39305],[-107.5,63.50057],[-107,63.60619],[-106.5,63.70993],[-106,63.81181],[-105.5,63.91185],[-105,64.01008],[-104.5,64.10652],[-104,64.20119],[-103.5,64.29411],[-103,64.38529],[-102.5,64.47477],[-102,64.56256],[-101.5,64.64869],[-101,64.73316],[-100.5,64.816],[-100,64.89723],[-99.5,64.97686],[-99,65.05492],[-98.5,65.13142],[-98,65.20638],[-97.5,65.27982],[-97,65.35175],[-96.5,65.42219],[-96,65.49115],[-95.5,65.55865],[-95,65.62471],[-94.5,65.68934],[-94,65.75255],[-93.5,65.81437],[-93,65.8748],[-92.5,65.93386],[-92,65.99155],[-91.5,66.04791],[-91,66.10293],[-90.5,66.15663],[-90,66.20902],[-89.5,66.26012],[-89,66.30994],[-88.5,66.35848],[-88,66.40576],[-87.5,66.4518],[-87,66.49659],[-86.5,66.54016],[-86,66.58251],[-85.5,66.62365],[-85,66.6636],[-84.5,66.70236],[-84,66.73994],[-83.5,66.77635],[-83,66.8116],[-82.5,66.84569],[-82,66.87865],[-81.5,66.91047],[-81,66.94116],[-80.5,66.97074],[-80,66.9992],[-79.5,67.02656],[-79,67.05283],[-78.5,67.078],[-78,67.1021],[-78,67.10209],[-77.5,67.12511],[-77,67.14706],[-76.5,67.16795],[-76,67.18778],[-75.5,67.20656],[-75,67.22429],[-74.5,67.24099],[-74,67.25665],[-73.5,67.27129],[-73,67.2849],[-72.5,67.2975],[-72,67.30908],[-72,67.30909],[-71.5,67.31966],[-71,67.32923],[-71,67.32924],[-70.5,67.33781],[-70,67.34539],[-69.5,67.35198],[-69,67.35758],[-69,67.35759],[-68.5,67.36221],[-68,67.36585],[-67.5,67.36852],[-67,67.37022],[-66.5,67.37095],[-66,67.37072],[-65.5,67.36952],[-65,67.36737],[-64.5,67.36426],[-64,67.3602],[-63.5,67.35519],[-63,67.34924],[-62.5,67.34234],[-62,67.33449],[-62,67.3345],[-61.5,67.32571],[-61,67.31599],[-60.5,67.30534],[-58.5,67.25314],[-60,67.29375],[-59.5,67.28123],[-59,67.26778],[-58.5,67.2534],[-58,67.2381],[-57.5,67.22187],[-57.5,67.22188],[-57,67.20472],[-57,67.20473],[-56.5,67.18665],[-56,67.16766],[-55.5,67.14775],[-55,67.12693],[-54.5,67.10518],[-54,67.08252],[-53.5,67.05895],[-53,67.03447],[-52.5,67.00907],[-52,66.98276],[-51.5,66.95554],[-51,66.92741],[-50.5,66.89837],[-50,66.86843],[-49.5,66.83757],[-49,66.80581],[-48.5,66.77315],[-48,66.73957],[-47.5,66.7051],[-47,66.66971],[-46.5,66.63343],[-46,66.59624],[-45.5,66.55814],[-45,66.51914],[-44.5,66.47924],[-44,66.43844],[-43.5,66.39674],[-43,66.35413],[-42.5,66.31063],[-42,66.26622],[-41.5,66.22091],[-41,66.1747],[-40.5,66.12759],[-40,66.07958],[-39.5,66.03068],[-39,65.98087],[-38.5,65.93017],[-38,65.87856],[-37.5,65.82606],[-37,65.77267],[-36.5,65.71837],[-36,65.66319],[-35.5,65.6071],[-35,65.55012],[-34.5,65.49225],[-34,65.43348],[-33.5,65.37382],[-33,65.31327],[-32.5,65.25183],[-32,65.1895],[-31.5,65.12628],[-31,65.06217],[-30.5,64.99717],[-30,64.93129],[-29.5,64.86452],[-29,64.79687],[-28.5,64.72834],[-28,64.65893],[-27,64.51747],[-27.5,64.58864],[-27.0625,64.52641]]}},{"type":"Feature","id":"+05250408:center:0","properties":{"id":"+05250408","year":525,"month":4,"day":8,"time_tdt":"21:08:45","type":"금환일식","type_code":"A","saros":76,"gamma":0.7309,"magnitude":0.9369,"greatest":{"lat":52.38905,"lng":-134.33447},"path_width_km":341.7,"duration":"06m01s","delta_t_seconds":5434.5,"catalog_number":6001,"source":"NASA Five Millennium Canon of Solar Eclipses","source_url":"https://eclipse.gsfc.nasa.gov/SEsearch/SEsearchmap.php?Ecl=%2B05250408","boundary":"center","name":"525-04-08 금환일식"},"geometry":{"type":"LineString","coordinates":[[171.16518,30.24471],[171.5,30.31806],[172,30.3915],[172.5,30.46701],[173,30.54462],[173.5,30.62434],[174,30.70621],[174.5,30.79026],[175,30.8765],[175.5,30.96498],[176,31.05571],[176.5,31.14872],[177,31.24405],[177.5,31.34172],[178,31.44176],[178.5,31.5442],[179,31.64907],[179.5,31.7564],[180,31.86622]]}},{"type":"Feature","id":"+05250408:center:1","properties":{"id":"+05250408","year":525,"month":4,"day":8,"time_tdt":"21:08:45","type":"금환일식","type_code":"A","saros":76,"gamma":0.7309,"magnitude":0.9369,"greatest":{"lat":52.38905,"lng":-134.33447},"path_width_km":341.7,"duration":"06m01s","delta_t_seconds":5434.5,"catalog_number":6001,"source":"NASA Five Millennium Canon of Solar Eclipses","source_url":"https://eclipse.gsfc.nasa.gov/SEsearch/SEsearchmap.php?Ecl=%2B05250408","boundary":"center","name":"525-04-08 금환일식"},"geometry":{"type":"LineString","coordinates":[[-179.5,31.97856],[-179,32.09345],[-179,32.09346],[-178.5,32.21093],[-178,32.33102],[-177.5,32.45375],[-177,32.57916],[-176.5,32.70727],[-176,32.83812],[-175.5,32.97173],[-175,33.10815],[-174.5,33.24739],[-174,33.38949],[-173.5,33.53449],[-173,33.6824],[-172.5,33.83326],[-172,33.98709],[-171.5,34.14393],[-171,34.3038],[-170.5,34.46673],[-170,34.63274],[-169.5,34.80186],[-169,34.97411],[-168.5,35.1495],[-168,35.32807],[-167.5,35.50983],[-167,35.6948],[-166.5,35.88298],[-166,36.0744],[-165.5,36.26906],[-165,36.46698],[-164.5,36.66814],[-164,36.87257],[-163.5,37.08025],[-163,37.29118],[-162.5,37.50536],[-162,37.72276],[-162,37.72277],[-161.5,37.94339],[-161,38.1672],[-160.5,38.39419],[-160,38.62432],[-159.5,38.85755],[-159,39.09386],[-158.5,39.33318],[-158,39.57548],[-157.5,39.8207],[-157,40.06877],[-156.5,40.31964],[-156,40.57322],[-155.5,40.82944],[-155,41.08821],[-154.5,41.34945],[-154,41.61305],[-153.5,41.87891],[-153,42.14693],[-152.5,42.41699],[-152,42.68896],[-151.5,42.96273],[-151,43.23817],[-150.5,43.51514],[-150,43.7935],[-149.5,44.0731],[-149,44.35381],[-148.5,44.63547],[-148,44.91793],[-147.5,45.20103],[-147,45.48462],[-146.5,45.76855],[-146,46.05265],[-145.5,46.33677],[-145,46.62075],[-144.5,46.90444],[-144,47.18768],[-143.5,47.47032],[-143,47.75222],[-142.5,48.03322],[-142,48.31318],[-141.5,48.59197],[-141,48.86946],[-140.5,49.14551],[-140,49.42],[-139.5,49.69281],[-139,49.96383],[-138.5,50.23295],[-138,50.50007],[-137.5,50.76509],[-137,51.02792],[-136.5,51.28849],[-136,51.5467],[-135.5,51.80248],[-135,52.05578],[-134.5,52.30652],[-134,52.55466],[-133.5,52.80013],[-133,53.0429],[-132.5,53.28293],[-132,53.52018],[-131.5,53.75461],[-131,53.98621],[-130.5,54.21495],[-130,54.44081],[-129.5,54.66378],[-129,54.88384],[-128.5,55.101],[-128,55.31524],[-127.5,55.52656],[-127,55.73497],[-126.5,55.94048],[-126,56.14308],[-125.5,56.34278],[-125,56.53961],[-124.5,56.73357],[-124,56.92467],[-123.5,57.11294],[-123,57.29838],[-122.5,57.48103],[-122,57.6609],[-121.5,57.83801],[-121,58.01238],[-120.5,58.18404],[-120,58.35302],[-119.5,58.51933],[-119,58.68301],[-118.5,58.84407],[-118,59.00255],[-117.5,59.15847],[-117,59.31186],[-116.5,59.46274],[-116,59.61115],[-115.5,59.75711],[-115,59.90065],[-114.5,60.04179],[-114,60.18057],[-113.5,60.31701],[-113,60.45114],[-112.5,60.58298],[-112,60.71257],[-111.5,60.83992],[-111,60.96508],[-110.5,61.08805],[-110,61.20888],[-109.5,61.32758],[-109,61.44418],[-108.5,61.55871],[-108,61.67119],[-107.5,61.78164],[-107,61.8901],[-106.5,61.99658],[-106,62.10111],[-105.5,62.20371],[-105,62.30441],[-104.5,62.40322],[-104,62.50018],[-103.5,62.59529],[-103,62.6886],[-102.5,62.7801],[-102,62.86983],[-102,62.86984],[-101.5,62.95781],[-101,63.04406],[-100.5,63.1286],[-100,63.21144],[-99.5,63.2926],[-99,63.37211],[-98.5,63.44998],[-98,63.52624],[-97.5,63.60089],[-97,63.67395],[-96.5,63.74545],[-96,63.8154],[-95.5,63.88382],[-95,63.95072],[-94.5,64.01611],[-94,64.08002],[-93.5,64.14246],[-93,64.20344],[-92.5,64.26297],[-92,64.32108],[-91.5,64.37778],[-91,64.43307],[-90.5,64.48697],[-90,64.5395],[-89.5,64.59067],[-89,64.64049],[-88.5,64.68897],[-88,64.73612],[-87.5,64.78196],[-87,64.8265],[-86.5,64.86975],[-86,64.91171],[-85.5,64.9524],[-85,64.99184],[-84.5,65.03002],[-84,65.06696],[-83.5,65.10268],[-83,65.13717],[-82.5,65.17045],[-82,65.20252],[-81.5,65.2334],[-81,65.2631],[-80.5,65.29162],[-80,65.31896],[-79.5,65.34515],[-79,65.37018],[-78.5,65.39406],[-78.5,65.39407],[-78,65.41681],[-77.5,65.43842],[-77,65.45891],[-76.5,65.47828],[-76,65.49654],[-75.5,65.51369],[-75,65.52974],[-74.5,65.5447],[-74,65.55857],[-73.5,65.57135],[-73,65.58306],[-72.5,65.5937],[-72,65.60328],[-71.5,65.61179],[-71,65.61925],[-70.5,65.62565],[-70,65.63101],[-69.5,65.63533],[-69,65.63861],[-68.5,65.64086],[-68,65.64208],[-67.5,65.64227],[-67,65.64144],[-66.5,65.63959],[-66,65.63673],[-65.5,65.63286],[-65,65.62798],[-64.5,65.6221],[-64,65.61521],[-63.5,65.60733],[-63,65.59845],[-62.5,65.58858],[-62,65.57773],[-61.5,65.56588],[-61,65.55305],[-60.5,65.53925],[-60,65.52446],[-59.5,65.50869],[-59,65.49195],[-58.5,65.47424],[-58,65.45556],[-57.5,65.43591],[-57,65.41529],[-56.5,65.39371],[-56,65.37117],[-55.5,65.34766],[-55,65.3232],[-54.5,65.29778],[-54,65.2714],[-53.5,65.24407],[-53,65.21579],[-52.5,65.18655],[-52,65.15637],[-52,65.15636],[-51.5,65.12523],[-51,65.09315],[-50.5,65.06012],[-50,65.02615],[-49.5,64.99123],[-49,64.95537],[-48.5,64.91857],[-48,64.88083],[-47.5,64.84215],[-47,64.80253],[-46.5,64.76198],[-46,64.72049],[-45.5,64.67806],[-45,64.63471],[-45,64.6347],[-44.5,64.59041],[-44,64.54519],[-43.5,64.49904],[-43,64.45196],[-43,64.45195],[-42.5,64.40394],[-42,64.35501],[-41.5,64.30514],[-41,64.25435],[-40.5,64.20264],[-40,64.15],[-39.5,64.09645],[-39,64.04197],[-38.5,63.98658],[-38.5,63.98657],[-38,63.93026],[-37.5,63.87303],[-37,63.81489],[-36.5,63.75583],[-36,63.69586],[-35.5,63.63498],[-35,63.57319],[-34.5,63.5105],[-34,63.44689],[-33.5,63.38239],[-33,63.31698],[-32.5,63.25067],[-32,63.18347],[-31.5,63.11537],[-31,63.04637],[-30.5,62.97648],[-30,62.9057],[-29.5,62.83404],[-29,62.76149],[-28.67852,62.83822]]}},{"type":"Feature","id":"+05250408:south:0","properties":{"id":"+05250408","year":525,"month":4,"day":8,"time_tdt":"21:08:45","type":"금환일식","type_code":"A","saros":76,"gamma":0.7309,"magnitude":0.9369,"greatest":{"lat":52.38905,"lng":-134.33447},"path_width_km":341.7,"duration":"06m01s","delta_t_seconds":5434.5,"catalog_number":6001,"source":"NASA Five Millennium Canon of Solar Eclipses","source_url":"https://eclipse.gsfc.nasa.gov/SEsearch/SEsearchmap.php?Ecl=%2B05250408","boundary":"south","name":"525-04-08 금환일식"},"geometry":{"type":"LineString","coordinates":[[172.1582,28.49745],[172.5,28.54852],[173,28.62496],[173.5,28.70346],[174,28.78405],[174.5,28.86676],[175,28.95161],[175.5,29.03864],[176,29.12786],[176.5,29.2193],[177,29.313],[177.5,29.40898],[178,29.50727],[178.5,29.6079],[179,29.71089],[179.5,29.81629],[180,29.92411]]}},{"type":"Feature","id":"+05250408:south:1","properties":{"id":"+05250408","year":525,"month":4,"day":8,"time_tdt":"21:08:45","type":"금환일식","type_code":"A","saros":76,"gamma":0.7309,"magnitude":0.9369,"greatest":{"lat":52.38905,"lng":-134.33447},"path_width_km":341.7,"duration":"06m01s","delta_t_seconds":5434.5,"catalog_number":6001,"source":"NASA Five Millennium Canon of Solar Eclipses","source_url":"https://eclipse.gsfc.nasa.gov/SEsearch/SEsearchmap.php?Ecl=%2B05250408","boundary":"south","name":"525-04-08 금환일식"},"geometry":{"type":"LineString","coordinates":[[-179.5,30.03438],[-179,30.14715],[-178.5,30.26243],[-178,30.38025],[-177.5,30.50066],[-177,30.62368],[-176.5,30.74934],[-176,30.87767],[-175.5,31.00871],[-175,31.14248],[-174.5,31.27901],[-174,31.41834],[-174,31.41835],[-173.5,31.5605],[-173,31.70552],[-172.5,31.85343],[-172,32.00425],[-171.5,32.15803],[-171,32.31477],[-170.5,32.47453],[-170,32.63732],[-169.5,32.80316],[-169,32.97209],[-168.5,33.14413],[-168,33.3193],[-167.5,33.49763],[-167,33.67914],[-166.5,33.86384],[-166,34.05175],[-165.5,34.24289],[-165,34.43727],[-164.5,34.6349],[-164,34.83579],[-163.5,35.03994],[-163,35.24737],[-162.5,35.45806],[-162,35.67202],[-161.5,35.88923],[-161,36.10969],[-160.5,36.33339],[-160,36.56029],[-159.5,36.79038],[-159,37.02363],[-158.5,37.26001],[-158,37.49947],[-157.5,37.74198],[-157,37.98749],[-156.5,38.23593],[-156,38.48726],[-155.5,38.7414],[-155,38.99827],[-154.5,39.25781],[-154,39.51993],[-153.5,39.78453],[-153,40.05153],[-152.5,40.3208],[-152,40.59225],[-151.5,40.86577],[-151,41.14122],[-150.5,41.41848],[-150,41.69743],[-149.5,41.97792],[-149,42.25981],[-148.5,42.54296],[-148,42.82722],[-147.5,43.11244],[-147,43.39845],[-146.5,43.68512],[-146,43.97226],[-145.5,44.25973],[-145,44.54736],[-144.5,44.835],[-144,45.12248],[-143.5,45.40964],[-143,45.69632],[-142.5,45.98238],[-142,46.26765],[-141.5,46.55199],[-141,46.83525],[-140.5,47.11729],[-140,47.39797],[-139.5,47.67716],[-139,47.95474],[-138.5,48.23057],[-138,48.50455],[-137.5,48.77657],[-137,49.04651],[-136.5,49.31428],[-136,49.57979],[-135.5,49.84296],[-135,50.10369],[-134.5,50.36192],[-134,50.61758],[-133.5,50.8706],[-133,51.12093],[-132.5,51.36852],[-132,51.61332],[-131.5,51.85529],[-131,52.0944],[-130.5,52.3306],[-130,52.56389],[-129.5,52.79422],[-129,53.0216],[-128.5,53.246],[-128,53.46741],[-127.5,53.68582],[-127,53.90124],[-126.5,54.11366],[-126,54.32309],[-125.5,54.52952],[-125,54.73298],[-124.5,54.93346],[-124,55.13098],[-123.5,55.32556],[-123,55.51721],[-122.5,55.70595],[-122,55.89179],[-121.5,56.07476],[-121,56.25488],[-120.5,56.43217],[-120,56.60666],[-119.5,56.77837],[-119.5,56.77836],[-119,56.94732],[-118.5,57.11354],[-118,57.27706],[-117.5,57.43791],[-117,57.59611],[-116.5,57.75168],[-116,57.90467],[-115.5,58.05509],[-115,58.20297],[-115,58.20298],[-114.5,58.34835],[-114,58.49125],[-113.5,58.6317],[-113,58.76973],[-112.5,58.90536],[-112,59.03862],[-111.5,59.16955],[-111,59.29817],[-110.5,59.4245],[-110,59.54858],[-109.5,59.67044],[-109,59.79009],[-108.5,59.90756],[-108,60.02289],[-107.5,60.1361],[-107,60.24721],[-106.5,60.35624],[-106,60.46323],[-105.5,60.5682],[-105,60.67117],[-104.5,60.77217],[-104,60.87121],[-103.5,60.96833],[-103,61.06354],[-102.5,61.15687],[-102,61.24834],[-101.5,61.33797],[-101,61.42579],[-100.5,61.5118],[-100,61.59604],[-99.5,61.67852],[-99,61.75927],[-98.5,61.8383],[-98,61.91563],[-97.5,61.99128],[-97,62.06527],[-96.5,62.13761],[-96,62.20833],[-95.5,62.27744],[-95,62.34496],[-94.5,62.4109],[-94,62.47528],[-93.5,62.53812],[-93,62.59942],[-93,62.59943],[-92.5,62.65922],[-92,62.71752],[-91.5,62.77433],[-91,62.82967],[-90.5,62.88356],[-90,62.93601],[-89.5,62.98702],[-89,63.03662],[-88.5,63.08482],[-88,63.13163],[-87.5,63.17705],[-87,63.22111],[-86.5,63.26382],[-86,63.30518],[-85.5,63.34521],[-85,63.38392],[-84.5,63.42131],[-84,63.4574],[-83.5,63.49221],[-83,63.52573],[-82.5,63.55798],[-82,63.58896],[-81.5,63.6187],[-81,63.64719],[-80.5,63.67444],[-80,63.70047],[-79.5,63.72528],[-79,63.74887],[-78.5,63.77127],[-78,63.79247],[-77.5,63.81248],[-77,63.83131],[-76.5,63.84897],[-76,63.86546],[-75.5,63.88079],[-75,63.89497],[-74.5,63.908],[-74,63.9199],[-73.5,63.93065],[-73,63.94028],[-72.5,63.94879],[-72,63.95617],[-72,63.95618],[-71.5,63.96245],[-71,63.96762],[-70.5,63.97169],[-70,63.97466],[-69.5,63.97654],[-69,63.97734],[-68.5,63.97705],[-68,63.97568],[-67.5,63.97324],[-67,63.96974],[-66.5,63.96516],[-66,63.95953],[-65.5,63.95284],[-65,63.94509],[-64.5,63.93629],[-64,63.92645],[-63.5,63.91557],[-63,63.90364],[-62.5,63.89068],[-62,63.87669],[-61.5,63.86167],[-61,63.84562],[-60.5,63.82854],[-60,63.81045],[-59.5,63.79133],[-59,63.7712],[-58.5,63.75006],[-58,63.72791],[-57.5,63.70474],[-57,63.68058],[-56.5,63.65541],[-56,63.62923],[-55.5,63.60206],[-55,63.57389],[-54.5,63.54473],[-54,63.51458],[-53.5,63.48343],[-53,63.4513],[-52.5,63.41818],[-52,63.38408],[-51.5,63.34899],[-51,63.31292],[-50.5,63.27588],[-50,63.23785],[-49.5,63.19885],[-49.5,63.19886],[-49,63.15888],[-48.5,63.11794],[-48,63.07603],[-47.5,63.03315],[-47,62.9893],[-46.5,62.94449],[-46,62.89872],[-45.5,62.85199],[-45,62.8043],[-44.5,62.75565],[-44,62.70604],[-43.5,62.65549],[-43,62.60398],[-42.5,62.55152],[-42,62.49811],[-41.5,62.44376],[-41,62.38846],[-40.5,62.33222],[-40,62.27505],[-39.5,62.21693],[-39,62.15788],[-38.5,62.0979],[-38,62.03698],[-37.5,61.97513],[-37.5,61.97514],[-37,61.91236],[-36.5,61.84867],[-36,61.78405],[-35.5,61.71851],[-35,61.65206],[-34.5,61.58469],[-34,61.51641],[-33.5,61.44722],[-33,61.37713],[-32.5,61.30613],[-32,61.23423],[-31.5,61.16144],[-31,61.08775],[-30.5,61.01317],[-30.48242,61.01053]]}},{"type":"Feature","id":"+05251002:north:0","properties":{"id":"+05251002","year":525,"month":10,"day":2,"time_tdt":"20:48:13","type":"개기일식","type_code":"T","saros":81,"gamma":-0.65214,"magnitude":1.04687,"greatest":{"lat":-43.0678,"lng":-127.73328},"path_width_km":204.6,"duration":"03m35s","delta_t_seconds":5429.7,"catalog_number":6002,"source":"NASA Five Millennium Canon of Solar Eclipses","source_url":"https://eclipse.gsfc.nasa.gov/SEsearch/SEsearchmap.php?Ecl=%2B05251002","boundary":"north","name":"525-10-02 개기일식"},"geometry":{"type":"LineString","coordinates":[[176,-22.56933],[176.5,-22.6076],[177,-22.64768],[177.5,-22.68959],[178,-22.73335],[178.5,-22.77897],[179,-22.82649],[179.5,-22.87593],[180,-22.92731]]}},{"type":"Feature","id":"+05251002:north:1","properties":{"id":"+05251002","year":525,"month":10,"day":2,"time_tdt":"20:48:13","type":"개기일식","type_code":"T","saros":81,"gamma":-0.65214,"magnitude":1.04687,"greatest":{"lat":-43.0678,"lng":-127.73328},"path_width_km":204.6,"duration":"03m35s","delta_t_seconds":5429.7,"catalog_number":6002,"source":"NASA Five Millennium Canon of Solar Eclipses","source_url":"https://eclipse.gsfc.nasa.gov/SEsearch/SEsearchmap.php?Ecl=%2B05251002","boundary":"north","name":"525-10-02 개기일식"},"geometry":{"type":"LineString","coordinates":[[-179.5,-22.98064],[-179,-23.03597],[-178.5,-23.0933],[-178,-23.15267],[-177.5,-23.21409],[-177,-23.2776],[-176.5,-23.34322],[-176,-23.41097],[-175.5,-23.48088],[-175,-23.55297],[-174.5,-23.62728],[-174,-23.70382],[-173.5,-23.78263],[-173,-23.86373],[-172.5,-23.94715],[-172,-24.03291],[-171.5,-24.12105],[-171,-24.21159],[-170.5,-24.30456],[-170,-24.39998],[-169.5,-24.49789],[-169,-24.59832],[-168.5,-24.70129],[-168,-24.80683],[-167.5,-24.91497],[-167,-25.02573],[-166.5,-25.13916],[-166,-25.25526],[-165.5,-25.37408],[-165,-25.49564],[-164.5,-25.61997],[-164,-25.74709],[-163.5,-25.87703],[-163,-26.00982],[-162.5,-26.14548],[-162,-26.28404],[-161.5,-26.42553],[-161,-26.56996],[-160.5,-26.71737],[-160,-26.86776],[-159.5,-27.02117],[-159,-27.17762],[-158.5,-27.33711],[-158,-27.49968],[-157.5,-27.66533],[-157,-27.83408],[-156.5,-28.00595],[-156,-28.18094],[-155.5,-28.35906],[-155,-28.54031],[-154.5,-28.72472],[-154,-28.91226],[-153.5,-29.10295],[-153,-29.29678],[-152.5,-29.49375],[-152,-29.69383],[-151.5,-29.89703],[-151,-30.10333],[-150.5,-30.3127],[-150,-30.52512],[-149.5,-30.74057],[-149,-30.95902],[-148.5,-31.18042],[-148,-31.40474],[-147.5,-31.63193],[-147,-31.86195],[-146.5,-32.09475],[-146,-32.33026],[-145.5,-32.56843],[-145,-32.80918],[-144.5,-33.05245],[-144,-33.29815],[-143.5,-33.54621],[-143,-33.79655],[-142.5,-34.04906],[-142,-34.30366],[-141.5,-34.56024],[-141,-34.81871],[-140.5,-35.07896],[-140,-35.34087],[-139.5,-35.60432],[-139,-35.86921],[-138.5,-36.13541],[-138,-36.4028],[-137.5,-36.67125],[-137,-36.94063],[-136.5,-37.21081],[-136,-37.48167],[-135.5,-37.75306],[-135,-38.02487],[-134.5,-38.29695],[-134,-38.56917],[-133.5,-38.8414],[-133,-39.11352],[-132.5,-39.38538],[-132,-39.65687],[-131.5,-39.92786],[-131,-40.19823],[-130.5,-40.46785],[-130,-40.7366],[-129.5,-41.00438],[-129,-41.27108],[-128.5,-41.53657],[-128,-41.80077],[-127.5,-42.06358],[-127,-42.32489],[-126.5,-42.58461],[-126,-42.84267],[-125.5,-43.09897],[-125,-43.35344],[-124.5,-43.60601],[-124,-43.85661],[-123.5,-44.10516],[-123,-44.35162],[-122.5,-44.59592],[-122,-44.83801],[-121.5,-45.07785],[-121,-45.31538],[-120.5,-45.55057],[-120,-45.78339],[-119.5,-46.0138],[-119,-46.24176],[-118.5,-46.46726],[-118,-46.69028],[-117.5,-46.91078],[-117,-47.12875],[-116.5,-47.34419],[-116,-47.55708],[-115.5,-47.7674],[-115,-47.97516],[-114.5,-48.18035],[-114,-48.38296],[-113.5,-48.58301],[-113,-48.78048],[-112.5,-48.97538],[-112,-49.16772],[-111.5,-49.35751],[-111,-49.54474],[-110.5,-49.72944],[-110,-49.91161],[-109.5,-50.09127],[-109,-50.26842],[-108.5,-50.44308],[-108,-50.61527],[-107.5,-50.785],[-107,-50.95229],[-106.5,-51.11715],[-106,-51.2796],[-105.5,-51.43965],[-105,-51.59734],[-104.5,-51.75267],[-104,-51.90567],[-103.5,-52.05635],[-103,-52.20473],[-102.5,-52.35084],[-102,-52.49469],[-101.5,-52.6363],[-101,-52.7757],[-100.5,-52.91291],[-100,-53.04793],[-99.5,-53.18081],[-99,-53.31155],[-98.5,-53.44017],[-98,-53.5667],[-97.5,-53.69116],[-97,-53.81357],[-96.5,-53.93394],[-96,-54.0523],[-95.5,-54.16866],[-95,-54.28305],[-94.5,-54.39549],[-94,-54.50599],[-93.5,-54.61458],[-93,-54.72127],[-92.5,-54.82608],[-92,-54.92904],[-91.5,-55.03015],[-91,-55.12944],[-90.5,-55.22692],[-90,-55.32262],[-89.5,-55.41655],[-89,-55.50872],[-88.5,-55.59916],[-88,-55.68788],[-87.5,-55.7749],[-87,-55.86024],[-86.5,-55.9439],[-86,-56.02591],[-85.5,-56.10628],[-85,-56.18503],[-84.5,-56.26217],[-84,-56.33772],[-83.5,-56.41169],[-83,-56.4841],[-82.5,-56.55496],[-82,-56.62428],[-81.5,-56.69208],[-81,-56.75837],[-80.5,-56.82317],[-80,-56.88648],[-79.5,-56.94833],[-79,-57.00872],[-78.5,-57.06766],[-78,-57.12517],[-77.5,-57.18127],[-77,-57.23595],[-76.5,-57.28924],[-76,-57.34114],[-75.5,-57.39167],[-75,-57.44084],[-74.5,-57.48865],[-74,-57.53512],[-73.5,-57.58026],[-73,-57.62408],[-72.5,-57.66658],[-72,-57.70779],[-71.5,-57.7477],[-71,-57.78633],[-70.5,-57.82369],[-70,-57.85978],[-69.5,-57.89461],[-69,-57.9282],[-68.5,-57.96055],[-68,-57.99167],[-67.5,-58.02157],[-67,-58.05026],[-66.5,-58.07774],[-66,-58.10403],[-65.5,-58.12912],[-65,-58.15303],[-64.5,-58.17577],[-64,-58.19733],[-63.5,-58.21774],[-63,-58.23699],[-62.5,-58.2551],[-62,-58.27207],[-61.5,-58.2879],[-61,-58.3026],[-60.5,-58.31619],[-60,-58.32866],[-59.5,-58.34002],[-59,-58.35027],[-58.5,-58.35943],[-58,-58.3675],[-57.5,-58.37449],[-57,-58.38039],[-56.5,-58.38522],[-56,-58.38898],[-55.5,-58.39168],[-55,-58.39331],[-54.5,-58.3939],[-54,-58.39343],[-53.5,-58.39192],[-53,-58.38937],[-52.5,-58.38579],[-52,-58.38118],[-51.5,-58.37554],[-51,-58.36888],[-50.5,-58.3612],[-50,-58.35252],[-49.5,-58.34282],[-49,-58.33212],[-48.5,-58.32042],[-48,-58.30773],[-47.5,-58.29404],[-47,-58.27937],[-46.5,-58.26371],[-46,-58.24707],[-45.5,-58.22946],[-45,-58.21087],[-44.5,-58.19132],[-44,-58.1708],[-43.5,-58.14932],[-43,-58.12688],[-42.5,-58.10349],[-42,-58.07914],[-41.5,-58.05385],[-41,-58.02761],[-40.5,-58.00044],[-40,-57.97232],[-39.5,-57.94327],[-39,-57.91329],[-38.5,-57.88238],[-38,-57.85055],[-37.5,-57.8178],[-37,-57.78413],[-36.5,-57.74954],[-36,-57.71404],[-35.5,-57.67763],[-35,-57.64032]]}},{"type":"Feature","id":"+05251002:center:0","properties":{"id":"+05251002","year":525,"month":10,"day":2,"time_tdt":"20:48:13","type":"개기일식","type_code":"T","saros":81,"gamma":-0.65214,"magnitude":1.04687,"greatest":{"lat":-43.0678,"lng":-127.73328},"path_width_km":204.6,"duration":"03m35s","delta_t_seconds":5429.7,"catalog_number":6002,"source":"NASA Five Millennium Canon of Solar Eclipses","source_url":"https://eclipse.gsfc.nasa.gov/SEsearch/SEsearchmap.php?Ecl=%2B05251002","boundary":"center","name":"525-10-02 개기일식"},"geometry":{"type":"LineString","coordinates":[[175.55506,-23.19762],[176,-23.24402],[176.5,-23.2862],[177,-23.33022],[177.5,-23.37612],[178,-23.4239],[178.5,-23.4736],[179,-23.52524],[179.5,-23.57883],[180,-23.63441]]}},{"type":"Feature","id":"+05251002:center:1","properties":{"id":"+05251002","year":525,"month":10,"day":2,"time_tdt":"20:48:13","type":"개기일식","type_code":"T","saros":81,"gamma":-0.65214,"magnitude":1.04687,"greatest":{"lat":-43.0678,"lng":-127.73328},"path_width_km":204.6,"duration":"03m35s","delta_t_seconds":5429.7,"catalog_number":6002,"source":"NASA Five Millennium Canon of Solar Eclipses","source_url":"https://eclipse.gsfc.nasa.gov/SEsearch/SEsearchmap.php?Ecl=%2B05251002","boundary":"center","name":"525-10-02 개기일식"},"geometry":{"type":"LineString","coordinates":[[-179.5,-23.692],[-179,-23.75161],[-178.5,-23.81329],[-178,-23.87704],[-177.5,-23.94289],[-177,-24.01088],[-176.5,-24.08102],[-176,-24.15334],[-175.5,-24.22787],[-175,-24.30464],[-174.5,-24.38366],[-174,-24.46497],[-173.5,-24.54859],[-173,-24.63455],[-172.5,-24.72288],[-172,-24.81361],[-171.5,-24.90676],[-171,-25.00236],[-170.5,-25.10044],[-170,-25.20102],[-169.5,-25.30415],[-169,-25.40983],[-168.5,-25.51811],[-168,-25.629],[-167.5,-25.74255],[-167,-25.85877],[-166.5,-25.97769],[-166,-26.09935],[-165.5,-26.22376],[-165,-26.35096],[-164.5,-26.48097],[-164,-26.61382],[-163.5,-26.74953],[-163,-26.88813],[-162.5,-27.02965],[-162,-27.1741],[-161.5,-27.32151],[-161,-27.47191],[-160.5,-27.62531],[-160,-27.78173],[-159.5,-27.94119],[-159,-28.10372],[-158.5,-28.26932],[-158,-28.438],[-157.5,-28.60979],[-157,-28.7847],[-156.5,-28.96272],[-156,-29.14387],[-155.5,-29.32816],[-155,-29.51558],[-154.5,-29.70614],[-154,-29.89982],[-153.5,-30.09663],[-153,-30.29656],[-152.5,-30.4996],[-152,-30.70572],[-151.5,-30.91491],[-151,-31.12714],[-150.5,-31.3424],[-150,-31.56064],[-149.5,-31.78184],[-149,-32.00596],[-148.5,-32.23295],[-148,-32.46277],[-147.5,-32.69535],[-147,-32.93066],[-146.5,-33.16862],[-146,-33.40917],[-145.5,-33.65224],[-145,-33.89775],[-144.5,-34.14563],[-144,-34.39579],[-143.5,-34.64813],[-143,-34.90257],[-142.5,-35.15901],[-142,-35.41735],[-141.5,-35.67748],[-141,-35.93928],[-140.5,-36.20265],[-140,-36.46747],[-139.5,-36.73363],[-139,-37.00098],[-138.5,-37.26942],[-138,-37.53882],[-137.5,-37.80904],[-137,-38.07995],[-136.5,-38.35144],[-136,-38.62335],[-135.5,-38.89557],[-135,-39.16795],[-134.5,-39.44038],[-134,-39.71271],[-133.5,-39.98482],[-133,-40.25659],[-132.5,-40.52787],[-132,-40.79857],[-131.5,-41.06854],[-131,-41.33768],[-130.5,-41.60587],[-130,-41.873],[-129.5,-42.13896],[-129,-42.40365],[-128.5,-42.66697],[-128,-42.92882],[-127.5,-43.18911],[-127,-43.44775],[-126.5,-43.70466],[-126,-43.95976],[-125.5,-44.21298],[-125,-44.46425],[-124.5,-44.71349],[-124,-44.96065],[-123.5,-45.20568],[-123,-45.44851],[-122.5,-45.6891],[-122,-45.92741],[-121.5,-46.16339],[-121,-46.397],[-120.5,-46.62821],[-120,-46.857],[-119.5,-47.08333],[-119,-47.30718],[-118.5,-47.52853],[-118,-47.74737],[-117.5,-47.96367],[-117,-48.17742],[-116.5,-48.38862],[-116,-48.59726],[-115.5,-48.80334],[-115,-49.00685],[-114.5,-49.20778],[-114,-49.40615],[-113.5,-49.60195],[-113,-49.7952],[-112.5,-49.98589],[-112,-50.17403],[-111.5,-50.35963],[-111,-50.54271],[-110.5,-50.72327],[-110,-50.90133],[-109.5,-51.0769],[-109,-51.25],[-108.5,-51.42064],[-108,-51.58883],[-107.5,-51.75459],[-107,-51.91794],[-106.5,-52.0789],[-106,-52.23749],[-105.5,-52.39372],[-105,-52.54761],[-104.5,-52.69919],[-104,-52.84847],[-103.5,-52.99547],[-103,-53.14021],[-102.5,-53.28271],[-102,-53.42299],[-101.5,-53.56108],[-101,-53.69699],[-100.5,-53.83075],[-100,-53.96236],[-99.5,-54.09186],[-99,-54.21927],[-98.5,-54.3446],[-98,-54.46787],[-97.5,-54.58911],[-97,-54.70834],[-96.5,-54.82557],[-96,-54.94083],[-95.5,-55.05413],[-95,-55.16549],[-94.5,-55.27493],[-94,-55.38248],[-93.5,-55.48815],[-93,-55.59196],[-92.5,-55.69393],[-92,-55.79407],[-91.5,-55.8924],[-91,-55.98895],[-90.5,-56.08373],[-90,-56.17676],[-89.5,-56.26804],[-89,-56.35761],[-88.5,-56.44548],[-88,-56.53166],[-87.5,-56.61617],[-87,-56.69903],[-86.5,-56.78025],[-86,-56.85984],[-85.5,-56.93783],[-85,-57.01423],[-84.5,-57.08904],[-84,-57.1623],[-83.5,-57.234],[-83,-57.30417],[-82.5,-57.37282],[-82,-57.43996],[-81.5,-57.50561],[-81,-57.56977],[-80.5,-57.63247],[-80,-57.69371],[-79.5,-57.7535],[-79,-57.81187],[-78.5,-57.86881],[-78,-57.92435],[-77.5,-57.9785],[-77,-58.03126],[-76.5,-58.08264],[-76,-58.13266],[-75.5,-58.18134],[-75,-58.22867],[-74.5,-58.27467],[-74,-58.31935],[-73.5,-58.36272],[-73,-58.40479],[-72.5,-58.44556],[-72,-58.48506],[-71.5,-58.52328],[-71,-58.56025],[-70.5,-58.59595],[-70,-58.63041],[-69.5,-58.66364],[-69,-58.69563],[-68.5,-58.72641],[-68,-58.75597],[-67.5,-58.78433],[-67,-58.81149],[-66.5,-58.83747],[-66,-58.86226],[-65.5,-58.88588],[-65,-58.90833],[-64.5,-58.92962],[-64,-58.94976],[-63.5,-58.96875],[-63,-58.9866],[-62.5,-59.00332],[-62,-59.01891],[-61.5,-59.03339],[-61,-59.04674],[-60.5,-59.059],[-60,-59.07014],[-59.5,-59.08019],[-59,-59.08915],[-58.5,-59.09703],[-58,-59.10383],[-57.5,-59.10955],[-57,-59.1142],[-56.5,-59.11779],[-56,-59.12032],[-55.5,-59.12179],[-55,-59.12222],[-54.5,-59.1216],[-54,-59.11994],[-53.5,-59.11724],[-53,-59.11352],[-52.5,-59.10877],[-52,-59.103],[-51.5,-59.09621],[-51,-59.0884],[-50.5,-59.07959],[-50,-59.06977],[-49.5,-59.05895],[-49,-59.04714],[-48.5,-59.03433],[-48,-59.02053],[-47.5,-59.00574],[-47,-58.98997],[-46.5,-58.97323],[-46,-58.95551],[-45.5,-58.93681],[-45,-58.91715],[-44.5,-58.89653],[-44,-58.87494],[-43.5,-58.85239],[-43,-58.82889],[-42.5,-58.80444],[-42,-58.77904],[-41.5,-58.7527],[-41,-58.72541],[-40.5,-58.69719],[-40,-58.66803],[-38,-58.54209],[-39.5,-58.63794],[-39,-58.60691],[-38.5,-58.57497],[-37.5,-58.5083],[-37,-58.47359],[-36.5,-58.43796],[-36,-58.40143],[-35.5,-58.36398],[-35,-58.32563],[-34.5,-58.28637],[-34.31902,-58.3664]]}},{"type":"Feature","id":"+05251002:south:0","properties":{"id":"+05251002","year":525,"month":10,"day":2,"time_tdt":"20:48:13","type":"개기일식","type_code":"T","saros":81,"gamma":-0.65214,"magnitude":1.04687,"greatest":{"lat":-43.0678,"lng":-127.73328},"path_width_km":204.6,"duration":"03m35s","delta_t_seconds":5429.7,"catalog_number":6002,"source":"NASA Five Millennium Canon of Solar Eclipses","source_url":"https://eclipse.gsfc.nasa.gov/SEsearch/SEsearchmap.php?Ecl=%2B05251002","boundary":"south","name":"525-10-02 개기일식"},"geometry":{"type":"LineString","coordinates":[[175.2793,-23.86601],[175.5,-23.88498],[176,-23.9293],[176.5,-23.97549],[177,-24.02356],[177.5,-24.07355],[178,-24.12548],[178.5,-24.17937],[179,-24.23524],[179.5,-24.29311],[180,-24.35301]]}},{"type":"Feature","id":"+05251002:south:1","properties":{"id":"+05251002","year":525,"month":10,"day":2,"time_tdt":"20:48:13","type":"개기일식","type_code":"T","saros":81,"gamma":-0.65214,"magnitude":1.04687,"greatest":{"lat":-43.0678,"lng":-127.73328},"path_width_km":204.6,"duration":"03m35s","delta_t_seconds":5429.7,"catalog_number":6002,"source":"NASA Five Millennium Canon of Solar Eclipses","source_url":"https://eclipse.gsfc.nasa.gov/SEsearch/SEsearchmap.php?Ecl=%2B05251002","boundary":"south","name":"525-10-02 개기일식"},"geometry":{"type":"LineString","coordinates":[[-179.5,-24.41497],[-179,-24.479],[-178.5,-24.54514],[-178,-24.6134],[-177.5,-24.68382],[-177,-24.75642],[-176.5,-24.83122],[-176,-24.90824],[-175.5,-24.98753],[-175,-25.0691],[-174.5,-25.15298],[-174,-25.23919],[-173.5,-25.32777],[-173,-25.41874],[-172.5,-25.51213],[-172,-25.60796],[-171.5,-25.70627],[-171,-25.80708],[-170.5,-25.91042],[-170,-26.01632],[-169.5,-26.1248],[-169,-26.2359],[-168.5,-26.34964],[-168,-26.46605],[-167.5,-26.58515],[-167,-26.70698],[-166.5,-26.83156],[-166,-26.95892],[-165.5,-27.08908],[-165,-27.22208],[-164.5,-27.35793],[-164,-27.49666],[-163.5,-27.6383],[-163,-27.78286],[-162.5,-27.93038],[-162,-28.08087],[-161.5,-28.23436],[-161,-28.39086],[-160.5,-28.55039],[-160,-28.71298],[-159.5,-28.87863],[-159,-29.04736],[-158.5,-29.21918],[-158,-29.39411],[-157.5,-29.57216],[-157,-29.75332],[-156.5,-29.93761],[-156,-30.12502],[-155.5,-30.31556],[-155,-30.50923],[-154.5,-30.70601],[-154,-30.9059],[-153.5,-31.10889],[-153,-31.31497],[-152.5,-31.5241],[-152,-31.73628],[-151.5,-31.95147],[-151,-32.16965],[-150.5,-32.39078],[-150,-32.61482],[-149.5,-32.84174],[-149,-33.07148],[-148.5,-33.30399],[-148,-33.53922],[-147.5,-33.7771],[-147,-34.01758],[-146.5,-34.26058],[-146,-34.50603],[-145.5,-34.75385],[-145,-35.00396],[-144.5,-35.25626],[-144,-35.51067],[-143.5,-35.76708],[-143,-36.0254],[-142.5,-36.28553],[-142,-36.54734],[-141.5,-36.81074],[-141,-37.0756],[-140.5,-37.34181],[-140,-37.60924],[-139.5,-37.87777],[-139,-38.14728],[-138.5,-38.41763],[-138,-38.6887],[-137.5,-38.96035],[-137,-39.23246],[-136.5,-39.50489],[-136,-39.77752],[-135.5,-40.0502],[-135,-40.32282],[-134.5,-40.59524],[-134,-40.86734],[-133.5,-41.13898],[-133,-41.41005],[-132.5,-41.68043],[-132,-41.95],[-131.5,-42.21864],[-131,-42.48624],[-130.5,-42.7527],[-130,-43.0179],[-129.5,-43.28176],[-129,-43.54417],[-128.5,-43.80504],[-128,-44.06428],[-127.5,-44.32181],[-127,-44.57755],[-126.5,-44.83142],[-126,-45.08335],[-125.5,-45.33328],[-125,-45.58115],[-124.5,-45.82689],[-124,-46.07045],[-123.5,-46.31179],[-123,-46.55085],[-122.5,-46.78759],[-122,-47.02198],[-121.5,-47.25398],[-121,-47.48357],[-120.5,-47.7107],[-120,-47.93536],[-119.5,-48.15753],[-119,-48.37719],[-118.5,-48.59432],[-118,-48.80891],[-117.5,-49.02095],[-117,-49.23044],[-116.5,-49.43736],[-116,-49.64172],[-115.5,-49.84351],[-115,-50.04274],[-114.5,-50.2394],[-114,-50.4335],[-113.5,-50.62505],[-113,-50.81405],[-112.5,-51.00052],[-112,-51.18446],[-111.5,-51.36588],[-111,-51.54481],[-110.5,-51.72124],[-110,-51.89519],[-109.5,-52.06669],[-109,-52.23573],[-108.5,-52.40235],[-108,-52.56656],[-107.5,-52.72838],[-107,-52.88782],[-106.5,-53.0449],[-106,-53.19964],[-105.5,-53.35206],[-105,-53.50219],[-104.5,-53.65003],[-104,-53.79561],[-103.5,-53.93895],[-103,-54.08008],[-102.5,-54.219],[-102,-54.35575],[-101.5,-54.49033],[-101,-54.62278],[-100.5,-54.75311],[-100,-54.88135],[-99.5,-55.0075],[-99,-55.1316],[-98.5,-55.25367],[-98,-55.37372],[-97.5,-55.49177],[-97,-55.60784],[-96.5,-55.72196],[-96,-55.83414],[-95.5,-55.94441],[-95,-56.05277],[-94.5,-56.15925],[-94,-56.26388],[-93.5,-56.36666],[-93,-56.46761],[-92.5,-56.56676],[-92,-56.66412],[-91.5,-56.75971],[-91,-56.85355],[-90.5,-56.94566],[-90,-57.03604],[-89.5,-57.12472],[-89,-57.21171],[-88.5,-57.29703],[-88,-57.38071],[-87.5,-57.46274],[-87,-57.54315],[-86.5,-57.62195],[-86,-57.69916],[-85.5,-57.7748],[-85,-57.84887],[-84.5,-57.9214],[-84,-57.99239],[-83.5,-58.06185],[-83,-58.12982],[-82.5,-58.19629],[-82,-58.26128],[-81.5,-58.3248],[-81,-58.38687],[-80.5,-58.44749],[-80,-58.50669],[-79.5,-58.56447],[-79,-58.62084],[-78.5,-58.67582],[-78,-58.72942],[-77.5,-58.78164],[-77,-58.83251],[-76.5,-58.88202],[-76,-58.9302],[-75.5,-58.97705],[-75,-59.02258],[-74.5,-59.0668],[-74,-59.10972],[-73.5,-59.15135],[-73,-59.19171],[-72.5,-59.23079],[-72,-59.26861],[-71.5,-59.30518],[-71,-59.34051],[-70.5,-59.3746],[-70,-59.40747],[-69.5,-59.43912],[-69,-59.46955],[-68.5,-59.49879],[-68,-59.52683],[-67.5,-59.55368],[-67,-59.57936],[-66.5,-59.60386],[-66,-59.6272],[-65.5,-59.64938],[-65,-59.6704],[-64.5,-59.69029],[-64,-59.70903],[-63.5,-59.72665],[-63,-59.74314],[-62.5,-59.75851],[-62,-59.77277],[-61.5,-59.78592],[-61,-59.79797],[-60.5,-59.80892],[-60,-59.81879],[-59.5,-59.82757],[-59,-59.83528],[-58.5,-59.84191],[-58,-59.84747],[-57.5,-59.85197],[-57,-59.85541],[-56.5,-59.85779],[-56,-59.85913],[-55.5,-59.85943],[-55,-59.85868],[-54.5,-59.8569],[-54,-59.85409],[-53.5,-59.85025],[-53,-59.84539],[-52.5,-59.83952],[-52,-59.83263],[-51.5,-59.82473],[-51,-59.81582],[-50.5,-59.80592],[-50,-59.79501],[-49.5,-59.78311],[-49,-59.77022],[-48.5,-59.75634],[-48,-59.74148],[-47.5,-59.72564],[-47,-59.70882],[-46.5,-59.69103],[-46,-59.67227],[-45.5,-59.65254],[-45,-59.63184],[-44.5,-59.61019],[-44,-59.58758],[-43.5,-59.56402],[-43,-59.5395],[-42.5,-59.51403],[-42,-59.48763],[-41.5,-59.46027],[-41,-59.43198],[-40.5,-59.40275],[-40,-59.37259],[-39.5,-59.3415],[-39,-59.30948],[-38.5,-59.27653],[-38,-59.24266],[-37.5,-59.20787],[-37,-59.17216],[-36.5,-59.13554],[-36,-59.09801],[-35.5,-59.05957],[-35,-59.02022],[-34.5,-58.97996],[-34,-58.93881],[-33.87109,-58.92805]]}}],"attribution":"Eclipse Predictions by Fred Espenak and Jean Meeus (NASA's GSFC)","generated_at":"2026-09-23T01:44:52.191Z"}
