{"type":"FeatureCollection","year":528,"events":[{"id":"+05280206","year":528,"month":2,"day":6,"time_tdt":"08:48:21","type":"부분일식","type_code":"P","saros":68,"gamma":1.19545,"magnitude":0.64166,"greatest":{"lat":70.21149,"lng":33.84418},"path_width_km":0,"duration":"00m00s","delta_t_seconds":5406.8,"catalog_number":6007,"source":"NASA Five Millennium Canon of Solar Eclipses","source_url":"https://eclipse.gsfc.nasa.gov/SEsearch/SEsearchmap.php?Ecl=%2B05280206"},{"id":"+05280306","year":528,"month":3,"day":6,"time_tdt":"18:02:29","type":"부분일식","type_code":"P","saros":106,"gamma":-1.42316,"magnitude":0.20998,"greatest":{"lat":-71.70025,"lng":39.10138},"path_width_km":0,"duration":"00m00s","delta_t_seconds":5406,"catalog_number":6008,"source":"NASA Five Millennium Canon of Solar Eclipses","source_url":"https://eclipse.gsfc.nasa.gov/SEsearch/SEsearchmap.php?Ecl=%2B05280306"},{"id":"+05280801","year":528,"month":8,"day":1,"time_tdt":"03:47:42","type":"부분일식","type_code":"P","saros":73,"gamma":-1.35953,"magnitude":0.34761,"greatest":{"lat":-69.52856,"lng":116.32123},"path_width_km":0,"duration":"00m00s","delta_t_seconds":5402.1,"catalog_number":6009,"source":"NASA Five Millennium Canon of Solar Eclipses","source_url":"https://eclipse.gsfc.nasa.gov/SEsearch/SEsearchmap.php?Ecl=%2B05280801"},{"id":"+05280830","year":528,"month":8,"day":30,"time_tdt":"20:01:34","type":"부분일식","type_code":"Pb","saros":111,"gamma":1.55691,"magnitude":0.01644,"greatest":{"lat":71.44198,"lng":17.50507},"path_width_km":0,"duration":"00m00s","delta_t_seconds":5401.3,"catalog_number":6010,"source":"NASA Five Millennium Canon of Solar Eclipses","source_url":"https://eclipse.gsfc.nasa.gov/SEsearch/SEsearchmap.php?Ecl=%2B05280830"}],"features":[],"attribution":"Eclipse Predictions by Fred Espenak and Jean Meeus (NASA's GSFC)","generated_at":"2026-09-23T01:44:51.908Z"}
