{"type":"FeatureCollection","year":531,"events":[{"id":"+05310104","year":531,"month":1,"day":4,"time_tdt":"16:51:18","type":"금환일식","type_code":"A","saros":98,"gamma":-0.8996,"magnitude":0.92252,"greatest":{"lat":-86.88659,"lng":-25.11798},"path_width_km":682,"duration":"05m32s","delta_t_seconds":5378.4,"catalog_number":6015,"source":"NASA Five Millennium Canon of Solar Eclipses","source_url":"https://eclipse.gsfc.nasa.gov/SEsearch/SEsearchmap.php?Ecl=%2B05310104"},{"id":"+05310630","year":531,"month":6,"day":30,"time_tdt":"09:51:59","type":"개기일식","type_code":"T","saros":103,"gamma":0.94401,"magnitude":1.06655,"greatest":{"lat":85.15214,"lng":-106.29987},"path_width_km":679.7,"duration":"03m23s","delta_t_seconds":5373.7,"catalog_number":6016,"source":"NASA Five Millennium Canon of Solar Eclipses","source_url":"https://eclipse.gsfc.nasa.gov/SEsearch/SEsearchmap.php?Ecl=%2B05310630"},{"id":"+05311124","year":531,"month":11,"day":24,"time_tdt":"21:15:03","type":"부분일식","type_code":"P","saros":70,"gamma":1.4671,"magnitude":0.16974,"greatest":{"lat":63.544,"lng":-80.10388},"path_width_km":0,"duration":"00m00s","delta_t_seconds":5369.8,"catalog_number":6017,"source":"NASA Five Millennium Canon of Solar Eclipses","source_url":"https://eclipse.gsfc.nasa.gov/SEsearch/SEsearchmap.php?Ecl=%2B05311124"}],"features":[{"type":"Feature","id":"+05310104:north:0","properties":{"id":"+05310104","year":531,"month":1,"day":4,"time_tdt":"16:51:18","type":"금환일식","type_code":"A","saros":98,"gamma":-0.8996,"magnitude":0.92252,"greatest":{"lat":-86.88659,"lng":-25.11798},"path_width_km":682,"duration":"05m32s","delta_t_seconds":5378.4,"catalog_number":6015,"source":"NASA Five Millennium Canon of Solar Eclipses","source_url":"https://eclipse.gsfc.nasa.gov/SEsearch/SEsearchmap.php?Ecl=%2B05310104","boundary":"north","name":"531-01-04 금환일식"},"geometry":{"type":"LineString","coordinates":[[-160.5625,-55.11386],[-160.5,-55.1472],[-160,-55.41537],[-159.5,-55.68612],[-159,-55.95946],[-158.5,-56.23534],[-158,-56.51377],[-157.5,-56.79471],[-157,-57.07813],[-156.5,-57.36401],[-156,-57.65231],[-155.5,-57.94299],[-155,-58.23601],[-154.5,-58.53131],[-154,-58.82885],[-153.5,-59.12857],[-153,-59.4304],[-152.5,-59.73427],[-152,-60.04012],[-151.5,-60.34785],[-151,-60.65738],[-150.5,-60.96863],[-150,-61.28148],[-149.5,-61.59583],[-149,-61.91158],[-148.5,-62.22859],[-148,-62.54676],[-147.5,-62.86593],[-147,-63.18598],[-146.5,-63.50676],[-146,-63.82812],[-145.5,-64.14989],[-145,-64.47193],[-144.5,-64.79405],[-144,-65.11609],[-143.5,-65.43787],[-143,-65.75921],[-142.5,-66.07991],[-142,-66.39981],[-141.5,-66.71869],[-141,-67.03638],[-140.5,-67.35268],[-140,-67.66739],[-139.5,-67.98034],[-139,-68.29133],[-138.5,-68.60017],[-138,-68.90669],[-137.5,-69.21065],[-137.5,-69.2107],[-137,-69.51203],[-136.5,-69.81052],[-136,-70.106],[-135.5,-70.39833],[-135,-70.68735],[-134.5,-70.97293],[-134,-71.25494],[-133.5,-71.53326],[-133,-71.80778],[-132.5,-72.07841],[-132,-72.34505],[-131.5,-72.60762],[-131,-72.86606],[-130.5,-73.12025],[-130.5,-73.1203],[-130,-73.37029],[-129.5,-73.61599],[-129,-73.85737],[-128.5,-74.09441],[-128,-74.32709],[-127.5,-74.5554],[-127,-74.77936],[-126.5,-74.99896],[-126,-75.21422],[-125.5,-75.42518],[-125.5,-75.42517],[-125,-75.63184],[-124.5,-75.83426],[-124,-76.03247],[-123.5,-76.2265],[-123,-76.41642],[-122.5,-76.60228],[-122,-76.78412],[-121.5,-76.96201],[-121.5,-76.962],[-121,-77.136],[-120.5,-77.30616],[-120,-77.47256],[-119.5,-77.63526],[-119,-77.79433],[-118.5,-77.94984],[-118,-78.10185],[-117.5,-78.25044],[-117,-78.39567],[-116.5,-78.53762],[-116,-78.67635],[-115.5,-78.81194],[-115,-78.94445],[-114.5,-79.07396],[-114,-79.20052],[-113.5,-79.32422],[-113.5,-79.32421],[-113,-79.4451],[-112.5,-79.56325],[-112,-79.67871],[-111.5,-79.79157],[-111,-79.90187],[-110.5,-80.00968],[-110,-80.11506],[-110,-80.11505],[-109.5,-80.21806],[-109,-80.31875],[-108.5,-80.41718],[-108,-80.5134],[-107.5,-80.60747],[-107,-80.69944],[-106.5,-80.78937],[-106,-80.87729],[-105.5,-80.96326],[-105,-81.04733],[-104.5,-81.12954],[-104,-81.20994],[-103.5,-81.28857],[-103,-81.36548],[-103,-81.36547],[-102.5,-81.44069],[-102,-81.51426],[-101.5,-81.58623],[-101,-81.65662],[-100.5,-81.72549],[-100,-81.79286],[-99.5,-81.85876],[-99,-81.92324],[-98.5,-81.98633],[-98,-82.04806],[-97.5,-82.10845],[-97,-82.16755],[-96.5,-82.22537],[-96,-82.28195],[-95.5,-82.33732],[-95,-82.39149],[-94.5,-82.44451],[-94,-82.49639],[-93.5,-82.54716],[-93,-82.59684],[-92.5,-82.64545],[-92,-82.69302],[-91.5,-82.73958],[-91,-82.78513],[-90.5,-82.82971],[-90,-82.87333],[-90,-82.87332],[-89.5,-82.916],[-89,-82.95776],[-88.5,-82.99862],[-88,-83.0386],[-87.5,-83.0777],[-87,-83.11596],[-86.5,-83.15339],[-86,-83.19],[-85.5,-83.22581],[-85.5,-83.2258],[-85,-83.26083],[-85,-83.26082],[-84.5,-83.29507],[-84,-83.32856],[-83.5,-83.36131],[-83,-83.39332],[-82.5,-83.42462],[-82.5,-83.42461],[-82,-83.4552],[-81.5,-83.4851],[-81,-83.51431],[-80.5,-83.54285],[-80.5,-83.54286],[-80,-83.57074],[-79.5,-83.59797],[-79,-83.62457],[-78.5,-83.65054],[-78,-83.67589],[-77.5,-83.70063],[-77,-83.72477],[-76.5,-83.74832],[-76,-83.77129],[-75.5,-83.79369],[-75,-83.81552],[-74.5,-83.83679],[-74,-83.85751],[-73.5,-83.8777],[-73,-83.89734],[-72.5,-83.91646],[-72,-83.93506],[-71.5,-83.95314],[-71,-83.97072],[-70.5,-83.98779],[-70,-84.00437],[-69.5,-84.02045],[-69,-84.03605],[-68.5,-84.05117],[-68,-84.06582],[-67.5,-84.08],[-67.5,-84.07999],[-67,-84.09371],[-66.5,-84.10696],[-66,-84.11975],[-65.5,-84.1321],[-65,-84.14399],[-64.5,-84.15545],[-64,-84.16646],[-63.5,-84.17704],[-63,-84.18718],[-62.5,-84.1969],[-62,-84.20618],[-61.5,-84.21505],[-61,-84.22349],[-60.5,-84.23152],[-60,-84.23913],[-59.5,-84.24633],[-59,-84.25312],[-58.5,-84.25951],[-58,-84.26548],[-57.5,-84.27105],[-57,-84.27622],[-56.5,-84.28099],[-56,-84.28536],[-55.5,-84.28933],[-55,-84.2929],[-54.5,-84.29608],[-54,-84.29887],[-53.5,-84.30126],[-53,-84.30325],[-52.5,-84.30486],[-52,-84.30607],[-51.5,-84.30689],[-51,-84.30732],[-50.5,-84.30736],[-50,-84.30701],[-49.5,-84.30627],[-49,-84.30514],[-48.5,-84.30361],[-48,-84.30169],[-47.5,-84.29938],[-47,-84.29668],[-46.5,-84.29358],[-46,-84.29009],[-45.5,-84.2862],[-45,-84.28191],[-44.5,-84.27722],[-44,-84.27213],[-43.5,-84.26664],[-43,-84.26075],[-42.5,-84.25445],[-42,-84.24774],[-41.5,-84.24062],[-41,-84.23309],[-40.5,-84.22514],[-40,-84.21678],[-39.5,-84.208],[-39,-84.19879],[-38.5,-84.18916],[-38,-84.1791],[-37.5,-84.1686],[-37.5,-84.16861],[-37,-84.15768],[-36.5,-84.14631],[-36,-84.1345],[-35.5,-84.12224],[-35,-84.10953],[-34.5,-84.09636],[-34,-84.08273],[-33.5,-84.06864],[-33,-84.05408],[-32.5,-84.03905],[-32,-84.02354],[-31.5,-84.00754],[-31,-83.99105],[-30.5,-83.97406],[-30,-83.95658],[-29.5,-83.93858],[-29,-83.92007],[-28.5,-83.90105],[-28,-83.88149],[-27.5,-83.8614],[-27,-83.84076],[-26.5,-83.81958],[-26,-83.79784],[-25.5,-83.77554],[-25,-83.75266],[-24.5,-83.7292],[-24,-83.70515],[-23.5,-83.6805],[-23,-83.65524],[-22.5,-83.62937],[-22,-83.60286],[-21.5,-83.57572],[-21,-83.54793],[-20.5,-83.51948],[-20,-83.49036],[-19.5,-83.46056],[-19,-83.43006],[-18.5,-83.39886],[-18,-83.36694],[-17.5,-83.33429],[-17,-83.30089],[-16.5,-83.26673],[-16,-83.2318],[-15.5,-83.19609],[-15,-83.15957],[-14.5,-83.12223],[-14,-83.08406],[-13.5,-83.04504],[-13,-83.00515],[-12.5,-82.96438],[-12,-82.9227],[-11.5,-82.8801],[-11,-82.83657],[-10.5,-82.79207],[-10,-82.74659],[-9.5,-82.70011],[-9,-82.65261],[-8.5,-82.60406],[-8,-82.55445],[-7.5,-82.50374],[-7,-82.45192],[-6.5,-82.39896],[-6,-82.34483],[-5.5,-82.28951],[-5,-82.23297],[-4.5,-82.17518],[-4,-82.11611],[-3.5,-82.05574],[-3,-81.99403],[-2.5,-81.93095],[-2,-81.86647],[-1.5,-81.80055],[-1,-81.73316],[-0.5,-81.66426],[0,-81.59383],[0.5,-81.52181],[1,-81.44817],[1.5,-81.37287],[1.5,-81.37288],[2,-81.29588],[2.5,-81.21714],[3,-81.13661],[3.5,-81.05425],[4,-80.97001],[4.5,-80.88385],[5,-80.79571],[5.5,-80.70555],[6,-80.61331],[6,-80.61332],[6.5,-80.51895],[7,-80.4224],[7.5,-80.32362],[8,-80.22253],[8.5,-80.1191],[9,-80.01325],[9.5,-79.90492],[10,-79.79406],[10.5,-79.68059],[11,-79.56446],[11.5,-79.44559],[12,-79.32392],[12.5,-79.19938],[13,-79.0719],[13.5,-78.9414],[14,-78.80781],[14.5,-78.67106],[15,-78.53107],[15.5,-78.38778],[16,-78.24109],[16.5,-78.09094],[17,-77.93725],[17.5,-77.77994],[18,-77.61894],[18.5,-77.45416],[19,-77.28554],[19.5,-77.113],[19.5,-77.11299],[20,-76.93645],[20.5,-76.75584],[21,-76.57109],[21.5,-76.38214],[21.5,-76.38213],[22,-76.1889],[22.5,-75.99134],[23,-75.78938],[23.5,-75.58297],[24,-75.37206],[24.5,-75.15661],[25,-74.93657],[25.5,-74.71192],[26,-74.48262],[26.5,-74.24866],[27,-74.01002],[27.5,-73.76671],[28,-73.51872],[28.5,-73.26608],[29,-73.0088],[29.5,-72.74693],[30,-72.48051],[30,-72.4805],[30.5,-72.20959],[31,-71.93424],[31.5,-71.65456],[32,-71.37061],[32.5,-71.08252],[33,-70.79039],[33.5,-70.49435],[34,-70.19453],[34.5,-69.89109],[35,-69.58418],[35.5,-69.27396],[36,-68.96062],[36.5,-68.64434],[37,-68.32532],[37.5,-68.00374],[38,-67.67982],[38.5,-67.35376],[39,-67.02578],[39.5,-66.69609],[40,-66.36491],[40.5,-66.03246],[41,-65.69895],[41.5,-65.36461],[42,-65.02964],[42.5,-64.69426],[43,-64.35868],[43.5,-64.02309],[44,-63.6877],[44.5,-63.35269],[45,-63.01826],[45.5,-62.68457],[46,-62.35181],[46.5,-62.02013],[47,-61.6897],[47.5,-61.36065],[48,-61.03314],[48.5,-60.70728],[49,-60.38322],[49.5,-60.06106],[50,-59.74091],[50.5,-59.42288],[51,-59.10705],[51.5,-58.79353],[52,-58.48237],[52.5,-58.17367],[53,-57.86747],[53.5,-57.56386],[54,-57.26287],[54.5,-56.96456],[55,-56.66897],[55.5,-56.37614],[56,-56.0861],[56.5,-55.79889],[57,-55.51452],[57.5,-55.23302],[58,-54.9544],[58.5,-54.67868],[59,-54.40587],[59.5,-54.13597],[60,-53.869],[60.5,-53.60494],[61,-53.3438],[61.49023,-53.0906]]}},{"type":"Feature","id":"+05310104:center:0","properties":{"id":"+05310104","year":531,"month":1,"day":4,"time_tdt":"16:51:18","type":"금환일식","type_code":"A","saros":98,"gamma":-0.8996,"magnitude":0.92252,"greatest":{"lat":-86.88659,"lng":-25.11798},"path_width_km":682,"duration":"05m32s","delta_t_seconds":5378.4,"catalog_number":6015,"source":"NASA Five Millennium Canon of Solar Eclipses","source_url":"https://eclipse.gsfc.nasa.gov/SEsearch/SEsearchmap.php?Ecl=%2B05310104","boundary":"center","name":"531-01-04 금환일식"},"geometry":{"type":"LineString","coordinates":[[-165.95597,-57.38106],[-165.5,-57.64302],[-165,-57.92287],[-164.5,-58.20608],[-164,-58.49269],[-163.5,-58.78269],[-163,-59.07611],[-162.5,-59.37293],[-162,-59.67317],[-161.5,-59.97682],[-161,-60.28388],[-160.5,-60.59434],[-160,-60.90817],[-159.5,-61.22536],[-159,-61.54589],[-158.5,-61.86972],[-158,-62.1968],[-157.5,-62.52711],[-157,-62.86057],[-156.5,-63.19713],[-156,-63.53671],[-155.5,-63.87924],[-155,-64.22462],[-154.5,-64.57274],[-154,-64.92351],[-153.5,-65.27678],[-153,-65.63243],[-152.5,-65.99029],[-152,-66.35021],[-151.5,-66.71201],[-151,-67.07549],[-150.5,-67.44044],[-150,-67.80666],[-149.5,-68.17389],[-149,-68.54188],[-148.5,-68.91038],[-148,-69.27911],[-147.5,-69.64776],[-147,-70.01605],[-146.5,-70.38365],[-146,-70.75024],[-145.5,-71.1155],[-145,-71.47907],[-144.5,-71.84063],[-144,-72.19982],[-143.5,-72.55629],[-143,-72.90972],[-142.5,-73.25975],[-142,-73.60605],[-141.5,-73.94831],[-141,-74.28621],[-140.5,-74.61946],[-140,-74.94777],[-140,-74.94778],[-139.5,-75.27089],[-139,-75.58857],[-138.5,-75.90059],[-138,-76.20674],[-137.5,-76.50686],[-137,-76.80079],[-136.5,-77.08841],[-136,-77.36961],[-135.5,-77.6443],[-135,-77.91244],[-134.5,-78.17399],[-134,-78.42893],[-133.5,-78.67727],[-133,-78.91904],[-132.5,-79.15428],[-132,-79.38305],[-131.5,-79.60542],[-131,-79.82148],[-130.5,-80.03133],[-130,-80.23509],[-129.5,-80.43285],[-129,-80.62476],[-128.5,-80.81093],[-128,-80.99152],[-127.5,-81.16665],[-127,-81.33647],[-126.5,-81.50112],[-126,-81.66075],[-125.5,-81.8155],[-125,-81.96552],[-124.5,-82.11096],[-124,-82.25194],[-123.5,-82.38863],[-123,-82.52114],[-122.5,-82.64962],[-122,-82.77421],[-121.5,-82.89502],[-121,-83.0122],[-120.5,-83.12585],[-120,-83.2361],[-119.5,-83.34307],[-119,-83.44687],[-118.5,-83.54761],[-118.5,-83.5476],[-118,-83.64538],[-117.5,-83.74031],[-117,-83.83247],[-116.5,-83.92197],[-116,-84.00891],[-115.5,-84.09336],[-115,-84.17541],[-114.5,-84.25515],[-114,-84.33266],[-113.5,-84.408],[-113,-84.48126],[-112.5,-84.5525],[-112,-84.62179],[-111.5,-84.68919],[-111,-84.75478],[-110.5,-84.81861],[-110.5,-84.8186],[-110,-84.88073],[-109.5,-84.9412],[-109,-85.00008],[-108.5,-85.05742],[-108,-85.11326],[-107.5,-85.16766],[-107,-85.22066],[-106.5,-85.2723],[-106,-85.32263],[-105.5,-85.37168],[-105,-85.41951],[-105,-85.4195],[-104.5,-85.46613],[-104,-85.51159],[-103.5,-85.55593],[-103,-85.59918],[-102.5,-85.64136],[-102,-85.68252],[-101.5,-85.72268],[-101,-85.76187],[-100.5,-85.80011],[-100,-85.83744],[-99.5,-85.87388],[-99,-85.90946],[-98.5,-85.94419],[-98,-85.9781],[-97.5,-86.01122],[-97,-86.04356],[-96.5,-86.07515],[-96,-86.106],[-95.5,-86.13614],[-95,-86.16558],[-94.5,-86.19434],[-94,-86.22244],[-93.5,-86.24989],[-93,-86.27672],[-92.5,-86.30293],[-92,-86.32854],[-91.5,-86.35356],[-91,-86.37802],[-90.5,-86.40192],[-90,-86.42528],[-89.5,-86.4481],[-89,-86.4704],[-88.5,-86.4922],[-88,-86.5135],[-87.5,-86.53432],[-87,-86.55466],[-86.5,-86.57453],[-86,-86.59395],[-85.5,-86.61293],[-85,-86.63147],[-84.5,-86.64959],[-84,-86.66728],[-83.5,-86.68457],[-83,-86.70145],[-82.5,-86.71794],[-82,-86.73405],[-81.5,-86.74978],[-81,-86.76513],[-80.5,-86.78012],[-80,-86.79476],[-79.5,-86.80904],[-79,-86.82298],[-78.5,-86.83657],[-78,-86.84984],[-77.5,-86.86277],[-77,-86.87539],[-76.5,-86.88768],[-76,-86.89967],[-75.5,-86.91135],[-75,-86.92272],[-74.5,-86.9338],[-74,-86.94459],[-73.5,-86.95509],[-73,-86.9653],[-72.5,-86.97523],[-72,-86.98489],[-71.5,-86.99427],[-71,-87.00339],[-70.5,-87.01224],[-70,-87.02083],[-69.5,-87.02916],[-69,-87.03723],[-68.5,-87.04505],[-68,-87.05262],[-67.5,-87.05995],[-67,-87.06703],[-66.5,-87.07386],[-66,-87.08046],[-65.5,-87.08683],[-65,-87.09296],[-64.5,-87.09886],[-64.5,-87.09885],[-64,-87.10452],[-63.5,-87.10996],[-63,-87.11518],[-62.5,-87.12017],[-62,-87.12493],[-61.5,-87.12948],[-61,-87.13381],[-60.5,-87.13792],[-60,-87.14182],[-59.5,-87.1455],[-59,-87.14897],[-58.5,-87.15222],[-58,-87.15527],[-57.5,-87.1581],[-57,-87.16073],[-56.5,-87.16315],[-56,-87.16536],[-55.5,-87.16736],[-55,-87.16916],[-54.5,-87.17075],[-54,-87.17214],[-53.5,-87.17333],[-53,-87.17431],[-52.5,-87.17509],[-52,-87.17567],[-51.5,-87.17604],[-51,-87.17621],[-50.5,-87.17618],[-50,-87.17594],[-49.5,-87.1755],[-49,-87.17486],[-48.5,-87.17402],[-48,-87.17297],[-47.5,-87.17172],[-47,-87.17027],[-46.5,-87.16861],[-46,-87.16674],[-45.5,-87.16467],[-45,-87.16239],[-44.5,-87.15991],[-44,-87.15721],[-43.5,-87.15431],[-43,-87.1512],[-42.5,-87.14787],[-42,-87.14434],[-41.5,-87.14059],[-41,-87.13662],[-40.5,-87.13244],[-40,-87.12804],[-39.5,-87.12342],[-39.5,-87.12343],[-39,-87.11858],[-38.5,-87.11352],[-38,-87.10823],[-38,-87.10824],[-37.5,-87.10272],[-37,-87.09698],[-36.5,-87.09101],[-36,-87.0848],[-35.5,-87.07836],[-35,-87.07168],[-34.5,-87.06477],[-34,-87.05761],[-33.5,-87.0502],[-33,-87.04255],[-32.5,-87.03465],[-32,-87.02649],[-31.5,-87.01808],[-31,-87.0094],[-30.5,-87.00047],[-30,-86.99126],[-29.5,-86.98179],[-29,-86.97204],[-28.5,-86.96202],[-28,-86.95171],[-27.5,-86.94112],[-27,-86.93024],[-26.5,-86.91906],[-26,-86.90758],[-25.5,-86.8958],[-25,-86.88371],[-24.5,-86.87131],[-24,-86.85859],[-23.5,-86.84554],[-23,-86.83217],[-22.5,-86.81846],[-22,-86.80441],[-21.5,-86.79001],[-21,-86.77526],[-20.5,-86.76014],[-20,-86.74466],[-19.5,-86.72881],[-19,-86.71257],[-18.5,-86.69595],[-18,-86.67892],[-17.5,-86.6615],[-17,-86.64366],[-16.5,-86.6254],[-16,-86.60671],[-15.5,-86.58758],[-15,-86.568],[-14.5,-86.54797],[-14,-86.52746],[-13.5,-86.50648],[-13,-86.48501],[-12.5,-86.46303],[-12,-86.44055],[-11.5,-86.41754],[-11,-86.39399],[-10.5,-86.3699],[-10,-86.34524],[-9.5,-86.32001],[-9,-86.29418],[-8.5,-86.26775],[-8,-86.24071],[-7.5,-86.21302],[-7,-86.18468],[-6.5,-86.15568],[-6,-86.12599],[-5.5,-86.09559],[-5,-86.06447],[-4.5,-86.0326],[-4,-85.99998],[-3.5,-85.96657],[-3,-85.93235],[-2.5,-85.89731],[-2,-85.86141],[-1.5,-85.82464],[-1,-85.78696],[-0.5,-85.74836],[0,-85.7088],[0.5,-85.66826],[1,-85.62671],[1.5,-85.58411],[2,-85.54044],[2.5,-85.49566],[3,-85.44974],[3.5,-85.40265],[4,-85.35434],[4.5,-85.30477],[5,-85.25391],[5.5,-85.20172],[6,-85.14815],[6.5,-85.09316],[7,-85.03669],[7.5,-84.97871],[8,-84.91916],[8.5,-84.85798],[9,-84.79513],[9.5,-84.73054],[10,-84.66416],[10.5,-84.59593],[11,-84.52577],[11.5,-84.45362],[12,-84.37942],[12.5,-84.30308],[13,-84.22454],[13.5,-84.14371],[13.5,-84.14372],[14,-84.06052],[14.5,-83.97488],[15,-83.88669],[15.5,-83.79587],[16,-83.70232],[16.5,-83.60595],[17,-83.50665],[17.5,-83.40431],[18,-83.29882],[18.5,-83.19008],[19,-83.07795],[19.5,-82.96232],[19.5,-82.96233],[20,-82.84307],[20.5,-82.72006],[21,-82.59316],[21.5,-82.46224],[22,-82.32714],[22.5,-82.18773],[23,-82.04386],[23.5,-81.89538],[24,-81.74214],[24.5,-81.58398],[25,-81.42075],[25.5,-81.25229],[26,-81.07843],[26.5,-80.89904],[27,-80.71394],[27.5,-80.52298],[28,-80.32602],[28.5,-80.12291],[29,-79.91351],[29.5,-79.69769],[30,-79.47533],[30.5,-79.2463],[31,-79.01052],[31.5,-78.76788],[32,-78.51833],[32.5,-78.26179],[33,-77.99825],[33.5,-77.72767],[34,-77.45007],[34.5,-77.16547],[35,-76.87393],[35.5,-76.57553],[36,-76.27037],[36.5,-75.95859],[37,-75.64034],[37.5,-75.31581],[38,-74.98521],[38.5,-74.64879],[39,-74.3068],[39.5,-73.95954],[39.5,-73.95953],[40,-73.6073],[40.5,-73.25042],[41,-72.88924],[41.5,-72.52411],[42,-72.15541],[42.5,-71.78351],[43,-71.40879],[43.5,-71.03163],[44,-70.65243],[44.5,-70.27156],[45,-69.8894],[45.5,-69.50633],[46,-69.12269],[46.5,-68.73885],[47,-68.35514],[47.5,-67.97187],[48,-67.58937],[48.5,-67.20791],[49,-66.82778],[49.5,-66.44924],[50,-66.07252],[50.5,-65.69786],[51,-65.32545],[51.5,-64.9555],[52,-64.58818],[52.5,-64.22364],[53,-63.86204],[53.5,-63.5035],[54,-63.14814],[54.5,-62.79607],[55,-62.44738],[55.5,-62.10214],[56,-61.76044],[56.5,-61.42233],[57,-61.08786],[57.5,-60.75707],[58,-60.43],[58.5,-60.10667],[59,-59.78711],[59.5,-59.47133],[60,-59.15933],[60.5,-58.85112],[61,-58.5467],[61.5,-58.24606],[62,-57.9492],[62.5,-57.65609],[63,-57.36673],[63.5,-57.08109],[64,-56.79916],[64.5,-56.5209],[65,-56.2463],[65.5,-55.97533],[66,-55.70795],[66.5,-55.44414],[66.47321,-55.43873]]}},{"type":"Feature","id":"+05310104:south:0","properties":{"id":"+05310104","year":531,"month":1,"day":4,"time_tdt":"16:51:18","type":"금환일식","type_code":"A","saros":98,"gamma":-0.8996,"magnitude":0.92252,"greatest":{"lat":-86.88659,"lng":-25.11798},"path_width_km":682,"duration":"05m32s","delta_t_seconds":5378.4,"catalog_number":6015,"source":"NASA Five Millennium Canon of Solar Eclipses","source_url":"https://eclipse.gsfc.nasa.gov/SEsearch/SEsearchmap.php?Ecl=%2B05310104","boundary":"south","name":"531-01-04 금환일식"},"geometry":{"type":"LineString","coordinates":[[-172.5,-59.91292],[-172,-60.2073],[-171.5,-60.50667],[-171,-60.81115],[-170.5,-61.12086],[-170,-61.43592],[-169.5,-61.75646],[-169,-62.08262],[-168.5,-62.41454],[-168,-62.75236],[-167.5,-63.09623],[-167,-63.44633],[-166.5,-63.80281],[-166,-64.16585],[-165.5,-64.53564],[-165,-64.91238],[-164.5,-65.29626],[-164,-65.68751],[-163.5,-66.08635],[-163,-66.49303],[-162.5,-66.90781],[-162,-67.33096],[-161.5,-67.76278],[-161,-68.20358],[-160.5,-68.65371],[-160,-69.11354],[-159.5,-69.58347],[-159,-70.06394],[-158.5,-70.55545],[-158,-71.05853],[-157.5,-71.57379],[-157,-72.10194],[-156.5,-72.64375],[-156,-73.20016],[-155.5,-73.77227],[-155,-74.3614],[-154.5,-74.96916],[-154,-75.5976],[-153.5,-76.24937],[-153,-76.92802],[-152.5,-77.63852],[-152,-78.38821],[-151.5,-79.18877],[-151,-80.06088],[-150.5,-81.04828],[-150,-85.51333],[-150.5,-86.15466],[-151,-86.55626],[-151.5,-86.85231],[-152,-87.0865],[-152.5,-87.27946],[-153,-87.44281],[-153.5,-87.5838],[-154,-87.70729],[-154.5,-87.81673],[-155,-87.91462],[-155.5,-88.00288],[-156,-88.08298],[-156.5,-88.15609],[-157,-88.22316],[-157.5,-88.28495],[-158,-88.3421],[-158.5,-88.39515],[-159,-88.44454],[-159.5,-88.49065],[-160,-88.53382],[-160.5,-88.57432],[-161,-88.61241],[-161.5,-88.6483],[-162,-88.68218],[-162.5,-88.71422],[-163,-88.74457],[-163.5,-88.77336],[-164,-88.80071],[-164.5,-88.82672],[-165,-88.8515],[-165.5,-88.87512],[-166,-88.89767],[-166.5,-88.91921],[-167,-88.93982],[-167.5,-88.95956],[-168,-88.97847],[-168.5,-88.9966],[-169,-89.01401],[-169.5,-89.03073],[-170,-89.0468],[-170.5,-89.06227],[-171,-89.07715],[-171.5,-89.09149],[-172,-89.10531],[-172.5,-89.11863],[-173,-89.13149],[-173.5,-89.14391],[-174,-89.1559],[-174.5,-89.16749],[-175,-89.17869],[-175.5,-89.18953],[-176,-89.20002],[-176.5,-89.21018],[-177,-89.22001],[-177.5,-89.22954],[-178,-89.23878],[-178.5,-89.24773],[-179,-89.25642],[-179.5,-89.26485]]}},{"type":"Feature","id":"+05310104:south:1","properties":{"id":"+05310104","year":531,"month":1,"day":4,"time_tdt":"16:51:18","type":"금환일식","type_code":"A","saros":98,"gamma":-0.8996,"magnitude":0.92252,"greatest":{"lat":-86.88659,"lng":-25.11798},"path_width_km":682,"duration":"05m32s","delta_t_seconds":5378.4,"catalog_number":6015,"source":"NASA Five Millennium Canon of Solar Eclipses","source_url":"https://eclipse.gsfc.nasa.gov/SEsearch/SEsearchmap.php?Ecl=%2B05310104","boundary":"south","name":"531-01-04 금환일식"},"geometry":{"type":"LineString","coordinates":[[180,-89.27303],[179.5,-89.28097],[179,-89.28868],[178.5,-89.29617],[178,-89.30345],[177.5,-89.31053],[177,-89.31741],[176.5,-89.32409],[176,-89.3306],[175.5,-89.33693],[175,-89.34309],[174.5,-89.34908],[174,-89.35491],[173.5,-89.36059],[173,-89.36612],[172.5,-89.37151],[172,-89.37675],[171.5,-89.38186],[171,-89.38684],[170.5,-89.3917],[170,-89.39642],[169.5,-89.40103],[169,-89.40552],[168.5,-89.4099],[168,-89.41417],[167.5,-89.41834],[167,-89.4224],[166.5,-89.42635],[166,-89.43021],[165.5,-89.43398],[165,-89.43765],[164.5,-89.44123],[164,-89.44472],[163.5,-89.44813],[163,-89.45145],[162.5,-89.45469],[162,-89.45785],[161.5,-89.46093],[161,-89.46393],[160.5,-89.46686],[160,-89.46972],[159.5,-89.4725],[159,-89.47522],[158.5,-89.47787],[158,-89.48045],[157.5,-89.48297],[157,-89.48542],[156.5,-89.48781],[156,-89.49014],[155.5,-89.4924],[155,-89.49461],[154.5,-89.49676],[154,-89.49886],[153.5,-89.5009],[153,-89.50288],[152.5,-89.50481],[152,-89.50668],[151.5,-89.50851],[151,-89.51028],[150.5,-89.512],[150,-89.51368],[149.5,-89.5153],[149,-89.51688],[148.5,-89.51841],[148,-89.51989],[147.5,-89.52133],[147,-89.52272],[146.5,-89.52406],[146,-89.52537],[145.5,-89.52662],[145,-89.52784],[144.5,-89.52901],[144,-89.53014],[143.5,-89.53123],[143,-89.53228],[142.5,-89.53329],[142,-89.53426],[141.5,-89.53519],[141,-89.53608],[140.5,-89.53693],[140,-89.53774],[139.5,-89.53851],[139,-89.53924],[138.5,-89.53994],[138,-89.5406],[137.5,-89.54122],[137,-89.54181],[136.5,-89.54236],[136,-89.54287],[135.5,-89.54334],[135,-89.54378],[134.5,-89.54419],[134,-89.54456],[133.5,-89.54489],[133,-89.54519],[132.5,-89.54545],[132,-89.54567],[131.5,-89.54586],[131,-89.54602],[130.5,-89.54614],[130,-89.54623],[129.5,-89.54628],[129,-89.54629],[128.5,-89.54628],[128,-89.54622],[127.5,-89.54613],[127,-89.54601],[126.5,-89.54585],[126,-89.54566],[125.5,-89.54543],[125,-89.54516],[124.5,-89.54486],[124,-89.54453],[123.5,-89.54415],[123,-89.54375],[122.5,-89.54331],[122,-89.54283],[121.5,-89.54231],[121,-89.54176],[120.5,-89.54117],[120,-89.54055],[119.5,-89.53988],[119,-89.53918],[118.5,-89.53844],[118,-89.53767],[117.5,-89.53685],[117,-89.536],[116.5,-89.53511],[116,-89.53418],[115.5,-89.53321],[115,-89.5322],[114.5,-89.53114],[114,-89.53005],[113.5,-89.52891],[113,-89.52774],[112.5,-89.52652],[112,-89.52526],[111.5,-89.52395],[111,-89.5226],[110.5,-89.52121],[110,-89.51976],[109.5,-89.51828],[109,-89.51675],[108.5,-89.51517],[108,-89.51354],[107.5,-89.51186],[107,-89.51013],[106.5,-89.50836],[106,-89.50653],[105.5,-89.50465],[105,-89.50271],[104.5,-89.50072],[104,-89.49868],[103.5,-89.49658],[103,-89.49443],[102.5,-89.49221],[102,-89.48994],[101.5,-89.48761],[101,-89.48521],[100.5,-89.48276],[100,-89.48023],[99.5,-89.47765],[99,-89.47499],[98.5,-89.47227],[98,-89.46948],[97.5,-89.46662],[97,-89.46368],[96.5,-89.46067],[96,-89.45758],[95.5,-89.45441],[95,-89.45117],[94.5,-89.44784],[94,-89.44443],[93.5,-89.44093],[93,-89.43734],[92.5,-89.43366],[92,-89.42989],[91.5,-89.42602],[91,-89.42205],[90.5,-89.41799],[90,-89.41382],[89.5,-89.40954],[89,-89.40515],[88.5,-89.40065],[88,-89.39603],[87.5,-89.39129],[87,-89.38643],[86.5,-89.38144],[86,-89.37632],[85.5,-89.37106],[85,-89.36566],[84.5,-89.36012],[84,-89.35443],[83.5,-89.34858],[83,-89.34257],[82.5,-89.3364],[82,-89.33006],[81.5,-89.32354],[81,-89.31683],[80.5,-89.30994],[80,-89.30285],[79.5,-89.29555],[79,-89.28804],[78.5,-89.28031],[78,-89.27235],[77.5,-89.26415],[77,-89.2557],[76.5,-89.24699],[76,-89.23801],[75.5,-89.22875],[75,-89.21919],[74.5,-89.20933],[74,-89.19915],[73.5,-89.18863],[73,-89.17777],[72.5,-89.16653],[72,-89.15491],[71.5,-89.14288],[71,-89.13043],[70.5,-89.11754],[70,-89.10417],[69.5,-89.09031],[69,-89.07593],[68.5,-89.061],[68,-89.04549],[67.5,-89.02936],[67,-89.01259],[66.5,-88.99512],[66,-88.97693],[65.5,-88.95795],[65,-88.93815],[64.5,-88.91747],[64,-88.89585],[63.5,-88.87322],[63,-88.8495],[62.5,-88.82463],[62,-88.79852],[61.5,-88.77106],[61,-88.74216],[60.5,-88.71169],[60,-88.67951],[59.5,-88.64548],[59,-88.60943],[58.5,-88.57116],[58,-88.53047],[57.5,-88.48709],[57,-88.44075],[56.5,-88.39111],[56,-88.33778],[55.5,-88.28031],[55,-88.21817],[54.5,-88.15071],[54,-88.07716],[53.5,-87.99656],[53,-87.90773],[52.5,-87.80917],[52,-87.69896],[51.5,-87.57455],[51,-87.43247],[50.5,-87.26779],[50,-87.07317],[49.5,-86.83687],[49,-86.538],[48.5,-86.13243],[48,-85.4852],[48.5,-80.90429],[49,-79.88994],[49.5,-78.99221],[50,-78.16701],[50.5,-77.39349],[51,-76.65991],[51.5,-75.95887],[52,-75.28541],[52.5,-74.63596],[53,-74.00788],[53.5,-73.39913],[54,-72.80809],[54.5,-72.23345],[55,-71.67409],[55.5,-71.1291],[56,-70.59768],[56.5,-70.07912],[57,-69.5728],[57.5,-69.07818],[58,-68.59476],[58.5,-68.12207],[59,-67.65971],[59.5,-67.20729],[60,-66.76446],[60.5,-66.33088],[61,-65.90624],[61.5,-65.49025],[62,-65.08264],[62.5,-64.68316],[63,-64.29155],[63.5,-63.90758],[64,-63.53104],[64.5,-63.16171],[65,-62.7994],[65.5,-62.44392],[66,-62.09508],[66.5,-61.7527],[67,-61.41663],[67.5,-61.08671],[68,-60.76278],[68.5,-60.44469],[69,-60.13231],[69.5,-59.82549],[70,-59.52412],[70.5,-59.22806],[71,-58.9372],[71.5,-58.65142],[72,-58.37061],[72.5,-58.09466]]}},{"type":"Feature","id":"+05310630:north:0","properties":{"id":"+05310630","year":531,"month":6,"day":30,"time_tdt":"09:51:59","type":"개기일식","type_code":"T","saros":103,"gamma":0.94401,"magnitude":1.06655,"greatest":{"lat":85.15214,"lng":-106.29987},"path_width_km":679.7,"duration":"03m23s","delta_t_seconds":5373.7,"catalog_number":6016,"source":"NASA Five Millennium Canon of Solar Eclipses","source_url":"https://eclipse.gsfc.nasa.gov/SEsearch/SEsearchmap.php?Ecl=%2B05310630","boundary":"north","name":"531-06-30 개기일식"},"geometry":{"type":"LineString","coordinates":[[-80,61.21979],[-79.5,61.59245],[-79,61.98199],[-78.5,62.3904],[-78,62.82018],[-77.5,63.27453],[-77,63.75765],[-76.5,64.27522],[-76,64.83536],[-75.5,65.45033],[-75,66.1404],[-74.5,66.94386],[-74,67.95392],[-73.5,69.66462],[-74,72.94876],[-74.5,73.76085],[-75,74.36958],[-75.5,74.8681],[-76,75.29468],[-76.5,75.66952],[-77,76.00483],[-77.5,76.30869],[-78,76.58677],[-78.5,76.84319],[-79,77.08114],[-79.5,77.30305],[-80,77.51091],[-80.5,77.7063],[-81,77.89057],[-81.5,78.0648],[-82,78.22995],[-82.5,78.38682],[-83,78.5361],[-83.5,78.67839],[-84,78.81424],[-84.5,78.94411],[-85,79.06842],[-85.5,79.18753],[-86,79.30178],[-86.5,79.41147],[-87,79.51688],[-87.5,79.61824],[-88,79.71579],[-88.5,79.80972],[-89,79.90023],[-89.5,79.98748],[-90,80.07164],[-90.5,80.15285],[-91,80.23125],[-91.5,80.30697],[-92,80.38011],[-92.5,80.45079],[-93,80.51911],[-93.5,80.58517],[-94,80.64904],[-94.5,80.71082],[-95,80.77058],[-95.5,80.8284],[-96,80.88434],[-96.5,80.93846],[-97,80.99083],[-97.5,81.0415],[-98,81.09053],[-98.5,81.13797],[-99,81.18387],[-99.5,81.22826],[-100,81.2712],[-100.5,81.31272],[-101,81.35286],[-101.5,81.39166],[-102,81.42915],[-102.5,81.46537],[-103,81.50034],[-103.5,81.5341],[-104,81.56668],[-104.5,81.59809],[-105,81.62836],[-105.5,81.65753],[-106,81.6856],[-106.5,81.71261],[-107,81.73857],[-107.5,81.76351],[-108,81.78743],[-108.5,81.81036],[-109,81.83231],[-109.5,81.85331],[-110,81.87335],[-110.5,81.89247],[-111,81.91067],[-111.5,81.92796],[-112,81.94435],[-112.5,81.95986],[-113,81.9745],[-113.5,81.98828],[-114,82.00119],[-114.5,82.01327],[-115,82.0245],[-115.5,82.0349],[-116,82.04448],[-116.5,82.05323],[-117,82.06118],[-117.5,82.06831],[-118,82.07464],[-118.5,82.08017],[-119,82.08491],[-119.5,82.08885],[-120,82.092],[-120.5,82.09436],[-121,82.09593],[-121.5,82.09671],[-122,82.09671],[-122.5,82.09592],[-123,82.09434],[-123.5,82.09197],[-124,82.08882],[-124.5,82.08487],[-125,82.08012],[-125.5,82.07459],[-126,82.06824],[-126.5,82.0611],[-127,82.05314],[-127.5,82.04437],[-128,82.03479],[-128.5,82.02437],[-129,82.01312],[-129.5,82.00103],[-130,81.98809],[-130.5,81.9743],[-131,81.95964],[-131.5,81.94411],[-132,81.92768],[-132.5,81.91037],[-133,81.89214],[-133.5,81.87299],[-134,81.85291],[-134.5,81.83188],[-135,81.80988],[-135.5,81.78691],[-136,81.76293],[-136.5,81.73795],[-137,81.71193],[-137.5,81.68487],[-138,81.65673],[-138.5,81.62749],[-139,81.59714],[-139.5,81.56565],[-140,81.53299],[-140.5,81.49914],[-141,81.46406],[-141.5,81.42774],[-142,81.39013],[-142.5,81.35121],[-143,81.31093],[-143.5,81.26927],[-144,81.22618],[-144.5,81.18162],[-145,81.13555],[-145.5,81.08792],[-146,81.03868],[-146.5,80.98779],[-147,80.93518],[-147.5,80.88081],[-148,80.82459],[-148.5,80.76648],[-149,80.7064],[-149.5,80.64428],[-150,80.58003],[-150.5,80.51358],[-151,80.44482],[-151.5,80.37367],[-152,80.30002],[-152.5,80.22376],[-153,80.14476],[-153.5,80.0629],[-154,79.97803],[-154.5,79.89001],[-155,79.79866],[-155.5,79.70381],[-156,79.60525],[-156.5,79.50279],[-157,79.39617],[-157.5,79.28514],[-158,79.16941],[-158.5,79.04866],[-159,78.92254],[-159.5,78.79064],[-160,78.65253],[-160.5,78.50768],[-161,78.35554],[-161.5,78.19543],[-162,78.02658],[-162.5,77.84812],[-163,77.65897],[-163.5,77.45791],[-164,77.24341],[-164.5,77.01362],[-165,76.76624],[-165.5,76.49832],[-166,76.20601],[-166.5,75.88408],[-167,75.52514],[-167.5,75.11814],[-168,74.64511],[-168.5,74.07299],[-169,73.32578],[-169.5,72.09256],[-169.5,69.52112],[-169,68.08786],[-168.5,67.1436],[-168,66.37739],[-167.5,65.71319],[-167,65.1179],[-166.5,64.57351],[-166,64.06892],[-165.5,63.59673],[-165,63.15166]]}},{"type":"Feature","id":"+05310630:center:0","properties":{"id":"+05310630","year":531,"month":6,"day":30,"time_tdt":"09:51:59","type":"개기일식","type_code":"T","saros":103,"gamma":0.94401,"magnitude":1.06655,"greatest":{"lat":85.15214,"lng":-106.29987},"path_width_km":679.7,"duration":"03m23s","delta_t_seconds":5373.7,"catalog_number":6016,"source":"NASA Five Millennium Canon of Solar Eclipses","source_url":"https://eclipse.gsfc.nasa.gov/SEsearch/SEsearchmap.php?Ecl=%2B05310630","boundary":"center","name":"531-06-30 개기일식"},"geometry":{"type":"LineString","coordinates":[[-73.70113,59.33868],[-73.5,59.63156],[-73,59.95812],[-72.5,60.29367],[-72,60.63872],[-71.5,60.99384],[-71,61.35965],[-70.5,61.73689],[-70,62.12638],[-69.5,62.52907],[-69,62.94608],[-68.5,63.37873],[-68,63.82857],[-67.5,64.29751],[-67,64.78788],[-66.5,65.30263],[-66,65.84556],[-65.5,66.42171],[-65,67.03809],[-64.5,67.70489],[-64,68.43802],[-63.5,69.26514],[-63,70.24322],[-62.5,71.5404],[-62.5,75.78332],[-63,76.78421],[-63.5,77.47096],[-64,78.01162],[-64.5,78.46305],[-65,78.85281],[-65.5,79.19675],[-66,79.50495],[-66.5,79.78433],[-67,80.03987],[-67.5,80.27527],[-68,80.4934],[-68.5,80.69654],[-69,80.88649],[-69.5,81.06477],[-70,81.23262],[-70.5,81.39107],[-71,81.54103],[-71.5,81.68326],[-72,81.81842],[-72.5,81.94708],[-73,82.06977],[-73.5,82.18693],[-74,82.29896],[-74.5,82.40621],[-75,82.509],[-75.5,82.60763],[-76,82.70235],[-76.5,82.79341],[-77,82.88101],[-77.5,82.96535],[-78,83.04661],[-78.5,83.12496],[-79,83.20055],[-79.5,83.27353],[-80,83.34401],[-80.5,83.41212],[-81,83.47798],[-81.5,83.54168],[-82,83.60332],[-82.5,83.663],[-83,83.7208],[-83.5,83.77679],[-84,83.83105],[-84.5,83.88366],[-85,83.93467],[-85.5,83.98414],[-86,84.03214],[-86.5,84.07872],[-87,84.12392],[-87.5,84.16781],[-88,84.21042],[-88.5,84.2518],[-89,84.29199],[-89.5,84.33102],[-90,84.36894],[-90.5,84.40578],[-91,84.44157],[-91.5,84.47635],[-92,84.51015],[-92.5,84.54298],[-93,84.57489],[-93.5,84.6059],[-94,84.63602],[-94.5,84.66529],[-95,84.69373],[-95.5,84.72136],[-96,84.7482],[-96.5,84.77427],[-97,84.79959],[-97.5,84.82417],[-98,84.84804],[-98.5,84.8712],[-99,84.89369],[-99.5,84.9155],[-100,84.93665],[-100.5,84.95717],[-101,84.97705],[-101.5,84.99632],[-102,85.01499],[-102.5,85.03306],[-103,85.05055],[-103.5,85.06747],[-104,85.08383],[-104.5,85.09964],[-105,85.1149],[-105.5,85.12963],[-106,85.14384],[-106.5,85.15753],[-107,85.17071],[-107.5,85.18339],[-108,85.19557],[-108.5,85.20726],[-109,85.21848],[-109.5,85.22921],[-110,85.23948],[-110.5,85.24928],[-111,85.25862],[-111.5,85.2675],[-112,85.27594],[-112.5,85.28393],[-113,85.29148],[-113.5,85.29859],[-114,85.30526],[-114.5,85.31151],[-115,85.31732],[-115.5,85.32271],[-116,85.32768],[-116.5,85.33223],[-117,85.33636],[-117.5,85.34008],[-118,85.34338],[-118.5,85.34627],[-119,85.34875],[-119.5,85.35082],[-120,85.35248],[-120.5,85.35374],[-121,85.35458],[-121.5,85.35502],[-122,85.35506],[-122.5,85.35469],[-123,85.35391],[-123.5,85.35272],[-124,85.35113],[-124.5,85.34913],[-125,85.34671],[-125.5,85.34389],[-126,85.34066],[-126.5,85.33701],[-127,85.33295],[-127.5,85.32847],[-128,85.32357],[-128.5,85.31825],[-129,85.3125],[-129.5,85.30633],[-130,85.29972],[-130.5,85.29269],[-131,85.28521],[-131.5,85.27729],[-132,85.26893],[-132.5,85.26011],[-133,85.25085],[-133.5,85.24112],[-134,85.23093],[-134.5,85.22027],[-135,85.20913],[-135.5,85.19751],[-136,85.1854],[-136.5,85.1728],[-137,85.1597],[-137.5,85.14609],[-138,85.13196],[-138.5,85.11731],[-139,85.10213],[-139.5,85.0864],[-140,85.07012],[-140.5,85.05328],[-141,85.03588],[-141.5,85.01789],[-142,84.99931],[-142.5,84.98012],[-143,84.96033],[-143.5,84.9399],[-144,84.91883],[-144.5,84.89711],[-145,84.87472],[-145.5,84.85165],[-146,84.82787],[-146.5,84.80338],[-147,84.77816],[-147.5,84.75219],[-148,84.72544],[-148.5,84.69791],[-149,84.66957],[-149.5,84.6404],[-150,84.61037],[-150.5,84.57947],[-151,84.54767],[-151.5,84.51493],[-152,84.48124],[-152.5,84.44657],[-153,84.41089],[-153.5,84.37415],[-154,84.33634],[-154.5,84.29741],[-155,84.25734],[-155.5,84.21607],[-156,84.17357],[-156.5,84.12979],[-157,84.0847],[-157.5,84.03823],[-158,83.99034],[-158.5,83.94098],[-159,83.89008],[-159.5,83.83758],[-160,83.78343],[-160.5,83.72754],[-161,83.66985],[-161.5,83.61027],[-162,83.54872],[-162.5,83.48511],[-163,83.41934],[-163.5,83.3513],[-164,83.28089],[-164.5,83.20798],[-165,83.13244],[-165.5,83.05413],[-166,82.9729],[-166.5,82.88857],[-167,82.80096],[-167.5,82.70987],[-168,82.61509],[-168.5,82.51637],[-169,82.41345],[-169.5,82.30603],[-170,82.19378],[-170.5,82.07634],[-171,81.95329],[-171.5,81.82418],[-172,81.68847],[-172.5,81.54557],[-173,81.39479],[-173.5,81.23532],[-174,81.06623],[-174.5,80.88642],[-175,80.69457],[-175.5,80.48908],[-176,80.26799],[-176.5,80.02885],[-177,79.7685],[-177.5,79.48281],[-178,79.16617],[-178.5,78.81057],[-179,78.40397],[-179.5,77.92663]]}},{"type":"Feature","id":"+05310630:center:1","properties":{"id":"+05310630","year":531,"month":6,"day":30,"time_tdt":"09:51:59","type":"개기일식","type_code":"T","saros":103,"gamma":0.94401,"magnitude":1.06655,"greatest":{"lat":85.15214,"lng":-106.29987},"path_width_km":679.7,"duration":"03m23s","delta_t_seconds":5373.7,"catalog_number":6016,"source":"NASA Five Millennium Canon of Solar Eclipses","source_url":"https://eclipse.gsfc.nasa.gov/SEsearch/SEsearchmap.php?Ecl=%2B05310630","boundary":"center","name":"531-06-30 개기일식"},"geometry":{"type":"LineString","coordinates":[[180,77.34173],[179.5,76.56257],[179,75.19979],[179,72.79887],[179.5,71.14566],[180,70.08056]]}},{"type":"Feature","id":"+05310630:center:2","properties":{"id":"+05310630","year":531,"month":6,"day":30,"time_tdt":"09:51:59","type":"개기일식","type_code":"T","saros":103,"gamma":0.94401,"magnitude":1.06655,"greatest":{"lat":85.15214,"lng":-106.29987},"path_width_km":679.7,"duration":"03m23s","delta_t_seconds":5373.7,"catalog_number":6016,"source":"NASA Five Millennium Canon of Solar Eclipses","source_url":"https://eclipse.gsfc.nasa.gov/SEsearch/SEsearchmap.php?Ecl=%2B05310630","boundary":"center","name":"531-06-30 개기일식"},"geometry":{"type":"LineString","coordinates":[[-179.5,69.2141],[-179,68.45952],[-178.5,67.7799],[-178,67.15544],[-177.5,66.57402],[-177,66.02756],[-176.5,65.51038],[-176,65.01828],[-175.5,64.54804],[-175,64.09715],[-174.5,63.66357],[-174,63.24567],[-173.5,62.84205],[-173,62.45156],[-172.5,62.07322],[-172,61.70616],[-171.6644,61.40714]]}},{"type":"Feature","id":"+05310630:south:0","properties":{"id":"+05310630","year":531,"month":6,"day":30,"time_tdt":"09:51:59","type":"개기일식","type_code":"T","saros":103,"gamma":0.94401,"magnitude":1.06655,"greatest":{"lat":85.15214,"lng":-106.29987},"path_width_km":679.7,"duration":"03m23s","delta_t_seconds":5373.7,"catalog_number":6016,"source":"NASA Five Millennium Canon of Solar Eclipses","source_url":"https://eclipse.gsfc.nasa.gov/SEsearch/SEsearchmap.php?Ecl=%2B05310630","boundary":"south","name":"531-06-30 개기일식"},"geometry":{"type":"LineString","coordinates":[[-68.875,57.75774],[-68.5,57.97552],[-69,57.68583],[-68,58.27081],[-67.5,58.57184],[-67,58.8788],[-66.5,59.19183],[-66,59.51114],[-65.5,59.83691],[-65,60.16935],[-64.5,60.50867],[-64,60.85513],[-63.5,61.20896],[-63,61.57044],[-62.5,61.93986],[-62,62.31755],[-61.5,62.70385],[-61,63.09913],[-60.5,63.50381],[-60,63.91835],[-59.5,64.34326],[-59,64.77908],[-58.5,65.22647],[-58,65.68613],[-57.5,66.15887],[-57,66.64564],[-56.5,67.14752],[-56,67.66579],[-55.5,68.20198],[-55,68.75794],[-54.5,69.33595],[-54,69.93889],[-53.5,70.5705],[-53,71.23577],[-52.5,71.94166],[-52,72.69843],[-51.5,73.52234],[-51,74.44225],[-50.5,75.51988],[-50,76.9548],[-50,80.66366],[-50.5,81.63544],[-51,82.25801],[-51.5,82.73082],[-52,83.11543],[-52.5,83.44056],[-53,83.72233],[-53.5,83.97084],[-54,84.19291],[-54.5,84.3934],[-55,84.5759],[-55.5,84.74314],[-56,84.89728],[-56.5,85.04004],[-57,85.1728],[-57.5,85.29673],[-58,85.41277],[-58.5,85.52175],[-59,85.62437],[-59.5,85.72121],[-60,85.81279],[-60.5,85.89957],[-61,85.98195],[-61.5,86.06027],[-62,86.13484],[-62.5,86.20595],[-63,86.27384],[-63.5,86.33873],[-64,86.40083],[-64.5,86.46032],[-65,86.51736],[-65.5,86.57211],[-66,86.6247],[-66.5,86.67526],[-67,86.7239],[-67.5,86.77074],[-68,86.81586],[-68.5,86.85937],[-69,86.90134],[-69.5,86.94186],[-70,86.98099],[-70.5,87.0188],[-71,87.05536],[-71.5,87.09073],[-72,87.12495],[-72.5,87.15808],[-73,87.19018],[-73.5,87.22127],[-74,87.25141],[-74.5,87.28064],[-75,87.30899],[-75.5,87.33649],[-76,87.36319],[-76.5,87.38911],[-77,87.41429],[-77.5,87.43874],[-78,87.4625],[-78.5,87.4856],[-79,87.50805],[-79.5,87.52988],[-80,87.55111],[-80.5,87.57176],[-81,87.59185],[-81.5,87.61139],[-82,87.63042],[-82.5,87.64894],[-83,87.66696],[-83.5,87.68452],[-84,87.70161],[-84.5,87.71825],[-85,87.73446],[-85.5,87.75024],[-86,87.76562],[-86.5,87.7806],[-87,87.7952],[-87.5,87.80941],[-88,87.82326],[-89,87.84991],[-88.5,87.83676],[-89.5,87.86272],[-90,87.8752],[-90.5,87.88736],[-91,87.89921],[-91.5,87.91075],[-92,87.92199],[-92.5,87.93294],[-93,87.94361],[-93.5,87.95399],[-94,87.96411],[-94.5,87.97396],[-95,87.98355],[-95.5,87.99288],[-96,88.00197],[-96.5,88.01081],[-97,88.01941],[-97.5,88.02778],[-98,88.03591],[-98.5,88.04382],[-99,88.05151],[-99.5,88.05898],[-100,88.06623],[-100.5,88.07328],[-101,88.08012],[-101.5,88.08676],[-102,88.09319],[-102.5,88.09943],[-103,88.10548],[-103.5,88.11133],[-104,88.117],[-104.5,88.12248],[-105,88.12778],[-105.5,88.1329],[-106,88.13784],[-106.5,88.1426],[-107,88.1472],[-107.5,88.15162],[-108,88.15587],[-108.5,88.15996],[-109,88.16388],[-109.5,88.16763],[-110,88.17123],[-110.5,88.17466],[-111,88.17794],[-111.5,88.18105],[-112,88.18402],[-112.5,88.18682],[-113,88.18948],[-113.5,88.19198],[-114,88.19433],[-114.5,88.19653],[-115,88.19858],[-115.5,88.20048],[-116,88.20223],[-116.5,88.20384],[-117,88.2053],[-117.5,88.20662],[-118,88.20778],[-118.5,88.20881],[-119,88.20969],[-119.5,88.21043],[-120,88.21102],[-120.5,88.21147],[-121,88.21178],[-121.5,88.21194],[-122,88.21196],[-122.5,88.21184],[-123,88.21158],[-123.5,88.21117],[-124,88.21062],[-124.5,88.20992],[-125,88.20908],[-125.5,88.2081],[-126,88.20697],[-126.5,88.2057],[-127,88.20428],[-127.5,88.20272],[-128,88.20101],[-128.5,88.19915],[-129,88.19715],[-129.5,88.19499],[-130,88.19269],[-130.5,88.19023],[-131,88.18762],[-131.5,88.18486],[-132,88.18194],[-132.5,88.17887],[-133,88.17564],[-133.5,88.17226],[-134,88.16871],[-134.5,88.165],[-135,88.16113],[-135.5,88.15709],[-136,88.15289],[-136.5,88.14852],[-137,88.14397],[-137.5,88.13926],[-138,88.13437],[-138.5,88.1293],[-139,88.12406],[-139.5,88.11863],[-140,88.11302],[-140.5,88.10722],[-141,88.10123],[-141.5,88.09504],[-142,88.08867],[-142.5,88.08209],[-143,88.07531],[-143.5,88.06832],[-144,88.06113],[-144.5,88.05372],[-145,88.0461],[-145.5,88.03825],[-146,88.03018],[-146.5,88.02189],[-147,88.01335],[-147.5,88.00458],[-148,87.99557],[-148.5,87.98631],[-149,87.97679],[-149.5,87.96702],[-150,87.95698],[-150.5,87.94667],[-151,87.93608],[-151.5,87.92521],[-152,87.91406],[-152.5,87.9026],[-153,87.89084],[-153.5,87.87877],[-154,87.86639],[-154.5,87.85367],[-155,87.84062],[-155.5,87.82722],[-156,87.81348],[-156.5,87.79936],[-157,87.78488],[-157.5,87.77001],[-158,87.75474],[-158.5,87.73907],[-159,87.72298],[-159.5,87.70647],[-160,87.6895],[-160.5,87.67208],[-161,87.65419],[-161.5,87.63581],[-162,87.61693],[-162.5,87.59753],[-163,87.57759],[-163.5,87.5571],[-164,87.53603],[-164.5,87.51437],[-165,87.49209],[-165.5,87.46918],[-166,87.4456],[-166.5,87.42134],[-167,87.39636],[-167.5,87.37065],[-168,87.34416],[-168.5,87.31688],[-169,87.28876],[-169.5,87.25977],[-170,87.22988],[-170.5,87.19904],[-171,87.16722],[-171.5,87.13437],[-172,87.10044],[-172.5,87.06538],[-173,87.02914],[-173.5,86.99166],[-174,86.95287],[-174.5,86.91272],[-175,86.87113],[-175.5,86.82802],[-176,86.78331],[-176.5,86.73692],[-177,86.68874],[-177.5,86.63866],[-178,86.58659],[-178.5,86.53238],[-179,86.47591],[-179.5,86.41703]]}},{"type":"Feature","id":"+05310630:south:1","properties":{"id":"+05310630","year":531,"month":6,"day":30,"time_tdt":"09:51:59","type":"개기일식","type_code":"T","saros":103,"gamma":0.94401,"magnitude":1.06655,"greatest":{"lat":85.15214,"lng":-106.29987},"path_width_km":679.7,"duration":"03m23s","delta_t_seconds":5373.7,"catalog_number":6016,"source":"NASA Five Millennium Canon of Solar Eclipses","source_url":"https://eclipse.gsfc.nasa.gov/SEsearch/SEsearchmap.php?Ecl=%2B05310630","boundary":"south","name":"531-06-30 개기일식"},"geometry":{"type":"LineString","coordinates":[[180,86.35557],[179.5,86.29135],[179,86.22418],[178.5,86.15384],[178,86.08008],[177.5,86.00263],[177,85.92119],[176.5,85.8354],[176,85.74489],[175.5,85.6492],[175,85.54783],[174.5,85.44019],[174,85.3256],[173.5,85.20327],[173,85.07224],[172.5,84.93139],[172,84.77934],[171.5,84.61441],[171,84.4345],[170.5,84.2369],[170,84.0181],[169.5,83.77331],[169,83.49582],[168.5,83.17567],[168,82.79692],[167.5,82.33107],[167,81.71655],[166.5,80.74942],[166.5,77.24475],[167,75.83526],[167.5,74.78567],[168,73.89192],[168.5,73.0923],[169,72.35817],[169.5,71.67347],[170,71.02809],[170.5,70.41519],[171,69.82988],[171.5,69.26849],[172,68.72821],[172.5,68.20681],[173,67.70249],[173.5,67.21377],[174,66.73939],[174.5,66.27832],[175,65.82963],[175.5,65.39254],[176,64.96638],[176.5,64.55052],[177,64.14443],[177.5,63.74763],[178,63.35968],[178.5,62.98019],[179,62.60879],[179.5,62.24516],[180,61.88899]]}},{"type":"Feature","id":"+05310630:south:2","properties":{"id":"+05310630","year":531,"month":6,"day":30,"time_tdt":"09:51:59","type":"개기일식","type_code":"T","saros":103,"gamma":0.94401,"magnitude":1.06655,"greatest":{"lat":85.15214,"lng":-106.29987},"path_width_km":679.7,"duration":"03m23s","delta_t_seconds":5373.7,"catalog_number":6016,"source":"NASA Five Millennium Canon of Solar Eclipses","source_url":"https://eclipse.gsfc.nasa.gov/SEsearch/SEsearchmap.php?Ecl=%2B05310630","boundary":"south","name":"531-06-30 개기일식"},"geometry":{"type":"LineString","coordinates":[[-179.5,61.54002],[-179,61.19798],[-178.5,60.86263],[-178,60.53376],[-177.5,60.21115],[-177,59.89461]]}}],"attribution":"Eclipse Predictions by Fred Espenak and Jean Meeus (NASA's GSFC)","generated_at":"2026-09-23T01:44:52.343Z"}
