{"type":"FeatureCollection","year":534,"events":[{"id":"+05340429","year":534,"month":4,"day":29,"time_tdt":"08:14:13","type":"금환일식","type_code":"A","saros":95,"gamma":0.6856,"magnitude":0.94378,"greatest":{"lat":52.58084,"lng":50.00128},"path_width_km":281.6,"duration":"04m58s","delta_t_seconds":5346.2,"catalog_number":6022,"source":"NASA Five Millennium Canon of Solar Eclipses","source_url":"https://eclipse.gsfc.nasa.gov/SEsearch/SEsearchmap.php?Ecl=%2B05340429"},{"id":"+05341023","year":534,"month":10,"day":23,"time_tdt":"05:58:25","type":"개기일식","type_code":"T","saros":100,"gamma":-0.67043,"magnitude":1.04586,"greatest":{"lat":-48.41672,"lng":82.81189},"path_width_km":203.8,"duration":"03m09s","delta_t_seconds":5341.4,"catalog_number":6023,"source":"NASA Five Millennium Canon of Solar Eclipses","source_url":"https://eclipse.gsfc.nasa.gov/SEsearch/SEsearchmap.php?Ecl=%2B05341023"}],"features":[{"type":"Feature","id":"+05340429:north:0","properties":{"id":"+05340429","year":534,"month":4,"day":29,"time_tdt":"08:14:13","type":"금환일식","type_code":"A","saros":95,"gamma":0.6856,"magnitude":0.94378,"greatest":{"lat":52.58084,"lng":50.00128},"path_width_km":281.6,"duration":"04m58s","delta_t_seconds":5346.2,"catalog_number":6022,"source":"NASA Five Millennium Canon of Solar Eclipses","source_url":"https://eclipse.gsfc.nasa.gov/SEsearch/SEsearchmap.php?Ecl=%2B05340429","boundary":"north","name":"534-04-29 금환일식"},"geometry":{"type":"LineString","coordinates":[[3,20.00561],[3.5,20.13858],[4,20.27512],[4.5,20.41527],[5,20.5591],[5.5,20.70668],[6,20.85808],[6.5,21.01337],[7,21.17262],[7.5,21.33589],[8,21.50328],[8.5,21.67485],[9,21.85069],[9.5,22.03087],[10,22.21549],[10.5,22.40463],[11,22.59837],[11.5,22.79682],[12,23.00006],[12.5,23.20819],[13,23.42131],[13.5,23.63952],[14,23.86293],[14.5,24.09164],[15,24.32575],[15.5,24.56539],[16,24.81067],[16.5,25.06169],[17,25.31859],[17.5,25.58148],[18,25.85048],[18.5,26.12572],[19,26.40732],[19.5,26.69542],[20,26.99014],[20.5,27.2916],[21,27.59995],[21.5,27.91531],[22,28.23781],[22.5,28.56757],[23,28.90473],[23.5,29.24941],[24,29.60173],[24.5,29.96179],[25,30.32972],[25.5,30.70562],[26,31.08957],[26.5,31.48166],[27,31.88196],[27.5,32.29053],[28,32.70742],[28.5,33.13264],[29,33.5662],[29.5,34.00809],[30,34.45825],[30.5,34.91662],[31,35.38309],[31.5,35.85754],[32,36.33978],[32.5,36.82961],[33,37.32679],[33.5,37.83102],[34,38.34197],[34.5,38.85926],[35,39.38246],[35.5,39.91113],[36,40.44473],[36.5,40.98273],[37,41.52454],[37.5,42.06953],[38,42.61704],[38.5,43.16641],[39,43.71694],[39.5,44.26791],[40,44.8186],[40.5,45.36831],[41,45.91632],[41.5,46.46195],[42,47.00451],[42.5,47.54336],[43,48.07789],[43.5,48.60752],[44,49.13171],[44.5,49.64996],[45,50.16183],[45.5,50.66692],[45.5,50.66691],[46,51.16485],[46.5,51.65532],[47,52.13806],[47.5,52.61284],[48,53.07949],[48,53.07948],[48.5,53.53784],[49,53.9878],[49.5,54.42929],[50,54.86226],[50.5,55.28671],[50.5,55.2867],[51,55.70262],[51.5,56.11005],[52,56.50904],[52.5,56.89966],[53,57.28199],[53.5,57.65614],[54,58.02222],[54.5,58.38034],[55,58.73064],[55.5,59.07324],[56,59.40829],[56.5,59.73594],[57,60.05632],[57.5,60.36959],[58,60.67589],[58.5,60.97539],[59,61.26822],[59.5,61.55455],[60,61.83451],[60,61.8345],[60.5,62.10825],[61,62.37592],[61.5,62.63767],[62,62.89363],[62.5,63.14395],[63,63.38875],[63.5,63.62817],[64,63.86234],[64.5,64.09139],[65,64.31545],[65.5,64.53462],[66,64.74904],[66.5,64.95881],[67,65.16406],[67.5,65.36487],[68,65.56137],[68.5,65.75365],[68.5,65.75366],[69,65.94183],[69,65.94182],[69.5,66.12598],[70,66.3062],[70.5,66.4826],[71,66.65526],[71.5,66.82426],[72,66.98968],[72.5,67.15162],[73,67.31015],[73.5,67.46534],[74,67.61727],[74.5,67.76602],[75,67.91164],[75.5,68.05422],[76,68.19382],[76.5,68.3305],[77,68.46432],[77.5,68.59534],[78,68.72363],[78.5,68.84923],[78.5,68.84924],[79,68.97222],[79.5,69.09262],[80,69.21051],[80.5,69.32593],[81,69.43893],[81.5,69.54956],[82,69.65785],[82.5,69.76387],[83,69.86765],[83.5,69.96923],[84,70.06865],[84.5,70.16596],[85,70.2612],[85.5,70.35439],[86,70.44558],[86.5,70.5348],[87,70.62209],[87.5,70.70747],[88,70.79099],[88.5,70.87267],[89,70.95255],[89.5,71.03065],[90,71.107],[90.5,71.18163],[91,71.25457],[91.5,71.32584],[92,71.39547],[92.5,71.46348],[93,71.52991],[93.5,71.59476],[94,71.65807],[94.5,71.71985],[95,71.78013],[95.5,71.83893],[96,71.89627],[96.5,71.95217],[97,72.00664],[97.5,72.05971],[98,72.11139],[98.5,72.1617],[99,72.21066],[99.5,72.25828],[100,72.30458],[100.5,72.34957],[101,72.39328],[101.5,72.43571],[102,72.47687],[102.5,72.51679],[103,72.55547],[103.5,72.59292],[104,72.62917],[104.5,72.66422],[105,72.69807],[105.5,72.73075],[106,72.76227],[106.5,72.79263],[107,72.82184],[107.5,72.84991],[108,72.87686],[108.5,72.90268],[109,72.9274],[109.5,72.95101],[110,72.97353],[110.5,72.99496],[111,73.01531],[111.5,73.03459],[112,73.0528],[112.5,73.06995],[113,73.08605],[113.5,73.10109],[113.5,73.1011],[114,73.1151],[114.5,73.12806],[114.5,73.12807],[115,73.14],[115.5,73.1509],[116,73.16078],[116.5,73.16964],[117,73.17748],[117.5,73.18431],[118,73.19012],[118,73.19013],[118.5,73.19494],[119,73.19874],[119.5,73.20155],[120,73.20335],[120.5,73.20416],[121,73.20397],[121.5,73.20279],[122,73.20062],[122.5,73.19745],[123,73.19329],[123.5,73.18815],[124,73.18201],[124.5,73.17488],[125,73.16676],[125.5,73.15766],[126,73.14756],[126.5,73.13647],[127,73.12439],[127.5,73.11132],[128,73.09725],[128.5,73.08218],[129,73.06612],[129.5,73.04906],[130,73.031],[130.5,73.01193],[131,72.99185],[131.5,72.97077],[132,72.94867],[132.5,72.92556],[133,72.90142],[133.5,72.87627],[134,72.85008],[134.5,72.82287],[135,72.79462],[135.5,72.76534],[136,72.735],[136.5,72.70362],[137,72.67119],[137.5,72.6377],[138,72.60314],[138.5,72.56752],[139,72.53082],[139.5,72.49303],[140,72.45416],[140.5,72.4142],[141,72.37314],[141.5,72.33097],[142,72.28768],[142.5,72.24328],[143,72.19775],[143.5,72.15108],[144,72.10327],[144.5,72.05431],[145,72.00419],[145.5,71.9529],[146,71.90044],[146.5,71.8468],[147,71.79197],[147.5,71.73593],[148,71.67869],[148.5,71.62023],[149,71.56054],[149.5,71.49962],[150,71.43745],[150.5,71.37402],[151,71.30933],[151.5,71.24336],[152,71.17611],[152.5,71.10757],[153,71.03772],[153.5,70.96655],[154,70.89406],[154.5,70.82023],[155,70.74506],[155.5,70.66853],[156,70.59063],[156.5,70.51135],[157,70.43069],[157,70.43068],[157.5,70.34862],[158,70.26514],[158.5,70.18024],[159,70.0939],[159.5,70.00612],[160,69.91689],[160.5,69.82619],[161,69.73401],[161.5,69.64035],[162,69.54518],[162.5,69.44851],[163,69.35032],[163,69.35031],[163.5,69.25059],[164,69.14932],[164.5,69.04651],[164.5,69.0465],[165,68.94212],[165.5,68.83617],[166,68.72864],[166.5,68.61951],[167,68.50878],[167.5,68.39644],[168,68.28248],[168.5,68.16688],[169,68.04965],[169.5,67.93078],[170,67.81025],[170.5,67.68805],[171,67.56419],[171.5,67.43865],[172,67.31143],[172.5,67.18251],[173,67.0519],[173.5,66.91959],[174,66.78557],[174.5,66.64984],[175,66.51239],[175.5,66.37323],[176,66.23234],[176.5,66.08973],[177,65.9454],[177.5,65.79933],[178,65.65154],[178.5,65.50202],[179,65.35077],[179.5,65.1978]]}},{"type":"Feature","id":"+05340429:center:0","properties":{"id":"+05340429","year":534,"month":4,"day":29,"time_tdt":"08:14:13","type":"금환일식","type_code":"A","saros":95,"gamma":0.6856,"magnitude":0.94378,"greatest":{"lat":52.58084,"lng":50.00128},"path_width_km":281.6,"duration":"04m58s","delta_t_seconds":5346.2,"catalog_number":6022,"source":"NASA Five Millennium Canon of Solar Eclipses","source_url":"https://eclipse.gsfc.nasa.gov/SEsearch/SEsearchmap.php?Ecl=%2B05340429","boundary":"center","name":"534-04-29 금환일식"},"geometry":{"type":"LineString","coordinates":[[3.99623,18.47357],[4,18.47617],[4.5,18.61222],[5,18.7518],[5.5,18.89497],[6,19.0418],[6.5,19.19236],[7,19.3467],[7.5,19.50491],[8,19.66704],[8.5,19.83318],[9,20.0034],[9.5,20.17776],[9.5,20.17777],[10,20.35637],[10.5,20.53928],[11,20.72659],[11.5,20.91839],[12,21.11475],[12.5,21.31578],[13,21.52155],[13.5,21.73218],[14,21.94775],[14.5,22.16836],[15,22.39413],[15.5,22.62514],[16,22.86151],[16.5,23.10335],[17,23.35077],[17.5,23.60389],[18,23.86281],[18.5,24.12767],[19,24.39858],[19.5,24.67565],[20,24.95903],[20.5,25.24882],[21,25.54517],[21.5,25.84819],[22,26.15801],[22.5,26.47477],[23,26.79858],[23.5,27.12958],[24,27.46788],[24.5,27.81362],[25,28.1669],[25.5,28.52785],[26,28.89656],[26.5,29.27315],[27,29.6577],[27.5,30.05029],[28,30.45101],[28.5,30.8599],[29,31.27701],[29.5,31.70236],[30,32.13597],[30.5,32.57782],[31,33.02786],[31.5,33.48603],[32,33.95224],[32.5,34.42636],[33,34.90821],[33.5,35.39762],[34,35.89432],[34.5,36.39806],[35,36.9085],[35.5,37.42527],[36,37.94798],[36.5,38.47616],[37,39.00933],[37.5,39.54695],[38,40.08843],[38.5,40.63318],[39,41.18055],[39.5,41.72987],[40,42.28046],[40.5,42.83162],[41,43.38264],[41.5,43.93281],[42,44.48143],[42.5,45.0278],[43,45.57125],[43.5,46.11113],[44,46.64684],[44.5,47.17778],[45,47.70342],[45.5,48.22324],[46,48.7368],[46.5,49.24368],[47,49.74352],[47.5,50.23598],[48,50.7208],[48.5,51.19773],[49,51.66659],[49.5,52.12722],[50,52.5795],[50.5,53.02335],[51,53.45872],[51.5,53.88558],[51.5,53.88559],[52,54.30395],[52.5,54.71383],[53,55.11528],[53.5,55.50837],[54,55.89317],[54.5,56.26978],[55,56.63831],[55.5,56.99887],[56,57.35159],[56.5,57.69659],[57,58.03403],[57.5,58.36403],[58,58.68675],[58.5,59.00233],[59,59.31092],[59.5,59.61267],[60,59.90772],[60.5,60.19623],[61,60.47835],[61.5,60.75422],[62,61.02398],[62.5,61.28778],[63,61.54576],[63.5,61.79806],[64,62.0448],[64.5,62.28614],[65,62.52218],[65.5,62.75307],[66,62.97892],[66.5,63.19985],[67,63.41599],[67.5,63.62744],[68,63.83432],[68.5,64.03674],[69,64.2348],[69.5,64.4286],[70,64.61825],[70.5,64.80385],[71,64.98547],[71.5,65.16323],[72,65.33721],[72.5,65.50748],[73,65.67415],[73.5,65.83728],[74,65.99696],[74.5,66.15326],[75,66.30627],[75.5,66.45604],[76,66.60265],[76.5,66.74617],[77,66.88667],[77.5,67.0242],[78,67.15884],[78.5,67.29063],[79,67.41965],[79.5,67.54594],[80,67.66956],[80.5,67.79056],[81,67.909],[81.5,68.02493],[82,68.13839],[82.5,68.24943],[83,68.3581],[83.5,68.46445],[84,68.56851],[84.5,68.67032],[85,68.76994],[85.5,68.86739],[85.5,68.8674],[86,68.96273],[86.5,69.05597],[87,69.14717],[87.5,69.23635],[88,69.32355],[88.5,69.4088],[89,69.49213],[89.5,69.57358],[90,69.65318],[90.5,69.73095],[91,69.80693],[91.5,69.88114],[92,69.95361],[92.5,70.02436],[93,70.09342],[93.5,70.16081],[94,70.22657],[94.5,70.2907],[95,70.35324],[95.5,70.4142],[96,70.47361],[96.5,70.53149],[97,70.58785],[97.5,70.64272],[97.5,70.64273],[98,70.69612],[98.5,70.74806],[99,70.79856],[99.5,70.84764],[100,70.89531],[100.5,70.94159],[101,70.9865],[101.5,71.03005],[102,71.07225],[102.5,71.11312],[103,71.15268],[103.5,71.19093],[104,71.22789],[104.5,71.26356],[104.5,71.26357],[105,71.29798],[105.5,71.33113],[106,71.36305],[106.5,71.39372],[107,71.42317],[107.5,71.45141],[108,71.47845],[108.5,71.50428],[109,71.52894],[109.5,71.55241],[110,71.57471],[110.5,71.59585],[111,71.61583],[111.5,71.63467],[112,71.65236],[112.5,71.66892],[113,71.68435],[113.5,71.69866],[114,71.71185],[114.5,71.72393],[115,71.7349],[115.5,71.74476],[115.5,71.74477],[116,71.75353],[116.5,71.76121],[117,71.76779],[117.5,71.77329],[118,71.77771],[118.5,71.78104],[119,71.7833],[119.5,71.78448],[120,71.78458],[120.5,71.78362],[121,71.78159],[121.5,71.77849],[122,71.77432],[122.5,71.76909],[123,71.7628],[123.5,71.75544],[124,71.74701],[124.5,71.73752],[125,71.72697],[125.5,71.71536],[126,71.70268],[126.5,71.68893],[127,71.67412],[127.5,71.65824],[128,71.64129],[128.5,71.62327],[129,71.60418],[129.5,71.58401],[130,71.56277],[130.5,71.54044],[131,71.51704],[131.5,71.49254],[132,71.46696],[132.5,71.44029],[133,71.41252],[133.5,71.38366],[134,71.35369],[134.5,71.32261],[135,71.29042],[135.5,71.25712],[136,71.22269],[136.5,71.18714],[137,71.15046],[137.5,71.11264],[138,71.07368],[138.5,71.03357],[139,70.99231],[139.5,70.9499],[140,70.90631],[140.5,70.86156],[141,70.81562],[141,70.81563],[141.5,70.76851],[142,70.7202],[142.5,70.67069],[143,70.61998],[143.5,70.56805],[144,70.51491],[144.5,70.46053],[145,70.40492],[145.5,70.34807],[146,70.28996],[146.5,70.2306],[147,70.16997],[147.5,70.10806],[148,70.04486],[148.5,69.98037],[149,69.91458],[149.5,69.84747],[150,69.77905],[150.5,69.70929],[151,69.6382],[151.5,69.56575],[152,69.49195],[152.5,69.41678],[153,69.34024],[153.5,69.26231],[154,69.18298],[154.5,69.10225],[155,69.0201],[155.5,68.93653],[156,68.85152],[156.5,68.76506],[157,68.67716],[157.5,68.58779],[158,68.49694],[158.5,68.40461],[159,68.31079],[159.5,68.21547],[160,68.11863],[160.5,68.02028],[161,67.92039],[161.5,67.81896],[162,67.71598],[162.5,67.61145],[163,67.50535],[163.5,67.39767],[164,67.28841],[164.5,67.17756],[165,67.06511],[165.5,66.95105],[166,66.83537],[166.5,66.71807],[167,66.59915],[167.5,66.47858],[168,66.35638],[168.5,66.23252],[169,66.10701],[169.5,65.97984],[170,65.85101],[170.5,65.7205],[171,65.58833],[171.5,65.45447],[172,65.31894],[172.5,65.18172],[173,65.04281],[173.5,64.90222],[174,64.75994],[174.5,64.61597],[175,64.47031],[175.5,64.32296],[176,64.17392],[176.5,64.0232],[177,63.87079],[177.5,63.7167],[178,63.56093],[178.41786,63.52934]]}},{"type":"Feature","id":"+05340429:south:0","properties":{"id":"+05340429","year":534,"month":4,"day":29,"time_tdt":"08:14:13","type":"금환일식","type_code":"A","saros":95,"gamma":0.6856,"magnitude":0.94378,"greatest":{"lat":52.58084,"lng":50.00128},"path_width_km":281.6,"duration":"04m58s","delta_t_seconds":5346.2,"catalog_number":6022,"source":"NASA Five Millennium Canon of Solar Eclipses","source_url":"https://eclipse.gsfc.nasa.gov/SEsearch/SEsearchmap.php?Ecl=%2B05340429","boundary":"south","name":"534-04-29 금환일식"},"geometry":{"type":"LineString","coordinates":[[5.01562,17.00055],[5.5,17.13557],[6,17.27842],[6.5,17.42484],[7,17.5749],[7.5,17.72867],[8,17.88621],[8.5,18.04759],[8.5,18.0476],[9,18.21289],[9.5,18.38216],[10,18.55549],[10.5,18.73295],[11,18.91462],[11.5,19.10057],[12,19.2909],[12,19.29091],[12.5,19.48569],[13,19.68502],[13.5,19.88898],[14,20.09767],[14.5,20.31117],[15,20.52959],[15.5,20.75302],[16,20.98156],[16.5,21.21532],[17,21.4544],[17.5,21.69891],[18,21.94896],[18.5,22.20467],[19,22.46614],[19.5,22.7335],[20,23.00686],[20.5,23.28635],[21,23.57209],[21.5,23.8642],[22,24.1628],[22.5,24.46803],[23,24.78],[23.5,25.09885],[24,25.4247],[24.5,25.75767],[25,26.09789],[25.5,26.44548],[26,26.80055],[26.5,27.16322],[27,27.53359],[27.5,27.91176],[28,28.29783],[28.5,28.69187],[29,29.09397],[29.5,29.50417],[30,29.92253],[30.5,30.34906],[31,30.78378],[31.5,31.22668],[32,31.67771],[32.5,32.13682],[33,32.6039],[33.5,33.07885],[34,33.56149],[34.5,34.05164],[35,34.54906],[35.5,35.05348],[36,35.56459],[36.5,36.08203],[37,36.6054],[37.5,37.13425],[38,37.6681],[38.5,38.20642],[39,38.74864],[39.5,39.29417],[40,39.84237],[40.5,40.39259],[41,40.94413],[41.5,41.49631],[42,42.04842],[42.5,42.59975],[43,43.14961],[43.5,43.6973],[44,44.24215],[44.5,44.78351],[45,45.32077],[45.5,45.85333],[46,46.38064],[46.5,46.90221],[47,47.41757],[47.5,47.9263],[48,48.42802],[48.5,48.92241],[48.5,48.9224],[49,49.40918],[49.5,49.88809],[50,50.35895],[50.5,50.82159],[51,51.27588],[51.5,51.72176],[52,52.15914],[52.5,52.58802],[53,53.00838],[53.5,53.42025],[54,53.82367],[54.5,54.2187],[55,54.60543],[55.5,54.98394],[56,55.35434],[56.5,55.71675],[57,56.07128],[57.5,56.41807],[57.5,56.41808],[58,56.75726],[58.5,57.08899],[59,57.41339],[59.5,57.73062],[60,58.04083],[60.5,58.34415],[61,58.64075],[61.5,58.93077],[62,59.21436],[62.5,59.49166],[63,59.76283],[63.5,60.02799],[64,60.28729],[64.5,60.54088],[65,60.78888],[65.5,61.03142],[66,61.26864],[66.5,61.50067],[67,61.72762],[67.5,61.94962],[68,62.16678],[68.5,62.37922],[69,62.58706],[69.5,62.79039],[70,62.98933],[70.5,63.18397],[71,63.37442],[71.5,63.56078],[72,63.74313],[72.5,63.92158],[73,64.0962],[73.5,64.26709],[74,64.43433],[74.5,64.598],[75,64.75818],[75,64.75817],[75.5,64.91494],[76,65.06836],[76.5,65.21851],[77,65.36546],[77.5,65.50929],[78,65.65005],[78.5,65.7878],[79,65.92262],[79.5,66.05456],[80,66.18368],[80.5,66.31003],[81,66.43367],[81.5,66.55466],[82,66.67304],[82.5,66.78886],[83,66.90218],[83.5,67.01304],[84,67.12149],[84.5,67.22756],[85,67.33131],[85.5,67.43278],[86,67.532],[86.5,67.62902],[87,67.72387],[87.5,67.81659],[88,67.90722],[88.5,67.99579],[89,68.08233],[89.5,68.16688],[90,68.24947],[90,68.24948],[90.5,68.33014],[91,68.4089],[91.5,68.48579],[91.5,68.4858],[92,68.56085],[92.5,68.63408],[93,68.70553],[93.5,68.77522],[94,68.84317],[94.5,68.90941],[95,68.97396],[95.5,69.03684],[96,69.09808],[96.5,69.1577],[97,69.21571],[97.5,69.27215],[98,69.32702],[98.5,69.38035],[99,69.43215],[99.5,69.48244],[99.5,69.48245],[100,69.53125],[100.5,69.57859],[101,69.62446],[101.5,69.6689],[102,69.71191],[102.5,69.75351],[103,69.79371],[103.5,69.83252],[104,69.86997],[104.5,69.90606],[105,69.9408],[105.5,69.97421],[105.5,69.97422],[106,70.0063],[106.5,70.03708],[107,70.06656],[107.5,70.09475],[108,70.12165],[108.5,70.14729],[109,70.17166],[109.5,70.19478],[110,70.21666],[110.5,70.2373],[111,70.25671],[111.5,70.2749],[112,70.29187],[112.5,70.30764],[113,70.32221],[113.5,70.33557],[114,70.34775],[114.5,70.35875],[115,70.36856],[115.5,70.3772],[116,70.38467],[116.5,70.39097],[117,70.39611],[117.5,70.40009],[118,70.40292],[118.5,70.40459],[119,70.40512],[119.5,70.4045],[120,70.40273],[120.5,70.39982],[121,70.39577],[121.5,70.39058],[122,70.38425],[122.5,70.37679],[123,70.36819],[123.5,70.35845],[124,70.34758],[124.5,70.33557],[125,70.32243],[125.5,70.30815],[126,70.29273],[126.5,70.27618],[127,70.25848],[127.5,70.23965],[128,70.21967],[128.5,70.19856],[129,70.17629],[129.5,70.15288],[130,70.12832],[130.5,70.1026],[130.5,70.10261],[131,70.07574],[131.5,70.04771],[132,70.01852],[132.5,69.98816],[133,69.95664],[133.5,69.92395],[134,69.89007],[134.5,69.85502],[135,69.81878],[135.5,69.78136],[136,69.74273],[136.5,69.70291],[137,69.66189],[137.5,69.61965],[138,69.5762],[138.5,69.53153],[139,69.48563],[139.5,69.4385],[140,69.39013],[140.5,69.34052],[141,69.28965],[141.5,69.23753],[142,69.18414],[142.5,69.12948],[143,69.07354],[143.5,69.01632],[144,68.9578],[144.5,68.89798],[145,68.83686],[145.5,68.77442],[146,68.71065],[146.5,68.64556],[147,68.57912],[147.5,68.51134],[148,68.44221],[148.5,68.37171],[149,68.29983],[149.5,68.22658],[150,68.15194],[150.5,68.0759],[151,67.99846],[151.5,67.9196],[152,67.83932],[152.5,67.7576],[153,67.67445],[153.5,67.58985],[154,67.50379],[154.5,67.41627],[155,67.32727],[155.5,67.23678],[156,67.14481],[156.5,67.05133],[157,66.95635],[157.5,66.85985],[158,66.76182],[158.5,66.66226],[159,66.56116],[159.5,66.45851],[160,66.3543],[160.5,66.24853],[161,66.14118],[161.5,66.03226],[162,65.92175],[162.5,65.80964],[163,65.69594],[163.5,65.58063],[164,65.4637],[164.5,65.34516],[165,65.225],[165.5,65.1032],[166,64.97977],[166.5,64.8547],[167,64.72799],[167.5,64.59964],[168,64.46963],[168.5,64.33797],[168.5,64.33796],[169,64.20465],[169.5,64.06967],[170,63.93303],[170.5,63.79474],[170.5,63.79473],[171,63.65477],[171.5,63.51315],[172,63.36986],[172.5,63.22491],[173,63.07831],[173,63.0783],[173.5,62.93004],[174,62.78011],[174.5,62.62853],[175,62.4753],[175.5,62.32042],[175.88086,62.20135]]}},{"type":"Feature","id":"+05341023:north:0","properties":{"id":"+05341023","year":534,"month":10,"day":23,"time_tdt":"05:58:25","type":"개기일식","type_code":"T","saros":100,"gamma":-0.67043,"magnitude":1.04586,"greatest":{"lat":-48.41672,"lng":82.81189},"path_width_km":203.8,"duration":"03m09s","delta_t_seconds":5341.4,"catalog_number":6023,"source":"NASA Five Millennium Canon of Solar Eclipses","source_url":"https://eclipse.gsfc.nasa.gov/SEsearch/SEsearchmap.php?Ecl=%2B05341023","boundary":"north","name":"534-10-23 개기일식"},"geometry":{"type":"LineString","coordinates":[[35.25,-15.18321],[35.5,-15.2366],[36,-15.34582],[36.5,-15.45832],[37,-15.57416],[37.5,-15.69338],[38,-15.81604],[38.5,-15.94219],[39,-16.07189],[39.5,-16.20519],[40,-16.34214],[40.5,-16.48281],[41,-16.62726],[41.5,-16.77555],[42,-16.92773],[42.5,-17.08388],[43,-17.24406],[43.5,-17.40833],[44,-17.57677],[44.5,-17.74945],[45,-17.92643],[45.5,-18.10779],[46,-18.29361],[46.5,-18.48396],[47,-18.67892],[47.5,-18.87856],[48,-19.08297],[48.5,-19.29224],[49,-19.50644],[49.5,-19.72567],[50,-19.94999],[50.5,-20.17952],[51,-20.41433],[51.5,-20.65451],[52,-20.90016],[52.5,-21.15137],[53,-21.40823],[53.5,-21.67083],[54,-21.93928],[54.5,-22.21365],[55,-22.49405],[55.5,-22.78056],[56,-23.07329],[56.5,-23.37231],[57,-23.67773],[57.5,-23.98962],[58,-24.30808],[58.5,-24.63318],[59,-24.965],[59.5,-25.30361],[60,-25.64909],[60.5,-26.00149],[61,-26.36086],[61.5,-26.72726],[62,-27.10072],[62.5,-27.48127],[63,-27.86893],[63.5,-28.26369],[64,-28.66555],[64.5,-29.07448],[65,-29.49044],[65.5,-29.91338],[66,-30.34321],[66.5,-30.77983],[67,-31.22312],[67.5,-31.67294],[68,-32.12913],[68.5,-32.59148],[69,-33.05978],[69.5,-33.53378],[70,-34.01321],[70.5,-34.49778],[71,-34.98715],[71.5,-35.48097],[72,-35.97887],[72.5,-36.48044],[73,-36.98527],[73.5,-37.4929],[74,-38.00288],[74.5,-38.51473],[75,-39.02795],[75.5,-39.54206],[76,-40.05654],[76.5,-40.57089],[77,-41.08461],[77.5,-41.59719],[78,-42.10814],[78.5,-42.61698],[79,-43.12325],[79.5,-43.6265],[80,-44.1263],[80.5,-44.62225],[81,-45.11395],[81.5,-45.60107],[82,-46.08325],[82.5,-46.56021],[83,-47.03167],[83.5,-47.49737],[84,-47.9571],[84.5,-48.41066],[85,-48.85788],[85.5,-49.29862],[86,-49.73275],[86.5,-50.16019],[87,-50.58084],[87.5,-50.99467],[88,-51.40161],[88.5,-51.80167],[89,-52.19482],[89.5,-52.58109],[90,-52.96048],[90.5,-53.33304],[91,-53.69881],[91.5,-54.05785],[92,-54.4102],[92.5,-54.75595],[93,-55.09517],[93.5,-55.42795],[94,-55.75436],[94.5,-56.07449],[95,-56.38845],[95.5,-56.69632],[96,-56.99821],[96.5,-57.29421],[97,-57.58443],[97.5,-57.86896],[98,-58.14791],[98.5,-58.42138],[99,-58.68948],[99.5,-58.9523],[100,-59.20994],[100.5,-59.46251],[101,-59.71011],[101.5,-59.95282],[102,-60.19076],[102.5,-60.42401],[103,-60.65266],[103.5,-60.87682],[104,-61.09656],[104.5,-61.31199],[105,-61.52318],[105.5,-61.73022],[106,-61.9332],[106.5,-62.13219],[107,-62.32729],[107.5,-62.51855],[108,-62.70607],[108.5,-62.88992],[109,-63.07017],[109.5,-63.24689],[110,-63.42015],[110.5,-63.59002],[111,-63.75657],[111.5,-63.91985],[112,-64.07995],[112.5,-64.2369],[113,-64.39079],[113.5,-64.54165],[114,-64.68956],[114.5,-64.83457],[115,-64.97672],[115.5,-65.11609],[116,-65.2527],[116.5,-65.38663],[117,-65.51791],[117.5,-65.64659],[118,-65.77272],[118.5,-65.89634],[119,-66.01751],[119.5,-66.13625],[120,-66.25262],[120.5,-66.36665],[121,-66.47838],[121.5,-66.58786],[122,-66.69511],[122.5,-66.80019],[123,-66.90311],[123.5,-67.00392],[124,-67.10265],[124.5,-67.19933],[125,-67.294],[125.5,-67.38668],[126,-67.47741],[126.5,-67.56622],[127,-67.65313],[127.5,-67.73818],[128,-67.82139],[128.5,-67.90278],[129,-67.98238],[129.5,-68.06023],[130,-68.13633],[130.5,-68.21073],[131,-68.28343],[131.5,-68.35446],[132,-68.42385],[132.5,-68.49161],[133,-68.55777],[133.5,-68.62234],[134,-68.68535],[134.5,-68.74682],[135,-68.80676],[135.5,-68.86519],[136,-68.92213],[136.5,-68.97759],[137,-69.0316],[137.5,-69.08417],[138,-69.13531],[138.5,-69.18504],[139,-69.23338],[139.5,-69.28033],[140,-69.32592],[140.5,-69.37015],[141,-69.41304],[141.5,-69.45461],[142,-69.49485],[142.5,-69.5338],[143,-69.57145],[143.5,-69.60781],[144,-69.64291],[144.5,-69.67675],[145,-69.70934],[145.5,-69.74068],[146,-69.7708],[146.5,-69.79969],[147,-69.82737],[147.5,-69.85384],[148,-69.87912],[148.5,-69.90321],[149,-69.92612],[149.5,-69.94785],[150,-69.96842],[150.5,-69.98782],[151,-70.00607],[151.5,-70.02317],[152,-70.03913],[152.5,-70.05396],[153,-70.06765],[153.5,-70.08021],[154,-70.09165],[154.5,-70.10198],[155,-70.11119],[155.5,-70.11929],[156,-70.12629],[156.5,-70.13219],[157,-70.13698],[157.5,-70.14068],[158,-70.14329],[158.5,-70.14481],[159,-70.14524],[159.5,-70.14459],[160,-70.14285],[160.5,-70.14003],[161,-70.13613],[161.5,-70.13115],[162,-70.12509],[162.5,-70.11795],[163,-70.10974],[163.5,-70.10045],[164,-70.09009],[164.5,-70.07865],[165,-70.06613],[165.5,-70.05254],[166,-70.03787],[166.5,-70.02212],[167,-70.0053],[167.5,-69.98739],[168,-69.96841],[168.5,-69.94834],[169,-69.92719],[169.5,-69.90495],[170,-69.88162],[170.5,-69.85721],[171,-69.8317],[171.5,-69.80509],[172,-69.77739],[172.5,-69.74859],[173,-69.71868],[173.5,-69.68767],[174,-69.65555],[175,-69.58796],[175.5,-69.55249],[176,-69.51589],[176.5,-69.47816],[174.5,-69.62255],[177,-69.4393],[177.5,-69.3993],[178,-69.35815],[178.5,-69.31586],[179,-69.27242],[179.5,-69.22782],[180,-69.18205]]}},{"type":"Feature","id":"+05341023:north:1","properties":{"id":"+05341023","year":534,"month":10,"day":23,"time_tdt":"05:58:25","type":"개기일식","type_code":"T","saros":100,"gamma":-0.67043,"magnitude":1.04586,"greatest":{"lat":-48.41672,"lng":82.81189},"path_width_km":203.8,"duration":"03m09s","delta_t_seconds":5341.4,"catalog_number":6023,"source":"NASA Five Millennium Canon of Solar Eclipses","source_url":"https://eclipse.gsfc.nasa.gov/SEsearch/SEsearchmap.php?Ecl=%2B05341023","boundary":"north","name":"534-10-23 개기일식"},"geometry":{"type":"LineString","coordinates":[[-179.5,-69.13512],[-179,-69.08702],[-178.5,-69.03774],[-178,-68.98727],[-177.5,-68.93561],[-177,-68.88276],[-176.5,-68.8287],[-176,-68.77343],[-175.5,-68.71696],[-175,-68.65926],[-174.5,-68.60033],[-174,-68.54017],[-173.5,-68.47876],[-173,-68.41611],[-172.5,-68.35221],[-172,-68.28704],[-171.5,-68.22061],[-171,-68.1529],[-170.5,-68.08391],[-170,-68.01363],[-169.5,-67.94205],[-169,-67.86917],[-168.5,-67.79498],[-168,-67.71946],[-167.5,-67.64262],[-167,-67.56445],[-166.5,-67.48494],[-166,-67.40408],[-165.5,-67.32186],[-165,-67.23828],[-164.5,-67.15333],[-164,-67.067],[-163.5,-66.97928],[-163,-66.89017],[-162.5,-66.79966],[-162,-66.70775],[-161.5,-66.61441],[-161,-66.51966],[-160.5,-66.42348],[-160,-66.32586],[-159.5,-66.22679],[-159,-66.12628],[-158.5,-66.02431],[-158,-65.92088],[-157.5,-65.81598],[-157,-65.7096],[-156.5,-65.60174],[-156,-65.4924],[-155.5,-65.38156],[-155,-65.26922],[-154.5,-65.15538],[-154,-65.04003],[-153.5,-64.92316],[-153,-64.80477]]}},{"type":"Feature","id":"+05341023:center:0","properties":{"id":"+05341023","year":534,"month":10,"day":23,"time_tdt":"05:58:25","type":"개기일식","type_code":"T","saros":100,"gamma":-0.67043,"magnitude":1.04586,"greatest":{"lat":-48.41672,"lng":82.81189},"path_width_km":203.8,"duration":"03m09s","delta_t_seconds":5341.4,"catalog_number":6023,"source":"NASA Five Millennium Canon of Solar Eclipses","source_url":"https://eclipse.gsfc.nasa.gov/SEsearch/SEsearchmap.php?Ecl=%2B05341023","boundary":"center","name":"534-10-23 개기일식"},"geometry":{"type":"LineString","coordinates":[[34.70677,-15.78896],[35,-15.84749],[35.5,-15.95927],[36,-16.07439],[36.5,-16.19291],[37,-16.31487],[37.5,-16.44033],[38,-16.56935],[38.5,-16.70197],[39,-16.83826],[39.5,-16.97827],[40,-17.12207],[40.5,-17.26971],[41,-17.42126],[41.5,-17.57679],[42,-17.73635],[42.5,-17.90003],[43,-18.06788],[43.5,-18.23997],[44,-18.41639],[44.5,-18.5972],[45,-18.78247],[45.5,-18.9723],[46,-19.16674],[46.5,-19.3659],[47,-19.56984],[47.5,-19.77864],[48,-19.99241],[48.5,-20.21121],[49,-20.43514],[49.5,-20.6643],[50,-20.89876],[50.5,-21.13862],[51,-21.38397],[51.5,-21.63492],[52,-21.89154],[52.5,-22.15394],[53,-22.42222],[53.5,-22.69646],[54,-22.97677],[54.5,-23.26324],[55,-23.55596],[55.5,-23.85504],[56,-24.16055],[56.5,-24.47259],[57,-24.79126],[57.5,-25.11663],[58,-25.44878],[58.5,-25.7878],[59,-26.13375],[59.5,-26.4867],[60,-26.84671],[60.5,-27.21383],[61,-27.5881],[61.5,-27.96956],[62,-28.35822],[62.5,-28.75409],[63,-29.15717],[63.5,-29.56744],[64,-29.98486],[64.5,-30.40938],[65,-30.84092],[65.5,-31.27939],[66,-31.72467],[66.5,-32.17662],[67,-32.63508],[67.5,-33.09985],[68,-33.57073],[68.5,-34.04746],[69,-34.52977],[69.5,-35.01737],[70,-35.50993],[70.5,-36.00709],[71,-36.50847],[71.5,-37.01368],[72,-37.52227],[72.5,-38.0338],[73,-38.54779],[73.5,-39.06377],[74,-39.58123],[74.5,-40.09967],[75,-40.61856],[75.5,-41.1374],[76,-41.65565],[76.5,-42.17282],[77,-42.68838],[77.5,-43.20186],[78,-43.71277],[78.5,-44.22064],[79,-44.72505],[79.5,-45.22557],[80,-45.7218],[80.5,-46.21338],[81,-46.69997],[81.5,-47.18125],[82,-47.65695],[82.5,-48.1268],[83,-48.59058],[83.5,-49.04809],[84,-49.49915],[84.5,-49.94362],[85,-50.38137],[85.5,-50.81229],[86,-51.23633],[86.5,-51.6534],[87,-52.06349],[87.5,-52.46656],[88,-52.86261],[88.5,-53.25165],[89,-53.63371],[89.5,-54.00881],[90,-54.37702],[90.5,-54.73837],[91,-55.09295],[91.5,-55.44081],[92,-55.78204],[92.5,-56.11673],[93,-56.44495],[93.5,-56.76681],[94,-57.08241],[94.5,-57.39183],[95,-57.69518],[95.5,-57.99257],[96,-58.2841],[96.5,-58.56987],[97,-58.84998],[97.5,-59.12455],[98,-59.39368],[98.5,-59.65748],[99,-59.91604],[99.5,-60.16947],[100,-60.41787],[100.5,-60.66134],[101,-60.89998],[101.5,-61.13389],[102,-61.36316],[102.5,-61.5879],[103,-61.80818],[103.5,-62.02411],[104,-62.23577],[104.5,-62.44325],[105,-62.64663],[105.5,-62.846],[106,-63.04144],[106.5,-63.23303],[107,-63.42086],[107.5,-63.60498],[108,-63.78549],[108.5,-63.96245],[109,-64.13594],[109.5,-64.30601],[110,-64.47276],[110.5,-64.63622],[111,-64.79649],[111.5,-64.9536],[112,-65.10763],[112.5,-65.25864],[113,-65.40669],[113.5,-65.55182],[114,-65.6941],[114.5,-65.83358],[115,-65.97032],[115.5,-66.10436],[116,-66.23575],[116.5,-66.36454],[117,-66.49079],[117.5,-66.61453],[118,-66.73581],[118.5,-66.85467],[119,-66.97116],[119.5,-67.08532],[120,-67.19719],[120.5,-67.3068],[121,-67.4142],[121.5,-67.51942],[122,-67.6225],[122.5,-67.72348],[123,-67.82238],[123.5,-67.91925],[124,-68.01411],[124.5,-68.107],[125,-68.19795],[125.5,-68.28698],[126,-68.37413],[126.5,-68.45942],[127,-68.54289],[127.5,-68.62455],[128,-68.70445],[128.5,-68.78259],[129,-68.85901],[129.5,-68.93373],[130,-69.00677],[130.5,-69.07816],[131,-69.14792],[131.5,-69.21608],[132,-69.28264],[132.5,-69.34764],[133,-69.41108],[133.5,-69.473],[134,-69.53342],[134.5,-69.59234],[135,-69.64978],[135.5,-69.70577],[136,-69.76033],[136.5,-69.81346],[137,-69.86518],[137.5,-69.91551],[138,-69.96447],[138.5,-70.01206],[139,-70.05831],[139.5,-70.10322],[140,-70.14681],[140.5,-70.18909],[141,-70.23008],[141.5,-70.26978],[142,-70.30822],[142.5,-70.34539],[143,-70.38131],[143.5,-70.416],[144,-70.44945],[144.5,-70.48169],[145,-70.51272],[145.5,-70.54255],[146,-70.57119],[146.5,-70.59865],[147,-70.62493],[147.5,-70.65005],[148,-70.67401],[148.5,-70.69681],[149,-70.71848],[149.5,-70.73901],[150,-70.75841],[150.5,-70.77668],[151,-70.79384],[151.5,-70.80988],[152,-70.82482],[152.5,-70.83865],[153,-70.85139],[153.5,-70.86304],[154,-70.8736],[154.5,-70.88307],[155,-70.89147],[155.5,-70.89879],[156,-70.90503],[156.5,-70.91021],[157,-70.91432],[157.5,-70.91737],[158,-70.91935],[158.5,-70.92028],[159,-70.92015],[159.5,-70.91897],[160,-70.91673],[160.5,-70.91344],[161,-70.90909],[161.5,-70.9037],[162,-70.89726],[162.5,-70.88977],[163,-70.88124],[163.5,-70.87165],[164,-70.86102],[164.5,-70.84933],[165,-70.8366],[165.5,-70.82282],[166,-70.80799],[166.5,-70.79211],[167,-70.77517],[167.5,-70.75718],[168,-70.73814],[168.5,-70.71804],[169,-70.69688],[169.5,-70.67465],[170,-70.65137],[170.5,-70.62701],[171,-70.60159],[171.5,-70.5751],[172,-70.54753],[172.5,-70.51888],[173,-70.48915],[173.5,-70.45834],[174,-70.42643],[174.5,-70.39344],[175,-70.35935],[175.5,-70.32415],[176,-70.28785],[176.5,-70.25044],[177,-70.21192],[177.5,-70.17228],[178,-70.13151],[178.5,-70.08961],[179,-70.04658],[179.5,-70.00241],[180,-69.95709]]}},{"type":"Feature","id":"+05341023:center:1","properties":{"id":"+05341023","year":534,"month":10,"day":23,"time_tdt":"05:58:25","type":"개기일식","type_code":"T","saros":100,"gamma":-0.67043,"magnitude":1.04586,"greatest":{"lat":-48.41672,"lng":82.81189},"path_width_km":203.8,"duration":"03m09s","delta_t_seconds":5341.4,"catalog_number":6023,"source":"NASA Five Millennium Canon of Solar Eclipses","source_url":"https://eclipse.gsfc.nasa.gov/SEsearch/SEsearchmap.php?Ecl=%2B05341023","boundary":"center","name":"534-10-23 개기일식"},"geometry":{"type":"LineString","coordinates":[[-179.5,-69.91062],[-179,-69.86299],[-178.5,-69.8142],[-178,-69.76424],[-177.5,-69.7131],[-177,-69.66078],[-176.5,-69.60728],[-176,-69.55257],[-175.5,-69.49666],[-175,-69.43955],[-174.5,-69.38122],[-174,-69.32166],[-173.5,-69.26087],[-173,-69.19885],[-172.5,-69.13558],[-172,-69.07105],[-171.5,-69.00527],[-171,-68.93822],[-170.5,-68.86989],[-170,-68.80027],[-169.5,-68.72937],[-169,-68.65716],[-168.5,-68.58365],[-168,-68.50882],[-167.5,-68.43267],[-167,-68.35518],[-166.5,-68.27636],[-166,-68.19618],[-165.5,-68.11465],[-165,-68.03175],[-164.5,-67.94748],[-164,-67.86182],[-163.5,-67.77478],[-163,-67.68634],[-162.5,-67.59649],[-162,-67.50522],[-161.5,-67.41254],[-161,-67.31842],[-160.5,-67.22286],[-160,-67.12585],[-159.5,-67.02739],[-159,-66.92747],[-158.5,-66.82608],[-158,-66.7232],[-157.5,-66.61885],[-157,-66.513],[-156.5,-66.40565],[-156,-66.29679],[-155.5,-66.18642],[-155,-66.07453],[-154.5,-65.96112],[-154,-65.84617],[-153.5,-65.72968],[-153,-65.61164],[-152.5,-65.49206],[-152,-65.37092],[-151.91672,-65.37352]]}},{"type":"Feature","id":"+05341023:south:0","properties":{"id":"+05341023","year":534,"month":10,"day":23,"time_tdt":"05:58:25","type":"개기일식","type_code":"T","saros":100,"gamma":-0.67043,"magnitude":1.04586,"greatest":{"lat":-48.41672,"lng":82.81189},"path_width_km":203.8,"duration":"03m09s","delta_t_seconds":5341.4,"catalog_number":6023,"source":"NASA Five Millennium Canon of Solar Eclipses","source_url":"https://eclipse.gsfc.nasa.gov/SEsearch/SEsearchmap.php?Ecl=%2B05341023","boundary":"south","name":"534-10-23 개기일식"},"geometry":{"type":"LineString","coordinates":[[34.34766,-16.4306],[34.5,-16.46481],[35,-16.57926],[35.5,-16.69711],[36,-16.81841],[36.5,-16.94323],[37,-17.0716],[37.5,-17.20359],[38,-17.33926],[38.5,-17.47866],[39,-17.62186],[39.5,-17.76891],[40,-17.91989],[40.5,-18.07485],[41,-18.23387],[41.5,-18.397],[42,-18.56433],[42.5,-18.73591],[43,-18.91183],[43.5,-19.09216],[44,-19.27698],[44.5,-19.46635],[45,-19.66037],[45.5,-19.85912],[46,-20.06267],[46.5,-20.27111],[47,-20.48453],[47.5,-20.70302],[48,-20.92666],[48.5,-21.15554],[49,-21.38976],[49.5,-21.62941],[50,-21.87459],[50.5,-22.12539],[51,-22.38191],[51.5,-22.64424],[52,-22.91248],[52.5,-23.18674],[53,-23.4671],[53.5,-23.75367],[54,-24.04655],[54.5,-24.34583],[55,-24.65161],[55.5,-24.96398],[56,-25.28303],[56.5,-25.60886],[57,-25.94154],[57.5,-26.28116],[58,-26.62779],[58.5,-26.9815],[59,-27.34236],[59.5,-27.71043],[60,-28.08574],[60.5,-28.46834],[61,-28.85826],[61.5,-29.2555],[62,-29.66006],[62.5,-30.07194],[63,-30.4911],[63.5,-30.91749],[64,-31.35103],[64.5,-31.79165],[65,-32.23923],[65.5,-32.69363],[66,-33.15469],[66.5,-33.62222],[67,-34.09601],[67.5,-34.57581],[68,-35.06136],[68.5,-35.55235],[69,-36.04846],[69.5,-36.54933],[70,-37.05457],[70.5,-37.56377],[71,-38.0765],[71.5,-38.5923],[72,-39.11068],[72.5,-39.63117],[73,-40.15323],[73.5,-40.67636],[74,-41.20003],[74.5,-41.7237],[75,-42.24683],[75.5,-42.76892],[76,-43.28942],[76.5,-43.80784],[77,-44.32368],[77.5,-44.83647],[78,-45.34575],[78.5,-45.85109],[79,-46.35208],[79.5,-46.84835],[80,-47.33955],[80.5,-47.82535],[81,-48.30546],[81.5,-48.77962],[82,-49.24759],[82.5,-49.70916],[83,-50.16417],[83.5,-50.61245],[84,-51.05388],[84.5,-51.48836],[85,-51.91581],[85.5,-52.33617],[86,-52.7494],[86.5,-53.15548],[87,-53.55442],[87.5,-53.94621],[88,-54.33089],[88.5,-54.7085],[89,-55.07908],[89.5,-55.44269],[90,-55.7994],[90.5,-56.14929],[91,-56.49244],[91.5,-56.82893],[92,-57.15887],[92.5,-57.48233],[93,-57.79944],[93.5,-58.11028],[94,-58.41496],[94.5,-58.7136],[95,-59.00629],[95.5,-59.29315],[96,-59.57428],[96.5,-59.8498],[97,-60.1198],[97.5,-60.38441],[98,-60.64372],[98.5,-60.89784],[99,-61.14687],[99.5,-61.39093],[100,-61.6301],[100.5,-61.8645],[101,-62.09421],[101.5,-62.31935],[102,-62.53999],[102.5,-62.75624],[103,-62.96819],[103.5,-63.17592],[104,-63.37952],[104.5,-63.57909],[105,-63.7747],[105.5,-63.96643],[106,-64.15437],[106.5,-64.33859],[107,-64.51918],[107.5,-64.6962],[108,-64.86973],[108.5,-65.03983],[109,-65.20658],[109.5,-65.37005],[110,-65.5303],[110.5,-65.6874],[111,-65.8414],[111.5,-65.99238],[112,-66.14038],[112.5,-66.28546],[113,-66.42769],[113.5,-66.56712],[114,-66.7038],[114.5,-66.83778],[115,-66.96911],[115.5,-67.09785],[116,-67.22403],[116.5,-67.34772],[117,-67.46895],[117.5,-67.58777],[118,-67.70421],[118.5,-67.81834],[119,-67.93017],[119.5,-68.03976],[120,-68.14714],[120.5,-68.25236],[121,-68.35544],[121.5,-68.45642],[122,-68.55535],[122.5,-68.65224],[123,-68.74714],[123.5,-68.84008],[124,-68.93109],[124.5,-69.0202],[125,-69.10743],[125.5,-69.19283],[126,-69.27641],[126.5,-69.3582],[127,-69.43824],[127.5,-69.51654],[128,-69.59313],[128.5,-69.66804],[129,-69.74128],[129.5,-69.8129],[130,-69.88289],[130.5,-69.9513],[131,-70.01813],[131.5,-70.08341],[132,-70.14717],[132.5,-70.20941],[133,-70.27017],[133.5,-70.32945],[134,-70.38728],[134.5,-70.44367],[135,-70.49864],[135.5,-70.5522],[136,-70.60439],[136.5,-70.6552],[137,-70.70465],[137.5,-70.75276],[138,-70.79955],[138.5,-70.84502],[139,-70.8892],[139.5,-70.93209],[140,-70.9737],[140.5,-71.01406],[141,-71.05316],[141.5,-71.09103],[142,-71.12767],[142.5,-71.16309],[143,-71.19731],[143.5,-71.23034],[144,-71.26218],[144.5,-71.29284],[145,-71.32233],[145.5,-71.35067],[146,-71.37786],[146.5,-71.40391],[147,-71.42882],[147.5,-71.45261],[148,-71.47528],[148.5,-71.49684],[149,-71.51729],[149.5,-71.53665],[150,-71.55491],[150.5,-71.57208],[151,-71.58818],[151.5,-71.6032],[152,-71.61715],[152.5,-71.63003],[153,-71.64185],[153.5,-71.65261],[154,-71.66233],[154.5,-71.67099],[155,-71.67861],[155.5,-71.68518],[156,-71.69072],[156.5,-71.69522],[157,-71.69869],[157.5,-71.70112],[158,-71.70253],[158.5,-71.70291],[159,-71.70226],[159.5,-71.7006],[160,-71.69791],[160.5,-71.69419],[161,-71.68946],[161.5,-71.68371],[162,-71.67694],[162.5,-71.66915],[163,-71.66034],[163.5,-71.65051],[164,-71.63966],[164.5,-71.6278],[165,-71.61491],[165.5,-71.601],[166,-71.58607],[166.5,-71.57011],[167,-71.55313],[167.5,-71.53512],[168,-71.51608],[168.5,-71.49601],[169,-71.47491],[169.5,-71.45277],[170,-71.42959],[170.5,-71.40537],[171,-71.38011],[171.5,-71.3538],[172,-71.32644],[172.5,-71.29802],[173,-71.26855],[173.5,-71.23801],[174,-71.20641],[174.5,-71.17374],[175,-71.13999],[175.5,-71.10516],[176,-71.06925],[176.5,-71.03225],[177,-70.99415],[177.5,-70.95496],[178,-70.91466],[178.5,-70.87325],[179,-70.83073],[179.5,-70.78708],[180,-70.74231]]}},{"type":"Feature","id":"+05341023:south:1","properties":{"id":"+05341023","year":534,"month":10,"day":23,"time_tdt":"05:58:25","type":"개기일식","type_code":"T","saros":100,"gamma":-0.67043,"magnitude":1.04586,"greatest":{"lat":-48.41672,"lng":82.81189},"path_width_km":203.8,"duration":"03m09s","delta_t_seconds":5341.4,"catalog_number":6023,"source":"NASA Five Millennium Canon of Solar Eclipses","source_url":"https://eclipse.gsfc.nasa.gov/SEsearch/SEsearchmap.php?Ecl=%2B05341023","boundary":"south","name":"534-10-23 개기일식"},"geometry":{"type":"LineString","coordinates":[[-179.5,-70.6964],[-179,-70.64935],[-178.5,-70.60115],[-178,-70.55181],[-177.5,-70.5013],[-177,-70.44962],[-176.5,-70.39677],[-176,-70.34274],[-175.5,-70.28752],[-175,-70.2311],[-174.5,-70.17348],[-174,-70.11464],[-173.5,-70.05459],[-173,-69.99331],[-172.5,-69.9308],[-172,-69.86704],[-171.5,-69.80203],[-171,-69.73577],[-170.5,-69.66823],[-170,-69.59942],[-169.5,-69.52932],[-169,-69.45792],[-168.5,-69.38523],[-168,-69.31122],[-167.5,-69.23589],[-167,-69.15923],[-166.5,-69.08123],[-166,-69.00189],[-165.5,-68.92119],[-165,-68.83912],[-164.5,-68.75567],[-164,-68.67085],[-163.5,-68.58463],[-163,-68.497],[-162.5,-68.40797],[-162,-68.31751],[-161.5,-68.22562],[-161,-68.1323],[-160.5,-68.03752],[-160,-67.94129],[-159.5,-67.84359],[-159,-67.74442],[-158.5,-67.64377],[-158,-67.54162],[-157.5,-67.43797],[-157,-67.33281],[-156.5,-67.22614],[-156,-67.11794],[-155.5,-67.0082],[-155,-66.89693],[-154.5,-66.7841],[-154,-66.66972],[-153.5,-66.55378],[-153,-66.43627],[-152.5,-66.31718],[-152,-66.1965],[-151.5,-66.07424],[-151,-65.95038],[-150.89844,-65.92503]]}}],"attribution":"Eclipse Predictions by Fred Espenak and Jean Meeus (NASA's GSFC)","generated_at":"2026-09-23T01:44:52.345Z"}
