{"type":"FeatureCollection","year":538,"events":[{"id":"+05380215","year":538,"month":2,"day":15,"time_tdt":"09:55:14","type":"개기일식","type_code":"T","saros":97,"gamma":0.80117,"magnitude":1.04125,"greatest":{"lat":35.65598,"lng":31.75433},"path_width_km":225.7,"duration":"03m14s","delta_t_seconds":5309.2,"catalog_number":6032,"source":"NASA Five Millennium Canon of Solar Eclipses","source_url":"https://eclipse.gsfc.nasa.gov/SEsearch/SEsearchmap.php?Ecl=%2B05380215"},{"id":"+05380810","year":538,"month":8,"day":10,"time_tdt":"17:05:14","type":"금환일식","type_code":"A","saros":102,"gamma":-0.80047,"magnitude":0.96465,"greatest":{"lat":-33.45826,"lng":-76.31262},"path_width_km":207.5,"duration":"03m35s","delta_t_seconds":5304.5,"catalog_number":6033,"source":"NASA Five Millennium Canon of Solar Eclipses","source_url":"https://eclipse.gsfc.nasa.gov/SEsearch/SEsearchmap.php?Ecl=%2B05380810"}],"features":[{"type":"Feature","id":"+05380215:north:0","properties":{"id":"+05380215","year":538,"month":2,"day":15,"time_tdt":"09:55:14","type":"개기일식","type_code":"T","saros":97,"gamma":0.80117,"magnitude":1.04125,"greatest":{"lat":35.65598,"lng":31.75433},"path_width_km":225.7,"duration":"03m14s","delta_t_seconds":5309.2,"catalog_number":6032,"source":"NASA Five Millennium Canon of Solar Eclipses","source_url":"https://eclipse.gsfc.nasa.gov/SEsearch/SEsearchmap.php?Ecl=%2B05380215","boundary":"north","name":"538-02-15 개기일식"},"geometry":{"type":"LineString","coordinates":[[-10.98828,27.47678],[-10.5,27.37621],[-10,27.27587],[-9.5,27.17825],[-9,27.0834],[-8.5,26.99137],[-8,26.90222],[-7.5,26.81601],[-7,26.73278],[-6.5,26.6526],[-6,26.57553],[-5.5,26.50162],[-5,26.43095],[-4.5,26.36356],[-4,26.29953],[-3.5,26.23893],[-3,26.18183],[-2.5,26.12829],[-2,26.07839],[-1.5,26.0322],[-1,25.98981],[-0.5,25.95129],[0,25.91672],[0.5,25.88618],[1,25.85977],[1.5,25.83757],[2,25.81967],[2.5,25.80617],[3,25.79715],[3.5,25.79273],[4,25.79299],[4.5,25.79805],[5,25.80802],[5.5,25.82299],[6,25.84309],[6.5,25.86843],[7,25.89913],[7.5,25.93531],[8,25.9771],[8.5,26.02463],[9,26.07802],[9.5,26.13742],[10,26.20296],[10.5,26.27478],[11,26.35304],[11.5,26.43787],[12,26.52943],[12.5,26.62787],[13,26.73336],[13.5,26.84604],[14,26.9661],[14.5,27.09368],[15,27.22896],[15.5,27.37212],[16,27.52331],[16.5,27.68272],[17,27.85052],[17.5,28.02688],[18,28.21198],[18.5,28.40599],[19,28.60908],[19.5,28.82142],[20,29.04318],[20.5,29.27451],[21,29.51558],[21.5,29.76652],[22,30.02749],[22.5,30.29862],[23,30.58001],[23.5,30.87179],[24,31.17404],[24.5,31.48684],[25,31.81025],[25.5,32.14431],[26,32.48903],[26.5,32.84442],[27,33.21042],[27.5,33.587],[28,33.97405],[28.5,34.37147],[29,34.77909],[29.5,35.19674],[30,35.62419],[30.5,36.0612],[31,36.50749],[31.5,36.96273],[32,37.42657],[32.5,37.89863],[33,38.3785],[33.5,38.86572],[34,39.35985],[34.5,39.86038],[35,40.36681],[35.5,40.87862],[36,41.39525],[36.5,41.91616],[37,42.4408],[37.5,42.96862],[38,43.49905],[38.5,44.03155],[39,44.56557],[39.5,45.10059],[40,45.63609],[40.5,46.17157],[41,46.70654],[41.5,47.24056],[42,47.77317],[42.5,48.30396],[43,48.83254],[43.5,49.35853],[44,49.88159],[44.5,50.4014],[45,50.91765],[45.5,51.43008],[46,51.93842],[46.5,52.44244],[47,52.94194],[47.5,53.43672],[48,53.9266],[48.5,54.41145],[49,54.89111],[49.5,55.36547],[50,55.83443],[50.5,56.29788],[51,56.75575],[51.5,57.20798],[52,57.6545],[52.5,58.09528],[53,58.53028],[53.5,58.95948],[54,59.38285],[54.5,59.80038],[55,60.21207],[55.5,60.61793],[56,61.01796],[56.5,61.41218],[57,61.80061],[57.5,62.18326],[58,62.56017],[58.5,62.93137],[59,63.29689],[59.5,63.65677],[60,64.01105],[60.5,64.35977],[61,64.70298],[61.5,65.04072],[62,65.37305],[62.5,65.70001],[63,66.02166],[63.5,66.33805],[64,66.64923],[64.5,66.95527],[65,67.25621],[65.5,67.55212],[66,67.84306],[66.5,68.12907],[67,68.41023],[67.5,68.68659],[68,68.95822],[68.5,69.22518],[69,69.48752],[69.5,69.7453],[70,69.9986],[70.5,70.24747],[71,70.49198],[71.5,70.73218],[72,70.96814],[72.5,71.19992],[73,71.42758],[73.5,71.65119],[74,71.8708],[74.5,72.08648],[75,72.29828],[75.5,72.50627],[76,72.71051],[76.5,72.91106],[77,73.10798],[77.5,73.30132],[78,73.49114],[78.5,73.67752],[79,73.86049],[79.5,74.04012],[80,74.21646],[80.5,74.38958],[81,74.55952],[81.36719,74.68233]]}},{"type":"Feature","id":"+05380215:center:0","properties":{"id":"+05380215","year":538,"month":2,"day":15,"time_tdt":"09:55:14","type":"개기일식","type_code":"T","saros":97,"gamma":0.80117,"magnitude":1.04125,"greatest":{"lat":35.65598,"lng":31.75433},"path_width_km":225.7,"duration":"03m14s","delta_t_seconds":5309.2,"catalog_number":6032,"source":"NASA Five Millennium Canon of Solar Eclipses","source_url":"https://eclipse.gsfc.nasa.gov/SEsearch/SEsearchmap.php?Ecl=%2B05380215","boundary":"center","name":"538-02-15 개기일식"},"geometry":{"type":"LineString","coordinates":[[-10.91632,26.71356],[-10.5,26.63213],[-10,26.52787],[-9.5,26.42627],[-9,26.32737],[-8.5,26.23122],[-8,26.13787],[-7.5,26.04738],[-7,25.9598],[-6.5,25.87519],[-6,25.7936],[-5.5,25.71509],[-5,25.63973],[-4.5,25.56757],[-4,25.49868],[-3.5,25.43312],[-3,25.37096],[-2.5,25.31227],[-2,25.25712],[-1.5,25.20559],[-1,25.15774],[-0.5,25.11365],[0,25.07341],[0.5,25.03709],[1,25.00477],[1.5,24.97654],[2,24.9525],[2.5,24.93272],[3,24.9173],[3.5,24.90634],[4,24.89993],[4.5,24.89818],[5,24.90118],[5.5,24.90904],[6,24.92188],[6.5,24.9398],[7,24.96292],[7.5,24.99135],[8,25.02522],[8.5,25.06465],[9,25.10977],[9.5,25.16071],[10,25.2176],[10.5,25.28058],[11,25.34979],[11.5,25.42538],[12,25.50749],[12.5,25.59626],[13,25.69186],[13.5,25.79444],[14,25.90416],[14.5,26.02119],[15,26.14568],[15.5,26.2778],[16,26.41772],[16.5,26.56562],[17,26.72166],[17.5,26.88602],[18,27.05887],[18.5,27.24039],[19,27.43075],[19.5,27.63012],[20,27.83867],[20.5,28.05657],[21,28.28397],[21.5,28.52104],[22,28.76794],[22.5,29.02479],[23,29.29174],[23.5,29.56891],[24,29.85641],[24.5,30.15434],[25,30.46279],[25.5,30.78181],[26,31.11146],[26.5,31.45177],[27,31.80272],[27.5,32.16431],[28,32.53648],[28.5,32.91915],[29,33.31222],[29.5,33.71555],[30,34.12896],[30.5,34.55226],[31,34.98519],[31.5,35.4275],[32,35.87887],[32.5,36.33897],[33,36.80741],[33.5,37.2838],[34,37.7677],[34.5,38.25866],[35,38.75619],[35.5,39.25979],[36,39.76893],[36.5,40.28308],[37,40.80169],[37.5,41.32421],[38,41.85007],[38.5,42.37872],[39,42.90961],[39.5,43.4422],[40,43.97593],[40.5,44.5103],[41,45.0448],[41.5,45.57893],[42,46.11223],[42.5,46.64425],[43,47.17457],[43.5,47.70278],[44,48.2285],[44.5,48.75139],[45,49.27111],[45.5,49.78735],[46,50.29984],[46.5,50.80831],[47,51.31253],[47.5,51.81228],[48,52.30737],[48.5,52.79762],[49,53.28287],[49.5,53.76298],[50,54.23783],[50.5,54.70732],[51,55.17135],[51.5,55.62984],[52,56.08272],[52.5,56.52994],[53,56.97145],[53.5,57.40722],[54,57.83722],[54.5,58.26144],[55,58.67987],[55.5,59.0925],[56,59.49934],[56.5,59.9004],[57,60.29569],[57.5,60.68524],[58,61.06906],[58.5,61.44719],[59,61.81967],[59.5,62.18651],[60,62.54778],[60.5,62.9035],[61,63.25372],[61.5,63.59849],[62,63.93785],[62.5,64.27186],[63,64.60056],[63.5,64.92402],[64,65.24228],[64.5,65.5554],[65,65.86343],[65.5,66.16644],[66,66.46448],[66.5,66.75761],[67,67.04589],[67.5,67.32938],[68,67.60813],[68.5,67.88222],[69,68.15169],[69.5,68.41662],[70,68.67706],[70.5,68.93307],[71,69.18471],[71.5,69.43205],[72,69.67514],[72.5,69.91405],[73,70.14884],[73.5,70.37956],[74,70.60628],[74.5,70.82906],[75,71.04796],[75.5,71.26303],[76,71.47433],[76.5,71.68193],[77,71.88588],[77.5,72.08624],[78,72.28307],[78.5,72.47642],[79,72.66635],[79.5,72.85291],[80,73.03616],[80.5,73.21616],[81,73.39296],[81.5,73.56661],[82,73.73717],[82.5,73.90468],[83,74.0692],[82.81027,74.30502]]}},{"type":"Feature","id":"+05380215:south:0","properties":{"id":"+05380215","year":538,"month":2,"day":15,"time_tdt":"09:55:14","type":"개기일식","type_code":"T","saros":97,"gamma":0.80117,"magnitude":1.04125,"greatest":{"lat":35.65598,"lng":31.75433},"path_width_km":225.7,"duration":"03m14s","delta_t_seconds":5309.2,"catalog_number":6032,"source":"NASA Five Millennium Canon of Solar Eclipses","source_url":"https://eclipse.gsfc.nasa.gov/SEsearch/SEsearchmap.php?Ecl=%2B05380215","boundary":"south","name":"538-02-15 개기일식"},"geometry":{"type":"LineString","coordinates":[[-10.5,25.90206],[-10,25.79402],[-9.5,25.68856],[-9,25.58573],[-8.5,25.48559],[-8,25.38818],[-7.5,25.29355],[-7,25.20176],[-6.5,25.11286],[-6,25.02691],[-5.5,24.94396],[-5,24.86408],[-4.5,24.78731],[-4,24.71373],[-3.5,24.6434],[-3,24.57638],[-2.5,24.51274],[-2,24.45254],[-1.5,24.39586],[-1,24.34277],[-0.5,24.29335],[0,24.24766],[0.5,24.20578],[1,24.16781],[1.5,24.13381],[2,24.10387],[2.5,24.07809],[3,24.05655],[3.5,24.03933],[4,24.02654],[4.5,24.01828],[5,24.01463],[5.5,24.01571],[6,24.02162],[6.5,24.03246],[7,24.04835],[7.5,24.0694],[8,24.09573],[8.5,24.12745],[9,24.16469],[9.5,24.20758],[10,24.25625],[10.5,24.31082],[11,24.37144],[11.5,24.43823],[12,24.51136],[12.5,24.59095],[13,24.67716],[13.5,24.77014],[14,24.87005],[14.5,24.97705],[15,25.09128],[15.5,25.21293],[16,25.34215],[16.5,25.47911],[17,25.62398],[17.5,25.77694],[18,25.93815],[18.5,26.10779],[19,26.28604],[19.5,26.47306],[20,26.66903],[20.5,26.87412],[21,27.08849],[21.5,27.31231],[22,27.54574],[22.5,27.78894],[23,28.04204],[23.5,28.30519],[24,28.57851],[24.5,28.86213],[25,29.15614],[25.5,29.46063],[26,29.77568],[26.5,30.10133],[27,30.43763],[27.5,30.78459],[28,31.14218],[28.5,31.51037],[29,31.8891],[29.5,32.27827],[30,32.67774],[30.5,33.08736],[31,33.50694],[31.5,33.93626],[32,34.37504],[32.5,34.82299],[33,35.27979],[33.5,35.74507],[34,36.21844],[34.5,36.69947],[35,37.18772],[35.5,37.6827],[36,38.18392],[36.5,38.69086],[37,39.20298],[37.5,39.71974],[38,40.24059],[38.5,40.76496],[39,41.29229],[39.5,41.82204],[40,42.35364],[40.5,42.88655],[41,43.42025],[41.5,43.95422],[42,44.48797],[42.5,45.02102],[43,45.55291],[43.5,46.08321],[44,46.61151],[44.5,47.13743],[45,47.6606],[45.5,48.18068],[46,48.69737],[46.5,49.21036],[47,49.71941],[47.5,50.22427],[48,50.72471],[48.5,51.22053],[49,51.71156],[49.5,52.19763],[50,52.67861],[50.5,53.15437],[51,53.62479],[51.5,54.08978],[52,54.54927],[52.5,55.00318],[53,55.45146],[53.5,55.89406],[54,56.33095],[54.5,56.7621],[55,57.1875],[55.5,57.60713],[56,58.021],[56.5,58.42911],[57,58.83148],[57.5,59.22811],[58,59.61903],[58.5,60.00427],[59,60.38385],[59.5,60.75781],[60,61.12619],[60.5,61.48902],[61,61.84635],[61.5,62.19823],[62,62.5447],[62.5,62.88581],[63,63.22161],[63.5,63.55215],[64,63.87749],[64.5,64.19769],[65,64.51279],[65.5,64.82286],[66,65.12795],[66.5,65.42812],[67,65.72344],[67.5,66.01395],[68,66.29972],[68.5,66.58082],[69,66.85729],[69.5,67.1292],[70,67.39661],[70.5,67.65958],[71,67.91817],[71.5,68.17245],[72,68.42246],[72.5,68.66828],[73,68.90995],[73.5,69.14755],[74,69.38113],[74.5,69.61075],[75,69.83646],[75.5,70.05833],[76,70.27642],[76.5,70.49078],[77,70.70147],[77.5,70.90854],[78,71.11205],[78.5,71.31207],[79,71.50863],[79.5,71.7018],[80,71.89164],[80.5,72.07819],[81,72.26151],[81.5,72.44165],[82,72.61866],[82.5,72.7926],[83,72.96351],[83.5,73.13145],[84,73.29646],[84.5,73.4586],[85,73.6179]]}},{"type":"Feature","id":"+05380810:north:0","properties":{"id":"+05380810","year":538,"month":8,"day":10,"time_tdt":"17:05:14","type":"금환일식","type_code":"A","saros":102,"gamma":-0.80047,"magnitude":0.96465,"greatest":{"lat":-33.45826,"lng":-76.31262},"path_width_km":207.5,"duration":"03m35s","delta_t_seconds":5304.5,"catalog_number":6033,"source":"NASA Five Millennium Canon of Solar Eclipses","source_url":"https://eclipse.gsfc.nasa.gov/SEsearch/SEsearchmap.php?Ecl=%2B05380810","boundary":"north","name":"538-08-10 금환일식"},"geometry":{"type":"LineString","coordinates":[[-117.7793,-27.1814],[-117.5,-27.106],[-117,-26.97273],[-116.5,-26.8417],[-116,-26.71295],[-115.5,-26.58655],[-115,-26.46253],[-114.5,-26.34095],[-114,-26.22188],[-113.5,-26.10536],[-113,-25.99145],[-112.5,-25.88022],[-112,-25.77173],[-111.5,-25.66603],[-111,-25.5632],[-110.5,-25.4633],[-110,-25.3664],[-109.5,-25.27257],[-109,-25.18189],[-108.5,-25.09442],[-108,-25.01026],[-107.5,-24.92948],[-107,-24.85215],[-106.5,-24.77838],[-106,-24.70823],[-105.5,-24.64181],[-105,-24.57921],[-104.5,-24.52053],[-104,-24.46585],[-103.5,-24.41529],[-103,-24.36895],[-102.5,-24.32693],[-102,-24.28936],[-101.5,-24.25634],[-101,-24.228],[-100.5,-24.20445],[-100,-24.18583],[-99.5,-24.17225],[-99,-24.16387],[-98.5,-24.16081],[-98,-24.16323],[-97.5,-24.17125],[-97,-24.18505],[-96.5,-24.20477],[-96,-24.23057],[-95.5,-24.26262],[-95,-24.30109],[-94.5,-24.34615],[-94,-24.39798],[-93.5,-24.45677],[-93,-24.5227],[-92.5,-24.59596],[-92,-24.67676],[-91.5,-24.76529],[-91,-24.86176],[-90.5,-24.96637],[-90,-25.07935],[-89.5,-25.2009],[-89,-25.33124],[-88.5,-25.47059],[-88,-25.61917],[-87.5,-25.7772],[-87,-25.9449],[-86.5,-26.12249],[-86,-26.31019],[-85.5,-26.50821],[-85,-26.71674],[-84.5,-26.936],[-84,-27.16617],[-83.5,-27.40742],[-83,-27.65993],[-82.5,-27.92384],[-82,-28.19928],[-81.5,-28.48637],[-81,-28.7852],[-80.5,-29.09582],[-80,-29.41826],[-79.5,-29.75254],[-79,-30.09862],[-78.5,-30.45644],[-78,-30.82588],[-77.5,-31.2068],[-77,-31.59901],[-76.5,-32.00228],[-76,-32.41634],[-75.5,-32.84086],[-75,-33.27548],[-74.5,-33.7198],[-74,-34.17338],[-73.5,-34.63572],[-73,-35.10632],[-72.5,-35.58462],[-72,-36.07006],[-71.5,-36.56202],[-71,-37.0599],[-70.5,-37.56307],[-70,-38.0709],[-69.5,-38.58275],[-69,-39.09798],[-68.5,-39.61596],[-68,-40.13609],[-67.5,-40.65777],[-67,-41.1804],[-66.5,-41.70344],[-66,-42.22636],[-65.5,-42.74863],[-65,-43.26979],[-64.5,-43.78939],[-64,-44.30699],[-63.5,-44.82222],[-63,-45.3347],[-62.5,-45.84411],[-62,-46.35014],[-61.5,-46.85251],[-61,-47.35097],[-60.5,-47.8453],[-60,-48.33529],[-59.5,-48.82076],[-59,-49.30155],[-58.5,-49.77752],[-58,-50.24856],[-57.5,-50.71456],[-57,-51.17542],[-56.5,-51.63108],[-56,-52.08147],[-55.5,-52.52655],[-55,-52.96627],[-54.5,-53.40062],[-54,-53.82957],[-53.5,-54.25311],[-53,-54.67123],[-52.5,-55.08396],[-52,-55.49128],[-51.5,-55.89323],[-51,-56.28981],[-50.5,-56.68106],[-50,-57.06701],[-49.5,-57.44768],[-49,-57.82311],[-48.5,-58.19334],[-48,-58.55841],[-47.5,-58.91837],[-47,-59.27325],[-46.5,-59.6231],[-46,-59.96797],[-45.5,-60.30792],[-45,-60.64298],[-44.5,-60.9732],[-44,-61.29865],[-43.5,-61.61937],[-43,-61.93541],[-42.5,-62.24682],[-42,-62.55366],[-41.5,-62.85599],[-41,-63.15384],[-40.5,-63.44728],[-40,-63.73636],[-39.5,-64.02113],[-39,-64.30165],[-38.5,-64.57796],[-38,-64.85012],[-37.5,-65.11818],[-37,-65.3822],[-36.5,-65.64222],[-36,-65.8983],[-35.5,-66.15049],[-35,-66.39883],[-34.5,-66.64339],[-34,-66.8842],[-33.5,-67.12133],[-33,-67.35481],[-32.5,-67.5847],[-32,-67.81104],[-31.5,-68.03389],[-31,-68.2533],[-30.5,-68.4693],[-30,-68.68195],[-29.5,-68.89129],[-29,-69.09737],[-28.5,-69.30024],[-28,-69.49993],[-27.92773,-69.52854]]}},{"type":"Feature","id":"+05380810:center:0","properties":{"id":"+05380810","year":538,"month":8,"day":10,"time_tdt":"17:05:14","type":"금환일식","type_code":"A","saros":102,"gamma":-0.80047,"magnitude":0.96465,"greatest":{"lat":-33.45826,"lng":-76.31262},"path_width_km":207.5,"duration":"03m35s","delta_t_seconds":5304.5,"catalog_number":6033,"source":"NASA Five Millennium Canon of Solar Eclipses","source_url":"https://eclipse.gsfc.nasa.gov/SEsearch/SEsearchmap.php?Ecl=%2B05380810","boundary":"center","name":"538-08-10 금환일식"},"geometry":{"type":"LineString","coordinates":[[-117.81459,-28.31734],[-117.5,-28.23491],[-117,-28.09843],[-116.5,-27.96422],[-116,-27.83236],[-115.5,-27.70289],[-115,-27.57585],[-114.5,-27.45132],[-114,-27.32933],[-113.5,-27.20996],[-113,-27.09327],[-112.5,-26.9793],[-112,-26.86814],[-111.5,-26.75984],[-111,-26.65446],[-110.5,-26.55209],[-110,-26.45279],[-109.5,-26.35663],[-109,-26.26369],[-108.5,-26.17404],[-108,-26.08778],[-107.5,-26.00497],[-107,-25.92571],[-106.5,-25.85009],[-106,-25.77819],[-105.5,-25.7101],[-105,-25.64593],[-104.5,-25.58577],[-104,-25.52973],[-103.5,-25.47791],[-103,-25.43042],[-102.5,-25.38737],[-102,-25.34888],[-101.5,-25.31507],[-101,-25.28607],[-100.5,-25.26199],[-100,-25.24297],[-99.5,-25.22914],[-99,-25.22065],[-98.5,-25.21764],[-98,-25.22026],[-97.5,-25.22865],[-97,-25.24299],[-96.5,-25.26342],[-96,-25.29012],[-95.5,-25.32326],[-95,-25.36301],[-94.5,-25.40956],[-94,-25.46309],[-93.5,-25.52379],[-93,-25.59186],[-92.5,-25.6675],[-92,-25.75091],[-91.5,-25.8423],[-91,-25.94188],[-90.5,-26.04988],[-90,-26.1665],[-89.5,-26.29198],[-89,-26.42653],[-88.5,-26.57039],[-88,-26.72377],[-87.5,-26.88691],[-87,-27.06004],[-86.5,-27.24337],[-86,-27.43713],[-85.5,-27.64152],[-85,-27.85677],[-84.5,-28.08306],[-84,-28.32059],[-83.5,-28.56953],[-83,-28.83005],[-82.5,-29.10229],[-82,-29.38637],[-81.5,-29.68239],[-81,-29.99043],[-80.5,-30.31054],[-80,-30.64274],[-79.5,-30.98701],[-79,-31.34329],[-78.5,-31.7115],[-78,-32.0915],[-77.5,-32.48312],[-77,-32.88614],[-76.5,-33.3003],[-76,-33.72529],[-75.5,-34.16075],[-75,-34.6063],[-74.5,-35.06149],[-74,-35.52585],[-73.5,-35.99887],[-73,-36.47999],[-72.5,-36.96865],[-72,-37.46424],[-71.5,-37.96614],[-71,-38.47373],[-70.5,-38.98635],[-70,-39.50337],[-69.5,-40.02414],[-69,-40.54802],[-68.5,-41.07437],[-68,-41.6026],[-67.5,-42.1321],[-67,-42.66229],[-66.5,-43.19263],[-66,-43.72259],[-65.5,-44.25167],[-65,-44.77941],[-64.5,-45.30537],[-64,-45.82913],[-63.5,-46.35033],[-63,-46.8686],[-62.5,-47.38364],[-62,-47.89514],[-61.5,-48.40284],[-61,-48.9065],[-60.5,-49.4059],[-60,-49.90085],[-59.5,-50.39117],[-59,-50.87672],[-58.5,-51.35736],[-58,-51.83298],[-57.5,-52.30347],[-57,-52.76876],[-56.5,-53.22877],[-56,-53.68344],[-55.5,-54.13273],[-55,-54.5766],[-54.5,-55.01503],[-54,-55.44799],[-53.5,-55.87548],[-53,-56.29749],[-52.5,-56.71403],[-52,-57.12511],[-51.5,-57.53074],[-51,-57.93094],[-50.5,-58.32573],[-50,-58.71514],[-49.5,-59.09921],[-49,-59.47795],[-48.5,-59.85142],[-48,-60.21964],[-47.5,-60.58267],[-47,-60.94053],[-46.5,-61.29327],[-46,-61.64094],[-45.5,-61.98359],[-45,-62.32125],[-44.5,-62.65398],[-44,-62.98184],[-43.5,-63.30485],[-43,-63.62309],[-42.5,-63.93659],[-42,-64.24541],[-41.5,-64.54959],[-41,-64.8492],[-40.5,-65.14428],[-40,-65.43488],[-39.5,-65.72105],[-39,-66.00285],[-38.5,-66.28033],[-38,-66.55354],[-37.5,-66.82252],[-37,-67.08734],[-36.5,-67.34805],[-36,-67.60469],[-35.5,-67.85731],[-35,-68.10598],[-34.5,-68.35073],[-34,-68.59162],[-33.5,-68.82869],[-33,-69.06201],[-32.5,-69.29162],[-32,-69.51756],[-31.5,-69.73989],[-31,-69.95865],[-30.5,-70.17391],[-30.3564,-70.34655]]}},{"type":"Feature","id":"+05380810:south:0","properties":{"id":"+05380810","year":538,"month":8,"day":10,"time_tdt":"17:05:14","type":"금환일식","type_code":"A","saros":102,"gamma":-0.80047,"magnitude":0.96465,"greatest":{"lat":-33.45826,"lng":-76.31262},"path_width_km":207.5,"duration":"03m35s","delta_t_seconds":5304.5,"catalog_number":6033,"source":"NASA Five Millennium Canon of Solar Eclipses","source_url":"https://eclipse.gsfc.nasa.gov/SEsearch/SEsearchmap.php?Ecl=%2B05380810","boundary":"south","name":"538-08-10 금환일식"},"geometry":{"type":"LineString","coordinates":[[-117.85938,-29.49717],[-117.5,-29.39526],[-117,-29.25544],[-116.5,-29.11796],[-116,-28.98288],[-115.5,-28.85024],[-115,-28.7201],[-114.5,-28.59252],[-114,-28.46755],[-113.5,-28.34526],[-113,-28.22571],[-112.5,-28.10896],[-112,-27.99507],[-111.5,-27.88412],[-111,-27.77617],[-110.5,-27.67129],[-110,-27.56956],[-109.5,-27.47106],[-109,-27.37585],[-108.5,-27.28403],[-108,-27.19567],[-107.5,-27.11086],[-107,-27.02969],[-106.5,-26.95225],[-106,-26.87863],[-105.5,-26.80893],[-105,-26.74325],[-104.5,-26.6817],[-104,-26.62437],[-103.5,-26.57138],[-103,-26.52284],[-102.5,-26.47888],[-102,-26.43959],[-101.5,-26.40513],[-101,-26.3756],[-100.5,-26.35115],[-100,-26.3319],[-99.5,-26.31801],[-99,-26.30961],[-98.5,-26.30686],[-98,-26.30991],[-97.5,-26.31892],[-97,-26.33406],[-96.5,-26.35548],[-96,-26.38337],[-95.5,-26.41791],[-95,-26.45927],[-94.5,-26.50766],[-94,-26.56325],[-93.5,-26.62625],[-93,-26.69687],[-92.5,-26.77531],[-92,-26.86178],[-91.5,-26.95651],[-91,-27.0597],[-90.5,-27.1716],[-90,-27.29242],[-89.5,-27.4224],[-89,-27.56177],[-88.5,-27.71075],[-88,-27.8696],[-87.5,-28.03854],[-87,-28.21779],[-86.5,-28.4076],[-86,-28.60818],[-85.5,-28.81976],[-85,-29.04254],[-84.5,-29.27672],[-84,-29.5225],[-83.5,-29.78004],[-83,-30.0495],[-82.5,-30.33102],[-82,-30.62472],[-81.5,-30.93068],[-81,-31.24898],[-80.5,-31.57964],[-80,-31.92265],[-79.5,-32.27799],[-79,-32.64558],[-78.5,-33.0253],[-78,-33.41699],[-77.5,-33.82045],[-77,-34.23542],[-76.5,-34.66161],[-76,-35.09868],[-75.5,-35.54624],[-75,-36.00386],[-74.5,-36.47108],[-74,-36.94738],[-73.5,-37.43222],[-73,-37.92502],[-72.5,-38.42519],[-72,-38.9321],[-71.5,-39.44511],[-71,-39.96357],[-70.5,-40.48683],[-70,-41.01422],[-69.5,-41.54511],[-69,-42.07885],[-68.5,-42.6148],[-68,-43.15236],[-67.5,-43.69093],[-67,-44.22995],[-66.5,-44.76888],[-66,-45.3072],[-65.5,-45.84442],[-65,-46.38009],[-64.5,-46.91378],[-64,-47.4451],[-63.5,-47.97367],[-63,-48.49917],[-62.5,-49.02128],[-62,-49.53971],[-61.5,-50.05422],[-61,-50.56457],[-60.5,-51.07056],[-60,-51.57199],[-59.5,-52.0687],[-59,-52.56055],[-58.5,-53.04741],[-58,-53.52916],[-57.5,-54.00572],[-57,-54.477],[-56.5,-54.94293],[-56,-55.40345],[-55.5,-55.85852],[-55,-56.3081],[-54.5,-56.75217],[-54,-57.1907],[-53.5,-57.62369],[-53,-58.05113],[-52.5,-58.47301],[-52,-58.88936],[-51.5,-59.30017],[-51,-59.70547],[-50.5,-60.10527],[-50,-60.49959],[-49.5,-60.88847],[-49,-61.27194],[-48.5,-61.65001],[-48,-62.02274],[-47.5,-62.39015],[-47,-62.75228],[-46.5,-63.10917],[-46,-63.46087],[-45.5,-63.80741],[-45,-64.14884],[-44.5,-64.4852],[-44,-64.81653],[-43.5,-65.14289],[-43,-65.46432],[-42.5,-65.78087],[-42,-66.09258],[-41.5,-66.3995],[-41,-66.70168],[-40.5,-66.99917],[-40,-67.29203],[-39.5,-67.58029],[-39,-67.86401],[-38.5,-68.14324],[-38,-68.41803],[-37.5,-68.68843],[-37,-68.95449],[-36.5,-69.21626],[-36,-69.47379],[-35.5,-69.72714],[-35,-69.97635],[-34.5,-70.22147],[-34,-70.46257],[-33,-70.93285],[-33.5,-70.69968],[-33.125,-70.87492]]}}],"attribution":"Eclipse Predictions by Fred Espenak and Jean Meeus (NASA's GSFC)","generated_at":"2026-09-23T01:44:52.340Z"}
