{"type":"FeatureCollection","year":562,"events":[{"id":"+05620419","year":562,"month":4,"day":19,"time_tdt":"11:52:31","type":"금환일식","type_code":"Am","saros":86,"gamma":0.1125,"magnitude":0.96779,"greatest":{"lat":18.15133,"lng":20.64508},"path_width_km":116.7,"duration":"03m47s","delta_t_seconds":5075.5,"catalog_number":6094,"source":"NASA Five Millennium Canon of Solar Eclipses","source_url":"https://eclipse.gsfc.nasa.gov/SEsearch/SEsearchmap.php?Ecl=%2B05620419"},{"id":"+05621014","year":562,"month":10,"day":14,"time_tdt":"03:07:26","type":"금환일식","type_code":"A","saros":91,"gamma":-0.00104,"magnitude":0.99919,"greatest":{"lat":-8.999,"lng":150.94427},"path_width_km":2.8,"duration":"00m05s","delta_t_seconds":5070.8,"catalog_number":6095,"source":"NASA Five Millennium Canon of Solar Eclipses","source_url":"https://eclipse.gsfc.nasa.gov/SEsearch/SEsearchmap.php?Ecl=%2B05621014"}],"features":[{"type":"Feature","id":"+05620419:north:0","properties":{"id":"+05620419","year":562,"month":4,"day":19,"time_tdt":"11:52:31","type":"금환일식","type_code":"Am","saros":86,"gamma":0.1125,"magnitude":0.96779,"greatest":{"lat":18.15133,"lng":20.64508},"path_width_km":116.7,"duration":"03m47s","delta_t_seconds":5075.5,"catalog_number":6094,"source":"NASA Five Millennium Canon of Solar Eclipses","source_url":"https://eclipse.gsfc.nasa.gov/SEsearch/SEsearchmap.php?Ecl=%2B05620419","boundary":"north","name":"562-04-19 금환일식"},"geometry":{"type":"LineString","coordinates":[[-37.45117,-7.55575],[-37,-7.4626],[-36.5,-7.35776],[-36,-7.25121],[-35.5,-7.14295],[-35,-7.03295],[-34.5,-6.92119],[-34,-6.80765],[-33.5,-6.69231],[-33,-6.57516],[-32.5,-6.45616],[-32,-6.33531],[-31.5,-6.21258],[-31,-6.08795],[-30.5,-5.96139],[-30,-5.83289],[-29.5,-5.70243],[-29,-5.56997],[-28.5,-5.4355],[-28,-5.299],[-27.5,-5.16043],[-27,-5.01979],[-26.5,-4.87703],[-26,-4.73214],[-25.5,-4.5851],[-25,-4.43587],[-24.5,-4.28444],[-24,-4.13077],[-23.5,-3.97484],[-23,-3.81663],[-22.5,-3.6561],[-22,-3.49323],[-21.5,-3.328],[-21,-3.16037],[-20.5,-2.99032],[-20,-2.81783],[-19.5,-2.64286],[-19,-2.46538],[-18.5,-2.28537],[-18,-2.1028],[-17.5,-1.91765],[-17,-1.72987],[-16.5,-1.53946],[-16,-1.34638],[-15.5,-1.15059],[-15,-0.95209],[-14.5,-0.75083],[-14,-0.5468],[-13.5,-0.33996],[-13,-0.1303],[-12.5,0.08222],[-12,0.29761],[-11.5,0.51589],[-11,0.7371],[-10.5,0.96124],[-10,1.18833],[-9.5,1.41841],[-9,1.65146],[-8.5,1.88753],[-8,2.1266],[-7.5,2.36869],[-7,2.61382],[-6.5,2.86197],[-6,3.11316],[-5.5,3.36738],[-5,3.62462],[-4.5,3.88487],[-4,4.14813],[-3.5,4.41436],[-3,4.68355],[-2.5,4.95567],[-2,5.23068],[-1.5,5.50855],[-1,5.78923],[-0.5,6.07266],[0,6.3588],[0.5,6.64757],[1,6.93889],[1.5,7.2327],[2,7.52889],[2.5,7.82738],[3,8.12805],[3.5,8.43079],[4,8.73548],[4.5,9.04199],[5,9.35018],[5.5,9.65989],[6,9.97097],[6.5,10.28324],[7,10.59655],[7.5,10.91069],[8,11.22548],[8.5,11.54072],[9,11.85621],[9.5,12.17173],[10,12.48707],[10.5,12.80201],[11,13.11632],[11.5,13.42977],[12,13.74214],[12.5,14.05319],[13,14.36271],[13.5,14.67045],[14,14.97619],[14.5,15.27972],[15,15.58081],[15.5,15.87925],[16,16.17483],[16.5,16.46736],[17,16.75665],[17.5,17.04251],[18,17.32476],[18.5,17.60325],[19,17.87782],[19.5,18.14833],[20,18.41464],[20.5,18.67663],[21,18.93419],[21.5,19.18722],[22,19.43563],[22.5,19.67933],[23,19.91827],[23.5,20.15238],[24,20.38161],[24.5,20.60591],[25,20.82527],[25.5,21.03965],[26,21.24903],[26.5,21.45342],[27,21.65281],[27.5,21.8472],[28,22.0366],[28.5,22.22104],[29,22.40054],[29.5,22.57512],[30,22.74481],[30.5,22.90965],[31,23.06968],[31.5,23.22495],[32,23.37548],[32.5,23.52134],[33,23.66257],[33.5,23.79922],[34,23.93135],[34.5,24.05902],[35,24.18227],[35.5,24.30116],[36,24.41575],[36.5,24.52611],[37,24.63228],[37.5,24.73433],[38,24.83232],[38.5,24.9263],[39,25.01633],[39.5,25.10248],[40,25.1848],[40.5,25.26335],[41,25.33819],[41.5,25.40937],[42,25.47695],[42.5,25.54099],[43,25.60155],[43.5,25.65868],[44,25.71242],[44.5,25.76285],[45,25.81001],[45.5,25.85395],[46,25.89472],[46.5,25.93238],[47,25.96698],[47.5,25.99856],[48,26.02717],[48.5,26.05286],[49,26.07569],[49.5,26.09568],[50,26.1129],[50.5,26.12738],[51,26.13918],[51.5,26.14832],[52,26.15486],[52.5,26.15884],[53,26.16029],[53.5,26.15927],[54,26.1558],[54.5,26.14994],[55,26.14171],[55.5,26.13115],[56,26.11831],[56.5,26.10322],[57,26.08592],[57.5,26.06643],[58,26.0448],[58.5,26.02107],[59,25.99525],[59.5,25.9674],[60,25.93753],[60.5,25.9057],[61,25.87191],[61.5,25.83621],[62,25.79863],[62.5,25.7592],[63,25.71794],[63.5,25.6749],[64,25.63009],[64.5,25.58354],[65,25.53529],[65.5,25.48535],[66,25.43377],[66.5,25.38056],[67,25.32575],[67.5,25.26937],[68,25.21145],[68.5,25.152],[69,25.09106],[69.5,25.02865],[70,24.96479],[70.5,24.89951],[71,24.83283],[71.5,24.76477],[72,24.69537],[72.5,24.62463],[73,24.55259],[73.5,24.47926],[74,24.40467],[74.5,24.32884],[75,24.25179],[75.5,24.17354],[76,24.09412],[76.5,24.01354],[77,23.93182],[77.5,23.84898],[78,23.76505],[78.5,23.68003],[79,23.59396],[79.5,23.50686],[80,23.41873],[80.5,23.3296],[81,23.23948],[81.5,23.1484],[82,23.05637],[82.5,22.96341],[83,22.86954],[83.5,22.77478],[84,22.67913],[84.5,22.58262],[85,22.48527],[85.5,22.38709],[86,22.2881],[86.5,22.1883],[87,22.08773],[87.5,21.9864],[88,21.88431],[88.5,21.78149]]}},{"type":"Feature","id":"+05620419:center:0","properties":{"id":"+05620419","year":562,"month":4,"day":19,"time_tdt":"11:52:31","type":"금환일식","type_code":"Am","saros":86,"gamma":0.1125,"magnitude":0.96779,"greatest":{"lat":18.15133,"lng":20.64508},"path_width_km":116.7,"duration":"03m47s","delta_t_seconds":5075.5,"catalog_number":6094,"source":"NASA Five Millennium Canon of Solar Eclipses","source_url":"https://eclipse.gsfc.nasa.gov/SEsearch/SEsearchmap.php?Ecl=%2B05620419","boundary":"center","name":"562-04-19 금환일식"},"geometry":{"type":"LineString","coordinates":[[-37.20505,-8.31621],[-37,-8.27284],[-36.5,-8.16636],[-36,-8.05818],[-35.5,-7.94828],[-35,-7.83664],[-34.5,-7.72324],[-34,-7.60807],[-33.5,-7.4911],[-33,-7.37231],[-32.5,-7.25168],[-32,-7.1292],[-31.5,-7.00484],[-31,-6.87858],[-30.5,-6.7504],[-30,-6.62028],[-29.5,-6.48819],[-29,-6.35412],[-28.5,-6.21803],[-28,-6.07992],[-27.5,-5.93974],[-27,-5.79748],[-26.5,-5.65312],[-26,-5.50663],[-25.5,-5.35799],[-25,-5.20717],[-24.5,-5.05414],[-24,-4.89888],[-23.5,-4.74137],[-23,-4.58157],[-22.5,-4.41947],[-22,-4.25503],[-21.5,-4.08823],[-21,-3.91903],[-20.5,-3.74743],[-20,-3.57337],[-19.5,-3.39685],[-19,-3.21782],[-18.5,-3.03627],[-18,-2.85216],[-17.5,-2.66547],[-17,-2.47617],[-16.5,-2.28423],[-16,-2.08963],[-15.5,-1.89233],[-15,-1.69231],[-14.5,-1.48955],[-14,-1.28401],[-13.5,-1.07567],[-13,-0.86451],[-12.5,-0.65051],[-12,-0.43363],[-11.5,-0.21385],[-11,0.00884],[-10.5,0.23446],[-10,0.46304],[-9.5,0.69459],[-9,0.92913],[-8.5,1.16667],[-8,1.40723],[-7.5,1.65081],[-7,1.89741],[-6.5,2.14706],[-6,2.39974],[-5.5,2.65546],[-5,2.9142],[-4.5,3.17597],[-4,3.44075],[-3.5,3.70851],[-3,3.97925],[-2.5,4.25293],[-2,4.52951],[-1.5,4.80897],[-1,5.09126],[-0.5,5.37633],[0,5.66411],[0.5,5.95456],[1,6.24758],[1.5,6.54312],[2,6.84107],[2.5,7.14135],[3,7.44384],[3.5,7.74845],[4,8.05504],[4.5,8.36348],[5,8.67364],[5.5,8.98537],[6,9.29851],[6.5,9.61289],[7,9.92834],[7.5,10.24467],[8,10.5617],[8.5,10.87922],[9,11.19704],[9.5,11.51492],[10,11.83267],[10.5,12.15005],[11,12.46684],[11.5,12.78281],[12,13.09772],[12.5,13.41135],[13,13.72345],[13.5,14.03381],[14,14.34218],[14.5,14.64834],[15,14.95206],[15.5,15.25314],[16,15.55135],[16.5,15.84649],[17,16.13837],[17.5,16.42679],[18,16.71158],[18.5,16.99256],[19,17.26958],[19.5,17.54248],[20,17.81114],[20.5,18.07541],[21,18.33519],[21.5,18.59036],[22,18.84084],[22.5,19.08654],[23,19.32739],[23.5,19.56332],[24,19.79428],[24.5,20.02023],[25,20.24113],[25.5,20.45696],[26,20.6677],[26.5,20.87334],[27,21.07388],[27.5,21.26932],[28,21.45967],[28.5,21.64496],[29,21.8252],[29.5,22.00042],[30,22.17066],[30.5,22.33594],[31,22.49631],[31.5,22.65181],[32,22.80249],[32.5,22.94839],[33,23.08957],[33.5,23.22608],[34,23.35798],[34.5,23.48531],[35,23.60815],[35.5,23.72654],[36,23.84054],[36.5,23.95023],[37,24.05564],[37.5,24.15686],[38,24.25393],[38.5,24.34692],[39,24.43589],[39.5,24.5209],[40,24.60201],[40.5,24.67928],[41,24.75278],[41.5,24.82255],[42,24.88866],[42.5,24.95116],[43,25.01012],[43.5,25.06559],[44,25.11763],[44.5,25.16629],[45,25.21163],[45.5,25.25369],[46,25.29254],[46.5,25.32823],[47,25.36081],[47.5,25.39033],[48,25.41683],[48.5,25.44037],[49,25.461],[49.5,25.47877],[50,25.49371],[50.5,25.50589],[51,25.51534],[51.5,25.5221],[52,25.52623],[52.5,25.52776],[53,25.52674],[53.5,25.52321],[54,25.51722],[54.5,25.50879],[55,25.49797],[55.5,25.48481],[56,25.46933],[56.5,25.45158],[57,25.43159],[57.5,25.4094],[58,25.38505],[58.5,25.35857],[59,25.33],[59.5,25.29937],[60,25.26671],[60.5,25.23206],[61,25.19545],[61.5,25.15691],[62,25.11648],[62.5,25.07419],[63,25.03006],[63.5,24.98413],[64,24.93642],[64.5,24.88697],[65,24.83581],[65.5,24.78296],[66,24.72845],[66.5,24.67231],[67,24.61456],[67.5,24.55524],[68,24.49437],[68.5,24.43198],[69,24.36808],[69.5,24.30272],[70,24.2359],[70.5,24.16766],[71,24.09803],[71.5,24.02702],[72,23.95465],[72.5,23.88096],[73,23.80597],[73.5,23.72969],[74,23.65215],[74.5,23.57338],[75,23.49339],[75.5,23.4122],[76,23.32985],[76.5,23.24634],[77,23.1617],[77.5,23.07595],[78,22.9891],[78.5,22.90119],[79,22.81223],[79.5,22.72223],[80,22.63122],[80.5,22.53922],[81,22.44624],[81.5,22.35231],[82,22.25744],[82.5,22.16165],[83,22.06495],[83.5,21.96737],[84,21.86893],[84.5,21.76963],[85,21.66949],[85.5,21.56854],[86,21.46679],[86.5,21.36426],[87,21.26095],[87.5,21.1569],[88,21.0521],[88.33694,20.98192]]}},{"type":"Feature","id":"+05620419:south:0","properties":{"id":"+05620419","year":562,"month":4,"day":19,"time_tdt":"11:52:31","type":"금환일식","type_code":"Am","saros":86,"gamma":0.1125,"magnitude":0.96779,"greatest":{"lat":18.15133,"lng":20.64508},"path_width_km":116.7,"duration":"03m47s","delta_t_seconds":5075.5,"catalog_number":6094,"source":"NASA Five Millennium Canon of Solar Eclipses","source_url":"https://eclipse.gsfc.nasa.gov/SEsearch/SEsearchmap.php?Ecl=%2B05620419","boundary":"south","name":"562-04-19 금환일식"},"geometry":{"type":"LineString","coordinates":[[-36.96289,-9.07474],[-36.5,-8.97459],[-36,-8.86478],[-35.5,-8.75325],[-35,-8.63998],[-34.5,-8.52495],[-34,-8.40815],[-33.5,-8.28956],[-33,-8.16914],[-32.5,-8.04689],[-32,-7.92279],[-31.5,-7.79681],[-31,-7.66893],[-30.5,-7.53913],[-30,-7.4074],[-29.5,-7.2737],[-29,-7.13801],[-28.5,-7.00032],[-28,-6.86059],[-27.5,-6.71881],[-27,-6.57496],[-26.5,-6.429],[-26,-6.28091],[-25.5,-6.13068],[-25,-5.97826],[-24.5,-5.82365],[-24,-5.66681],[-23.5,-5.50772],[-23,-5.34635],[-22.5,-5.18267],[-22,-5.01667],[-21.5,-4.8483],[-21,-4.67755],[-20.5,-4.50439],[-20,-4.32878],[-19.5,-4.15071],[-19,-3.97015],[-18.5,-3.78706],[-18,-3.60142],[-17.5,-3.4132],[-17,-3.22237],[-16.5,-3.02891],[-16,-2.83279],[-15.5,-2.63398],[-15,-2.43246],[-14.5,-2.22819],[-14,-2.02115],[-13.5,-1.81132],[-13,-1.59867],[-12.5,-1.38317],[-12,-1.16481],[-11.5,-0.94355],[-11,-0.71939],[-10.5,-0.49228],[-10,-0.26223],[-9.5,-0.0292],[-9,0.20682],[-8.5,0.44583],[-8,0.68786],[-7.5,0.93292],[-7,1.18101],[-6.5,1.43214],[-6,1.68631],[-5.5,1.94352],[-5,2.20377],[-4.5,2.46704],[-4,2.73334],[-3.5,3.00263],[-3,3.2749],[-2.5,3.55013],[-2,3.82829],[-1.5,4.10933],[-1,4.39322],[-0.5,4.67991],[0,4.96934],[0.5,5.26145],[1,5.55617],[1.5,5.85343],[2,6.15314],[2.5,6.4552],[3,6.75951],[3.5,7.06597],[4,7.37444],[4.5,7.68482],[5,7.99695],[5.5,8.31069],[6,8.62588],[6.5,8.94236],[7,9.25995],[7.5,9.57848],[8,9.89774],[8.5,10.21754],[9,10.53768],[9.5,10.85794],[10,11.17809],[10.5,11.49793],[11,11.8172],[11.5,12.1357],[12,12.45317],[12.5,12.76938],[13,13.0841],[13.5,13.39709],[14,13.70811],[14.5,14.01693],[15,14.32332],[15.5,14.62706],[16,14.92793],[16.5,15.22572],[17,15.52022],[17.5,15.81125],[18,16.09861],[18.5,16.38213],[19,16.66164],[19.5,16.93699],[20,17.20803],[20.5,17.47464],[21,17.73668],[21.5,17.99405],[22,18.24665],[22.5,18.49439],[23,18.73719],[23.5,18.975],[24,19.20774],[24.5,19.43537],[25,19.65787],[25.5,19.87519],[26,20.08732],[26.5,20.29426],[27,20.49599],[27.5,20.69252],[28,20.88386],[28.5,21.07002],[29,21.25104],[29.5,21.42693],[30,21.59774],[30.5,21.76349],[31,21.92422],[31.5,22.07998],[32,22.23082],[32.5,22.37679],[33,22.51794],[33.5,22.65432],[34,22.78599],[34.5,22.91301],[35,23.03544],[35.5,23.15333],[36,23.26675],[36.5,23.37576],[37,23.48043],[37.5,23.5808],[38,23.67696],[38.5,23.76896],[39,23.85686],[39.5,23.94072],[40,24.02062],[40.5,24.0966],[41,24.16873],[41.5,24.23708],[42,24.3017],[42.5,24.36266],[43,24.42001],[43.5,24.47381],[44,24.52411],[44.5,24.57099],[45,24.61449],[45.5,24.65466],[46,24.69157],[46.5,24.72527],[47,24.7558],[47.5,24.78323],[48,24.8076],[48.5,24.82897],[49,24.84739],[49.5,24.86289],[50,24.87555],[50.5,24.88539],[51,24.89247],[51.5,24.89683],[52,24.89852],[52.5,24.89758],[53,24.89406],[53.5,24.888],[54,24.87944],[54.5,24.86843],[55,24.855],[55.5,24.8392],[56,24.82106],[56.5,24.80062],[57,24.77793],[57.5,24.75301],[58,24.72591],[58.5,24.69666],[59,24.66531],[59.5,24.63187],[60,24.5964],[60.5,24.55891],[61,24.51946],[61.5,24.47806],[62,24.43476],[62.5,24.38958],[63,24.34255],[63.5,24.29371],[64,24.24309],[64.5,24.19072],[65,24.13662],[65.5,24.08083],[66,24.02338],[66.5,23.96429],[67,23.90359],[67.5,23.8413],[68,23.77747],[68.5,23.71211],[69,23.64525],[69.5,23.57691],[70,23.50712],[70.5,23.43591],[71,23.36331],[71.5,23.28932],[72,23.21399],[72.5,23.13733],[73,23.05937],[73.5,22.98013],[74,22.89963],[74.5,22.8179],[75,22.73496],[75.5,22.65083],[76,22.56553],[76.5,22.47909],[77,22.39151],[77.5,22.30284],[78,22.21308],[78.5,22.12226],[79,22.0304],[79.5,21.93751],[80,21.84361],[80.5,21.74874],[81,21.65289],[81.5,21.5561],[82,21.45839],[82.5,21.35976],[83,21.26024],[83.5,21.15984],[84,21.05859],[84.5,20.9565],[85,20.85358],[85.5,20.74986],[86,20.64535],[86.5,20.54007],[87,20.43404],[87.5,20.32726],[88,20.21976],[88.06836,20.20501]]}},{"type":"Feature","id":"+05621014:north:0","properties":{"id":"+05621014","year":562,"month":10,"day":14,"time_tdt":"03:07:26","type":"금환일식","type_code":"A","saros":91,"gamma":-0.00104,"magnitude":0.99919,"greatest":{"lat":-8.999,"lng":150.94427},"path_width_km":2.8,"duration":"00m05s","delta_t_seconds":5070.8,"catalog_number":6095,"source":"NASA Five Millennium Canon of Solar Eclipses","source_url":"https://eclipse.gsfc.nasa.gov/SEsearch/SEsearchmap.php?Ecl=%2B05621014","boundary":"north","name":"562-10-14 금환일식"},"geometry":{"type":"LineString","coordinates":[[90.85742,16.41748],[91,16.39437],[91.5,16.31235],[92,16.22875],[92.5,16.14357],[93,16.05678],[93.5,15.96836],[94,15.87832],[94.5,15.78661],[95,15.69323],[95.5,15.59816],[96,15.50139],[96.5,15.40288],[97,15.30263],[97.5,15.20062],[98,15.09682],[98.5,14.99122],[99,14.88379],[99.5,14.77453],[100,14.66339],[100.5,14.55037],[101,14.43545],[101.5,14.3186],[102,14.1998],[102.5,14.07902],[103,13.95625],[103.5,13.83147],[104,13.70464],[104.5,13.57575],[105,13.44478],[105.5,13.31169],[106,13.17646],[106.5,13.03907],[107,12.8995],[107.5,12.75771],[108,12.61369],[108.5,12.4674],[109,12.31882],[109.5,12.16792],[110,12.01468],[110.5,11.85907],[111,11.70105],[111.5,11.54061],[112,11.37772],[112.5,11.21234],[113,11.04446],[113.5,10.87403],[114,10.70103],[114.5,10.52544],[115,10.34722],[115.5,10.16635],[116,9.9828],[116.5,9.79654],[117,9.60754],[117.5,9.41577],[118,9.2212],[118.5,9.02382],[119,8.82359],[119.5,8.62048],[120,8.41447],[120.5,8.20554],[121,7.99365],[121.5,7.7788],[122,7.56095],[122.5,7.34008],[123,7.11618],[123.5,6.88923],[124,6.65921],[124.5,6.42611],[125,6.18991],[125.5,5.95061],[126,5.70819],[126.5,5.46266],[127,5.21401],[127.5,4.96224],[128,4.70736],[128.5,4.44938],[129,4.18831],[129.5,3.92417],[130,3.65697],[130.5,3.38676],[131,3.11355],[131.5,2.83739],[132,2.55833],[132.5,2.2764],[133,1.99167],[133.5,1.70421],[134,1.41408],[134.5,1.12137],[135,0.82615],[135.5,0.52853],[136,0.22861],[136.5,-0.0735],[137,-0.37768],[137.5,-0.6838],[138,-0.99172],[138.5,-1.3013],[139,-1.61238],[139.5,-1.9248],[140,-2.23838],[140.5,-2.55295],[141,-2.86832],[141.5,-3.18429],[142,-3.50066],[142.5,-3.81722],[143,-4.13377],[143.5,-4.45009],[144,-4.76594],[144.5,-5.08112],[145,-5.3954],[145.5,-5.70855],[146,-6.02034],[146.5,-6.33055],[147,-6.63896],[147.5,-6.94535],[148,-7.2495],[148.5,-7.55119],[149,-7.85024],[149.5,-8.14643],[150,-8.43958],[150.5,-8.72951],[151,-9.01604],[151.5,-9.299],[152,-9.57825],[152.5,-9.85363],[153,-10.12502],[153.5,-10.39228],[154,-10.65531],[154.5,-10.914],[155,-11.16825],[155.5,-11.41799],[156,-11.66314],[156.5,-11.90363],[157,-12.13943],[157.5,-12.37047],[158,-12.59672],[158.5,-12.81816],[159,-13.03477],[159.5,-13.24653],[160,-13.45345],[160.5,-13.65551],[161,-13.85273],[161.5,-14.04512],[162,-14.23271],[162.5,-14.4155],[163,-14.59354],[163.5,-14.76685],[164,-14.93547],[164.5,-15.09944],[165,-15.2588],[165.5,-15.4136],[166,-15.56387],[166.5,-15.70968],[167,-15.85107],[167.5,-15.98809],[168,-16.12079],[168.5,-16.24924],[169,-16.37348],[169.5,-16.49358],[170,-16.60959],[170.5,-16.72156],[171,-16.82956],[171.5,-16.93364],[172,-17.03386],[172.5,-17.13028],[173,-17.22295],[173.5,-17.31194],[174,-17.39729],[174.5,-17.47907],[175,-17.55732],[175.5,-17.63212],[176,-17.7035],[176.5,-17.77153],[177,-17.83626],[177.5,-17.89774],[178,-17.95602],[178.5,-18.01116],[179,-18.06321],[179.5,-18.11221],[180,-18.15822]]}},{"type":"Feature","id":"+05621014:north:1","properties":{"id":"+05621014","year":562,"month":10,"day":14,"time_tdt":"03:07:26","type":"금환일식","type_code":"A","saros":91,"gamma":-0.00104,"magnitude":0.99919,"greatest":{"lat":-8.999,"lng":150.94427},"path_width_km":2.8,"duration":"00m05s","delta_t_seconds":5070.8,"catalog_number":6095,"source":"NASA Five Millennium Canon of Solar Eclipses","source_url":"https://eclipse.gsfc.nasa.gov/SEsearch/SEsearchmap.php?Ecl=%2B05621014","boundary":"north","name":"562-10-14 금환일식"},"geometry":{"type":"LineString","coordinates":[[-179.5,-18.20128],[-179,-18.24145],[-178.5,-18.27876],[-178,-18.31327],[-177.5,-18.34503],[-177,-18.37406],[-176.5,-18.40043],[-176,-18.42418],[-175.5,-18.44534],[-175,-18.46395],[-174.5,-18.48007],[-174,-18.49373],[-173.5,-18.50497],[-173,-18.51382],[-172.5,-18.52034],[-172,-18.52455],[-171.5,-18.52649],[-171,-18.5262],[-170.5,-18.52372],[-170,-18.51907],[-169.5,-18.5123],[-169,-18.50344],[-168.5,-18.49252],[-168,-18.47958],[-167.5,-18.46464],[-167,-18.44774],[-166.5,-18.42891],[-166,-18.40818],[-165.5,-18.38558],[-165,-18.36115],[-164.5,-18.3349],[-164,-18.30686],[-163.5,-18.27708],[-163,-18.24557],[-162.5,-18.21235],[-162,-18.17747],[-161.5,-18.14094],[-161,-18.10279],[-160.5,-18.06305],[-160,-18.02173],[-159.5,-17.97887],[-159,-17.93449],[-158.5,-17.88862],[-158,-17.84127],[-157.5,-17.79247],[-157,-17.74224],[-156.5,-17.69061],[-156,-17.6376],[-155.5,-17.58322],[-155,-17.52751],[-154.5,-17.47048],[-154,-17.41215],[-153.5,-17.35254],[-153,-17.29168],[-152.5,-17.22958],[-152,-17.16626],[-151.5,-17.10174],[-151,-17.03605],[-150.5,-16.9692],[-150,-16.9012],[-149.5,-16.83208],[-149,-16.76186],[-148.5,-16.69055],[-148,-16.61816],[-147.5,-16.54473],[-147,-16.47026],[-146.5,-16.39477],[-146,-16.31828],[-145.5,-16.2408],[-145,-16.16235],[-144.5,-16.08295],[-144,-16.00261],[-143.73047,-15.95892]]}},{"type":"Feature","id":"+05621014:center:0","properties":{"id":"+05621014","year":562,"month":10,"day":14,"time_tdt":"03:07:26","type":"금환일식","type_code":"A","saros":91,"gamma":-0.00104,"magnitude":0.99919,"greatest":{"lat":-8.999,"lng":150.94427},"path_width_km":2.8,"duration":"00m05s","delta_t_seconds":5070.8,"catalog_number":6095,"source":"NASA Five Millennium Canon of Solar Eclipses","source_url":"https://eclipse.gsfc.nasa.gov/SEsearch/SEsearchmap.php?Ecl=%2B05621014","boundary":"center","name":"562-10-14 금환일식"},"geometry":{"type":"LineString","coordinates":[[90.79607,16.12846],[91,16.09701],[91.5,16.01714],[92,15.93572],[92.5,15.85272],[93,15.76812],[93.5,15.68191],[94,15.59407],[94.5,15.50459],[95,15.41344],[95.5,15.32061],[96,15.22609],[96.5,15.12984],[97,15.03187],[97.5,14.93213],[98,14.83063],[98.5,14.72733],[99,14.62222],[99.5,14.51527],[100,14.40647],[100.5,14.2958],[101,14.18323],[101.5,14.06874],[102,13.95232],[102.5,13.83393],[103,13.71356],[103.5,13.59119],[104,13.46678],[104.5,13.34033],[105,13.21179],[105.5,13.08116],[106,12.9484],[106.5,12.81349],[107,12.6764],[107.5,12.53712],[108,12.39561],[108.5,12.25184],[109,12.1058],[109.5,11.95745],[110,11.80677],[110.5,11.65372],[111,11.4983],[111.5,11.34045],[112,11.18017],[112.5,11.01741],[113,10.85215],[113.5,10.68437],[114,10.51403],[114.5,10.34111],[115,10.16557],[115.5,9.98739],[116,9.80654],[116.5,9.62299],[117,9.43672],[117.5,9.24768],[118,9.05587],[118.5,8.86125],[119,8.66379],[119.5,8.46346],[120,8.26025],[120.5,8.05412],[121,7.84505],[121.5,7.63301],[122,7.418],[122.5,7.19997],[123,6.97892],[123.5,6.75483],[124,6.52767],[124.5,6.29744],[125,6.06412],[125.5,5.8277],[126,5.58818],[126.5,5.34553],[127,5.09978],[127.5,4.85091],[128,4.59892],[128.5,4.34384],[129,4.08566],[129.5,3.82441],[130,3.5601],[130.5,3.29276],[131,3.02242],[131.5,2.74912],[132,2.4729],[132.5,2.1938],[133,1.91189],[133.5,1.62722],[134,1.33986],[134.5,1.0499],[135,0.7574],[135.5,0.46248],[136,0.16521],[136.5,-0.13428],[137,-0.43588],[137.5,-0.73946],[138,-1.04489],[138.5,-1.35202],[139,-1.66071],[139.5,-1.9708],[140,-2.28211],[140.5,-2.59447],[141,-2.90769],[141.5,-3.22159],[142,-3.53596],[142.5,-3.8506],[143,-4.16531],[143.5,-4.47987],[144,-4.79405],[144.5,-5.10765],[145,-5.42043],[145.5,-5.73218],[146,-6.04267],[146.5,-6.35167],[147,-6.65896],[147.5,-6.96434],[148,-7.26757],[148.5,-7.56845],[149,-7.86678],[149.5,-8.16235],[150,-8.45499],[150.5,-8.74449],[151,-9.0307],[151.5,-9.31343],[152,-9.59254],[152.5,-9.86788],[153,-10.13932],[153.5,-10.40672],[154,-10.66997],[154.5,-10.92897],[155,-11.18361],[155.5,-11.43382],[156,-11.67952],[156.5,-11.92064],[157,-12.15713],[157.5,-12.38894],[158,-12.61603],[158.5,-12.83837],[159,-13.05594],[159.5,-13.26872],[160,-13.47671],[160.5,-13.67991],[161,-13.87832],[161.5,-14.07195],[162,-14.26083],[162.5,-14.44496],[163,-14.62439],[163.5,-14.79913],[164,-14.96922],[164.5,-15.1347],[165,-15.29561],[165.5,-15.45199],[166,-15.60388],[166.5,-15.75135],[167,-15.89442],[167.5,-16.03316],[168,-16.16762],[168.5,-16.29785],[169,-16.42391],[169.5,-16.54584],[170,-16.66371],[170.5,-16.77758],[171,-16.88749],[171.5,-16.99351],[172,-17.09569],[172.5,-17.19409],[173,-17.28877],[173.5,-17.37977],[174,-17.46717],[174.5,-17.55101],[175,-17.63135],[175.5,-17.70825],[176,-17.78175],[176.5,-17.85191],[177,-17.91879],[177.5,-17.98244],[178,-18.04291],[178.5,-18.10025],[179,-18.1545],[179.5,-18.20573],[180,-18.25398]]}},{"type":"Feature","id":"+05621014:center:1","properties":{"id":"+05621014","year":562,"month":10,"day":14,"time_tdt":"03:07:26","type":"금환일식","type_code":"A","saros":91,"gamma":-0.00104,"magnitude":0.99919,"greatest":{"lat":-8.999,"lng":150.94427},"path_width_km":2.8,"duration":"00m05s","delta_t_seconds":5070.8,"catalog_number":6095,"source":"NASA Five Millennium Canon of Solar Eclipses","source_url":"https://eclipse.gsfc.nasa.gov/SEsearch/SEsearchmap.php?Ecl=%2B05621014","boundary":"center","name":"562-10-14 금환일식"},"geometry":{"type":"LineString","coordinates":[[-179.5,-18.2993],[-179,-18.34173],[-178.5,-18.38132],[-178,-18.41812],[-177.5,-18.45217],[-177,-18.48352],[-176.5,-18.51222],[-176,-18.53829],[-175.5,-18.5618],[-175,-18.58277],[-174.5,-18.60125],[-174,-18.61728],[-173.5,-18.6309],[-173,-18.64214],[-172.5,-18.65106],[-172,-18.65767],[-171.5,-18.66203],[-171,-18.66416],[-170.5,-18.6641],[-170,-18.66189],[-169.5,-18.65756],[-169,-18.65114],[-168.5,-18.64268],[-168,-18.63219],[-167.5,-18.61971],[-167,-18.60528],[-166.5,-18.58893],[-166,-18.57067],[-165.5,-18.55056],[-165,-18.5286],[-164.5,-18.50484],[-164,-18.4793],[-163.5,-18.45201],[-163,-18.423],[-162.5,-18.39229],[-162,-18.35991],[-161.5,-18.32589],[-161,-18.29024],[-160.5,-18.25301],[-160,-18.21421],[-159.5,-18.17386],[-159,-18.13199],[-158.5,-18.08863],[-158,-18.0438],[-157.5,-17.99751],[-157,-17.9498],[-156.5,-17.90068],[-156,-17.85019],[-155.5,-17.79832],[-155,-17.74512],[-154.5,-17.6906],[-154,-17.63479],[-153.5,-17.57769],[-153,-17.51933],[-152.5,-17.45974],[-152,-17.39893],[-151.5,-17.33691],[-151,-17.27372],[-150.5,-17.20936],[-150,-17.14386],[-149.5,-17.07723],[-149,-17.0095],[-148.5,-16.94067],[-148,-16.87077],[-147.5,-16.79981],[-147,-16.72782],[-146.5,-16.6548],[-146,-16.58077],[-145.5,-16.50575],[-145,-16.42976],[-144.5,-16.35281],[-144,-16.27492],[-143.67656,-16.2251]]}},{"type":"Feature","id":"+05621014:south:0","properties":{"id":"+05621014","year":562,"month":10,"day":14,"time_tdt":"03:07:26","type":"금환일식","type_code":"A","saros":91,"gamma":-0.00104,"magnitude":0.99919,"greatest":{"lat":-8.999,"lng":150.94427},"path_width_km":2.8,"duration":"00m05s","delta_t_seconds":5070.8,"catalog_number":6095,"source":"NASA Five Millennium Canon of Solar Eclipses","source_url":"https://eclipse.gsfc.nasa.gov/SEsearch/SEsearchmap.php?Ecl=%2B05621014","boundary":"south","name":"562-10-14 금환일식"},"geometry":{"type":"LineString","coordinates":[[90.73828,15.84012],[91,15.80007],[91.5,15.72237],[92,15.64313],[92.5,15.56231],[93,15.47991],[93.5,15.39591],[94,15.31029],[94.5,15.22303],[95,15.13412],[95.5,15.04354],[96,14.95128],[96.5,14.8573],[97,14.7616],[97.5,14.66415],[98,14.56494],[98.5,14.46395],[99,14.36116],[99.5,14.25654],[100,14.15008],[100.5,14.04176],[101,13.93155],[101.5,13.81943],[102,13.70539],[102.5,13.5894],[103,13.47143],[103.5,13.35147],[104,13.22949],[104.5,13.10547],[105,12.97938],[105.5,12.85121],[106,12.72092],[106.5,12.58849],[107,12.4539],[107.5,12.31711],[108,12.17812],[108.5,12.03688],[109,11.89337],[109.5,11.74757],[110,11.59945],[110.5,11.44898],[111,11.29614],[111.5,11.14089],[112,10.98321],[112.5,10.82308],[113,10.66045],[113.5,10.49531],[114,10.32763],[114.5,10.15737],[115,9.98451],[115.5,9.80902],[116,9.63087],[116.5,9.45004],[117,9.26649],[117.5,9.08019],[118,8.89112],[118.5,8.69926],[119,8.50456],[119.5,8.30702],[120,8.10659],[120.5,7.90326],[121,7.697],[121.5,7.48778],[122,7.27559],[122.5,7.0604],[123,6.8422],[123.5,6.62095],[124,6.39666],[124.5,6.16929],[125,5.93884],[125.5,5.70529],[126,5.46864],[126.5,5.22888],[127,4.98601],[127.5,4.74003],[128,4.49093],[128.5,4.23873],[129,3.98343],[129.5,3.72505],[130,3.46362],[130.5,3.19914],[131,2.93166],[131.5,2.6612],[132,2.38781],[132.5,2.11154],[133,1.83243],[133.5,1.55054],[134,1.26594],[134.5,0.97871],[135,0.68892],[135.5,0.39667],[136,0.10205],[136.5,-0.19483],[137,-0.49386],[137.5,-0.79491],[138,-1.09786],[138.5,-1.40257],[139,-1.70888],[139.5,-2.01665],[140,-2.32569],[140.5,-2.63585],[141,-2.94694],[141.5,-3.25878],[142,-3.57116],[142.5,-3.88389],[143,-4.19677],[143.5,-4.50958],[144,-4.8221],[144.5,-5.13412],[145,-5.44541],[145.5,-5.75577],[146,-6.06495],[146.5,-6.37275],[147,-6.67894],[147.5,-6.9833],[148,-7.28562],[148.5,-7.58569],[149,-7.8833],[149.5,-8.17826],[150,-8.47038],[150.5,-8.75946],[151,-9.04535],[151.5,-9.32785],[152,-9.60683],[152.5,-9.88214],[153,-10.15362],[153.5,-10.42116],[154,-10.68464],[154.5,-10.94395],[155,-11.19899],[155.5,-11.44967],[156,-11.69592],[156.5,-11.93766],[157,-12.17485],[157.5,-12.40742],[158,-12.63535],[158.5,-12.85859],[159,-13.07712],[159.5,-13.29093],[160,-13.50001],[160.5,-13.70434],[161,-13.90395],[161.5,-14.09882],[162,-14.28899],[162.5,-14.47447],[163,-14.65528],[163.5,-14.83145],[164,-15.00301],[164.5,-15.17],[165,-15.33247],[165.5,-15.49043],[166,-15.64396],[166.5,-15.79308],[167,-15.93785],[167.5,-16.07831],[168,-16.21452],[168.5,-16.34654],[169,-16.4744],[169.5,-16.59818],[170,-16.71792],[170.5,-16.83367],[171,-16.9455],[171.5,-17.05346],[172,-17.1576],[172.5,-17.25798],[173,-17.35466],[173.5,-17.4477],[174,-17.53714],[174.5,-17.62304],[175,-17.70547],[175.5,-17.78446],[176,-17.86008],[176.5,-17.93238],[177,-18.00141],[177.5,-18.06723],[178,-18.12987],[178.5,-18.18941],[179,-18.24588],[179.5,-18.29933],[180,-18.34981]]}},{"type":"Feature","id":"+05621014:south:1","properties":{"id":"+05621014","year":562,"month":10,"day":14,"time_tdt":"03:07:26","type":"금환일식","type_code":"A","saros":91,"gamma":-0.00104,"magnitude":0.99919,"greatest":{"lat":-8.999,"lng":150.94427},"path_width_km":2.8,"duration":"00m05s","delta_t_seconds":5070.8,"catalog_number":6095,"source":"NASA Five Millennium Canon of Solar Eclipses","source_url":"https://eclipse.gsfc.nasa.gov/SEsearch/SEsearchmap.php?Ecl=%2B05621014","boundary":"south","name":"562-10-14 금환일식"},"geometry":{"type":"LineString","coordinates":[[-179.5,-18.39738],[-179,-18.44207],[-178.5,-18.48394],[-178,-18.52303],[-177.5,-18.55938],[-177,-18.59304],[-176.5,-18.62405],[-176,-18.65246],[-175.5,-18.6783],[-175,-18.70162],[-174.5,-18.72246],[-174,-18.74086],[-173.5,-18.75685],[-173,-18.77048],[-172.5,-18.78179],[-172,-18.7908],[-171.5,-18.79757],[-171,-18.80211],[-170.5,-18.80448],[-170,-18.80469],[-169.5,-18.8028],[-169,-18.79882],[-168.5,-18.7928],[-168,-18.78477],[-167.5,-18.77475],[-167,-18.76278],[-166.5,-18.74889],[-166,-18.7331],[-165.5,-18.71546],[-165,-18.69599],[-164.5,-18.67471],[-164,-18.65165],[-163.5,-18.62685],[-163,-18.60033],[-162.5,-18.57211],[-162,-18.54223],[-161.5,-18.5107],[-161,-18.47756],[-160.5,-18.44283],[-160,-18.40653],[-159.5,-18.36868],[-159,-18.32932],[-158.5,-18.28847],[-158,-18.24614],[-157.5,-18.20236],[-157,-18.15716],[-156.5,-18.11055],[-156,-18.06256],[-155.5,-18.0132],[-155,-17.96251],[-154.5,-17.91049],[-154,-17.85718],[-153.5,-17.80258],[-153,-17.74673],[-152.5,-17.68963],[-152,-17.63131],[-151.5,-17.57179],[-151,-17.51109],[-150.5,-17.44922],[-150,-17.38621],[-149.5,-17.32207],[-149,-17.25681],[-148.5,-17.19046],[-148,-17.12303],[-147.5,-17.05455],[-147,-16.98502],[-146.5,-16.91446],[-146,-16.84289],[-145.5,-16.77032],[-145,-16.69678],[-144.5,-16.62227],[-144,-16.54682],[-143.62109,-16.48902]]}}],"attribution":"Eclipse Predictions by Fred Espenak and Jean Meeus (NASA's GSFC)","generated_at":"2026-09-23T01:44:53.333Z"}
