{"type":"FeatureCollection","year":563,"events":[{"id":"+05630408","year":563,"month":4,"day":8,"time_tdt":"19:42:28","type":"개기일식","type_code":"T","saros":96,"gamma":-0.64446,"magnitude":1.01505,"greatest":{"lat":-30.60525,"lng":-81.95453},"path_width_km":67,"duration":"01m25s","delta_t_seconds":5066.1,"catalog_number":6096,"source":"NASA Five Millennium Canon of Solar Eclipses","source_url":"https://eclipse.gsfc.nasa.gov/SEsearch/SEsearchmap.php?Ecl=%2B05630408"},{"id":"+05631003","year":563,"month":10,"day":3,"time_tdt":"09:52:51","type":"금환일식","type_code":"A","saros":101,"gamma":0.74377,"magnitude":0.94378,"greatest":{"lat":41.02428,"lng":67.38092},"path_width_km":307,"duration":"05m44s","delta_t_seconds":5061.5,"catalog_number":6097,"source":"NASA Five Millennium Canon of Solar Eclipses","source_url":"https://eclipse.gsfc.nasa.gov/SEsearch/SEsearchmap.php?Ecl=%2B05631003"}],"features":[{"type":"Feature","id":"+05630408:north:0","properties":{"id":"+05630408","year":563,"month":4,"day":8,"time_tdt":"19:42:28","type":"개기일식","type_code":"T","saros":96,"gamma":-0.64446,"magnitude":1.01505,"greatest":{"lat":-30.60525,"lng":-81.95453},"path_width_km":67,"duration":"01m25s","delta_t_seconds":5066.1,"catalog_number":6096,"source":"NASA Five Millennium Canon of Solar Eclipses","source_url":"https://eclipse.gsfc.nasa.gov/SEsearch/SEsearchmap.php?Ecl=%2B05630408","boundary":"north","name":"563-04-08 개기일식"},"geometry":{"type":"LineString","coordinates":[[-151.5,-56.16168],[-151,-56.08784],[-150.5,-56.01282],[-150,-55.93663],[-149.5,-55.85926],[-149,-55.78068],[-148.5,-55.70091],[-148,-55.61992],[-147.5,-55.5377],[-147,-55.45425],[-146.5,-55.36956],[-146,-55.28362],[-145.5,-55.19641],[-145,-55.10793],[-144.5,-55.01816],[-144,-54.9271],[-143.5,-54.83473],[-143,-54.74105],[-142.5,-54.64604],[-142,-54.54969],[-141.5,-54.45198],[-141,-54.35292],[-140.5,-54.25249],[-140,-54.15066],[-139.5,-54.04744],[-139,-53.94281],[-138.5,-53.83676],[-138,-53.72928],[-137.5,-53.62034],[-137,-53.50995],[-136.5,-53.39808],[-136,-53.28473],[-135.5,-53.16988],[-135,-53.05351],[-134.5,-52.93562],[-134,-52.81618],[-133.5,-52.69519],[-133,-52.57264],[-132.5,-52.44849],[-132,-52.32275],[-131.5,-52.1954],[-131,-52.06642],[-130.5,-51.9358],[-130,-51.80351],[-129.5,-51.66956],[-129,-51.53392],[-128.5,-51.39657],[-128,-51.2575],[-127.5,-51.11669],[-127,-50.97414],[-126.5,-50.82981],[-126,-50.6837],[-125.5,-50.53579],[-125,-50.38605],[-124.5,-50.23449],[-124,-50.08107],[-123.5,-49.92579],[-123,-49.76862],[-122.5,-49.60954],[-122,-49.44855],[-121.5,-49.28562],[-121,-49.12074],[-120.5,-48.95389],[-120,-48.78505],[-119.5,-48.6142],[-119,-48.44133],[-118.5,-48.26643],[-118,-48.08947],[-117.5,-47.91043],[-117,-47.72931],[-116.5,-47.54608],[-116,-47.36073],[-115.5,-47.17324],[-115,-46.9836],[-114.5,-46.7918],[-114,-46.59781],[-113.5,-46.40162],[-113,-46.20322],[-112.5,-46.0026],[-112,-45.79974],[-111.5,-45.59463],[-111,-45.38726],[-110.5,-45.17762],[-110,-44.9657],[-109.5,-44.75149],[-109,-44.53499],[-108.5,-44.31618],[-108,-44.09506],[-107.5,-43.87163],[-107,-43.64588],[-106.5,-43.41783],[-106,-43.18745],[-105.5,-42.95477],[-105,-42.71978],[-104.5,-42.48249],[-104,-42.24291],[-103.5,-42.00105],[-103,-41.75692],[-102.5,-41.51055],[-102,-41.26195],[-101.5,-41.01115],[-101,-40.75817],[-100.5,-40.50304],[-100,-40.24579],[-99.5,-39.98647],[-99,-39.72512],[-98.5,-39.46177],[-98,-39.19649],[-97.5,-38.92932],[-97,-38.66034],[-96.5,-38.38959],[-96,-38.11716],[-95.5,-37.84311],[-95,-37.56754],[-94.5,-37.29053],[-94,-37.01217],[-93.5,-36.73256],[-93,-36.45181],[-92.5,-36.17003],[-92,-35.88734],[-91.5,-35.60386],[-91,-35.31973],[-90.5,-35.03508],[-90,-34.75005],[-89.5,-34.46479],[-89,-34.17946],[-88.5,-33.89421],[-88,-33.60921],[-87.5,-33.32464],[-87,-33.04065],[-86.5,-32.75744],[-86,-32.47518],[-85.5,-32.19405],[-85,-31.91424],[-84.5,-31.63594],[-84,-31.35933],[-83.5,-31.0846],[-83,-30.81193],[-82.5,-30.54152],[-82,-30.27355],[-81.5,-30.00819],[-81,-29.74563],[-80.5,-29.48603],[-80,-29.22957],[-79.5,-28.9764],[-79,-28.72668],[-78.5,-28.48057],[-78,-28.2382],[-77.5,-27.99971],[-77,-27.76522],[-76.5,-27.53486],[-76,-27.30874],[-75.5,-27.08694],[-75,-26.86958],[-74.5,-26.65672],[-74,-26.44845],[-73.5,-26.24483],[-73,-26.04592],[-72.5,-25.85177],[-72,-25.66241],[-71.5,-25.47788],[-71,-25.2982],[-70.5,-25.12338],[-70,-24.95345],[-69.5,-24.78839],[-69,-24.62822],[-68.5,-24.4729],[-68,-24.32244],[-67.5,-24.1768],[-67,-24.03596],[-66.5,-23.89989],[-66,-23.76856],[-65.5,-23.64192],[-65,-23.51993],[-64.5,-23.40255],[-64,-23.28972],[-63.5,-23.1814],[-63,-23.07753],[-62.5,-22.97805],[-62,-22.88291],[-61.5,-22.79204],[-61,-22.70539],[-60.5,-22.62289],[-60,-22.54449],[-59.5,-22.47011],[-59,-22.3997],[-58.5,-22.33318],[-58,-22.27051],[-57.5,-22.2116],[-57,-22.1564],[-56.5,-22.10484],[-56,-22.05687],[-55.5,-22.0124],[-55,-21.97139],[-54.5,-21.93377],[-54,-21.89948],[-53.5,-21.86845],[-53,-21.84063],[-52.5,-21.81595],[-52,-21.79436],[-51.5,-21.7758],[-51,-21.76021],[-50.5,-21.74753],[-50,-21.73771],[-49.5,-21.7307],[-49,-21.72644],[-48.5,-21.72487],[-48,-21.72595],[-47.5,-21.72962],[-47,-21.73583],[-46.5,-21.74454],[-46,-21.7557],[-45.5,-21.76925],[-45,-21.78515],[-44.5,-21.80336],[-44,-21.82383],[-43.5,-21.84652],[-43,-21.87138],[-42.5,-21.89838],[-42,-21.92747],[-41.5,-21.9586],[-41,-21.99175],[-40.5,-22.02687],[-40,-22.06392],[-39.5,-22.10287],[-39,-22.14368],[-38.5,-22.18631],[-38,-22.23074],[-37.5,-22.27691],[-37,-22.32481],[-36.5,-22.3744],[-36,-22.42564],[-35.5,-22.47851],[-35,-22.53298],[-34.5,-22.589],[-34,-22.64656],[-33.5,-22.70563],[-33,-22.76617],[-32.5,-22.82816],[-32,-22.89157],[-31.5,-22.95637],[-31,-23.02255],[-30.5,-23.09006],[-30,-23.1589],[-29.5,-23.22902],[-29,-23.30042],[-28.5625,-23.36391]]}},{"type":"Feature","id":"+05630408:center:0","properties":{"id":"+05630408","year":563,"month":4,"day":8,"time_tdt":"19:42:28","type":"개기일식","type_code":"T","saros":96,"gamma":-0.64446,"magnitude":1.01505,"greatest":{"lat":-30.60525,"lng":-81.95453},"path_width_km":67,"duration":"01m25s","delta_t_seconds":5066.1,"catalog_number":6096,"source":"NASA Five Millennium Canon of Solar Eclipses","source_url":"https://eclipse.gsfc.nasa.gov/SEsearch/SEsearchmap.php?Ecl=%2B05630408","boundary":"center","name":"563-04-08 개기일식"},"geometry":{"type":"LineString","coordinates":[[-151.52536,-56.32673],[-151.5,-56.21507],[-151,-56.14297],[-150.5,-56.06971],[-150,-55.99528],[-149.5,-55.91968],[-149,-55.84289],[-148.5,-55.7649],[-148,-55.68571],[-147.5,-55.6053],[-147,-55.52367],[-146.5,-55.44081],[-146,-55.3567],[-145.5,-55.27134],[-145,-55.18472],[-144.5,-55.09682],[-144,-55.00763],[-143.5,-54.91715],[-143,-54.82537],[-142.5,-54.73227],[-142,-54.63784],[-141.5,-54.54207],[-141,-54.44495],[-140.5,-54.34647],[-140,-54.24661],[-139.5,-54.14537],[-139,-54.04273],[-138.5,-53.93868],[-138,-53.8332],[-137.5,-53.7263],[-137,-53.61794],[-136.5,-53.50812],[-136,-53.39683],[-135.5,-53.28405],[-135,-53.16977],[-134.5,-53.05398],[-134,-52.93666],[-133.5,-52.8178],[-133,-52.69738],[-132.5,-52.57539],[-132,-52.45182],[-131.5,-52.32665],[-131,-52.19986],[-130.5,-52.07145],[-130,-51.94139],[-129.5,-51.80967],[-129,-51.67628],[-128.5,-51.5412],[-128,-51.40441],[-127.5,-51.2659],[-127,-51.12566],[-126.5,-50.98366],[-126,-50.83989],[-125.5,-50.69434],[-125,-50.54698],[-124.5,-50.3978],[-124,-50.24679],[-123.5,-50.09393],[-123,-49.93919],[-122.5,-49.78257],[-122,-49.62405],[-121.5,-49.4636],[-121,-49.30122],[-120.5,-49.13688],[-120,-48.97058],[-119.5,-48.80228],[-119,-48.63198],[-118.5,-48.45965],[-118,-48.28529],[-117.5,-48.10887],[-117,-47.93038],[-116.5,-47.74979],[-116,-47.56711],[-115.5,-47.3823],[-115,-47.19535],[-114.5,-47.00625],[-114,-46.81499],[-113.5,-46.62154],[-113,-46.42589],[-112.5,-46.22804],[-112,-46.02796],[-111.5,-45.82565],[-111,-45.62109],[-110.5,-45.41427],[-110,-45.20518],[-109.5,-44.99382],[-109,-44.78017],[-108.5,-44.56423],[-108,-44.34599],[-107.5,-44.12544],[-107,-43.90259],[-106.5,-43.67743],[-106,-43.44996],[-105.5,-43.22019],[-105,-42.98811],[-104.5,-42.75373],[-104,-42.51706],[-103.5,-42.27811],[-103,-42.0369],[-102.5,-41.79343],[-102,-41.54773],[-101.5,-41.29981],[-101,-41.0497],[-100.5,-40.79744],[-100,-40.54304],[-99.5,-40.28655],[-99,-40.02799],[-98.5,-39.76743],[-98,-39.5049],[-97.5,-39.24045],[-97,-38.97414],[-96.5,-38.70604],[-96,-38.43621],[-95.5,-38.16472],[-95,-37.89165],[-94.5,-37.61709],[-94,-37.34112],[-93.5,-37.06383],[-93,-36.78534],[-92.5,-36.50574],[-92,-36.22515],[-91.5,-35.94369],[-91,-35.66148],[-90.5,-35.37866],[-90,-35.09536],[-89.5,-34.81173],[-89,-34.52792],[-88.5,-34.24408],[-88,-33.96037],[-87.5,-33.67695],[-87,-33.394],[-86.5,-33.11169],[-86,-32.8302],[-85.5,-32.5497],[-85,-32.27037],[-84.5,-31.9924],[-84,-31.71598],[-83.5,-31.44129],[-83,-31.16852],[-82.5,-30.89784],[-82,-30.62945],[-81.5,-30.36352],[-81,-30.10023],[-80.5,-29.83976],[-80,-29.58227],[-79.5,-29.32792],[-79,-29.07689],[-78.5,-28.82931],[-78,-28.58533],[-77.5,-28.34509],[-77,-28.10873],[-76.5,-27.87636],[-76,-27.6481],[-75.5,-27.42406],[-75,-27.20432],[-74.5,-26.98899],[-74,-26.77814],[-73.5,-26.57183],[-73,-26.37014],[-72.5,-26.17312],[-72,-25.98081],[-71.5,-25.79325],[-71,-25.61046],[-70.5,-25.43248],[-70,-25.25931],[-69.5,-25.09096],[-69,-24.92743],[-68.5,-24.76872],[-68,-24.61482],[-67.5,-24.4657],[-67,-24.32134],[-66.5,-24.18172],[-66,-24.04681],[-65.5,-23.91656],[-65,-23.79094],[-64.5,-23.66991],[-64,-23.55342],[-63.5,-23.44142],[-63,-23.33386],[-62.5,-23.23068],[-62,-23.13184],[-61.5,-23.03726],[-61,-22.9469],[-60.5,-22.86069],[-60,-22.77858],[-59.5,-22.70049],[-59,-22.62638],[-58.5,-22.55617],[-58,-22.4898],[-57.5,-22.42721],[-57,-22.36834],[-56.5,-22.31312],[-56,-22.26149],[-55.5,-22.21338],[-55,-22.16874],[-54.5,-22.1275],[-54,-22.08961],[-53.5,-22.05499],[-53,-22.0236],[-52.5,-21.99536],[-52,-21.97023],[-51.5,-21.94814],[-51,-21.92903],[-50.5,-21.91286],[-50,-21.89956],[-49.5,-21.88909],[-49,-21.88138],[-48.5,-21.87638],[-48,-21.87404],[-47.5,-21.87432],[-47,-21.87716],[-46.5,-21.8825],[-46,-21.89031],[-45.5,-21.90054],[-45,-21.91314],[-44.5,-21.92805],[-44,-21.94525],[-43.5,-21.96469],[-43,-21.98631],[-42.5,-22.01008],[-42,-22.03597],[-41.5,-22.06392],[-41,-22.0939],[-40.5,-22.12586],[-40,-22.15978],[-39.5,-22.19562],[-39,-22.23333],[-38.5,-22.27288],[-38,-22.31424],[-37.5,-22.35737],[-37,-22.40224],[-36.5,-22.44881],[-36,-22.49706],[-35.5,-22.54695],[-35,-22.59845],[-34.5,-22.65153],[-34,-22.70616],[-33.5,-22.76231],[-33,-22.81996],[-32.5,-22.87907],[-32,-22.93962],[-31.5,-23.00158],[-31,-23.06492],[-30.5,-23.12962],[-30,-23.19566],[-29.5,-23.263],[-29,-23.33163],[-28.5734,-23.38166]]}},{"type":"Feature","id":"+05630408:south:0","properties":{"id":"+05630408","year":563,"month":4,"day":8,"time_tdt":"19:42:28","type":"개기일식","type_code":"T","saros":96,"gamma":-0.64446,"magnitude":1.01505,"greatest":{"lat":-30.60525,"lng":-81.95453},"path_width_km":67,"duration":"01m25s","delta_t_seconds":5066.1,"catalog_number":6096,"source":"NASA Five Millennium Canon of Solar Eclipses","source_url":"https://eclipse.gsfc.nasa.gov/SEsearch/SEsearchmap.php?Ecl=%2B05630408","boundary":"south","name":"563-04-08 개기일식"},"geometry":{"type":"LineString","coordinates":[[-151.64062,-56.28801],[-151.5,-56.26842],[-151,-56.19806],[-150.5,-56.12655],[-150,-56.05388],[-149.5,-55.98004],[-149,-55.90503],[-148.5,-55.82882],[-148,-55.75143],[-147.5,-55.67282],[-147,-55.593],[-146.5,-55.51196],[-146,-55.42968],[-145.5,-55.34616],[-145,-55.26139],[-144.5,-55.17535],[-144,-55.08804],[-143.5,-54.99944],[-143,-54.90955],[-142.5,-54.81835],[-142,-54.72583],[-141.5,-54.63198],[-141,-54.53679],[-140.5,-54.44026],[-140,-54.34236],[-139.5,-54.24308],[-139,-54.14242],[-138.5,-54.04036],[-138,-53.93689],[-137.5,-53.83199],[-137,-53.72566],[-136.5,-53.61788],[-136,-53.50864],[-135.5,-53.39793],[-135,-53.28572],[-134.5,-53.17202],[-134,-53.0568],[-133.5,-52.94005],[-133,-52.82176],[-132.5,-52.70191],[-132,-52.58049],[-131.5,-52.45748],[-131,-52.33288],[-130.5,-52.20666],[-130,-52.07881],[-129.5,-51.94931],[-129,-51.81816],[-128.5,-51.68533],[-128,-51.55081],[-127.5,-51.41458],[-127,-51.27663],[-126.5,-51.13694],[-126,-50.9955],[-125.5,-50.85228],[-125,-50.70728],[-124.5,-50.56047],[-124,-50.41185],[-123.5,-50.26138],[-123,-50.10907],[-122.5,-49.95488],[-122,-49.7988],[-121.5,-49.64082],[-121,-49.48092],[-120.5,-49.31908],[-120,-49.15528],[-119.5,-48.98951],[-119,-48.82175],[-118.5,-48.65199],[-118,-48.4802],[-117.5,-48.30637],[-117,-48.13048],[-116.5,-47.95252],[-116,-47.77247],[-115.5,-47.59032],[-115,-47.40604],[-114.5,-47.21963],[-114,-47.03106],[-113.5,-46.84033],[-113,-46.64741],[-112.5,-46.4523],[-112,-46.25498],[-111.5,-46.05544],[-111,-45.85366],[-110.5,-45.64964],[-110,-45.44336],[-109.5,-45.23482],[-109,-45.024],[-108.5,-44.8109],[-108,-44.59551],[-107.5,-44.37782],[-107,-44.15784],[-106.5,-43.93555],[-106,-43.71096],[-105.5,-43.48407],[-105,-43.25488],[-104.5,-43.02339],[-104,-42.78961],[-103.5,-42.55355],[-103,-42.31522],[-102.5,-42.07464],[-102,-41.83181],[-101.5,-41.58676],[-101,-41.33951],[-100.5,-41.09009],[-100,-40.83852],[-99.5,-40.58483],[-99,-40.32907],[-98.5,-40.07127],[-98,-39.81148],[-97.5,-39.54974],[-97,-39.28611],[-96.5,-39.02065],[-96,-38.75342],[-95.5,-38.48448],[-95,-38.21392],[-94.5,-37.9418],[-94,-37.66822],[-93.5,-37.39327],[-93,-37.11704],[-92.5,-36.83963],[-92,-36.56116],[-91.5,-36.28173],[-91,-36.00147],[-90.5,-35.72051],[-90,-35.43897],[-89.5,-35.15701],[-89,-34.87475],[-88.5,-34.59235],[-88,-34.30996],[-87.5,-34.02776],[-87,-33.74589],[-86.5,-33.46453],[-86,-33.18385],[-85.5,-32.90403],[-85,-32.62525],[-84.5,-32.34768],[-84,-32.07151],[-83.5,-31.79692],[-83,-31.5241],[-82.5,-31.25323],[-82,-30.98449],[-81.5,-30.71806],[-81,-30.45411],[-80.5,-30.19283],[-80,-29.93439],[-79.5,-29.67894],[-79,-29.42664],[-78.5,-29.17766],[-78,-28.93215],[-77.5,-28.69023],[-77,-28.45206],[-76.5,-28.21774],[-76,-27.98741],[-75.5,-27.76117],[-75,-27.53912],[-74.5,-27.32136],[-74,-27.10798],[-73.5,-26.89904],[-73,-26.69462],[-72.5,-26.49477],[-72,-26.29955],[-71.5,-26.10899],[-71,-25.92314],[-70.5,-25.74202],[-70,-25.56564],[-69.5,-25.39403],[-69,-25.22718],[-68.5,-25.06509],[-68,-24.90776],[-67.5,-24.75517],[-67,-24.60731],[-66.5,-24.46415],[-66,-24.32567],[-65.5,-24.19183],[-65,-24.06259],[-64.5,-23.93791],[-64,-23.81776],[-63.5,-23.70208],[-63,-23.59084],[-62.5,-23.48396],[-62,-23.38141],[-61.5,-23.28312],[-61,-23.18905],[-60.5,-23.09913],[-60,-23.0133],[-59.5,-22.9315],[-59,-22.85367],[-58.5,-22.77976],[-58,-22.70969],[-57.5,-22.64341],[-57,-22.58086],[-56.5,-22.52196],[-56,-22.46667],[-55.5,-22.41491],[-55,-22.36664],[-54.5,-22.32177],[-54,-22.28026],[-53.5,-22.24204],[-53,-22.20706],[-52.5,-22.17526],[-52,-22.14657],[-51.5,-22.12094],[-51,-22.09831],[-50.5,-22.07863],[-50,-22.06184],[-49.5,-22.04789],[-49,-22.03672],[-48.5,-22.02828],[-48,-22.02252],[-47.5,-22.01939],[-47,-22.01884],[-46.5,-22.02082],[-46,-22.02527],[-45.5,-22.03216],[-45,-22.04144],[-44.5,-22.05306],[-44,-22.06697],[-43.5,-22.08314],[-43,-22.10152],[-42.5,-22.12206],[-42,-22.14473],[-41.5,-22.16949],[-41,-22.19629],[-40.5,-22.2251],[-40,-22.25587],[-39.5,-22.28858],[-39,-22.32318],[-38.5,-22.35965],[-38,-22.39793],[-37.5,-22.43801],[-37,-22.47984],[-36.5,-22.52339],[-36,-22.56864],[-35.5,-22.61554],[-35,-22.66407],[-34.5,-22.7142],[-34,-22.76589],[-33.5,-22.81912],[-33,-22.87387],[-32.5,-22.93009],[-32,-22.98777],[-31.5,-23.04688],[-31,-23.10738],[-30.5,-23.16926],[-30,-23.2325],[-29.5,-23.29705],[-29,-23.36291],[-28.55469,-23.42264]]}},{"type":"Feature","id":"+05631003:north:0","properties":{"id":"+05631003","year":563,"month":10,"day":3,"time_tdt":"09:52:51","type":"금환일식","type_code":"A","saros":101,"gamma":0.74377,"magnitude":0.94378,"greatest":{"lat":41.02428,"lng":67.38092},"path_width_km":307,"duration":"05m44s","delta_t_seconds":5061.5,"catalog_number":6097,"source":"NASA Five Millennium Canon of Solar Eclipses","source_url":"https://eclipse.gsfc.nasa.gov/SEsearch/SEsearchmap.php?Ecl=%2B05631003","boundary":"north","name":"563-10-03 금환일식"},"geometry":{"type":"LineString","coordinates":[[-9.5,67.08155],[-9,67.03711],[-10,67.12507],[-8.5,66.99175],[-8,66.94545],[-7.5,66.89821],[-7,66.85002],[-6.5,66.80087],[-6,66.75076],[-5.5,66.69968],[-5,66.64762],[-4.5,66.59458],[-4,66.54054],[-3.5,66.48551],[-3,66.42946],[-2.5,66.3724],[-2,66.31431],[-1.5,66.25519],[-1,66.19504],[-0.5,66.13382],[0,66.07155],[0.5,66.00822],[1,65.9438],[1.5,65.8783],[2,65.8117],[2.5,65.744],[3,65.67518],[3.5,65.60524],[4,65.53416],[4.5,65.46194],[5,65.38857],[5.5,65.31402],[6,65.2383],[6.5,65.1614],[7,65.08329],[7.5,65.00398],[8,64.92344],[8.5,64.84167],[9,64.75866],[9.5,64.67439],[10,64.58885],[10.5,64.50203],[11,64.41391],[11.5,64.3245],[12,64.23376],[12.5,64.14169],[13,64.04827],[13.5,63.9535],[14,63.85735],[14.5,63.75982],[15,63.66088],[15.5,63.56053],[16,63.45875],[16.5,63.35553],[17,63.25085],[17.5,63.1447],[18,63.03705],[18.5,62.9279],[19,62.81723],[19.5,62.70503],[20,62.59127],[20.5,62.47594],[21,62.35903],[21.5,62.24051],[22,62.12037],[22.5,61.9986],[23,61.87518],[23.5,61.75008],[24,61.62329],[24.5,61.4948],[25,61.36458],[25.5,61.23261],[26,61.09889],[26.5,60.96338],[27,60.82607],[27.5,60.68694],[28,60.54598],[28.5,60.40316],[29,60.25846],[29.5,60.11186],[30,59.96335],[30.5,59.81289],[31,59.66049],[31.5,59.5061],[32,59.34972],[32.5,59.19132],[33,59.03089],[33.5,58.86839],[34,58.70382],[34.5,58.53715],[35,58.36837],[35.5,58.19744],[36,58.02436],[36.5,57.84909],[37,57.67163],[37.5,57.49196],[38,57.31004],[38.5,57.12587],[39,56.93943],[39.5,56.7507],[40,56.55965],[40.5,56.36628],[41,56.17057],[41.5,55.9725],[42,55.77205],[42.5,55.56922],[43,55.36398],[43.5,55.15633],[44,54.94625],[44.5,54.73374],[45,54.51878],[45.5,54.30137],[46,54.0815],[46.5,53.85917],[47,53.63438],[47.5,53.40711],[48,53.17738],[48.5,52.94519],[49,52.71055],[49.5,52.47345],[50,52.23392],[50.5,51.99197],[51,51.74762],[51.5,51.50088],[52,51.25178],[52.5,51.00035],[53,50.74662],[53.5,50.49062],[54,50.23241],[54.5,49.97201],[55,49.70948],[55.5,49.44489],[56,49.17827],[56.5,48.90972],[57,48.63928],[57.5,48.36705],[58,48.0931],[58.5,47.81752],[59,47.54042],[59.5,47.26189],[60,46.98204],[60.5,46.70099],[61,46.41887],[61.5,46.13579],[62,45.8519],[62.5,45.56733],[63,45.28224],[63.5,44.99678],[64,44.71111],[64.5,44.4254],[65,44.13981],[65.5,43.85452],[66,43.56972],[66.5,43.28557],[67,43.00228],[67.5,42.72003],[68,42.43901],[68.5,42.15941],[69,41.88143],[69.5,41.60524],[70,41.33105],[70.5,41.05905],[71,40.78941],[71.5,40.52232],[72,40.25796],[72.5,39.9965],[73,39.7381],[73.5,39.48293],[74,39.23114],[74.5,38.98288],[75,38.73828],[75.5,38.49748],[76,38.26059],[76.5,38.02774],[77,37.79903],[77.5,37.57454],[78,37.35437],[78.5,37.1386],[79,36.92728],[79.5,36.72049],[80,36.51827],[80.5,36.32066],[81,36.1277],[81.5,35.93942],[82,35.75582],[82.5,35.57693],[83,35.40275],[83.5,35.23326],[84,35.06848],[84.5,34.90837],[85,34.75293],[85.5,34.60212],[86,34.45592],[86.5,34.3143],[87,34.17721],[87.5,34.04462],[88,33.91648],[88.5,33.79274],[89,33.67336],[89.5,33.55829],[90,33.44747],[90.5,33.34084],[91,33.23835],[91.5,33.13994],[92,33.04556],[92.5,32.95514],[93,32.86862],[93.5,32.78595],[94,32.70705],[94.5,32.63188],[95,32.56037],[95.5,32.49245],[96,32.42808],[96.5,32.36718],[97,32.3097],[97.5,32.25557],[98,32.20475],[98.5,32.15716],[99,32.11276],[99.5,32.07148],[100,32.03327],[100.5,31.99808],[101,31.96584],[101.5,31.93651],[102,31.91003],[102.5,31.88634],[103,31.86541],[103.5,31.84717],[104,31.83158],[104.5,31.81859],[105,31.80815],[105.5,31.80021],[106,31.79474],[106.5,31.79167],[107,31.79097],[107.5,31.7926],[108,31.79651],[108.5,31.80266],[109,31.81101],[109.5,31.82152],[110,31.83415],[110.5,31.84886],[111,31.86562],[111.5,31.88439],[112,31.90512],[112.5,31.92779],[113,31.95237],[113.5,31.97881],[114,32.00709],[114.5,32.03717],[115,32.06902],[115.5,32.1026],[116,32.1379],[116.5,32.17488],[117,32.2135],[117.5,32.25375],[118,32.29559],[118.48633,32.33779]]}},{"type":"Feature","id":"+05631003:center:0","properties":{"id":"+05631003","year":563,"month":10,"day":3,"time_tdt":"09:52:51","type":"금환일식","type_code":"A","saros":101,"gamma":0.74377,"magnitude":0.94378,"greatest":{"lat":41.02428,"lng":67.38092},"path_width_km":307,"duration":"05m44s","delta_t_seconds":5061.5,"catalog_number":6097,"source":"NASA Five Millennium Canon of Solar Eclipses","source_url":"https://eclipse.gsfc.nasa.gov/SEsearch/SEsearchmap.php?Ecl=%2B05631003","boundary":"center","name":"563-10-03 금환일식"},"geometry":{"type":"LineString","coordinates":[[-10.17536,65.63732],[-10,65.43673],[-9.5,65.39434],[-9,65.35102],[-8.5,65.30675],[-8,65.26152],[-7.5,65.21533],[-7,65.16817],[-6.5,65.12004],[-6,65.07092],[-5.5,65.02081],[-5,64.96971],[-4.5,64.9176],[-4,64.86447],[-3.5,64.81033],[-3,64.75516],[-2.5,64.69895],[-2,64.64169],[-1.5,64.58339],[-1,64.52402],[-0.5,64.46358],[0,64.40207],[0.5,64.33946],[1,64.27576],[1.5,64.21096],[2,64.14503],[2.5,64.07799],[3,64.00981],[3.5,63.94048],[4,63.87],[4.5,63.79836],[5,63.72554],[5.5,63.65153],[6,63.57633],[6.5,63.49992],[7,63.4223],[7.5,63.34344],[8,63.26334],[8.5,63.182],[9,63.09938],[9.5,63.01549],[10,62.93032],[10.5,62.84384],[11,62.75605],[11.5,62.66693],[12,62.57647],[12.5,62.48466],[13,62.39149],[13.5,62.29693],[14,62.20099],[14.5,62.10363],[15,62.00486],[15.5,61.90465],[16,61.80299],[16.5,61.69987],[17,61.59526],[17.5,61.48916],[18,61.38155],[18.5,61.27241],[19,61.16174],[19.5,61.0495],[20,60.93569],[20.5,60.82028],[21,60.70327],[21.5,60.58464],[22,60.46436],[22.5,60.34242],[23,60.2188],[23.5,60.09349],[24,59.96647],[24.5,59.83771],[25,59.70721],[25.5,59.57493],[26,59.44087],[26.5,59.305],[27,59.1673],[27.5,59.02776],[28,58.88636],[28.5,58.74307],[29,58.59787],[29.5,58.45075],[30,58.30169],[30.5,58.15065],[31,57.99764],[31.5,57.84261],[32,57.68556],[32.5,57.52646],[33,57.3653],[33.5,57.20204],[34,57.03667],[34.5,56.86918],[35,56.69953],[35.5,56.52771],[36,56.3537],[36.5,56.17747],[37,55.99901],[37.5,55.8183],[38,55.63532],[38.5,55.45005],[39,55.26246],[39.5,55.07255],[40,54.88029],[40.5,54.68566],[41,54.48866],[41.5,54.28925],[42,54.08744],[42.5,53.88319],[43,53.67651],[43.5,53.46738],[44,53.25577],[44.5,53.0417],[45,52.82514],[45.5,52.60609],[46,52.38455],[46.5,52.1605],[47,51.93396],[47.5,51.70491],[48,51.47336],[48.5,51.23932],[49,51.0028],[49.5,50.76379],[50,50.52232],[50.5,50.27841],[51,50.03206],[51.5,49.78331],[52,49.53219],[52.5,49.27871],[53,49.02293],[53.5,48.76487],[54,48.50458],[54.5,48.24212],[55,47.97754],[55.5,47.71089],[56,47.44224],[56.5,47.17166],[57,46.89924],[57.5,46.62505],[58,46.34919],[58.5,46.07175],[59,45.79283],[59.5,45.51255],[60,45.23102],[60.5,44.94837],[61,44.66472],[61.5,44.38021],[62,44.095],[62.5,43.80921],[63,43.52302],[63.5,43.23659],[64,42.95008],[64.5,42.66366],[65,42.37752],[65.5,42.09183],[66,41.80678],[66.5,41.52256],[67,41.23937],[67.5,40.95738],[68,40.6768],[68.5,40.39782],[69,40.12063],[69.5,39.84542],[70,39.57239],[70.5,39.30172],[71,39.03359],[71.5,38.76818],[72,38.50567],[72.5,38.24622],[73,37.98999],[73.5,37.73714],[74,37.48781],[74.5,37.24213],[75,37.00025],[75.5,36.76228],[76,36.52833],[76.5,36.29851],[77,36.07291],[77.5,35.85161],[78,35.63469],[78.5,35.42222],[79,35.21425],[79.5,35.01084],[80,34.81201],[80.5,34.61782],[81,34.42827],[81.5,34.24339],[82,34.06319],[82.5,33.88766],[83,33.71681],[83.5,33.55063],[84,33.38909],[84.5,33.23218],[85,33.07988],[85.5,32.93215],[86,32.78895],[86.5,32.65026],[87,32.51603],[87.5,32.38621],[88,32.26076],[88.5,32.13963],[89,32.02277],[89.5,31.91012],[90,31.80162],[90.5,31.69723],[91,31.59689],[91.5,31.50052],[92,31.40809],[92.5,31.31952],[93,31.23475],[93.5,31.15373],[94,31.0764],[94.5,31.00269],[95,30.93254],[95.5,30.8659],[96,30.8027],[96.5,30.74288],[97,30.68639],[97.5,30.63317],[98,30.58316],[98.5,30.53629],[99,30.49252],[99.5,30.4518],[100,30.41405],[100.5,30.37924],[101,30.3473],[101.5,30.31819],[102,30.29185],[102.5,30.26823],[103,30.24729],[103.5,30.22897],[104,30.21322],[104.5,30.2],[105,30.18926],[105.5,30.18096],[106,30.17505],[106.5,30.17149],[107,30.17024],[107.5,30.17124],[108,30.17447],[108.5,30.17988],[109,30.18743],[109.5,30.19709],[110,30.20881],[110.5,30.22256],[111,30.2383],[111.5,30.256],[112,30.27562],[112.5,30.29713],[113,30.32049],[113.5,30.34567],[114,30.37264],[114.5,30.40137],[115,30.43183],[115.5,30.46398],[116,30.4978],[116.5,30.53326],[117,30.57033],[117.5,30.60899],[118,30.6492],[118.01288,30.62724]]}},{"type":"Feature","id":"+05631003:south:0","properties":{"id":"+05631003","year":563,"month":10,"day":3,"time_tdt":"09:52:51","type":"금환일식","type_code":"A","saros":101,"gamma":0.74377,"magnitude":0.94378,"greatest":{"lat":41.02428,"lng":67.38092},"path_width_km":307,"duration":"05m44s","delta_t_seconds":5061.5,"catalog_number":6097,"source":"NASA Five Millennium Canon of Solar Eclipses","source_url":"https://eclipse.gsfc.nasa.gov/SEsearch/SEsearchmap.php?Ecl=%2B05631003","boundary":"south","name":"563-10-03 금환일식"},"geometry":{"type":"LineString","coordinates":[[-10.50391,63.84655],[-10.5,63.84624],[-10,63.80616],[-9.5,63.76511],[-9,63.72311],[-8.5,63.68014],[-8,63.63619],[-7.5,63.59126],[-7,63.54535],[-6.5,63.49844],[-6,63.45053],[-5.5,63.4016],[-5,63.35167],[-4.5,63.3007],[-4,63.24871],[-3.5,63.19568],[-3,63.1416],[-2.5,63.08646],[-2,63.03026],[-1.5,62.97299],[-1,62.91463],[-0.5,62.85519],[0,62.79465],[0.5,62.733],[1,62.67024],[1.5,62.60635],[2,62.54133],[2.5,62.47516],[3,62.40784],[3.5,62.33936],[4,62.2697],[4.5,62.19885],[5,62.12682],[5.5,62.05357],[6,61.97911],[6.5,61.90343],[7,61.8265],[7.5,61.74833],[8,61.66889],[8.5,61.58819],[9,61.5062],[9.5,61.42291],[10,61.33831],[10.5,61.25239],[11,61.16514],[11.5,61.07654],[12,60.98658],[12.5,60.89525],[13,60.80253],[13.5,60.70841],[14,60.61288],[14.5,60.51592],[15,60.41751],[15.5,60.31765],[16,60.21632],[16.5,60.11349],[17,60.00917],[17.5,59.90333],[18,59.79595],[18.5,59.68703],[19,59.57653],[19.5,59.46446],[20,59.35079],[20.5,59.2355],[21,59.11858],[21.5,59.00001],[22,58.87977],[22.5,58.75785],[23,58.63422],[23.5,58.50887],[24,58.38178],[24.5,58.25293],[25,58.12231],[25.5,57.98989],[26,57.85565],[26.5,57.71957],[27,57.58164],[27.5,57.44184],[28,57.30014],[28.5,57.15653],[29,57.01098],[29.5,56.86347],[30,56.71399],[30.5,56.5625],[31,56.409],[31.5,56.25346],[32,56.09586],[32.5,55.93617],[33,55.77438],[33.5,55.61047],[34,55.44441],[34.5,55.27618],[35,55.10576],[35.5,54.93314],[36,54.75828],[36.5,54.58117],[37,54.40178],[37.5,54.22011],[38,54.03612],[38.5,53.8498],[39,53.66112],[39.5,53.47008],[40,53.27664],[40.5,53.0808],[41,52.88253],[41.5,52.68183],[42,52.47866],[42.5,52.27303],[43,52.06491],[43.5,51.85429],[44,51.64117],[44.5,51.42552],[45,51.20735],[45.5,50.98665],[46,50.7634],[46.5,50.53762],[47,50.30929],[47.5,50.07842],[48,49.84502],[48.5,49.60908],[49,49.37061],[49.5,49.12964],[50,48.88617],[50.5,48.64022],[51,48.39182],[51.5,48.14098],[52,47.88775],[52.5,47.63215],[53,47.37422],[53.5,47.11401],[54,46.85157],[54.5,46.58695],[55,46.3202],[55.5,46.05141],[56,45.78062],[56.5,45.50793],[57,45.23342],[57.5,44.95718],[58,44.6793],[58.5,44.39989],[59,44.11906],[59.5,43.83693],[60,43.55362],[60.5,43.26926],[61,42.984],[61.5,42.69797],[62,42.41133],[62.5,42.12424],[63,41.83686],[63.5,41.54936],[64,41.26192],[64.5,40.97472],[65,40.68793],[65.5,40.40175],[66,40.11638],[66.5,39.83199],[67,39.54879],[67.5,39.26697],[68,38.98674],[68.5,38.70827],[69,38.43177],[69.5,38.15743],[70,37.88544],[70.5,37.61598],[71,37.34922],[71.5,37.08535],[72,36.82453],[72.5,36.56693],[73,36.31269],[73.5,36.06196],[74,35.81488],[74.5,35.57158],[75,35.33219],[75.5,35.0968],[76,34.86553],[76.5,34.63847],[77,34.4157],[77.5,34.1973],[78,33.98332],[78.5,33.77383],[79,33.56888],[79.5,33.3685],[80,33.17273],[80.5,32.98158],[81,32.79508],[81.5,32.61323],[82,32.43604],[82.5,32.26349],[83,32.09558],[83.5,31.93229],[84,31.77361],[84.5,31.61949],[85,31.46992],[85.5,31.32486],[86,31.18427],[86.5,31.04811],[87,30.91633],[87.5,30.78888],[88,30.66572],[88.5,30.5468],[89,30.43206],[89.5,30.32144],[90,30.21489],[90.5,30.11236],[91,30.01378],[91.5,29.91909],[92,29.82824],[92.5,29.74117],[93,29.6578],[93.5,29.5781],[94,29.50199],[94.5,29.42941],[95,29.36031],[95.5,29.29462],[96,29.23229],[96.5,29.17326],[97,29.11747],[97.5,29.06486],[98,29.01538],[98.5,28.96897],[99,28.92557],[99.5,28.88514],[100,28.84761],[100.5,28.81294],[101,28.78107],[101.5,28.75195],[102,28.72554],[102.5,28.70178],[103,28.68062],[103.5,28.66201],[104,28.64592],[104.5,28.63229],[105,28.62108],[105.5,28.61225],[106,28.60575],[106.5,28.60153],[107,28.59957],[107.5,28.59981],[108,28.60222],[108.5,28.60676],[109,28.61339],[109.5,28.62207],[110,28.63277],[110.5,28.64545],[111,28.66007],[111.5,28.6766],[112,28.69502],[112.5,28.71527],[113,28.73734],[113.5,28.76118],[114,28.78678],[114.5,28.81409],[115,28.8431],[115.5,28.87376],[116,28.90605],[116.5,28.93995],[117,28.97543],[117.5,29.01245],[117.63281,29.02254]]}}],"attribution":"Eclipse Predictions by Fred Espenak and Jean Meeus (NASA's GSFC)","generated_at":"2026-09-23T01:44:52.701Z"}
