{"type":"FeatureCollection","year":579,"events":[{"id":"+05790511","year":579,"month":5,"day":11,"time_tdt":"16:48:05","type":"금환일식","type_code":"A","saros":76,"gamma":0.96377,"magnitude":0.93655,"greatest":{"lat":80.33197,"lng":-163.33606},"path_width_km":925.9,"duration":"04m15s","delta_t_seconds":4911.9,"catalog_number":6138,"source":"NASA Five Millennium Canon of Solar Eclipses","source_url":"https://eclipse.gsfc.nasa.gov/SEsearch/SEsearchmap.php?Ecl=%2B05790511"},{"id":"+05791104","year":579,"month":11,"day":4,"time_tdt":"22:31:45","type":"개기일식","type_code":"T","saros":81,"gamma":-0.69912,"magnitude":1.03435,"greatest":{"lat":-59.40375,"lng":-157.1236},"path_width_km":162.1,"duration":"02m24s","delta_t_seconds":4907.2,"catalog_number":6139,"source":"NASA Five Millennium Canon of Solar Eclipses","source_url":"https://eclipse.gsfc.nasa.gov/SEsearch/SEsearchmap.php?Ecl=%2B05791104"}],"features":[{"type":"Feature","id":"+05790511:north:0","properties":{"id":"+05790511","year":579,"month":5,"day":11,"time_tdt":"16:48:05","type":"금환일식","type_code":"A","saros":76,"gamma":0.96377,"magnitude":0.93655,"greatest":{"lat":80.33197,"lng":-163.33606},"path_width_km":925.9,"duration":"04m15s","delta_t_seconds":4911.9,"catalog_number":6138,"source":"NASA Five Millennium Canon of Solar Eclipses","source_url":"https://eclipse.gsfc.nasa.gov/SEsearch/SEsearchmap.php?Ecl=%2B05790511","boundary":"north","name":"579-05-11 금환일식"},"geometry":{"type":"LineString","coordinates":[[179.5,64.0091],[180,64.23324]]}},{"type":"Feature","id":"+05790511:north:1","properties":{"id":"+05790511","year":579,"month":5,"day":11,"time_tdt":"16:48:05","type":"금환일식","type_code":"A","saros":76,"gamma":0.96377,"magnitude":0.93655,"greatest":{"lat":80.33197,"lng":-163.33606},"path_width_km":925.9,"duration":"04m15s","delta_t_seconds":4911.9,"catalog_number":6138,"source":"NASA Five Millennium Canon of Solar Eclipses","source_url":"https://eclipse.gsfc.nasa.gov/SEsearch/SEsearchmap.php?Ecl=%2B05790511","boundary":"north","name":"579-05-11 금환일식"},"geometry":{"type":"LineString","coordinates":[[-179.5,64.46977],[-179,64.72002],[-178.5,64.98557],[-178,65.26843],[-177.5,65.57119],[-177,65.89724],[-176.5,66.25123],[-176,66.63984],[-175.5,67.07331],[-175,67.56891],[-174.5,68.16049],[-174,68.93721],[-174,72.34657],[-174.5,73.0323],[-175,73.53526],[-175.5,73.94458],[-176,74.29407],[-176.5,74.60098],[-177,74.87552],[-177.5,75.12434],[-178,75.35207],[-178.5,75.56208],[-179,75.75692],[-179.5,75.93857]]}},{"type":"Feature","id":"+05790511:north:2","properties":{"id":"+05790511","year":579,"month":5,"day":11,"time_tdt":"16:48:05","type":"금환일식","type_code":"A","saros":76,"gamma":0.96377,"magnitude":0.93655,"greatest":{"lat":80.33197,"lng":-163.33606},"path_width_km":925.9,"duration":"04m15s","delta_t_seconds":4911.9,"catalog_number":6138,"source":"NASA Five Millennium Canon of Solar Eclipses","source_url":"https://eclipse.gsfc.nasa.gov/SEsearch/SEsearchmap.php?Ecl=%2B05790511","boundary":"north","name":"579-05-11 금환일식"},"geometry":{"type":"LineString","coordinates":[[180,76.10862],[179.5,76.26834],[179,76.4188],[178.5,76.56088],[178,76.69534],[177.5,76.82282],[177,76.94387],[176.5,77.05897],[176,77.16856],[175.5,77.273],[175,77.37263],[174.5,77.46774],[174,77.55859],[173.5,77.64543],[173,77.72847],[172.5,77.8079],[172,77.88391],[171.5,77.95665],[171,78.02628],[170.5,78.09292],[170,78.15671],[169.5,78.21775],[169,78.27616],[168.5,78.33202],[168,78.38544],[167.5,78.43649],[167,78.48526],[166.5,78.5318],[166,78.5762],[165.5,78.6185],[165,78.65878],[164.5,78.69707],[164,78.73344],[163.5,78.76793],[163,78.80057],[162.5,78.83142],[162,78.8605],[161.5,78.88785],[161,78.9135],[160.5,78.93748],[160,78.95982],[159.5,78.98054],[159,78.99966],[158.5,79.01721],[158,79.0332],[157.5,79.04764],[157,79.06056],[156.5,79.07196],[156,79.08186],[155.5,79.09026],[155,79.09718],[154.5,79.10261],[154,79.10657],[153.5,79.10905],[153,79.11005],[152.5,79.10959],[152,79.10764],[151.5,79.10422],[151,79.09931],[150.5,79.09291],[150,79.08501],[149.5,79.07559],[149,79.06465],[148.5,79.05217],[148,79.03814],[147.5,79.02253],[147,79.00533],[146.5,78.98652],[146,78.96607],[145.5,78.94395],[145,78.92013],[144.5,78.89459],[144,78.86729],[143.5,78.83818],[143,78.80724],[142.5,78.77441],[142,78.73965],[141.5,78.7029],[141,78.66411],[140.5,78.62322],[140,78.58017],[139.5,78.53488],[139,78.48727],[138.5,78.43727],[138,78.38477],[137.5,78.32969],[137,78.27192],[136.5,78.21134],[136,78.14782],[135.5,78.08122],[135,78.01138],[134.5,77.93815],[134,77.86133],[133.5,77.78071],[133,77.69606],[132.5,77.60713],[132,77.51362],[131.5,77.41522],[131,77.31154],[130.5,77.20216],[130,77.08661],[129.5,76.96431],[129,76.8346],[128.5,76.69671],[128,76.5497],[127.5,76.39244],[127,76.22354],[126.5,76.04125],[126,75.84332],[125.5,75.62678],[125,75.38754],[124.5,75.11974],[124,74.81438],[123.5,74.45631],[123,74.01596],[122.5,73.4165],[122.02344,72.14599]]}},{"type":"Feature","id":"+05790511:center:0","properties":{"id":"+05790511","year":579,"month":5,"day":11,"time_tdt":"16:48:05","type":"금환일식","type_code":"A","saros":76,"gamma":0.96377,"magnitude":0.93655,"greatest":{"lat":80.33197,"lng":-163.33606},"path_width_km":925.9,"duration":"04m15s","delta_t_seconds":4911.9,"catalog_number":6138,"source":"NASA Five Millennium Canon of Solar Eclipses","source_url":"https://eclipse.gsfc.nasa.gov/SEsearch/SEsearchmap.php?Ecl=%2B05790511","boundary":"center","name":"579-05-11 금환일식"},"geometry":{"type":"LineString","coordinates":[[-170.35045,59.89665],[-170,60.07968],[-169.5,60.29057],[-169,60.50784],[-168.5,60.73177],[-168,60.96263],[-167.5,61.20074],[-167,61.44644],[-166.5,61.70013],[-166,61.96222],[-165.5,62.23317],[-165,62.51352],[-164.5,62.80385],[-164,63.10483],[-163.5,63.41724],[-163,63.74195],[-162.5,64.07998],[-162,64.43256],[-161.5,64.8011],[-161,65.18737],[-160.5,65.59349],[-160,66.02216],[-159.5,66.47684],[-159,66.96213],[-158.5,67.48437],[-158,68.0528],[-157.5,68.68179],[-157,69.3962],[-156.5,70.24699],[-156,71.38282],[-156,75.26264],[-156.5,76.17945],[-157,76.81581],[-157.5,77.32029],[-158,77.74375],[-158.5,78.11094],[-159,78.43616],[-159.5,78.72856],[-160,78.99439],[-160.5,79.23817],[-161,79.4633],[-161.5,79.67237],[-162,79.86746],[-162.5,80.05025],[-163,80.22209],[-163.5,80.38414],[-164,80.53735],[-164.5,80.68255],[-165,80.82043],[-165.5,80.95162],[-166,81.07665],[-166.5,81.19598],[-167,81.31004],[-167.5,81.41919],[-168,81.52377],[-168.5,81.62407],[-169,81.72036],[-169.5,81.81288],[-170,81.90185],[-170.5,81.98748],[-171,82.06995],[-171.5,82.14942],[-172,82.22606],[-172.5,82.3],[-173,82.37137],[-173.5,82.44031],[-174,82.50691],[-174.5,82.57129],[-175,82.63354],[-175.5,82.69375],[-176,82.75201],[-176.5,82.80841],[-177,82.863],[-177.5,82.91587],[-178,82.96707],[-178.5,83.01667],[-179,83.06473],[-179.5,83.1113]]}},{"type":"Feature","id":"+05790511:center:1","properties":{"id":"+05790511","year":579,"month":5,"day":11,"time_tdt":"16:48:05","type":"금환일식","type_code":"A","saros":76,"gamma":0.96377,"magnitude":0.93655,"greatest":{"lat":80.33197,"lng":-163.33606},"path_width_km":925.9,"duration":"04m15s","delta_t_seconds":4911.9,"catalog_number":6138,"source":"NASA Five Millennium Canon of Solar Eclipses","source_url":"https://eclipse.gsfc.nasa.gov/SEsearch/SEsearchmap.php?Ecl=%2B05790511","boundary":"center","name":"579-05-11 금환일식"},"geometry":{"type":"LineString","coordinates":[[180,83.15644],[179.5,83.20018],[179,83.24258],[178.5,83.28369],[178,83.32353],[177.5,83.36216],[177,83.3996],[176.5,83.43589],[176,83.47107],[175.5,83.50516],[175,83.5382],[174.5,83.57022],[174,83.60123],[173.5,83.63127],[173,83.66037],[172.5,83.68853],[172,83.7158],[171.5,83.74217],[171,83.76769],[170.5,83.79236],[170,83.81621],[169.5,83.83925],[169,83.86149],[168.5,83.88296],[168,83.90367],[167.5,83.92363],[167,83.94285],[166.5,83.96136],[166,83.97915],[165.5,83.99625],[165,84.01266],[164.5,84.0284],[164,84.04347],[163.5,84.05788],[163,84.07165],[162.5,84.08478],[162,84.09727],[161.5,84.10914],[161,84.1204],[160.5,84.13105],[160,84.14109],[159.5,84.15054],[159,84.15939],[158.5,84.16766],[158,84.17535],[157.5,84.18246],[157,84.18899],[156.5,84.19496],[156,84.20036],[155.5,84.20519],[155,84.20946],[154.5,84.21318],[154,84.21634],[153.5,84.21894],[153,84.221],[152.5,84.22249],[152,84.22344],[151.5,84.22384],[151,84.22368],[150.5,84.22298],[150,84.22172],[149.5,84.21991],[149,84.21754],[148.5,84.21462],[148,84.21114],[147.5,84.20711],[147,84.20251],[146.5,84.19735],[146,84.19161],[145.5,84.18531],[145,84.17844],[144.5,84.17098],[144,84.16294],[143.5,84.15431],[143,84.14509],[142.5,84.13527],[142,84.12484],[141.5,84.1138],[141,84.10214],[140.5,84.08986],[140,84.07694],[139.5,84.06338],[139,84.04916],[138.5,84.03429],[138,84.01874],[137.5,84.00252],[137,83.9856],[136.5,83.96798],[136,83.94964],[135.5,83.93058],[135,83.91077],[134.5,83.89021],[134,83.86888],[133.5,83.84676],[133,83.82384],[132.5,83.8001],[132,83.77552],[131.5,83.75009],[131,83.72377],[130.5,83.69656],[130,83.66843],[129.5,83.63936],[129,83.60931],[128.5,83.57828],[128,83.54622],[127.5,83.51311],[127,83.47892],[126.5,83.44361],[126,83.40716],[125.5,83.36953],[125,83.33068],[124.5,83.29057],[124,83.24916],[123.5,83.20639],[123,83.16224],[122.5,83.11664],[122,83.06953],[121.5,83.02088],[121,82.9706],[120.5,82.91864],[120,82.86493],[119.5,82.8094],[119,82.75195],[118.5,82.69252],[118,82.631],[117.5,82.5673],[117,82.50131],[116.5,82.43291],[116,82.36199],[115.5,82.2884],[115,82.21199],[114.5,82.13261],[114,82.05007],[113.5,81.96419],[113,81.87475],[112.5,81.78151],[112,81.68421],[111.5,81.58255],[111,81.47621],[110.5,81.36482],[110,81.24796],[109.5,81.12514],[109,80.99582],[108.5,80.85937],[108,80.71504],[107.5,80.56196],[107,80.39909],[106.5,80.22517],[106,80.03865],[105.5,79.8376],[105,79.61956],[104.5,79.38128],[104,79.11837],[103.5,78.8246],[103,78.4906],[102.5,78.10111],[102,77.62783],[101.5,77.005],[101,75.95256],[101,73.90571],[101.5,72.65472],[102,71.83567],[102.5,71.16846],[103.11447,70.91941]]}},{"type":"Feature","id":"+05790511:south:0","properties":{"id":"+05790511","year":579,"month":5,"day":11,"time_tdt":"16:48:05","type":"금환일식","type_code":"A","saros":76,"gamma":0.96377,"magnitude":0.93655,"greatest":{"lat":80.33197,"lng":-163.33606},"path_width_km":925.9,"duration":"04m15s","delta_t_seconds":4911.9,"catalog_number":6138,"source":"NASA Five Millennium Canon of Solar Eclipses","source_url":"https://eclipse.gsfc.nasa.gov/SEsearch/SEsearchmap.php?Ecl=%2B05790511","boundary":"south","name":"579-05-11 금환일식"},"geometry":{"type":"LineString","coordinates":[[-163.9375,56.80639],[-163.5,56.98319],[-163,57.18959],[-162.5,57.40072],[-162,57.61669],[-161.5,57.83763],[-161,58.06365],[-160.5,58.2949],[-160,58.53151],[-159.5,58.77362],[-159,59.02139],[-158.5,59.27498],[-158,59.53455],[-157.5,59.80029],[-157,60.07239],[-156.5,60.35104],[-156,60.63647],[-155.5,60.92888],[-155,61.22854],[-154.5,61.53569],[-154,61.85062],[-153.5,62.17361],[-153,62.50499],[-152.5,62.8451],[-152,63.19432],[-151.5,63.55305],[-151,63.92175],[-150.5,64.3009],[-150,64.69104],[-149.5,65.09278],[-149,65.5068],[-148.5,65.93386],[-148,66.37482],[-147.5,66.83069],[-147,67.30261],[-146.5,67.79197],[-146,68.30039],[-145.5,68.82985],[-145,69.3828],[-144.5,69.96235],[-144,70.57256],[-143.5,71.21893],[-143,71.90921],[-142.5,72.65507],[-142,73.47558],[-141.5,74.40625],[-141,75.53038],[-140.5,77.21519],[-141,80.89962],[-141.5,81.5974],[-142,82.11035],[-142.5,82.52165],[-143,82.86665],[-143.5,83.16428],[-144,83.42606],[-144.5,83.65959],[-145,83.87021],[-145.5,84.06183],[-146,84.23739],[-146.5,84.3992],[-147,84.54909],[-147.5,84.68852],[-148,84.81873],[-148.5,84.94072],[-149,85.05534],[-149.5,85.16332],[-150,85.26529],[-150.5,85.36179],[-151,85.45328],[-151.5,85.54017],[-152,85.62285],[-152.5,85.70161],[-153,85.77677],[-153.5,85.84856],[-154,85.91723],[-154.5,85.98298],[-155,86.046],[-155.5,86.10646],[-156,86.16453],[-156.5,86.22034],[-157,86.27402],[-157.5,86.32569],[-158,86.37547],[-158.5,86.42345],[-159,86.46974],[-159.5,86.51441],[-160,86.55754],[-160.5,86.59923],[-161,86.63952],[-161.5,86.67849],[-162,86.7162],[-162.5,86.75271],[-163,86.78806],[-163.5,86.82232],[-164,86.85552],[-164.5,86.8877],[-165,86.91892],[-165.5,86.94921],[-166,86.97861],[-166.5,87.00714],[-167,87.03485],[-167.5,87.06177],[-168,87.08792],[-168.5,87.11333],[-169,87.13802],[-169.5,87.16203],[-170,87.18538],[-170.5,87.20808],[-171,87.23017],[-171.5,87.25165],[-172,87.27256],[-172.5,87.2929],[-173,87.31269],[-173.5,87.33196],[-174,87.35072],[-174.5,87.36898],[-175,87.38676],[-175.5,87.40407],[-176,87.42092],[-176.5,87.43733],[-177,87.45331],[-177.5,87.46887],[-178,87.48403],[-178.5,87.49878],[-179,87.51315],[-179.5,87.52715]]}},{"type":"Feature","id":"+05790511:south:1","properties":{"id":"+05790511","year":579,"month":5,"day":11,"time_tdt":"16:48:05","type":"금환일식","type_code":"A","saros":76,"gamma":0.96377,"magnitude":0.93655,"greatest":{"lat":80.33197,"lng":-163.33606},"path_width_km":925.9,"duration":"04m15s","delta_t_seconds":4911.9,"catalog_number":6138,"source":"NASA Five Millennium Canon of Solar Eclipses","source_url":"https://eclipse.gsfc.nasa.gov/SEsearch/SEsearchmap.php?Ecl=%2B05790511","boundary":"south","name":"579-05-11 금환일식"},"geometry":{"type":"LineString","coordinates":[[180,87.54077],[179.5,87.55403],[179,87.56695],[178.5,87.57952],[178,87.59176],[177.5,87.60367],[177,87.61526],[176.5,87.62654],[176,87.63752],[175.5,87.64819],[175,87.65857],[174.5,87.66867],[174,87.67848],[173.5,87.68802],[173,87.69729],[172.5,87.70629],[172,87.71503],[171.5,87.72352],[171,87.73175],[170.5,87.73974],[170,87.74748],[169.5,87.75499],[169,87.76226],[168.5,87.76929],[168,87.77611],[167.5,87.78269],[167,87.78906],[166.5,87.79521],[166,87.80114],[165.5,87.80686],[165,87.81237],[164.5,87.81767],[164,87.82277],[163.5,87.82767],[163,87.83237],[162.5,87.83687],[162,87.84117],[161.5,87.84528],[161,87.8492],[160.5,87.85293],[160,87.85648],[159.5,87.85983],[159,87.863],[158.5,87.86599],[158,87.86879],[157.5,87.87141],[157,87.87386],[156.5,87.87612],[156,87.87821],[155.5,87.88012],[155,87.88185],[154.5,87.88341],[154,87.88479],[153.5,87.886],[153,87.88704],[152.5,87.8879],[152,87.88859],[151.5,87.88911],[151,87.88945],[150.5,87.88963],[150,87.88963],[149.5,87.88945],[149,87.88911],[148.5,87.8886],[148,87.88791],[147.5,87.88705],[147,87.88601],[146.5,87.8848],[146,87.88342],[145.5,87.88187],[145,87.88013],[144.5,87.87822],[144,87.87614],[143.5,87.87388],[143,87.87143],[142.5,87.86881],[142,87.86601],[141.5,87.86302],[141,87.85985],[140.5,87.85649],[140,87.85295],[139.5,87.84922],[139,87.8453],[138.5,87.84119],[138,87.83688],[137.5,87.83238],[137,87.82768],[136.5,87.82278],[136,87.81768],[135.5,87.81238],[135,87.80686],[134.5,87.80114],[134,87.7952],[133.5,87.78905],[133,87.78268],[132.5,87.77609],[132,87.76928],[131.5,87.76223],[131,87.75495],[130.5,87.74744],[130,87.73969],[129.5,87.7317],[129,87.72345],[128.5,87.71496],[128,87.70621],[127.5,87.69719],[127,87.68792],[126.5,87.67836],[126,87.66854],[125.5,87.65843],[125,87.64803],[124.5,87.63734],[124,87.62635],[123.5,87.61505],[123,87.60344],[122.5,87.5915],[122,87.57924],[121.5,87.56664],[121,87.5537],[120.5,87.54041],[120,87.52675],[119.5,87.51273],[119,87.49832],[118.5,87.48353],[118,87.46834],[117.5,87.45273],[117,87.43671],[116.5,87.42025],[116,87.40334],[115.5,87.38598],[115,87.36814],[114.5,87.34982],[114,87.331],[113.5,87.31166],[113,87.29178],[112.5,87.27136],[112,87.25037],[111.5,87.22879],[111,87.2066],[110.5,87.18379],[110,87.16033],[109.5,87.1362],[109,87.11137],[108.5,87.08581],[108,87.05951],[107.5,87.03244],[107,87.00455],[106.5,86.97582],[106,86.94622],[105.5,86.91571],[105,86.88426],[104.5,86.85181],[104,86.81833],[103.5,86.78378],[103,86.7481],[102.5,86.71124],[102,86.67315],[101.5,86.63376],[101,86.59302],[100.5,86.55085],[100,86.50717],[99.5,86.46192],[99,86.41499],[98.5,86.36631],[98,86.31576],[97.5,86.26325],[97,86.20864],[96.5,86.1518],[96,86.0926],[95.5,86.03088],[95,85.96646],[94.5,85.89915],[94,85.82874],[93.5,85.755],[93,85.67765],[92.5,85.59641],[92,85.51094],[91.5,85.42085],[91,85.32573],[90.5,85.22506],[90,85.11827],[89.5,85.00469],[89,84.88352],[88.5,84.75382],[88,84.61445],[87.5,84.46402],[87,84.30078],[86.5,84.12253],[86,83.92641],[85.5,83.70856],[85,83.46362],[84.5,83.18372],[84,82.85649],[83.5,82.46034],[83,81.95052],[82.5,81.19429],[82.5,77.83849],[83,76.76015],[83.5,75.93246],[84,75.22257],[84.5,74.58569],[85,74.00016],[85.5,73.45351],[86,72.93783],[86.5,72.44768],[87,71.97915],[87.5,71.52931],[88,71.09589],[88.5,70.6771],[89,70.27148],[89.5,69.87784],[90,69.49518]]}},{"type":"Feature","id":"+05791104:north:0","properties":{"id":"+05791104","year":579,"month":11,"day":4,"time_tdt":"22:31:45","type":"개기일식","type_code":"T","saros":81,"gamma":-0.69912,"magnitude":1.03435,"greatest":{"lat":-59.40375,"lng":-157.1236},"path_width_km":162.1,"duration":"02m24s","delta_t_seconds":4907.2,"catalog_number":6139,"source":"NASA Five Millennium Canon of Solar Eclipses","source_url":"https://eclipse.gsfc.nasa.gov/SEsearch/SEsearchmap.php?Ecl=%2B05791104","boundary":"north","name":"579-11-04 개기일식"},"geometry":{"type":"LineString","coordinates":[[137.625,-31.0077],[138,-31.11796],[138.5,-31.2667],[139,-31.41741],[139.5,-31.57011],[140,-31.72479],[140.5,-31.88148],[141,-32.04018],[141.5,-32.20089],[142,-32.36364],[142.5,-32.52841],[143,-32.69523],[143.5,-32.8641],[144,-33.03503],[144.5,-33.20801],[145,-33.38306],[145.5,-33.56018],[146,-33.73938],[146.5,-33.92065],[147,-34.104],[147.5,-34.28943],[148,-34.47694],[148.5,-34.66653],[149,-34.85819],[149.5,-35.05193],[150,-35.24774],[150.5,-35.44562],[151,-35.64555],[151.5,-35.84754],[152,-36.05156],[152.5,-36.25762],[153,-36.4657],[153.5,-36.67578],[154,-36.88785],[154.5,-37.10189],[155,-37.31789],[155.5,-37.53583],[156,-37.75567],[156.5,-37.9774],[157,-38.20099],[157.5,-38.42642],[157.5,-38.42641],[158,-38.65364],[158.5,-38.88263],[159,-39.11336],[159.5,-39.34578],[160,-39.57986],[160.5,-39.81556],[161,-40.05282],[161.5,-40.29161],[162,-40.53188],[162.5,-40.77356],[163,-41.01662],[163.5,-41.26099],[164,-41.50662],[164.5,-41.75344],[165,-42.00139],[165.5,-42.2504],[166,-42.50042],[166.5,-42.75136],[167,-43.00315],[167.5,-43.25572],[168,-43.509],[168.5,-43.76291],[169,-44.01736],[169.5,-44.27227],[170,-44.52757],[170.5,-44.78317],[171,-45.03898],[171.5,-45.29492],[172,-45.5509],[172.5,-45.80683],[173,-46.06263],[173,-46.06262],[173.5,-46.3182],[174,-46.57346],[174.5,-46.82831],[175,-47.08268],[175.5,-47.33647],[176,-47.58959],[176.5,-47.84196],[177,-48.0935],[177.5,-48.34411],[178,-48.59371],[178.5,-48.84223],[179,-49.08958],[179.5,-49.33569],[180,-49.58047]]}},{"type":"Feature","id":"+05791104:north:1","properties":{"id":"+05791104","year":579,"month":11,"day":4,"time_tdt":"22:31:45","type":"개기일식","type_code":"T","saros":81,"gamma":-0.69912,"magnitude":1.03435,"greatest":{"lat":-59.40375,"lng":-157.1236},"path_width_km":162.1,"duration":"02m24s","delta_t_seconds":4907.2,"catalog_number":6139,"source":"NASA Five Millennium Canon of Solar Eclipses","source_url":"https://eclipse.gsfc.nasa.gov/SEsearch/SEsearchmap.php?Ecl=%2B05791104","boundary":"north","name":"579-11-04 개기일식"},"geometry":{"type":"LineString","coordinates":[[-179.5,-49.82386],[-179,-50.06578],[-178.5,-50.30616],[-178,-50.54493],[-177.5,-50.78204],[-177,-51.01741],[-176.5,-51.25099],[-176,-51.48271],[-175.5,-51.71254],[-175,-51.9404],[-174.5,-52.16626],[-174,-52.39007],[-173.5,-52.61179],[-173,-52.83136],[-172.5,-53.04876],[-172,-53.26396],[-171.5,-53.4769],[-171,-53.68758],[-170.5,-53.89595],[-170,-54.102],[-169.5,-54.3057],[-169,-54.50704],[-168.5,-54.70598],[-168,-54.90253],[-167.5,-55.09666],[-167,-55.28836],[-166.5,-55.47763],[-166,-55.66445],[-165.5,-55.84883],[-165,-56.03075],[-164.5,-56.21022],[-164,-56.38723],[-163.5,-56.56179],[-163,-56.7339],[-162.5,-56.90356],[-162,-57.07078],[-161.5,-57.23556],[-161,-57.39791],[-160.5,-57.55785],[-160,-57.71537],[-159.5,-57.8705],[-159,-58.02324],[-158.5,-58.1736],[-158,-58.3216],[-157.5,-58.46725],[-157,-58.61056],[-156.5,-58.75156],[-156,-58.89025],[-155.5,-59.02665],[-155,-59.16078],[-154.5,-59.29265],[-154,-59.42228],[-153.5,-59.54969],[-153,-59.6749],[-152.5,-59.79791],[-152,-59.91876],[-151.5,-60.03746],[-151,-60.15402],[-150.5,-60.26847],[-150,-60.38082],[-150,-60.38081],[-149.5,-60.49108],[-149,-60.59929],[-148.5,-60.70546],[-148,-60.8096],[-147.5,-60.91173],[-147,-61.01187],[-146.5,-61.11005],[-146,-61.20627],[-145.5,-61.30055],[-145,-61.39291],[-144.5,-61.48338],[-144,-61.57195],[-143.5,-61.65866],[-143.5,-61.65867],[-143,-61.74353],[-142.5,-61.82655],[-142,-61.90776],[-141.5,-61.98717],[-141,-62.06479],[-140.5,-62.14064],[-140,-62.21473],[-139.5,-62.28709],[-139,-62.35772],[-138.5,-62.42664],[-138,-62.49387],[-137.5,-62.55942],[-137,-62.62329],[-136.5,-62.68552],[-136,-62.7461],[-135.5,-62.80506],[-135,-62.8624],[-134.5,-62.91815],[-134.5,-62.91814],[-134,-62.9723],[-133.5,-63.02487],[-133,-63.07588],[-133,-63.07589],[-132.5,-63.12534],[-132,-63.17326],[-131.5,-63.21964],[-131,-63.26451],[-130.5,-63.30786],[-130,-63.34972],[-129.5,-63.39009],[-129,-63.42897],[-128.5,-63.46639],[-128,-63.50235],[-127.5,-63.53686],[-127,-63.56992],[-126.5,-63.60155],[-126,-63.63175],[-125.5,-63.66054],[-125,-63.68792],[-124.5,-63.71389],[-124,-63.73847],[-123.5,-63.76167],[-123,-63.78348],[-122.5,-63.80392],[-122,-63.82299],[-121.5,-63.8407],[-121,-63.85706],[-120.5,-63.87206],[-120,-63.88573],[-119.5,-63.89805],[-119,-63.90905],[-118.5,-63.91871],[-118,-63.92705],[-117.5,-63.93408],[-117,-63.93979],[-116.5,-63.94418],[-116,-63.94728],[-115.5,-63.94907],[-115,-63.94956],[-114.5,-63.94876],[-114,-63.94667],[-113.5,-63.94329],[-113,-63.93862],[-112.5,-63.93268],[-112,-63.92545],[-111.5,-63.91694],[-111,-63.90716],[-110.5,-63.89611],[-110,-63.88378],[-109.5,-63.87019],[-109,-63.85532],[-108.5,-63.8392],[-108,-63.8218],[-107.5,-63.80315],[-107,-63.78323],[-106.5,-63.76205],[-106,-63.73961],[-105.5,-63.71591],[-105,-63.69096],[-104.5,-63.66474],[-104,-63.63727],[-103.5,-63.60854],[-103,-63.57855],[-102.5,-63.54731],[-102,-63.51481],[-101.5,-63.48105],[-101,-63.44603],[-100.5,-63.40976],[-100,-63.37223],[-99.5,-63.33344],[-99,-63.29339],[-98.5,-63.25209],[-98,-63.20952],[-97.5,-63.1657],[-97,-63.12061],[-96.5,-63.07426],[-96,-63.02665],[-95.5,-62.97778],[-95,-62.92764],[-94.5,-62.87624],[-94,-62.82358],[-93.5,-62.76964],[-93,-62.71444],[-92.5,-62.65798],[-92,-62.60024],[-91.5,-62.54123],[-91,-62.48096],[-90.5,-62.41941],[-90,-62.35659],[-89.5,-62.2925],[-89,-62.22713],[-88.5,-62.1605],[-88,-62.09258],[-87.5,-62.02339],[-87,-61.95293],[-86.5,-61.88119],[-86,-61.80818],[-85.5,-61.73389],[-85,-61.65832],[-84.5,-61.58147],[-84,-61.50335],[-83.5,-61.42396],[-83,-61.34329],[-82.5,-61.26134],[-82,-61.17812],[-81.5,-61.09363],[-81,-61.00786],[-80.5,-60.92083],[-80,-60.83252],[-79.5,-60.74294],[-79,-60.6521],[-78.5,-60.55999],[-78,-60.46662],[-77.5,-60.37199],[-77,-60.2761],[-76.5,-60.17896],[-76,-60.08056],[-75.5,-59.98092],[-75,-59.88002],[-74.5,-59.77789],[-74,-59.67451],[-73.5,-59.5699],[-73,-59.46407],[-72.5,-59.357],[-72,-59.24872],[-71.5,-59.13922],[-71,-59.02851],[-70.5,-58.91659],[-70,-58.80348],[-69.5,-58.68918],[-69,-58.57369],[-68.5,-58.45703],[-68,-58.33919],[-67.5,-58.2202],[-67,-58.10004],[-66.5,-57.97874],[-66,-57.85631],[-65.5,-57.73274],[-65,-57.60805],[-64.5,-57.48226],[-64,-57.35536],[-63.5,-57.22737],[-63,-57.09831],[-62.5,-56.96817],[-62,-56.83698],[-61.5,-56.70474],[-61,-56.57146],[-60.5,-56.43717],[-60,-56.30186],[-59.5,-56.16556],[-59.5,-56.16555],[-59,-56.02827],[-58.5,-55.89001],[-58,-55.75079],[-57.5,-55.61063],[-57,-55.46954],[-56.5,-55.32754],[-56,-55.18464],[-55.5,-55.04085],[-55,-54.89619],[-54.5,-54.75068],[-54,-54.60433],[-53.5,-54.45716],[-53,-54.30918],[-52.5,-54.16041],[-52,-54.01087],[-51.5,-53.86058],[-51,-53.70954],[-50.5,-53.55779],[-50,-53.40533],[-49.5,-53.25218],[-49,-53.09836],[-48.5,-52.9439],[-48,-52.7888],[-47.5,-52.63308]]}},{"type":"Feature","id":"+05791104:center:0","properties":{"id":"+05791104","year":579,"month":11,"day":4,"time_tdt":"22:31:45","type":"개기일식","type_code":"T","saros":81,"gamma":-0.69912,"magnitude":1.03435,"greatest":{"lat":-59.40375,"lng":-157.1236},"path_width_km":162.1,"duration":"02m24s","delta_t_seconds":4907.2,"catalog_number":6139,"source":"NASA Five Millennium Canon of Solar Eclipses","source_url":"https://eclipse.gsfc.nasa.gov/SEsearch/SEsearchmap.php?Ecl=%2B05791104","boundary":"center","name":"579-11-04 개기일식"},"geometry":{"type":"LineString","coordinates":[[137.20752,-31.41183],[137.5,-31.49722],[138,-31.64886],[138.5,-31.80251],[139,-31.95818],[139.5,-32.11588],[140,-32.27561],[140.5,-32.4374],[141,-32.60124],[141.5,-32.76715],[142,-32.93513],[142.5,-33.1052],[143,-33.27735],[143.5,-33.45159],[144,-33.62793],[144.5,-33.80637],[145,-33.98693],[145.5,-34.16959],[146,-34.35437],[146.5,-34.54126],[147,-34.73027],[147.5,-34.92139],[148,-35.11463],[148.5,-35.30998],[149,-35.50744],[149.5,-35.707],[150,-35.90866],[150,-35.90867],[150.5,-36.11242],[151,-36.31825],[151.5,-36.52616],[152,-36.73613],[152.5,-36.94814],[153,-37.16219],[153.5,-37.37825],[154,-37.59631],[154.5,-37.81635],[155,-38.03834],[155.5,-38.26226],[156,-38.48809],[156.5,-38.71579],[157,-38.94534],[157.5,-39.1767],[158,-39.40984],[158.5,-39.64472],[159,-39.8813],[159.5,-40.11954],[160,-40.35939],[160.5,-40.60081],[161,-40.84375],[161.5,-41.08816],[162,-41.33398],[162.5,-41.58115],[163,-41.82962],[163.5,-42.07932],[164,-42.33019],[164.5,-42.58217],[165,-42.83518],[165.5,-43.08915],[166,-43.34401],[166.5,-43.59968],[167,-43.85609],[167.5,-44.11316],[168,-44.3708],[168.5,-44.62894],[169,-44.88748],[169.5,-45.14634],[170,-45.40544],[170.5,-45.66468],[171,-45.92399],[171.5,-46.18325],[171.5,-46.18326],[172,-46.4424],[172.5,-46.70133],[173,-46.95996],[173.5,-47.2182],[174,-47.47594],[174.5,-47.73311],[175,-47.98962],[175.5,-48.24537],[176,-48.50028],[176.5,-48.75425],[177,-49.00722],[177.5,-49.25908],[178,-49.50977],[178.5,-49.75919],[179,-50.00728],[179.5,-50.25394],[180,-50.49912]]}},{"type":"Feature","id":"+05791104:center:1","properties":{"id":"+05791104","year":579,"month":11,"day":4,"time_tdt":"22:31:45","type":"개기일식","type_code":"T","saros":81,"gamma":-0.69912,"magnitude":1.03435,"greatest":{"lat":-59.40375,"lng":-157.1236},"path_width_km":162.1,"duration":"02m24s","delta_t_seconds":4907.2,"catalog_number":6139,"source":"NASA Five Millennium Canon of Solar Eclipses","source_url":"https://eclipse.gsfc.nasa.gov/SEsearch/SEsearchmap.php?Ecl=%2B05791104","boundary":"center","name":"579-11-04 개기일식"},"geometry":{"type":"LineString","coordinates":[[-179.5,-50.74274],[-179,-50.98473],[-178.5,-51.22502],[-178,-51.46355],[-177.5,-51.70026],[-177,-51.93509],[-176.5,-52.16799],[-176,-52.39889],[-175.5,-52.62776],[-175,-52.85453],[-174.5,-53.07918],[-174,-53.30166],[-173.5,-53.52193],[-173,-53.73994],[-172.5,-53.95568],[-172,-54.16911],[-171.5,-54.3802],[-171,-54.58893],[-170.5,-54.79527],[-170,-54.99921],[-169.5,-55.20072],[-169,-55.3998],[-168.5,-55.59642],[-168,-55.79058],[-167.5,-55.98226],[-167,-56.17147],[-166.5,-56.35819],[-166,-56.54242],[-165.5,-56.72417],[-165,-56.90343],[-164.5,-57.0802],[-164,-57.25448],[-163.5,-57.42629],[-163,-57.59562],[-162.5,-57.76249],[-162,-57.9269],[-161.5,-58.08886],[-161,-58.24838],[-160.5,-58.40548],[-160,-58.56016],[-159.5,-58.71244],[-159,-58.86233],[-158.5,-59.00985],[-158,-59.15501],[-157.5,-59.29783],[-157,-59.43832],[-156.5,-59.5765],[-156,-59.71239],[-155.5,-59.846],[-155,-59.97736],[-154.5,-60.10648],[-154,-60.23337],[-153.5,-60.35806],[-153,-60.48057],[-152.5,-60.60091],[-152,-60.7191],[-151.5,-60.83517],[-151,-60.94912],[-150.5,-61.06099],[-150,-61.17078],[-149.5,-61.27852],[-149,-61.38422],[-148.5,-61.48791],[-148,-61.58961],[-147.5,-61.68932],[-147,-61.78708],[-146.5,-61.88289],[-146,-61.97678],[-145.5,-62.06876],[-145,-62.15885],[-144.5,-62.24708],[-144,-62.33344],[-143.5,-62.41798],[-143,-62.50069],[-142.5,-62.5816],[-142,-62.66073],[-141.5,-62.73808],[-141,-62.81368],[-140.5,-62.88754],[-140,-62.95968],[-139.5,-63.03011],[-139,-63.09884],[-138.5,-63.1659],[-138,-63.23129],[-137.5,-63.29504],[-137,-63.35714],[-136.5,-63.41763],[-136,-63.4765],[-135.5,-63.53378],[-135,-63.58948],[-134.5,-63.6436],[-134,-63.69617],[-133.5,-63.74719],[-133,-63.79667],[-132.5,-63.84463],[-132,-63.89108],[-131.5,-63.93602],[-131,-63.97948],[-130.5,-64.02145],[-130,-64.06196],[-129.5,-64.101],[-129,-64.13859],[-128.5,-64.17474],[-128,-64.20946],[-127.5,-64.24275],[-127,-64.27463],[-126.5,-64.3051],[-126,-64.33417],[-125.5,-64.36186],[-125,-64.38815],[-124.5,-64.41308],[-124,-64.43663],[-123.5,-64.45882],[-123,-64.47965],[-122.5,-64.49914],[-122,-64.51728],[-121.5,-64.53409],[-121,-64.54957],[-120.5,-64.56372],[-120,-64.57655],[-119.5,-64.58806],[-119,-64.59826],[-118.5,-64.60716],[-118,-64.61476],[-117.5,-64.62106],[-117,-64.62607],[-116.5,-64.62979],[-116,-64.63223],[-115.5,-64.63338],[-115,-64.63326],[-114.5,-64.63186],[-114,-64.62919],[-113.5,-64.62524],[-113,-64.62004],[-112.5,-64.61357],[-112,-64.60583],[-111.5,-64.59684],[-111,-64.58659],[-110.5,-64.57508],[-110,-64.56232],[-109.5,-64.5483],[-109,-64.53304],[-108.5,-64.51652],[-108,-64.49875],[-107.5,-64.47974],[-107,-64.45948],[-106.5,-64.43797],[-106,-64.41521],[-105.5,-64.39121],[-105,-64.36596],[-104.5,-64.33946],[-104,-64.31172],[-103.5,-64.28273],[-103,-64.2525],[-102.5,-64.22102],[-102,-64.18829],[-101.5,-64.15432],[-101,-64.11909],[-100.5,-64.08262],[-100,-64.0449],[-99.5,-64.00593],[-99,-63.9657],[-98.5,-63.92423],[-98,-63.8815],[-97.5,-63.83751],[-97,-63.79227],[-96.5,-63.74578],[-96,-63.69802],[-95.5,-63.64901],[-95,-63.59873],[-94.5,-63.54719],[-94,-63.49439],[-93.5,-63.44032],[-93,-63.38499],[-93,-63.38498],[-92.5,-63.32838],[-92,-63.27051],[-91.5,-63.21137],[-91,-63.15095],[-90.5,-63.08926],[-90,-63.0263],[-89.5,-62.96205],[-89,-62.89654],[-89,-62.89653],[-88.5,-62.82974],[-88,-62.76166],[-87.5,-62.6923],[-87,-62.62165],[-86.5,-62.54972],[-86,-62.47651],[-85.5,-62.40201],[-85,-62.32623],[-84.5,-62.24916],[-84,-62.1708],[-83.5,-62.09115],[-83,-62.01022],[-82.5,-61.92799],[-82,-61.84448],[-81.5,-61.75968],[-81,-61.67359],[-80.5,-61.58621],[-80,-61.49754],[-79.5,-61.40759],[-79,-61.31635],[-78.5,-61.22383],[-78,-61.13002],[-77.5,-61.03493],[-77,-60.93857],[-76.5,-60.84092],[-76,-60.74199],[-75.5,-60.6418],[-75,-60.54033],[-74.5,-60.43759],[-74,-60.33359],[-73.5,-60.22833],[-73,-60.12181],[-72.5,-60.01404],[-72,-59.90502],[-71.5,-59.79475],[-71,-59.68324],[-70.5,-59.5705],[-70,-59.45653],[-69.5,-59.34133],[-69,-59.22492],[-68.5,-59.10729],[-68,-58.98847],[-67.5,-58.86844],[-67,-58.74723],[-66.5,-58.62483],[-66,-58.50126],[-65.5,-58.37652],[-65,-58.25063],[-64.5,-58.12359],[-64,-57.99542],[-63.5,-57.86611],[-63,-57.73569],[-62.5,-57.60416],[-62,-57.47153],[-61.5,-57.33782],[-61,-57.20304],[-60.5,-57.06719],[-60,-56.93029],[-59.5,-56.79236],[-59,-56.6534],[-58.5,-56.51344],[-58,-56.37248],[-57.5,-56.23053],[-57,-56.08762],[-56.5,-55.94375],[-56,-55.79894],[-55.5,-55.65321],[-55,-55.50657],[-54.5,-55.35904],[-54,-55.21063],[-53.5,-55.06136],[-53,-54.91125],[-52.5,-54.7603],[-52,-54.60855],[-51.5,-54.45601],[-51,-54.30269],[-50.5,-54.14862],[-50,-53.9938],[-49.5,-53.83827],[-49,-53.68203],[-48.5,-53.52511],[-48,-53.36752],[-47.5,-53.20928],[-47,-53.05041],[-46.70299,-52.96754]]}},{"type":"Feature","id":"+05791104:south:0","properties":{"id":"+05791104","year":579,"month":11,"day":4,"time_tdt":"22:31:45","type":"개기일식","type_code":"T","saros":81,"gamma":-0.69912,"magnitude":1.03435,"greatest":{"lat":-59.40375,"lng":-157.1236},"path_width_km":162.1,"duration":"02m24s","delta_t_seconds":4907.2,"catalog_number":6139,"source":"NASA Five Millennium Canon of Solar Eclipses","source_url":"https://eclipse.gsfc.nasa.gov/SEsearch/SEsearchmap.php?Ecl=%2B05791104","boundary":"south","name":"579-11-04 개기일식"},"geometry":{"type":"LineString","coordinates":[[136.87695,-31.8413],[137,-31.87904],[137.5,-32.03364],[138,-32.1903],[138.5,-32.34901],[139,-32.5098],[139.5,-32.67266],[140,-32.83761],[140.5,-33.00465],[141,-33.17381],[141.5,-33.34507],[142,-33.51846],[142.5,-33.69397],[143,-33.87161],[143.5,-34.0514],[144,-34.23332],[144.5,-34.4174],[145,-34.60362],[145.5,-34.792],[146,-34.98253],[146.5,-35.17521],[147,-35.37005],[147.5,-35.56704],[148,-35.76618],[148.5,-35.96746],[149,-36.17089],[149.5,-36.37644],[150,-36.58412],[150.5,-36.79392],[151,-37.00582],[151.5,-37.21981],[152,-37.43587],[152.5,-37.654],[153,-37.87417],[153.5,-38.09636],[154,-38.32056],[154.5,-38.54673],[155,-38.77485],[155.5,-39.00489],[156,-39.23682],[156.5,-39.47062],[157,-39.70624],[157.5,-39.94365],[158,-40.1828],[158.5,-40.42366],[159,-40.66618],[159.5,-40.91032],[160,-41.15601],[160.5,-41.40322],[161,-41.65189],[161.5,-41.90195],[162,-42.15335],[162.5,-42.40603],[163,-42.65992],[163.5,-42.91495],[164,-43.17106],[164.5,-43.42816],[165,-43.68619],[165.5,-43.94507],[166,-44.20471],[166.5,-44.46505],[167,-44.72599],[167.5,-44.98745],[168,-45.24934],[168.5,-45.51158],[169,-45.77407],[169.5,-46.03674],[170,-46.29947],[170.5,-46.56219],[171,-46.8248],[171.5,-47.08721],[172,-47.34932],[172.5,-47.61104],[173,-47.87228],[173.5,-48.13294],[174,-48.39293],[174.5,-48.65217],[175,-48.91056],[175.5,-49.16801],[176,-49.42443],[176.5,-49.67974],[177,-49.93386],[177.5,-50.1867],[178,-50.43818],[178.5,-50.68822],[179,-50.93675],[179.5,-51.18369],[180,-51.42897]]}},{"type":"Feature","id":"+05791104:south:1","properties":{"id":"+05791104","year":579,"month":11,"day":4,"time_tdt":"22:31:45","type":"개기일식","type_code":"T","saros":81,"gamma":-0.69912,"magnitude":1.03435,"greatest":{"lat":-59.40375,"lng":-157.1236},"path_width_km":162.1,"duration":"02m24s","delta_t_seconds":4907.2,"catalog_number":6139,"source":"NASA Five Millennium Canon of Solar Eclipses","source_url":"https://eclipse.gsfc.nasa.gov/SEsearch/SEsearchmap.php?Ecl=%2B05791104","boundary":"south","name":"579-11-04 개기일식"},"geometry":{"type":"LineString","coordinates":[[-179.5,-51.67253],[-179,-51.9143],[-178.5,-52.15422],[-178,-52.39222],[-177.5,-52.62825],[-177,-52.86226],[-176.5,-53.09419],[-176,-53.32399],[-175.5,-53.55163],[-175,-53.77706],[-174.5,-54.00024],[-174,-54.22113],[-173.5,-54.4397],[-173,-54.65592],[-172.5,-54.86976],[-172,-55.08119],[-171.5,-55.2902],[-171,-55.49676],[-170.5,-55.70086],[-170,-55.90248],[-169.5,-56.10161],[-169,-56.29823],[-168.5,-56.49234],[-168,-56.68393],[-167.5,-56.873],[-167,-57.05955],[-166.5,-57.24356],[-166,-57.42506],[-165.5,-57.60403],[-165,-57.78048],[-164.5,-57.95441],[-164,-58.12584],[-163.5,-58.29477],[-163,-58.46121],[-162.5,-58.62517],[-162,-58.78667],[-161.5,-58.9457],[-161,-59.1023],[-160.5,-59.25646],[-160,-59.40821],[-159.5,-59.55756],[-159,-59.70453],[-158.5,-59.84913],[-158,-59.99138],[-157.5,-60.1313],[-157,-60.26891],[-156.5,-60.40422],[-156,-60.53725],[-155.5,-60.66802],[-155,-60.79656],[-154.5,-60.92287],[-154,-61.04698],[-153.5,-61.16891],[-153,-61.28868],[-152.5,-61.40631],[-152,-61.52182],[-151.5,-61.63522],[-151,-61.74654],[-150.5,-61.85579],[-150,-61.96301],[-149.5,-62.06819],[-149,-62.17137],[-148.5,-62.27257],[-148,-62.3718],[-147.5,-62.46908],[-147,-62.56443],[-146.5,-62.65787],[-146,-62.74941],[-145.5,-62.83908],[-145,-62.9269],[-144.5,-63.01288],[-144.5,-63.01287],[-144,-63.09703],[-143.5,-63.17938],[-143,-63.25994],[-142.5,-63.33874],[-142,-63.41577],[-141.5,-63.49108],[-141.5,-63.49107],[-141,-63.56465],[-140.5,-63.63653],[-140.5,-63.63652],[-140,-63.70671],[-139.5,-63.77521],[-139,-63.84206],[-138.5,-63.90725],[-138,-63.97082],[-137.5,-64.03277],[-137,-64.09311],[-136.5,-64.15186],[-136,-64.20904],[-135.5,-64.26465],[-135,-64.3187],[-134.5,-64.37122],[-134,-64.42221],[-133.5,-64.47169],[-133,-64.51966],[-132.5,-64.56613],[-132,-64.61112],[-131.5,-64.65465],[-131,-64.69671],[-130.5,-64.73732],[-130,-64.77648],[-129.5,-64.81422],[-129,-64.85053],[-128.5,-64.88543],[-128,-64.91893],[-127.5,-64.95103],[-127,-64.98174],[-126.5,-65.01108],[-126,-65.03904],[-125.5,-65.06564],[-125,-65.09088],[-124.5,-65.11477],[-124,-65.13732],[-123.5,-65.15853],[-123,-65.17841],[-122.5,-65.19697],[-122,-65.21421],[-121.5,-65.23014],[-121,-65.24476],[-120.5,-65.25808],[-120,-65.27011],[-119.5,-65.28084],[-119,-65.29029],[-118.5,-65.29845],[-118,-65.30534],[-117.5,-65.31095],[-117,-65.31529],[-116.5,-65.31836],[-116,-65.32017],[-115.5,-65.32072],[-115,-65.32002],[-114.5,-65.31805],[-114,-65.31484],[-113.5,-65.31038],[-113,-65.30467],[-112.5,-65.29771],[-112,-65.28951],[-111.5,-65.28007],[-111,-65.26939],[-110.5,-65.25748],[-110,-65.24432],[-109.5,-65.22993],[-109,-65.2143],[-108.5,-65.19744],[-108,-65.17935],[-107.5,-65.16002],[-107,-65.13946],[-106.5,-65.11767],[-106,-65.09465],[-105.5,-65.07039],[-105,-65.0449],[-104.5,-65.01818],[-104,-64.99022],[-103.5,-64.96103],[-103,-64.93061],[-102.5,-64.89895],[-102,-64.86605],[-101.5,-64.83192],[-101,-64.79654],[-100.5,-64.75993],[-100,-64.72208],[-99.5,-64.68299],[-99,-64.64265],[-98.5,-64.60107],[-98,-64.55824],[-97.5,-64.51416],[-97,-64.46883],[-96.5,-64.42225],[-96,-64.37442],[-95.5,-64.32533],[-95,-64.27499],[-94.5,-64.22338],[-94,-64.17052],[-93.5,-64.11639],[-93,-64.06099],[-92.5,-64.00433],[-92,-63.9464],[-91.5,-63.8872],[-91,-63.82672],[-90.5,-63.76497],[-90,-63.70194],[-89.5,-63.63763],[-89,-63.57204],[-88.5,-63.50516],[-88,-63.437],[-87.5,-63.36755],[-87,-63.29681],[-86.5,-63.22478],[-86,-63.15146],[-85.5,-63.07685],[-85,-63.00093],[-84.5,-62.92372],[-84,-62.84522],[-83.5,-62.76541],[-83,-62.6843],[-82.5,-62.60189],[-82,-62.51818],[-81.5,-62.43316],[-81,-62.34684],[-80.5,-62.25921],[-80,-62.17028],[-79.5,-62.08005],[-79,-61.98851],[-78.5,-61.89567],[-78,-61.80152],[-77.5,-61.70607],[-77,-61.60932],[-76.5,-61.51127],[-76,-61.41191],[-75.5,-61.31127],[-75,-61.20932],[-74.5,-61.10608],[-74,-61.00155],[-73.5,-60.89573],[-73,-60.78862],[-72.5,-60.68024],[-72,-60.57057],[-71.5,-60.45963],[-71,-60.34742],[-70.5,-60.23394],[-70,-60.1192],[-69.5,-60.0032],[-69,-59.88595],[-68.5,-59.76746],[-68,-59.64773],[-67.5,-59.52676],[-67,-59.40457],[-66.5,-59.28117],[-66,-59.15655],[-65.5,-59.03072],[-65,-58.90371],[-64.5,-58.7755],[-64,-58.64613],[-63.5,-58.51558],[-63,-58.38387],[-62.5,-58.25102],[-62,-58.11703],[-61.5,-57.98192],[-61,-57.84569],[-60.5,-57.70836],[-60,-57.56994],[-59.5,-57.43044],[-59,-57.28987],[-58.5,-57.14825],[-58,-57.0056],[-57.5,-56.86191],[-57.5,-56.86192],[-57,-56.71722],[-56.5,-56.57154],[-56,-56.42487],[-55.5,-56.27723],[-55,-56.12865],[-54.5,-55.97913],[-54,-55.82869],[-53.5,-55.67736],[-53,-55.52513],[-52.5,-55.37204],[-52,-55.21811],[-51.5,-55.06333],[-51,-54.90775],[-50.5,-54.75137],[-50,-54.59421],[-49.5,-54.43629],[-49,-54.27763],[-48.5,-54.11825],[-48,-53.95817],[-47.5,-53.7974],[-47,-53.63598],[-46.5,-53.47391],[-46.16797,-53.36593]]}}],"attribution":"Eclipse Predictions by Fred Espenak and Jean Meeus (NASA's GSFC)","generated_at":"2026-09-23T01:44:53.087Z"}
