{"type":"FeatureCollection","year":583,"events":[{"id":"+05830228","year":583,"month":2,"day":28,"time_tdt":"01:37:28","type":"개기일식","type_code":"T","saros":78,"gamma":0.60923,"magnitude":1.03285,"greatest":{"lat":28.66887,"lng":167.81274},"path_width_km":138.7,"duration":"02m55s","delta_t_seconds":4875.6,"catalog_number":6148,"source":"NASA Five Millennium Canon of Solar Eclipses","source_url":"https://eclipse.gsfc.nasa.gov/SEsearch/SEsearchmap.php?Ecl=%2B05830228"},{"id":"+05830823","year":583,"month":8,"day":23,"time_tdt":"04:44:22","type":"금환일식","type_code":"A","saros":83,"gamma":-0.75288,"magnitude":0.9834,"greatest":{"lat":-36.05427,"lng":115.17957},"path_width_km":88.6,"duration":"01m38s","delta_t_seconds":4871,"catalog_number":6149,"source":"NASA Five Millennium Canon of Solar Eclipses","source_url":"https://eclipse.gsfc.nasa.gov/SEsearch/SEsearchmap.php?Ecl=%2B05830823"}],"features":[{"type":"Feature","id":"+05830228:north:0","properties":{"id":"+05830228","year":583,"month":2,"day":28,"time_tdt":"01:37:28","type":"개기일식","type_code":"T","saros":78,"gamma":0.60923,"magnitude":1.03285,"greatest":{"lat":28.66887,"lng":167.81274},"path_width_km":138.7,"duration":"02m55s","delta_t_seconds":4875.6,"catalog_number":6148,"source":"NASA Five Millennium Canon of Solar Eclipses","source_url":"https://eclipse.gsfc.nasa.gov/SEsearch/SEsearchmap.php?Ecl=%2B05830228","boundary":"north","name":"583-02-28 개기일식"},"geometry":{"type":"LineString","coordinates":[[113.08008,21.00044],[113.5,20.94845],[114,20.88774],[114.5,20.82835],[115,20.77029],[115.5,20.7136],[116,20.65829],[116.5,20.6044],[117,20.55194],[117.5,20.50094],[118,20.45143],[118.5,20.40343],[119,20.35697],[119.5,20.31209],[120,20.2688],[120.5,20.22714],[121,20.18714],[121.5,20.14882],[122,20.11221],[122.5,20.07736],[123,20.04428],[123.5,20.01302],[124,19.9836],[124.5,19.95605],[125,19.93043],[125.5,19.90675],[126,19.88505],[126.5,19.86537],[127,19.84775],[127.5,19.83222],[128,19.81883],[128.5,19.80761],[129,19.7986],[129.5,19.79184],[130,19.78738],[130.5,19.78526],[131,19.78552],[131.5,19.78819],[132,19.79334],[132.5,19.801],[133,19.81122],[133.5,19.82405],[134,19.83953],[134.5,19.85771],[135,19.87864],[135.5,19.90237],[136,19.92895],[136.5,19.95844],[137,19.99088],[137.5,20.02633],[138,20.06484],[138.5,20.10646],[139,20.15124],[139.5,20.19925],[140,20.25054],[140.5,20.30516],[141,20.36317],[141.5,20.42462],[142,20.48958],[142.5,20.55809],[143,20.63022],[143.5,20.70601],[144,20.78553],[144.5,20.86884],[145,20.95598],[145.5,21.04701],[146,21.14199],[146.5,21.24096],[147,21.34398],[147.5,21.45111],[148,21.56238],[148.5,21.67785],[149,21.79756],[149.5,21.92155],[150,22.04986],[150.5,22.18254],[151,22.31961],[151.5,22.46111],[152,22.60707],[152.5,22.7575],[153,22.91243],[153.5,23.07188],[154,23.23585],[154.5,23.40435],[155,23.57738],[155.5,23.75493],[156,23.93699],[156.5,24.12354],[157,24.31456],[157.5,24.51002],[158,24.70987],[158.5,24.91407],[159,25.12256],[159.5,25.33529],[160,25.55218],[160.5,25.77316],[161,25.99814],[161.5,26.22703],[162,26.45973],[162.5,26.69614],[163,26.93613],[163.5,27.17958],[164,27.42637],[164.5,27.67636],[165,27.92941],[165.5,28.18537],[166,28.44409],[166.5,28.70541],[167,28.96918],[167.5,29.23523],[168,29.50338],[168.5,29.77348],[169,30.04535],[169.5,30.31882],[170,30.59371],[170.5,30.86986],[171,31.14709],[171.5,31.42524],[172,31.70413],[172.5,31.9836],[173,32.26348],[173.5,32.54363],[174,32.82388],[174.5,33.10408],[175,33.38408],[175.5,33.66374],[176,33.94294],[176.5,34.22152],[177,34.49937],[177.5,34.77637],[178,35.0524],[178.5,35.32735],[179,35.60112],[179.5,35.87361],[180,36.14472]]}},{"type":"Feature","id":"+05830228:north:1","properties":{"id":"+05830228","year":583,"month":2,"day":28,"time_tdt":"01:37:28","type":"개기일식","type_code":"T","saros":78,"gamma":0.60923,"magnitude":1.03285,"greatest":{"lat":28.66887,"lng":167.81274},"path_width_km":138.7,"duration":"02m55s","delta_t_seconds":4875.6,"catalog_number":6148,"source":"NASA Five Millennium Canon of Solar Eclipses","source_url":"https://eclipse.gsfc.nasa.gov/SEsearch/SEsearchmap.php?Ecl=%2B05830228","boundary":"north","name":"583-02-28 개기일식"},"geometry":{"type":"LineString","coordinates":[[-179.5,36.41437],[-179,36.68248],[-178.5,36.94896],[-178,37.21375],[-177.5,37.47679],[-177,37.738],[-176.5,37.99733],[-176,38.25474],[-175.5,38.51016],[-175,38.76357],[-174.5,39.01491],[-174,39.26415],[-173.5,39.51127],[-173,39.75622],[-172.5,39.99899],[-172,40.23955],[-171.5,40.47789],[-171,40.71398],[-170.5,40.94782],[-170,41.17938],[-169.5,41.40867],[-169,41.63568],[-168.5,41.86039],[-168,42.08281],[-167.5,42.30294],[-167,42.52078],[-166.5,42.73632],[-166,42.94957],[-165.5,43.16054],[-165,43.36924],[-164.5,43.57566],[-164,43.77982],[-163.5,43.98173],[-163,44.18139],[-162.5,44.37883],[-162,44.57404],[-161.5,44.76704],[-161,44.95785],[-160.5,45.14647],[-160,45.33292],[-159.5,45.51722],[-159,45.69938],[-158.5,45.87942],[-158,46.05735],[-157.5,46.23318],[-157,46.40693],[-156.5,46.57862],[-156,46.74827],[-155.5,46.91589],[-155,47.08149],[-154.5,47.2451],[-154,47.40673],[-153.5,47.5664],[-153,47.72411],[-152.5,47.8799],[-152,48.03378],[-151.5,48.18576],[-151,48.33586],[-150.5,48.4841],[-150,48.63049],[-149.5,48.77506],[-149,48.91781],[-148.5,49.05876],[-148,49.19793],[-147.5,49.33533],[-147,49.47099],[-146.5,49.60491],[-146,49.73712],[-145.5,49.86762],[-145,49.99643],[-144.5,50.12358],[-144,50.24907],[-143.5,50.37291],[-143,50.49513],[-142.5,50.61574],[-142,50.73475],[-141.5,50.85217],[-141,50.96803],[-140.5,51.08233],[-140,51.19509],[-139.5,51.30632],[-139,51.41604],[-138.5,51.52426],[-138,51.63099],[-137.5,51.73624],[-137,51.84004],[-136.5,51.94238],[-136,52.04329],[-135.5,52.14277],[-135,52.24084],[-134.5,52.33751],[-134,52.43279],[-133.5,52.52669],[-133,52.61923],[-132.5,52.71041],[-132,52.80025],[-131.5,52.88876],[-131,52.97595],[-130.5,53.06183],[-130,53.14641],[-129.5,53.2297],[-129,53.31171],[-128.5,53.39245],[-128,53.47194],[-127.5,53.55017],[-127,53.62717],[-126.5,53.70293],[-126,53.77748],[-125.5,53.85081],[-125,53.92295],[-124.5,53.99389],[-124,54.06364],[-123.5,54.13223],[-123,54.19964],[-122.5,54.2659],[-122,54.33101],[-121.67578,54.37261]]}},{"type":"Feature","id":"+05830228:center:0","properties":{"id":"+05830228","year":583,"month":2,"day":28,"time_tdt":"01:37:28","type":"개기일식","type_code":"T","saros":78,"gamma":0.60923,"magnitude":1.03285,"greatest":{"lat":28.66887,"lng":167.81274},"path_width_km":138.7,"duration":"02m55s","delta_t_seconds":4875.6,"catalog_number":6148,"source":"NASA Five Millennium Canon of Solar Eclipses","source_url":"https://eclipse.gsfc.nasa.gov/SEsearch/SEsearchmap.php?Ecl=%2B05830228","boundary":"center","name":"583-02-28 개기일식"},"geometry":{"type":"LineString","coordinates":[[113.12881,20.64157],[113.5,20.599],[114,20.53542],[114.5,20.47314],[115,20.41217],[115.5,20.35254],[116,20.29428],[116.5,20.23741],[117,20.18195],[117.5,20.12793],[118,20.07538],[118.5,20.02431],[119,19.97477],[119.5,19.92677],[120,19.88035],[120.5,19.83553],[121,19.79235],[121.5,19.75082],[122,19.71099],[122.5,19.67288],[123,19.63652],[123.5,19.60196],[124,19.56921],[124.5,19.53831],[125,19.50931],[125.5,19.48222],[126,19.45709],[126.5,19.43396],[127,19.41286],[127.5,19.39382],[128,19.37689],[128.5,19.36211],[129,19.34951],[129.5,19.33914],[130,19.33103],[130.5,19.32524],[131,19.32179],[131.5,19.32074],[132,19.32213],[132.5,19.32601],[133,19.33241],[133.5,19.3414],[134,19.35301],[134.5,19.36729],[135,19.3843],[135.5,19.40407],[136,19.42667],[136.5,19.45214],[137,19.48054],[137.5,19.51192],[138,19.54633],[138.5,19.58382],[139,19.62446],[139.5,19.66829],[140,19.71537],[140.5,19.76576],[141,19.81951],[141.5,19.87668],[142,19.93732],[142.5,20.00151],[143,20.06928],[143.5,20.1407],[144,20.21583],[144.5,20.29472],[145,20.37743],[145.5,20.46401],[146,20.55453],[146.5,20.64903],[147,20.74757],[147.5,20.85021],[148,20.95699],[148.5,21.06796],[149,21.18317],[149.5,21.30268],[150,21.42651],[150.5,21.55471],[151,21.68733],[151.5,21.82439],[152,21.96594],[152.5,22.11199],[153,22.26257],[153.5,22.4177],[154,22.57741],[154.5,22.74169],[155,22.91055],[155.5,23.084],[156,23.26203],[156.5,23.44462],[157,23.63177],[157.5,23.82343],[158,24.01959],[158.5,24.2202],[159,24.42521],[159.5,24.63457],[160,24.84822],[160.5,25.06609],[161,25.2881],[161.5,25.51416],[162,25.74418],[162.5,25.97806],[163,26.21569],[163.5,26.45695],[164,26.70173],[164.5,26.94988],[165,27.20127],[165.5,27.45576],[166,27.71319],[166.5,27.97342],[167,28.23629],[167.5,28.50163],[168,28.76928],[168.5,29.03906],[169,29.3108],[169.5,29.58434],[170,29.8595],[170.5,30.13609],[171,30.41396],[171.5,30.69292],[172,30.9728],[172.5,31.25343],[173,31.53465],[173.5,31.81629],[174,32.09818],[174.5,32.38018],[175,32.66213],[175.5,32.94387],[176,33.22528],[176.5,33.5062],[177,33.78651],[177.5,34.06607],[178,34.34478],[178.5,34.6225],[179,34.89913],[179.5,35.17456],[180,35.4487]]}},{"type":"Feature","id":"+05830228:center:1","properties":{"id":"+05830228","year":583,"month":2,"day":28,"time_tdt":"01:37:28","type":"개기일식","type_code":"T","saros":78,"gamma":0.60923,"magnitude":1.03285,"greatest":{"lat":28.66887,"lng":167.81274},"path_width_km":138.7,"duration":"02m55s","delta_t_seconds":4875.6,"catalog_number":6148,"source":"NASA Five Millennium Canon of Solar Eclipses","source_url":"https://eclipse.gsfc.nasa.gov/SEsearch/SEsearchmap.php?Ecl=%2B05830228","boundary":"center","name":"583-02-28 개기일식"},"geometry":{"type":"LineString","coordinates":[[-179.5,35.72145],[-179,35.99273],[-178.5,36.26244],[-178,36.53052],[-177.5,36.79689],[-177,37.06148],[-176.5,37.32424],[-176,37.5851],[-175.5,37.84402],[-175,38.10094],[-174.5,38.35583],[-174,38.60863],[-173.5,38.85932],[-173,39.10786],[-172.5,39.35423],[-172,39.5984],[-171.5,39.84035],[-171,40.08005],[-170.5,40.3175],[-170,40.55267],[-169.5,40.78556],[-169,41.01616],[-168.5,41.24446],[-168,41.47046],[-167.5,41.69415],[-167,41.91553],[-166.5,42.13461],[-166,42.35138],[-165.5,42.56585],[-165,42.77803],[-164.5,42.98791],[-164,43.19552],[-163.5,43.40085],[-163,43.60392],[-162.5,43.80473],[-162,44.0033],[-161.5,44.19963],[-161,44.39375],[-160.5,44.58566],[-160,44.77538],[-159.5,44.96293],[-159,45.1483],[-158.5,45.33153],[-158,45.51263],[-157.5,45.69161],[-157,45.86848],[-156.5,46.04327],[-156,46.21599],[-155.5,46.38665],[-155,46.55528],[-154.5,46.72189],[-154,46.88649],[-153.5,47.0491],[-153,47.20975],[-152.5,47.36844],[-152,47.5252],[-151.5,47.68004],[-151,47.83297],[-150.5,47.98402],[-150,48.13319],[-149.5,48.28052],[-149,48.42601],[-148.5,48.56968],[-148,48.71154],[-147.5,48.85162],[-147,48.98993],[-146.5,49.12648],[-146,49.2613],[-145.5,49.39439],[-145,49.52577],[-144.5,49.65546],[-144,49.78348],[-143.5,49.90983],[-143,50.03453],[-142.5,50.15761],[-142,50.27906],[-141.5,50.39892],[-141,50.51718],[-140.5,50.63387],[-140,50.749],[-139.5,50.86259],[-139,50.97464],[-138.5,51.08517],[-138,51.1942],[-137.5,51.30173],[-137,51.40779],[-136.5,51.51238],[-136,51.61551],[-135.5,51.71721],[-135,51.81747],[-134.5,51.91632],[-134,52.01377],[-133.5,52.10982],[-133,52.20449],[-132.5,52.29779],[-132,52.38973],[-131.5,52.48032],[-131,52.56958],[-130.5,52.65752],[-130,52.74414],[-129.5,52.82946],[-129,52.91348],[-128.5,52.99622],[-128,53.07769],[-127.5,53.1579],[-127,53.23685],[-126.5,53.31456],[-126,53.39104],[-125.5,53.46629],[-125,53.54033],[-124.5,53.61316],[-124,53.6848],[-123.5,53.75525],[-123,53.82452],[-122.5,53.89262],[-122,53.95956],[-121.71352,54.06694]]}},{"type":"Feature","id":"+05830228:south:0","properties":{"id":"+05830228","year":583,"month":2,"day":28,"time_tdt":"01:37:28","type":"개기일식","type_code":"T","saros":78,"gamma":0.60923,"magnitude":1.03285,"greatest":{"lat":28.66887,"lng":167.81274},"path_width_km":138.7,"duration":"02m55s","delta_t_seconds":4875.6,"catalog_number":6148,"source":"NASA Five Millennium Canon of Solar Eclipses","source_url":"https://eclipse.gsfc.nasa.gov/SEsearch/SEsearchmap.php?Ecl=%2B05830228","boundary":"south","name":"583-02-28 개기일식"},"geometry":{"type":"LineString","coordinates":[[113.25,20.28531],[113.5,20.25162],[114,20.1852],[114.5,20.12005],[115,20.0562],[115.5,19.99366],[116,19.93247],[116.5,19.87265],[117,19.81422],[117.5,19.75721],[118,19.70164],[118.5,19.64754],[119,19.59493],[119.5,19.54385],[120,19.49433],[120.5,19.44638],[121,19.40004],[121.5,19.35534],[122,19.31231],[122.5,19.27098],[123,19.23137],[123.5,19.19354],[124,19.15749],[124.5,19.12328],[125,19.09093],[125.5,19.06047],[126,19.03195],[126.5,19.0054],[127,18.98085],[127.5,18.95834],[128,18.93791],[128.5,18.91961],[129,18.90346],[129.5,18.88951],[130,18.8778],[130.5,18.86837],[131,18.86127],[131.5,18.85653],[132,18.85421],[132.5,18.85434],[133,18.85698],[133.5,18.86216],[134,18.86995],[134.5,18.88038],[135,18.8935],[135.5,18.90936],[136,18.92802],[136.5,18.94953],[137,18.97393],[137.5,19.00129],[138,19.03164],[138.5,19.06506],[139,19.10159],[139.5,19.14128],[140,19.1842],[140.5,19.2304],[141,19.27994],[141.5,19.33287],[142,19.38925],[142.5,19.44915],[143,19.51261],[143.5,19.5797],[144,19.65047],[144.5,19.72499],[145,19.8033],[145.5,19.88548],[146,19.97157],[146.5,20.06164],[147,20.15573],[147.5,20.25391],[148,20.35622],[148.5,20.46272],[149,20.57346],[149.5,20.68849],[150,20.80785],[150.5,20.9316],[151,21.05977],[151.5,21.1924],[152,21.32952],[152.5,21.47118],[153,21.6174],[153.5,21.76821],[154,21.92362],[154.5,22.08366],[155,22.24833],[155.5,22.41763],[156,22.59158],[156.5,22.77017],[157,22.95338],[157.5,23.14119],[158,23.33358],[158.5,23.53052],[159,23.73196],[159.5,23.93787],[160,24.14817],[160.5,24.36283],[161,24.58175],[161.5,24.80486],[162,25.03208],[162.5,25.26331],[163,25.49845],[163.5,25.73738],[164,25.97999],[164.5,26.22615],[165,26.47573],[165.5,26.72859],[166,26.98459],[166.5,27.24357],[167,27.50538],[167.5,27.76986],[168,28.03684],[168.5,28.30614],[169,28.57761],[169.5,28.85106],[170,29.12633],[170.5,29.40322],[171,29.68158],[171.5,29.96121],[172,30.24195],[172.5,30.52361],[173,30.80603],[173.5,31.08904],[174,31.37247],[174.5,31.65616],[175,31.93995],[175.5,32.22368],[176,32.50721],[176.5,32.79039],[177,33.07307],[177.5,33.35513],[178,33.63644],[178.5,33.91688],[179,34.19632],[179.5,34.47465],[180,34.75178]]}},{"type":"Feature","id":"+05830228:south:1","properties":{"id":"+05830228","year":583,"month":2,"day":28,"time_tdt":"01:37:28","type":"개기일식","type_code":"T","saros":78,"gamma":0.60923,"magnitude":1.03285,"greatest":{"lat":28.66887,"lng":167.81274},"path_width_km":138.7,"duration":"02m55s","delta_t_seconds":4875.6,"catalog_number":6148,"source":"NASA Five Millennium Canon of Solar Eclipses","source_url":"https://eclipse.gsfc.nasa.gov/SEsearch/SEsearchmap.php?Ecl=%2B05830228","boundary":"south","name":"583-02-28 개기일식"},"geometry":{"type":"LineString","coordinates":[[-179.5,35.02759],[-179,35.302],[-178.5,35.57492],[-178,35.84626],[-177.5,36.11595],[-177,36.38392],[-176.5,36.65009],[-176,36.91441],[-175.5,37.17681],[-175,37.43726],[-174.5,37.69569],[-174,37.95206],[-173.5,38.20634],[-173,38.45849],[-172.5,38.70847],[-172,38.95627],[-171.5,39.20184],[-171,39.44518],[-170.5,39.68626],[-170,39.92507],[-169.5,40.16158],[-169,40.39581],[-168.5,40.62772],[-168,40.85732],[-167.5,41.0846],[-167,41.30956],[-166.5,41.53221],[-166,41.75253],[-165.5,41.97053],[-165,42.18622],[-164.5,42.39961],[-164,42.61069],[-163.5,42.81947],[-163,43.02598],[-162.5,43.2302],[-162,43.43216],[-161.5,43.63187],[-161,43.82933],[-160.5,44.02457],[-160,44.21759],[-159.5,44.4084],[-159,44.59703],[-158.5,44.78349],[-158,44.96779],[-157.5,45.14994],[-157,45.32997],[-156.5,45.50789],[-156,45.68371],[-155.5,45.85745],[-155,46.02913],[-154.5,46.19877],[-154,46.36638],[-153.5,46.53198],[-153,46.69558],[-152.5,46.8572],[-152,47.01687],[-151.5,47.17459],[-151,47.33039],[-150.5,47.48427],[-150,47.63626],[-149.5,47.78638],[-149,47.93464],[-148.5,48.08105],[-148,48.22564],[-147.5,48.36842],[-147,48.50941],[-146.5,48.64861],[-146,48.78606],[-145.5,48.92177],[-145,49.05574],[-144.5,49.188],[-144,49.31857],[-143.5,49.44745],[-143,49.57466],[-142.5,49.70023],[-142,49.82415],[-141.5,49.94645],[-141,50.06715],[-140.5,50.18625],[-140,50.30377],[-139.5,50.41973],[-139,50.53414],[-138.5,50.64701],[-138,50.75835],[-137.5,50.86819],[-137,50.97653],[-136.5,51.08338],[-136,51.18877],[-135.5,51.29269],[-135,51.39517],[-134.5,51.49622],[-134,51.59584],[-133.5,51.69406],[-133,51.79088],[-132.5,51.88631],[-132,51.98037],[-131.5,52.07307],[-131,52.16442],[-130.5,52.25443],[-130,52.3431],[-129.5,52.43046],[-129,52.51652],[-128.5,52.60127],[-128,52.68474],[-127.5,52.76694],[-127,52.84786],[-126.5,52.92753],[-126,53.00596],[-125.5,53.08314],[-125,53.1591],[-124.5,53.23384],[-124,53.30737],[-123.5,53.3797],[-123,53.45084],[-122.5,53.5208],[-122,53.58959],[-121.59766,53.64409]]}},{"type":"Feature","id":"+05830823:north:0","properties":{"id":"+05830823","year":583,"month":8,"day":23,"time_tdt":"04:44:22","type":"금환일식","type_code":"A","saros":83,"gamma":-0.75288,"magnitude":0.9834,"greatest":{"lat":-36.05427,"lng":115.17957},"path_width_km":88.6,"duration":"01m38s","delta_t_seconds":4871,"catalog_number":6149,"source":"NASA Five Millennium Canon of Solar Eclipses","source_url":"https://eclipse.gsfc.nasa.gov/SEsearch/SEsearchmap.php?Ecl=%2B05830823","boundary":"north","name":"583-08-23 금환일식"},"geometry":{"type":"LineString","coordinates":[[65.2168,-32.38743],[65.5,-32.33258],[66,-32.23667],[66.5,-32.14194],[67,-32.04843],[67.5,-31.95616],[68,-31.86516],[68.5,-31.77545],[69,-31.68707],[69.5,-31.60005],[70,-31.51442],[70.5,-31.4302],[71,-31.34743],[71.5,-31.26614],[72,-31.18637],[72.5,-31.10815],[73,-31.03151],[73.5,-30.9565],[74,-30.88314],[74.5,-30.81147],[75,-30.74153],[75.5,-30.67337],[76,-30.60701],[76.5,-30.54251],[77,-30.47989],[77.5,-30.41922],[78,-30.36052],[78.5,-30.30385],[79,-30.24924],[79.5,-30.19675],[80,-30.14643],[80.5,-30.09831],[81,-30.05246],[81.5,-30.00892],[82,-29.96775],[82.5,-29.92899],[83,-29.8927],[83.5,-29.85894],[84,-29.82776],[84.5,-29.79922],[85,-29.77338],[85.5,-29.7503],[86,-29.73004],[86.5,-29.71266],[87,-29.69822],[87.5,-29.68679],[88,-29.67844],[88.5,-29.67322],[89,-29.67121],[89.5,-29.67247],[90,-29.67708],[90.5,-29.6851],[91,-29.69661],[91.5,-29.71167],[92,-29.73036],[92.5,-29.75276],[93,-29.77892],[93.5,-29.80894],[94,-29.84287],[94.5,-29.8808],[95,-29.9228],[95.5,-29.96895],[96,-30.01931],[96.5,-30.07395],[97,-30.13297],[97.5,-30.19641],[98,-30.26436],[98.5,-30.33687],[99,-30.41403],[99.5,-30.49589],[100,-30.58251],[100.5,-30.67395],[101,-30.77028],[101.5,-30.87154],[102,-30.97779],[102.5,-31.08907],[103,-31.20541],[103.5,-31.32686],[104,-31.45345],[104.5,-31.58521],[105,-31.72214],[105.5,-31.86427],[106,-32.01161],[106.5,-32.16414],[107,-32.32186],[107.5,-32.48476],[108,-32.65281],[108.5,-32.82597],[109,-33.00421],[109.5,-33.18747],[110,-33.3757],[110.5,-33.56882],[111,-33.76676],[111.5,-33.96943],[112,-34.17673],[112.5,-34.38857],[113,-34.60482],[113.5,-34.82537],[114,-35.05008],[114.5,-35.27883],[115,-35.51145],[115.5,-35.74781],[116,-35.98775],[116.5,-36.2311],[117,-36.4777],[117.5,-36.72737],[118,-36.97995],[118.5,-37.23524],[119,-37.49308],[119.5,-37.75328],[120,-38.01566],[120.5,-38.28003],[121,-38.54622],[121.5,-38.81405],[122,-39.08333],[122.5,-39.35389],[123,-39.62556],[123.5,-39.89816],[124,-40.17153],[124.5,-40.44551],[125,-40.71995],[125.5,-40.99468],[126,-41.26956],[126.5,-41.54444],[127,-41.8192],[127.5,-42.0937],[128,-42.3678],[128.5,-42.6414],[129,-42.91438],[129.5,-43.18663],[130,-43.45804],[130.5,-43.72851],[131,-43.99796],[131.5,-44.2663],[132,-44.53344],[132.5,-44.79931],[133,-45.06384],[133.5,-45.32695],[134,-45.58859],[134.5,-45.84869],[135,-46.10721],[135.5,-46.36409],[136,-46.61929],[136.5,-46.87277],[137,-47.12448],[137.5,-47.37439],[138,-47.62247],[138.5,-47.86869],[139,-48.11303],[139.5,-48.35545],[140,-48.59595],[140.5,-48.8345],[141,-49.07108],[141.5,-49.30568],[142,-49.5383],[142.5,-49.76891],[143,-49.99752],[143.5,-50.22411],[144,-50.44869],[144.5,-50.67124],[145,-50.89177],[145.5,-51.11027],[146,-51.32675],[146.5,-51.54121],[147,-51.75364],[147.5,-51.96407],[148,-52.17248],[148.5,-52.37888],[149,-52.58329],[149.5,-52.78571],[150,-52.98614],[150.5,-53.18459],[151,-53.38108],[151.5,-53.57561],[152,-53.76819],[152.5,-53.95883],[153,-54.14754],[153.5,-54.33434],[154,-54.51924],[154.5,-54.70224],[155,-54.88335],[155.5,-55.0626],[156,-55.23999],[156.5,-55.41554],[157,-55.58926],[157.5,-55.76115],[158,-55.93124],[158.5,-56.09953],[159,-56.26605],[159.5,-56.4308],[160,-56.59379],[160.5,-56.75504],[161,-56.91457],[161.5,-57.07238],[162,-57.22849],[162.5,-57.38292],[163,-57.53567],[163.5,-57.68676],[164,-57.8362],[164.5,-57.98401],[165,-58.13019],[165.5,-58.27477],[166,-58.41776],[166.5,-58.55916],[167,-58.69899],[167.5,-58.83727],[168,-58.97401],[168.5,-59.10921],[169,-59.2429],[169.5,-59.37508],[170,-59.50577],[170.5,-59.63498],[171,-59.76272],[171.5,-59.88901],[172,-60.01385],[172.5,-60.13726],[173,-60.25926],[173.5,-60.37984],[174,-60.49903],[174.5,-60.61683],[175,-60.73326],[175.5,-60.84833],[176,-60.96205],[176.5,-61.07443],[177,-61.18548],[177.5,-61.29521],[178,-61.40364],[178.5,-61.51077],[179,-61.61662],[179.42383,-61.70534]]}},{"type":"Feature","id":"+05830823:center:0","properties":{"id":"+05830823","year":583,"month":8,"day":23,"time_tdt":"04:44:22","type":"금환일식","type_code":"A","saros":83,"gamma":-0.75288,"magnitude":0.9834,"greatest":{"lat":-36.05427,"lng":115.17957},"path_width_km":88.6,"duration":"01m38s","delta_t_seconds":4871,"catalog_number":6149,"source":"NASA Five Millennium Canon of Solar Eclipses","source_url":"https://eclipse.gsfc.nasa.gov/SEsearch/SEsearchmap.php?Ecl=%2B05830823","boundary":"center","name":"583-08-23 금환일식"},"geometry":{"type":"LineString","coordinates":[[65.20592,-32.9928],[65.5,-32.95492],[66,-32.85618],[66.5,-32.75862],[67,-32.66228],[67.5,-32.56718],[68,-32.47336],[68.5,-32.38083],[69,-32.28964],[69.5,-32.19981],[70,-32.11136],[70.5,-32.02434],[71,-31.93878],[71.5,-31.8547],[72,-31.77215],[72.5,-31.69115],[73,-31.61174],[73.5,-31.53396],[74,-31.45784],[74.5,-31.38342],[75,-31.31075],[75.5,-31.23985],[76,-31.17078],[76.5,-31.10357],[77,-31.03826],[77.5,-30.9749],[78,-30.91352],[78.5,-30.85419],[79,-30.79694],[79.5,-30.74182],[80,-30.68887],[80.5,-30.63816],[81,-30.58972],[81.5,-30.54361],[82,-30.49989],[82.5,-30.4586],[83,-30.4198],[83.5,-30.38354],[84,-30.3499],[84.5,-30.31891],[85,-30.29064],[85.5,-30.26516],[86,-30.24252],[86.5,-30.22279],[87,-30.20603],[87.5,-30.19231],[88,-30.18169],[88.5,-30.17423],[89,-30.17002],[89.5,-30.16912],[90,-30.17159],[90.5,-30.17751],[91,-30.18695],[91.5,-30.19998],[92,-30.21668],[92.5,-30.23713],[93,-30.26139],[93.5,-30.28953],[94,-30.32165],[94.5,-30.35781],[95,-30.39808],[95.5,-30.44254],[96,-30.49127],[96.5,-30.54435],[97,-30.60183],[97.5,-30.66381],[98,-30.73034],[98.5,-30.8015],[99,-30.87735],[99.5,-30.95797],[100,-31.04341],[100.5,-31.13374],[101,-31.22902],[101.5,-31.32929],[102,-31.43462],[102.5,-31.54504],[103,-31.6606],[103.5,-31.78134],[104,-31.90728],[104.5,-32.03846],[105,-32.17489],[105.5,-32.31659],[106,-32.46357],[106.5,-32.61581],[107,-32.77333],[107.5,-32.93609],[108,-33.10407],[108.5,-33.27725],[109,-33.45557],[109.5,-33.639],[110,-33.82746],[110.5,-34.02089],[111,-34.2192],[111.5,-34.42232],[112,-34.63015],[112.5,-34.84258],[113,-35.05949],[113.5,-35.28076],[114,-35.50627],[114.5,-35.73586],[115,-35.96941],[115.5,-36.20675],[116,-36.44773],[116.5,-36.69218],[117,-36.93993],[117.5,-37.19081],[118,-37.44465],[118.5,-37.70126],[119,-37.96045],[119.5,-38.22206],[120,-38.4859],[120.5,-38.75177],[121,-39.0195],[121.5,-39.28891],[122,-39.55981],[122.5,-39.83203],[123,-40.10539],[123.5,-40.37971],[124,-40.65485],[124.5,-40.93062],[125,-41.20686],[125.5,-41.48344],[126,-41.76019],[126.5,-42.03697],[127,-42.31364],[127.5,-42.59008],[128,-42.86615],[128.5,-43.14173],[129,-43.4167],[129.5,-43.69096],[130,-43.9644],[130.5,-44.23692],[131,-44.50843],[131.5,-44.77883],[132,-45.04805],[132.5,-45.31602],[133,-45.58264],[133.5,-45.84786],[134,-46.11162],[134.5,-46.37385],[135,-46.6345],[135.5,-46.89352],[136,-47.15086],[136.5,-47.40647],[137,-47.66033],[137.5,-47.91239],[138,-48.16262],[138.5,-48.41099],[139,-48.65748],[139.5,-48.90206],[140,-49.1447],[140.5,-49.3854],[141,-49.62412],[141.5,-49.86087],[142,-50.09563],[142.5,-50.32838],[143,-50.55911],[143.5,-50.78783],[144,-51.01453],[144.5,-51.2392],[145,-51.46184],[145.5,-51.68244],[146,-51.90102],[146.5,-52.11757],[147,-52.33208],[147.5,-52.54458],[148,-52.75506],[148.5,-52.96352],[149,-53.16998],[149.5,-53.37443],[150,-53.57689],[150.5,-53.77737],[151,-53.97586],[151.5,-54.17239],[152,-54.36696],[152.5,-54.55959],[153,-54.75027],[153.5,-54.93903],[154,-55.12587],[154.5,-55.31081],[155,-55.49385],[155.5,-55.67501],[156,-55.8543],[156.5,-56.03174],[157,-56.20733],[157.5,-56.3811],[158,-56.55304],[158.5,-56.72318],[159,-56.89152],[159.5,-57.05809],[160,-57.22289],[160.5,-57.38594],[161,-57.54725],[161.5,-57.70683],[162,-57.8647],[162.5,-58.02087],[163,-58.17535],[163.5,-58.32816],[164,-58.47931],[164.5,-58.62882],[165,-58.77669],[165.5,-58.92294],[166,-59.06759],[166.5,-59.21064],[167,-59.35211],[167.5,-59.49201],[168,-59.63036],[168.5,-59.76717],[169,-59.90244],[169.5,-60.0362],[170,-60.16846],[170.5,-60.29923],[171,-60.42851],[171.5,-60.55633],[172,-60.68269],[172.5,-60.80762],[173,-60.93111],[173.5,-61.05318],[174,-61.17385],[174.5,-61.29312],[175,-61.411],[175.5,-61.52752],[176,-61.64267],[176.5,-61.75648],[177,-61.86895],[177.5,-61.98009],[178,-62.08991],[178.5,-62.19843],[179,-62.30566],[178.83367,-62.44457]]}},{"type":"Feature","id":"+05830823:south:0","properties":{"id":"+05830823","year":583,"month":8,"day":23,"time_tdt":"04:44:22","type":"금환일식","type_code":"A","saros":83,"gamma":-0.75288,"magnitude":0.9834,"greatest":{"lat":-36.05427,"lng":115.17957},"path_width_km":88.6,"duration":"01m38s","delta_t_seconds":4871,"catalog_number":6149,"source":"NASA Five Millennium Canon of Solar Eclipses","source_url":"https://eclipse.gsfc.nasa.gov/SEsearch/SEsearchmap.php?Ecl=%2B05830823","boundary":"south","name":"583-08-23 금환일식"},"geometry":{"type":"LineString","coordinates":[[65.12305,-33.66241],[65.5,-33.58503],[66,-33.48342],[66.5,-33.383],[67,-33.28379],[67.5,-33.18584],[68,-33.08916],[68.5,-32.99378],[69,-32.89974],[69.5,-32.80707],[70,-32.71579],[70.5,-32.62594],[71,-32.53755],[71.5,-32.45065],[72,-32.36528],[72.5,-32.28148],[73,-32.19927],[73.5,-32.1187],[74,-32.0398],[74.5,-31.96261],[75,-31.88717],[75.5,-31.81353],[76,-31.74171],[76.5,-31.67177],[77,-31.60374],[77.5,-31.53767],[78,-31.47361],[78.5,-31.41159],[79,-31.35168],[79.5,-31.29391],[80,-31.23833],[80.5,-31.185],[81,-31.13396],[81.5,-31.08527],[82,-31.03898],[82.5,-30.99514],[83,-30.95382],[83.5,-30.91507],[84,-30.87894],[84.5,-30.8455],[85,-30.8148],[85.5,-30.78691],[86,-30.76189],[86.5,-30.73981],[87,-30.72072],[87.5,-30.7047],[88,-30.69181],[88.5,-30.68213],[89,-30.67571],[89.5,-30.67264],[90,-30.67298],[90.5,-30.6768],[91,-30.68419],[91.5,-30.6952],[92,-30.70992],[92.5,-30.72843],[93,-30.75079],[93.5,-30.77709],[94,-30.80741],[94.5,-30.84181],[95,-30.88037],[95.5,-30.92318],[96,-30.9703],[96.5,-31.02182],[97,-31.07781],[97.5,-31.13834],[98,-31.20349],[98.5,-31.27332],[99,-31.34791],[99.5,-31.42733],[100,-31.51163],[100.5,-31.60088],[101,-31.69515],[101.5,-31.79448],[102,-31.89893],[102.5,-32.00854],[103,-32.12337],[103.5,-32.24344],[104,-32.36879],[104.5,-32.49945],[105,-32.63544],[105.5,-32.77677],[106,-32.92345],[106.5,-33.07547],[107,-33.23284],[107.5,-33.39554],[108,-33.56353],[108.5,-33.73679],[109,-33.91527],[109.5,-34.09893],[110,-34.2877],[110.5,-34.48151],[111,-34.68029],[111.5,-34.88394],[112,-35.09237],[112.5,-35.30546],[113,-35.52312],[113.5,-35.7452],[114,-35.97159],[114.5,-36.20213],[115,-36.43668],[115.5,-36.67509],[116,-36.91719],[116.5,-37.16283],[117,-37.41183],[117.5,-37.66401],[118,-37.9192],[118.5,-38.17721],[119,-38.43786],[119.5,-38.70097],[120,-38.96635],[120.5,-39.23382],[121,-39.50318],[121.5,-39.77426],[122,-40.04687],[122.5,-40.32083],[123,-40.59598],[123.5,-40.87212],[124,-41.1491],[124.5,-41.42674],[125,-41.7049],[125.5,-41.9834],[126,-42.26211],[126.5,-42.54087],[127,-42.81955],[127.5,-43.098],[128,-43.37611],[128.5,-43.65376],[129,-43.93081],[129.5,-44.20716],[130,-44.48271],[130.5,-44.75735],[131,-45.031],[131.5,-45.30355],[132,-45.57493],[132.5,-45.84506],[133,-46.11386],[133.5,-46.38127],[134,-46.64722],[134.5,-46.91164],[135,-47.17449],[135.5,-47.43571],[136,-47.69526],[136.5,-47.95309],[137,-48.20916],[137.5,-48.46344],[138,-48.71588],[138.5,-48.96647],[139,-49.21517],[139.5,-49.46195],[140,-49.70681],[140.5,-49.94971],[141,-50.19064],[141.5,-50.42959],[142,-50.66653],[142.5,-50.90147],[143,-51.1344],[143.5,-51.3653],[144,-51.59416],[144.5,-51.82099],[145,-52.04579],[145.5,-52.26855],[146,-52.48926],[146.5,-52.70794],[147,-52.92459],[147.5,-53.1392],[148,-53.35178],[148.5,-53.56234],[149,-53.77088],[149.5,-53.97741],[150,-54.18194],[150.5,-54.38446],[151,-54.585],[151.5,-54.78356],[152,-54.98015],[152.5,-55.17478],[153,-55.36746],[153.5,-55.5582],[154,-55.74702],[154.5,-55.93391],[155,-56.1189],[155.5,-56.30199],[156,-56.48321],[156.5,-56.66255],[157,-56.84004],[157.5,-57.01568],[158,-57.18949],[158.5,-57.36148],[159,-57.53167],[159.5,-57.70006],[160,-57.86668],[160.5,-58.03153],[161,-58.19462],[161.5,-58.35598],[162,-58.5156],[162.5,-58.67352],[163,-58.82973],[163.5,-58.98426],[164,-59.13712],[164.5,-59.28832],[165,-59.43787],[165.5,-59.58578],[166,-59.73208],[166.5,-59.87677],[167,-60.01986],[167.5,-60.16138],[168,-60.30133],[168.5,-60.43972],[169,-60.57657],[169.5,-60.71189],[170,-60.84569],[170.5,-60.97799],[171,-61.1088],[171.5,-61.23813],[172,-61.36599],[172.5,-61.4924],[173,-61.61736],[173.5,-61.74089],[174,-61.86301],[174.5,-61.98372],[175,-62.10303],[175.5,-62.22096],[176,-62.33752],[176.5,-62.45272],[177,-62.56657],[177.5,-62.67908],[178.5,-62.90013],[178,-62.79026],[178.375,-62.87279]]}}],"attribution":"Eclipse Predictions by Fred Espenak and Jean Meeus (NASA's GSFC)","generated_at":"2026-09-23T01:44:53.009Z"}
