{"type":"FeatureCollection","year":588,"events":[{"id":"+05880531","year":588,"month":5,"day":31,"time_tdt":"03:31:10","type":"금환일식","type_code":"A","saros":95,"gamma":0.43032,"magnitude":0.94779,"greatest":{"lat":47.05373,"lng":137.41632},"path_width_km":212.5,"duration":"05m18s","delta_t_seconds":4825.5,"catalog_number":6161,"source":"NASA Five Millennium Canon of Solar Eclipses","source_url":"https://eclipse.gsfc.nasa.gov/SEsearch/SEsearchmap.php?Ecl=%2B05880531"},{"id":"+05881124","year":588,"month":11,"day":24,"time_tdt":"08:16:26","type":"개기일식","type_code":"T","saros":100,"gamma":-0.64904,"magnitude":1.039,"greatest":{"lat":-59.32969,"lng":53.06195},"path_width_km":171.8,"duration":"02m38s","delta_t_seconds":4820.9,"catalog_number":6162,"source":"NASA Five Millennium Canon of Solar Eclipses","source_url":"https://eclipse.gsfc.nasa.gov/SEsearch/SEsearchmap.php?Ecl=%2B05881124"}],"features":[{"type":"Feature","id":"+05880531:north:0","properties":{"id":"+05880531","year":588,"month":5,"day":31,"time_tdt":"03:31:10","type":"금환일식","type_code":"A","saros":95,"gamma":0.43032,"magnitude":0.94779,"greatest":{"lat":47.05373,"lng":137.41632},"path_width_km":212.5,"duration":"05m18s","delta_t_seconds":4825.5,"catalog_number":6161,"source":"NASA Five Millennium Canon of Solar Eclipses","source_url":"https://eclipse.gsfc.nasa.gov/SEsearch/SEsearchmap.php?Ecl=%2B05880531","boundary":"north","name":"588-05-31 금환일식"},"geometry":{"type":"LineString","coordinates":[[77.44141,12.00013],[77.5,12.02403],[78,12.22941],[78.5,12.43747],[79,12.64823],[79.5,12.86172],[80,13.07798],[80.5,13.29702],[81,13.51889],[81.5,13.7436],[82,13.97118],[82.5,14.20167],[83,14.4351],[83.5,14.67148],[84,14.91086],[84.5,15.15325],[85,15.39869],[85.5,15.64721],[86,15.89882],[86.5,16.15356],[87,16.41145],[87.5,16.67252],[88,16.93679],[88.5,17.20428],[89,17.47502],[89.5,17.74903],[90,18.02633],[90.5,18.30692],[91,18.59084],[91.5,18.8781],[92,19.1687],[92.5,19.46266],[93,19.75998],[93.5,20.06068],[94,20.36475],[94.5,20.67219],[95,20.983],[95.5,21.29717],[96,21.61468],[96.5,21.93554],[97,22.2597],[97.5,22.58715],[98,22.91786],[98.5,23.2518],[99,23.58891],[99.5,23.92916],[100,24.2725],[100.5,24.61885],[101,24.96817],[101.5,25.32036],[102,25.67536],[102.5,26.03306],[103,26.39339],[103.5,26.75622],[104,27.12146],[104.5,27.48896],[105,27.85862],[105.5,28.23028],[106,28.60381],[106.5,28.97904],[107,29.35582],[107.5,29.73396],[108,30.1133],[108.5,30.49364],[109,30.8748],[109.5,31.25656],[110,31.63873],[110.5,32.02109],[111,32.40343],[111.5,32.78552],[112,33.16714],[112.5,33.54807],[113,33.92807],[113.5,34.30693],[114,34.68441],[114.5,35.06029],[115,35.43434],[115.5,35.80635],[116,36.17609],[116.5,36.54336],[117,36.90795],[117.5,37.26966],[118,37.62831],[118.5,37.9837],[119,38.33566],[119.5,38.68402],[120,39.02864],[120.5,39.36935],[121,39.70603],[121.5,40.03855],[122,40.36678],[122.5,40.69062],[123,41.00998],[123.5,41.32477],[124,41.6349],[124.5,41.94032],[125,42.24096],[125.5,42.53677],[126,42.82771],[126.5,43.11375],[127,43.39486],[127.5,43.67103],[128,43.94224],[128.5,44.20849],[129,44.46977],[129.5,44.72611],[130,44.9775],[130.5,45.22398],[131,45.46555],[131.5,45.70224],[132,45.93409],[132.5,46.16113],[133,46.38339],[133.5,46.60091],[134,46.81374],[134.5,47.0219],[135,47.22546],[135.5,47.42446],[136,47.61894],[136.5,47.80895],[137,47.99454],[137.5,48.17577],[138,48.35268],[138.5,48.52532],[139,48.69375],[139.5,48.85802],[140,49.01817],[140.5,49.17426],[141,49.32635],[141.5,49.47447],[142,49.61869],[142.5,49.75904],[143,49.89559],[143.5,50.02838],[144,50.15745],[144.5,50.28285],[145,50.40464],[145.5,50.52285],[146,50.63752],[146.5,50.74872],[147,50.85647],[147.5,50.96081],[148,51.0618],[148.5,51.15947],[149,51.25386],[149.5,51.345],[150,51.43294],[150.5,51.51772],[151,51.59936],[151.5,51.6779],[152,51.75338],[152.5,51.82583],[153,51.89528],[153.5,51.96177],[154,52.02531],[154.5,52.08595],[155,52.14371],[155.5,52.19862],[156,52.25071],[156.5,52.3],[157,52.34652],[157.5,52.39028],[158,52.43133],[158.5,52.46967],[159,52.50534],[159.5,52.53834],[160,52.56871],[160.5,52.59647],[161,52.62162],[161.5,52.6442],[162,52.66422],[162.5,52.6817],[163,52.69665],[163.5,52.70909],[164,52.71903],[164.5,52.7265],[165,52.7315],[165.5,52.73406],[166,52.73417],[166.5,52.73186],[167,52.72714],[167.5,52.72002],[168,52.71052],[168.5,52.69863],[169,52.68438],[169.5,52.66777],[170,52.64881],[170.5,52.62752],[171,52.6039],[171.5,52.57796],[172,52.5497],[172.5,52.51914],[173,52.48629],[173.5,52.45115],[174,52.41372],[174.5,52.37402],[175,52.33205],[175.5,52.28782],[176,52.24133],[176.5,52.19259],[177,52.14161],[177.5,52.08838],[178,52.03293],[178.5,51.97524],[179,51.91533],[179.5,51.8532],[180,51.78886]]}},{"type":"Feature","id":"+05880531:north:1","properties":{"id":"+05880531","year":588,"month":5,"day":31,"time_tdt":"03:31:10","type":"금환일식","type_code":"A","saros":95,"gamma":0.43032,"magnitude":0.94779,"greatest":{"lat":47.05373,"lng":137.41632},"path_width_km":212.5,"duration":"05m18s","delta_t_seconds":4825.5,"catalog_number":6161,"source":"NASA Five Millennium Canon of Solar Eclipses","source_url":"https://eclipse.gsfc.nasa.gov/SEsearch/SEsearchmap.php?Ecl=%2B05880531","boundary":"north","name":"588-05-31 금환일식"},"geometry":{"type":"LineString","coordinates":[[-179.5,51.72231],[-179,51.65355],[-178.5,51.5826],[-178,51.50945],[-177.5,51.43411],[-177,51.35659],[-176.5,51.27688],[-176,51.195],[-175.5,51.11095],[-175,51.02474],[-174.5,50.93636],[-174,50.84569],[-173.5,50.75315],[-173,50.65833],[-172.5,50.56137],[-172,50.46228],[-171.5,50.36106],[-171,50.25772],[-170.5,50.15228],[-170,50.04472],[-169.5,49.93507],[-169,49.82333],[-168.5,49.7095],[-168,49.5936],[-167.5,49.47564],[-167,49.35562],[-166.5,49.23355],[-166,49.10945],[-165.5,48.98332],[-165,48.85517],[-164.5,48.72502],[-164,48.59287],[-163.5,48.45874],[-163,48.32265],[-162.5,48.18459],[-162,48.0446],[-161.5,47.90268],[-161,47.75884],[-160.5,47.61311],[-160,47.46549],[-159.5,47.316],[-159,47.16467],[-158.5,47.0115],[-158,46.85652],[-157.5,46.69974],[-157,46.54119],[-156.5,46.38088],[-156,46.21883],[-155.5,46.05506],[-155,45.88959],[-154.5,45.72246],[-154,45.55367],[-153.5,45.38325],[-153,45.21122],[-152.5,45.03762],[-152,44.86245],[-151.5,44.68575],[-151,44.50755],[-150.5,44.32787],[-150,44.14673],[-149.5,43.96416],[-149,43.78019],[-148.5,43.59484],[-148,43.40815],[-147.5,43.22015],[-147,43.03085],[-146.5,42.8403],[-146,42.64851],[-145.5,42.45553],[-145,42.26137],[-144.5,42.06608],[-144,41.86967],[-143.5,41.67218],[-143,41.47365],[-142.5,41.2741],[-142,41.07356],[-141.5,40.87207],[-141,40.66965],[-140.5,40.46635],[-140,40.26218],[-139.5,40.05718],[-139,39.85138],[-138.5,39.64482],[-138,39.43752],[-137.5,39.22952],[-137,39.02085],[-136.5,38.81154],[-136,38.60161],[-135.5,38.39111],[-135,38.18006],[-134.5,37.96849],[-134,37.75643],[-133.5,37.54392],[-133,37.33097],[-132.5,37.11763]]}},{"type":"Feature","id":"+05880531:center:0","properties":{"id":"+05880531","year":588,"month":5,"day":31,"time_tdt":"03:31:10","type":"금환일식","type_code":"A","saros":95,"gamma":0.43032,"magnitude":0.94779,"greatest":{"lat":47.05373,"lng":137.41632},"path_width_km":212.5,"duration":"05m18s","delta_t_seconds":4825.5,"catalog_number":6161,"source":"NASA Five Millennium Canon of Solar Eclipses","source_url":"https://eclipse.gsfc.nasa.gov/SEsearch/SEsearchmap.php?Ecl=%2B05880531","boundary":"center","name":"588-05-31 금환일식"},"geometry":{"type":"LineString","coordinates":[[78.27057,10.88524],[78.5,10.96879],[79,11.17814],[79.5,11.39019],[80,11.60497],[80.5,11.82251],[81,12.04283],[81.5,12.26597],[82,12.49195],[82.5,12.72081],[83,12.95257],[83.5,13.18727],[84,13.42492],[84.5,13.66557],[85,13.90923],[85.5,14.15594],[86,14.40573],[86.5,14.65862],[87,14.91464],[87.5,15.17382],[88,15.43618],[88.5,15.70175],[89,15.97055],[89.5,16.24261],[90,16.51794],[90.5,16.79658],[91,17.07853],[91.5,17.36382],[92,17.65246],[92.5,17.94447],[93,18.23985],[93.5,18.53863],[94,18.8408],[94.5,19.14638],[95,19.45535],[95.5,19.76773],[96,20.08351],[96.5,20.40267],[97,20.72521],[97.5,21.0511],[98,21.38034],[98.5,21.71288],[99,22.04871],[99.5,22.38777],[100,22.73004],[100.5,23.07545],[101,23.42396],[101.5,23.77549],[102,24.12999],[102.5,24.48738],[103,24.84756],[103.5,25.21045],[104,25.57595],[104.5,25.94394],[105,26.31431],[105.5,26.68693],[106,27.06168],[106.5,27.43839],[107,27.81693],[107.5,28.19712],[108,28.5788],[108.5,28.9618],[109,29.34592],[109.5,29.73097],[110,30.11675],[110.5,30.50305],[111,30.88967],[111.5,31.27637],[112,31.66295],[112.5,32.04916],[113,32.43478],[113.5,32.81958],[114,33.20332],[114.5,33.58578],[115,33.96671],[115.5,34.34589],[116,34.72308],[116.5,35.09807],[117,35.47064],[117.5,35.84056],[118,36.20763],[118.5,36.57166],[119,36.93244],[119.5,37.28979],[120,37.64354],[120.5,37.99351],[121,38.33956],[121.5,38.68153],[122,39.01929],[122.5,39.35271],[123,39.68168],[123.5,40.0061],[124,40.32586],[124.5,40.64088],[125,40.95109],[125.5,41.25642],[126,41.55683],[126.5,41.85225],[127,42.14265],[127.5,42.42801],[128,42.70831],[128.5,42.98351],[129,43.25363],[129.5,43.51866],[130,43.7786],[130.5,44.03347],[131,44.28328],[131.5,44.52805],[132,44.76781],[132.5,45.00258],[133,45.2324],[133.5,45.45731],[134,45.67734],[134.5,45.89253],[135,46.10294],[135.5,46.30859],[136,46.50955],[136.5,46.70585],[137,46.89756],[137.5,47.08472],[138,47.26737],[138.5,47.44558],[139,47.6194],[139.5,47.78887],[140,47.95406],[140.5,48.11501],[141,48.27177],[141.5,48.42441],[142,48.57297],[142.5,48.7175],[143,48.85805],[143.5,48.99468],[144,49.12744],[144.5,49.25637],[145,49.38152],[145.5,49.50294],[146,49.62067],[146.5,49.73477],[147,49.84528],[147.5,49.95224],[148,50.05569],[148.5,50.15568],[149,50.25225],[149.5,50.34544],[150,50.43529],[150.5,50.52184],[151,50.60512],[151.5,50.68517],[152,50.76203],[152.5,50.83573],[153,50.90631],[153.5,50.97379],[154,51.03822],[154.5,51.09962],[155,51.15802],[155.5,51.21346],[156,51.26595],[156.5,51.31553],[157,51.36222],[157.5,51.40606],[158,51.44706],[158.5,51.48525],[159,51.52065],[159.5,51.55329],[160,51.58318],[160.5,51.61036],[161,51.63483],[161.5,51.65663],[162,51.67576],[162.5,51.69225],[163,51.70612],[163.5,51.71737],[164,51.72604],[164.5,51.73213],[165,51.73566],[165.5,51.73665],[166,51.7351],[166.5,51.73104],[167,51.72447],[167.5,51.71542],[168,51.70388],[168.5,51.68988],[169,51.67342],[169.5,51.65452],[170,51.63319],[170.5,51.60943],[171,51.58325],[171.5,51.55467],[172,51.5237],[172.5,51.49034],[173,51.4546],[173.5,51.41649],[174,51.37602],[174.5,51.33319],[175,51.28801],[175.5,51.24049],[176,51.19064],[176.5,51.13846],[177,51.08396],[177.5,51.02715],[178,50.96803],[178.5,50.9066],[179,50.84288],[179.5,50.77687],[180,50.70858]]}},{"type":"Feature","id":"+05880531:center:1","properties":{"id":"+05880531","year":588,"month":5,"day":31,"time_tdt":"03:31:10","type":"금환일식","type_code":"A","saros":95,"gamma":0.43032,"magnitude":0.94779,"greatest":{"lat":47.05373,"lng":137.41632},"path_width_km":212.5,"duration":"05m18s","delta_t_seconds":4825.5,"catalog_number":6161,"source":"NASA Five Millennium Canon of Solar Eclipses","source_url":"https://eclipse.gsfc.nasa.gov/SEsearch/SEsearchmap.php?Ecl=%2B05880531","boundary":"center","name":"588-05-31 금환일식"},"geometry":{"type":"LineString","coordinates":[[-179.5,50.63801],[-179,50.56516],[-178.5,50.49005],[-178,50.41268],[-177.5,50.33306],[-177,50.25118],[-176.5,50.16706],[-176,50.08071],[-175.5,49.99212],[-175,49.90131],[-174.5,49.80829],[-174,49.71305],[-173.5,49.61561],[-173,49.51597],[-172.5,49.41414],[-172,49.31013],[-171.5,49.20394],[-171,49.09559],[-170.5,48.98508],[-170,48.87242],[-169.5,48.75763],[-169,48.6407],[-168.5,48.52165],[-168,48.40049],[-167.5,48.27722],[-167,48.15187],[-166.5,48.02444],[-166,47.89495],[-165.5,47.7634],[-165,47.62981],[-164.5,47.49419],[-164,47.35656],[-163.5,47.21693],[-163,47.07531],[-162.5,46.93173],[-162,46.78618],[-161.5,46.63871],[-161,46.48931],[-160.5,46.338],[-160,46.18481],[-159.5,46.02976],[-159,45.87285],[-158.5,45.71412],[-158,45.55358],[-157.5,45.39125],[-157,45.22716],[-156.5,45.06132],[-156,44.89377],[-155.5,44.72451],[-155,44.55358],[-154.5,44.381],[-154,44.20679],[-153.5,44.03098],[-153,43.85359],[-152.5,43.67466],[-152,43.4942],[-151.5,43.31224],[-151,43.12882],[-150.5,42.94396],[-150,42.75768],[-149.5,42.57003],[-149,42.38101],[-148.5,42.19068],[-148,41.99904],[-147.5,41.80615],[-147,41.61202],[-146.5,41.41668],[-146,41.22017],[-145.5,41.02252],[-145,40.82376],[-144.5,40.62393],[-144,40.42304],[-143.5,40.22114],[-143,40.01826],[-142.5,39.81443],[-142,39.60967],[-141.5,39.40403],[-141,39.19754],[-140.5,38.99023],[-140,38.78212],[-139.5,38.57326],[-139,38.36367],[-138.5,38.15338],[-138,37.94244],[-137.5,37.73087],[-137,37.51869],[-136.5,37.30595],[-136,37.09267],[-135.5,36.87889],[-135,36.66463],[-134.5,36.44993],[-134,36.23482],[-133.5,36.01932],[-133.37239,35.96261]]}},{"type":"Feature","id":"+05880531:south:0","properties":{"id":"+05880531","year":588,"month":5,"day":31,"time_tdt":"03:31:10","type":"금환일식","type_code":"A","saros":95,"gamma":0.43032,"magnitude":0.94779,"greatest":{"lat":47.05373,"lng":137.41632},"path_width_km":212.5,"duration":"05m18s","delta_t_seconds":4825.5,"catalog_number":6161,"source":"NASA Five Millennium Canon of Solar Eclipses","source_url":"https://eclipse.gsfc.nasa.gov/SEsearch/SEsearchmap.php?Ecl=%2B05880531","boundary":"south","name":"588-05-31 금환일식"},"geometry":{"type":"LineString","coordinates":[[79.11133,9.77189],[79.5,9.93591],[80,10.14932],[80.5,10.36546],[81,10.58434],[81.5,10.80602],[82,11.0305],[82.5,11.25783],[83,11.48803],[83.5,11.72114],[84,11.95718],[84.5,12.19617],[85,12.43816],[85.5,12.68317],[86,12.93123],[86.5,13.18237],[87,13.43661],[87.5,13.69399],[88,13.95453],[88.5,14.21826],[89,14.48521],[89.5,14.7554],[90,15.02885],[90.5,15.30559],[91,15.58564],[91.5,15.86903],[92,16.15576],[92.5,16.44587],[93,16.73936],[93.5,17.03625],[94,17.33655],[94.5,17.64028],[95,17.94743],[95.5,18.25802],[96,18.57204],[96.5,18.88949],[97,19.21036],[97.5,19.53466],[98,19.86235],[98.5,20.19343],[99,20.52787],[99.5,20.86564],[100,21.20671],[100.5,21.55104],[101,21.89858],[101.5,22.24929],[102,22.6031],[102.5,22.95994],[103,23.31975],[103.5,23.68245],[104,24.04793],[104.5,24.41612],[105,24.7869],[105.5,25.16015],[106,25.53576],[106.5,25.91359],[107,26.2935],[107.5,26.67535],[108,27.05896],[108.5,27.44418],[109,27.83083],[109.5,28.21871],[110,28.60765],[110.5,28.99743],[111,29.38786],[111.5,29.77871],[112,30.16976],[112.5,30.56079],[113,30.95156],[113.5,31.34185],[114,31.73141],[114.5,32.12001],[115,32.5074],[115.5,32.89336],[116,33.27763],[116.5,33.65998],[117,34.04018],[117.5,34.418],[118,34.79322],[118.5,35.16561],[119,35.53498],[119.5,35.90111],[120,36.26381],[120.5,36.62289],[121,36.97818],[121.5,37.32952],[122,37.67674],[122.5,38.01969],[123,38.35826],[123.5,38.6923],[124,39.02172],[124.5,39.3464],[125,39.66625],[125.5,39.9812],[126,40.29116],[126.5,40.59609],[127,40.89592],[127.5,41.19062],[128,41.48015],[128.5,41.76449],[129,42.04362],[129.5,42.31752],[130,42.5862],[130.5,42.84966],[131,43.1079],[131.5,43.36094],[132,43.60881],[132.5,43.85152],[133,44.08911],[133.5,44.3216],[134,44.54904],[134.5,44.77145],[135,44.98889],[135.5,45.2014],[136,45.40902],[136.5,45.61181],[137,45.80981],[137.5,46.00306],[138,46.19164],[138.5,46.37558],[139,46.55494],[139.5,46.72978],[140,46.90014],[140.5,47.06609],[141,47.22768],[141.5,47.38495],[142,47.53798],[142.5,47.6868],[143,47.83148],[143.5,47.97206],[144,48.10859],[144.5,48.24114],[145,48.36975],[145.5,48.49446],[146,48.61533],[146.5,48.73241],[147,48.84574],[147.5,48.95538],[148,49.06135],[148.5,49.16372],[149,49.26252],[149.5,49.3578],[150,49.44959],[150.5,49.53794],[151,49.62289],[151.5,49.70448],[152,49.78274],[152.5,49.85771],[153,49.92943],[153.5,49.99792],[154,50.06323],[154.5,50.12539],[155,50.18443],[155.5,50.24038],[156,50.29327],[156.5,50.34313],[157,50.38998],[157.5,50.43386],[158,50.47479],[158.5,50.5128],[159,50.54791],[159.5,50.58015],[160,50.60953],[160.5,50.63609],[161,50.65984],[161.5,50.68081],[162,50.69901],[162.5,50.71446],[163,50.72719],[163.5,50.73721],[164,50.74454],[164.5,50.74919],[165,50.75119],[165.5,50.75054],[166,50.74727],[166.5,50.74139],[167,50.73291],[167.5,50.72185],[168,50.70822],[168.5,50.69202],[169,50.67329],[169.5,50.65201],[170,50.62822],[170.5,50.60192],[171,50.57311],[171.5,50.54181],[172,50.50804],[172.5,50.47179],[173,50.43308],[173.5,50.39191],[174,50.34831],[174.5,50.30226],[175,50.25379],[175.5,50.2029],[176,50.14959],[176.5,50.09389],[177,50.03578],[177.5,49.97529],[178,49.91241],[178.5,49.84716],[179,49.77954],[179.5,49.70956],[180,49.63723]]}},{"type":"Feature","id":"+05880531:south:1","properties":{"id":"+05880531","year":588,"month":5,"day":31,"time_tdt":"03:31:10","type":"금환일식","type_code":"A","saros":95,"gamma":0.43032,"magnitude":0.94779,"greatest":{"lat":47.05373,"lng":137.41632},"path_width_km":212.5,"duration":"05m18s","delta_t_seconds":4825.5,"catalog_number":6161,"source":"NASA Five Millennium Canon of Solar Eclipses","source_url":"https://eclipse.gsfc.nasa.gov/SEsearch/SEsearchmap.php?Ecl=%2B05880531","boundary":"south","name":"588-05-31 금환일식"},"geometry":{"type":"LineString","coordinates":[[-179.5,49.56255],[-179,49.48553],[-178.5,49.40617],[-178,49.32449],[-177.5,49.2405],[-177,49.15419],[-176.5,49.06557],[-176,48.97466],[-175.5,48.88146],[-175,48.78598],[-174.5,48.68822],[-174,48.5882],[-173.5,48.48592],[-173,48.3814],[-172.5,48.27463],[-172,48.16564],[-171.5,48.05442],[-171,47.94099],[-170.5,47.82536],[-170,47.70754],[-169.5,47.58755],[-169,47.46538],[-168.5,47.34106],[-168,47.21459],[-167.5,47.08599],[-167,46.95527],[-166.5,46.82245],[-166,46.68753],[-165.5,46.55054],[-165,46.41149],[-164.5,46.27039],[-164,46.12726],[-163.5,45.98211],[-163,45.83497],[-162.5,45.68585],[-162,45.53477],[-161.5,45.38174],[-161,45.22679],[-160.5,45.06994],[-160,44.9112],[-159.5,44.7506],[-159,44.58816],[-158.5,44.4239],[-158,44.25784],[-157.5,44.09001],[-157,43.92043],[-156.5,43.74913],[-156,43.57613],[-155.5,43.40145],[-155,43.22512],[-154.5,43.04717],[-154,42.86762],[-153.5,42.68651],[-153,42.50385],[-152.5,42.31968],[-152,42.13403],[-151.5,41.94692],[-151,41.75839],[-150.5,41.56846],[-150,41.37716],[-149.5,41.18454],[-149,40.9906],[-148.5,40.7954],[-148,40.59896],[-147.5,40.4013],[-147,40.20247],[-146.5,40.00249],[-146,39.80141],[-145.5,39.59924],[-145,39.39602],[-144.5,39.19179],[-144,38.98657],[-143.5,38.78042],[-143,38.57334],[-142.5,38.36538],[-142,38.15657],[-141.5,37.94694],[-141,37.73653],[-140.5,37.52537],[-140,37.31349],[-139.5,37.10092],[-139,36.8877],[-138.5,36.67386],[-138,36.45943],[-137.5,36.24444],[-137,36.02893],[-136.5,35.81292],[-136,35.59645],[-135.5,35.37954],[-135,35.16224],[-134.5,34.94456],[-134.41602,34.90796]]}},{"type":"Feature","id":"+05881124:north:0","properties":{"id":"+05881124","year":588,"month":11,"day":24,"time_tdt":"08:16:26","type":"개기일식","type_code":"T","saros":100,"gamma":-0.64904,"magnitude":1.039,"greatest":{"lat":-59.32969,"lng":53.06195},"path_width_km":171.8,"duration":"02m38s","delta_t_seconds":4820.9,"catalog_number":6162,"source":"NASA Five Millennium Canon of Solar Eclipses","source_url":"https://eclipse.gsfc.nasa.gov/SEsearch/SEsearchmap.php?Ecl=%2B05881124","boundary":"north","name":"588-11-24 개기일식"},"geometry":{"type":"LineString","coordinates":[[-5.5,-22.44911],[-5,-22.64747],[-4.5,-22.84884],[-4.5,-22.84883],[-4,-23.05323],[-3.5,-23.26069],[-3,-23.47124],[-2.5,-23.68491],[-2,-23.90173],[-1.5,-24.12173],[-1,-24.34494],[-0.5,-24.57138],[0,-24.8011],[0.5,-25.03411],[1,-25.27045],[1.5,-25.51013],[2,-25.7532],[2.5,-25.99966],[3,-26.24956],[3.5,-26.50291],[4,-26.75973],[4.5,-27.02006],[5,-27.2839],[5.5,-27.55128],[6,-27.82221],[6.5,-28.09672],[7,-28.37481],[7.5,-28.6565],[8,-28.9418],[8.5,-29.2307],[9,-29.52323],[9.5,-29.81937],[10,-30.11913],[10.5,-30.4225],[11,-30.72947],[11.5,-31.04003],[12,-31.35416],[12.5,-31.67184],[13,-31.99305],[13.5,-32.31775],[14,-32.6459],[14.5,-32.97747],[15,-33.31241],[15.5,-33.65066],[16,-33.99216],[16.5,-34.33685],[17,-34.68466],[17.5,-35.03549],[18,-35.38927],[18.5,-35.7459],[19,-36.10528],[19.5,-36.46729],[20,-36.83183],[20.5,-37.19875],[21,-37.56794],[21.5,-37.93925],[22,-38.31252],[22.5,-38.68761],[23,-39.06435],[23.5,-39.44257],[24,-39.8221],[24.5,-40.20275],[25,-40.58433],[25.5,-40.96665],[26,-41.34951],[26.5,-41.7327],[27,-42.11603],[27.5,-42.49929],[28,-42.88225],[28.5,-43.26473],[29,-43.64649],[29.5,-44.02733],[30,-44.40704],[30.5,-44.78541],[31,-45.16224],[31.5,-45.53733],[32,-45.91047],[32.5,-46.28148],[33,-46.65018],[33.5,-47.01637],[34,-47.37989],[34.5,-47.74058],[35,-48.09827],[35,-48.09826],[35.5,-48.45281],[36,-48.80407],[36.5,-49.15191],[37,-49.49621],[37.5,-49.83685],[38,-50.17372],[38.5,-50.50674],[39,-50.83581],[39.5,-51.16085],[40,-51.4818],[40.5,-51.79859],[41,-52.11116],[41.5,-52.41947],[42,-52.72349],[42.5,-53.02317],[43,-53.31851],[43.5,-53.60947],[44,-53.89605],[44.5,-54.17824],[45,-54.45604],[45.5,-54.72946],[46,-54.99851],[46.5,-55.2632],[47,-55.52356],[47.5,-55.77959],[48,-56.03134],[48.5,-56.27883],[49,-56.52209],[49.5,-56.76116],[50,-56.99608],[50.5,-57.22688],[51,-57.45361],[51.5,-57.6763],[52,-57.89501],[52.5,-58.10978],[53,-58.32065],[53,-58.32066],[53.5,-58.52768],[54,-58.73092],[54.5,-58.9304],[55,-59.12618],[55,-59.12619],[55.5,-59.31832],[56,-59.50686],[56.5,-59.69184],[57,-59.87333],[57.5,-60.05137],[58,-60.22601],[58.5,-60.39729],[59,-60.56528],[59.5,-60.73001],[60,-60.89154],[60.5,-61.04991],[61,-61.20517],[61.5,-61.35737],[62,-61.50655],[62.5,-61.65277],[63,-61.79605],[63.5,-61.93645],[64,-62.07401],[64.5,-62.20877],[65,-62.34078],[65.5,-62.47008],[66,-62.5967],[66.5,-62.72068],[67,-62.84207],[67.5,-62.96091],[68,-63.07722],[68.5,-63.19105],[69,-63.30243],[69.5,-63.4114],[70,-63.51799],[70.5,-63.62224],[71,-63.72417],[71.5,-63.82383],[72,-63.92123],[72.5,-64.01641],[72.5,-64.01642],[73,-64.10941],[73.5,-64.20025],[74,-64.28895],[74,-64.28896],[74.5,-64.37556],[75,-64.46008],[75.5,-64.54256],[76,-64.62301],[76.5,-64.70146],[76.5,-64.70147],[77,-64.77794],[77.5,-64.85247],[78,-64.92507],[78.5,-64.99576],[79,-65.06457],[79.5,-65.13152],[80,-65.19662],[80.5,-65.25991],[81,-65.32139],[81.5,-65.38109],[82,-65.43903],[82.5,-65.49522],[83,-65.54968],[83,-65.54969],[83.5,-65.60243],[84,-65.65349],[84.5,-65.70287],[85,-65.75058],[85.5,-65.79664],[86,-65.84107],[86.5,-65.88388],[87,-65.92508],[87.5,-65.96469],[88,-66.00271],[88.5,-66.03917],[89,-66.07406],[89.5,-66.10742],[90,-66.13923],[90.5,-66.16953],[91,-66.1983],[91.5,-66.22557],[92,-66.25135],[92.5,-66.27564],[93,-66.29845],[93.5,-66.31979],[94,-66.33967],[94.5,-66.35809],[95,-66.37507],[95.5,-66.3906],[96,-66.4047],[96.5,-66.41737],[97,-66.42861],[97.5,-66.43844],[98,-66.44686],[98.5,-66.45386],[99,-66.45946],[99.5,-66.46366],[100,-66.46647],[100.5,-66.46788],[101,-66.4679],[101.5,-66.46653],[102,-66.46378],[102.5,-66.45965],[103,-66.45413],[103.5,-66.44724],[104,-66.43897],[104.5,-66.42932],[105,-66.41829],[105.5,-66.40589],[106,-66.39211],[106.5,-66.37696],[107,-66.36043],[107.5,-66.34253],[108,-66.32325],[108.5,-66.30258],[109,-66.28054],[109.5,-66.25712],[110,-66.23231],[110.5,-66.20612],[111,-66.17854],[111.5,-66.14957],[112,-66.1192],[112.5,-66.08744],[113,-66.05428],[113.5,-66.01972],[114,-65.98375],[114.5,-65.94636],[115,-65.90757],[115,-65.90756],[115.5,-65.86735],[116,-65.82571],[116.5,-65.78264],[117,-65.73813],[117.5,-65.69219],[118,-65.6448],[118.5,-65.59596],[119,-65.54567],[119.5,-65.49391],[120,-65.44069],[120.5,-65.38599],[121,-65.32981],[121.5,-65.27215],[122,-65.21299],[122.5,-65.15233],[123,-65.09016],[123.5,-65.02648],[124,-64.96127],[124.5,-64.89454],[125,-64.82627],[125.5,-64.75645],[126,-64.68508],[126.5,-64.61215],[126.5,-64.61216],[127,-64.53766],[127.5,-64.46159],[128,-64.38393],[128.5,-64.30468],[129,-64.22384],[129.5,-64.14138],[130,-64.05731],[130.5,-63.97161],[131,-63.88428],[131.5,-63.79531],[132,-63.70469],[132.5,-63.61242],[133,-63.51848],[133,-63.51847],[133.5,-63.42286],[134,-63.32557],[134,-63.32556],[134.5,-63.22658],[135,-63.1259],[135.5,-63.02351],[136,-62.91942],[136.5,-62.8136],[137,-62.70606],[137,-62.70605],[137.5,-62.59678],[138,-62.48576],[138.5,-62.373],[139,-62.25848],[139.5,-62.1422],[140,-62.02416],[140.5,-61.90435],[141,-61.78276],[141.5,-61.65939],[142,-61.53423],[142.5,-61.40728],[143,-61.27854],[143.5,-61.148],[144,-61.01566],[144.5,-60.88152],[145,-60.74557],[145.5,-60.60782],[145.5,-60.60781],[146,-60.46825],[146.5,-60.32688],[146.5,-60.32687],[147,-60.18369],[147.5,-60.0387],[148,-59.8919],[148.5,-59.74329],[149,-59.59287],[149.5,-59.44066],[150,-59.28664],[150.5,-59.13084],[150.5,-59.13083],[151,-58.97324],[151.5,-58.81385],[152,-58.65269],[152.5,-58.48976],[153,-58.32506],[153.5,-58.15861],[154,-57.99042],[154,-57.99041],[154.5,-57.82048],[155,-57.64882],[155.5,-57.47545],[156,-57.30037],[156.5,-57.1236],[157,-56.94516],[157.5,-56.76506],[158,-56.58332],[158.5,-56.39994],[159,-56.21496],[159.5,-56.02838],[160,-55.84022],[160.5,-55.65051],[161,-55.45926],[161.5,-55.2665],[162,-55.07225],[162.5,-54.87653],[163,-54.67937],[163.5,-54.48078],[164,-54.28079],[164.5,-54.07943],[165,-53.87673],[165.5,-53.67271],[166,-53.46739],[166.5,-53.26082],[167,-53.053],[167,-53.05301],[167.5,-52.84399],[168,-52.63381],[168.5,-52.42247],[169,-52.21002],[169.5,-51.99649],[170,-51.78191],[170.5,-51.56631],[171,-51.34973],[171.5,-51.13219],[172,-50.91373],[172.25,-50.80416]]}},{"type":"Feature","id":"+05881124:center:0","properties":{"id":"+05881124","year":588,"month":11,"day":24,"time_tdt":"08:16:26","type":"개기일식","type_code":"T","saros":100,"gamma":-0.64904,"magnitude":1.039,"greatest":{"lat":-59.32969,"lng":53.06195},"path_width_km":171.8,"duration":"02m38s","delta_t_seconds":4820.9,"catalog_number":6162,"source":"NASA Five Millennium Canon of Solar Eclipses","source_url":"https://eclipse.gsfc.nasa.gov/SEsearch/SEsearchmap.php?Ecl=%2B05881124","boundary":"center","name":"588-11-24 개기일식"},"geometry":{"type":"LineString","coordinates":[[-6.20207,-22.77935],[-6,-22.85965],[-5.5,-23.06122],[-5,-23.26585],[-4.5,-23.47358],[-4,-23.68443],[-3.5,-23.89844],[-3,-24.11563],[-2.5,-24.33605],[-2,-24.55971],[-1.5,-24.78665],[-1,-25.0169],[-0.5,-25.25049],[0,-25.48744],[0.5,-25.72779],[1,-25.97157],[1.5,-26.2188],[2,-26.46951],[2.5,-26.72373],[3,-26.98147],[3.5,-27.24277],[4,-27.50765],[4.5,-27.77612],[5,-28.04821],[5.5,-28.32394],[6,-28.60331],[6.5,-28.88635],[7,-29.17307],[7.5,-29.46348],[8,-29.75757],[8.5,-30.05536],[9,-30.35685],[9.5,-30.66203],[10,-30.97089],[10,-30.9709],[10.5,-31.28344],[11,-31.59964],[11.5,-31.91948],[12,-32.24294],[12.5,-32.56999],[13,-32.9006],[13.5,-33.23472],[14,-33.57231],[14.5,-33.91331],[15,-34.25767],[15.5,-34.60533],[16,-34.95621],[16.5,-35.31023],[17,-35.66731],[17.5,-36.02735],[18,-36.39024],[18.5,-36.75589],[19,-37.12416],[19.5,-37.49495],[20,-37.8681],[20.5,-38.24347],[21,-38.62093],[21.5,-39.0003],[22,-39.38143],[22.5,-39.76413],[23,-40.14824],[23.5,-40.53356],[24,-40.9199],[24.5,-41.30706],[25,-41.69483],[25.5,-42.08302],[26,-42.4714],[26.5,-42.85977],[27,-43.2479],[27.5,-43.63558],[28,-44.02259],[28.5,-44.40871],[29,-44.79372],[29.5,-45.17741],[30,-45.55956],[30.5,-45.93997],[31,-46.31843],[31.5,-46.69475],[32,-47.06872],[32.5,-47.44016],[33,-47.8089],[33.5,-48.17475],[34,-48.53756],[34.5,-48.89717],[35,-49.25343],[35.5,-49.60621],[35.5,-49.60622],[36,-49.95538],[36.5,-50.30082],[37,-50.64241],[37.5,-50.98007],[38,-51.31369],[38.5,-51.64319],[38.5,-51.6432],[39,-51.96851],[39,-51.96852],[39.5,-52.28959],[40,-52.60635],[40.5,-52.91876],[41,-53.22678],[41.5,-53.53037],[42,-53.82952],[42.5,-54.1242],[43,-54.4144],[43.5,-54.70013],[44,-54.98137],[44.5,-55.25815],[45,-55.53046],[45.5,-55.79832],[46,-56.06177],[46.5,-56.32081],[47,-56.57548],[47.5,-56.82581],[48,-57.07183],[48.5,-57.31359],[49,-57.55112],[49.5,-57.78446],[50,-58.01366],[50.5,-58.23876],[51,-58.45982],[51.5,-58.67686],[52,-58.88996],[52.5,-59.09915],[53,-59.30449],[53.5,-59.50603],[54,-59.70381],[54.5,-59.8979],[55,-60.08834],[55.5,-60.27519],[56,-60.4585],[56.5,-60.63831],[57,-60.81469],[57.5,-60.98768],[58,-61.15734],[58.5,-61.32371],[59,-61.48684],[59.5,-61.64679],[60,-61.8036],[60.5,-61.95732],[61,-62.108],[61.5,-62.25569],[62,-62.40043],[62.5,-62.54226],[63,-62.68124],[63.5,-62.8174],[64,-62.95079],[64.5,-63.08146],[65,-63.20944],[65.5,-63.33477],[66,-63.45749],[66.5,-63.57765],[67,-63.69528],[67.5,-63.81042],[68,-63.92311],[68.5,-64.03338],[69,-64.14126],[69.5,-64.2468],[70,-64.35003],[70.5,-64.45097],[71,-64.54966],[71.5,-64.64614],[72,-64.74043],[72.5,-64.83256],[73,-64.92256],[73.5,-65.01046],[74,-65.09629],[74.5,-65.18008],[75,-65.26185],[75.5,-65.34163],[76,-65.41944],[76.5,-65.4953],[77,-65.56925],[77.5,-65.6413],[78,-65.71148],[78.5,-65.77981],[79,-65.8463],[79.5,-65.91099],[80,-65.97389],[80.5,-66.03501],[81,-66.09439],[81.5,-66.15204],[82,-66.20797],[82.5,-66.2622],[83,-66.31476],[83.5,-66.36565],[84,-66.41489],[84.5,-66.4625],[85,-66.50849],[85.5,-66.55289],[86,-66.59569],[86.5,-66.63691],[87,-66.67658],[87.5,-66.71469],[88,-66.75127],[88.5,-66.78632],[89,-66.81985],[89.5,-66.85189],[90,-66.88242],[90.5,-66.91148],[91,-66.93906],[91.5,-66.96518],[92,-66.98984],[92.5,-67.01305],[93,-67.03482],[93.5,-67.05517],[94,-67.07408],[94.5,-67.09159],[95,-67.10768],[95.5,-67.12236],[96,-67.13565],[96.5,-67.14755],[97,-67.15806],[97.5,-67.16719],[98,-67.17493],[98.5,-67.18131],[99,-67.18632],[99.5,-67.18996],[100,-67.19223],[100.5,-67.19315],[101,-67.19271],[101.5,-67.19092],[102,-67.18777],[102.5,-67.18328],[103,-67.17743],[103.5,-67.17024],[104,-67.1617],[104.5,-67.15181],[105,-67.14058],[105.5,-67.128],[106,-67.11408],[106.5,-67.09881],[107,-67.08219],[107.5,-67.06423],[108,-67.04492],[108.5,-67.02425],[109,-67.00224],[109.5,-66.97887],[110,-66.95414],[110.5,-66.92805],[111,-66.90061],[111.5,-66.87179],[112,-66.84161],[112.5,-66.81006],[113,-66.77713],[113.5,-66.74283],[114,-66.70714],[114.5,-66.67006],[115,-66.63159],[115.5,-66.59173],[116,-66.55046],[116.5,-66.50778],[117,-66.46369],[117.5,-66.41819],[118,-66.37125],[118.5,-66.32289],[119,-66.27309],[119.5,-66.22185],[120,-66.16916],[120.5,-66.11501],[121,-66.0594],[121.5,-66.00232],[122,-65.94376],[122.5,-65.88371],[123,-65.82218],[123.5,-65.75914],[124,-65.69459],[124.5,-65.62852],[125,-65.56093],[125.5,-65.49181],[126,-65.42114],[126.5,-65.34893],[127,-65.27515],[127.5,-65.19981],[128,-65.12289],[128.5,-65.04439],[129,-64.96429],[129.5,-64.88259],[130,-64.79927],[130.5,-64.71433],[130.5,-64.71434],[131,-64.62777],[131.5,-64.53956],[132,-64.44971],[132.5,-64.35819],[133,-64.26501],[133.5,-64.17015],[134,-64.07361],[134.5,-63.97537],[135,-63.87543],[135.5,-63.77378],[136,-63.67041],[136.5,-63.56531],[137,-63.45847],[137.5,-63.34988],[138,-63.23954],[138.5,-63.12744],[139,-63.01357],[139.5,-62.89792],[140,-62.78048],[140.5,-62.66126],[141,-62.54023],[141.5,-62.4174],[142,-62.29277],[142.5,-62.16631],[143,-62.03803],[143.5,-61.90793],[144,-61.77599],[144.5,-61.64222],[145,-61.50661],[145.5,-61.36915],[146,-61.22985],[146.5,-61.0887],[147,-60.94571],[147.5,-60.80086],[148,-60.65416],[148.5,-60.50561],[149,-60.35521],[149.5,-60.20295],[150,-60.04885],[150.5,-59.89291],[151,-59.73512],[151.5,-59.5755],[152,-59.41404],[152.5,-59.25076],[153,-59.08565],[153.5,-58.91873],[154,-58.75],[154.5,-58.57948],[155,-58.40717],[155.5,-58.23307],[156,-58.05722],[156.5,-57.8796],[157,-57.70025],[157.5,-57.51916],[158,-57.33637],[158.5,-57.15187],[159,-56.96569],[159.5,-56.77785],[160,-56.58836],[160.5,-56.39725],[161,-56.20452],[161.5,-56.01021],[162,-55.81434],[162.5,-55.61692],[163,-55.41798],[163.5,-55.21755],[164,-55.01564],[164.5,-54.81229],[165,-54.60753],[165.5,-54.40137],[166,-54.19384],[166.5,-53.98499],[167,-53.77482],[167.5,-53.56338],[168,-53.3507],[168.5,-53.1368],[169,-52.92172],[169.5,-52.70549],[170,-52.48814],[170.5,-52.26971],[171,-52.05023],[171.5,-51.82973],[172,-51.60825],[172.5,-51.38582],[173,-51.16248],[173.01027,-51.16671]]}},{"type":"Feature","id":"+05881124:south:0","properties":{"id":"+05881124","year":588,"month":11,"day":24,"time_tdt":"08:16:26","type":"개기일식","type_code":"T","saros":100,"gamma":-0.64904,"magnitude":1.039,"greatest":{"lat":-59.32969,"lng":53.06195},"path_width_km":171.8,"duration":"02m38s","delta_t_seconds":4820.9,"catalog_number":6162,"source":"NASA Five Millennium Canon of Solar Eclipses","source_url":"https://eclipse.gsfc.nasa.gov/SEsearch/SEsearchmap.php?Ecl=%2B05881124","boundary":"south","name":"588-11-24 개기일식"},"geometry":{"type":"LineString","coordinates":[[-6.58203,-23.24053],[-6.5,-23.27384],[-6,-23.47871],[-5.5,-23.68671],[-5,-23.89787],[-4.5,-24.11222],[-4,-24.3298],[-3.5,-24.55063],[-3,-24.77475],[-2.5,-25.00219],[-2,-25.23299],[-1.5,-25.46716],[-1,-25.70475],[-0.5,-25.94578],[0,-26.19029],[0.5,-26.4383],[1,-26.68984],[1.5,-26.94494],[2,-27.20363],[2.5,-27.46593],[3,-27.73187],[3.5,-28.00147],[4,-28.27474],[4.5,-28.55172],[5,-28.83242],[5.5,-29.11686],[6,-29.40504],[6.5,-29.69699],[7,-29.9927],[7.5,-30.29219],[8,-30.59546],[8.5,-30.90251],[9,-31.21333],[9.5,-31.52792],[10,-31.84626],[10.5,-32.16833],[10.5,-32.16834],[11,-32.49413],[11.5,-32.82361],[12,-33.15675],[12.5,-33.4935],[13,-33.83384],[13.5,-34.1777],[14,-34.52502],[14.5,-34.87576],[15,-35.22983],[15.5,-35.58715],[16,-35.94765],[16.5,-36.31122],[17,-36.67777],[17,-36.67778],[17.5,-37.04719],[18,-37.41936],[18.5,-37.79414],[19,-38.17141],[19.5,-38.55103],[20,-38.93283],[20.5,-39.31666],[21,-39.70235],[21.5,-40.08973],[22,-40.4786],[22.5,-40.86878],[23,-41.26008],[23.5,-41.65228],[24,-42.04518],[24.5,-42.43856],[25,-42.83221],[25.5,-43.2259],[26,-43.61941],[26.5,-44.01251],[27,-44.40498],[27.5,-44.79659],[28,-45.18712],[28.5,-45.57634],[29,-45.96403],[29.5,-46.34997],[30,-46.73395],[30.5,-47.11577],[31,-47.49521],[31.5,-47.8721],[32,-48.24623],[32.5,-48.61744],[33,-48.98554],[33.5,-49.35039],[34,-49.71182],[34.5,-50.06969],[35,-50.42388],[35.5,-50.77425],[36,-51.12069],[36.5,-51.4631],[37,-51.80139],[37.5,-52.13546],[38,-52.46525],[38.5,-52.79069],[39,-53.11173],[39.5,-53.4283],[40,-53.74039],[40.5,-54.04794],[41,-54.35095],[41.5,-54.64939],[42,-54.94325],[42.5,-55.23253],[43,-55.51723],[43.5,-55.79736],[44,-56.07294],[44.5,-56.34397],[45,-56.61049],[45.5,-56.87252],[46,-57.13009],[46.5,-57.38323],[47,-57.63198],[47.5,-57.87639],[48,-58.11649],[48.5,-58.35232],[49,-58.58394],[49.5,-58.81139],[50,-59.03472],[50.5,-59.25398],[51,-59.46922],[51.5,-59.6805],[52,-59.88787],[52.5,-60.09138],[53,-60.29109],[53,-60.29108],[53.5,-60.48704],[54,-60.6793],[54.5,-60.86792],[55,-61.05295],[55.5,-61.23445],[56,-61.41248],[56.5,-61.58707],[57,-61.7583],[57,-61.75829],[57.5,-61.9262],[58,-62.09083],[58.5,-62.25225],[59,-62.41051],[59,-62.4105],[59.5,-62.56564],[60,-62.71771],[60.5,-62.86676],[61,-63.01285],[61.5,-63.156],[62,-63.29629],[62.5,-63.43374],[62.5,-63.43373],[63,-63.5684],[63.5,-63.70032],[64,-63.82954],[64.5,-63.9561],[65,-64.08005],[65.5,-64.20142],[66,-64.32025],[66.5,-64.43658],[67,-64.55046],[67.5,-64.66191],[68,-64.77097],[68.5,-64.87769],[69,-64.98209],[69.5,-65.0842],[70,-65.18407],[70.5,-65.28172],[71,-65.37718],[71.5,-65.47049],[72,-65.56167],[72.5,-65.65076],[73,-65.73779],[73,-65.73778],[73.5,-65.82277],[74,-65.90574],[74.5,-65.98673],[74.5,-65.98672],[75,-66.06575],[75.5,-66.14284],[76,-66.21802],[76.5,-66.29132],[77,-66.36275],[77.5,-66.43234],[78,-66.50011],[78.5,-66.56609],[79,-66.63029],[79.5,-66.69273],[80,-66.75344],[80.5,-66.81243],[81,-66.86971],[81.5,-66.92532],[82,-66.97926],[82.5,-67.03156],[83,-67.08222],[83.5,-67.13127],[84,-67.17873],[84.5,-67.22459],[85,-67.26889],[85.5,-67.31162],[86,-67.35282],[86.5,-67.39249],[87,-67.43063],[87.5,-67.46728],[88,-67.50242],[88.5,-67.53609],[89,-67.56829],[89.5,-67.59902],[90,-67.6283],[90.5,-67.65614],[91,-67.68255],[91.5,-67.70753],[92,-67.7311],[92.5,-67.75326],[93,-67.77403],[93.5,-67.7934],[94,-67.81138],[94.5,-67.82799],[95,-67.84322],[95.5,-67.85709],[96,-67.8696],[96.5,-67.88075],[97,-67.89055],[97.5,-67.89901],[98,-67.90612],[98.5,-67.91189],[99,-67.91634],[99.5,-67.91945],[100,-67.92123],[100.5,-67.92169],[101,-67.92082],[101.5,-67.91863],[102,-67.91513],[102.5,-67.91031],[103,-67.90417],[103.5,-67.89671],[104,-67.88794],[104.5,-67.87786],[105,-67.86646],[105.5,-67.85375],[106,-67.83972],[106.5,-67.82437],[107,-67.80771],[107.5,-67.78974],[108,-67.77044],[108.5,-67.74982],[109,-67.72787],[109.5,-67.7046],[110,-67.68],[110.5,-67.65407],[111,-67.62681],[111.5,-67.59821],[112,-67.56826],[112.5,-67.53698],[113,-67.50434],[113.5,-67.47035],[114,-67.435],[114.5,-67.39828],[115,-67.3602],[115.5,-67.32075],[116,-67.27991],[116.5,-67.2377],[117,-67.19409],[117.5,-67.14908],[117.5,-67.14909],[118,-67.10268],[118.5,-67.05486],[119,-67.00563],[119.5,-66.95498],[120,-66.90289],[120.5,-66.84937],[121,-66.7944],[121.5,-66.73798],[122,-66.6801],[122.5,-66.62075],[123,-66.55992],[123.5,-66.49761],[124,-66.43381],[124.5,-66.3685],[125,-66.30168],[125.5,-66.23334],[126,-66.16347],[126.5,-66.09207],[127,-66.01911],[127.5,-65.9446],[128,-65.86851],[128,-65.86852],[128.5,-65.79086],[129,-65.71161],[129.5,-65.63077],[130,-65.54832],[130.5,-65.46426],[131,-65.37856],[131,-65.37857],[131.5,-65.29124],[132,-65.20226],[132.5,-65.11163],[133,-65.01933],[133.5,-64.92535],[134,-64.82968],[134.5,-64.73232],[135,-64.63325],[135.5,-64.53246],[136,-64.42995],[136.5,-64.32569],[137,-64.21969],[137.5,-64.11193],[138,-64.00241],[138.5,-63.89111],[139,-63.77803],[139.5,-63.66315],[140,-63.54647],[140.5,-63.42798],[141,-63.30767],[141.5,-63.18554],[142,-63.06157],[142.5,-62.93576],[143,-62.8081],[143.5,-62.67858],[143.5,-62.67859],[144,-62.54721],[144.5,-62.41397],[145,-62.27885],[145.5,-62.14186],[146,-62.00298],[146.5,-61.86222],[147,-61.71957],[147,-61.71958],[147.5,-61.57503],[148,-61.4286],[148.5,-61.28027],[149,-61.13004],[149.5,-60.97791],[150,-60.82389],[150.5,-60.66797],[151,-60.51016],[151.5,-60.35045],[152,-60.18886],[152.5,-60.02538],[153,-59.86002],[153.5,-59.69279],[154,-59.52369],[154.5,-59.35272],[155,-59.17991],[155.5,-59.00524],[155.5,-59.00525],[156,-58.82875],[156.5,-58.65043],[157,-58.4703],[157.5,-58.28837],[158,-58.10466],[158.5,-57.91917],[159,-57.73193],[159.5,-57.54295],[160,-57.35225],[160.5,-57.15984],[161,-56.96575],[161.5,-56.77],[162,-56.5726],[162.5,-56.37358],[163,-56.17297],[163.5,-55.97078],[164,-55.76704],[164.5,-55.56178],[165,-55.35502],[165.5,-55.14679],[166,-54.93711],[166.5,-54.72603],[167,-54.51356],[167.5,-54.29974],[168,-54.0846],[168.5,-53.86817],[169,-53.65049],[169.5,-53.43158],[170,-53.21148],[170.5,-52.99022],[171,-52.76785],[171.5,-52.54439],[172,-52.31987],[172.5,-52.09435],[173,-51.86785],[173.5,-51.64041],[173.65234,-51.57093]]}}],"attribution":"Eclipse Predictions by Fred Espenak and Jean Meeus (NASA's GSFC)","generated_at":"2026-09-23T01:44:53.194Z"}
