{"type":"FeatureCollection","year":593,"events":[{"id":"+05930207","year":593,"month":2,"day":7,"time_tdt":"09:29:17","type":"부분일식","type_code":"P","saros":69,"gamma":-1.3396,"magnitude":0.38038,"greatest":{"lat":-61.7958,"lng":-179.45557},"path_width_km":0,"duration":"00m00s","delta_t_seconds":4780.9,"catalog_number":6172,"source":"NASA Five Millennium Canon of Solar Eclipses","source_url":"https://eclipse.gsfc.nasa.gov/SEsearch/SEsearchmap.php?Ecl=%2B05930207"},{"id":"+05930308","year":593,"month":3,"day":8,"time_tdt":"23:07:54","type":"부분일식","type_code":"P","saros":107,"gamma":1.47417,"magnitude":0.13407,"greatest":{"lat":61.03753,"lng":132.52362},"path_width_km":0,"duration":"00m00s","delta_t_seconds":4780.2,"catalog_number":6173,"source":"NASA Five Millennium Canon of Solar Eclipses","source_url":"https://eclipse.gsfc.nasa.gov/SEsearch/SEsearchmap.php?Ecl=%2B05930308"},{"id":"+05930802","year":593,"month":8,"day":2,"time_tdt":"15:58:20","type":"부분일식","type_code":"P","saros":74,"gamma":1.28386,"magnitude":0.47431,"greatest":{"lat":62.48383,"lng":88.16479},"path_width_km":0,"duration":"00m00s","delta_t_seconds":4776.3,"catalog_number":6174,"source":"NASA Five Millennium Canon of Solar Eclipses","source_url":"https://eclipse.gsfc.nasa.gov/SEsearch/SEsearchmap.php?Ecl=%2B05930802"},{"id":"+05930901","year":593,"month":9,"day":1,"time_tdt":"00:53:15","type":"부분일식","type_code":"P","saros":112,"gamma":-1.31902,"magnitude":0.41004,"greatest":{"lat":-61.10878,"lng":110.55548},"path_width_km":0,"duration":"00m00s","delta_t_seconds":4775.6,"catalog_number":6175,"source":"NASA Five Millennium Canon of Solar Eclipses","source_url":"https://eclipse.gsfc.nasa.gov/SEsearch/SEsearchmap.php?Ecl=%2B05930901"}],"features":[],"attribution":"Eclipse Predictions by Fred Espenak and Jean Meeus (NASA's GSFC)","generated_at":"2026-09-23T01:44:52.912Z"}
