{"type":"FeatureCollection","year":600,"events":[{"id":"+06000320","year":600,"month":3,"day":20,"time_tdt":"17:47:01","type":"부분일식","type_code":"P","saros":68,"gamma":1.32689,"magnitude":0.39069,"greatest":{"lat":71.83093,"lng":-158.46228},"path_width_km":0,"duration":"00m00s","delta_t_seconds":4713.4,"catalog_number":6190,"source":"NASA Five Millennium Canon of Solar Eclipses","source_url":"https://eclipse.gsfc.nasa.gov/SEsearch/SEsearchmap.php?Ecl=%2B06000320"},{"id":"+06000419","year":600,"month":4,"day":19,"time_tdt":"01:25:29","type":"부분일식","type_code":"P","saros":106,"gamma":-1.21705,"magnitude":0.60209,"greatest":{"lat":-70.89888,"lng":-129.99945},"path_width_km":0,"duration":"00m00s","delta_t_seconds":4712.6,"catalog_number":6191,"source":"NASA Five Millennium Canon of Solar Eclipses","source_url":"https://eclipse.gsfc.nasa.gov/SEsearch/SEsearchmap.php?Ecl=%2B06000419"},{"id":"+06001013","year":600,"month":10,"day":13,"time_tdt":"01:25:21","type":"부분일식","type_code":"P","saros":111,"gamma":1.40618,"magnitude":0.2734,"greatest":{"lat":71.45254,"lng":-122.48053},"path_width_km":0,"duration":"00m00s","delta_t_seconds":4708.1,"catalog_number":6192,"source":"NASA Five Millennium Canon of Solar Eclipses","source_url":"https://eclipse.gsfc.nasa.gov/SEsearch/SEsearchmap.php?Ecl=%2B06001013"}],"features":[],"attribution":"Eclipse Predictions by Fred Espenak and Jean Meeus (NASA's GSFC)","generated_at":"2026-09-23T01:44:53.058Z"}
