{"type":"FeatureCollection","year":602,"events":[{"id":"+06020227","year":602,"month":2,"day":27,"time_tdt":"20:34:40","type":"금환일식","type_code":"A","saros":88,"gamma":-0.07742,"magnitude":0.97872,"greatest":{"lat":-11.60677,"lng":-104.34363},"path_width_km":76,"duration":"02m23s","delta_t_seconds":4695.1,"catalog_number":6195,"source":"NASA Five Millennium Canon of Solar Eclipses","source_url":"https://eclipse.gsfc.nasa.gov/SEsearch/SEsearchmap.php?Ecl=%2B06020227"},{"id":"+06020823","year":602,"month":8,"day":23,"time_tdt":"00:04:00","type":"개기일식","type_code":"T","saros":93,"gamma":-0.03063,"magnitude":1.04646,"greatest":{"lat":9.45392,"lng":-161.72015},"path_width_km":154.7,"duration":"04m26s","delta_t_seconds":4690.5,"catalog_number":6196,"source":"NASA Five Millennium Canon of Solar Eclipses","source_url":"https://eclipse.gsfc.nasa.gov/SEsearch/SEsearchmap.php?Ecl=%2B06020823"}],"features":[{"type":"Feature","id":"+06020227:north:0","properties":{"id":"+06020227","year":602,"month":2,"day":27,"time_tdt":"20:34:40","type":"금환일식","type_code":"A","saros":88,"gamma":-0.07742,"magnitude":0.97872,"greatest":{"lat":-11.60677,"lng":-104.34363},"path_width_km":76,"duration":"02m23s","delta_t_seconds":4695.1,"catalog_number":6195,"source":"NASA Five Millennium Canon of Solar Eclipses","source_url":"https://eclipse.gsfc.nasa.gov/SEsearch/SEsearchmap.php?Ecl=%2B06020227","boundary":"north","name":"602-02-27 금환일식"},"geometry":{"type":"LineString","coordinates":[[-170.36914,-20.57716],[-170,-20.62626],[-169.5,-20.6919],[-169,-20.75655],[-168.5,-20.82019],[-168,-20.8828],[-167.5,-20.94437],[-167,-21.00488],[-166.5,-21.06431],[-166,-21.12266],[-165.5,-21.1799],[-165,-21.23603],[-164.5,-21.29101],[-164,-21.34484],[-163.5,-21.3975],[-163,-21.44897],[-162.5,-21.49924],[-162,-21.54828],[-161.5,-21.59609],[-161,-21.64263],[-160.5,-21.6879],[-160,-21.73187],[-159.5,-21.77453],[-159,-21.81585],[-158.5,-21.85582],[-158,-21.89441],[-157.5,-21.93162],[-157,-21.9674],[-156.5,-22.00176],[-156,-22.03466],[-155.5,-22.06608],[-155,-22.096],[-154.5,-22.1244],[-154,-22.15126],[-153.5,-22.17655],[-153,-22.20025],[-152.5,-22.22234],[-152,-22.24279],[-151.5,-22.26157],[-151,-22.27868],[-150.5,-22.29407],[-150,-22.30772],[-149.5,-22.3196],[-149,-22.3297],[-148.5,-22.33798],[-148,-22.34441],[-147.5,-22.34897],[-147,-22.35163],[-146.5,-22.35236],[-146,-22.35112],[-145.5,-22.34789],[-145,-22.34265],[-144.5,-22.33534],[-144,-22.32596],[-143.5,-22.31445],[-143,-22.30079],[-142.5,-22.28495],[-142,-22.26688],[-141.5,-22.24657],[-141,-22.22396],[-140.5,-22.19902],[-140,-22.17172],[-139.5,-22.14202],[-139,-22.10988],[-138.5,-22.07526],[-138,-22.03811],[-137.5,-21.99841],[-137,-21.9561],[-136.5,-21.91115],[-136,-21.8635],[-135.5,-21.81313],[-135,-21.75998],[-134.5,-21.704],[-134,-21.64516],[-133.5,-21.58339],[-133,-21.51867],[-132.5,-21.45092],[-132,-21.38012],[-131.5,-21.3062],[-131,-21.22911],[-130.5,-21.1488],[-130,-21.06522],[-129.5,-20.97832],[-129,-20.88804],[-128.5,-20.79432],[-128,-20.6971],[-127.5,-20.59634],[-127,-20.49198],[-126.5,-20.38394],[-126,-20.27219],[-125.5,-20.15666],[-125,-20.03728],[-124.5,-19.91401],[-124,-19.78677],[-123.5,-19.65552],[-123,-19.52019],[-122.5,-19.38072],[-122,-19.23705],[-121.5,-19.08913],[-121,-18.9369],[-120.5,-18.7803],[-120,-18.61927],[-119.5,-18.45376],[-119,-18.28372],[-118.5,-18.1091],[-118,-17.92985],[-117.5,-17.74592],[-117,-17.55727],[-116.5,-17.36387],[-116,-17.16568],[-115.5,-16.96266],[-115,-16.75479],[-114.5,-16.54204],[-114,-16.32441],[-113.5,-16.10189],[-113,-15.87446],[-112.5,-15.64214],[-112,-15.40494],[-111.5,-15.16287],[-111,-14.91597],[-110.5,-14.66427],[-110,-14.40783],[-109.5,-14.14671],[-109,-13.88096],[-108.5,-13.61068],[-108,-13.33596],[-107.5,-13.0569],[-107,-12.77362],[-106.5,-12.48624],[-106,-12.19492],[-105.5,-11.89979],[-105,-11.60104],[-104.5,-11.29882],[-104,-10.99334],[-103.5,-10.68479],[-103,-10.37338],[-102.5,-10.05933],[-102,-9.74287],[-101.5,-9.42423],[-101,-9.10364],[-100.5,-8.78137],[-100,-8.45765],[-99.5,-8.13275],[-99,-7.80691],[-98.5,-7.48039],[-98,-7.15345],[-97.5,-6.82633],[-97,-6.49929],[-96.5,-6.17258],[-96,-5.84642],[-95.5,-5.52106],[-95,-5.19671],[-94.5,-4.8736],[-94,-4.55193],[-93.5,-4.2319],[-93,-3.91369],[-92.5,-3.5975],[-92,-3.28348],[-91.5,-2.97179],[-91,-2.66257],[-90.5,-2.35597],[-90,-2.05211],[-89.5,-1.7511],[-89,-1.45304],[-88.5,-1.15803],[-88,-0.86616],[-87.5,-0.57749],[-87,-0.29211],[-86.5,-0.01005],[-86,0.26862],[-85.5,0.54387],[-85,0.81566],[-84.5,1.08396],[-84,1.34875],[-83.5,1.61002],[-83,1.86774],[-82.5,2.12193],[-82,2.37257],[-81.5,2.61967],[-81,2.86324],[-80.5,3.10328],[-80,3.33982],[-79.5,3.57287],[-79,3.80244],[-78.5,4.02857],[-78,4.25127],[-77.5,4.47058],[-77,4.68651],[-76.5,4.8991],[-76,5.10838],[-75.5,5.31438],[-75,5.51714],[-74.5,5.71668],[-74,5.91304],[-73.5,6.10627],[-73,6.29638],[-72.5,6.48342],[-72,6.66742],[-71.5,6.84843],[-71,7.02647],[-70.5,7.20158],[-70,7.3738],[-69.5,7.54317],[-69,7.70972],[-68.5,7.87348],[-68,8.03449],[-67.5,8.19279],[-67,8.34842],[-66.5,8.5014],[-66,8.65177],[-65.5,8.79957],[-65,8.94482],[-64.5,9.08757],[-64,9.22784],[-63.5,9.36567],[-63,9.50109],[-62.5,9.63413],[-62,9.76482],[-61.5,9.89319],[-61,10.01927],[-60.5,10.14309],[-60,10.26468],[-59.5,10.38407],[-59,10.50129],[-58.5,10.61636],[-58,10.72931],[-57.5,10.84017],[-57,10.94897],[-56.5,11.05573],[-56,11.16047],[-55.5,11.26322],[-55,11.36401],[-54.5,11.46286],[-54,11.55979],[-53.5,11.65483],[-53,11.74799],[-52.5,11.83931],[-52,11.92881],[-51.5,12.01649],[-51,12.1024],[-50.5,12.18654],[-50,12.26894],[-49.5,12.34962],[-49,12.42859],[-48.5,12.50589],[-48,12.58152],[-47.5,12.6555],[-47,12.72786],[-46.5,12.79861],[-46,12.86777],[-45.5,12.93536],[-45.39062,12.94994]]}},{"type":"Feature","id":"+06020227:center:0","properties":{"id":"+06020227","year":602,"month":2,"day":27,"time_tdt":"20:34:40","type":"금환일식","type_code":"A","saros":88,"gamma":-0.07742,"magnitude":0.97872,"greatest":{"lat":-11.60677,"lng":-104.34363},"path_width_km":76,"duration":"02m23s","delta_t_seconds":4695.1,"catalog_number":6195,"source":"NASA Five Millennium Canon of Solar Eclipses","source_url":"https://eclipse.gsfc.nasa.gov/SEsearch/SEsearchmap.php?Ecl=%2B06020227","boundary":"center","name":"602-02-27 금환일식"},"geometry":{"type":"LineString","coordinates":[[-170.49889,-21.19513],[-170.5,-21.19278],[-170,-21.2569],[-169.5,-21.32002],[-169,-21.38213],[-168.5,-21.44323],[-168,-21.5033],[-167.5,-21.56231],[-167,-21.62027],[-166.5,-21.67714],[-166,-21.73292],[-165.5,-21.7876],[-165,-21.84114],[-164.5,-21.89355],[-164,-21.94479],[-163.5,-21.99486],[-163,-22.04374],[-162.5,-22.09141],[-162,-22.13785],[-161.5,-22.18306],[-161,-22.22699],[-160.5,-22.26965],[-160,-22.31102],[-159.5,-22.35106],[-159,-22.38977],[-158.5,-22.42713],[-158,-22.46311],[-157.5,-22.49769],[-157,-22.53087],[-156.5,-22.5626],[-156,-22.59289],[-155.5,-22.62169],[-155,-22.649],[-154.5,-22.67479],[-154,-22.69904],[-153.5,-22.72172],[-153,-22.74282],[-152.5,-22.7623],[-152,-22.78015],[-151.5,-22.79635],[-151,-22.81086],[-150.5,-22.82366],[-150,-22.83473],[-149.5,-22.84404],[-149,-22.85157],[-148.5,-22.85729],[-148,-22.86116],[-147.5,-22.86317],[-147,-22.86329],[-146.5,-22.86148],[-146,-22.85772],[-145.5,-22.85198],[-145,-22.84422],[-144.5,-22.83443],[-144,-22.82255],[-143.5,-22.80857],[-143,-22.79245],[-142.5,-22.77416],[-142,-22.75366],[-141.5,-22.73092],[-141,-22.7059],[-140.5,-22.67857],[-140,-22.6489],[-139.5,-22.61683],[-139,-22.58234],[-138.5,-22.54539],[-138,-22.50594],[-137.5,-22.46394],[-137,-22.41936],[-136.5,-22.37216],[-136,-22.32229],[-135.5,-22.2697],[-135,-22.21437],[-134.5,-22.15623],[-134,-22.09524],[-133.5,-22.03137],[-133,-21.96455],[-132.5,-21.89475],[-132,-21.82191],[-131.5,-21.74599],[-131,-21.66693],[-130.5,-21.58468],[-130,-21.49919],[-129.5,-21.4104],[-129,-21.31827],[-128.5,-21.22274],[-128,-21.12376],[-127.5,-21.02126],[-127,-20.91519],[-126.5,-20.8055],[-126,-20.69213],[-125.5,-20.57501],[-125,-20.4541],[-124.5,-20.32934],[-124,-20.20066],[-123.5,-20.068],[-123,-19.93132],[-122.5,-19.79054],[-122,-19.64562],[-121.5,-19.4965],[-121,-19.34311],[-120.5,-19.18541],[-120,-19.02334],[-119.5,-18.85685],[-119,-18.68588],[-118.5,-18.51039],[-118,-18.33033],[-117.5,-18.14565],[-117,-17.95632],[-116.5,-17.76229],[-116,-17.56354],[-115.5,-17.36002],[-115,-17.15172],[-114.5,-16.93861],[-114,-16.72069],[-113.5,-16.49793],[-113,-16.27034],[-112.5,-16.03792],[-112,-15.80069],[-111.5,-15.55866],[-111,-15.31186],[-110.5,-15.06034],[-110,-14.80414],[-109.5,-14.54332],[-109,-14.27794],[-108.5,-14.00809],[-108,-13.73387],[-107.5,-13.45536],[-107,-13.17269],[-106.5,-12.88599],[-106,-12.59539],[-105.5,-12.30104],[-105,-12.00312],[-104.5,-11.70178],[-104,-11.39723],[-103.5,-11.08965],[-103,-10.77925],[-102.5,-10.46625],[-102,-10.15087],[-101.5,-9.83334],[-101,-9.51391],[-100.5,-9.19281],[-100,-8.8703],[-99.5,-8.54662],[-99,-8.22203],[-98.5,-7.89678],[-98,-7.57113],[-97.5,-7.24532],[-97,-6.9196],[-96.5,-6.59422],[-96,-6.26941],[-95.5,-5.9454],[-95,-5.62243],[-94.5,-5.30069],[-94,-4.98041],[-93.5,-4.66178],[-93,-4.34499],[-92.5,-4.03022],[-92,-3.71762],[-91.5,-3.40737],[-91,-3.0996],[-90.5,-2.79446],[-90,-2.49206],[-89.5,-2.19253],[-89,-1.89596],[-88.5,-1.60245],[-88,-1.31209],[-87.5,-1.02494],[-87,-0.74109],[-86.5,-0.46057],[-86,-0.18346],[-85.5,0.09022],[-85,0.36043],[-84.5,0.62714],[-84,0.89033],[-83.5,1.14997],[-83,1.40607],[-82.5,1.65861],[-82,1.9076],[-81.5,2.15303],[-81,2.39492],[-80.5,2.63328],[-80,2.86811],[-79.5,3.09944],[-79,3.32729],[-78.5,3.55168],[-78,3.77263],[-77.5,3.99017],[-77,4.20433],[-76.5,4.41513],[-76,4.62262],[-75.5,4.82681],[-75,5.02775],[-74.5,5.22547],[-74,5.42],[-73.5,5.61138],[-73,5.79964],[-72.5,5.98482],[-72,6.16695],[-71.5,6.34608],[-71,6.52223],[-70.5,6.69545],[-70,6.86577],[-69.5,7.03323],[-69,7.19786],[-68.5,7.3597],[-68,7.51879],[-67.5,7.67516],[-67,7.82884],[-66.5,7.97988],[-66,8.1283],[-65.5,8.27415],[-65,8.41744],[-64.5,8.55823],[-64,8.69653],[-63.5,8.83239],[-63,8.96584],[-62.5,9.0969],[-62,9.2256],[-61.5,9.35199],[-61,9.47608],[-60.5,9.59792],[-60,9.71752],[-59.5,9.83492],[-59,9.95014],[-58.5,10.06321],[-58,10.17417],[-57.5,10.28303],[-57,10.38983],[-56.5,10.49458],[-56,10.59732],[-55.5,10.69807],[-55,10.79686],[-54.5,10.8937],[-54,10.98863],[-53.5,11.08166],[-53,11.17283],[-52.5,11.26214],[-52,11.34963],[-51.5,11.43532],[-51,11.51922],[-50.5,11.60136],[-50,11.68177],[-49.5,11.76045],[-49,11.83743],[-48.5,11.91272],[-48,11.98636],[-47.5,12.05835],[-47,12.12872],[-46.5,12.19748],[-46,12.26466],[-45.5,12.33026],[-45.26105,12.36308]]}},{"type":"Feature","id":"+06020227:south:0","properties":{"id":"+06020227","year":602,"month":2,"day":27,"time_tdt":"20:34:40","type":"금환일식","type_code":"A","saros":88,"gamma":-0.07742,"magnitude":0.97872,"greatest":{"lat":-11.60677,"lng":-104.34363},"path_width_km":76,"duration":"02m23s","delta_t_seconds":4695.1,"catalog_number":6195,"source":"NASA Five Millennium Canon of Solar Eclipses","source_url":"https://eclipse.gsfc.nasa.gov/SEsearch/SEsearchmap.php?Ecl=%2B06020227","boundary":"south","name":"602-02-27 금환일식"},"geometry":{"type":"LineString","coordinates":[[-170.5,-21.82562],[-170,-21.88722],[-169.5,-21.94782],[-169,-22.00742],[-168.5,-22.06599],[-168,-22.12352],[-167.5,-22.17999],[-167,-22.2354],[-166.5,-22.28972],[-166,-22.34295],[-165.5,-22.39506],[-165,-22.44604],[-164.5,-22.49587],[-164,-22.54454],[-163.5,-22.59204],[-163,-22.63833],[-162.5,-22.68342],[-162,-22.72728],[-161.5,-22.76989],[-161,-22.81123],[-160.5,-22.8513],[-160,-22.89006],[-159.5,-22.92751],[-159,-22.96362],[-158.5,-22.99837],[-158,-23.03175],[-157.5,-23.06374],[-157,-23.09431],[-156.5,-23.12345],[-156,-23.15113],[-155.5,-23.17734],[-155,-23.20205],[-154.5,-23.22524],[-154,-23.24689],[-153.5,-23.26698],[-153,-23.28549],[-152.5,-23.30239],[-152,-23.31766],[-151.5,-23.33127],[-151,-23.34321],[-150.5,-23.35344],[-150,-23.36195],[-149.5,-23.3687],[-149,-23.37367],[-148.5,-23.37684],[-148,-23.37818],[-147.5,-23.37766],[-147,-23.37525],[-146.5,-23.37093],[-146,-23.36466],[-145.5,-23.35642],[-145,-23.34617],[-144.5,-23.3339],[-144,-23.31956],[-143.5,-23.30312],[-143,-23.28456],[-142.5,-23.26383],[-142,-23.24091],[-141.5,-23.21577],[-141,-23.18836],[-140.5,-23.15865],[-140,-23.12661],[-139.5,-23.0922],[-139,-23.05538],[-138.5,-23.01612],[-138,-22.97438],[-137.5,-22.9301],[-137,-22.88327],[-136.5,-22.83383],[-136,-22.78174],[-135.5,-22.72697],[-135,-22.66946],[-134.5,-22.60917],[-134,-22.54607],[-133.5,-22.48009],[-133,-22.41121],[-132.5,-22.33936],[-132,-22.2645],[-131.5,-22.18659],[-131,-22.10556],[-130.5,-22.02138],[-130,-21.93399],[-129.5,-21.84334],[-129,-21.74938],[-128.5,-21.65205],[-128,-21.55129],[-127.5,-21.44707],[-127,-21.33931],[-126.5,-21.22796],[-126,-21.11298],[-125.5,-20.99429],[-125,-20.87185],[-124.5,-20.7456],[-124,-20.61547],[-123.5,-20.48142],[-123,-20.34339],[-122.5,-20.20131],[-122,-20.05514],[-121.5,-19.90481],[-121,-19.75027],[-120.5,-19.59148],[-120,-19.42836],[-119.5,-19.26088],[-119,-19.08898],[-118.5,-18.91261],[-118,-18.73173],[-117.5,-18.5463],[-117,-18.35627],[-116.5,-18.16161],[-116,-17.96228],[-115.5,-17.75826],[-115,-17.54951],[-114.5,-17.33603],[-114,-17.11778],[-113.5,-16.89478],[-113,-16.66701],[-112.5,-16.43447],[-112,-16.19719],[-111.5,-15.95518],[-111,-15.70847],[-110.5,-15.4571],[-110,-15.20111],[-109.5,-14.94057],[-109,-14.67553],[-108.5,-14.40609],[-108,-14.13233],[-107.5,-13.85435],[-107,-13.57227],[-106.5,-13.28621],[-106,-12.99631],[-105.5,-12.70271],[-105,-12.40558],[-104.5,-12.1051],[-104,-11.80144],[-103.5,-11.4948],[-103,-11.18538],[-102.5,-10.87339],[-102,-10.55907],[-101.5,-10.24263],[-101,-9.92431],[-100.5,-9.60436],[-100,-9.28303],[-99.5,-8.96055],[-99,-8.63718],[-98.5,-8.31317],[-98,-7.98878],[-97.5,-7.66425],[-97,-7.33982],[-96.5,-7.01575],[-96,-6.69226],[-95.5,-6.36959],[-95,-6.04796],[-94.5,-5.72759],[-94,-5.40868],[-93.5,-5.09142],[-93,-4.77602],[-92.5,-4.46265],[-92,-4.15146],[-91.5,-3.84263],[-91,-3.53629],[-90.5,-3.23259],[-90,-2.93165],[-89.5,-2.63357],[-89,-2.33848],[-88.5,-2.04645],[-88,-1.75759],[-87.5,-1.47195],[-87,-1.18961],[-86.5,-0.91063],[-86,-0.63506],[-85.5,-0.36294],[-85,-0.0943],[-84.5,0.17083],[-84,0.43241],[-83.5,0.69045],[-83,0.94493],[-82.5,1.19583],[-82,1.44317],[-81.5,1.68694],[-81,1.92716],[-80.5,2.16382],[-80,2.39696],[-79.5,2.62657],[-79,2.8527],[-78.5,3.07534],[-78,3.29455],[-77.5,3.51032],[-77,3.72271],[-76.5,3.93173],[-76,4.13742],[-75.5,4.33981],[-75,4.53893],[-74.5,4.73482],[-74,4.92752],[-73.5,5.11705],[-73,5.30345],[-72.5,5.48676],[-72,5.66703],[-71.5,5.84427],[-71,6.01853],[-70.5,6.18985],[-70,6.35827],[-69.5,6.52381],[-69,6.68652],[-68.5,6.84644],[-68,7.00359],[-67.5,7.15802],[-67,7.30976],[-66.5,7.45885],[-66,7.60532],[-65.5,7.7492],[-65,7.89053],[-64.5,8.02935],[-64,8.16568],[-63.5,8.29956],[-63,8.43102],[-62.5,8.5601],[-62,8.68681],[-61.5,8.81121],[-61,8.93331],[-60.5,9.05315],[-60,9.17075],[-59.5,9.28614],[-59,9.39936],[-58.5,9.51043],[-58,9.61938],[-57.5,9.72623],[-57,9.83102],[-56.5,9.93376],[-56,10.03449],[-55.5,10.13323],[-55,10.23],[-54.5,10.32484],[-54,10.41775],[-53.5,10.50877],[-53,10.59792],[-52.5,10.68523],[-52,10.7707],[-51.5,10.85438],[-51,10.93627],[-50.5,11.0164],[-50,11.09479],[-49.5,11.17146],[-49,11.24644],[-48.5,11.31973],[-48,11.39136],[-47.5,11.46135],[-47,11.52972],[-46.5,11.59649],[-46,11.66167],[-45.5,11.72527],[-45.13867,11.77028]]}},{"type":"Feature","id":"+06020823:north:0","properties":{"id":"+06020823","year":602,"month":8,"day":23,"time_tdt":"00:04:00","type":"개기일식","type_code":"T","saros":93,"gamma":-0.03063,"magnitude":1.04646,"greatest":{"lat":9.45392,"lng":-161.72015},"path_width_km":154.7,"duration":"04m26s","delta_t_seconds":4690.5,"catalog_number":6196,"source":"NASA Five Millennium Canon of Solar Eclipses","source_url":"https://eclipse.gsfc.nasa.gov/SEsearch/SEsearchmap.php?Ecl=%2B06020823","boundary":"north","name":"602-08-23 개기일식"},"geometry":{"type":"LineString","coordinates":[[132.25,13.81043],[132.5,13.86097],[133,13.96145],[133.5,14.0611],[134,14.15991],[134.5,14.25786],[135,14.35493],[135.5,14.45112],[136,14.54639],[136.5,14.64074],[137,14.73415],[137.5,14.82659],[138,14.91805],[138.5,15.00852],[139,15.09797],[139.5,15.18638],[140,15.27374],[140.5,15.36003],[141,15.44522],[141.5,15.52931],[142,15.61226],[142.5,15.69405],[143,15.77467],[143.5,15.8541],[144,15.93231],[144.5,16.00929],[145,16.08501],[145.5,16.15944],[146,16.23257],[146.5,16.30438],[147,16.37484],[147.5,16.44392],[148,16.51161],[148.5,16.57788],[149,16.6427],[149.5,16.70606],[150,16.76792],[150.5,16.82826],[151,16.88706],[151.5,16.94429],[152,16.99992],[152.5,17.05392],[153,17.10627],[153.5,17.15695],[154,17.20591],[154.5,17.25314],[155,17.2986],[155.5,17.34227],[156,17.38412],[156.5,17.42411],[157,17.46222],[157.5,17.49841],[158,17.53265],[158.5,17.56491],[159,17.59516],[159.5,17.62337],[160,17.64949],[160.5,17.67351],[161,17.69537],[161.5,17.71506],[162,17.73252],[162.5,17.74773],[163,17.76065],[163.5,17.77124],[164,17.77947],[164.5,17.78529],[165,17.78867],[165.5,17.78956],[166,17.78793],[166.5,17.78374],[167,17.77694],[167.5,17.7675],[168,17.75537],[168.5,17.7405],[169,17.72286],[169.5,17.7024],[170,17.67907],[170.5,17.65284],[171,17.62364],[171.5,17.59145],[172,17.5562],[172.5,17.51786],[173,17.47637],[173.5,17.43169],[174,17.38377],[174.5,17.33255],[175,17.27799],[175.5,17.22004],[176,17.15864],[176.5,17.09375],[177,17.02531],[177.5,16.95328],[178,16.87759],[178.5,16.79821],[179,16.71507],[179.5,16.62813],[180,16.53733]]}},{"type":"Feature","id":"+06020823:north:1","properties":{"id":"+06020823","year":602,"month":8,"day":23,"time_tdt":"00:04:00","type":"개기일식","type_code":"T","saros":93,"gamma":-0.03063,"magnitude":1.04646,"greatest":{"lat":9.45392,"lng":-161.72015},"path_width_km":154.7,"duration":"04m26s","delta_t_seconds":4690.5,"catalog_number":6196,"source":"NASA Five Millennium Canon of Solar Eclipses","source_url":"https://eclipse.gsfc.nasa.gov/SEsearch/SEsearchmap.php?Ecl=%2B06020823","boundary":"north","name":"602-08-23 개기일식"},"geometry":{"type":"LineString","coordinates":[[-179.5,16.44262],[-179,16.34396],[-178.5,16.24129],[-178,16.13456],[-177.5,16.02372],[-177,15.90873],[-176.5,15.78953],[-176,15.66608],[-175.5,15.53835],[-175,15.40627],[-174.5,15.26982],[-174,15.12894],[-173.5,14.98362],[-173,14.8338],[-172.5,14.67946],[-172,14.52057],[-171.5,14.3571],[-171,14.18904],[-170.5,14.01635],[-170,13.83904],[-169.5,13.65708],[-169,13.47047],[-168.5,13.27922],[-168,13.08332],[-167.5,12.88279],[-167,12.67764],[-166.5,12.4679],[-166,12.2536],[-165.5,12.03477],[-165,11.81146],[-164.5,11.58371],[-164,11.3516],[-163.5,11.11517],[-163,10.87452],[-162.5,10.62971],[-162,10.38085],[-161.5,10.12802],[-161,9.87134],[-160.5,9.61092],[-160,9.34688],[-159.5,9.07935],[-159,8.80848],[-158.5,8.5344],[-158,8.25726],[-157.5,7.97723],[-157,7.69447],[-156.5,7.40914],[-156,7.12142],[-155.5,6.83149],[-155,6.53952],[-154.5,6.24571],[-154,5.95023],[-153.5,5.65328],[-153,5.35504],[-152.5,5.0557],[-152,4.75545],[-151.5,4.45447],[-151,4.15296],[-150.5,3.85108],[-150,3.54902],[-149.5,3.24696],[-149,2.94506],[-148.5,2.64349],[-148,2.34242],[-147.5,2.04199],[-147,1.74236],[-146.5,1.44368],[-146,1.14607],[-145.5,0.84968],[-145,0.55462],[-144.5,0.26102],[-144,-0.03101],[-143.5,-0.32137],[-143,-0.60996],[-142.5,-0.89668],[-142,-1.18145],[-141.5,-1.46418],[-141,-1.7448],[-140.5,-2.02325],[-140,-2.29946],[-139.5,-2.57337],[-139,-2.84493],[-138.5,-3.1141],[-138,-3.38082],[-137.5,-3.64507],[-137,-3.9068],[-136.5,-4.166],[-136,-4.42263],[-135.5,-4.67667],[-135,-4.9281],[-134.5,-5.17692],[-134,-5.4231],[-133.5,-5.66664],[-133,-5.90753],[-132.5,-6.14577],[-132,-6.38136],[-131.5,-6.61429],[-131,-6.84458],[-130.5,-7.07222],[-130,-7.29722],[-129.5,-7.51959],[-129,-7.73934],[-128.5,-7.95649],[-128,-8.17103],[-127.5,-8.38299],[-127,-8.59238],[-126.5,-8.79922],[-126,-9.00351],[-125.5,-9.20528],[-125,-9.40455],[-124.5,-9.60134],[-124,-9.79565],[-123.5,-9.98751],[-123,-10.17695],[-122.5,-10.36397],[-122,-10.5486],[-121.5,-10.73087],[-121,-10.91078],[-120.5,-11.08837],[-120,-11.26365],[-119.5,-11.43664],[-119,-11.60736],[-118.5,-11.77584],[-118,-11.9421],[-117.5,-12.10615],[-117,-12.26802],[-116.5,-12.42772],[-116,-12.58529],[-115.5,-12.74074],[-115,-12.89409],[-114.5,-13.04535],[-114,-13.19457],[-113.5,-13.34174],[-113,-13.48689],[-112.5,-13.63004],[-112,-13.77122],[-111.5,-13.91043],[-111,-14.04771],[-110.5,-14.18306],[-110,-14.31651],[-109.5,-14.44808],[-109,-14.57778],[-108.5,-14.70564],[-108,-14.83167],[-107.5,-14.95588],[-107,-15.0783],[-106.5,-15.19895],[-106,-15.31783],[-105.5,-15.43497],[-105,-15.55039],[-104.5,-15.6641],[-104,-15.77611],[-103.5,-15.88645],[-103,-15.99513],[-102.5,-16.10216],[-102,-16.20756],[-101.5,-16.31135],[-101,-16.41354],[-100.82617,-16.44869]]}},{"type":"Feature","id":"+06020823:center:0","properties":{"id":"+06020823","year":602,"month":8,"day":23,"time_tdt":"00:04:00","type":"개기일식","type_code":"T","saros":93,"gamma":-0.03063,"magnitude":1.04646,"greatest":{"lat":9.45392,"lng":-161.72015},"path_width_km":154.7,"duration":"04m26s","delta_t_seconds":4690.5,"catalog_number":6196,"source":"NASA Five Millennium Canon of Solar Eclipses","source_url":"https://eclipse.gsfc.nasa.gov/SEsearch/SEsearchmap.php?Ecl=%2B06020823","boundary":"center","name":"602-08-23 개기일식"},"geometry":{"type":"LineString","coordinates":[[132.35642,13.37997],[132.5,13.40648],[133,13.50475],[133.5,13.6022],[134,13.6988],[134.5,13.79454],[135,13.88941],[135.5,13.98338],[136,14.07644],[136.5,14.16857],[137,14.25976],[137.5,14.34999],[138,14.43923],[138.5,14.52748],[139,14.61471],[139.5,14.7009],[140,14.78604],[140.5,14.87011],[141,14.95308],[141.5,15.03494],[142,15.11567],[142.5,15.19524],[143,15.27364],[143.5,15.35084],[144,15.42683],[144.5,15.50158],[145,15.57507],[145.5,15.64728],[146,15.71818],[146.5,15.78776],[147,15.85599],[147.5,15.92285],[148,15.98831],[148.5,16.05236],[149,16.11495],[149.5,16.17608],[150,16.23571],[150.5,16.29383],[151,16.35039],[151.5,16.40539],[152,16.45878],[152.5,16.51056],[153,16.56067],[153.5,16.60911],[154,16.65584],[154.5,16.70083],[155,16.74405],[155.5,16.78548],[156,16.82508],[156.5,16.86282],[157,16.89868],[157.5,16.93261],[158,16.9646],[158.5,16.9946],[159,17.02259],[159.5,17.04852],[160,17.07238],[160.5,17.09411],[161,17.1137],[161.5,17.13109],[162,17.14626],[162.5,17.15917],[163,17.16978],[163.5,17.17805],[164,17.18396],[164.5,17.18744],[165,17.18848],[165.5,17.18702],[166,17.18303],[166.5,17.17647],[167,17.16729],[167.5,17.15545],[168,17.14091],[168.5,17.12363],[169,17.10356],[169.5,17.08065],[170,17.05486],[170.5,17.02615],[171,16.99446],[171.5,16.95976],[172,16.92199],[172.5,16.8811],[173,16.83705],[173.5,16.78979],[174,16.73926],[174.5,16.68542],[175,16.62822],[175.5,16.5676],[176,16.50351],[176.5,16.43591],[177,16.36474],[177.5,16.28995],[178,16.21149],[178.5,16.12929],[179,16.04333],[179.5,15.95353],[180,15.85985]]}},{"type":"Feature","id":"+06020823:center:1","properties":{"id":"+06020823","year":602,"month":8,"day":23,"time_tdt":"00:04:00","type":"개기일식","type_code":"T","saros":93,"gamma":-0.03063,"magnitude":1.04646,"greatest":{"lat":9.45392,"lng":-161.72015},"path_width_km":154.7,"duration":"04m26s","delta_t_seconds":4690.5,"catalog_number":6196,"source":"NASA Five Millennium Canon of Solar Eclipses","source_url":"https://eclipse.gsfc.nasa.gov/SEsearch/SEsearchmap.php?Ecl=%2B06020823","boundary":"center","name":"602-08-23 개기일식"},"geometry":{"type":"LineString","coordinates":[[-179.5,15.76224],[-179,15.66065],[-178.5,15.55503],[-178,15.44532],[-177.5,15.33148],[-177,15.21346],[-176.5,15.09122],[-176,14.9647],[-175.5,14.83387],[-175,14.69868],[-174.5,14.5591],[-174,14.41509],[-173.5,14.2666],[-173,14.11361],[-172.5,13.9561],[-172,13.79402],[-171.5,13.62736],[-171,13.45611],[-170.5,13.28024],[-170,13.09974],[-169.5,12.91461],[-169,12.72485],[-168.5,12.53047],[-168,12.33147],[-167.5,12.12786],[-167,11.91968],[-166.5,11.70696],[-166,11.48972],[-165.5,11.26801],[-165,11.04188],[-164.5,10.8114],[-164,10.57662],[-163.5,10.33763],[-163,10.0945],[-162.5,9.84732],[-162,9.5962],[-161.5,9.34123],[-161,9.08254],[-160.5,8.82024],[-160,8.55447],[-159.5,8.28537],[-159,8.01307],[-158.5,7.73773],[-158,7.45951],[-157.5,7.17857],[-157,6.89507],[-156.5,6.6092],[-156,6.32113],[-155.5,6.03103],[-155,5.7391],[-154.5,5.44551],[-154,5.15046],[-153.5,4.85414],[-153,4.55672],[-152.5,4.2584],[-152,3.95936],[-151.5,3.65979],[-151,3.35987],[-150.5,3.05977],[-150,2.75967],[-149.5,2.45975],[-149,2.16015],[-148.5,1.86105],[-148,1.5626],[-147.5,1.26495],[-147,0.96824],[-146.5,0.67262],[-146,0.3782],[-145.5,0.08511],[-145,-0.20652],[-144.5,-0.49658],[-144,-0.78498],[-143.5,-1.07161],[-143,-1.35637],[-142.5,-1.6392],[-142,-1.91999],[-141.5,-2.19869],[-141,-2.47521],[-140.5,-2.74951],[-140,-3.02152],[-139.5,-3.29118],[-139,-3.55846],[-138.5,-3.82331],[-138,-4.0857],[-137.5,-4.34558],[-137,-4.60294],[-136.5,-4.85774],[-136,-5.10996],[-135.5,-5.35959],[-135,-5.60661],[-134.5,-5.85102],[-134,-6.09279],[-133.5,-6.33193],[-133,-6.56842],[-132.5,-6.80228],[-132,-7.0335],[-131.5,-7.26208],[-131,-7.48803],[-130.5,-7.71136],[-130,-7.93206],[-129.5,-8.15016],[-129,-8.36567],[-128.5,-8.57858],[-128,-8.78893],[-127.5,-8.99672],[-127,-9.20196],[-126.5,-9.40468],[-126,-9.60489],[-125.5,-9.80261],[-125,-9.99785],[-124.5,-10.19063],[-124,-10.38098],[-123.5,-10.56891],[-123,-10.75444],[-122.5,-10.9376],[-122,-11.11839],[-121.5,-11.29685],[-121,-11.47299],[-120.5,-11.64683],[-120,-11.8184],[-119.5,-11.98771],[-119,-12.15479],[-118.5,-12.31965],[-118,-12.48232],[-117.5,-12.64282],[-117,-12.80117],[-116.5,-12.95739],[-116,-13.11149],[-115.5,-13.26351],[-115,-13.41346],[-114.5,-13.56136],[-114,-13.70724],[-113.5,-13.8511],[-113,-13.99298],[-112.5,-14.13288],[-112,-14.27084],[-111.5,-14.40686],[-111,-14.54097],[-110.5,-14.67319],[-110,-14.80353],[-109.5,-14.93202],[-109,-15.05867],[-108.5,-15.1835],[-108,-15.30652],[-107.5,-15.42776],[-107,-15.54724],[-106.5,-15.66496],[-106,-15.78095],[-105.5,-15.89522],[-105,-16.00779],[-104.5,-16.11867],[-104,-16.22789],[-103.5,-16.33546],[-103,-16.44138],[-102.5,-16.54569],[-102,-16.64838],[-101.5,-16.74949],[-101,-16.84902],[-100.93137,-16.86667]]}},{"type":"Feature","id":"+06020823:south:0","properties":{"id":"+06020823","year":602,"month":8,"day":23,"time_tdt":"00:04:00","type":"개기일식","type_code":"T","saros":93,"gamma":-0.03063,"magnitude":1.04646,"greatest":{"lat":9.45392,"lng":-161.72015},"path_width_km":154.7,"duration":"04m26s","delta_t_seconds":4690.5,"catalog_number":6196,"source":"NASA Five Millennium Canon of Solar Eclipses","source_url":"https://eclipse.gsfc.nasa.gov/SEsearch/SEsearchmap.php?Ecl=%2B06020823","boundary":"south","name":"602-08-23 개기일식"},"geometry":{"type":"LineString","coordinates":[[132.45508,12.94445],[132.5,12.95312],[133,13.04919],[133.5,13.14442],[134,13.23881],[134.5,13.33234],[135,13.42499],[135.5,13.51675],[136,13.60759],[136.5,13.6975],[137,13.78647],[137.5,13.87447],[138,13.96149],[138.5,14.04751],[139,14.13251],[139.5,14.21647],[140,14.29938],[140.5,14.38122],[141,14.46195],[141.5,14.54158],[142,14.62007],[142.5,14.6974],[143,14.77357],[143.5,14.84853],[144,14.92228],[144.5,14.99479],[145,15.06604],[145.5,15.13601],[146,15.20467],[146.5,15.27201],[147,15.338],[147.5,15.40261],[148,15.46583],[148.5,15.52762],[149,15.58797],[149.5,15.64685],[150,15.70423],[150.5,15.76009],[151,15.81441],[151.5,15.86715],[152,15.91829],[152.5,15.9678],[153,16.01566],[153.5,16.06184],[154,16.1063],[154.5,16.14903],[155,16.18998],[155.5,16.22914],[156,16.26647],[156.5,16.30193],[157,16.33551],[157.5,16.36716],[158,16.39686],[158.5,16.42457],[159,16.45026],[159.5,16.4739],[160,16.49544],[160.5,16.51487],[161,16.53213],[161.5,16.5472],[162,16.56004],[162.5,16.57061],[163,16.57888],[163.5,16.5848],[164,16.58834],[164.5,16.58946],[165,16.58811],[165.5,16.58427],[166,16.57788],[166.5,16.5689],[167,16.5573],[167.5,16.54303],[168,16.52604],[168.5,16.50629],[169,16.48375],[169.5,16.45835],[170,16.43006],[170.5,16.39882],[171,16.3646],[171.5,16.32735],[172,16.287],[172.5,16.24353],[173,16.19687],[173.5,16.14698],[174,16.0938],[174.5,16.0373],[175,15.9774],[175.5,15.91407],[176,15.84726],[176.5,15.7769],[177,15.70295],[177.5,15.62536],[178,15.54407],[178.5,15.45903],[179,15.37018],[179.5,15.27749],[180,15.18089]]}},{"type":"Feature","id":"+06020823:south:1","properties":{"id":"+06020823","year":602,"month":8,"day":23,"time_tdt":"00:04:00","type":"개기일식","type_code":"T","saros":93,"gamma":-0.03063,"magnitude":1.04646,"greatest":{"lat":9.45392,"lng":-161.72015},"path_width_km":154.7,"duration":"04m26s","delta_t_seconds":4690.5,"catalog_number":6196,"source":"NASA Five Millennium Canon of Solar Eclipses","source_url":"https://eclipse.gsfc.nasa.gov/SEsearch/SEsearchmap.php?Ecl=%2B06020823","boundary":"south","name":"602-08-23 개기일식"},"geometry":{"type":"LineString","coordinates":[[-179.5,15.08033],[-179,14.97577],[-178.5,14.86715],[-178,14.75442],[-177.5,14.63754],[-177,14.51646],[-176.5,14.39114],[-176,14.26152],[-175.5,14.12757],[-175,13.98924],[-174.5,13.8465],[-174,13.69932],[-173.5,13.54766],[-173,13.39148],[-172.5,13.23077],[-172,13.06549],[-171.5,12.89564],[-171,12.72119],[-170.5,12.54214],[-170,12.35847],[-169.5,12.17018],[-169,11.97729],[-168.5,11.7798],[-168,11.57772],[-167.5,11.37109],[-167,11.15992],[-166.5,10.94425],[-166,10.72413],[-165.5,10.49961],[-165,10.27074],[-164.5,10.0376],[-164,9.80025],[-163.5,9.55878],[-163,9.31328],[-162.5,9.06385],[-162,8.81058],[-161.5,8.55361],[-161,8.29304],[-160.5,8.02902],[-160,7.76167],[-159.5,7.49114],[-159,7.21758],[-158.5,6.94115],[-158,6.66202],[-157.5,6.38034],[-157,6.0963],[-156.5,5.81007],[-156,5.52183],[-155.5,5.23176],[-155,4.94005],[-154.5,4.64689],[-154,4.35245],[-153.5,4.05694],[-153,3.76053],[-152.5,3.46341],[-152,3.16577],[-151.5,2.86777],[-151,2.56961],[-150.5,2.27145],[-150,1.97347],[-149.5,1.67582],[-149,1.37867],[-148.5,1.08218],[-148,0.78648],[-147.5,0.49172],[-147,0.19805],[-146.5,-0.09442],[-146,-0.38556],[-145.5,-0.67525],[-145,-0.96337],[-144.5,-1.24983],[-144,-1.53453],[-143.5,-1.81738],[-143,-2.09828],[-142.5,-2.37717],[-142,-2.65396],[-141.5,-2.92859],[-141,-3.201],[-140.5,-3.47114],[-140,-3.73894],[-139.5,-4.00436],[-139,-4.26737],[-138.5,-4.52791],[-138,-4.78597],[-137.5,-5.04152],[-137,-5.29451],[-136.5,-5.54495],[-136,-5.7928],[-135.5,-6.03806],[-135,-6.2807],[-134.5,-6.52073],[-134,-6.75814],[-133.5,-6.99292],[-133,-7.22507],[-132.5,-7.4546],[-132,-7.6815],[-131.5,-7.90578],[-131,-8.12745],[-130.5,-8.34651],[-130,-8.56298],[-129.5,-8.77686],[-129,-8.98817],[-128.5,-9.19692],[-128,-9.40313],[-127.5,-9.60681],[-127,-9.80797],[-126.5,-10.00663],[-126,-10.20281],[-125.5,-10.39653],[-125,-10.5878],[-124.5,-10.77665],[-124,-10.9631],[-123.5,-11.14715],[-123,-11.32884],[-122.5,-11.50818],[-122,-11.68519],[-121.5,-11.8599],[-121,-12.03232],[-120.5,-12.20247],[-120,-12.37039],[-119.5,-12.53607],[-119,-12.69956],[-118.5,-12.86086],[-118,-13.02],[-117.5,-13.177],[-117,-13.33188],[-116.5,-13.48466],[-116,-13.63536],[-115.5,-13.784],[-115,-13.9306],[-114.5,-14.07518],[-114,-14.21776],[-113.5,-14.35836],[-113,-14.49701],[-112.5,-14.63371],[-112,-14.76849],[-111.5,-14.90136],[-111,-15.03235],[-110.5,-15.16148],[-110,-15.28876],[-109.5,-15.41421],[-109,-15.53784],[-108.5,-15.65968],[-108,-15.77975],[-107.5,-15.89806],[-107,-16.01462],[-106.5,-16.12946],[-106,-16.24258],[-105.5,-16.35402],[-105,-16.46378],[-104.5,-16.57188],[-104,-16.67833],[-103.5,-16.78315],[-103,-16.88636],[-102.5,-16.98797],[-102,-17.08799],[-101.5,-17.18645],[-101.02539,-17.27846]]}}],"attribution":"Eclipse Predictions by Fred Espenak and Jean Meeus (NASA's GSFC)","generated_at":"2026-09-23T01:44:53.348Z"}
