{"type":"FeatureCollection","year":607,"events":[{"id":"+06070531","year":607,"month":5,"day":31,"time_tdt":"11:14:14","type":"부분일식","type_code":"P","saros":105,"gamma":1.09055,"magnitude":0.81404,"greatest":{"lat":64.01781,"lng":-117.53424},"path_width_km":0,"duration":"00m00s","delta_t_seconds":4645.4,"catalog_number":6208,"source":"NASA Five Millennium Canon of Solar Eclipses","source_url":"https://eclipse.gsfc.nasa.gov/SEsearch/SEsearchmap.php?Ecl=%2B06070531"},{"id":"+06071026","year":607,"month":10,"day":26,"time_tdt":"16:58:21","type":"부분일식","type_code":"P","saros":72,"gamma":1.46516,"magnitude":0.15852,"greatest":{"lat":61.6737,"lng":4.73608},"path_width_km":0,"duration":"00m00s","delta_t_seconds":4641.6,"catalog_number":6209,"source":"NASA Five Millennium Canon of Solar Eclipses","source_url":"https://eclipse.gsfc.nasa.gov/SEsearch/SEsearchmap.php?Ecl=%2B06071026"},{"id":"+06071125","year":607,"month":11,"day":25,"time_tdt":"06:44:16","type":"부분일식","type_code":"P","saros":110,"gamma":-1.36333,"magnitude":0.33268,"greatest":{"lat":-63.68641,"lng":-46.37122},"path_width_km":0,"duration":"00m00s","delta_t_seconds":4640.8,"catalog_number":6210,"source":"NASA Five Millennium Canon of Solar Eclipses","source_url":"https://eclipse.gsfc.nasa.gov/SEsearch/SEsearchmap.php?Ecl=%2B06071125"}],"features":[],"attribution":"Eclipse Predictions by Fred Espenak and Jean Meeus (NASA's GSFC)","generated_at":"2026-09-23T01:44:53.185Z"}
