{"type":"FeatureCollection","year":615,"events":[{"id":"+06150105","year":615,"month":1,"day":5,"time_tdt":"11:22:56","type":"부분일식","type_code":"P","saros":109,"gamma":1.33966,"magnitude":0.37117,"greatest":{"lat":64.18632,"lng":-0.57404},"path_width_km":0,"duration":"00m00s","delta_t_seconds":4573.8,"catalog_number":6228,"source":"NASA Five Millennium Canon of Solar Eclipses","source_url":"https://eclipse.gsfc.nasa.gov/SEsearch/SEsearchmap.php?Ecl=%2B06150105"},{"id":"+06150602","year":615,"month":6,"day":2,"time_tdt":"05:35:00","type":"부분일식","type_code":"P","saros":76,"gamma":1.13369,"magnitude":0.73387,"greatest":{"lat":67.44685,"lng":-61.26776},"path_width_km":0,"duration":"00m00s","delta_t_seconds":4570,"catalog_number":6229,"source":"NASA Five Millennium Canon of Solar Eclipses","source_url":"https://eclipse.gsfc.nasa.gov/SEsearch/SEsearchmap.php?Ecl=%2B06150602"},{"id":"+06151126","year":615,"month":11,"day":26,"time_tdt":"16:04:23","type":"개기일식","type_code":"T","saros":81,"gamma":-0.71047,"magnitude":1.02822,"greatest":{"lat":-66.96256,"lng":-51.68567},"path_width_km":136.6,"duration":"01m54s","delta_t_seconds":4565.4,"catalog_number":6230,"source":"NASA Five Millennium Canon of Solar Eclipses","source_url":"https://eclipse.gsfc.nasa.gov/SEsearch/SEsearchmap.php?Ecl=%2B06151126"}],"features":[{"type":"Feature","id":"+06151126:north:0","properties":{"id":"+06151126","year":615,"month":11,"day":26,"time_tdt":"16:04:23","type":"개기일식","type_code":"T","saros":81,"gamma":-0.71047,"magnitude":1.02822,"greatest":{"lat":-66.96256,"lng":-51.68567},"path_width_km":136.6,"duration":"01m54s","delta_t_seconds":4565.4,"catalog_number":6230,"source":"NASA Five Millennium Canon of Solar Eclipses","source_url":"https://eclipse.gsfc.nasa.gov/SEsearch/SEsearchmap.php?Ecl=%2B06151126","boundary":"north","name":"615-11-26 개기일식"},"geometry":{"type":"LineString","coordinates":[[-133.5,-37.73431],[-133,-37.94092],[-132.5,-38.14912],[-132,-38.35891],[-131.5,-38.57026],[-131,-38.78317],[-130.5,-38.99763],[-130,-39.21361],[-129.5,-39.43111],[-129,-39.6501],[-128.5,-39.87057],[-128,-40.0925],[-128,-40.09251],[-127.5,-40.31588],[-127,-40.54066],[-126.5,-40.76685],[-126,-40.9944],[-125.5,-41.2233],[-125,-41.45351],[-124.5,-41.68501],[-124,-41.91777],[-123.5,-42.15176],[-123,-42.38694],[-122.5,-42.62328],[-122,-42.86075],[-122,-42.86074],[-121.5,-43.09929],[-121,-43.33889],[-120.5,-43.57948],[-120,-43.82104],[-119.5,-44.06352],[-119,-44.30687],[-118.5,-44.55104],[-118,-44.79599],[-117.5,-45.04167],[-117,-45.28801],[-116.5,-45.53498],[-116,-45.78251],[-115.5,-46.03055],[-115,-46.27904],[-114.5,-46.52793],[-114,-46.77714],[-113.5,-47.02662],[-113,-47.27631],[-112.5,-47.52615],[-112,-47.77606],[-111.5,-48.02598],[-111,-48.27585],[-111,-48.27586],[-110.5,-48.52561],[-110,-48.77517],[-109.5,-49.02447],[-109,-49.27345],[-108.5,-49.52204],[-108,-49.77016],[-107.5,-50.01775],[-107,-50.26474],[-106.5,-50.51106],[-106,-50.75664],[-105.5,-51.00141],[-105,-51.24531],[-104.5,-51.48827],[-104,-51.73021],[-103.5,-51.97109],[-103,-52.21083],[-102.5,-52.44936],[-102,-52.68663],[-101.5,-52.92258],[-101,-53.15715],[-100.5,-53.39027],[-100,-53.6219],[-99.5,-53.85197],[-99,-54.08044],[-98.5,-54.30725],[-98,-54.53236],[-97.5,-54.75571],[-97,-54.97727],[-96.5,-55.19698],[-96,-55.41481],[-95.5,-55.63072],[-95,-55.84466],[-94.5,-56.05661],[-94,-56.26653],[-93.5,-56.47439],[-93,-56.68015],[-92.5,-56.8838],[-92,-57.08531],[-91.5,-57.28465],[-91,-57.48181],[-90.5,-57.67675],[-90,-57.86948],[-89.5,-58.05996],[-89,-58.24819],[-88.5,-58.43415],[-88,-58.61784],[-87.5,-58.79924],[-87,-58.97835],[-86.5,-59.15516],[-86,-59.32967],[-85.5,-59.50187],[-85,-59.67177],[-84.5,-59.83936],[-84,-60.00464],[-83.5,-60.16763],[-83,-60.32831],[-82.5,-60.48671],[-82.5,-60.4867],[-82,-60.64281],[-81.5,-60.79663],[-81,-60.94817],[-80.5,-61.09745],[-80,-61.24448],[-79.5,-61.38926],[-79.5,-61.38925],[-79,-61.5318],[-78.5,-61.67211],[-78,-61.81022],[-77.5,-61.94612],[-77,-62.07983],[-76.5,-62.21137],[-76,-62.34076],[-75.5,-62.46799],[-75,-62.5931],[-74.5,-62.71608],[-74,-62.83697],[-73.5,-62.95577],[-73,-63.0725],[-72.5,-63.18717],[-72.5,-63.18718],[-72,-63.29981],[-71.5,-63.41042],[-71.5,-63.41043],[-71,-63.51903],[-70.5,-63.62565],[-70,-63.73029],[-69.5,-63.83298],[-69,-63.93372],[-68.5,-64.03253],[-68,-64.12944],[-67.5,-64.22445],[-67.5,-64.22446],[-67,-64.31759],[-66.5,-64.40887],[-66,-64.49829],[-66,-64.4983],[-65.5,-64.58589],[-65,-64.67168],[-64.5,-64.75566],[-64,-64.83786],[-63.5,-64.91829],[-63,-64.99697],[-62.5,-65.07391],[-62,-65.14912],[-61.5,-65.22262],[-61,-65.29443],[-60.5,-65.36455],[-60,-65.433],[-59.5,-65.4998],[-59.5,-65.49979],[-59,-65.56495],[-58.5,-65.62847],[-58,-65.69037],[-57.5,-65.75067],[-57,-65.80938],[-56.5,-65.86651],[-56,-65.92206],[-55.5,-65.97606],[-55,-66.02851],[-54.5,-66.07942],[-54,-66.12881],[-53.5,-66.17668],[-53,-66.22305],[-52.5,-66.26792],[-52,-66.31131],[-51.5,-66.35321],[-51,-66.39365],[-51,-66.39363],[-50.5,-66.43263],[-50,-66.47016],[-49.5,-66.50625],[-49,-66.5409],[-48.5,-66.57412],[-48,-66.60592],[-47.5,-66.63631],[-47,-66.66529],[-46.5,-66.69288],[-46,-66.71906],[-45.5,-66.74386],[-45,-66.76728],[-44.5,-66.78932],[-44,-66.80999],[-43.5,-66.82929],[-43,-66.84723],[-42.5,-66.86381],[-42,-66.87904],[-41.5,-66.89292],[-41,-66.90545],[-40.5,-66.91664],[-40,-66.92649],[-39.5,-66.935],[-39,-66.94217],[-38.5,-66.94801],[-38,-66.95253],[-37.5,-66.95571],[-37,-66.95757],[-37,-66.95756],[-36.5,-66.9581],[-36,-66.9573],[-35.5,-66.95518],[-35,-66.95174],[-34.5,-66.94697],[-34,-66.94088],[-33.5,-66.93347],[-33,-66.92473],[-32.5,-66.91466],[-32,-66.90327],[-31.5,-66.89056],[-31,-66.87651],[-30.5,-66.86114],[-30,-66.84443],[-29.5,-66.82639],[-29,-66.80701],[-28.5,-66.78629],[-28,-66.76423],[-27.5,-66.74082],[-27,-66.71607],[-26.5,-66.68996],[-26,-66.6625],[-25.5,-66.63368],[-25,-66.60349],[-24.5,-66.57194],[-24,-66.53901],[-23.5,-66.5047],[-23,-66.46902],[-22.5,-66.43194],[-22,-66.39347],[-21.5,-66.3536],[-21,-66.31232],[-20.5,-66.26964],[-20,-66.22553],[-19.5,-66.18],[-19,-66.13304],[-18.5,-66.08465],[-18,-66.0348],[-17.5,-65.98351],[-17,-65.93076],[-16.5,-65.87654],[-16,-65.82084],[-15.5,-65.76366],[-15,-65.705],[-14.5,-65.64483],[-14,-65.58316],[-13.5,-65.51997],[-13,-65.45526],[-12.5,-65.38901],[-12,-65.32122],[-11.5,-65.25189],[-11,-65.18099],[-10.5,-65.10852],[-10,-65.03448],[-9.5,-64.95885],[-9,-64.88162],[-8.5,-64.80279],[-8,-64.72235],[-8,-64.72234],[-7.5,-64.64027],[-7,-64.55657],[-6.5,-64.47122],[-6,-64.38422],[-5.5,-64.29555],[-5,-64.20522],[-4.5,-64.1132],[-4,-64.01949],[-3.5,-63.92408],[-3,-63.82697],[-2.5,-63.72813],[-2,-63.62757],[-1.5,-63.52528],[-1,-63.42124],[-0.5,-63.31545],[0,-63.2079],[0,-63.20789],[0.5,-63.09858],[0.5,-63.09857],[1,-62.98748],[1.5,-62.8746],[2,-62.75993],[2.5,-62.64346],[3,-62.52519],[3.5,-62.40512],[3.5,-62.40511],[4,-62.28322],[4.5,-62.15951],[4.5,-62.1595],[5,-62.03396],[5.5,-61.90659],[6,-61.77739],[6.5,-61.64635],[7,-61.51347],[7.5,-61.37875],[8,-61.24218],[8.5,-61.10378],[9,-60.96352],[9.5,-60.82143],[10,-60.67748],[10,-60.67749],[10.5,-60.5317],[11,-60.38408],[11.5,-60.23463],[12,-60.08334],[12.5,-59.93023],[13,-59.7753],[13.5,-59.61856],[14,-59.46001],[14.5,-59.29966],[15,-59.13753],[15.5,-58.97362],[16,-58.80795],[16.5,-58.64053],[17,-58.47136],[17.5,-58.30048],[18,-58.12789],[18,-58.12788],[18.5,-57.9536],[19,-57.77764],[19.5,-57.60003],[20,-57.42079],[20.5,-57.23993],[21,-57.05749],[21.5,-56.87347],[22,-56.68792],[22.5,-56.50085],[23,-56.31228],[23.5,-56.12226],[24,-55.9308],[24,-55.93079],[24.5,-55.73793],[25,-55.54369],[25.5,-55.34811],[26,-55.15122],[26,-55.15121],[26.5,-54.95305],[27,-54.75363],[27.5,-54.55301],[28,-54.35122],[28.5,-54.1483],[29,-53.94427],[29.5,-53.73919],[30,-53.53309],[30,-53.53308],[30.5,-53.326],[31,-53.11797],[31.5,-52.90904],[32,-52.69925],[32.5,-52.48865],[33,-52.27726],[33.5,-52.06514],[34,-51.85233],[34.5,-51.63886],[35,-51.42479],[35.5,-51.21015],[36,-50.99499],[36.5,-50.77935],[37,-50.56327],[37.5,-50.34679],[38,-50.12997],[38.5,-49.91283],[39,-49.69543],[39.5,-49.4778],[40,-49.25998],[40.5,-49.04203],[41,-48.82397],[41.5,-48.60585],[42,-48.3877],[42.5,-48.16958],[43,-47.95151],[43.5,-47.73353],[44,-47.51569],[44.5,-47.29801],[45,-47.08054],[45.5,-46.86332],[46,-46.64637],[46.5,-46.42973],[47,-46.21344],[47.5,-45.99752],[48,-45.78202],[48.5,-45.56695],[49,-45.35236],[49.5,-45.13828],[50,-44.92472],[50.25,-44.81815]]}},{"type":"Feature","id":"+06151126:center:0","properties":{"id":"+06151126","year":615,"month":11,"day":26,"time_tdt":"16:04:23","type":"개기일식","type_code":"T","saros":81,"gamma":-0.71047,"magnitude":1.02822,"greatest":{"lat":-66.96256,"lng":-51.68567},"path_width_km":136.6,"duration":"01m54s","delta_t_seconds":4565.4,"catalog_number":6230,"source":"NASA Five Millennium Canon of Solar Eclipses","source_url":"https://eclipse.gsfc.nasa.gov/SEsearch/SEsearchmap.php?Ecl=%2B06151126","boundary":"center","name":"615-11-26 개기일식"},"geometry":{"type":"LineString","coordinates":[[-134.0104,-37.95506],[-134,-37.9539],[-133.5,-38.16399],[-133,-38.37571],[-132.5,-38.58906],[-132,-38.80403],[-131.5,-39.02059],[-131,-39.23875],[-130.5,-39.45848],[-130,-39.67976],[-130,-39.67977],[-129.5,-39.90259],[-129,-40.12694],[-128.5,-40.35279],[-128,-40.58013],[-127.5,-40.80892],[-127,-41.03915],[-126.5,-41.27078],[-126,-41.5038],[-125.5,-41.73818],[-125,-41.97387],[-124.5,-42.21087],[-124,-42.44912],[-123.5,-42.6886],[-123,-42.92927],[-122.5,-43.17109],[-122,-43.41402],[-121.5,-43.65803],[-121,-43.90307],[-120.5,-44.14908],[-120,-44.39604],[-119.5,-44.64389],[-119,-44.89257],[-118.5,-45.14205],[-118,-45.39226],[-117.5,-45.64316],[-117,-45.89468],[-116.5,-46.14677],[-116,-46.39936],[-115.5,-46.65241],[-115,-46.90584],[-114.5,-47.1596],[-114,-47.41362],[-113.5,-47.66782],[-113,-47.92216],[-112.5,-48.17655],[-112,-48.43094],[-111.5,-48.68524],[-111,-48.9394],[-110.5,-49.19333],[-110,-49.44698],[-109.5,-49.70026],[-109,-49.9531],[-108.5,-50.20544],[-108,-50.4572],[-107.5,-50.70831],[-107,-50.95869],[-106.5,-51.20828],[-106.5,-51.20829],[-106,-51.45701],[-105.5,-51.70481],[-105,-51.95159],[-104.5,-52.19731],[-104,-52.44189],[-103.5,-52.68526],[-103,-52.92736],[-102.5,-53.16812],[-102,-53.40749],[-101.5,-53.6454],[-101,-53.88179],[-100.5,-54.11661],[-100,-54.3498],[-99.5,-54.58131],[-99,-54.81108],[-98.5,-55.03906],[-98,-55.26521],[-97.5,-55.48949],[-97,-55.71184],[-96.5,-55.93223],[-96,-56.15061],[-95.5,-56.36696],[-95,-56.58123],[-94.5,-56.79339],[-94,-57.00342],[-93.5,-57.21127],[-93,-57.41694],[-92.5,-57.62039],[-92,-57.8216],[-91.5,-58.02055],[-91,-58.21722],[-90.5,-58.4116],[-90,-58.60367],[-89.5,-58.79343],[-89,-58.98085],[-88.5,-59.16593],[-88,-59.34867],[-87.5,-59.52906],[-87,-59.70709],[-86.5,-59.88276],[-86,-60.05607],[-85.5,-60.22703],[-85,-60.39563],[-84.5,-60.56187],[-84,-60.72577],[-83.5,-60.88732],[-83,-61.04654],[-82.5,-61.20342],[-82,-61.35798],[-81.5,-61.51024],[-81,-61.66019],[-80.5,-61.80784],[-80,-61.95322],[-79.5,-62.09633],[-79,-62.23719],[-78.5,-62.37581],[-78,-62.5122],[-77.5,-62.64638],[-77,-62.77836],[-76.5,-62.90815],[-76.5,-62.90816],[-76,-63.03579],[-75.5,-63.16127],[-75,-63.28462],[-74.5,-63.40585],[-74,-63.52498],[-73.5,-63.64202],[-73,-63.757],[-72.5,-63.86993],[-72,-63.98082],[-71.5,-64.0897],[-71,-64.19659],[-70.5,-64.30149],[-70,-64.40443],[-70,-64.40442],[-69.5,-64.50542],[-69,-64.60448],[-68.5,-64.70163],[-68,-64.79688],[-67.5,-64.89025],[-67,-64.98177],[-66.5,-65.07144],[-66,-65.15928],[-65.5,-65.2453],[-65,-65.32954],[-64.5,-65.41199],[-64,-65.49267],[-63.5,-65.57161],[-63,-65.64882],[-62.5,-65.7243],[-62,-65.79808],[-61.5,-65.87018],[-61,-65.94059],[-60.5,-66.00935],[-60,-66.07646],[-59.5,-66.14194],[-59,-66.2058],[-58.5,-66.26805],[-58,-66.32871],[-57.5,-66.38779],[-57,-66.4453],[-56.5,-66.50125],[-56,-66.55566],[-55.5,-66.60854],[-55,-66.65989],[-54.5,-66.70973],[-54,-66.75807],[-53.5,-66.80492],[-53,-66.85029],[-52.5,-66.89419],[-52,-66.93663],[-51.5,-66.97762],[-51,-67.01717],[-50.5,-67.05528],[-50,-67.09197],[-49.5,-67.12724],[-49,-67.1611],[-48.5,-67.19356],[-48,-67.22462],[-47.5,-67.2543],[-47,-67.2826],[-46.5,-67.30952],[-46,-67.33507],[-45.5,-67.35927],[-45,-67.3821],[-44.5,-67.40359],[-44.5,-67.40358],[-44,-67.42372],[-43.5,-67.44252],[-43,-67.45998],[-42.5,-67.47611],[-42,-67.49091],[-41.5,-67.50438],[-41,-67.51654],[-40.5,-67.52737],[-40,-67.5369],[-39.5,-67.5451],[-39,-67.552],[-38.5,-67.5576],[-38,-67.56188],[-37.5,-67.56486],[-37.5,-67.56487],[-37,-67.56654],[-36.5,-67.56692],[-36,-67.566],[-35.5,-67.56378],[-35,-67.56026],[-34.5,-67.55544],[-34,-67.54932],[-33.5,-67.5419],[-33,-67.53318],[-32.5,-67.52316],[-32,-67.51183],[-31.5,-67.49921],[-31,-67.48527],[-30.5,-67.47003],[-30.5,-67.47004],[-30,-67.45349],[-29.5,-67.43563],[-29,-67.41645],[-28.5,-67.39596],[-28,-67.37415],[-27.5,-67.35102],[-27,-67.32656],[-26.5,-67.30077],[-26,-67.27364],[-25.5,-67.24518],[-25,-67.21538],[-24.5,-67.18422],[-24,-67.15172],[-23.5,-67.11785],[-23,-67.08263],[-22.5,-67.04604],[-22,-67.00807],[-21.5,-66.96872],[-21,-66.92799],[-20.5,-66.88586],[-20,-66.84233],[-19.5,-66.7974],[-19,-66.75106],[-18.5,-66.70329],[-18,-66.6541],[-17.5,-66.60347],[-17,-66.5514],[-16.5,-66.49788],[-16,-66.4429],[-15.5,-66.38646],[-15,-66.32853],[-14.5,-66.26912],[-14,-66.20822],[-13.5,-66.14582],[-13,-66.0819],[-12.5,-66.01647],[-12,-65.9495],[-11.5,-65.881],[-11,-65.81094],[-10.5,-65.73933],[-10,-65.66615],[-9.5,-65.59138],[-9,-65.51503],[-8.5,-65.43708],[-8.5,-65.43709],[-8,-65.35753],[-7.5,-65.27635],[-7,-65.19354],[-6.5,-65.10909],[-6,-65.02299],[-6,-65.023],[-5.5,-64.93524],[-5,-64.84581],[-4.5,-64.75469],[-4,-64.66189],[-3.5,-64.56738],[-3,-64.47117],[-2.5,-64.37323],[-2,-64.27355],[-1.5,-64.17214],[-1,-64.06897],[-0.5,-63.96404],[0,-63.85734],[0.5,-63.74886],[1,-63.63859],[1.5,-63.52653],[2,-63.41265],[2.5,-63.29696],[3,-63.17945],[3.5,-63.06011],[4,-62.93893],[4.5,-62.81591],[5,-62.69103],[5.5,-62.5643],[6,-62.43571],[6.5,-62.30525],[7,-62.17292],[7.5,-62.03871],[8,-61.90262],[8.5,-61.76465],[9,-61.6248],[9.5,-61.48306],[10,-61.33944],[10.5,-61.19393],[11,-61.04653],[11.5,-60.89725],[12,-60.74609],[12.5,-60.59306],[13,-60.43814],[13.5,-60.28136],[14,-60.12272],[14.5,-59.96222],[15,-59.79987],[15.5,-59.63568],[16,-59.46966],[16.5,-59.30182],[17,-59.13218],[17.5,-58.96075],[18,-58.78753],[18.5,-58.61255],[19,-58.43582],[19.5,-58.25737],[20,-58.0772],[20.5,-57.89534],[21,-57.71181],[21.5,-57.52664],[22,-57.33984],[22.5,-57.15144],[23,-56.96146],[23.5,-56.76994],[24,-56.5769],[24.5,-56.38237],[25,-56.18637],[25.5,-55.98895],[26,-55.79013],[26.5,-55.58995],[27,-55.38844],[27.5,-55.18563],[28,-54.98157],[28.5,-54.77629],[29,-54.56982],[29.5,-54.36221],[30,-54.15349],[30.5,-53.94371],[31,-53.7329],[31.5,-53.52111],[32,-53.30838],[32.5,-53.09475],[33,-52.88027],[33.5,-52.66497],[34,-52.44891],[34.5,-52.23212],[35,-52.01466],[35.5,-51.79655],[36,-51.57786],[36.5,-51.35862],[37,-51.13888],[37.5,-50.91869],[38,-50.69808],[38.5,-50.4771],[39,-50.2558],[39.5,-50.03423],[40,-49.81242],[40.5,-49.59041],[41,-49.36826],[41.5,-49.146],[42,-48.92368],[42.5,-48.70134],[43,-48.47902],[43.5,-48.25676],[43.5,-48.25675],[44,-48.03459],[44.5,-47.81257],[45,-47.59073],[45.5,-47.3691],[46,-47.14773],[46.5,-46.92665],[47,-46.7059],[47.5,-46.48551],[48,-46.26552],[48.5,-46.04596],[49,-45.82686],[49.5,-45.60826],[50,-45.39018],[50.5,-45.17266],[50.80824,-45.04035]]}},{"type":"Feature","id":"+06151126:south:0","properties":{"id":"+06151126","year":615,"month":11,"day":26,"time_tdt":"16:04:23","type":"개기일식","type_code":"T","saros":81,"gamma":-0.71047,"magnitude":1.02822,"greatest":{"lat":-66.96256,"lng":-51.68567},"path_width_km":136.6,"duration":"01m54s","delta_t_seconds":4565.4,"catalog_number":6230,"source":"NASA Five Millennium Canon of Solar Eclipses","source_url":"https://eclipse.gsfc.nasa.gov/SEsearch/SEsearchmap.php?Ecl=%2B06151126","boundary":"south","name":"615-11-26 개기일식"},"geometry":{"type":"LineString","coordinates":[[-134.32031,-38.25049],[-134,-38.38754],[-133.5,-38.60285],[-133,-38.81984],[-132.5,-39.03849],[-132,-39.25879],[-131.5,-39.48072],[-131,-39.70428],[-130.5,-39.92944],[-130,-40.15619],[-129.5,-40.3845],[-129,-40.61437],[-128.5,-40.84576],[-128,-41.07865],[-127.5,-41.31302],[-127,-41.54884],[-126.5,-41.78608],[-126,-42.02472],[-125.5,-42.26472],[-125,-42.50605],[-124.5,-42.74868],[-124,-42.99257],[-123.5,-43.23768],[-123,-43.48398],[-122.5,-43.73141],[-122,-43.97995],[-121.5,-44.22954],[-121,-44.48014],[-120.5,-44.7317],[-120,-44.98416],[-119.5,-45.23749],[-119,-45.49162],[-118.5,-45.74649],[-118,-46.00206],[-117.5,-46.25825],[-117,-46.51502],[-116.5,-46.7723],[-116,-47.03003],[-115.5,-47.28813],[-115,-47.54656],[-114.5,-47.80522],[-114,-48.06407],[-113.5,-48.32303],[-113,-48.58202],[-112.5,-48.84098],[-112,-49.09983],[-111.5,-49.3585],[-111,-49.61691],[-110.5,-49.875],[-110,-50.13268],[-109.5,-50.38988],[-109,-50.64653],[-108.5,-50.90255],[-108,-51.15787],[-107.5,-51.4124],[-107,-51.66609],[-106.5,-51.91885],[-106,-52.17061],[-105.5,-52.4213],[-105,-52.67085],[-104.5,-52.91919],[-104,-53.16625],[-103.5,-53.41196],[-103,-53.65626],[-102.5,-53.89909],[-102,-54.14038],[-101.5,-54.38007],[-101,-54.61811],[-100.5,-54.85444],[-100,-55.089],[-99.5,-55.32174],[-99,-55.55261],[-98.5,-55.78156],[-98,-56.00855],[-97.5,-56.23354],[-97,-56.45647],[-96.5,-56.67732],[-96,-56.89605],[-95.5,-57.11262],[-95,-57.327],[-94.5,-57.53917],[-94,-57.74908],[-93.5,-57.95673],[-93,-58.16208],[-92.5,-58.36512],[-92,-58.56582],[-91.5,-58.76417],[-91,-58.96016],[-90.5,-59.15377],[-90,-59.34499],[-89.5,-59.53382],[-89,-59.72024],[-88.5,-59.90425],[-88,-60.08585],[-87.5,-60.26504],[-87,-60.44181],[-86.5,-60.61617],[-86,-60.78811],[-85.5,-60.95765],[-85,-61.12478],[-84.5,-61.28952],[-84,-61.45187],[-83.5,-61.61183],[-83,-61.76943],[-82.5,-61.92466],[-82,-62.07754],[-81.5,-62.22809],[-81.5,-62.22808],[-81,-62.3763],[-80.5,-62.52221],[-80,-62.66581],[-79.5,-62.80714],[-79.5,-62.80713],[-79,-62.94619],[-78.5,-63.08299],[-78,-63.21755],[-77.5,-63.3499],[-77,-63.48003],[-76.5,-63.60799],[-76,-63.73377],[-75.5,-63.8574],[-75,-63.9789],[-74.5,-64.09828],[-74,-64.21557],[-73.5,-64.33078],[-73,-64.44392],[-72.5,-64.55503],[-72,-64.6641],[-71.5,-64.77118],[-71,-64.87626],[-70.5,-64.97938],[-70,-65.08055],[-69.5,-65.17978],[-69,-65.2771],[-68.5,-65.37252],[-68,-65.46607],[-67.5,-65.55775],[-67,-65.64759],[-66.5,-65.7356],[-66,-65.82181],[-66,-65.8218],[-65.5,-65.90622],[-65,-65.98885],[-64.5,-66.06973],[-64,-66.14886],[-63.5,-66.22626],[-63,-66.30196],[-62.5,-66.37596],[-62,-66.44827],[-61.5,-66.51892],[-61,-66.58793],[-60.5,-66.65529],[-60,-66.72103],[-59.5,-66.78517],[-59,-66.8477],[-58.5,-66.90866],[-58,-66.96805],[-57.5,-67.02589],[-57,-67.08218],[-56.5,-67.13694],[-56,-67.19018],[-55.5,-67.24191],[-55,-67.29215],[-54.5,-67.3409],[-54,-67.38818],[-53.5,-67.43399],[-53,-67.47836],[-52.5,-67.52127],[-52,-67.56276],[-51.5,-67.60281],[-51,-67.64146],[-50.5,-67.67869],[-50,-67.71453],[-49.5,-67.74898],[-49,-67.78204],[-48.5,-67.81373],[-48,-67.84405],[-47.5,-67.87301],[-47,-67.90062],[-46.5,-67.92688],[-46,-67.95179],[-45.5,-67.97537],[-45,-67.99763],[-44.5,-68.01855],[-44,-68.03816],[-43.5,-68.05645],[-43,-68.07343],[-42.5,-68.08911],[-42,-68.10348],[-41.5,-68.11656],[-41,-68.12834],[-40.5,-68.13883],[-40,-68.14803],[-39.5,-68.15594],[-39,-68.16257],[-38.5,-68.16792],[-38,-68.17199],[-37.5,-68.17477],[-37,-68.17629],[-36.5,-68.17652],[-36,-68.17548],[-35.5,-68.17317],[-35,-68.16958],[-34.5,-68.16472],[-34,-68.15858],[-33.5,-68.15117],[-33,-68.14248],[-32.5,-68.13252],[-32,-68.12127],[-31.5,-68.10875],[-31,-68.09495],[-30.5,-68.07986],[-30,-68.06349],[-29.5,-68.04583],[-29,-68.02688],[-28.5,-68.00664],[-28,-67.9851],[-27.5,-67.96226],[-27,-67.93812],[-26.5,-67.91267],[-26,-67.8859],[-25.5,-67.85782],[-25,-67.82842],[-25,-67.82843],[-24.5,-67.7977],[-24,-67.76564],[-24,-67.76565],[-23.5,-67.73225],[-23,-67.69752],[-22.5,-67.66144],[-22,-67.62401],[-21.5,-67.58522],[-21,-67.54506],[-20.5,-67.50353],[-20,-67.46061],[-19.5,-67.41632],[-19,-67.37063],[-18.5,-67.32353],[-18,-67.27503],[-17.5,-67.22511],[-17,-67.17377],[-16.5,-67.12099],[-16,-67.06677],[-15.5,-67.0111],[-15,-66.95397],[-14.5,-66.89537],[-14,-66.83529],[-13.5,-66.77372],[-13,-66.71066],[-12.5,-66.64609],[-12,-66.58],[-11.5,-66.51238],[-11.5,-66.51239],[-11,-66.44323],[-10.5,-66.37253],[-10,-66.30027],[-9.5,-66.22645],[-9,-66.15104],[-8.5,-66.07404],[-8,-65.99544],[-7.5,-65.91523],[-7,-65.83339],[-6.5,-65.74992],[-6,-65.66481],[-5.5,-65.57803],[-5,-65.48959],[-4.5,-65.39947],[-4,-65.30765],[-3.5,-65.21414],[-3,-65.11891],[-2.5,-65.02195],[-2,-64.92326],[-1.5,-64.82282],[-1.5,-64.82283],[-1,-64.72063],[-0.5,-64.61666],[0,-64.51092],[0.5,-64.40338],[1,-64.29405],[1.5,-64.1829],[2,-64.06994],[2.5,-63.95514],[3,-63.8385],[3.5,-63.72002],[4,-63.59967],[4.5,-63.47747],[5,-63.35338],[5.5,-63.22742],[6,-63.09956],[6.5,-62.96981],[7,-62.83816],[7.5,-62.7046],[8,-62.56913],[8.5,-62.43174],[9,-62.29242],[9.5,-62.15119],[10,-62.00802],[10.5,-61.86293],[11,-61.7159],[11.5,-61.56695],[12,-61.41606],[12.5,-61.26324],[13,-61.1085],[13.5,-60.95183],[14,-60.79324],[14.5,-60.63274],[15,-60.47032],[15.5,-60.30601],[16,-60.1398],[16.5,-59.9717],[17,-59.80173],[17.5,-59.62989],[18,-59.45621],[18.5,-59.28068],[19,-59.10333],[19.5,-58.92418],[20,-58.74323],[20.5,-58.56051],[21,-58.37605],[21.5,-58.18985],[22,-58.00194],[22.5,-57.81234],[23,-57.62109],[23.5,-57.4282],[24,-57.2337],[24.5,-57.03762],[25,-56.84],[25.5,-56.64085],[26,-56.44022],[26,-56.44021],[26.5,-56.23813],[27,-56.03462],[27.5,-55.82972],[28,-55.62348],[28.5,-55.41592],[29,-55.20709],[29.5,-54.99703],[30,-54.78577],[30.5,-54.57335],[31,-54.35983],[31.5,-54.14523],[32,-53.92961],[32.5,-53.713],[33,-53.49546],[33.5,-53.27702],[34,-53.05773],[34.5,-52.83764],[35,-52.61679],[35.5,-52.39524],[36,-52.17301],[36.5,-51.95017],[37,-51.72676],[37.5,-51.50283],[38,-51.27842],[38.5,-51.05357],[39,-50.82835],[39.5,-50.60279],[40,-50.37693],[40.5,-50.15083],[41,-49.92454],[41.5,-49.69808],[42,-49.47152],[42.5,-49.2449],[43,-49.01825],[43.5,-48.79163],[44,-48.56507],[44,-48.56506],[44.5,-48.33861],[45,-48.11231],[45.5,-47.88619],[46,-47.6603],[46.5,-47.43469],[47,-47.20937],[47.5,-46.98441],[48,-46.75982],[48.5,-46.53565],[49,-46.31193],[49.5,-46.0887],[50,-45.86599],[50.5,-45.64383],[51,-45.42225],[51.18359,-45.34105]]}}],"attribution":"Eclipse Predictions by Fred Espenak and Jean Meeus (NASA's GSFC)","generated_at":"2026-09-23T01:44:53.609Z"}
