{"type":"FeatureCollection","year":64,"events":[{"id":"+00640206","year":64,"month":2,"day":6,"time_tdt":"07:03:55","type":"금환일식","type_code":"A","saros":80,"gamma":-0.72996,"magnitude":0.92304,"greatest":{"lat":-61.73775,"lng":137.77808},"path_width_km":425.5,"duration":"06m57s","delta_t_seconds":9899.4,"catalog_number":4932,"source":"NASA Five Millennium Canon of Solar Eclipses","source_url":"https://eclipse.gsfc.nasa.gov/SEsearch/SEsearchmap.php?Ecl=%2B00640206"},{"id":"+00640801","year":64,"month":8,"day":1,"time_tdt":"12:36:13","type":"개기일식","type_code":"T","saros":85,"gamma":0.67353,"magnitude":1.05147,"greatest":{"lat":60.46349,"lng":45.48889},"path_width_km":231.3,"duration":"03m33s","delta_t_seconds":9894.7,"catalog_number":4933,"source":"NASA Five Millennium Canon of Solar Eclipses","source_url":"https://eclipse.gsfc.nasa.gov/SEsearch/SEsearchmap.php?Ecl=%2B00640801"},{"id":"+00641226","year":64,"month":12,"day":26,"time_tdt":"17:56:59","type":"부분일식","type_code":"P","saros":52,"gamma":1.48048,"magnitude":0.12832,"greatest":{"lat":66.14052,"lng":-38.06903},"path_width_km":0,"duration":"00m00s","delta_t_seconds":9890.8,"catalog_number":4934,"source":"NASA Five Millennium Canon of Solar Eclipses","source_url":"https://eclipse.gsfc.nasa.gov/SEsearch/SEsearchmap.php?Ecl=%2B00641226"}],"features":[{"type":"Feature","id":"+00640206:north:0","properties":{"id":"+00640206","year":64,"month":2,"day":6,"time_tdt":"07:03:55","type":"금환일식","type_code":"A","saros":80,"gamma":-0.72996,"magnitude":0.92304,"greatest":{"lat":-61.73775,"lng":137.77808},"path_width_km":425.5,"duration":"06m57s","delta_t_seconds":9899.4,"catalog_number":4932,"source":"NASA Five Millennium Canon of Solar Eclipses","source_url":"https://eclipse.gsfc.nasa.gov/SEsearch/SEsearchmap.php?Ecl=%2B00640206","boundary":"north","name":"64-02-06 금환일식"},"geometry":{"type":"LineString","coordinates":[[27.59375,-53.30636],[28,-53.43841],[28.5,-53.60042],[29,-53.76184],[29.5,-53.92266],[30,-54.08285],[30.5,-54.2424],[31,-54.40127],[31.5,-54.55945],[32,-54.71693],[32.5,-54.87368],[33,-55.02968],[33.5,-55.18491],[34,-55.33935],[34.5,-55.49298],[35,-55.64579],[35.5,-55.79776],[36,-55.94886],[36.5,-56.09908],[37,-56.2484],[37.5,-56.3968],[38,-56.54427],[38.5,-56.69078],[39,-56.83633],[39.5,-56.9809],[40,-57.12446],[40.5,-57.26701],[41,-57.40853],[41.5,-57.549],[42,-57.68841],[42.5,-57.82674],[43,-57.96398],[43.5,-58.10012],[43.5,-58.10013],[44,-58.23515],[44.5,-58.36905],[45,-58.50181],[45.5,-58.63341],[46,-58.76385],[46.5,-58.89311],[47,-59.02119],[47.5,-59.14808],[48,-59.27375],[48.5,-59.39821],[49,-59.52145],[49.5,-59.64345],[50,-59.76421],[50.5,-59.88372],[51,-60.00197],[51.5,-60.11896],[52,-60.23467],[52.5,-60.34911],[53,-60.46226],[53.5,-60.57412],[54,-60.68469],[54.5,-60.79396],[54.5,-60.79395],[55,-60.90192],[55,-60.90191],[55.5,-61.00857],[56,-61.1139],[56.5,-61.21792],[57,-61.32062],[57.5,-61.42199],[58,-61.52204],[58.5,-61.62075],[59,-61.71814],[59.5,-61.81419],[60,-61.9089],[60.5,-62.00227],[61,-62.09431],[61.5,-62.18501],[62,-62.27436],[62.5,-62.36237],[63,-62.44904],[63.5,-62.53437],[64,-62.61836],[64.5,-62.701],[65,-62.7823],[65.5,-62.86225],[66,-62.94087],[66.5,-63.01814],[67,-63.09408],[67.5,-63.16867],[68,-63.24193],[68.5,-63.31385],[69,-63.38443],[69.5,-63.45368],[70,-63.52159],[70.5,-63.58817],[71,-63.65342],[71.5,-63.71734],[72,-63.77994],[72.5,-63.8412],[73,-63.90115],[73.5,-63.95977],[73.5,-63.95976],[74,-64.01706],[74.5,-64.07304],[75,-64.1277],[75.5,-64.18104],[76,-64.23307],[76.5,-64.28378],[77,-64.33319],[77.5,-64.38128],[78,-64.42806],[78.5,-64.47354],[79,-64.51771],[79,-64.5177],[79.5,-64.56057],[80,-64.60213],[80.5,-64.64239],[81,-64.68134],[81.5,-64.719],[82,-64.75535],[82.5,-64.79041],[83,-64.82417],[83.5,-64.85663],[84,-64.88779],[84.5,-64.91766],[85,-64.94623],[85,-64.94622],[85.5,-64.9735],[86,-64.99947],[86.5,-65.02415],[87,-65.04753],[87.5,-65.06962],[88,-65.0904],[88.5,-65.10989],[89,-65.12807],[89.5,-65.14496],[90,-65.16054],[90.5,-65.17482],[91,-65.18779],[91.5,-65.19946],[92,-65.20982],[92.5,-65.21886],[93,-65.22659],[93.5,-65.23301],[94,-65.23811],[94.5,-65.24188],[95,-65.24433],[95.5,-65.24545],[96,-65.24524],[96.5,-65.24369],[97,-65.2408],[97.5,-65.23657],[98,-65.23099],[98.5,-65.22406],[99,-65.21577],[99.5,-65.20611],[100,-65.19509],[100.5,-65.18269],[101,-65.16891],[101.5,-65.15374],[102,-65.13718],[102.5,-65.11922],[103,-65.09985],[103.5,-65.07906],[104,-65.05686],[104.5,-65.03322],[105,-65.00815],[105.5,-64.98162],[106,-64.95365],[106.5,-64.92421],[107,-64.89329],[107.5,-64.86089],[108,-64.827],[108.5,-64.7916],[108.5,-64.79161],[109,-64.75469],[109.5,-64.71626],[110,-64.67629],[110.5,-64.63476],[110.5,-64.63477],[111,-64.59168],[111.5,-64.54703],[112,-64.50079],[112.5,-64.45295],[113,-64.40351],[113.5,-64.35243],[114,-64.29972],[114.5,-64.24536],[115,-64.18932],[115.5,-64.1316],[116,-64.07219],[116.5,-64.01106],[117,-63.94819],[117.5,-63.88358],[118,-63.81721],[118.5,-63.74905],[119,-63.6791],[119.5,-63.60732],[120,-63.53371],[120.5,-63.45825],[121,-63.38091],[121.5,-63.30167],[121.5,-63.30168],[122,-63.22053],[122.5,-63.13745],[123,-63.05241],[123.5,-62.96539],[124,-62.87638],[124.5,-62.78535],[125,-62.69228],[125.5,-62.59714],[126,-62.49992],[126.5,-62.40058],[127,-62.29911],[127.5,-62.19549],[128,-62.08968],[128.5,-61.98166],[128.5,-61.98167],[129,-61.87142],[129.5,-61.75892],[130,-61.64414],[130.5,-61.52706],[131,-61.40765],[131.5,-61.28588],[132,-61.16172],[132.5,-61.03517],[133,-60.90617],[133,-60.90618],[133.5,-60.77473],[134,-60.64079],[134.5,-60.50435],[135,-60.36538],[135.5,-60.22385],[136,-60.07973],[136.5,-59.933],[137,-59.78365],[137.5,-59.63163],[138,-59.47694],[138.5,-59.31955],[139,-59.15944],[139.5,-58.99658],[140,-58.83096],[140.5,-58.66255],[141,-58.49135],[141.5,-58.31733],[142,-58.14047],[142.5,-57.96077],[143,-57.77821],[143.5,-57.59278],[144,-57.40447],[144.5,-57.21328],[145,-57.01919],[145.5,-56.82221],[146,-56.62233],[146.5,-56.41956],[147,-56.2139],[147.5,-56.00536],[148,-55.79394],[148.5,-55.57967],[149,-55.36255],[149.5,-55.14262],[150,-54.91988],[150.5,-54.69437],[151,-54.46612],[151.5,-54.23516],[152,-54.00152],[152.5,-53.76526],[153,-53.52642],[153.5,-53.28505],[154,-53.0412],[154.5,-52.79493],[155,-52.5463],[155.5,-52.29539],[156,-52.04225],[156.5,-51.78698],[157,-51.52965],[157.5,-51.27033],[158,-51.00913],[158.5,-50.74612],[159,-50.48141],[159.5,-50.2151],[160,-49.94728],[160.5,-49.67806],[161,-49.40754],[161.5,-49.13585],[162,-48.86308],[162.5,-48.58935],[163,-48.31479],[163.5,-48.03949],[164,-47.76359],[164.5,-47.4872],[165,-47.21044],[165.5,-46.93343],[166,-46.65628],[166.5,-46.37912],[167,-46.10206],[167.5,-45.82522],[168,-45.54871],[168.5,-45.27264],[169,-44.99712],[169.5,-44.72227],[170,-44.44818],[170.5,-44.17496],[171,-43.9027],[171.5,-43.63152],[172,-43.36149],[172.5,-43.0927],[173,-42.82525],[173.5,-42.55922],[174,-42.29468],[174.5,-42.03171],[175,-41.77039],[175.5,-41.51077],[176,-41.25293],[176.5,-40.99693],[177,-40.74281],[177.5,-40.49065],[178,-40.24047],[178.5,-39.99234],[179,-39.74629],[179.5,-39.50237],[180,-39.2606]]}},{"type":"Feature","id":"+00640206:north:1","properties":{"id":"+00640206","year":64,"month":2,"day":6,"time_tdt":"07:03:55","type":"금환일식","type_code":"A","saros":80,"gamma":-0.72996,"magnitude":0.92304,"greatest":{"lat":-61.73775,"lng":137.77808},"path_width_km":425.5,"duration":"06m57s","delta_t_seconds":9899.4,"catalog_number":4932,"source":"NASA Five Millennium Canon of Solar Eclipses","source_url":"https://eclipse.gsfc.nasa.gov/SEsearch/SEsearchmap.php?Ecl=%2B00640206","boundary":"north","name":"64-02-06 금환일식"},"geometry":{"type":"LineString","coordinates":[[-179.5,-39.02103],[-179,-38.78369],[-179,-38.78368],[-178.5,-38.54859],[-178,-38.31577],[-177.5,-38.08524],[-177,-37.85703],[-176.5,-37.63116],[-176,-37.40763],[-175.5,-37.18646],[-175,-36.96766],[-174.5,-36.75123],[-174,-36.53719],[-173.5,-36.32554],[-173,-36.11628],[-172.5,-35.90941],[-172,-35.70493],[-171.5,-35.50283],[-171,-35.30313],[-171,-35.30312],[-170.5,-35.1058],[-170,-34.91084],[-169.5,-34.71826],[-169,-34.52803],[-168.5,-34.34016],[-168,-34.15462],[-167.5,-33.97142],[-167,-33.79054],[-166.5,-33.61196],[-166,-33.43568],[-165.5,-33.26169],[-165,-33.08996],[-164.5,-32.92049],[-164,-32.75326],[-163.5,-32.58825],[-163,-32.42546],[-162.5,-32.26486],[-162,-32.10644],[-161.5,-31.95018],[-161.00195,-31.79667]]}},{"type":"Feature","id":"+00640206:center:0","properties":{"id":"+00640206","year":64,"month":2,"day":6,"time_tdt":"07:03:55","type":"금환일식","type_code":"A","saros":80,"gamma":-0.72996,"magnitude":0.92304,"greatest":{"lat":-61.73775,"lng":137.77808},"path_width_km":425.5,"duration":"06m57s","delta_t_seconds":9899.4,"catalog_number":4932,"source":"NASA Five Millennium Canon of Solar Eclipses","source_url":"https://eclipse.gsfc.nasa.gov/SEsearch/SEsearchmap.php?Ecl=%2B00640206","boundary":"center","name":"64-02-06 금환일식"},"geometry":{"type":"LineString","coordinates":[[24.97369,-55.18857],[25,-55.18587],[25.5,-55.34761],[26,-55.50877],[26.5,-55.66931],[27,-55.82923],[27.5,-55.9885],[28,-56.1471],[28.5,-56.30501],[29,-56.4622],[29.5,-56.61867],[30,-56.77439],[30.5,-56.92933],[31,-57.08349],[31.5,-57.23684],[32,-57.38936],[32.5,-57.54103],[33,-57.69184],[33.5,-57.84177],[34,-57.99079],[34.5,-58.1389],[35,-58.28607],[35.5,-58.4323],[36,-58.57755],[36.5,-58.72182],[37,-58.86509],[37.5,-59.00734],[38,-59.14857],[38.5,-59.28875],[39,-59.42787],[39.5,-59.56592],[40,-59.70288],[40.5,-59.83875],[41,-59.9735],[41.5,-60.10713],[42,-60.23962],[42.5,-60.37097],[43,-60.50116],[43.5,-60.63019],[44,-60.75803],[44.5,-60.88469],[45,-61.01016],[45.5,-61.13441],[46,-61.25746],[46.5,-61.37928],[47,-61.49987],[47.5,-61.61923],[48,-61.73735],[48.5,-61.85421],[49,-61.96982],[49.5,-62.08417],[50,-62.19725],[50.5,-62.30906],[51,-62.4196],[51.5,-62.52886],[52,-62.63683],[52.5,-62.74352],[53,-62.84891],[53.5,-62.95302],[54,-63.05583],[54.5,-63.15734],[55,-63.25755],[55.5,-63.35646],[56,-63.45407],[56.5,-63.55038],[57,-63.64538],[57.5,-63.73908],[58,-63.83147],[58.5,-63.92256],[59,-64.01234],[59.5,-64.10082],[60,-64.18799],[60.5,-64.27386],[61,-64.35843],[61.5,-64.44169],[62,-64.52366],[62.5,-64.60433],[63,-64.6837],[63.5,-64.76177],[64,-64.83855],[64.5,-64.91404],[65,-64.98824],[65.5,-65.06116],[66,-65.13278],[66.5,-65.20313],[67,-65.27219],[67.5,-65.33998],[67.5,-65.33997],[68,-65.40648],[68.5,-65.47172],[69,-65.53569],[69.5,-65.59838],[70,-65.65982],[70.5,-65.71999],[70.5,-65.71998],[71,-65.7789],[71,-65.77889],[71.5,-65.83655],[72,-65.89295],[72,-65.89294],[72.5,-65.94809],[73,-66.00199],[73.5,-66.05464],[74,-66.10604],[74.5,-66.15621],[75,-66.20514],[75,-66.20513],[75.5,-66.25282],[76,-66.29928],[76.5,-66.3445],[77,-66.3885],[77.5,-66.43127],[78,-66.47281],[78.5,-66.51313],[79,-66.55223],[79.5,-66.59011],[80,-66.62678],[80.5,-66.66223],[81,-66.69646],[81.5,-66.72949],[82,-66.7613],[82.5,-66.79191],[83,-66.8213],[83.5,-66.84949],[84,-66.87648],[84.5,-66.90226],[85,-66.92683],[85.5,-66.9502],[86,-66.97237],[86.5,-66.99333],[87,-67.01309],[87.5,-67.03165],[88,-67.04901],[88.5,-67.06516],[89,-67.0801],[89.5,-67.09384],[90,-67.10638],[90.5,-67.11771],[91,-67.12783],[91.5,-67.13674],[92,-67.14444],[92.5,-67.15093],[93,-67.1562],[93.5,-67.16026],[94,-67.1631],[94,-67.16309],[94.5,-67.16471],[95,-67.1651],[95.5,-67.16426],[96,-67.16219],[96.5,-67.15889],[97,-67.15435],[97.5,-67.14857],[98,-67.14154],[98.5,-67.13327],[99,-67.12374],[99.5,-67.11295],[100,-67.10089],[100.5,-67.08757],[101,-67.07297],[101.5,-67.05709],[102,-67.03993],[102.5,-67.02147],[103,-67.00172],[103.5,-66.98066],[104,-66.95828],[104.5,-66.93459],[105,-66.90957],[105.5,-66.88321],[106,-66.85551],[106.5,-66.82646],[107,-66.79605],[107,-66.79604],[107.5,-66.76426],[108,-66.7311],[108.5,-66.69656],[109,-66.66061],[109.5,-66.62326],[110,-66.58448],[110.5,-66.54428],[111,-66.50264],[111.5,-66.45955],[112,-66.41499],[112.5,-66.36896],[113,-66.32144],[113.5,-66.27242],[114,-66.22189],[114.5,-66.16982],[115,-66.11622],[115.5,-66.06107],[116,-66.00434],[116.5,-65.94603],[117,-65.88613],[117.5,-65.8246],[118,-65.76145],[118.5,-65.69665],[119,-65.63019],[119.5,-65.56204],[120,-65.4922],[120.5,-65.42065],[121,-65.34736],[121.5,-65.27232],[122,-65.19551],[122.5,-65.11691],[123,-65.0365],[123.5,-64.95426],[124,-64.87018],[124.5,-64.78422],[125,-64.69637],[125.5,-64.60661],[126,-64.51492],[126.5,-64.42127],[127,-64.32564],[127.5,-64.22802],[128,-64.12836],[128.5,-64.02667],[129,-63.9229],[129.5,-63.81704],[130,-63.70905],[130.5,-63.59893],[131,-63.48664],[131.5,-63.37216],[132,-63.25546],[132.5,-63.13652],[133,-63.01531],[133.5,-62.89181],[134,-62.76599],[134.5,-62.63783],[135,-62.5073],[135.5,-62.37438],[136,-62.23904],[136.5,-62.10125],[137,-61.96099],[137.5,-61.81824],[138,-61.67297],[138.5,-61.52516],[139,-61.37479],[139.5,-61.22182],[140,-61.06624],[140.5,-60.90803],[141,-60.74716],[141.5,-60.58362],[142,-60.41739],[142.5,-60.24844],[143,-60.07676],[143.5,-59.90233],[144,-59.72514],[144.5,-59.54517],[145,-59.36242],[145.5,-59.17687],[146,-58.98852],[146.5,-58.79735],[147,-58.60337],[147.5,-58.40656],[148,-58.20694],[148.5,-58.0045],[149,-57.79924],[149.5,-57.59119],[150,-57.38034],[150.5,-57.16671],[151,-56.95032],[151.5,-56.73119],[152,-56.50934],[152.5,-56.2848],[153,-56.05759],[153.5,-55.82776],[154,-55.59535],[154.5,-55.36039],[155,-55.12293],[155.5,-54.88302],[156,-54.64072],[156.5,-54.39609],[157,-54.14918],[157.5,-53.90007],[158,-53.64883],[158.5,-53.39553],[159,-53.14025],[159.5,-52.88307],[160,-52.62409],[160.5,-52.36339],[161,-52.10106],[161.5,-51.83721],[162,-51.57193],[162.5,-51.30533],[163,-51.03752],[163.5,-50.76859],[164,-50.49867],[164.5,-50.22787],[165,-49.95629],[165.5,-49.68406],[166,-49.41128],[166.5,-49.13809],[167,-48.86458],[167.5,-48.59089],[168,-48.31713],[168.5,-48.0434],[169,-47.76984],[169.5,-47.49654],[170,-47.22363],[170.5,-46.95121],[171,-46.67939],[171.5,-46.40828],[172,-46.13798],[172.5,-45.86859],[173,-45.6002],[173.5,-45.33292],[174,-45.06683],[174.5,-44.80202],[175,-44.53857],[175.5,-44.27658],[176,-44.0161],[176.5,-43.75722],[177,-43.50001],[177.5,-43.24454],[177.5,-43.24453],[178,-42.99085],[178.5,-42.73903],[179,-42.48911],[179.5,-42.24116],[180,-41.99521]]}},{"type":"Feature","id":"+00640206:center:1","properties":{"id":"+00640206","year":64,"month":2,"day":6,"time_tdt":"07:03:55","type":"금환일식","type_code":"A","saros":80,"gamma":-0.72996,"magnitude":0.92304,"greatest":{"lat":-61.73775,"lng":137.77808},"path_width_km":425.5,"duration":"06m57s","delta_t_seconds":9899.4,"catalog_number":4932,"source":"NASA Five Millennium Canon of Solar Eclipses","source_url":"https://eclipse.gsfc.nasa.gov/SEsearch/SEsearchmap.php?Ecl=%2B00640206","boundary":"center","name":"64-02-06 금환일식"},"geometry":{"type":"LineString","coordinates":[[-179.5,-41.75133],[-179,-41.50954],[-178.5,-41.26988],[-178,-41.0324],[-177.5,-40.79712],[-177,-40.56408],[-176.5,-40.33329],[-176,-40.10479],[-175.5,-39.87859],[-175,-39.65471],[-174.5,-39.43317],[-174,-39.21398],[-173.5,-38.99715],[-173,-38.7827],[-172.5,-38.57063],[-172,-38.36094],[-171.5,-38.15364],[-171,-37.94873],[-170.5,-37.74622],[-170,-37.54609],[-169.5,-37.34836],[-169,-37.15301],[-168.5,-36.96004],[-168,-36.76944],[-167.5,-36.58121],[-167,-36.39534],[-166.5,-36.21182],[-166,-36.03063],[-165.5,-35.85178],[-165,-35.67525],[-164.5,-35.50102],[-164,-35.32908],[-163.5,-35.15943],[-163,-34.99204],[-162.5,-34.8269],[-162,-34.664],[-161.5,-34.50333],[-161,-34.34486],[-160.5,-34.18859],[-160,-34.03449],[-159.5,-33.88256],[-159.28404,-33.81441]]}},{"type":"Feature","id":"+00640206:south:0","properties":{"id":"+00640206","year":64,"month":2,"day":6,"time_tdt":"07:03:55","type":"금환일식","type_code":"A","saros":80,"gamma":-0.72996,"magnitude":0.92304,"greatest":{"lat":-61.73775,"lng":137.77808},"path_width_km":425.5,"duration":"06m57s","delta_t_seconds":9899.4,"catalog_number":4932,"source":"NASA Five Millennium Canon of Solar Eclipses","source_url":"https://eclipse.gsfc.nasa.gov/SEsearch/SEsearchmap.php?Ecl=%2B00640206","boundary":"south","name":"64-02-06 금환일식"},"geometry":{"type":"LineString","coordinates":[[22.5,-57.24765],[22.5,-57.24766],[23,-57.40864],[23.5,-57.569],[24,-57.72872],[24.5,-57.88777],[25,-58.04614],[25.5,-58.2038],[26,-58.36074],[26.5,-58.51693],[27,-58.67235],[27.5,-58.82699],[28,-58.98082],[28.5,-59.13382],[29,-59.28598],[29,-59.28599],[29.5,-59.43728],[30,-59.5877],[30.5,-59.73722],[31,-59.88583],[31.5,-60.0335],[32,-60.18022],[32.5,-60.32597],[33,-60.47074],[33.5,-60.61451],[33.5,-60.61452],[34,-60.75727],[34.5,-60.899],[35,-61.03969],[35.5,-61.17932],[36,-61.31788],[36.5,-61.45536],[37,-61.59174],[37.5,-61.72701],[38,-61.86116],[38.5,-61.99418],[39,-62.12605],[39.5,-62.25678],[40,-62.38634],[40.5,-62.51472],[41,-62.64193],[41.5,-62.76794],[42,-62.89275],[42.5,-63.01636],[43,-63.13875],[43.5,-63.25993],[44,-63.37987],[44.5,-63.49858],[45,-63.61605],[45.5,-63.73228],[46,-63.84726],[46.5,-63.96098],[47,-64.07345],[47,-64.07344],[47.5,-64.18465],[48,-64.29459],[48.5,-64.40326],[48.5,-64.40325],[49,-64.51065],[49.5,-64.61678],[50,-64.72163],[50.5,-64.8252],[51,-64.9275],[51.5,-65.02852],[52,-65.12825],[52.5,-65.22671],[53,-65.32389],[53.5,-65.41979],[54,-65.5144],[54.5,-65.60774],[55,-65.6998],[55.5,-65.79059],[56,-65.8801],[56.5,-65.96833],[57,-66.05529],[57.5,-66.14099],[58,-66.22541],[58.5,-66.30857],[59,-66.39046],[59.5,-66.47109],[60,-66.55047],[60.5,-66.62859],[61,-66.70546],[61.5,-66.78108],[62,-66.85545],[62.5,-66.92858],[63,-67.00047],[63.5,-67.07112],[64,-67.14054],[64.5,-67.20873],[64.5,-67.20874],[65,-67.2757],[65.5,-67.34145],[66,-67.40597],[66,-67.40598],[66.5,-67.46929],[67,-67.53139],[67.5,-67.59229],[68,-67.65198],[68.5,-67.71047],[69,-67.76777],[69.5,-67.82388],[70,-67.8788],[70.5,-67.93253],[70.5,-67.93254],[71,-67.98509],[71.5,-68.03647],[72,-68.08667],[72.5,-68.13571],[73,-68.18358],[73.5,-68.23029],[74,-68.27583],[74,-68.27584],[74.5,-68.32023],[75,-68.36347],[75.5,-68.40556],[76,-68.4465],[76.5,-68.4863],[77,-68.52496],[77.5,-68.56249],[78,-68.59887],[78.5,-68.63413],[79,-68.66826],[79.5,-68.70126],[80,-68.73313],[80.5,-68.76388],[81,-68.79352],[81.5,-68.82203],[82,-68.84943],[82.5,-68.87571],[83,-68.90088],[83.5,-68.92493],[84,-68.94788],[84.5,-68.96972],[85,-68.99044],[85.5,-69.01006],[86,-69.02858],[86.5,-69.04599],[87,-69.06229],[87.5,-69.07748],[88,-69.09157],[88.5,-69.10456],[89,-69.11644],[89.5,-69.12721],[90,-69.13688],[90.5,-69.14544],[91,-69.15289],[91.5,-69.15923],[92,-69.16446],[92.5,-69.16857],[92.5,-69.16858],[93,-69.17158],[93.5,-69.17347],[94,-69.17424],[94.5,-69.17389],[95,-69.17242],[95.5,-69.16982],[96,-69.16609],[96.5,-69.16124],[97,-69.15525],[97.5,-69.14812],[98,-69.13985],[98.5,-69.13044],[99,-69.11988],[99.5,-69.10816],[100,-69.09529],[100,-69.09528],[100.5,-69.08125],[101,-69.06604],[101.5,-69.04966],[102,-69.03211],[102.5,-69.01337],[103,-68.99344],[103.5,-68.97231],[104,-68.94998],[104.5,-68.92644],[105,-68.90168],[105.5,-68.8757],[106,-68.84849],[106.5,-68.82004],[107,-68.79034],[107.5,-68.75939],[108,-68.72718],[108.5,-68.69369],[109,-68.65892],[109.5,-68.62286],[110,-68.5855],[110.5,-68.54682],[111,-68.50683],[111.5,-68.46551],[112,-68.42284],[112.5,-68.37882],[113,-68.33343],[113.5,-68.28667],[114,-68.23852],[114.5,-68.18896],[115,-68.13799],[115.5,-68.0856],[116,-68.03176],[116.5,-67.97647],[117,-67.91971],[117.5,-67.86147],[118,-67.80173],[118.5,-67.74047],[119,-67.67769],[119.5,-67.61336],[120,-67.54748],[120.5,-67.48001],[121,-67.41095],[121.5,-67.34028],[122,-67.26798],[122.5,-67.19404],[123,-67.11843],[123.5,-67.04113],[124,-66.96213],[124.5,-66.88141],[125,-66.79895],[125.5,-66.71472],[126,-66.62871],[126.5,-66.5409],[127,-66.45126],[127.5,-66.35978],[128,-66.26642],[128.5,-66.17118],[129,-66.07402],[129.5,-65.97493],[130,-65.87388],[130.5,-65.77084],[131,-65.6658],[131.5,-65.55873],[132,-65.44961],[132.5,-65.3384],[133,-65.22509],[133.5,-65.10966],[134,-64.99207],[134.5,-64.8723],[135,-64.75033],[135,-64.75032],[135.5,-64.62612],[136,-64.49967],[136,-64.49966],[136.5,-64.37093],[137,-64.23988],[137.5,-64.10651],[138,-63.97078],[138.5,-63.83266],[139,-63.69214],[139.5,-63.54919],[140,-63.40378],[140.5,-63.25589],[141,-63.1055],[141.5,-62.95258],[142,-62.79711],[142.5,-62.63907],[143,-62.47844],[143.5,-62.31519],[144,-62.14931],[144.5,-61.98078],[145,-61.80958],[145,-61.80957],[145.5,-61.63569],[146,-61.4591],[146.5,-61.2798],[147,-61.09778],[147.5,-60.91301],[148,-60.72551],[148.5,-60.53525],[149,-60.34223],[149.5,-60.14646],[150,-59.94793],[150.5,-59.74664],[151,-59.5426],[151.5,-59.33582],[152,-59.1263],[152.5,-58.91407],[152.5,-58.91406],[153,-58.69913],[153.5,-58.4815],[154,-58.26122],[154.5,-58.0383],[155,-57.81278],[155.5,-57.58469],[156,-57.35407],[156.5,-57.12096],[157,-56.88541],[157.5,-56.64746],[158,-56.40718],[158.5,-56.16461],[159,-55.91982],[159.5,-55.67288],[160,-55.42386],[160.5,-55.17283],[161,-54.91986],[161.5,-54.66505],[162,-54.40848],[162.5,-54.15024],[163,-53.89041],[163.5,-53.6291],[164,-53.36641],[164.5,-53.10244],[165,-52.83729],[165.5,-52.57107],[166,-52.30388],[166,-52.30389],[166.5,-52.03586],[167,-51.76709],[167.5,-51.49771],[168,-51.22781],[168.5,-50.95753],[169,-50.68696],[169.5,-50.41624],[170,-50.14547],[170.5,-49.87477],[171,-49.60426],[171.5,-49.33404],[172,-49.06423],[172.5,-48.79493],[173,-48.52626],[173.5,-48.25832],[174,-47.9912],[174.5,-47.72502],[175,-47.45986],[175.5,-47.19583],[176,-46.933],[176.5,-46.67147],[177,-46.41133],[177.5,-46.15265],[178,-45.8955],[178.5,-45.63997],[179,-45.38612],[179.5,-45.13402],[180,-44.88373]]}},{"type":"Feature","id":"+00640206:south:1","properties":{"id":"+00640206","year":64,"month":2,"day":6,"time_tdt":"07:03:55","type":"금환일식","type_code":"A","saros":80,"gamma":-0.72996,"magnitude":0.92304,"greatest":{"lat":-61.73775,"lng":137.77808},"path_width_km":425.5,"duration":"06m57s","delta_t_seconds":9899.4,"catalog_number":4932,"source":"NASA Five Millennium Canon of Solar Eclipses","source_url":"https://eclipse.gsfc.nasa.gov/SEsearch/SEsearchmap.php?Ecl=%2B00640206","boundary":"south","name":"64-02-06 금환일식"},"geometry":{"type":"LineString","coordinates":[[-179.5,-44.63531],[-179,-44.38881],[-178.5,-44.14428],[-178,-43.90178],[-177.5,-43.66135],[-177,-43.42303],[-176.5,-43.18686],[-176,-42.95287],[-175.5,-42.72109],[-175,-42.49156],[-174.5,-42.2643],[-174,-42.03933],[-173.5,-41.81668],[-173.5,-41.81667],[-173,-41.59635],[-172.5,-41.37838],[-172,-41.16277],[-171.5,-40.94953],[-171,-40.73867],[-170.5,-40.53021],[-170,-40.32413],[-169.5,-40.12046],[-169,-39.91919],[-168.5,-39.72032],[-168,-39.52384],[-167.5,-39.32977],[-167,-39.13809],[-166.5,-38.94879],[-166,-38.76188],[-165.5,-38.57735],[-165,-38.39518],[-164.5,-38.21536],[-164,-38.0379],[-163.5,-37.86277],[-163,-37.68997],[-162.5,-37.51948],[-162,-37.35129],[-161.5,-37.18539],[-161,-37.02176],[-160.5,-36.86039],[-160,-36.70127],[-159.5,-36.54438],[-159,-36.3897],[-158.5,-36.23722],[-158,-36.08692],[-157.5,-35.93879]]}},{"type":"Feature","id":"+00640801:north:0","properties":{"id":"+00640801","year":64,"month":8,"day":1,"time_tdt":"12:36:13","type":"개기일식","type_code":"T","saros":85,"gamma":0.67353,"magnitude":1.05147,"greatest":{"lat":60.46349,"lng":45.48889},"path_width_km":231.3,"duration":"03m33s","delta_t_seconds":9894.7,"catalog_number":4933,"source":"NASA Five Millennium Canon of Solar Eclipses","source_url":"https://eclipse.gsfc.nasa.gov/SEsearch/SEsearchmap.php?Ecl=%2B00640801","boundary":"north","name":"64-08-01 개기일식"},"geometry":{"type":"LineString","coordinates":[[-60.74805,48.66497],[-60.5,48.75822],[-60,48.94602],[-59.5,49.13354],[-59,49.32076],[-58.5,49.50766],[-58,49.6942],[-57.5,49.88036],[-57,50.06612],[-56.5,50.25144],[-56,50.4363],[-55.5,50.62068],[-55,50.80454],[-54.5,50.98786],[-54,51.17061],[-53.5,51.35277],[-53,51.5343],[-52.5,51.71518],[-52.5,51.71519],[-52,51.8954],[-51.5,52.0749],[-51.5,52.07491],[-51,52.25369],[-50.5,52.43172],[-50,52.60896],[-50,52.60897],[-49.5,52.78541],[-49,52.96102],[-48.5,53.13578],[-48,53.30966],[-48,53.30967],[-47.5,53.48264],[-47,53.65469],[-46.5,53.82579],[-46,53.99591],[-45.5,54.16503],[-45,54.33314],[-44.5,54.5002],[-44,54.66619],[-43.5,54.83111],[-43,54.99491],[-42.5,55.15759],[-42,55.31912],[-41.5,55.47949],[-41,55.63867],[-40.5,55.79666],[-40,55.95342],[-39.5,56.10894],[-39,56.26321],[-38.5,56.41621],[-38,56.56792],[-37.5,56.71834],[-37,56.86743],[-36.5,57.0152],[-36,57.16163],[-35.5,57.3067],[-35,57.4504],[-34.5,57.59273],[-34,57.73366],[-33.5,57.87319],[-33,58.01132],[-33,58.01131],[-32.5,58.14802],[-32.5,58.14801],[-32,58.28329],[-31.5,58.41712],[-31,58.5495],[-30.5,58.68044],[-30,58.80991],[-29.5,58.93791],[-29,59.06445],[-28.5,59.1895],[-28,59.31307],[-27.5,59.43515],[-27,59.55574],[-26.5,59.67483],[-26,59.79243],[-25.5,59.90852],[-25,60.02311],[-24.5,60.13619],[-24,60.24776],[-23.5,60.35782],[-23,60.46637],[-22.5,60.5734],[-22,60.67893],[-21.5,60.78294],[-21,60.88544],[-20.5,60.98643],[-20,61.08591],[-19.5,61.18387],[-19,61.28033],[-18.5,61.37528],[-18,61.46873],[-17.5,61.56067],[-17,61.65111],[-16.5,61.74005],[-16,61.82749],[-15.5,61.91344],[-15,61.99789],[-14.5,62.08086],[-14,62.16234],[-13.5,62.24234],[-13,62.32086],[-12.5,62.3979],[-12,62.47347],[-11.5,62.54757],[-11,62.6202],[-10.5,62.69137],[-10,62.76108],[-9.5,62.82934],[-9,62.89614],[-8.5,62.9615],[-8,63.02541],[-7.5,63.08788],[-7,63.14891],[-6.5,63.20851],[-6,63.26668],[-5.5,63.32342],[-5,63.37874],[-4.5,63.43264],[-4,63.48513],[-4,63.48512],[-3.5,63.5362],[-3.5,63.53619],[-3,63.58586],[-3,63.58585],[-2.5,63.63411],[-2,63.68096],[-1.5,63.72641],[-1,63.77046],[-0.5,63.81312],[0,63.85439],[0,63.85438],[0.5,63.89426],[1,63.93275],[1.5,63.96986],[2,64.00558],[2.5,64.03992],[3,64.07288],[3.5,64.10447],[4,64.13469],[4.5,64.16353],[5,64.19099],[5.5,64.21709],[6,64.24182],[6.5,64.26518],[7,64.28717],[7.5,64.30779],[8,64.32705],[8.5,64.34494],[9,64.36147],[9.5,64.37663],[9.5,64.37662],[10,64.39042],[10,64.39041],[10.5,64.40284],[11,64.41389],[11.5,64.42358],[12,64.43189],[12.5,64.43884],[13,64.44441],[13.5,64.4486],[14,64.45142],[14.5,64.45286],[15,64.45291],[15.5,64.45159],[16,64.44887],[16.5,64.44477],[17,64.43927],[17.5,64.43238],[18,64.42408],[18.5,64.41438],[19,64.40328],[19.5,64.39075],[20,64.37681],[20.5,64.36145],[21,64.34466],[21.5,64.32644],[22,64.30677],[22.5,64.28566],[23,64.2631],[23.5,64.23908],[24,64.2136],[24.5,64.18664],[25,64.1582],[25.5,64.12828],[26,64.09686],[26.5,64.06394],[27,64.02951],[27.5,63.99356],[28,63.95608],[28.5,63.91706],[29,63.8765],[29.5,63.83437],[30,63.79068],[30.5,63.74541],[31,63.69855],[31,63.69856],[31.5,63.6501],[32,63.60003],[32.5,63.54834],[33,63.49502],[33.5,63.44005],[34,63.38342],[34.5,63.32512],[35,63.26514],[35.5,63.20346],[36,63.14007],[36.5,63.07495],[37,63.0081],[37.5,62.93949],[38,62.86911],[38.5,62.79696],[39,62.723],[39.5,62.64723],[40,62.56963],[40,62.56964],[40.5,62.49019],[41,62.40889],[41.5,62.32571],[42,62.24063],[42.5,62.15365],[43,62.06473],[43.5,61.97388],[44,61.88105],[44.5,61.78625],[45,61.68945],[45.5,61.59063],[46,61.48978],[46.5,61.38688],[47,61.2819],[47.5,61.17484],[48,61.06567],[48.5,60.95437],[49,60.84092],[49.5,60.72531],[50,60.60752],[50.5,60.48753],[51,60.36532],[51.5,60.24088],[52,60.11417],[52.5,59.9852],[53,59.85393],[53.5,59.72035],[54,59.58445],[54.5,59.44621],[55,59.3056],[55.5,59.16262],[56,59.01726],[56.5,58.86948],[57,58.71929],[57.5,58.56666],[58,58.41159],[58.5,58.25406],[59,58.09406],[59.5,57.93157],[60,57.7666],[60.5,57.59913],[61,57.42916],[61.5,57.25668],[62,57.08167],[62.5,56.90415],[63,56.72411],[63.5,56.54155],[64,56.35646],[64.5,56.16886],[65,55.97874],[65.5,55.78612],[66,55.59099],[66.5,55.39338],[67,55.19329],[67.5,54.99074],[68,54.78574],[68.5,54.57831],[69,54.36848],[69.5,54.15627],[70,53.9417],[70.5,53.7248],[71,53.50561],[71.5,53.28415],[72,53.06046],[72.5,52.83459],[73,52.60657],[73.5,52.37645],[74,52.14427],[74.5,51.91009],[75,51.67395],[75.5,51.43591],[76,51.19604],[76.5,50.95438],[77,50.711],[77.5,50.46596],[78,50.21934],[78.5,49.9712],[79,49.72161],[79.5,49.47065],[80,49.21838],[80.5,48.9649],[81,48.71027],[81.5,48.45458],[82,48.1979],[82.5,47.94032],[83,47.68192],[83.5,47.42279],[84,47.16301],[84.5,46.90267],[85,46.64185],[85.5,46.38063],[86,46.11911],[86.5,45.85736],[87,45.59548],[87.5,45.33354],[88,45.07163],[88.5,44.80984],[89,44.54824],[89.5,44.28692],[90,44.02595],[90.5,43.76541],[91,43.50538],[91.5,43.24594],[92,42.98715],[92.5,42.72909],[93,42.47182],[93.5,42.21542],[94,41.95995],[94.5,41.70547],[95,41.45205],[95.5,41.19974],[96,40.94859],[96.5,40.69867],[97,40.45003],[97.5,40.20271],[98,39.95677],[98.5,39.71225],[99,39.46918],[99.5,39.22763],[100,38.98761],[100.5,38.74918],[101,38.51236],[101.5,38.27719],[102,38.0437],[102.5,37.81192],[103,37.58187],[103.5,37.35358],[104,37.12707],[104.5,36.90237],[105,36.6795],[105.5,36.45847],[106,36.2393],[106.5,36.022],[107,35.80659],[107.5,35.59309],[108,35.3815],[108.5,35.17183],[109,34.96409],[109.5,34.75829],[109.5,34.75828],[110,34.55443],[110.5,34.35252],[111,34.15256],[111.5,33.95456],[112,33.75852],[112.5,33.56444],[113,33.37232],[113.5,33.18216],[114,32.99396],[114.5,32.80771],[115,32.62342],[115.5,32.44108],[116,32.26068],[116.31836,32.14683]]}},{"type":"Feature","id":"+00640801:center:0","properties":{"id":"+00640801","year":64,"month":8,"day":1,"time_tdt":"12:36:13","type":"개기일식","type_code":"T","saros":85,"gamma":0.67353,"magnitude":1.05147,"greatest":{"lat":60.46349,"lng":45.48889},"path_width_km":231.3,"duration":"03m33s","delta_t_seconds":9894.7,"catalog_number":4933,"source":"NASA Five Millennium Canon of Solar Eclipses","source_url":"https://eclipse.gsfc.nasa.gov/SEsearch/SEsearchmap.php?Ecl=%2B00640801","boundary":"center","name":"64-08-01 개기일식"},"geometry":{"type":"LineString","coordinates":[[-59.93371,47.98005],[-59.5,48.14506],[-59,48.32897],[-58.5,48.5126],[-58,48.69593],[-57.5,48.87893],[-57,49.06158],[-56.5,49.24385],[-56,49.42572],[-55.5,49.60716],[-55,49.78814],[-54.5,49.96864],[-54,50.14863],[-53.5,50.32809],[-53,50.50699],[-52.5,50.68531],[-52,50.86302],[-51.5,51.04009],[-51,51.2165],[-51,51.21651],[-50.5,51.39223],[-50,51.56725],[-49.5,51.74153],[-49.5,51.74154],[-49,51.91506],[-48.5,52.0878],[-48,52.25973],[-47.5,52.43083],[-47,52.60107],[-46.5,52.77043],[-46.5,52.77044],[-46,52.9389],[-45.5,53.10643],[-45,53.27302],[-44.5,53.43864],[-44,53.60327],[-43.5,53.76688],[-43,53.92946],[-42.5,54.09099],[-42,54.25144],[-41.5,54.4108],[-41,54.56904],[-40.5,54.72616],[-40,54.88212],[-39.5,55.03691],[-39,55.19052],[-38.5,55.34292],[-38,55.49411],[-37.5,55.64406],[-37,55.79275],[-36.5,55.94019],[-36,56.08634],[-35.5,56.2312],[-35,56.37475],[-34.5,56.51698],[-34,56.65788],[-33.5,56.79743],[-33,56.93563],[-32.5,57.07246],[-32,57.20791],[-31.5,57.34198],[-31,57.47465],[-30.5,57.60591],[-30,57.73576],[-29.5,57.86419],[-29,57.99118],[-28.5,58.11674],[-28,58.24086],[-27.5,58.36353],[-27,58.48474],[-26.5,58.60449],[-26,58.72278],[-25.5,58.8396],[-25,58.95494],[-24.5,59.06881],[-24,59.18119],[-23.5,59.29209],[-23,59.40151],[-22.5,59.50944],[-22,59.61587],[-21.5,59.72082],[-21,59.82427],[-20.5,59.92622],[-20,60.02668],[-19.5,60.12565],[-19,60.22312],[-18.5,60.31909],[-18,60.41357],[-17.5,60.50655],[-17,60.59804],[-16.5,60.68804],[-16,60.77654],[-15.5,60.86355],[-15,60.94907],[-14.5,61.03311],[-14,61.11565],[-14,61.11566],[-13.5,61.19672],[-13,61.2763],[-12.5,61.3544],[-12,61.43102],[-11.5,61.50617],[-11,61.57984],[-11,61.57985],[-10.5,61.65205],[-10,61.72278],[-9.5,61.79205],[-9,61.85986],[-8.5,61.9262],[-8,61.99109],[-7.5,62.05452],[-7,62.1165],[-6.5,62.17703],[-6,62.23612],[-5.5,62.29376],[-5,62.34995],[-4.5,62.40471],[-4,62.45803],[-3.5,62.50992],[-3,62.56038],[-2.5,62.6094],[-2,62.65701],[-1.5,62.70318],[-1,62.74794],[-0.5,62.79127],[0,62.83319],[0.5,62.87369],[1,62.91277],[1.5,62.95045],[2,62.98671],[2.5,63.02156],[3,63.05501],[3.5,63.08705],[4,63.11768],[4.5,63.14691],[5,63.17474],[5.5,63.20116],[6,63.22618],[6.5,63.2498],[7,63.27202],[7.5,63.29283],[8,63.31225],[8.5,63.33026],[9,63.34687],[9.5,63.36207],[10,63.37588],[10.5,63.38827],[11,63.39926],[11.5,63.40885],[12,63.41703],[12.5,63.42379],[13,63.42914],[13.5,63.43308],[14,63.4356],[14.5,63.4367],[15,63.43638],[15.5,63.43464],[16,63.43146],[16.5,63.42685],[17,63.42081],[17.5,63.41333],[18,63.4044],[18.5,63.39403],[19,63.3822],[19.5,63.36892],[20,63.35417],[20.5,63.33796],[21,63.32027],[21.5,63.3011],[22,63.28045],[22.5,63.25831],[22.5,63.2583],[23,63.23466],[23.5,63.20951],[24,63.18285],[24.5,63.15467],[25,63.12497],[25.5,63.09373],[26,63.06094],[26.5,63.0266],[27,62.99071],[27.5,62.95324],[28,62.9142],[28.5,62.87356],[29,62.83133],[29.5,62.78749],[30,62.74204],[30.5,62.69495],[31,62.64622],[31.5,62.59585],[32,62.54381],[32.5,62.49009],[33,62.43469],[33.5,62.3776],[34,62.31879],[34.5,62.25825],[35,62.19598],[35.5,62.13196],[36,62.06618],[36.5,61.99862],[37,61.92926],[37.5,61.8581],[38,61.78512],[38.5,61.71031],[39,61.63364],[39.5,61.5551],[40,61.47469],[40.5,61.39237],[41,61.30814],[41.5,61.22198],[42,61.13388],[42.5,61.04381],[43,60.95176],[43.5,60.85771],[44,60.76165],[44.5,60.66356],[45,60.56342],[45.5,60.46121],[46,60.35692],[46.5,60.25053],[47,60.14202],[47.5,60.03138],[48,59.91858],[48.5,59.80361],[49,59.68644],[49.5,59.56708],[50,59.44549],[50.5,59.32165],[51,59.19557],[51.5,59.0672],[52,58.93655],[52.5,58.80358],[53,58.6683],[53.5,58.53067],[54,58.3907],[54.5,58.24835],[55,58.10363],[55.5,57.9565],[56,57.80697],[56.5,57.65502],[57,57.50064],[57.5,57.34381],[58,57.18454],[58.5,57.0228],[59,56.8586],[59.5,56.69192],[60,56.52276],[60.5,56.35111],[61,56.17698],[61.5,56.00036],[62,55.82125],[62.5,55.63966],[63,55.45558],[63.5,55.26902],[64,55.07998],[64.5,54.88848],[65,54.69453],[65.5,54.49813],[66,54.2993],[66.5,54.09806],[67,53.89442],[67.5,53.68841],[68,53.48005],[68.5,53.26937],[69,53.05638],[69.5,52.84113],[70,52.62364],[70.5,52.40395],[71,52.1821],[71.5,51.95812],[72,51.73207],[72.5,51.50398],[73,51.2739],[73.5,51.04188],[74,50.80798],[74.5,50.57225],[75,50.33474],[75.5,50.09553],[76,49.85466],[76.5,49.61221],[77,49.36824],[77.5,49.12282],[78,48.87602],[78.5,48.62791],[79,48.37857],[79.5,48.12807],[80,47.87649],[80.5,47.62391],[81,47.3704],[81.5,47.11606],[81.5,47.11605],[82,46.86094],[82.5,46.60516],[83,46.34877],[83.5,46.09187],[84,45.83454],[84.5,45.57686],[85,45.31891],[85.5,45.06078],[86,44.80255],[86.5,44.5443],[87,44.28611],[87.5,44.02807],[88,43.77024],[88.5,43.51271],[89,43.25555],[89.5,42.99885],[90,42.74266],[90.5,42.48707],[91,42.23214],[91.5,41.97795],[92,41.72455],[92.5,41.47201],[93,41.22041],[93.5,40.96978],[94,40.72021],[94.5,40.47173],[95,40.22441],[95.5,39.9783],[96,39.73345],[96.5,39.4899],[97,39.24771],[97.5,39.00691],[98,38.76754],[98.5,38.52966],[99,38.29328],[99.5,38.05846],[100,37.82522],[100.5,37.5936],[101,37.36362],[101.5,37.13531],[102,36.9087],[102.5,36.68381],[103,36.46067],[103.5,36.2393],[104,36.0197],[104.5,35.80192],[105,35.58595],[105.5,35.37181],[106,35.15952],[106.5,34.94909],[107,34.74053],[107.5,34.53384],[108,34.32905],[108.5,34.12614],[109,33.92514],[109.5,33.72605],[110,33.52886],[110.5,33.33358],[111,33.14022],[111.5,32.94877],[112,32.75924],[112.5,32.57163],[113,32.38593],[113.5,32.20214],[114,32.02027],[114.5,31.8403],[115,31.66223],[115.5,31.48607],[115.70575,31.41961]]}},{"type":"Feature","id":"+00640801:south:0","properties":{"id":"+00640801","year":64,"month":8,"day":1,"time_tdt":"12:36:13","type":"개기일식","type_code":"T","saros":85,"gamma":0.67353,"magnitude":1.05147,"greatest":{"lat":60.46349,"lng":45.48889},"path_width_km":231.3,"duration":"03m33s","delta_t_seconds":9894.7,"catalog_number":4933,"source":"NASA Five Millennium Canon of Solar Eclipses","source_url":"https://eclipse.gsfc.nasa.gov/SEsearch/SEsearchmap.php?Ecl=%2B00640801","boundary":"south","name":"64-08-01 개기일식"},"geometry":{"type":"LineString","coordinates":[[-59,47.36457],[-58.5,47.54497],[-58,47.72512],[-57.5,47.90498],[-57,48.08453],[-56.5,48.26375],[-56,48.44262],[-55.5,48.62111],[-55,48.7992],[-54.5,48.97686],[-54,49.15406],[-53.5,49.33079],[-53,49.50702],[-52.5,49.68272],[-52,49.85787],[-51.5,50.03245],[-51,50.20643],[-50.5,50.37978],[-50,50.55249],[-49.5,50.72452],[-49.5,50.72451],[-49,50.89586],[-48.5,51.06648],[-48,51.23636],[-47.5,51.40547],[-47,51.57379],[-46.5,51.7413],[-46,51.90797],[-45.5,52.07378],[-45,52.23872],[-44.5,52.40275],[-44,52.56585],[-43.5,52.72802],[-43,52.88921],[-42.5,53.04942],[-42,53.20862],[-41.5,53.3668],[-41,53.52393],[-41,53.52392],[-40.5,53.67999],[-40,53.83496],[-39.5,53.98884],[-39,54.14159],[-38.5,54.2932],[-38,54.44366],[-37.5,54.59295],[-37,54.74104],[-36.5,54.88794],[-36,55.03361],[-35.5,55.17805],[-35,55.32123],[-34.5,55.46316],[-34,55.60381],[-33.5,55.74317],[-33,55.88123],[-32.5,56.01797],[-32,56.15339],[-31.5,56.28747],[-31,56.4202],[-30.5,56.55158],[-30,56.68159],[-29.5,56.81022],[-29,56.93746],[-28.5,57.06332],[-28,57.18777],[-27.5,57.31081],[-27,57.43243],[-26.5,57.55263],[-26,57.6714],[-25.5,57.78874],[-25,57.90463],[-24.5,58.01908],[-24,58.13208],[-23.5,58.24362],[-23,58.3537],[-22.5,58.46232],[-22,58.56947],[-21.5,58.67515],[-21,58.77936],[-20.5,58.8821],[-20,58.98336],[-19.5,59.08313],[-19.5,59.08314],[-19,59.18143],[-18.5,59.27825],[-18,59.37359],[-17.5,59.46744],[-17,59.5598],[-16.5,59.65069],[-16,59.74008],[-15.5,59.828],[-15,59.91443],[-14.5,59.99937],[-14,60.08283],[-13.5,60.16481],[-13,60.2453],[-12.5,60.32432],[-12,60.40185],[-11.5,60.4779],[-11,60.55248],[-10.5,60.62558],[-10,60.69721],[-9.5,60.76736],[-9,60.83604],[-8.5,60.90325],[-8,60.96899],[-7.5,61.03327],[-7,61.09608],[-6.5,61.15743],[-6,61.21731],[-5.5,61.27574],[-5,61.33271],[-4.5,61.38822],[-4,61.44228],[-3.5,61.49488],[-3,61.54604],[-2.5,61.59574],[-2,61.644],[-1.5,61.69081],[-1.5,61.69082],[-1,61.73618],[-0.5,61.78011],[0,61.82259],[0.5,61.86363],[1,61.90324],[1.5,61.9414],[2,61.97813],[2.5,62.01342],[3,62.04728],[3.5,62.0797],[4,62.11068],[4.5,62.14024],[4.5,62.14023],[5,62.16835],[5.5,62.19504],[6,62.22029],[6.5,62.24411],[7,62.26649],[7.5,62.28744],[8,62.30696],[8.5,62.32503],[9,62.34168],[9.5,62.35688],[10,62.37065],[10,62.37064],[10.5,62.38297],[11,62.39385],[11.5,62.40329],[12,62.41128],[12.5,62.41783],[13,62.42292],[13.5,62.42656],[14,62.42875],[14.5,62.42947],[15,62.42874],[15.5,62.42654],[16,62.42287],[16.5,62.41772],[17,62.4111],[17.5,62.403],[18,62.39341],[18.5,62.38234],[19,62.36976],[19.5,62.35569],[20,62.34011],[20.5,62.32302],[21,62.30441],[21.5,62.28427],[22,62.26261],[22.5,62.23941],[23,62.21466],[23.5,62.18837],[24,62.16051],[24.5,62.13109],[25,62.1001],[25.5,62.06752],[26,62.03335],[26.5,61.99758],[27,61.96021],[27.5,61.92121],[28,61.88059],[28.5,61.83833],[29,61.79442],[29.5,61.74886],[30,61.70163],[30.5,61.65272],[31,61.60212],[31,61.60211],[31.5,61.54981],[32,61.4958],[32.5,61.44006],[32.5,61.44005],[33,61.38258],[33.5,61.32335],[34,61.26236],[34.5,61.19959],[35,61.13504],[35.5,61.06868],[36,61.00051],[36.5,60.93051],[36.5,60.9305],[37,60.85866],[37.5,60.78495],[38,60.70938],[38.5,60.63191],[39,60.55254],[39.5,60.47125],[40,60.38803],[40.5,60.30286],[41,60.21573],[41.5,60.12661],[42,60.0355],[42.5,59.94238],[43,59.84722],[43.5,59.75002],[44,59.65075],[44.5,59.54941],[45,59.44597],[45.5,59.34041],[46,59.23273],[46.5,59.1229],[47,59.0109],[47,59.01091],[47.5,58.89673],[48,58.78036],[48.5,58.66178],[49,58.54097],[49.5,58.41792],[50,58.2926],[50.5,58.16501],[51,58.03512],[51.5,57.90293],[52,57.76842],[52.5,57.63158],[53,57.49238],[53.5,57.35082],[54,57.20689],[54.5,57.06057],[55,56.91185],[55.5,56.76073],[56,56.60718],[56.5,56.45121],[57,56.2928],[57.5,56.13195],[58,55.96865],[58.5,55.80289],[59,55.63468],[59.5,55.46401],[60,55.29088],[60.5,55.11529],[61,54.93724],[61.5,54.75673],[62,54.57377],[62.5,54.38836],[63,54.20052],[63.5,54.01025],[64,53.81756],[64.5,53.62248],[65,53.425],[65.5,53.22516],[66,53.02297],[66.5,52.81846],[67,52.61165],[67.5,52.40256],[68,52.19122],[68.5,51.97767],[69,51.76194],[69.5,51.54407],[70,51.32409],[70.5,51.10204],[71,50.87798],[71.5,50.65194],[72,50.42397],[72.5,50.19413],[73,49.96247],[73.5,49.72903],[74,49.49389],[74.5,49.2571],[75,49.01872],[75.5,48.77882],[76,48.53746],[76.5,48.29472],[77,48.05065],[77.5,47.80533],[78,47.55885],[78.5,47.31126],[79,47.06264],[79.5,46.81308],[80,46.56265],[80.5,46.31143],[81,46.0595],[81.5,45.80693],[82,45.55382],[82.5,45.30023],[83,45.04626],[83.5,44.79197],[84,44.53746],[84.5,44.2828],[85,44.02807],[85.5,43.77335],[86,43.51871],[86.5,43.26424],[87,43.01002],[87.5,42.75611],[88,42.50259],[88.5,42.24953],[89,41.997],[89.5,41.74508],[90,41.49382],[90.5,41.2433],[91,40.99358],[91.5,40.74472],[92,40.49678],[92.5,40.24982],[93,40.0039],[93.5,39.75907],[94,39.51538],[94.5,39.27288],[95,39.03162],[95,39.03163],[95.5,38.79165],[96,38.55302],[96,38.55301],[96.5,38.31575],[97,38.07989],[97.5,37.84549],[98,37.61258],[98.5,37.38118],[99,37.15134],[99.5,36.92308],[100,36.69643],[100.5,36.47142],[101,36.24808],[101.5,36.02642],[102,35.80648],[102.5,35.58826],[103,35.37178],[103.5,35.15708],[104,34.94415],[104.5,34.73302],[105,34.52369],[105.5,34.31618],[106,34.11051],[106.5,33.90666],[106.5,33.90667],[107,33.70467],[107.5,33.50453],[108,33.30625],[108.5,33.10983],[109,32.91528],[109.5,32.7226],[110,32.53179],[110,32.5318],[110.5,32.34286],[111,32.15581],[111.5,31.97062],[112,31.78732],[112.5,31.60588],[113,31.42631],[113.5,31.24862],[114,31.07278],[114.5,30.89881],[115,30.72669]]}}],"attribution":"Eclipse Predictions by Fred Espenak and Jean Meeus (NASA's GSFC)","generated_at":"2026-09-23T01:44:44.090Z"}
