{"type":"FeatureCollection","year":65,"events":[{"id":"+00650125","year":65,"month":1,"day":25,"time_tdt":"08:47:30","type":"부분일식","type_code":"P","saros":90,"gamma":-1.39304,"magnitude":0.28785,"greatest":{"lat":-68.99201,"lng":-110.38104},"path_width_km":0,"duration":"00m00s","delta_t_seconds":9890,"catalog_number":4935,"source":"NASA Five Millennium Canon of Solar Eclipses","source_url":"https://eclipse.gsfc.nasa.gov/SEsearch/SEsearchmap.php?Ecl=%2B00650125"},{"id":"+00650622","year":65,"month":6,"day":22,"time_tdt":"14:02:12","type":"부분일식","type_code":"P","saros":57,"gamma":-1.23688,"magnitude":0.55924,"greatest":{"lat":-65.52264,"lng":25.49927},"path_width_km":0,"duration":"00m00s","delta_t_seconds":9886,"catalog_number":4936,"source":"NASA Five Millennium Canon of Solar Eclipses","source_url":"https://eclipse.gsfc.nasa.gov/SEsearch/SEsearchmap.php?Ecl=%2B00650622"},{"id":"+00650722","year":65,"month":7,"day":22,"time_tdt":"01:29:10","type":"부분일식","type_code":"P","saros":95,"gamma":1.47294,"magnitude":0.13246,"greatest":{"lat":68.20609,"lng":4.16486},"path_width_km":0,"duration":"00m00s","delta_t_seconds":9885.2,"catalog_number":4937,"source":"NASA Five Millennium Canon of Solar Eclipses","source_url":"https://eclipse.gsfc.nasa.gov/SEsearch/SEsearchmap.php?Ecl=%2B00650722"},{"id":"+00651216","year":65,"month":12,"day":16,"time_tdt":"05:52:32","type":"개기일식","type_code":"T","saros":62,"gamma":0.74199,"magnitude":1.0261,"greatest":{"lat":24.08952,"lng":139.85974},"path_width_km":131.9,"duration":"02m28s","delta_t_seconds":9881.3,"catalog_number":4938,"source":"NASA Five Millennium Canon of Solar Eclipses","source_url":"https://eclipse.gsfc.nasa.gov/SEsearch/SEsearchmap.php?Ecl=%2B00651216"}],"features":[{"type":"Feature","id":"+00651216:north:0","properties":{"id":"+00651216","year":65,"month":12,"day":16,"time_tdt":"05:52:32","type":"개기일식","type_code":"T","saros":62,"gamma":0.74199,"magnitude":1.0261,"greatest":{"lat":24.08952,"lng":139.85974},"path_width_km":131.9,"duration":"02m28s","delta_t_seconds":9881.3,"catalog_number":4938,"source":"NASA Five Millennium Canon of Solar Eclipses","source_url":"https://eclipse.gsfc.nasa.gov/SEsearch/SEsearchmap.php?Ecl=%2B00651216","boundary":"north","name":"65-12-16 개기일식"},"geometry":{"type":"LineString","coordinates":[[91.89648,50.25878],[92,50.20639],[92.5,49.95234],[93,49.69661],[93.5,49.43922],[94,49.18018],[94.5,48.91948],[95,48.65715],[95.5,48.39317],[96,48.12758],[96.5,47.86036],[97,47.59155],[97.5,47.32114],[98,47.04915],[98.5,46.7756],[99,46.50049],[99.5,46.22385],[100,45.94569],[100.5,45.66603],[101,45.38488],[101.5,45.10228],[102,44.81823],[102.5,44.53277],[103,44.24592],[103.5,43.9577],[104,43.66814],[104.5,43.37728],[105,43.08514],[105.5,42.79176],[106,42.49717],[106.5,42.20141],[107,41.90452],[107.5,41.60654],[108,41.30752],[108.5,41.0075],[109,40.70653],[109.5,40.40467],[110,40.10196],[110.5,39.79848],[111,39.49427],[111.5,39.1894],[112,38.88394],[112.5,38.57797],[113,38.27155],[113.5,37.96476],[114,37.65768],[114.5,37.35041],[115,37.04302],[115.5,36.73562],[116,36.4283],[116.5,36.12116],[117,35.81432],[117.5,35.50788],[118,35.20195],[118.5,34.89666],[119,34.59214],[119.5,34.28851],[120,33.98591],[120.5,33.68448],[121,33.38436],[121.5,33.0857],[122,32.78865],[122.5,32.49338],[123,32.20005],[123.5,31.90881],[124,31.61985],[124.5,31.33334],[125,31.04946],[125.5,30.76838],[126,30.4903],[126.5,30.21541],[127,29.94388],[127.5,29.67592],[128,29.41172],[128.5,29.15147],[129,28.89537],[129.5,28.64361],[130,28.39639],[130.5,28.1539],[131,27.91633],[131.5,27.68388],[132,27.45672],[132.5,27.23505],[133,27.01903],[133.5,26.80884],[134,26.60465],[134.5,26.40662],[135,26.21491],[135.5,26.02965],[136,25.85099],[136.5,25.67906],[137,25.51399],[137.5,25.35587],[138,25.20482],[138.5,25.06093],[139,24.92428],[139.5,24.79495],[140,24.67298],[140.5,24.55845],[141,24.45137],[141.5,24.3518],[142,24.25974],[142.5,24.1752],[143,24.09819],[143.5,24.02869],[144,23.96668],[144.5,23.91213],[145,23.865],[145.5,23.82525],[146,23.79282],[146.5,23.76765],[147,23.74965],[147.5,23.73877],[148,23.73491],[148.5,23.73798],[149,23.7479],[149.5,23.76454],[150,23.78783],[150.5,23.81763],[151,23.85385],[151.5,23.89636],[152,23.94505],[152.5,23.99979],[153,24.06046],[153.5,24.12695],[154,24.19911],[154.5,24.27682],[155,24.35996],[155.5,24.4484],[156,24.542],[156.5,24.64065],[157,24.74421],[157.5,24.85255],[158,24.96555],[158.5,25.08308],[159,25.20503],[159.5,25.33125],[160,25.46164],[160.5,25.59607],[161,25.73443],[161.5,25.87659],[162,26.02244],[162.5,26.17188],[163,26.32478],[163.5,26.48103],[164,26.64054],[164.5,26.80319],[165,26.96889],[165.5,27.13753],[166,27.30901],[166.5,27.48323],[167,27.66011],[167.5,27.83954],[168,28.02144],[168.5,28.20573],[169,28.39231],[169.5,28.58109],[170,28.77201],[170.5,28.96498],[171,29.15991],[171.5,29.35674],[172,29.55539],[172.5,29.75579],[173,29.95787],[173.5,30.16156],[174,30.36679],[174.5,30.5735],[175,30.78163],[175.5,30.99111],[176,31.20188],[176.5,31.41389],[177,31.62708],[177.5,31.8414],[178,32.05679],[178.5,32.27319],[179,32.49057],[179.5,32.70887],[180,32.92803]]}},{"type":"Feature","id":"+00651216:north:1","properties":{"id":"+00651216","year":65,"month":12,"day":16,"time_tdt":"05:52:32","type":"개기일식","type_code":"T","saros":62,"gamma":0.74199,"magnitude":1.0261,"greatest":{"lat":24.08952,"lng":139.85974},"path_width_km":131.9,"duration":"02m28s","delta_t_seconds":9881.3,"catalog_number":4938,"source":"NASA Five Millennium Canon of Solar Eclipses","source_url":"https://eclipse.gsfc.nasa.gov/SEsearch/SEsearchmap.php?Ecl=%2B00651216","boundary":"north","name":"65-12-16 개기일식"},"geometry":{"type":"LineString","coordinates":[[-179.5,33.14803],[-179,33.3688],[-178.5,33.59031],[-178,33.81251],[-177.5,34.03537],[-177,34.25883],[-176.5,34.48287],[-176,34.70744],[-175.5,34.93251],[-175,35.15803],[-174.5,35.38399],[-174,35.61033],[-173.5,35.83703],[-173,36.06405],[-172.9082,36.10577]]}},{"type":"Feature","id":"+00651216:center:0","properties":{"id":"+00651216","year":65,"month":12,"day":16,"time_tdt":"05:52:32","type":"개기일식","type_code":"T","saros":62,"gamma":0.74199,"magnitude":1.0261,"greatest":{"lat":24.08952,"lng":139.85974},"path_width_km":131.9,"duration":"02m28s","delta_t_seconds":9881.3,"catalog_number":4938,"source":"NASA Five Millennium Canon of Solar Eclipses","source_url":"https://eclipse.gsfc.nasa.gov/SEsearch/SEsearchmap.php?Ecl=%2B00651216","boundary":"center","name":"65-12-16 개기일식"},"geometry":{"type":"LineString","coordinates":[[91.80337,50.03772],[92,49.83182],[92.5,49.57461],[93,49.3157],[93.5,49.05511],[94,48.79284],[94.5,48.5289],[95,48.26329],[95.5,47.99602],[96,47.72711],[96.5,47.45657],[97,47.1844],[97.5,46.91061],[98,46.63522],[98.5,46.35825],[99,46.07971],[99.5,45.7996],[100,45.51796],[100.5,45.2348],[101,44.95014],[101.5,44.664],[102,44.3764],[102.5,44.08737],[103,43.79693],[103.5,43.50511],[104,43.21193],[104.5,42.91744],[105,42.62165],[105.5,42.32461],[106,42.02634],[106.5,41.7269],[107,41.42632],[107.5,41.12464],[108,40.8219],[108.5,40.51817],[109,40.21348],[109.5,39.90789],[110,39.60146],[110.5,39.29425],[111,38.98632],[111.5,38.67773],[112,38.36856],[112.5,38.05888],[113,37.74876],[113.5,37.43828],[114,37.12754],[114.5,36.81661],[115,36.50559],[115.5,36.19458],[116,35.88368],[116.5,35.57299],[117,35.26262],[117.5,34.95269],[118,34.64332],[118.5,34.33463],[119,34.02675],[119.5,33.71981],[120,33.41396],[120.5,33.10933],[121,32.80607],[121.5,32.50435],[122,32.20431],[122.5,31.90612],[123,31.60994],[123.5,31.31595],[124,31.02432],[124.5,30.73523],[125,30.44886],[125.5,30.16541],[126,29.88505],[126.5,29.60798],[127,29.3344],[127.5,29.06451],[128,28.79848],[128.5,28.53654],[129,28.27887],[129.5,28.02567],[130,27.77714],[130.5,27.53348],[131,27.29488],[131.5,27.06152],[132,26.83361],[132.5,26.61131],[133,26.39481],[133.5,26.18429],[134,25.9799],[134.5,25.78182],[135,25.59018],[135.5,25.40515],[136,25.22685],[136.5,25.05542],[137,24.89098],[137.5,24.73362],[138,24.58347],[138.5,24.44059],[139,24.30508],[139.5,24.17701],[140,24.05642],[140.5,23.94338],[141,23.8379],[141.5,23.74003],[142,23.64978],[142.5,23.56715],[143,23.49214],[143.5,23.42473],[144,23.36489],[144.5,23.31261],[145,23.26782],[145.5,23.23048],[146,23.20054],[146.5,23.17792],[147,23.16255],[147.5,23.15435],[148,23.15323],[148.5,23.1591],[149,23.17187],[149.5,23.19142],[150,23.21765],[150.5,23.25045],[151,23.2897],[151.5,23.33529],[152,23.38709],[152.5,23.44498],[153,23.50884],[153.5,23.57853],[154,23.65393],[154.5,23.73492],[155,23.82136],[155.5,23.91311],[156,24.01006],[156.5,24.11207],[157,24.21901],[157.5,24.33076],[158,24.44718],[158.5,24.56815],[159,24.69354],[159.5,24.82322],[160,24.95708],[160.5,25.095],[161,25.23685],[161.5,25.38251],[162,25.53187],[162.5,25.68482],[163,25.84124],[163.5,26.00102],[164,26.16405],[164.5,26.33023],[165,26.49946],[165.5,26.67163],[166,26.84663],[166.5,27.02439],[167,27.20479],[167.5,27.38775],[168,27.57318],[168.5,27.76098],[169,27.95107],[169.5,28.14337],[170,28.33779],[170.5,28.53425],[171,28.73267],[171.5,28.93298],[172,29.13511],[172.5,29.33897],[173,29.5445],[173.5,29.75163],[174,29.9603],[174.5,30.17043],[175,30.38197],[175.5,30.59484],[176,30.80901],[176.5,31.02439],[177,31.24094],[177.5,31.45861],[178,31.67733],[178.5,31.89706],[179,32.11774],[179.5,32.33932],[180,32.56177]]}},{"type":"Feature","id":"+00651216:center:1","properties":{"id":"+00651216","year":65,"month":12,"day":16,"time_tdt":"05:52:32","type":"개기일식","type_code":"T","saros":62,"gamma":0.74199,"magnitude":1.0261,"greatest":{"lat":24.08952,"lng":139.85974},"path_width_km":131.9,"duration":"02m28s","delta_t_seconds":9881.3,"catalog_number":4938,"source":"NASA Five Millennium Canon of Solar Eclipses","source_url":"https://eclipse.gsfc.nasa.gov/SEsearch/SEsearchmap.php?Ecl=%2B00651216","boundary":"center","name":"65-12-16 개기일식"},"geometry":{"type":"LineString","coordinates":[[-179.5,32.78502],[-179,33.00904],[-178.5,33.23378],[-178,33.45919],[-177.5,33.68524],[-177,33.91189],[-176.5,34.13909],[-176,34.3668],[-175.5,34.595],[-175,34.82364],[-174.5,35.05268],[-174,35.2821],[-173.5,35.51186],[-173,35.74192],[-172.84477,35.81239]]}},{"type":"Feature","id":"+00651216:south:0","properties":{"id":"+00651216","year":65,"month":12,"day":16,"time_tdt":"05:52:32","type":"개기일식","type_code":"T","saros":62,"gamma":0.74199,"magnitude":1.0261,"greatest":{"lat":24.08952,"lng":139.85974},"path_width_km":131.9,"duration":"02m28s","delta_t_seconds":9881.3,"catalog_number":4938,"source":"NASA Five Millennium Canon of Solar Eclipses","source_url":"https://eclipse.gsfc.nasa.gov/SEsearch/SEsearchmap.php?Ecl=%2B00651216","boundary":"south","name":"65-12-16 개기일식"},"geometry":{"type":"LineString","coordinates":[[91.5,49.71626],[92,49.45759],[92.5,49.1972],[93,48.93509],[93.5,48.67128],[94,48.40576],[94.5,48.13855],[95,47.86965],[95.5,47.59908],[96,47.32683],[96.5,47.05293],[97,46.77738],[97.5,46.50019],[98,46.22139],[98.5,45.94097],[99,45.65897],[99.5,45.37538],[100,45.09024],[100.5,44.80356],[101,44.51536],[101.5,44.22566],[102,43.93448],[102.5,43.64186],[103,43.3478],[103.5,43.05235],[104,42.75554],[104.5,42.45738],[105,42.15792],[105.5,41.85719],[106,41.55523],[106.5,41.25208],[107,40.94778],[107.5,40.64237],[108,40.33591],[108.5,40.02843],[109,39.72],[109.5,39.41066],[110,39.10048],[110.5,38.78952],[111,38.47784],[111.5,38.16551],[112,37.85261],[112.5,37.5392],[113,37.22536],[113.5,36.91118],[114,36.59675],[114.5,36.28216],[115,35.96749],[115.5,35.65286],[116,35.33836],[116.5,35.02411],[117,34.71021],[117.5,34.39678],[118,34.08396],[118.5,33.77186],[119,33.46062],[119.5,33.15038],[120,32.84127],[120.5,32.53346],[121,32.22708],[121.5,31.9223],[122,31.61927],[122.5,31.31818],[123,31.01918],[123.5,30.72245],[124,30.42817],[124.5,30.13653],[125,29.84771],[125.5,29.56191],[126,29.27931],[126.5,29.00012],[127,28.72452],[127.5,28.45273],[128,28.18494],[128.5,27.92134],[129,27.66215],[129.5,27.40757],[130,27.15779],[130.5,26.91301],[131,26.67343],[131.5,26.43923],[132,26.21061],[132.5,25.98776],[133,25.77084],[133.5,25.56004],[134,25.35552],[134.5,25.15744],[135,24.96595],[135.5,24.78121],[136,24.60333],[136.5,24.43245],[137,24.26869],[137.5,24.11216],[138,23.96295],[138.5,23.82114],[139,23.68682],[139.5,23.56005],[140,23.44089],[140.5,23.32937],[141,23.22554],[141.5,23.12941],[142,23.041],[142.5,22.9603],[143,22.88732],[143.5,22.82202],[144,22.76439],[144.5,22.71438],[145,22.67195],[145.5,22.63704],[146,22.60959],[146.5,22.58954],[147,22.5768],[147.5,22.57128],[148,22.57291],[148.5,22.58158],[149,22.59719],[149.5,22.61964],[150,22.64881],[150.5,22.6846],[151,22.72688],[151.5,22.77553],[152,22.83044],[152.5,22.89147],[153,22.95849],[153.5,23.03139],[154,23.11002],[154.5,23.19426],[155,23.28398],[155.5,23.37905],[156,23.47932],[156.5,23.58468],[157,23.69499],[157.5,23.81012],[158,23.92994],[158.5,24.05433],[159,24.18315],[159.5,24.31629],[160,24.4536],[160.5,24.59499],[161,24.74031],[161.5,24.88946],[162,25.04232],[162.5,25.19876],[163,25.35869],[163.5,25.52198],[164,25.68853],[164.5,25.85823],[165,26.03097],[165.5,26.20666],[166,26.38519],[166.5,26.56647],[167,26.75039],[167.5,26.93687],[168,27.12581],[168.5,27.31712],[169,27.51072],[169.5,27.70652],[170,27.90443],[170.5,28.10438],[171,28.30629],[171.5,28.51007],[172,28.71566],[172.5,28.92299],[173,29.13197],[173.5,29.34254],[174,29.55463],[174.5,29.76819],[175,29.98313],[175.5,30.19941],[176,30.41695],[176.5,30.63571],[177,30.85563],[177.5,31.07664],[178,31.29869],[178.5,31.52174],[179,31.74572],[179.5,31.9706],[180,32.19632]]}},{"type":"Feature","id":"+00651216:south:1","properties":{"id":"+00651216","year":65,"month":12,"day":16,"time_tdt":"05:52:32","type":"개기일식","type_code":"T","saros":62,"gamma":0.74199,"magnitude":1.0261,"greatest":{"lat":24.08952,"lng":139.85974},"path_width_km":131.9,"duration":"02m28s","delta_t_seconds":9881.3,"catalog_number":4938,"source":"NASA Five Millennium Canon of Solar Eclipses","source_url":"https://eclipse.gsfc.nasa.gov/SEsearch/SEsearchmap.php?Ecl=%2B00651216","boundary":"south","name":"65-12-16 개기일식"},"geometry":{"type":"LineString","coordinates":[[-179.5,32.42283],[-179,32.6501],[-178.5,32.87807],[-178,33.10669],[-177.5,33.33594],[-177,33.56577],[-176.5,33.79613],[-176,34.027],[-175.5,34.25832],[-175,34.49007],[-174.5,34.72221],[-174,34.95471],[-173.5,35.18753],[-173,35.42063]]}}],"attribution":"Eclipse Predictions by Fred Espenak and Jean Meeus (NASA's GSFC)","generated_at":"2026-09-23T01:44:44.018Z"}
