{"type":"FeatureCollection","year":650,"events":[{"id":"+06500206","year":650,"month":2,"day":6,"time_tdt":"15:56:44","type":"금환일식","type_code":"A","saros":99,"gamma":0.66411,"magnitude":0.98956,"greatest":{"lat":23.47706,"lng":-54.7019},"path_width_km":48.2,"duration":"01m01s","delta_t_seconds":4246.6,"catalog_number":6315,"source":"NASA Five Millennium Canon of Solar Eclipses","source_url":"https://eclipse.gsfc.nasa.gov/SEsearch/SEsearchmap.php?Ecl=%2B06500206"},{"id":"+06500803","year":650,"month":8,"day":3,"time_tdt":"07:30:19","type":"금환일식","type_code":"A","saros":104,"gamma":-0.78358,"magnitude":0.96599,"greatest":{"lat":-30.9169,"lng":65.95734},"path_width_km":192.9,"duration":"03m34s","delta_t_seconds":4242.1,"catalog_number":6316,"source":"NASA Five Millennium Canon of Solar Eclipses","source_url":"https://eclipse.gsfc.nasa.gov/SEsearch/SEsearchmap.php?Ecl=%2B06500803"},{"id":"+06501228","year":650,"month":12,"day":28,"time_tdt":"18:14:40","type":"부분일식","type_code":"P","saros":71,"gamma":-1.35635,"magnitude":0.33785,"greatest":{"lat":-64.8805,"lng":81.78107},"path_width_km":0,"duration":"00m00s","delta_t_seconds":4238.4,"catalog_number":6317,"source":"NASA Five Millennium Canon of Solar Eclipses","source_url":"https://eclipse.gsfc.nasa.gov/SEsearch/SEsearchmap.php?Ecl=%2B06501228"}],"features":[{"type":"Feature","id":"+06500206:north:0","properties":{"id":"+06500206","year":650,"month":2,"day":6,"time_tdt":"15:56:44","type":"금환일식","type_code":"A","saros":99,"gamma":0.66411,"magnitude":0.98956,"greatest":{"lat":23.47706,"lng":-54.7019},"path_width_km":48.2,"duration":"01m01s","delta_t_seconds":4246.6,"catalog_number":6315,"source":"NASA Five Millennium Canon of Solar Eclipses","source_url":"https://eclipse.gsfc.nasa.gov/SEsearch/SEsearchmap.php?Ecl=%2B06500206","boundary":"north","name":"650-02-06 금환일식"},"geometry":{"type":"LineString","coordinates":[[-102.26562,17.21606],[-102,17.14444],[-101.5,17.01109],[-101,16.87968],[-100.5,16.75025],[-100,16.62284],[-99.5,16.49749],[-99,16.37424],[-98.5,16.25315],[-98,16.13425],[-97.5,16.01759],[-97,15.90323],[-96.5,15.7912],[-96,15.68156],[-95.5,15.57436],[-95,15.46965],[-94.5,15.36748],[-94,15.26792],[-93.5,15.17101],[-93,15.07682],[-92.5,14.9854],[-92,14.89681],[-91.5,14.81113],[-91,14.7284],[-90.5,14.6487],[-90,14.57209],[-89.5,14.49865],[-89,14.42844],[-88.5,14.36154],[-88,14.29802],[-87.5,14.23796],[-87,14.18144],[-86.5,14.12854],[-86,14.07935],[-85.5,14.03394],[-85,13.99241],[-84.5,13.95485],[-84,13.92135],[-83.5,13.892],[-83,13.86692],[-82.5,13.84619],[-82,13.82992],[-81.5,13.81822],[-81,13.8112],[-80.5,13.80897],[-80,13.81166],[-79.5,13.81937],[-79,13.83223],[-78.5,13.85037],[-78,13.87391],[-77.5,13.903],[-77,13.93777],[-76.5,13.97836],[-76,14.02491],[-75.5,14.07757],[-75,14.13649],[-74.5,14.20184],[-74,14.27376],[-73.5,14.35242],[-73,14.43799],[-72.5,14.53064],[-72,14.63054],[-71.5,14.73787],[-71,14.8528],[-70.5,14.97552],[-70,15.10621],[-69.5,15.24506],[-69,15.39225],[-68.5,15.54799],[-68,15.71244],[-67.5,15.88581],[-67,16.06829],[-66.5,16.26005],[-66,16.46129],[-65.5,16.67217],[-65,16.89288],[-64.5,17.12359],[-64,17.36445],[-63.5,17.61561],[-63,17.87721],[-62.5,18.14938],[-62,18.43222],[-61.5,18.72583],[-61,19.03028],[-60.5,19.34561],[-60,19.67187],[-59.5,20.00903],[-59,20.35709],[-58.5,20.71596],[-58,21.08557],[-57.5,21.46578],[-57,21.85643],[-56.5,22.25732],[-56,22.6682],[-55.5,23.08879],[-55,23.51878],[-54.5,23.95781],[-54,24.40548],[-53.5,24.86136],[-53,25.32499],[-52.5,25.79589],[-52,26.27351],[-51.5,26.75733],[-51,27.24678],[-50.5,27.74128],[-50,28.24024],[-49.5,28.74306],[-49,29.24915],[-48.5,29.75792],[-48,30.26878],[-47.5,30.78115],[-47,31.29448],[-46.5,31.80822],[-46,32.32185],[-45.5,32.83488],[-45,33.34683],[-44.5,33.85725],[-44,34.36573],[-43.5,34.87187],[-43,35.37532],[-42.5,35.87574],[-42,36.37282],[-41.5,36.86628],[-41,37.35588],[-40.5,37.84138],[-40,38.32257],[-39.5,38.79929],[-39,39.27137],[-38.5,39.73868],[-38,40.20108],[-37.5,40.6585],[-37,41.11083],[-36.5,41.558],[-36,41.99998],[-35.5,42.4367],[-35,42.86814],[-34.5,43.29429],[-34,43.71512],[-33.5,44.13064],[-33,44.54085],[-32.5,44.94576],[-32,45.3454],[-31.5,45.7398],[-31,46.12897],[-30.5,46.51295],[-30,46.89179],[-29.5,47.26553],[-29,47.6342],[-28.5,47.99786],[-28,48.35655],[-27.5,48.71033],[-27,49.05926],[-26.5,49.40337],[-26,49.74274],[-25.5,50.07742],[-25,50.40745],[-24.5,50.73291],[-24,51.05385],[-23.5,51.37033],[-23,51.6824],[-22.5,51.99012],[-22,52.29355],[-21.5,52.59275],[-21,52.88778],[-20.5,53.17869],[-20,53.46554],[-19.5,53.74838],[-19,54.02728],[-18.5,54.30228],[-18,54.57344],[-17.5,54.84082],[-17,55.10446],[-16.5,55.36442],[-16,55.62076],[-15.5,55.87352],[-15,56.12275],[-14.5,56.3685],[-14,56.61083],[-13.5,56.84977],[-13,57.08539],[-12.5,57.31772],[-12,57.54681],[-11.5,57.77271],[-11,57.99545],[-10.5,58.2151],[-10,58.43168],[-9.5,58.64524],[-9,58.85583],[-8.5,59.06348],[-8,59.26823],[-7.5,59.47014],[-7,59.66922],[-6.5,59.86553],[-6,60.0591],[-5.5,60.24997],[-5,60.43817],[-4.5,60.62375],[-4,60.80673],[-3.5,60.98715],[-3,61.16506],[-2.5,61.34047],[-2,61.51342],[-1.5,61.68395],[-1,61.85209],[-0.5,62.01787],[0,62.18133],[0.5,62.34248],[1,62.50137],[1.5,62.65801]]}},{"type":"Feature","id":"+06500206:center:0","properties":{"id":"+06500206","year":650,"month":2,"day":6,"time_tdt":"15:56:44","type":"금환일식","type_code":"A","saros":99,"gamma":0.66411,"magnitude":0.98956,"greatest":{"lat":23.47706,"lng":-54.7019},"path_width_km":48.2,"duration":"01m01s","delta_t_seconds":4246.6,"catalog_number":6315,"source":"NASA Five Millennium Canon of Solar Eclipses","source_url":"https://eclipse.gsfc.nasa.gov/SEsearch/SEsearchmap.php?Ecl=%2B06500206","boundary":"center","name":"650-02-06 금환일식"},"geometry":{"type":"LineString","coordinates":[[-102.25525,16.74547],[-102,16.68569],[-101.5,16.55537],[-101,16.42699],[-100.5,16.30058],[-100,16.17619],[-99.5,16.05385],[-99,15.93362],[-98.5,15.81554],[-98,15.69965],[-97.5,15.58599],[-97,15.47462],[-96.5,15.36559],[-96,15.25893],[-95.5,15.15471],[-95,15.05297],[-94.5,14.95377],[-94,14.85716],[-93.5,14.7632],[-93,14.67195],[-92.5,14.58346],[-92,14.49779],[-91.5,14.41501],[-91,14.33518],[-90.5,14.25837],[-90,14.18463],[-89.5,14.11405],[-89,14.04669],[-88.5,13.98262],[-88,13.92192],[-87.5,13.86466],[-87,13.81092],[-86.5,13.76079],[-86,13.71434],[-85.5,13.67166],[-85,13.63283],[-84.5,13.59796],[-84,13.56712],[-83.5,13.54042],[-83,13.51795],[-82.5,13.49981],[-82,13.4861],[-81.5,13.47694],[-81,13.47242],[-80.5,13.47267],[-80,13.47779],[-79.5,13.48791],[-79,13.50315],[-78.5,13.52363],[-78,13.54948],[-77.5,13.58083],[-77,13.61781],[-76.5,13.66058],[-76,13.70926],[-75.5,13.76401],[-75,13.82497],[-74.5,13.8923],[-74,13.96616],[-73.5,14.0467],[-73,14.13409],[-72.5,14.2285],[-72,14.3301],[-71.5,14.43905],[-71,14.55555],[-70.5,14.67976],[-70,14.81188],[-69.5,14.95207],[-69,15.10054],[-68.5,15.25745],[-68,15.42301],[-67.5,15.59739],[-67,15.78078],[-66.5,15.97336],[-66,16.17532],[-65.5,16.38683],[-65,16.60805],[-64.5,16.83916],[-64,17.08031],[-63.5,17.33164],[-63,17.5933],[-62.5,17.8654],[-62,18.14804],[-61.5,18.44133],[-61,18.74532],[-60.5,19.06007],[-60,19.3856],[-59.5,19.72191],[-59,20.06896],[-58.5,20.42669],[-58,20.79502],[-57.5,21.17381],[-57,21.5629],[-56.5,21.96209],[-56,22.37114],[-55.5,22.78977],[-55,23.21767],[-54.5,23.65447],[-54,24.09981],[-53.5,24.55324],[-53,25.01431],[-52.5,25.48253],[-52,25.9574],[-51.5,26.43837],[-51,26.92488],[-50.5,27.41637],[-50,27.91226],[-49.5,28.41195],[-49,28.91485],[-48.5,29.42039],[-48,29.92798],[-47.5,30.43705],[-47,30.94705],[-46.5,31.45745],[-46,31.96772],[-45.5,32.47739],[-45,32.98597],[-44.5,33.49302],[-44,33.99814],[-43.5,34.50094],[-43,35.00105],[-42.5,35.49815],[-42,35.99193],[-41.5,36.48211],[-41,36.96844],[-40.5,37.45071],[-40,37.9287],[-39.5,38.40223],[-39,38.87116],[-38.5,39.33534],[-38,39.79465],[-37.5,40.249],[-37,40.6983],[-36.5,41.14248],[-36,41.58148],[-35.5,42.01527],[-35,42.44381],[-34.5,42.86708],[-34,43.28507],[-33.5,43.69779],[-33,44.10523],[-32.5,44.50741],[-32,44.90434],[-31.5,45.29606],[-31,45.68259],[-30.5,46.06397],[-30,46.44024],[-29.5,46.81143],[-29,47.1776],[-28.5,47.53878],[-28,47.89504],[-27.5,48.24641],[-27,48.59295],[-26.5,48.93473],[-26,49.27178],[-25.5,49.60418],[-25,49.93197],[-24.5,50.25521],[-24,50.57396],[-23.5,50.88828],[-23,51.19823],[-22.5,51.50386],[-22,51.80523],[-21.5,52.10241],[-21,52.39543],[-20.5,52.68437],[-20,52.96928],[-19.5,53.25022],[-19,53.52724],[-18.5,53.80039],[-18,54.06973],[-17.5,54.33532],[-17,54.5972],[-16.5,54.85543],[-16,55.11006],[-15.5,55.36114],[-15,55.60872],[-14.5,55.85285],[-14,56.09358],[-13.5,56.33096],[-13,56.56503],[-12.5,56.79585],[-12,57.02345],[-11.5,57.24788],[-11,57.46919],[-10.5,57.68742],[-10,57.90261],[-9.5,58.11481],[-9,58.32406],[-8.5,58.53039],[-8,58.73386],[-7.5,58.93449],[-7,59.13233],[-6.5,59.32741],[-6,59.51978],[-5.5,59.70946],[-5,59.89651],[-4.5,60.08094],[-4,60.2628],[-3.5,60.44213],[-3,60.61895],[-2.5,60.7933],[-2,60.96522],[-1.5,61.13473],[-1,61.30186],[-0.5,61.46666],[0,61.62914],[0.5,61.78935],[1,61.9473],[1.5,62.10303],[2,62.25656],[2.0664,62.48235]]}},{"type":"Feature","id":"+06500206:south:0","properties":{"id":"+06500206","year":650,"month":2,"day":6,"time_tdt":"15:56:44","type":"금환일식","type_code":"A","saros":99,"gamma":0.66411,"magnitude":0.98956,"greatest":{"lat":23.47706,"lng":-54.7019},"path_width_km":48.2,"duration":"01m01s","delta_t_seconds":4246.6,"catalog_number":6315,"source":"NASA Five Millennium Canon of Solar Eclipses","source_url":"https://eclipse.gsfc.nasa.gov/SEsearch/SEsearchmap.php?Ecl=%2B06500206","boundary":"south","name":"650-02-06 금환일식"},"geometry":{"type":"LineString","coordinates":[[-102.25977,16.29704],[-102,16.23014],[-101.5,16.10282],[-101,15.97744],[-100.5,15.85403],[-100,15.73263],[-99.5,15.61329],[-99,15.49605],[-98.5,15.38095],[-98,15.26804],[-97.5,15.15736],[-97,15.04896],[-96.5,14.94289],[-96,14.8392],[-95.5,14.73793],[-95,14.63914],[-94.5,14.54288],[-94,14.44921],[-93.5,14.35817],[-93,14.26983],[-92.5,14.18425],[-92,14.10148],[-91.5,14.02159],[-91,13.94464],[-90.5,13.87069],[-90,13.79981],[-89.5,13.73207],[-89,13.66753],[-88.5,13.60627],[-88,13.54837],[-87.5,13.49389],[-87,13.44292],[-86.5,13.39553],[-86,13.35181],[-85.5,13.31184],[-85,13.27571],[-84.5,13.24351],[-84,13.21532],[-83.5,13.19124],[-83,13.17137],[-82.5,13.15581],[-82,13.14465],[-81.5,13.13801],[-81,13.13599],[-80.5,13.13871],[-80,13.14626],[-79.5,13.15878],[-79,13.17639],[-78.5,13.1992],[-78,13.22734],[-77.5,13.26095],[-77,13.30015],[-76.5,13.34509],[-76,13.39591],[-75.5,13.45274],[-75,13.51574],[-74.5,13.58506],[-74,13.66085],[-73.5,13.74327],[-73,13.83249],[-72.5,13.92867],[-72,14.03197],[-71.5,14.14257],[-71,14.26065],[-70.5,14.38637],[-70,14.51992],[-69.5,14.66148],[-69,14.81123],[-68.5,14.96935],[-68,15.13603],[-67.5,15.31145],[-67,15.49578],[-66.5,15.68922],[-66,15.89193],[-65.5,16.10409],[-65,16.32587],[-64.5,16.55742],[-64,16.79891],[-63.5,17.05046],[-63,17.31223],[-62.5,17.58431],[-62,17.86682],[-61.5,18.15984],[-61,18.46344],[-60.5,18.77767],[-60,19.10255],[-59.5,19.43806],[-59,19.78419],[-58.5,20.14087],[-58,20.508],[-57.5,20.88546],[-57,21.27309],[-56.5,21.67067],[-56,22.07799],[-55.5,22.49475],[-55,22.92066],[-54.5,23.35536],[-54,23.79846],[-53.5,24.24955],[-53,24.70817],[-52.5,25.17385],[-52,25.64607],[-51.5,26.1243],[-51,26.608],[-50.5,27.0966],[-50,27.58953],[-49.5,28.0862],[-49,28.58604],[-48.5,29.08847],[-48,29.59291],[-47.5,30.09879],[-47,30.60559],[-46.5,31.11276],[-46,31.61979],[-45.5,32.1262],[-45,32.63152],[-44.5,33.13533],[-44,33.6372],[-43.5,34.13675],[-43,34.63363],[-42.5,35.12751],[-42,35.61808],[-41.5,36.10508],[-41,36.58826],[-40.5,37.06738],[-40,37.54225],[-39.5,38.0127],[-39,38.47857],[-38.5,38.93971],[-38,39.39602],[-37.5,39.84739],[-37,40.29374],[-36.5,40.735],[-36,41.17111],[-35.5,41.60204],[-35,42.02776],[-34.5,42.44823],[-34,42.86346],[-33.5,43.27344],[-33,43.67818],[-32.5,44.07769],[-32,44.47199],[-31.5,44.8611],[-31,45.24506],[-30.5,45.62389],[-30,45.99765],[-29.5,46.36636],[-29,46.73007],[-28.5,47.08884],[-28,47.4427],[-27.5,47.79172],[-27,48.13593],[-26.5,48.47541],[-26,48.8102],[-25.5,49.14036],[-25,49.46594],[-24.5,49.78701],[-24,50.10362],[-23.5,50.41582],[-23,50.72369],[-22.5,51.02726],[-22,51.3266],[-21.5,51.62178],[-21,51.91284],[-20.5,52.19984],[-20,52.48284],[-19.5,52.76189],[-19,53.03705],[-18.5,53.30837],[-18,53.57591],[-17.5,53.83972],[-17,54.09986],[-16.5,54.35637],[-16,54.6093],[-15.5,54.85872],[-15,55.10466],[-14.5,55.34717],[-14,55.58632],[-13.5,55.82213],[-13,56.05466],[-12.5,56.28396],[-12,56.51007],[-11.5,56.73304],[-11,56.95291],[-10.5,57.16972],[-10,57.38352],[-9.5,57.59435],[-9,57.80224],[-8.5,58.00725],[-8,58.2094],[-7.5,58.40875],[-7,58.60533],[-6.5,58.79917],[-6,58.99031],[-5.5,59.1788],[-5,59.36466],[-4.5,59.54793],[-4,59.72866],[-3.5,59.90686],[-3,60.08257],[-2.5,60.25584],[-2,60.42668],[-1.5,60.59514],[-1,60.76124],[-0.5,60.92502],[0,61.0865],[0.5,61.24572],[1,61.4027],[1.5,61.55748],[2,61.71008],[2.5,61.86052],[2.75391,61.93611]]}},{"type":"Feature","id":"+06500803:north:0","properties":{"id":"+06500803","year":650,"month":8,"day":3,"time_tdt":"07:30:19","type":"금환일식","type_code":"A","saros":104,"gamma":-0.78358,"magnitude":0.96599,"greatest":{"lat":-30.9169,"lng":65.95734},"path_width_km":192.9,"duration":"03m34s","delta_t_seconds":4242.1,"catalog_number":6316,"source":"NASA Five Millennium Canon of Solar Eclipses","source_url":"https://eclipse.gsfc.nasa.gov/SEsearch/SEsearchmap.php?Ecl=%2B06500803","boundary":"north","name":"650-08-03 금환일식"},"geometry":{"type":"LineString","coordinates":[[23.36133,-27.15992],[23.5,-27.11727],[24,-26.96472],[24.5,-26.8141],[25,-26.66545],[25.5,-26.51882],[26,-26.37426],[26.5,-26.23182],[27,-26.09155],[27.5,-25.95351],[28,-25.81774],[28.5,-25.68431],[29,-25.55327],[29.5,-25.42468],[30,-25.2986],[30.5,-25.1751],[31,-25.05423],[31.5,-24.93606],[32,-24.82067],[32.5,-24.70811],[33,-24.59847],[33.5,-24.49181],[34,-24.38822],[34.5,-24.28777],[35,-24.19053],[35.5,-24.0966],[36,-24.00606],[36.5,-23.919],[37,-23.8355],[37.5,-23.75566],[38,-23.67958],[38.5,-23.60736],[39,-23.53909],[39.5,-23.47488],[40,-23.41485],[40.5,-23.3591],[41,-23.30774],[41.5,-23.2609],[42,-23.21869],[42.5,-23.18125],[43,-23.1487],[43.5,-23.12117],[44,-23.0988],[44.5,-23.08173],[45,-23.07011],[45.5,-23.06408],[46,-23.0638],[46.5,-23.06943],[47,-23.08112],[47.5,-23.09903],[48,-23.12335],[48.5,-23.15424],[49,-23.19188],[49.5,-23.23646],[50,-23.28815],[50.5,-23.34715],[51,-23.41365],[51.5,-23.48784],[52,-23.56993],[52.5,-23.66011],[53,-23.75859],[53.5,-23.86557],[54,-23.98126],[54.5,-24.10586],[55,-24.23958],[55.5,-24.38262],[56,-24.53518],[56.5,-24.69747],[57,-24.86967],[57.5,-25.05196],[58,-25.24453],[58.5,-25.44755],[59,-25.66118],[59.5,-25.88555],[60,-26.12079],[60.5,-26.36703],[61,-26.62435],[61.5,-26.89282],[62,-27.1725],[62.5,-27.46339],[63,-27.7655],[63.5,-28.07879],[64,-28.40319],[64.5,-28.73859],[65,-29.08486],[65.5,-29.44183],[66,-29.80927],[66.5,-30.18695],[67,-30.57457],[67.5,-30.97181],[68,-31.37832],[68.5,-31.79369],[69,-32.21752],[69.5,-32.64934],[70,-33.08867],[70.5,-33.53501],[71,-33.98785],[71.5,-34.44665],[72,-34.91085],[72.5,-35.37991],[73,-35.85326],[73.5,-36.33036],[74,-36.81065],[74.5,-37.29359],[75,-37.77865],[75.5,-38.2653],[76,-38.75307],[76.5,-39.24145],[77,-39.72999],[77.5,-40.21826],[78,-40.70584],[78.5,-41.19234],[79,-41.6774],[79.5,-42.16066],[80,-42.64183],[80.5,-43.12059],[81,-43.59669],[81.5,-44.06987],[82,-44.53991],[82.5,-45.00661],[83,-45.46977],[83.5,-45.92923],[84,-46.38484],[84.5,-46.83646],[85,-47.28399],[85.5,-47.72732],[86,-48.16635],[86.5,-48.60102],[87,-49.03125],[87.5,-49.45699],[88,-49.8782],[88.5,-50.29483],[89,-50.70687],[89.5,-51.11429],[90,-51.51707],[90.5,-51.91522],[91,-52.30873],[91.5,-52.69759],[92,-53.08182],[92.5,-53.46144],[93,-53.83645],[93.5,-54.20688],[94,-54.57274],[94.5,-54.93407],[95,-55.29089],[95.5,-55.64322],[96,-55.9911],[96.5,-56.33457],[97,-56.67365],[97.5,-57.00839],[98,-57.33881],[98.5,-57.66496],[99,-57.98687],[99.5,-58.30459],[100,-58.61815],[100.5,-58.9276],[101,-59.23296],[101.5,-59.5343],[102,-59.83163],[102.5,-60.12502],[103,-60.41449],[103.5,-60.7001],[104,-60.98188],[104.5,-61.25987],[105,-61.53411],[105.5,-61.80465],[106,-62.07153],[106.5,-62.33479],[107,-62.59447],[107.5,-62.85061],[108,-63.10325],[108.5,-63.35243],[109,-63.5982],[109.5,-63.84058],[110,-64.07963],[110.5,-64.31538],[111,-64.54787],[111.5,-64.77714],[112,-65.00322],[112.5,-65.22617],[113,-65.446],[113.5,-65.66277],[114,-65.87651],[114.20898,-65.96495]]}},{"type":"Feature","id":"+06500803:center:0","properties":{"id":"+06500803","year":650,"month":8,"day":3,"time_tdt":"07:30:19","type":"금환일식","type_code":"A","saros":104,"gamma":-0.78358,"magnitude":0.96599,"greatest":{"lat":-30.9169,"lng":65.95734},"path_width_km":192.9,"duration":"03m34s","delta_t_seconds":4242.1,"catalog_number":6316,"source":"NASA Five Millennium Canon of Solar Eclipses","source_url":"https://eclipse.gsfc.nasa.gov/SEsearch/SEsearchmap.php?Ecl=%2B06500803","boundary":"center","name":"650-08-03 금환일식"},"geometry":{"type":"LineString","coordinates":[[23.41009,-28.21007],[23.5,-28.20596],[24,-28.04992],[24.5,-27.89584],[25,-27.74376],[25.5,-27.59375],[26,-27.44583],[26.5,-27.30008],[27,-27.15654],[27.5,-27.01525],[28,-26.87629],[28.5,-26.7397],[29,-26.60555],[29.5,-26.47389],[30,-26.34479],[30.5,-26.21831],[31,-26.09451],[31.5,-25.97347],[32,-25.85525],[32.5,-25.73992],[33,-25.62756],[33.5,-25.51825],[34,-25.41205],[34.5,-25.30906],[35,-25.20935],[35.5,-25.11301],[36,-25.02013],[36.5,-24.9308],[37,-24.84511],[37.5,-24.76315],[38,-24.68503],[38.5,-24.61084],[39,-24.5407],[39.5,-24.47471],[40,-24.41298],[40.5,-24.35563],[41,-24.30277],[41.5,-24.25453],[42,-24.21103],[42.5,-24.1724],[43,-24.13878],[43.5,-24.1103],[44,-24.0871],[44.5,-24.06933],[45,-24.05714],[45.5,-24.05068],[46,-24.0501],[46.5,-24.05558],[47,-24.06728],[47.5,-24.08536],[48,-24.11],[48.5,-24.14139],[49,-24.1797],[49.5,-24.22512],[50,-24.27785],[50.5,-24.33807],[51,-24.40599],[51.5,-24.48181],[52,-24.56574],[52.5,-24.65797],[53,-24.75872],[53.5,-24.86819],[54,-24.98661],[54.5,-25.11417],[55,-25.25109],[55.5,-25.39758],[56,-25.55383],[56.5,-25.72005],[57,-25.89644],[57.5,-26.08318],[58,-26.28044],[58.5,-26.4884],[59,-26.70722],[59.5,-26.93703],[60,-27.17795],[60.5,-27.43009],[61,-27.69355],[61.5,-27.96837],[62,-28.2546],[62.5,-28.55224],[63,-28.86128],[63.5,-29.18165],[64,-29.51328],[64.5,-29.85604],[65,-30.20977],[65.5,-30.57428],[66,-30.94932],[66.5,-31.33464],[67,-31.72992],[67.5,-32.13482],[68,-32.54894],[68.5,-32.97189],[69,-33.40321],[69.5,-33.84244],[70,-34.28907],[70.5,-34.74259],[71,-35.20245],[71.5,-35.66813],[72,-36.13904],[72.5,-36.61465],[73,-37.09437],[73.5,-37.57766],[74,-38.06396],[74.5,-38.55272],[75,-39.04343],[75.5,-39.53556],[76,-40.02862],[76.5,-40.52214],[77,-41.01566],[77.5,-41.50876],[78,-42.00103],[78.5,-42.49209],[79,-42.98158],[79.5,-43.46916],[80,-43.95453],[80.5,-44.43741],[81,-44.91752],[81.5,-45.39464],[82,-45.86854],[82.5,-46.33902],[83,-46.8059],[83.5,-47.26902],[84,-47.72825],[84.5,-48.18343],[85,-48.63448],[85.5,-49.08128],[86,-49.52375],[86.5,-49.96181],[87,-50.39541],[87.5,-50.82448],[88,-51.24898],[88.5,-51.66889],[89,-52.08416],[89.5,-52.49479],[90,-52.90075],[90.5,-53.30204],[91,-53.69866],[91.5,-54.09061],[92,-54.47789],[92.5,-54.86052],[93,-55.23851],[93.5,-55.61188],[94,-55.98065],[94.5,-56.34483],[95,-56.70447],[95.5,-57.05958],[96,-57.4102],[96.5,-57.75635],[97,-58.09807],[97.5,-58.43539],[98,-58.76834],[98.5,-59.09697],[99,-59.42131],[99.5,-59.74139],[100,-60.05726],[100.5,-60.36895],[101,-60.67651],[101.5,-60.97996],[102,-61.27936],[102.5,-61.57473],[103,-61.86613],[103.5,-62.15359],[104,-62.43715],[104.5,-62.71685],[105,-62.99274],[105.5,-63.26485],[106,-63.53322],[106.5,-63.7979],[107,-64.05892],[107.5,-64.31632],[108,-64.57016],[108.5,-64.82045],[109,-65.06725],[109.5,-65.3106],[110,-65.55053],[110.5,-65.78708],[111,-66.0203],[111.5,-66.25022],[112,-66.47687],[112.5,-66.70031],[111.74668,-66.96215]]}},{"type":"Feature","id":"+06500803:south:0","properties":{"id":"+06500803","year":650,"month":8,"day":3,"time_tdt":"07:30:19","type":"금환일식","type_code":"A","saros":104,"gamma":-0.78358,"magnitude":0.96599,"greatest":{"lat":-30.9169,"lng":65.95734},"path_width_km":192.9,"duration":"03m34s","delta_t_seconds":4242.1,"catalog_number":6316,"source":"NASA Five Millennium Canon of Solar Eclipses","source_url":"https://eclipse.gsfc.nasa.gov/SEsearch/SEsearchmap.php?Ecl=%2B06500803","boundary":"south","name":"650-08-03 금환일식"},"geometry":{"type":"LineString","coordinates":[[23.5,-29.32166],[24,-29.162],[24.5,-29.00434],[25,-28.84873],[25.5,-28.69521],[26,-28.54384],[26.5,-28.39467],[27,-28.24775],[27.5,-28.10313],[28,-27.96088],[28.5,-27.82105],[29,-27.6837],[29.5,-27.5489],[30,-27.4167],[30.5,-27.28718],[31,-27.16039],[31.5,-27.03641],[32,-26.91532],[32.5,-26.79717],[33,-26.68206],[33.5,-26.57005],[34,-26.46122],[34.5,-26.35567],[35,-26.25347],[35.5,-26.15471],[36,-26.05949],[36.5,-25.96789],[37,-25.88],[37.5,-25.79594],[38,-25.7158],[38.5,-25.63969],[39,-25.56771],[39.5,-25.49998],[40,-25.4366],[40.5,-25.37771],[41,-25.32341],[41.5,-25.27385],[42,-25.22914],[42.5,-25.18942],[43,-25.15483],[43.5,-25.12551],[44,-25.1016],[44.5,-25.08326],[45,-25.07064],[45.5,-25.06389],[46,-25.06319],[46.5,-25.06869],[47,-25.08058],[47.5,-25.09902],[48,-25.1242],[48.5,-25.15631],[49,-25.19553],[49.5,-25.24205],[50,-25.29607],[50.5,-25.3578],[51,-25.42744],[51.5,-25.5052],[52,-25.59128],[52.5,-25.6859],[53,-25.78928],[53.5,-25.90163],[54,-26.02316],[54.5,-26.15409],[55,-26.29463],[55.5,-26.445],[56,-26.60541],[56.5,-26.77604],[57,-26.95711],[57.5,-27.1488],[58,-27.35129],[58.5,-27.56473],[59,-27.7893],[59.5,-28.02511],[60,-28.2723],[60.5,-28.53095],[61,-28.80115],[61.5,-29.08295],[62,-29.37637],[62.5,-29.68141],[63,-29.99802],[63.5,-30.32614],[64,-30.66567],[64.5,-31.01645],[65,-31.37831],[65.5,-31.75104],[66,-32.13437],[66.5,-32.52801],[67,-32.93163],[67.5,-33.34486],[68,-33.76729],[68.5,-34.19849],[69,-34.63799],[69.5,-35.0853],[70,-35.53991],[70.5,-36.00128],[71,-36.46886],[71.5,-36.94209],[72,-37.42042],[72.5,-37.90326],[73,-38.39005],[73.5,-38.88023],[74,-39.37324],[74.5,-39.86855],[75,-40.36563],[75.5,-40.86397],[76,-41.36307],[76.5,-41.86249],[77,-42.36176],[77.5,-42.86046],[78,-43.3582],[78.5,-43.85461],[79,-44.34933],[79.5,-44.84205],[80,-45.33245],[80.5,-45.82027],[81,-46.30524],[81.5,-46.78714],[82,-47.26575],[82.5,-47.74089],[83,-48.21236],[83.5,-48.68003],[84,-49.14374],[84.5,-49.60337],[85,-50.05882],[85.5,-50.50999],[86,-50.95678],[86.5,-51.39914],[87,-51.83699],[87.5,-52.27029],[88,-52.69899],[88.5,-53.12305],[89,-53.54245],[89.5,-53.95717],[90,-54.36719],[90.5,-54.7725],[91,-55.1731],[91.5,-55.56899],[92,-55.96017],[92.5,-56.34666],[93,-56.72847],[93.5,-57.1056],[94,-57.47809],[94.5,-57.84595],[95,-58.2092],[95.5,-58.56787],[96,-58.92198],[96.5,-59.27157],[97,-59.61667],[97.5,-59.9573],[98,-60.2935],[98.5,-60.62529],[99,-60.95273],[99.5,-61.27584],[100,-61.59465],[100.5,-61.9092],[101,-62.21954],[101.5,-62.52569],[102,-62.8277],[102.5,-63.1256],[103,-63.41943],[103.5,-63.70924],[104,-63.99505],[104.5,-64.27691],[105,-64.55486],[105.5,-64.82893],[106,-65.09917],[106.5,-65.36561],[107,-65.6283],[107.5,-65.88728],[108,-66.14257],[108.5,-66.39423],[109,-66.6423],[109.5,-66.8868],[110.5,-67.36529],[110,-67.12778],[110.4375,-67.33579]]}}],"attribution":"Eclipse Predictions by Fred Espenak and Jean Meeus (NASA's GSFC)","generated_at":"2026-09-23T01:44:54.201Z"}
