{"type":"FeatureCollection","year":683,"events":[{"id":"+06830502","year":683,"month":5,"day":2,"time_tdt":"11:50:52","type":"부분일식","type_code":"P","saros":107,"gamma":1.20707,"magnitude":0.61347,"greatest":{"lat":62.18167,"lng":-105.69836},"path_width_km":0,"duration":"00m00s","delta_t_seconds":3942.7,"catalog_number":6400,"source":"NASA Five Millennium Canon of Solar Eclipses","source_url":"https://eclipse.gsfc.nasa.gov/SEsearch/SEsearchmap.php?Ecl=%2B06830502"},{"id":"+06830926","year":683,"month":9,"day":26,"time_tdt":"07:54:43","type":"부분일식","type_code":"P","saros":74,"gamma":1.49065,"magnitude":0.08222,"greatest":{"lat":61.03534,"lng":161.33258},"path_width_km":0,"duration":"00m00s","delta_t_seconds":3939,"catalog_number":6401,"source":"NASA Five Millennium Canon of Solar Eclipses","source_url":"https://eclipse.gsfc.nasa.gov/SEsearch/SEsearchmap.php?Ecl=%2B06830926"},{"id":"+06831025","year":683,"month":10,"day":25,"time_tdt":"18:04:33","type":"부분일식","type_code":"P","saros":112,"gamma":-1.16348,"magnitude":0.69809,"greatest":{"lat":-61.66098,"lng":165.69073},"path_width_km":0,"duration":"00m00s","delta_t_seconds":3938.3,"catalog_number":6402,"source":"NASA Five Millennium Canon of Solar Eclipses","source_url":"https://eclipse.gsfc.nasa.gov/SEsearch/SEsearchmap.php?Ecl=%2B06831025"}],"features":[],"attribution":"Eclipse Predictions by Fred Espenak and Jean Meeus (NASA's GSFC)","generated_at":"2026-09-23T01:44:54.493Z"}
