{"type":"FeatureCollection","year":693,"events":[{"id":"+06930411","year":693,"month":4,"day":11,"time_tdt":"11:36:01","type":"금환일식","type_code":"A","saros":98,"gamma":-0.56741,"magnitude":0.94026,"greatest":{"lat":-23.91462,"lng":31.76672},"path_width_km":266.4,"duration":"07m21s","delta_t_seconds":3853,"catalog_number":6424,"source":"NASA Five Millennium Canon of Solar Eclipses","source_url":"https://eclipse.gsfc.nasa.gov/SEsearch/SEsearchmap.php?Ecl=%2B06930411"},{"id":"+06931005","year":693,"month":10,"day":5,"time_tdt":"09:03:11","type":"개기일식","type_code":"T","saros":103,"gamma":0.49105,"magnitude":1.05172,"greatest":{"lat":22.19948,"lng":66.30841},"path_width_km":195.6,"duration":"04m30s","delta_t_seconds":3848.7,"catalog_number":6425,"source":"NASA Five Millennium Canon of Solar Eclipses","source_url":"https://eclipse.gsfc.nasa.gov/SEsearch/SEsearchmap.php?Ecl=%2B06931005"}],"features":[{"type":"Feature","id":"+06930411:north:0","properties":{"id":"+06930411","year":693,"month":4,"day":11,"time_tdt":"11:36:01","type":"금환일식","type_code":"A","saros":98,"gamma":-0.56741,"magnitude":0.94026,"greatest":{"lat":-23.91462,"lng":31.76672},"path_width_km":266.4,"duration":"07m21s","delta_t_seconds":3853,"catalog_number":6424,"source":"NASA Five Millennium Canon of Solar Eclipses","source_url":"https://eclipse.gsfc.nasa.gov/SEsearch/SEsearchmap.php?Ecl=%2B06930411","boundary":"north","name":"693-04-11 금환일식"},"geometry":{"type":"LineString","coordinates":[[-32.52734,-48.47763],[-32.5,-48.47309],[-32,-48.38945],[-31.5,-48.30453],[-31,-48.21832],[-30.5,-48.1308],[-30,-48.04196],[-29.5,-47.9518],[-29,-47.86029],[-28.5,-47.76744],[-28,-47.67322],[-27.5,-47.57762],[-27,-47.48064],[-26.5,-47.38225],[-26,-47.28244],[-25.5,-47.18121],[-25,-47.07854],[-24.5,-46.9744],[-24,-46.8688],[-23.5,-46.76172],[-23,-46.65314],[-22.5,-46.54304],[-22,-46.43141],[-21.5,-46.31824],[-21,-46.20352],[-20.5,-46.08721],[-20,-45.96932],[-19.5,-45.84982],[-19,-45.7287],[-18.5,-45.60594],[-18,-45.48152],[-17.5,-45.35542],[-17,-45.22763],[-16.5,-45.09814],[-16,-44.96692],[-15.5,-44.83395],[-15,-44.69921],[-14.5,-44.56269],[-14,-44.42437],[-13.5,-44.28423],[-13,-44.14224],[-12.5,-43.99839],[-12,-43.85266],[-11.5,-43.70502],[-11,-43.55546],[-10.5,-43.40396],[-10,-43.25048],[-9.5,-43.09502],[-9,-42.93755],[-8.5,-42.77804],[-8,-42.61647],[-7.5,-42.45283],[-7,-42.28708],[-6.5,-42.11921],[-6,-41.94919],[-5.5,-41.77699],[-5,-41.6026],[-4.5,-41.42599],[-4,-41.24713],[-3.5,-41.066],[-3,-40.88257],[-2.5,-40.69683],[-2,-40.50874],[-1.5,-40.31828],[-1,-40.12542],[-0.5,-39.93015],[0,-39.73244],[0.5,-39.53225],[1,-39.32958],[1.5,-39.12438],[2,-38.91665],[2.5,-38.70635],[3,-38.49347],[3.5,-38.27798],[4,-38.05986],[4.5,-37.83908],[5,-37.61564],[5.5,-37.3895],[6,-37.16066],[6.5,-36.92909],[7,-36.69478],[7.5,-36.45772],[8,-36.21789],[8.5,-35.97528],[9,-35.72989],[9.5,-35.48171],[10,-35.23073],[10.5,-34.97696],[11,-34.7204],[11.5,-34.46105],[12,-34.19893],[12.5,-33.93405],[13,-33.66643],[13.5,-33.39608],[14,-33.12304],[14.5,-32.84735],[15,-32.56903],[15.5,-32.28814],[16,-32.00473],[16.5,-31.71885],[17,-31.43058],[17.5,-31.13999],[18,-30.84715],[18.5,-30.55217],[19,-30.25515],[19.5,-29.95618],[20,-29.65541],[20.5,-29.35294],[21,-29.04894],[21.5,-28.74354],[22,-28.43691],[22.5,-28.12923],[23,-27.82068],[23.5,-27.51145],[24,-27.20176],[24.5,-26.89181],[25,-26.58183],[25.5,-26.27207],[26,-25.96275],[26.5,-25.65414],[27,-25.34649],[27.5,-25.04007],[28,-24.73515],[28.5,-24.43199],[29,-24.13087],[29.5,-23.83207],[30,-23.53586],[30.5,-23.2425],[31,-22.95228],[31.5,-22.66544],[32,-22.38224],[32.5,-22.10293],[33,-21.82774],[33.5,-21.5569],[34,-21.29062],[34.5,-21.0291],[35,-20.77253],[35.5,-20.52107],[36,-20.27488],[36.5,-20.03411],[37,-19.79888],[37.5,-19.5693],[38,-19.34546],[38.5,-19.12745],[39,-18.91531],[39.5,-18.70912],[40,-18.5089],[40.5,-18.31467],[41,-18.12644],[41.5,-17.94422],[42,-17.76799],[42.5,-17.59772],[43,-17.43339],[43.5,-17.27495],[44,-17.12236],[44.5,-16.97555],[45,-16.83447],[45.5,-16.69904],[46,-16.5692],[46.5,-16.44486],[47,-16.32594],[47.5,-16.21236],[48,-16.10403],[48.5,-16.00087],[49,-15.90277],[49.5,-15.80964],[50,-15.7214],[50.5,-15.63795],[51,-15.55919],[51.5,-15.48503],[52,-15.41537],[52.5,-15.35013],[53,-15.28919],[53.5,-15.23249],[54,-15.17991],[54.5,-15.13137],[55,-15.08679],[55.5,-15.04607],[56,-15.00912],[56.5,-14.97587],[57,-14.94622],[57.5,-14.9201],[58,-14.89742],[58.5,-14.87811],[59,-14.86209],[59.5,-14.84928],[60,-14.83961],[60.5,-14.833],[61,-14.82938],[61.5,-14.8287],[62,-14.83087],[62.5,-14.83583],[63,-14.84351],[63.5,-14.85387],[64,-14.86682],[64.5,-14.88232],[65,-14.9003],[65.5,-14.9207],[66,-14.94348],[66.5,-14.96858],[67,-14.99594],[67.5,-15.02551],[68,-15.05724],[68.5,-15.09109],[69,-15.127],[69.5,-15.16493],[70,-15.20483],[70.5,-15.24666],[71,-15.29038],[71.5,-15.33594],[72,-15.3833],[72.5,-15.43242],[73,-15.48327],[73.5,-15.5358],[74,-15.58998],[74.5,-15.64576],[75,-15.70313],[75.5,-15.76203],[76,-15.82245],[76.5,-15.88433],[77,-15.94766],[77.5,-16.0124],[78,-16.07852],[78.5,-16.14599],[79,-16.21479],[79.5,-16.28487],[80,-16.35622],[80.5,-16.42881],[81,-16.5026],[81.5,-16.57759],[82,-16.65373],[82.5,-16.73101],[83,-16.8094],[83.5,-16.88888],[84,-16.96942],[84.20508,-17.00276]]}},{"type":"Feature","id":"+06930411:center:0","properties":{"id":"+06930411","year":693,"month":4,"day":11,"time_tdt":"11:36:01","type":"금환일식","type_code":"A","saros":98,"gamma":-0.56741,"magnitude":0.94026,"greatest":{"lat":-23.91462,"lng":31.76672},"path_width_km":266.4,"duration":"07m21s","delta_t_seconds":3853,"catalog_number":6424,"source":"NASA Five Millennium Canon of Solar Eclipses","source_url":"https://eclipse.gsfc.nasa.gov/SEsearch/SEsearchmap.php?Ecl=%2B06930411","boundary":"center","name":"693-04-11 금환일식"},"geometry":{"type":"LineString","coordinates":[[-32.34516,-49.89203],[-32,-49.83343],[-31.5,-49.74696],[-31,-49.65921],[-30.5,-49.57016],[-30,-49.47981],[-29.5,-49.38814],[-29,-49.29514],[-28.5,-49.20079],[-28,-49.10509],[-27.5,-49.00803],[-27,-48.90958],[-26.5,-48.80975],[-26,-48.70851],[-25.5,-48.60585],[-25,-48.50176],[-24.5,-48.39623],[-24,-48.28924],[-23.5,-48.18077],[-23,-48.07082],[-22.5,-47.95937],[-22,-47.84641],[-21.5,-47.73191],[-21,-47.61588],[-20.5,-47.49827],[-20,-47.3791],[-19.5,-47.25833],[-19,-47.13596],[-18.5,-47.01196],[-18,-46.88631],[-17.5,-46.75902],[-17,-46.63004],[-16.5,-46.49938],[-16,-46.367],[-15.5,-46.2329],[-15,-46.09705],[-14.5,-45.95944],[-14,-45.82004],[-13.5,-45.67884],[-13,-45.53582],[-12.5,-45.39096],[-12,-45.24424],[-11.5,-45.09563],[-11,-44.94513],[-10.5,-44.7927],[-10,-44.63833],[-9.5,-44.482],[-9,-44.32368],[-8.5,-44.16335],[-8,-44.00099],[-7.5,-43.83659],[-7,-43.6701],[-6.5,-43.50153],[-6,-43.33083],[-5.5,-43.15799],[-5,-42.98298],[-4.5,-42.80579],[-4,-42.62638],[-3.5,-42.44474],[-3,-42.26083],[-2.5,-42.07464],[-2,-41.88615],[-1.5,-41.69532],[-1,-41.50214],[-0.5,-41.30657],[0,-41.1086],[0.5,-40.90821],[1,-40.70536],[1.5,-40.50004],[2,-40.29223],[2.5,-40.08189],[3,-39.86901],[3.5,-39.65357],[4,-39.43555],[4.5,-39.21492],[5,-38.99166],[5.5,-38.76576],[6,-38.53721],[6.5,-38.30597],[7,-38.07205],[7.5,-37.83542],[8,-37.59607],[8.5,-37.35399],[9,-37.10918],[9.5,-36.86163],[10,-36.61133],[10.5,-36.35828],[11,-36.10249],[11.5,-35.84396],[12,-35.5827],[12.5,-35.31873],[13,-35.05205],[13.5,-34.78268],[14,-34.51066],[14.5,-34.23602],[15,-33.95879],[15.5,-33.67901],[16,-33.39673],[16.5,-33.112],[17,-32.82489],[17.5,-32.53547],[18,-32.24381],[18.5,-31.95],[19,-31.65413],[19.5,-31.35632],[20,-31.05666],[20.5,-30.75528],[21,-30.45233],[21.5,-30.14793],[22,-29.84224],[22.5,-29.53544],[23,-29.22769],[23.5,-28.91917],[24,-28.6101],[24.5,-28.30067],[25,-27.9911],[25.5,-27.68162],[26,-27.37247],[26.5,-27.06388],[27,-26.75611],[27.5,-26.44942],[28,-26.14408],[28.5,-25.84034],[29,-25.53849],[29.5,-25.23879],[30,-24.94152],[30.5,-24.64694],[31,-24.35534],[31.5,-24.06697],[32,-23.78209],[32.5,-23.50095],[33,-23.2238],[33.5,-22.95087],[34,-22.68239],[34.5,-22.41856],[35,-22.15957],[35.5,-21.90562],[36,-21.65688],[36.5,-21.41349],[37,-21.17559],[37.5,-20.9433],[38,-20.71674],[38.5,-20.49599],[39,-20.28114],[39.5,-20.07223],[40,-19.86932],[40.5,-19.67245],[41,-19.48162],[41.5,-19.29686],[42,-19.11815],[42.5,-18.94548],[43,-18.77882],[43.5,-18.61814],[44,-18.46339],[44.5,-18.31453],[45,-18.17149],[45.5,-18.03422],[46,-17.90263],[46.5,-17.77665],[47,-17.65621],[47.5,-17.54121],[48,-17.43158],[48.5,-17.32722],[49,-17.22804],[49.5,-17.13395],[50,-17.04485],[50.5,-16.96065],[51,-16.88125],[51.5,-16.80655],[52,-16.73646],[52.5,-16.67089],[53,-16.60974],[53.5,-16.5529],[54,-16.5003],[54.5,-16.45183],[55,-16.4074],[55.5,-16.36693],[56,-16.33032],[56.5,-16.29749],[57,-16.26835],[57.5,-16.24281],[58,-16.2208],[58.5,-16.20222],[59,-16.18701],[59.5,-16.17508],[60,-16.16636],[60.5,-16.16076],[61,-16.15823],[61.5,-16.15868],[62,-16.16205],[62.5,-16.16827],[63,-16.17727],[63.5,-16.18899],[64,-16.20336],[64.5,-16.22033],[65,-16.23982],[65.5,-16.26179],[66,-16.28617],[66.5,-16.31291],[67,-16.34196],[67.5,-16.37326],[68,-16.40676],[68.5,-16.4424],[69,-16.48015],[69.5,-16.51995],[70,-16.56175],[70.5,-16.60551],[71,-16.65119],[71.5,-16.69874],[72,-16.74811],[72.5,-16.79927],[73,-16.85219],[73.5,-16.9068],[74,-16.96309],[74.5,-17.02101],[75,-17.08053],[75.5,-17.14161],[76,-17.20421],[76.5,-17.26831],[77,-17.33386],[77.5,-17.40085],[78,-17.46922],[78.5,-17.53896],[79,-17.61004],[79.5,-17.68243],[80,-17.75609],[80.5,-17.831],[81,-17.90713],[81.5,-17.98446],[82,-18.06295],[82.5,-18.14259],[83,-18.22336],[83.5,-18.30521],[84,-18.38814],[84.31423,-18.44072]]}},{"type":"Feature","id":"+06930411:south:0","properties":{"id":"+06930411","year":693,"month":4,"day":11,"time_tdt":"11:36:01","type":"금환일식","type_code":"A","saros":98,"gamma":-0.56741,"magnitude":0.94026,"greatest":{"lat":-23.91462,"lng":31.76672},"path_width_km":266.4,"duration":"07m21s","delta_t_seconds":3853,"catalog_number":6424,"source":"NASA Five Millennium Canon of Solar Eclipses","source_url":"https://eclipse.gsfc.nasa.gov/SEsearch/SEsearchmap.php?Ecl=%2B06930411","boundary":"south","name":"693-04-11 금환일식"},"geometry":{"type":"LineString","coordinates":[[-31.75,-51.2608],[-31.5,-51.21667],[-32,-51.30462],[-31,-51.12744],[-30.5,-51.03693],[-30,-50.94512],[-29.5,-50.852],[-29,-50.75756],[-28.5,-50.66178],[-28,-50.56466],[-27.5,-50.46619],[-27,-50.36634],[-26.5,-50.26512],[-26,-50.1625],[-25.5,-50.05847],[-25,-49.95303],[-24.5,-49.84615],[-24,-49.73782],[-23.5,-49.62804],[-23,-49.51678],[-22.5,-49.40403],[-22,-49.28978],[-21.5,-49.17401],[-21,-49.05672],[-20.5,-48.93787],[-20,-48.81746],[-19.5,-48.69548],[-19,-48.5719],[-18.5,-48.44672],[-18,-48.3199],[-17.5,-48.19145],[-17,-48.06134],[-16.5,-47.92955],[-16,-47.79607],[-15.5,-47.66088],[-15,-47.52396],[-14.5,-47.38529],[-14,-47.24486],[-13.5,-47.10265],[-13,-46.95864],[-12.5,-46.81281],[-12,-46.66513],[-11.5,-46.5156],[-11,-46.36419],[-10.5,-46.21088],[-10,-46.05564],[-9.5,-45.89847],[-9,-45.73934],[-8.5,-45.57823],[-8,-45.41511],[-7.5,-45.24997],[-7,-45.08278],[-6.5,-44.91352],[-6,-44.74218],[-5.5,-44.56871],[-5,-44.39312],[-4.5,-44.21536],[-4,-44.03543],[-3.5,-43.85329],[-3,-43.66892],[-2.5,-43.48231],[-2,-43.29342],[-1.5,-43.10224],[-1,-42.90873],[-0.5,-42.71289],[0,-42.51467],[0.5,-42.31408],[1,-42.11106],[1.5,-41.90562],[2,-41.69772],[2.5,-41.48735],[3,-41.27447],[3.5,-41.05908],[4,-40.84114],[4.5,-40.62065],[5,-40.39757],[5.5,-40.1719],[6,-39.94362],[6.5,-39.71271],[7,-39.47915],[7.5,-39.24294],[8,-39.00406],[8.5,-38.76249],[9,-38.51824],[9.5,-38.2713],[10,-38.02165],[10.5,-37.76931],[11,-37.51427],[11.5,-37.25653],[12,-36.99611],[12.5,-36.73301],[13,-36.46725],[13.5,-36.19884],[14,-35.92782],[14.5,-35.6542],[15,-35.37803],[15.5,-35.09934],[16,-34.81817],[16.5,-34.53457],[17,-34.24861],[17.5,-33.96035],[18,-33.66985],[18.5,-33.37721],[19,-33.0825],[19.5,-32.78583],[20,-32.4873],[20.5,-32.18702],[21,-31.88513],[21.5,-31.58175],[22,-31.27703],[22.5,-30.97113],[23,-30.66422],[23.5,-30.35647],[24,-30.04807],[24.5,-29.73921],[25,-29.43012],[25.5,-29.12099],[26,-28.81207],[26.5,-28.50358],[27,-28.19578],[27.5,-27.88891],[28,-27.58323],[28.5,-27.27901],[29,-26.97651],[29.5,-26.676],[30,-26.37775],[30.5,-26.08204],[31,-25.78913],[31.5,-25.4993],[32,-25.2128],[32.5,-24.9299],[33,-24.65083],[33.5,-24.37585],[34,-24.10519],[34.5,-23.83906],[35,-23.57767],[35.5,-23.32121],[36,-23.06987],[36.5,-22.82382],[37,-22.58319],[37.5,-22.34814],[38,-22.11877],[38.5,-21.8952],[39,-21.67751],[39.5,-21.46577],[40,-21.26005],[40.5,-21.06039],[41,-20.86681],[41.5,-20.67934],[42,-20.49799],[42.5,-20.32273],[43,-20.15357],[43.5,-19.99046],[44,-19.83337],[44.5,-19.68226],[45,-19.53707],[45.5,-19.39774],[46,-19.26421],[46.5,-19.13639],[47,-19.01422],[47.5,-18.89761],[48,-18.78647],[48.5,-18.68072],[49,-18.58027],[49.5,-18.48502],[50,-18.39487],[50.5,-18.30973],[51,-18.22951],[51.5,-18.1541],[52,-18.08341],[52.5,-18.01734],[53,-17.95579],[53.5,-17.89867],[54,-17.84587],[54.5,-17.79732],[55,-17.7529],[55.5,-17.71253],[56,-17.67611],[56.5,-17.64356],[57,-17.61479],[57.5,-17.58971],[58,-17.56823],[58.5,-17.55028],[59,-17.53576],[59.5,-17.5246],[60,-17.51671],[60.5,-17.51203],[61,-17.51048],[61.5,-17.51197],[62,-17.51645],[62.5,-17.52384],[63,-17.53407],[63.5,-17.54707],[64,-17.56278],[64.5,-17.58113],[65,-17.60207],[65.5,-17.62553],[66,-17.65145],[66.5,-17.67978],[67,-17.71045],[67.5,-17.74342],[68,-17.77863],[68.5,-17.81602],[69,-17.85556],[69.5,-17.89718],[70,-17.94084],[70.5,-17.98649],[71,-18.03409],[71.5,-18.08359],[72,-18.13495],[72.5,-18.18812],[73,-18.24307],[73.5,-18.29975],[74,-18.35812],[74.5,-18.41815],[75,-18.4798],[75.5,-18.54304],[76,-18.60781],[76.5,-18.67411],[77,-18.74187],[77.5,-18.81109],[78,-18.88171],[78.5,-18.95372],[79,-19.02708],[79.5,-19.10175],[80,-19.17772],[80.5,-19.25496],[81,-19.33342],[81.5,-19.4131],[82,-19.49395],[82.5,-19.57596],[83,-19.65911],[83.5,-19.74335],[84,-19.82868],[84.4375,-19.90421]]}},{"type":"Feature","id":"+06931005:north:0","properties":{"id":"+06931005","year":693,"month":10,"day":5,"time_tdt":"09:03:11","type":"개기일식","type_code":"T","saros":103,"gamma":0.49105,"magnitude":1.05172,"greatest":{"lat":22.19948,"lng":66.30841},"path_width_km":195.6,"duration":"04m30s","delta_t_seconds":3848.7,"catalog_number":6425,"source":"NASA Five Millennium Canon of Solar Eclipses","source_url":"https://eclipse.gsfc.nasa.gov/SEsearch/SEsearchmap.php?Ecl=%2B06931005","boundary":"north","name":"693-10-05 개기일식"},"geometry":{"type":"LineString","coordinates":[[-3.95703,47.17201],[-3.5,47.12493],[-3,47.0723],[-2.5,47.01848],[-2,46.96347],[-1.5,46.90725],[-1,46.84982],[-0.5,46.79117],[0,46.73129],[0.5,46.67016],[1,46.60779],[1.5,46.54415],[2,46.47925],[2.5,46.41306],[3,46.34559],[3.5,46.27682],[4,46.20673],[4.5,46.13533],[5,46.0626],[5.5,45.98852],[6,45.91309],[6.5,45.8363],[7,45.75813],[7.5,45.67857],[8,45.59762],[8.5,45.51525],[9,45.43147],[9.5,45.34625],[10,45.25958],[10.5,45.17145],[11,45.08185],[11.5,44.99076],[12,44.89818],[12.5,44.80409],[13,44.70846],[13.5,44.61131],[14,44.51259],[14.5,44.41231],[15,44.31045],[15.5,44.207],[16,44.10193],[16.5,43.99524],[17,43.88691],[17.5,43.77693],[18,43.66527],[18.5,43.55193],[19,43.43688],[19.5,43.32011],[20,43.20162],[20.5,43.08136],[21,42.95935],[21.5,42.83554],[22,42.70994],[22.5,42.58252],[23,42.45326],[23.5,42.32214],[24,42.18916],[24.5,42.05428],[25,41.9175],[25.5,41.77879],[26,41.63814],[26.5,41.49552],[27,41.35093],[27.5,41.20433],[28,41.05571],[28.5,40.90506],[29,40.75235],[29.5,40.59757],[30,40.44068],[30.5,40.28169],[31,40.12056],[31.5,39.95728],[32,39.79184],[32.5,39.62419],[33,39.45435],[33.5,39.28227],[34,39.10795],[34.5,38.93136],[35,38.75249],[35.5,38.57132],[36,38.38784],[36.5,38.20202],[37,38.01385],[37.5,37.82331],[38,37.63039],[38.5,37.43507],[39,37.23733],[39.5,37.03718],[40,36.83459],[40.5,36.62954],[41,36.42204],[41.5,36.21207],[42,35.99962],[42.5,35.78468],[43,35.56726],[43.5,35.34734],[44,35.12492],[44.5,34.90001],[45,34.6726],[45.5,34.4427],[46,34.21031],[46.5,33.97545],[47,33.73812],[47.5,33.49833],[48,33.25611],[48.5,33.01148],[49,32.76444],[49.5,32.51504],[50,32.26331],[50.5,32.00927],[51,31.75296],[51.5,31.49443],[52,31.23372],[52.5,30.97089],[53,30.70599],[53.5,30.43908],[54,30.17023],[54.5,29.8995],[55,29.62699],[55.5,29.35276],[56,29.07691],[56.5,28.79954],[57,28.52073],[57.5,28.24061],[58,27.95927],[58.5,27.67684],[59,27.39344],[59.5,27.1092],[60,26.82426],[60.5,26.53875],[61,26.25282],[61.5,25.96662],[62,25.6803],[62.5,25.39403],[63,25.10796],[63.5,24.82226],[64,24.5371],[64.5,24.25266],[65,23.96909],[65.5,23.68659],[66,23.40531],[66.5,23.12544],[67,22.84715],[67.5,22.57061],[68,22.296],[68.5,22.02347],[69,21.7532],[69.5,21.48535],[70,21.22006],[70.5,20.95751],[71,20.69782],[71.5,20.44114],[72,20.18761],[72.5,19.93735],[73,19.69049],[73.5,19.44713],[74,19.20739],[74.5,18.97137],[75,18.73914],[75.5,18.51081],[76,18.28644],[76.5,18.06611],[77,17.84987],[77.5,17.63778],[78,17.42989],[78.5,17.22623],[79,17.02684],[79.5,16.83174],[80,16.64096],[80.5,16.4545],[81,16.27238],[81.5,16.0946],[82,15.92115],[82.5,15.75203],[83,15.58722],[83.5,15.42672],[84,15.2705],[84.5,15.11853],[85,14.97078],[85.5,14.82724],[86,14.68786],[86.5,14.55261],[87,14.42145],[87.5,14.29434],[88,14.17124],[88.5,14.05211],[89,13.93689],[89.5,13.82555],[90,13.71803],[90.5,13.61429],[91,13.51428],[91.5,13.41794],[92,13.32523],[92.5,13.2361],[93,13.15049],[93.5,13.06836],[94,12.98965],[94.5,12.91431],[95,12.84229],[95.5,12.77354],[96,12.70801],[96.5,12.64565],[97,12.5864],[97.5,12.53022],[98,12.47707],[98.5,12.42688],[99,12.37961],[99.5,12.33522],[100,12.29366],[100.5,12.25488],[101,12.21883],[101.5,12.18547],[102,12.15475],[102.5,12.12664],[103,12.10108],[103.5,12.07804],[104,12.05747],[104.5,12.03933],[105,12.02358],[105.5,12.01018],[106,11.99909],[106.5,11.99027],[107,11.98369],[107.5,11.9793],[108,11.97707],[108.5,11.97697],[109,11.97895],[109.5,11.98299],[110,11.98904],[110.5,11.99709],[111,12.00708],[111.5,12.01899],[112,12.03279],[112.5,12.04845],[113,12.06594],[113.5,12.08522],[114,12.10626],[114.5,12.12905],[115,12.15354],[115.5,12.17971],[116,12.20754],[116.5,12.237],[117,12.26805],[117.5,12.30068],[118,12.33485],[118.5,12.37055],[119,12.40775],[119.5,12.44643],[120,12.48655],[120.5,12.5281],[121,12.57106],[121.5,12.6154],[122,12.6611],[122.5,12.70814],[123,12.75649],[123.5,12.80615],[123.56055,12.81225]]}},{"type":"Feature","id":"+06931005:center:0","properties":{"id":"+06931005","year":693,"month":10,"day":5,"time_tdt":"09:03:11","type":"개기일식","type_code":"T","saros":103,"gamma":0.49105,"magnitude":1.05172,"greatest":{"lat":22.19948,"lng":66.30841},"path_width_km":195.6,"duration":"04m30s","delta_t_seconds":3848.7,"catalog_number":6425,"source":"NASA Five Millennium Canon of Solar Eclipses","source_url":"https://eclipse.gsfc.nasa.gov/SEsearch/SEsearchmap.php?Ecl=%2B06931005","boundary":"center","name":"693-10-05 개기일식"},"geometry":{"type":"LineString","coordinates":[[-3.96357,46.56481],[-3.5,46.51216],[-3,46.45765],[-2.5,46.40194],[-2,46.34502],[-1.5,46.28688],[-1,46.22751],[-0.5,46.16691],[0,46.10506],[0.5,46.04195],[1,45.97758],[1.5,45.91193],[2,45.845],[2.5,45.77677],[3,45.70724],[3.5,45.63639],[4,45.56421],[4.5,45.4907],[5,45.41584],[5.5,45.33961],[6,45.26202],[6.5,45.18305],[7,45.10268],[7.5,45.0209],[8,44.93771],[8.5,44.85309],[9,44.76703],[9.5,44.67951],[10,44.59052],[10.5,44.50006],[11,44.4081],[11.5,44.31464],[12,44.21965],[12.5,44.12313],[13,44.02507],[13.5,43.92544],[14,43.82424],[14.5,43.72145],[15,43.61706],[15.5,43.51104],[16,43.4034],[16.5,43.2941],[17,43.18314],[17.5,43.07049],[18,42.95615],[18.5,42.8401],[19,42.72232],[19.5,42.6028],[20,42.48151],[20.5,42.35845],[21,42.23359],[21.5,42.10691],[22,41.97841],[22.5,41.84806],[23,41.71584],[23.5,41.58174],[24,41.44574],[24.5,41.30782],[25,41.16796],[25.5,41.02615],[26,40.88235],[26.5,40.73657],[27,40.58877],[27.5,40.43894],[28,40.28705],[28.5,40.1331],[29,39.97706],[29.5,39.8189],[30,39.65862],[30.5,39.49619],[31,39.3316],[31.5,39.16481],[32,38.99582],[32.5,38.82461],[33,38.65115],[33.5,38.47543],[34,38.29743],[34.5,38.11713],[35,37.93451],[35.5,37.74956],[36,37.56225],[36.5,37.37257],[37,37.18051],[37.5,36.98605],[38,36.78917],[38.5,36.58986],[39,36.38811],[39.5,36.18389],[40,35.97721],[40.5,35.76805],[41,35.5564],[41.5,35.34225],[42,35.1256],[42.5,34.90643],[43,34.68475],[43.5,34.46055],[44,34.23384],[44.5,34.00461],[45,33.77287],[45.5,33.53862],[46,33.30187],[46.5,33.06264],[47,32.82093],[47.5,32.57677],[48,32.33017],[48.5,32.08116],[49,31.82976],[49.5,31.57601],[50,31.31994],[50.5,31.06158],[51,30.80099],[51.5,30.53821],[52,30.27329],[52.5,30.00629],[53,29.73727],[53.5,29.4663],[54,29.19345],[54.5,28.91881],[55,28.64245],[55.5,28.36446],[56,28.08495],[56.5,27.80402],[57,27.52176],[57.5,27.23831],[58,26.95377],[58.5,26.66828],[59,26.38196],[59.5,26.09495],[60,25.8074],[60.5,25.51945],[61,25.23126],[61.5,24.94299],[62,24.65478],[62.5,24.36682],[63,24.07927],[63.5,23.7923],[64,23.50609],[64.5,23.2208],[65,22.93662],[65.5,22.65373],[66,22.3723],[66.5,22.0925],[67,21.81451],[67.5,21.53851],[68,21.26465],[68.5,20.99312],[69,20.72407],[69.5,20.45766],[70,20.19403],[70.5,19.93335],[71,19.67575],[71.5,19.42136],[72,19.17031],[72.5,18.92273],[73,18.67872],[73.5,18.43839],[74,18.20185],[74.5,17.96918],[75,17.74046],[75.5,17.51577],[76,17.29518],[76.5,17.07875],[77,16.86653],[77.5,16.65856],[78,16.45489],[78.5,16.25554],[79,16.06054],[79.5,15.8699],[80,15.68365],[80.5,15.50178],[81,15.3243],[81.5,15.1512],[82,14.98247],[82.5,14.81811],[83,14.65808],[83.5,14.50238],[84,14.35098],[84.5,14.20384],[85,14.06093],[85.5,13.92223],[86,13.78768],[86.5,13.65727],[87,13.53093],[87.5,13.40864],[88,13.29033],[88.5,13.17598],[89,13.06553],[89.5,12.95892],[90,12.85612],[90.5,12.75708],[91,12.66173],[91.5,12.57003],[92,12.48194],[92.5,12.39739],[93,12.31633],[93.5,12.23871],[94,12.16449],[94.5,12.0936],[95,12.02601],[95.5,11.96164],[96,11.90046],[96.5,11.84242],[97,11.78746],[97.5,11.73553],[98,11.68658],[98.5,11.64058],[99,11.59745],[99.5,11.55717],[100,11.51969],[100.5,11.48494],[101,11.4529],[101.5,11.42351],[102,11.39674],[102.5,11.37253],[103,11.35084],[103.5,11.33164],[104,11.31488],[104.5,11.30051],[105,11.28851],[105.5,11.27882],[106,11.27141],[106.5,11.26624],[107,11.26328],[107.5,11.26248],[108,11.26381],[108.5,11.26724],[109,11.27273],[109.5,11.28024],[110,11.28974],[110.5,11.30119],[111,11.31458],[111.5,11.32985],[112,11.34699],[112.5,11.36595],[113,11.38672],[113.5,11.40925],[114,11.43353],[114.5,11.45952],[115,11.48719],[115.5,11.51652],[116,11.54748],[116.5,11.58004],[117,11.61418],[117.5,11.64986],[118,11.68708],[118.5,11.72579],[119,11.76598],[119.5,11.80762],[120,11.85069],[120.5,11.89516],[121,11.94102],[121.5,11.98824],[122,12.0368],[122.5,12.08667],[123,12.13785],[123.5,12.1903],[123.50123,12.19035]]}},{"type":"Feature","id":"+06931005:south:0","properties":{"id":"+06931005","year":693,"month":10,"day":5,"time_tdt":"09:03:11","type":"개기일식","type_code":"T","saros":103,"gamma":0.49105,"magnitude":1.05172,"greatest":{"lat":22.19948,"lng":66.30841},"path_width_km":195.6,"duration":"04m30s","delta_t_seconds":3848.7,"catalog_number":6425,"source":"NASA Five Millennium Canon of Solar Eclipses","source_url":"https://eclipse.gsfc.nasa.gov/SEsearch/SEsearchmap.php?Ecl=%2B06931005","boundary":"south","name":"693-10-05 개기일식"},"geometry":{"type":"LineString","coordinates":[[-3.97461,45.95527],[-3.5,45.90284],[-3,45.84643],[-2.5,45.7888],[-2,45.72995],[-1.5,45.66987],[-1,45.60855],[-0.5,45.54597],[0,45.48213],[0.5,45.41702],[1,45.35063],[1.5,45.28294],[2,45.21396],[2.5,45.14366],[3,45.07204],[3.5,44.99909],[4,44.92479],[4.5,44.84914],[5,44.77212],[5.5,44.69373],[6,44.61394],[6.5,44.53276],[7,44.45016],[7.5,44.36614],[8,44.28068],[8.5,44.19378],[9,44.10541],[9.5,44.01556],[10,43.92423],[10.5,43.8314],[11,43.73705],[11.5,43.64118],[12,43.54376],[12.5,43.44479],[13,43.34425],[13.5,43.24213],[14,43.1384],[14.5,43.03307],[15,42.92611],[15.5,42.8175],[16,42.70723],[16.5,42.59529],[17,42.48166],[17.5,42.36633],[18,42.24927],[18.5,42.13047],[19,42.00992],[19.5,41.8876],[20,41.76348],[20.5,41.63756],[21,41.50982],[21.5,41.38024],[22,41.24879],[22.5,41.11547],[23,40.98026],[23.5,40.84313],[24,40.70407],[24.5,40.56306],[25,40.42008],[25.5,40.27511],[26,40.12813],[26.5,39.97913],[27,39.82808],[27.5,39.67497],[28,39.51977],[28.5,39.36247],[29,39.20304],[29.5,39.04147],[30,38.87774],[30.5,38.71182],[31,38.5437],[31.5,38.37337],[32,38.20078],[32.5,38.02594],[33,37.84882],[33.5,37.66941],[34,37.48767],[34.5,37.3036],[35,37.11718],[35.5,36.92838],[36,36.7372],[36.5,36.54362],[37,36.34761],[37.5,36.14917],[38,35.94828],[38.5,35.74492],[39,35.53909],[39.5,35.33077],[40,35.11995],[40.5,34.90661],[41,34.69076],[41.5,34.47239],[42,34.25148],[42.5,34.02803],[43,33.80205],[43.5,33.57353],[44,33.34247],[44.5,33.10888],[45,32.87277],[45.5,32.63413],[46,32.39299],[46.5,32.14935],[47,31.90324],[47.5,31.65468],[48,31.40368],[48.5,31.15028],[49,30.8945],[49.5,30.63639],[50,30.37598],[50.5,30.11332],[51,29.84845],[51.5,29.58143],[52,29.31232],[52.5,29.04119],[53,28.76809],[53.5,28.4931],[54,28.21632],[54.5,27.93781],[55,27.65768],[55.5,27.37602],[56,27.09294],[56.5,26.80855],[57,26.52296],[57.5,26.2363],[58,25.94869],[58.5,25.66027],[59,25.37118],[59.5,25.08157],[60,24.79159],[60.5,24.50139],[61,24.21113],[61.5,23.92098],[62,23.6311],[62.5,23.34167],[63,23.05286],[63.5,22.76486],[64,22.47782],[64.5,22.19195],[65,21.9074],[65.5,21.62438],[66,21.34304],[66.5,21.06357],[67,20.78615],[67.5,20.51093],[68,20.2381],[68.5,19.96782],[69,19.70024],[69.5,19.43551],[70,19.1738],[70.5,18.91522],[71,18.65993],[71.5,18.40805],[72,18.1597],[72.5,17.91499],[73,17.67404],[73.5,17.43693],[74,17.20375],[74.5,16.9746],[75,16.74954],[75.5,16.52863],[76,16.31195],[76.5,16.09954],[77,15.89144],[77.5,15.68769],[78,15.48832],[78.5,15.29335],[79,15.1028],[79.5,14.91668],[80,14.735],[80.5,14.55776],[81,14.38494],[81.5,14.21654],[82,14.05255],[82.5,13.89294],[83,13.73769],[83.5,13.58678],[84,13.44017],[84.5,13.29784],[85,13.15974],[85.5,13.02583],[86,12.89609],[86.5,12.77046],[87,12.64889],[87.5,12.53136],[88,12.4178],[88.5,12.30816],[89,12.20241],[89.5,12.10049],[90,12.00234],[90.5,11.90791],[91,11.81716],[91.5,11.73003],[92,11.64647],[92.5,11.56643],[93,11.48985],[93.5,11.41667],[94,11.34686],[94.5,11.28035],[95,11.21709],[95.5,11.15703],[96,11.10013],[96.5,11.04632],[97,10.99556],[97.5,10.94781],[98,10.903],[98.5,10.86109],[99,10.82204],[99.5,10.78579],[100,10.7523],[100.5,10.72152],[101,10.69342],[101.5,10.66793],[102,10.64502],[102.5,10.62464],[103,10.60676],[103.5,10.59133],[104,10.5783],[104.5,10.56764],[105,10.55931],[105.5,10.55327],[106,10.54948],[106.5,10.5479],[107,10.54849],[107.5,10.55122],[108,10.55605],[108.5,10.56294],[109,10.57187],[109.5,10.5828],[110,10.59568],[110.5,10.6105],[111,10.62721],[111.5,10.6458],[112,10.66621],[112.5,10.68843],[113,10.71243],[113.5,10.73817],[114,10.76563],[114.5,10.79477],[115,10.82558],[115.5,10.85801],[116,10.89206],[116.5,10.92768],[117,10.96485],[117.5,11.00355],[118,11.04376],[118.5,11.08544],[119,11.12858],[119.5,11.17315],[120,11.21912],[120.5,11.26648],[121,11.3152],[121.5,11.36526],[122,11.41664],[122.5,11.46932],[123,11.52327],[123.44336,11.57217]]}}],"attribution":"Eclipse Predictions by Fred Espenak and Jean Meeus (NASA's GSFC)","generated_at":"2026-09-23T01:44:54.921Z"}
