{"type":"FeatureCollection","year":709,"events":[{"id":"+07090514","year":709,"month":5,"day":14,"time_tdt":"07:04:35","type":"부분일식","type_code":"P","saros":78,"gamma":1.01541,"magnitude":0.97362,"greatest":{"lat":69.05153,"lng":-68.71307},"path_width_km":0,"duration":"00m00s","delta_t_seconds":3709.3,"catalog_number":6464,"source":"NASA Five Millennium Canon of Solar Eclipses","source_url":"https://eclipse.gsfc.nasa.gov/SEsearch/SEsearchmap.php?Ecl=%2B07090514"},{"id":"+07091106","year":709,"month":11,"day":6,"time_tdt":"12:41:08","type":"금환일식","type_code":"A","saros":83,"gamma":-0.93189,"magnitude":0.98141,"greatest":{"lat":-79.22829,"lng":-67.42981},"path_width_km":185.9,"duration":"01m10s","delta_t_seconds":3705.1,"catalog_number":6465,"source":"NASA Five Millennium Canon of Solar Eclipses","source_url":"https://eclipse.gsfc.nasa.gov/SEsearch/SEsearchmap.php?Ecl=%2B07091106"}],"features":[{"type":"Feature","id":"+07091106:north:0","properties":{"id":"+07091106","year":709,"month":11,"day":6,"time_tdt":"12:41:08","type":"금환일식","type_code":"A","saros":83,"gamma":-0.93189,"magnitude":0.98141,"greatest":{"lat":-79.22829,"lng":-67.42981},"path_width_km":185.9,"duration":"01m10s","delta_t_seconds":3705.1,"catalog_number":6465,"source":"NASA Five Millennium Canon of Solar Eclipses","source_url":"https://eclipse.gsfc.nasa.gov/SEsearch/SEsearchmap.php?Ecl=%2B07091106","boundary":"north","name":"709-11-06 금환일식"},"geometry":{"type":"LineString","coordinates":[[-102.89062,-53.50981],[-102.5,-53.64887],[-102,-53.82998],[-101.5,-54.01463],[-101,-54.20288],[-100.5,-54.39477],[-100,-54.59036],[-99.5,-54.78968],[-99,-54.9928],[-98.5,-55.19976],[-98,-55.41062],[-97.5,-55.62543],[-97,-55.84423],[-96.5,-56.06709],[-96,-56.29405],[-95.5,-56.52516],[-95,-56.76049],[-94.5,-57.00008],[-94,-57.24398],[-93.5,-57.49224],[-93,-57.74492],[-92.5,-58.00206],[-92,-58.26372],[-91.5,-58.52994],[-91,-58.80076],[-90.5,-59.07624],[-90,-59.3564],[-89.5,-59.6413],[-89,-59.93096],[-88.5,-60.22543],[-88,-60.52472],[-87.5,-60.82886],[-87,-61.13788],[-86.5,-61.45179],[-86,-61.77059],[-85.5,-62.0943],[-85,-62.4229],[-84.5,-62.75638],[-84,-63.09472],[-83.5,-63.4379],[-83,-63.78586],[-82.5,-64.13857],[-82,-64.49595],[-81.5,-64.85794],[-81,-65.22443],[-80.5,-65.59533],[-80,-65.97051],[-79.5,-66.34985],[-79,-66.73318],[-78.5,-67.12034],[-78,-67.51113],[-77.5,-67.90535],[-77,-68.30276],[-76.5,-68.70311],[-76,-69.10613],[-75.5,-69.51152],[-75,-69.91897],[-74.5,-70.32814],[-74,-70.73867],[-73.5,-71.15018],[-73,-71.56227],[-72.5,-71.97453],[-72,-72.38652],[-71.5,-72.79779],[-71,-73.20788],[-70.5,-73.6163],[-70,-74.02258],[-69.5,-74.42622],[-69,-74.82673],[-68.5,-75.22362],[-68,-75.6164],[-67.5,-76.00459],[-67,-76.3877],[-66.5,-76.7653],[-66,-77.13693],[-65.5,-77.50219],[-65,-77.86067],[-64.5,-78.21202],[-64,-78.55589],[-63.5,-78.892],[-63,-79.22007],[-62.5,-79.53988],[-62,-79.85123],[-61.5,-80.15398],[-61,-80.448],[-60.5,-80.73322],[-60,-81.0096],[-59.5,-81.27714],[-59,-81.53587],[-58.5,-81.78585],[-58,-82.02717],[-57.5,-82.25994],[-57,-82.48432],[-56.5,-82.70046],[-56,-82.90855],[-56,-82.90854],[-55.5,-83.10878],[-55.5,-83.10877],[-55,-83.30136],[-54.5,-83.48652],[-54,-83.66448],[-53.5,-83.83549],[-53,-83.99977],[-52.5,-84.15757],[-52,-84.30913],[-51.5,-84.45468],[-51,-84.59448],[-50.5,-84.72873],[-50,-84.85768],[-49.5,-84.98155],[-49,-85.10055],[-48.5,-85.21489],[-48,-85.32478],[-47.5,-85.4304],[-47,-85.53196],[-46.5,-85.62963],[-46,-85.72358],[-45.5,-85.81398],[-45,-85.90099],[-44.5,-85.98477],[-44,-86.06545],[-43.5,-86.14318],[-43,-86.21808],[-42.5,-86.29029],[-42,-86.35993],[-41.5,-86.4271],[-41,-86.49192],[-40.5,-86.5545],[-40,-86.61492],[-39.5,-86.67328],[-39,-86.72967],[-38.5,-86.78418],[-38,-86.83688],[-37.5,-86.88785],[-37,-86.93717],[-36.5,-86.9849],[-36,-87.03111],[-35.5,-87.07585],[-35,-87.1192],[-34.5,-87.1612],[-34,-87.20192],[-33.5,-87.24139],[-33,-87.27967],[-32.5,-87.31681],[-32,-87.35285],[-31.5,-87.38783],[-31,-87.42179],[-30.5,-87.45476],[-30.5,-87.45477],[-30,-87.4868],[-29.5,-87.51792],[-29,-87.54817],[-28.5,-87.57757],[-28,-87.60616],[-27.5,-87.63396],[-27,-87.66101],[-26.5,-87.68732],[-26,-87.71292],[-25.5,-87.73784],[-25,-87.7621],[-24.5,-87.78572],[-24,-87.80872],[-23.5,-87.83113],[-23,-87.85295],[-22.5,-87.87422],[-22,-87.89495],[-21.5,-87.91515],[-21,-87.93484],[-20.5,-87.95404],[-20,-87.97276],[-19.5,-87.99101],[-19,-88.00882],[-18.5,-88.02619],[-18,-88.04314],[-17.5,-88.05967],[-17,-88.0758],[-16.5,-88.09155],[-16,-88.10691],[-15.5,-88.12191],[-15,-88.13655],[-14.5,-88.15085],[-14,-88.1648],[-13.5,-88.17843],[-13,-88.19173],[-12.5,-88.20472],[-12,-88.21741],[-11.5,-88.2298],[-11,-88.2419],[-10.5,-88.25372],[-10,-88.26526],[-9.5,-88.27653],[-9,-88.28754],[-8.5,-88.2983],[-8,-88.3088],[-7.5,-88.31906],[-7,-88.32908],[-6.5,-88.33887],[-6,-88.34843],[-5.5,-88.35776],[-5,-88.36688],[-4.5,-88.37578],[-4,-88.38448],[-3.5,-88.39297],[-3,-88.40125],[-2.5,-88.40935],[-2,-88.41724],[-1.5,-88.42495],[-1,-88.43248],[-0.5,-88.43982],[0,-88.44699],[0.5,-88.45397],[1,-88.46079],[1.5,-88.46744],[2,-88.47393],[2.5,-88.48025],[3,-88.48641],[3.5,-88.49241],[4,-88.49826],[4.5,-88.50396],[5,-88.5095],[5.5,-88.5149],[6,-88.52016],[6.5,-88.52527],[7,-88.53024],[7.5,-88.53507],[8,-88.53977],[8.5,-88.54433],[9,-88.54876],[9.5,-88.55306],[10,-88.55723],[10.5,-88.56127],[11,-88.56518],[11.5,-88.56897],[12,-88.57264],[12.5,-88.57618],[13,-88.57961],[13.5,-88.58291],[14,-88.5861],[14.5,-88.58917],[15,-88.59212],[15,-88.59213],[15.5,-88.59497],[16,-88.59769],[16,-88.5977],[16.5,-88.60031],[17,-88.60282],[17.5,-88.60521],[18,-88.6075],[18.5,-88.60967],[19,-88.61174],[19.5,-88.6137],[20,-88.61556],[20.5,-88.61731],[21,-88.61895],[21.5,-88.62049],[22,-88.62193],[22.5,-88.62326],[23,-88.6245],[23.5,-88.62562],[24,-88.62665],[24.5,-88.62757],[25,-88.6284],[25.5,-88.62912],[26,-88.62974],[26.5,-88.63026],[27,-88.63068],[27.5,-88.631],[28,-88.63122],[28.5,-88.63135],[28.5,-88.63134],[29,-88.63137],[29.5,-88.63129],[30,-88.63111],[30.5,-88.63083],[31,-88.63045],[31.5,-88.62997],[32,-88.62939],[32.5,-88.62871],[33,-88.62793],[33.5,-88.62704],[34,-88.62606],[34.5,-88.62497],[35,-88.62378],[35.5,-88.62249],[36,-88.6211],[36.5,-88.6196],[37,-88.618],[37.5,-88.61629],[38,-88.61448],[38.5,-88.61256],[39,-88.61054],[39.5,-88.60841],[40,-88.60617],[40.5,-88.60382],[41,-88.60136],[41.5,-88.59879],[42,-88.59611],[42.5,-88.59331],[43,-88.59041],[43.5,-88.58738],[44,-88.58425],[44.5,-88.58099],[45,-88.57762],[45.5,-88.57412],[46,-88.57051],[46.5,-88.56677],[47,-88.56291],[47.5,-88.55892],[48,-88.55481],[48.5,-88.55057],[49,-88.54619],[49.5,-88.54169],[50,-88.53705],[50.5,-88.53228],[51,-88.52737],[51.5,-88.52232],[52,-88.51712],[52.5,-88.51179],[53,-88.5063],[53.5,-88.50067],[54,-88.49489],[54.5,-88.48895],[55,-88.48286],[55.5,-88.47661],[56,-88.4702],[56.5,-88.46363],[57,-88.45688],[57.5,-88.44997],[58,-88.44288],[58.5,-88.43562],[59,-88.42818],[59.5,-88.42055],[60,-88.41274],[60.5,-88.40474],[61,-88.39654],[61.5,-88.38814],[62,-88.37954],[62.5,-88.37074],[63,-88.36172],[63.5,-88.35249],[64,-88.34303],[64.5,-88.33335],[65,-88.32344],[65.5,-88.31329],[66,-88.30291],[66.5,-88.29227],[67,-88.28138],[67.5,-88.27024],[68,-88.25882],[68.5,-88.24714],[69,-88.23518],[69.5,-88.22293],[70,-88.21039],[70.5,-88.19755],[71,-88.1844],[71.5,-88.17094],[72,-88.15715],[72.5,-88.14303],[73,-88.12856],[73.5,-88.11375],[74,-88.09857],[74.5,-88.08302],[75,-88.06709],[75.5,-88.05077],[76,-88.03404],[76.5,-88.01689],[77,-87.99932],[77.5,-87.98131],[78,-87.96284],[78.5,-87.9439],[79,-87.92448],[79.5,-87.90456],[80,-87.88413],[80.5,-87.86317],[81,-87.84166],[81.5,-87.81959],[82,-87.79693],[82.5,-87.77367],[83,-87.74979],[83.5,-87.72527],[84,-87.70007],[84.5,-87.67419],[85,-87.6476],[85.5,-87.62027],[86,-87.59218],[86.5,-87.56329],[87,-87.53359],[87.5,-87.50303],[88,-87.4716],[88.5,-87.43925],[89,-87.40596],[89,-87.40595],[89.5,-87.37168],[89.5,-87.37167],[90,-87.33637],[90.5,-87.30001],[91,-87.26255],[91.5,-87.22394],[92,-87.18414],[92.5,-87.14311],[93,-87.10078],[93.5,-87.05712],[94,-87.01207],[94.5,-86.96556],[95,-86.91754],[95.5,-86.86795],[96,-86.81672],[96.5,-86.76378],[97,-86.70907],[97,-86.70906],[97.5,-86.65249],[98,-86.59398],[98.5,-86.53345],[99,-86.47082],[99.5,-86.40599],[100,-86.33887],[100.5,-86.26936],[101,-86.19736],[101.5,-86.12275],[102,-86.04544],[102.5,-85.96529],[103,-85.8822],[103.5,-85.79603],[104,-85.70665],[104.5,-85.61393],[105,-85.51773],[105.5,-85.41791],[106,-85.31433],[106.5,-85.20682],[107,-85.09525],[107.5,-84.97946],[108,-84.85928],[108.5,-84.73457],[109,-84.60517],[109.5,-84.47092],[110,-84.33167],[110.5,-84.18727],[111,-84.03758],[111.5,-83.88245],[112,-83.72177],[112.5,-83.5554],[113,-83.38324],[113.5,-83.20519],[114,-83.02118],[114.5,-82.83113],[115,-82.63501],[115.5,-82.43278],[116,-82.22444],[116.5,-82.01002],[117,-81.78954],[117.5,-81.56306],[118,-81.33069],[118.5,-81.09252],[119,-80.84869],[119.5,-80.59936],[120,-80.34469],[120.5,-80.0849],[121,-79.82018],[121.5,-79.55077],[122,-79.27692],[122.5,-78.99887],[123,-78.71691],[123.5,-78.43129],[124,-78.14229],[124.5,-77.8502],[125,-77.55531],[125.5,-77.25788],[126,-76.95819],[126.5,-76.65653],[127,-76.35316],[127.5,-76.04833],[128,-75.74231],[128.5,-75.43533],[129,-75.12763],[129.5,-74.81943],[130,-74.51095],[130.5,-74.20239],[131,-73.89394],[131.5,-73.58578],[132,-73.27808],[132.5,-72.97101],[133,-72.66472],[133.5,-72.35933],[134,-72.05499],[134.5,-71.75181],[135,-71.44991],[135.5,-71.14939],[136,-70.85035],[136.5,-70.55286],[137,-70.25702],[137.5,-69.9629],[138,-69.67056],[138.05469,-69.6387]]}},{"type":"Feature","id":"+07091106:center:0","properties":{"id":"+07091106","year":709,"month":11,"day":6,"time_tdt":"12:41:08","type":"금환일식","type_code":"A","saros":83,"gamma":-0.93189,"magnitude":0.98141,"greatest":{"lat":-79.22829,"lng":-67.42981},"path_width_km":185.9,"duration":"01m10s","delta_t_seconds":3705.1,"catalog_number":6465,"source":"NASA Five Millennium Canon of Solar Eclipses","source_url":"https://eclipse.gsfc.nasa.gov/SEsearch/SEsearchmap.php?Ecl=%2B07091106","boundary":"center","name":"709-11-06 금환일식"},"geometry":{"type":"LineString","coordinates":[[-104.02413,-54.32816],[-104,-54.52794],[-103.5,-54.70387],[-103,-54.88341],[-102.5,-55.06661],[-102,-55.25351],[-101.5,-55.44418],[-101,-55.63868],[-100.5,-55.83705],[-100,-56.03935],[-99.5,-56.24565],[-99,-56.45601],[-98.5,-56.67048],[-98,-56.88913],[-97.5,-57.11202],[-97,-57.33921],[-96.5,-57.57077],[-96,-57.80677],[-95.5,-58.04726],[-95,-58.29231],[-94.5,-58.542],[-94,-58.79638],[-93.5,-59.05553],[-93,-59.3195],[-92.5,-59.58837],[-92,-59.8622],[-91.5,-60.14106],[-91,-60.42501],[-90.5,-60.71412],[-90,-61.00844],[-89.5,-61.30803],[-89,-61.61297],[-88.5,-61.92329],[-88,-62.23905],[-87.5,-62.56031],[-87,-62.8871],[-86.5,-63.21947],[-86,-63.55745],[-85.5,-63.90108],[-85,-64.25037],[-84.5,-64.60534],[-84,-64.96601],[-83.5,-65.33236],[-83,-65.70439],[-82.5,-66.08208],[-82,-66.4654],[-81.5,-66.85429],[-81,-67.2487],[-80.5,-67.64856],[-80,-68.05376],[-79.5,-68.46421],[-79,-68.87976],[-78.5,-69.30027],[-78,-69.72558],[-77.5,-70.15548],[-77,-70.58976],[-76.5,-71.02817],[-76,-71.47044],[-75.5,-71.91627],[-75,-72.36533],[-74.5,-72.81726],[-74,-73.27167],[-73.5,-73.72814],[-73,-74.18621],[-72.5,-74.64539],[-72,-75.10516],[-71.5,-75.56496],[-71,-76.02421],[-70.5,-76.48228],[-70,-76.93852],[-69.5,-77.39224],[-69,-77.84274],[-68.5,-78.28927],[-68,-78.73107],[-67.5,-79.16738],[-67,-79.59738],[-66.5,-80.02029],[-66,-80.4353],[-65.5,-80.84163],[-65,-81.23848],[-64.5,-81.62513],[-64,-82.00086],[-63.5,-82.365],[-63,-82.71698],[-62.5,-83.05626],[-62,-83.38242],[-61.5,-83.69511],[-61,-83.9941],[-60.5,-84.27926],[-60,-84.55056],[-59.5,-84.80809],[-59,-85.05203],[-58.5,-85.28266],[-58,-85.50032],[-57.5,-85.70544],[-57,-85.89851],[-56.5,-86.08004],[-56,-86.25059],[-55.5,-86.41074],[-55,-86.56105],[-54.5,-86.70211],[-54.5,-86.7021],[-54,-86.83448],[-53.5,-86.95872],[-53,-87.07535],[-52.5,-87.1849],[-52,-87.28784],[-51.5,-87.38463],[-51,-87.47569],[-50.5,-87.56143],[-50,-87.64222],[-49.5,-87.71841],[-49,-87.79033],[-48.5,-87.85826],[-48,-87.92249],[-47.5,-87.98328],[-47,-88.04086],[-46.5,-88.09544],[-46,-88.14723],[-45.5,-88.19642],[-45,-88.24318],[-44.5,-88.28766],[-44,-88.33001],[-43.5,-88.37036],[-43,-88.40885],[-42.5,-88.44558],[-42,-88.48067],[-41.5,-88.51421],[-41,-88.54629],[-40.5,-88.57701],[-40,-88.60643],[-39.5,-88.63463],[-39,-88.66169],[-38.5,-88.68765],[-38,-88.71259],[-37.5,-88.73656],[-37,-88.7596],[-36.5,-88.78178],[-36,-88.80312],[-35.5,-88.82368],[-35,-88.84349],[-34.5,-88.8626],[-34,-88.88103],[-33.5,-88.89881],[-33,-88.91598],[-32.5,-88.93257],[-32,-88.9486],[-31.5,-88.9641],[-31,-88.97909],[-30.5,-88.9936],[-30,-89.00764],[-29.5,-89.02123],[-29,-89.0344],[-28.5,-89.04717],[-28,-89.05954],[-27.5,-89.07154],[-27,-89.08317],[-26.5,-89.09446],[-26,-89.10542],[-25.5,-89.11606],[-25,-89.12639],[-24.5,-89.13643],[-24,-89.14618],[-23.5,-89.15566],[-23,-89.16488],[-22.5,-89.17384],[-22,-89.18255],[-21.5,-89.19103],[-21,-89.19928],[-20.5,-89.20731],[-20,-89.21513],[-19.5,-89.22273],[-19,-89.23014],[-18.5,-89.23736],[-18,-89.24439],[-17.5,-89.25124],[-17,-89.25791],[-16.5,-89.26442],[-16,-89.27076],[-15.5,-89.27694],[-15,-89.28296],[-14.5,-89.28884],[-14,-89.29457],[-13.5,-89.30016],[-13,-89.30561],[-12.5,-89.31093],[-12,-89.31612],[-11.5,-89.32118],[-11,-89.32611],[-10.5,-89.33093],[-10,-89.33564],[-9.5,-89.34023],[-9,-89.3447],[-8.5,-89.34908],[-8,-89.35334],[-7.5,-89.35751],[-7,-89.36157],[-6.5,-89.36554],[-6,-89.36941],[-5.5,-89.37319],[-5,-89.37688],[-4.5,-89.38048],[-4,-89.38399],[-3.5,-89.38742],[-3,-89.39077],[-2.5,-89.39404],[-2,-89.39722],[-1.5,-89.40033],[-1,-89.40337],[-0.5,-89.40633],[0,-89.40921],[0.5,-89.41203],[1,-89.41478],[1.5,-89.41745],[2,-89.42006],[2.5,-89.42261],[3,-89.42509],[3.5,-89.4275],[4,-89.42986],[4.5,-89.43215],[5,-89.43438],[5.5,-89.43656],[6,-89.43867],[6.5,-89.44073],[7,-89.44273],[7.5,-89.44468],[8,-89.44657],[8.5,-89.4484],[9,-89.45019],[9.5,-89.45192],[10,-89.4536],[10.5,-89.45523],[11,-89.45681],[11.5,-89.45834],[12,-89.45982],[12.5,-89.46126],[13,-89.46264],[13.5,-89.46398],[14,-89.46527],[14.5,-89.46652],[15,-89.46772],[15.5,-89.46887],[16,-89.46999],[16.5,-89.47105],[17,-89.47208],[17.5,-89.47306],[18,-89.47399],[18.5,-89.47489],[19,-89.47574],[19.5,-89.47655],[20,-89.47732],[20.5,-89.47805],[21,-89.47874],[21.5,-89.47938],[22,-89.47999],[22.5,-89.48055],[23,-89.48108],[23.5,-89.48156],[24,-89.48201],[24.5,-89.48242],[25,-89.48278],[25.5,-89.48311],[26,-89.4834],[26.5,-89.48365],[27,-89.48386],[27.5,-89.48403],[28,-89.48417],[28.5,-89.48426],[29,-89.48432],[29.5,-89.48433],[30,-89.48431],[30.5,-89.48425],[31,-89.48416],[31.5,-89.48402],[32,-89.48384],[32.5,-89.48363],[33,-89.48337],[33.5,-89.48308],[34,-89.48275],[34.5,-89.48238],[35,-89.48197],[35.5,-89.48152],[36,-89.48103],[36.5,-89.4805],[37,-89.47993],[37.5,-89.47932],[38,-89.47867],[38.5,-89.47798],[39,-89.47725],[39.5,-89.47648],[40,-89.47566],[40.5,-89.47481],[41,-89.47391],[41.5,-89.47297],[42,-89.47198],[42.5,-89.47095],[42.5,-89.47096],[43,-89.46988],[43.5,-89.46877],[44,-89.46761],[44.5,-89.4664],[45,-89.46515],[45.5,-89.46386],[46,-89.46251],[46.5,-89.46112],[47,-89.45968],[47.5,-89.4582],[48,-89.45666],[48.5,-89.45508],[49,-89.45344],[49,-89.45345],[49.5,-89.45176],[50,-89.45002],[50.5,-89.44823],[51,-89.44639],[51.5,-89.4445],[52,-89.44254],[52.5,-89.44054],[53,-89.43848],[53.5,-89.43636],[54,-89.43418],[54.5,-89.43194],[55,-89.42964],[55.5,-89.42728],[56,-89.42486],[56.5,-89.42237],[57,-89.41982],[57.5,-89.41721],[58,-89.41452],[58.5,-89.41177],[59,-89.40895],[59.5,-89.40606],[60,-89.40309],[60.5,-89.40005],[61,-89.39693],[61.5,-89.39374],[62,-89.39047],[62.5,-89.38711],[63,-89.38367],[63.5,-89.38015],[64,-89.37654],[64.5,-89.37285],[65,-89.36906],[65.5,-89.36518],[66,-89.3612],[66.5,-89.35713],[67,-89.35296],[67.5,-89.34868],[68,-89.3443],[68.5,-89.33981],[69,-89.33522],[69.5,-89.3305],[70,-89.32568],[70.5,-89.32073],[71,-89.31565],[71.5,-89.31046],[72,-89.30513],[72.5,-89.29967],[73,-89.29407],[73.5,-89.28832],[74,-89.28244],[74.5,-89.2764],[75,-89.27021],[75.5,-89.26385],[76,-89.25734],[76.5,-89.25065],[77,-89.24379],[77.5,-89.23674],[78,-89.22951],[78.5,-89.22209],[79,-89.21446],[79.5,-89.20663],[80,-89.19859],[80.5,-89.19032],[81,-89.18182],[81.5,-89.17309],[82,-89.16411],[82.5,-89.15488],[83,-89.14538],[83.5,-89.13561],[83,-89.14538],[84,-89.12556],[84.5,-89.1152],[85,-89.10454],[85.5,-89.09356],[86,-89.08225],[86.5,-89.07059],[87,-89.05857],[87.5,-89.04618],[88,-89.03339],[88.5,-89.0202],[89,-89.00658],[89.5,-88.99251],[90,-88.97798],[90.5,-88.96296],[91,-88.94744],[91.5,-88.93138],[92,-88.91477],[92.5,-88.89757],[93,-88.87976],[93.5,-88.8613],[94,-88.84217],[94.5,-88.82233],[95,-88.80175],[95.5,-88.78038],[96,-88.75818],[96.5,-88.73511],[97,-88.71113],[97.5,-88.68617],[98,-88.66019],[98.5,-88.63312],[99,-88.60491],[99.5,-88.57548],[100,-88.54477],[100.5,-88.5127],[101,-88.47918],[101.5,-88.44412],[102,-88.40742],[102.5,-88.36899],[103,-88.3287],[103.5,-88.28644],[104,-88.24208],[104.5,-88.19547],[105,-88.14646],[105.5,-88.09488],[106,-88.04056],[106.5,-87.98331],[107,-87.92291],[107.5,-87.85915],[108,-87.79178],[108.5,-87.72054],[109,-87.64516],[109.5,-87.56535],[110,-87.48077],[110.5,-87.3911],[111,-87.29599],[111.5,-87.19504],[112,-87.08787],[112.5,-86.97407],[113,-86.85321],[113.5,-86.72486],[114,-86.58859],[114.5,-86.44395],[115,-86.29053],[115.5,-86.12792],[116,-85.95573],[116.5,-85.77365],[117,-85.58137],[117.5,-85.37867],[118,-85.1654],[118.5,-84.94148],[119,-84.70692],[119.5,-84.46182],[120,-84.20638],[120.5,-83.94087],[121,-83.66567],[121.5,-83.3812],[122,-83.08798],[122.5,-82.78656],[123,-82.47755],[123.5,-82.16157],[124,-81.83928],[124.5,-81.51131],[125,-81.17833],[125.5,-80.84096],[126,-80.49982],[126.5,-80.1555],[127,-79.80855],[127.5,-79.4595],[128,-79.10885],[128.5,-78.75706],[129,-78.40454],[129.5,-78.05169],[130,-77.69886],[130.5,-77.34639],[131,-76.99458],[131.5,-76.64368],[132,-76.29394],[132.5,-75.94559],[133,-75.59881],[133.5,-75.25379],[134,-74.91068],[134.5,-74.56963],[135,-74.23074],[135.5,-73.89415],[136,-73.55993],[136.5,-73.22817],[137,-72.89896],[137.5,-72.57234],[138,-72.24837],[138.5,-71.92711],[139,-71.60858],[139.5,-71.29283],[140,-70.97987],[140.5,-70.66973],[141,-70.36241],[142.41829,-70.43769]]}},{"type":"Feature","id":"+07091106:south:0","properties":{"id":"+07091106","year":709,"month":11,"day":6,"time_tdt":"12:41:08","type":"금환일식","type_code":"A","saros":83,"gamma":-0.93189,"magnitude":0.98141,"greatest":{"lat":-79.22829,"lng":-67.42981},"path_width_km":185.9,"duration":"01m10s","delta_t_seconds":3705.1,"catalog_number":6465,"source":"NASA Five Millennium Canon of Solar Eclipses","source_url":"https://eclipse.gsfc.nasa.gov/SEsearch/SEsearchmap.php?Ecl=%2B07091106","boundary":"south","name":"709-11-06 금환일식"},"geometry":{"type":"LineString","coordinates":[[-105.5,-55.49115],[-105,-55.6626],[-104.5,-55.83774],[-104,-56.01663],[-103.5,-56.19932],[-103,-56.38589],[-102.5,-56.57639],[-102,-56.77088],[-101.5,-56.96945],[-101,-57.17214],[-100.5,-57.37905],[-100,-57.59023],[-99.5,-57.80576],[-99,-58.02571],[-98.5,-58.25017],[-98,-58.47921],[-97.5,-58.71292],[-97,-58.95137],[-96.5,-59.19465],[-96,-59.44285],[-95.5,-59.69606],[-95,-59.95436],[-94.5,-60.21785],[-94,-60.48663],[-93.5,-60.76078],[-93,-61.04041],[-92.5,-61.32561],[-92,-61.6165],[-91.5,-61.91316],[-91,-62.21571],[-90.5,-62.52425],[-90,-62.83888],[-89.5,-63.15972],[-89,-63.48688],[-88.5,-63.82047],[-88,-64.16061],[-87.5,-64.50739],[-87,-64.86095],[-86.5,-65.22139],[-86,-65.58884],[-85.5,-65.9634],[-85,-66.3452],[-84.5,-66.73435],[-84,-67.13098],[-83.5,-67.5352],[-83,-67.94713],[-82.5,-68.36689],[-82,-68.79461],[-81.5,-69.2304],[-81,-69.67441],[-80.5,-70.12676],[-80,-70.58759],[-79.5,-71.05705],[-79,-71.5353],[-78.5,-72.0225],[-78,-72.51887],[-77.5,-73.0246],[-77,-73.53998],[-76.5,-74.06529],[-76,-74.60092],[-75.5,-75.14732],[-75,-75.70506],[-74.5,-76.27489],[-74,-76.85777],[-73.5,-77.45497],[-73,-78.06824],[-72.5,-78.70001],[-72,-79.35381],[-71.5,-80.035],[-71,-80.75222],[-70.5,-81.52084],[-70,-82.37292],[-69.5,-83.40097],[-69.5,-86.36146],[-70,-86.85086],[-70.5,-87.16695],[-71,-87.40257],[-71.5,-87.59013],[-72,-87.74532],[-72.5,-87.87712],[-73,-87.99117],[-73.5,-88.09129],[-74,-88.18017],[-74.5,-88.25982],[-75,-88.33174],[-75.5,-88.39711],[-76,-88.45685],[-76.5,-88.51172],[-77,-88.56233],[-77.5,-88.6092],[-78,-88.65274],[-78.5,-88.69331],[-79,-88.73124],[-79.5,-88.76677],[-80,-88.80013],[-80.5,-88.83153],[-81,-88.86114],[-81.5,-88.88912],[-82,-88.91559],[-82.5,-88.94068],[-83,-88.9645],[-83.5,-88.98714],[-84,-89.00868],[-84.5,-89.02922],[-85,-89.04881],[-85.5,-89.06751],[-86,-89.0854],[-86.5,-89.10252],[-87,-89.11891],[-87.5,-89.13463],[-88,-89.14972],[-88.5,-89.1642],[-89,-89.17812],[-89.5,-89.1915],[-90,-89.20438],[-90.5,-89.21679],[-91,-89.22874],[-91.5,-89.24027],[-92,-89.25138],[-92.5,-89.26211],[-93,-89.27248],[-93.5,-89.28249],[-94,-89.29217],[-94.5,-89.30153],[-95,-89.31059],[-95.5,-89.31936],[-96,-89.32785],[-96.5,-89.33608],[-97,-89.34405],[-97.5,-89.35178],[-98,-89.35927],[-98.5,-89.36655],[-99,-89.3736],[-99.5,-89.38045],[-100,-89.3871],[-100.5,-89.39357],[-101,-89.39984],[-101.5,-89.40594],[-102,-89.41188],[-102.5,-89.41764],[-103,-89.42325],[-103.5,-89.4287],[-104,-89.43401],[-104.5,-89.43918],[-105,-89.4442],[-105.5,-89.4491],[-106,-89.45386],[-106.5,-89.4585],[-107,-89.46302],[-107.5,-89.46743],[-108,-89.47172],[-108.5,-89.4759],[-109,-89.47997],[-109.5,-89.48394],[-110,-89.48781],[-110.5,-89.49158],[-111,-89.49525],[-111.5,-89.49884],[-112,-89.50233],[-112.5,-89.50574],[-113,-89.50906],[-113.5,-89.51231],[-114,-89.51547],[-114.5,-89.51855],[-115,-89.52155],[-115.5,-89.52448],[-116,-89.52734],[-116.5,-89.53013],[-117,-89.53285],[-117.5,-89.5355],[-118,-89.53809],[-118.5,-89.54061],[-119,-89.54307],[-119.5,-89.54546],[-120,-89.5478],[-120.5,-89.55008],[-121,-89.5523],[-121.5,-89.55446],[-122,-89.55657],[-122.5,-89.55863],[-123,-89.56063],[-123.5,-89.56258],[-124,-89.56448],[-124.5,-89.56633],[-125,-89.56813],[-125.5,-89.56988],[-126,-89.57158],[-126.5,-89.57324],[-127,-89.57485],[-127.5,-89.57642],[-128,-89.57794],[-128.5,-89.57942],[-129,-89.58086],[-129.5,-89.58226],[-130,-89.58361],[-130.5,-89.58492],[-131,-89.5862],[-131.5,-89.58743],[-132,-89.58862],[-132.5,-89.58978],[-133,-89.5909],[-133.5,-89.59198],[-134,-89.59302],[-134.5,-89.59403],[-135,-89.595],[-135.5,-89.59593],[-136,-89.59683],[-136.5,-89.59769],[-137,-89.59852],[-137.5,-89.59932],[-138,-89.60008],[-138.5,-89.60081],[-139,-89.6015],[-139.5,-89.60216],[-140,-89.60279],[-140.5,-89.60338],[-141,-89.60395],[-141.5,-89.60448],[-142,-89.60498],[-142.5,-89.60544],[-143,-89.60588],[-143.5,-89.60628],[-144,-89.60666],[-144.5,-89.607],[-145,-89.60731],[-145.5,-89.60759],[-146,-89.60784],[-146.5,-89.60806],[-147,-89.60825],[-147.5,-89.60841],[-148,-89.60854],[-148.5,-89.60863],[-149,-89.6087],[-149.5,-89.60874],[-150,-89.60875],[-150.5,-89.60872],[-151,-89.60867],[-151.5,-89.60859],[-152,-89.60847],[-152.5,-89.60833],[-153,-89.60816],[-153.5,-89.60795],[-154,-89.60772],[-154.5,-89.60745],[-155,-89.60715],[-155.5,-89.60683],[-156,-89.60647],[-156.5,-89.60608],[-157,-89.60566],[-157.5,-89.60521],[-158,-89.60472],[-158.5,-89.60421],[-159,-89.60366],[-159.5,-89.60308],[-160,-89.60247],[-160.5,-89.60182],[-161,-89.60115],[-161.5,-89.60043],[-162,-89.59969],[-162.5,-89.59891],[-163,-89.5981],[-163.5,-89.59725],[-164,-89.59637],[-164.5,-89.59545],[-165,-89.5945],[-165.5,-89.59351],[-166,-89.59249],[-166.5,-89.59143],[-167,-89.59033],[-167.5,-89.58919],[-168,-89.58801],[-168.5,-89.5868],[-169,-89.58555],[-169.5,-89.58425],[-170,-89.58292],[-170.5,-89.58154],[-171,-89.58013],[-171.5,-89.57867],[-172,-89.57717],[-172.5,-89.57562],[-173,-89.57403],[-173.5,-89.57239],[-174,-89.57071],[-174.5,-89.56898],[-175,-89.56721],[-175.5,-89.56538],[-176,-89.56351],[-176.5,-89.56158],[-177,-89.55961],[-177.5,-89.55758],[-178,-89.55549],[-178.5,-89.55336],[-179,-89.55116],[-179.5,-89.54891]]}},{"type":"Feature","id":"+07091106:south:1","properties":{"id":"+07091106","year":709,"month":11,"day":6,"time_tdt":"12:41:08","type":"금환일식","type_code":"A","saros":83,"gamma":-0.93189,"magnitude":0.98141,"greatest":{"lat":-79.22829,"lng":-67.42981},"path_width_km":185.9,"duration":"01m10s","delta_t_seconds":3705.1,"catalog_number":6465,"source":"NASA Five Millennium Canon of Solar Eclipses","source_url":"https://eclipse.gsfc.nasa.gov/SEsearch/SEsearchmap.php?Ecl=%2B07091106","boundary":"south","name":"709-11-06 금환일식"},"geometry":{"type":"LineString","coordinates":[[180,-89.54661],[179.5,-89.54424],[179,-89.54181],[178.5,-89.53932],[178,-89.53676],[177.5,-89.53414],[177,-89.53146],[176.5,-89.5287],[176,-89.52588],[175.5,-89.52298],[175,-89.52001],[174.5,-89.51697],[174,-89.51385],[173.5,-89.51064],[173,-89.50736],[172.5,-89.50399],[172,-89.50054],[171.5,-89.497],[171,-89.49337],[170.5,-89.48964],[170,-89.48582],[169.5,-89.4819],[169,-89.47788],[168.5,-89.47375],[168,-89.46951],[167.5,-89.46516],[167,-89.4607],[166.5,-89.45612],[166,-89.45141],[165.5,-89.44658],[165,-89.44162],[164.5,-89.43652],[164,-89.43128],[163.5,-89.4259],[163,-89.42036],[162.5,-89.41467],[162,-89.40882],[161.5,-89.4028],[161,-89.39661],[160.5,-89.39023],[160,-89.38367],[159.5,-89.37692],[159,-89.36996],[158.5,-89.36279],[158,-89.3554],[157.5,-89.34778],[157,-89.33993],[156.5,-89.33182],[156,-89.32346],[155.5,-89.31482],[155,-89.3059],[154.5,-89.29668],[154,-89.28715],[153.5,-89.2773],[153,-89.2671],[152.5,-89.25654],[152,-89.24561],[151.5,-89.23427],[151,-89.22252],[150.5,-89.21033],[150,-89.19767],[149.5,-89.18452],[149,-89.17085],[148.5,-89.15663],[148,-89.14182],[147.5,-89.1264],[147,-89.11031],[146.5,-89.09353],[146,-89.07599],[145.5,-89.05766],[145,-89.03847],[144.5,-89.01837],[144,-88.99728],[143.5,-88.97513],[143,-88.95184],[142.5,-88.92732],[142,-88.90146],[141.5,-88.87415],[141,-88.84525],[140.5,-88.81463],[140,-88.78211],[139.5,-88.74751],[139,-88.7106],[138.5,-88.67114],[138,-88.62884],[137.5,-88.58334],[137,-88.53424],[136.5,-88.48107],[136,-88.42323],[135.5,-88.36003],[135,-88.29056],[134.5,-88.21373],[134,-88.1281],[133.5,-88.0318],[133,-87.92226],[132.5,-87.79588],[132,-87.6473],[131.5,-87.468],[131,-87.24292],[130.5,-86.94057],[130,-86.46663],[130,-83.99479],[130.5,-83.09592],[131,-82.37352],[131.5,-81.73324],[132,-81.14355],[132.5,-80.58935],[133,-80.06209],[133.5,-79.55635],[134,-79.0685],[134.5,-78.59593],[135,-78.1367],[135.5,-77.68935],[136,-77.25269],[136.5,-76.82582],[137,-76.40795],[137.5,-75.99845],[138,-75.59679],[138.5,-75.20252],[139,-74.81522],[139.5,-74.43457],[140,-74.06024],[140.5,-73.69198],[141,-73.32954],[141.5,-72.97271],[142,-72.62127],[142.5,-72.27506],[143,-71.93391],[143.5,-71.59767],[144,-71.26618],[144.5,-70.93933]]}}],"attribution":"Eclipse Predictions by Fred Espenak and Jean Meeus (NASA's GSFC)","generated_at":"2026-09-23T01:44:55.249Z"}
