{"type":"FeatureCollection","year":714,"events":[{"id":"+07140219","year":714,"month":2,"day":19,"time_tdt":"05:26:24","type":"개기일식","type_code":"T","saros":90,"gamma":0.09136,"magnitude":1.05742,"greatest":{"lat":-5.1596,"lng":116.09747},"path_width_km":189.9,"duration":"05m15s","delta_t_seconds":3667.1,"catalog_number":6474,"source":"NASA Five Millennium Canon of Solar Eclipses","source_url":"https://eclipse.gsfc.nasa.gov/SEsearch/SEsearchmap.php?Ecl=%2B07140219"},{"id":"+07140815","year":714,"month":8,"day":15,"time_tdt":"00:59:30","type":"금환일식","type_code":"A","saros":95,"gamma":-0.14487,"magnitude":0.94204,"greatest":{"lat":5.40502,"lng":178.98224},"path_width_km":216.5,"duration":"07m46s","delta_t_seconds":3662.8,"catalog_number":6475,"source":"NASA Five Millennium Canon of Solar Eclipses","source_url":"https://eclipse.gsfc.nasa.gov/SEsearch/SEsearchmap.php?Ecl=%2B07140815"}],"features":[{"type":"Feature","id":"+07140219:north:0","properties":{"id":"+07140219","year":714,"month":2,"day":19,"time_tdt":"05:26:24","type":"개기일식","type_code":"T","saros":90,"gamma":0.09136,"magnitude":1.05742,"greatest":{"lat":-5.1596,"lng":116.09747},"path_width_km":189.9,"duration":"05m15s","delta_t_seconds":3667.1,"catalog_number":6474,"source":"NASA Five Millennium Canon of Solar Eclipses","source_url":"https://eclipse.gsfc.nasa.gov/SEsearch/SEsearchmap.php?Ecl=%2B07140219","boundary":"north","name":"714-02-19 개기일식"},"geometry":{"type":"LineString","coordinates":[[51.38281,-9.80676],[51.5,-9.8274],[52,-9.91493],[52.5,-10.00155],[53,-10.08725],[53.5,-10.17201],[54,-10.25581],[54.5,-10.33864],[55,-10.42048],[55.5,-10.50132],[56,-10.58113],[56.5,-10.65989],[57,-10.7376],[57.5,-10.81422],[58,-10.88975],[58.5,-10.96415],[59,-11.03742],[59.5,-11.10954],[60,-11.18047],[60.5,-11.25021],[61,-11.31873],[61.5,-11.38601],[62,-11.45204],[62.5,-11.51678],[63,-11.58022],[63.5,-11.64233],[64,-11.70309],[64.5,-11.76249],[65,-11.82049],[65.5,-11.87707],[66,-11.93222],[66.5,-11.98589],[67,-12.03808],[67.5,-12.08875],[68,-12.13789],[68.5,-12.18545],[69,-12.23143],[69.5,-12.27578],[70,-12.31849],[70.5,-12.35952],[71,-12.39885],[71.5,-12.43646],[72,-12.4723],[72.5,-12.50636],[73,-12.53859],[73.5,-12.56898],[74,-12.59749],[74.5,-12.62409],[75,-12.64875],[75.5,-12.67143],[76,-12.69211],[76.5,-12.71075],[77,-12.72731],[77.5,-12.74176],[78,-12.75407],[78.5,-12.7642],[79,-12.77212],[79.5,-12.77778],[80,-12.78116],[80.5,-12.78221],[81,-12.78089],[81.5,-12.77717],[82,-12.77101],[82.5,-12.76236],[83,-12.75118],[83.5,-12.73744],[84,-12.72109],[84.5,-12.70209],[85,-12.6804],[85.5,-12.65597],[86,-12.62875],[86.5,-12.59871],[87,-12.56579],[87.5,-12.52996],[88,-12.49116],[88.5,-12.44934],[89,-12.40446],[89.5,-12.35648],[90,-12.30533],[90.5,-12.25098],[91,-12.19337],[91.5,-12.13245],[92,-12.06817],[92.5,-12.00048],[93,-11.92934],[93.5,-11.85468],[94,-11.77646],[94.5,-11.69463],[95,-11.60913],[95.5,-11.51992],[96,-11.42694],[96.5,-11.33014],[97,-11.22947],[97.5,-11.12489],[98,-11.01634],[98.5,-10.90378],[99,-10.78715],[99.5,-10.66642],[100,-10.54153],[100.5,-10.41245],[101,-10.27913],[101.5,-10.14154],[102,-9.99963],[102.5,-9.85337],[103,-9.70272],[103.5,-9.54767],[104,-9.38817],[104.5,-9.22421],[105,-9.05577],[105.5,-8.88283],[106,-8.70539],[106.5,-8.52342],[107,-8.33694],[107.5,-8.14594],[108,-7.95044],[108.5,-7.75044],[109,-7.54597],[109.5,-7.33706],[110,-7.12374],[110.5,-6.90604],[111,-6.68403],[111.5,-6.45775],[112,-6.22726],[112.5,-5.99263],[113,-5.75395],[113.5,-5.5113],[114,-5.26478],[114.5,-5.01447],[115,-4.7605],[115.5,-4.50298],[116,-4.24204],[116.5,-3.9778],[117,-3.7104],[117.5,-3.44],[118,-3.16674],[118.5,-2.89077],[119,-2.61226],[119.5,-2.33138],[120,-2.0483],[120.5,-1.76319],[121,-1.47623],[121.5,-1.1876],[122,-0.89748],[122.5,-0.60605],[123,-0.31349],[123.5,-0.01999],[124,0.27427],[124.5,0.56911],[125,0.86436],[125.5,1.15985],[126,1.45539],[126.5,1.75083],[127,2.046],[127.5,2.34074],[128,2.63491],[128.5,2.92835],[129,3.22092],[129.5,3.51248],[130,3.80291],[130.5,4.09208],[131,4.37987],[131.5,4.66618],[132,4.95088],[132.5,5.2339],[133,5.51512],[133.5,5.79447],[134,6.07187],[134.5,6.34723],[135,6.6205],[135.5,6.89159],[136,7.16047],[136.5,7.42706],[137,7.69133],[137.5,7.95323],[138,8.21272],[138.5,8.46977],[139,8.72433],[139.5,8.9764],[140,9.22593],[140.5,9.47292],[141,9.71735],[141.5,9.95919],[142,10.19845],[142.5,10.43512],[143,10.66918],[143.5,10.90063],[144,11.12948],[144.5,11.35573],[145,11.57937],[145.5,11.80042],[146,12.01888],[146.5,12.23475],[147,12.44805],[147.5,12.65879],[148,12.86698],[148.5,13.07264],[149,13.27577],[149.5,13.47639],[150,13.67451],[150.5,13.87016],[151,14.06335],[151.5,14.2541],[152,14.44242],[152.5,14.62834],[153,14.81187],[153.5,14.99303],[154,15.17184],[154.5,15.34832],[155,15.52249],[155.5,15.69437],[156,15.86398],[156.5,16.03134],[157,16.19648],[157.5,16.3594],[158,16.52013],[158.5,16.6787],[159,16.83512],[159.5,16.98941],[160,17.1416],[160.5,17.29169],[161,17.43972],[161.5,17.5857],[162,17.72965],[162.5,17.8716],[163,18.01155],[163.5,18.14953],[164,18.28557],[164.5,18.41967],[165,18.55186],[165.5,18.68215],[166,18.81057],[166.5,18.93713],[167,19.06185],[167.5,19.18474],[168,19.30583],[168.5,19.42514],[169,19.54267],[169.5,19.65845],[170,19.77249],[170.5,19.88481],[171,19.99543],[171.5,20.10436],[172,20.21162],[172.5,20.31722],[173,20.42118],[173.5,20.52352],[174,20.62424],[174.5,20.72337],[175,20.82091],[175.5,20.91689],[176,21.01132],[176.5,21.10421],[177,21.19557],[177.5,21.28542],[177.87891,21.35251]]}},{"type":"Feature","id":"+07140219:center:0","properties":{"id":"+07140219","year":714,"month":2,"day":19,"time_tdt":"05:26:24","type":"개기일식","type_code":"T","saros":90,"gamma":0.09136,"magnitude":1.05742,"greatest":{"lat":-5.1596,"lng":116.09747},"path_width_km":189.9,"duration":"05m15s","delta_t_seconds":3667.1,"catalog_number":6474,"source":"NASA Five Millennium Canon of Solar Eclipses","source_url":"https://eclipse.gsfc.nasa.gov/SEsearch/SEsearchmap.php?Ecl=%2B07140219","boundary":"center","name":"714-02-19 개기일식"},"geometry":{"type":"LineString","coordinates":[[51.27867,-10.38881],[51.5,-10.42856],[52,-10.51831],[52.5,-10.60715],[53,-10.69508],[53.5,-10.78208],[54,-10.86812],[54.5,-10.95319],[55,-11.03728],[55.5,-11.12036],[56,-11.20243],[56.5,-11.28345],[57,-11.36342],[57.5,-11.44231],[58,-11.52011],[58.5,-11.59679],[59,-11.67235],[59.5,-11.74674],[60,-11.81997],[60.5,-11.892],[61,-11.96282],[61.5,-12.03241],[62,-12.10073],[62.5,-12.16779],[63,-12.23354],[63.5,-12.29798],[64,-12.36107],[64.5,-12.42279],[65,-12.48313],[65.5,-12.54206],[66,-12.59955],[66.5,-12.65558],[67,-12.71012],[67.5,-12.76316],[68,-12.81466],[68.5,-12.8646],[69,-12.91295],[69.5,-12.95969],[70,-13.0048],[70.5,-13.04823],[71,-13.08997],[71.5,-13.12999],[72,-13.16826],[72.5,-13.20474],[73,-13.23942],[73.5,-13.27226],[74,-13.30322],[74.5,-13.33229],[75,-13.35942],[75.5,-13.38459],[76,-13.40776],[76.5,-13.42891],[77,-13.44799],[77.5,-13.46497],[78,-13.47982],[78.5,-13.49251],[79,-13.50299],[79.5,-13.51123],[80,-13.5172],[80.5,-13.52086],[81,-13.52217],[81.5,-13.52109],[82,-13.51758],[82.5,-13.5116],[83,-13.50312],[83.5,-13.49208],[84,-13.47846],[84.5,-13.46221],[85,-13.44328],[85.5,-13.42164],[86,-13.39723],[86.5,-13.37002],[87,-13.33995],[87.5,-13.30699],[88,-13.27109],[88.5,-13.2322],[89,-13.19028],[89.5,-13.14527],[90,-13.09712],[90.5,-13.0458],[91,-12.99125],[91.5,-12.93342],[92,-12.87226],[92.5,-12.80772],[93,-12.73975],[93.5,-12.6683],[94,-12.59332],[94.5,-12.51475],[95,-12.43256],[95.5,-12.34668],[96,-12.25706],[96.5,-12.16366],[97,-12.06643],[97.5,-11.9653],[98,-11.86025],[98.5,-11.75121],[99,-11.63814],[99.5,-11.52099],[100,-11.39971],[100.5,-11.27427],[101,-11.14461],[101.5,-11.01071],[102,-10.87251],[102.5,-10.72998],[103,-10.58308],[103.5,-10.43179],[104,-10.27607],[104.5,-10.1159],[105,-9.95124],[105.5,-9.7821],[106,-9.60844],[106.5,-9.43025],[107,-9.24753],[107.5,-9.06028],[108,-8.8685],[108.5,-8.6722],[109,-8.47139],[109.5,-8.26609],[110,-8.05633],[110.5,-7.84214],[111,-7.62356],[111.5,-7.40064],[112,-7.17343],[112.5,-6.942],[113,-6.7064],[113.5,-6.46673],[114,-6.22307],[114.5,-5.9755],[115,-5.72413],[115.5,-5.46907],[116,-5.21043],[116.5,-4.94834],[117,-4.68292],[117.5,-4.41432],[118,-4.14267],[118.5,-3.86814],[119,-3.59087],[119.5,-3.31103],[120,-3.02878],[120.5,-2.74429],[121,-2.45774],[121.5,-2.16931],[122,-1.87917],[122.5,-1.58751],[123,-1.2945],[123.5,-1.00034],[124,-0.7052],[124.5,-0.40927],[125,-0.11273],[125.5,0.18426],[126,0.4815],[126.5,0.77883],[127,1.07609],[127.5,1.3731],[128,1.6697],[128.5,1.96576],[129,2.2611],[129.5,2.55559],[130,2.8491],[130.5,3.14149],[131,3.43263],[131.5,3.72241],[132,4.0107],[132.5,4.29742],[133,4.58244],[133.5,4.86569],[134,5.14707],[134.5,5.42649],[135,5.70388],[135.5,5.97918],[136,6.25231],[136.5,6.52321],[137,6.79184],[137.5,7.05813],[138,7.32205],[138.5,7.58355],[139,7.8426],[139.5,8.09917],[140,8.35322],[140.5,8.60474],[141,8.85371],[141.5,9.10009],[142,9.3439],[142.5,9.5851],[143,9.82369],[143.5,10.05967],[144,10.29303],[144.5,10.52378],[145,10.75191],[145.5,10.97742],[146,11.20032],[146.5,11.42062],[147,11.63833],[147.5,11.85344],[148,12.06598],[148.5,12.27596],[149,12.48339],[149.5,12.68828],[150,12.89064],[150.5,13.0905],[151,13.28787],[151.5,13.48276],[152,13.6752],[152.5,13.86519],[153,14.05277],[153.5,14.23795],[154,14.42074],[154.5,14.60117],[155,14.77926],[155.5,14.95502],[156,15.12848],[156.5,15.29966],[157,15.46858],[157.5,15.63525],[158,15.7997],[158.5,15.96195],[159,16.12202],[159.5,16.27993],[160,16.4357],[160.5,16.58934],[161,16.74089],[161.5,16.89036],[162,17.03777],[162.5,17.18314],[163,17.32649],[163.5,17.46784],[164,17.6072],[164.5,17.74461],[165,17.88007],[165.5,18.01361],[166,18.14524],[166.5,18.27498],[167,18.40286],[167.5,18.52889],[168,18.65308],[168.5,18.77546],[169,18.89603],[169.5,19.01483],[170,19.13187],[170.5,19.24716],[171,19.36072],[171.5,19.47256],[172,19.58271],[172.5,19.69117],[173,19.79797],[173.5,19.90312],[174,20.00664],[174.5,20.10853],[175,20.20882],[175.5,20.30752],[176,20.40464],[176.5,20.50021],[177,20.59422],[177.5,20.6867],[177.98798,20.77907]]}},{"type":"Feature","id":"+07140219:south:0","properties":{"id":"+07140219","year":714,"month":2,"day":19,"time_tdt":"05:26:24","type":"개기일식","type_code":"T","saros":90,"gamma":0.09136,"magnitude":1.05742,"greatest":{"lat":-5.1596,"lng":116.09747},"path_width_km":189.9,"duration":"05m15s","delta_t_seconds":3667.1,"catalog_number":6474,"source":"NASA Five Millennium Canon of Solar Eclipses","source_url":"https://eclipse.gsfc.nasa.gov/SEsearch/SEsearchmap.php?Ecl=%2B07140219","boundary":"south","name":"714-02-19 개기일식"},"geometry":{"type":"LineString","coordinates":[[51.17188,-10.96981],[51.5,-11.03064],[52,-11.12259],[52.5,-11.21365],[53,-11.3038],[53.5,-11.39302],[54,-11.48128],[54.5,-11.56859],[55,-11.65491],[55.5,-11.74023],[56,-11.82454],[56.5,-11.9078],[57,-11.99002],[57.5,-12.07116],[58,-12.15122],[58.5,-12.23016],[59,-12.30797],[59.5,-12.38464],[60,-12.46013],[60.5,-12.53444],[61,-12.60754],[61.5,-12.6794],[62,-12.75002],[62.5,-12.81936],[63,-12.88741],[63.5,-12.95414],[64,-13.01953],[64.5,-13.08356],[65,-13.14621],[65.5,-13.20745],[66,-13.26726],[66.5,-13.32561],[67,-13.38248],[67.5,-13.43785],[68,-13.49169],[68.5,-13.54398],[69,-13.59468],[69.5,-13.64378],[70,-13.69124],[70.5,-13.73704],[71,-13.78115],[71.5,-13.82355],[72,-13.8642],[72.5,-13.90308],[73,-13.94016],[73.5,-13.97541],[74,-14.00879],[74.5,-14.04028],[75,-14.06985],[75.5,-14.09746],[76,-14.12309],[76.5,-14.14669],[77,-14.16825],[77.5,-14.18771],[78,-14.20506],[78.5,-14.22025],[79,-14.23325],[79.5,-14.24403],[80,-14.25254],[80.5,-14.25876],[81,-14.26264],[81.5,-14.26415],[82,-14.26324],[82.5,-14.25988],[83,-14.25403],[83.5,-14.24566],[84,-14.23471],[84.5,-14.22114],[85,-14.20492],[85.5,-14.18601],[86,-14.16435],[86.5,-14.13991],[87,-14.11264],[87.5,-14.0825],[88,-14.04944],[88.5,-14.01341],[89,-13.97437],[89.5,-13.93228],[90,-13.88708],[90.5,-13.83872],[91,-13.78716],[91.5,-13.73236],[92,-13.67425],[92.5,-13.61279],[93,-13.54794],[93.5,-13.47963],[94,-13.40783],[94.5,-13.33247],[95,-13.25351],[95.5,-13.1709],[96,-13.08459],[96.5,-12.99453],[97,-12.90066],[97.5,-12.80294],[98,-12.70132],[98.5,-12.59575],[99,-12.48617],[99.5,-12.37254],[100,-12.25484],[100.5,-12.13298],[101,-12.00694],[101.5,-11.87668],[102,-11.74215],[102.5,-11.60331],[103,-11.46013],[103.5,-11.31257],[104,-11.1606],[104.5,-11.00418],[105,-10.84331],[105.5,-10.67794],[106,-10.50806],[106.5,-10.33365],[107,-10.15471],[107.5,-9.97122],[108,-9.78318],[108.5,-9.5906],[109,-9.39348],[109.5,-9.19184],[110,-8.9857],[110.5,-8.77508],[111,-8.56001],[111.5,-8.34053],[112,-8.1167],[112.5,-7.88856],[113,-7.65617],[113.5,-7.41961],[114,-7.17894],[114.5,-6.93426],[115,-6.68565],[115.5,-6.43321],[116,-6.17705],[116.5,-5.91729],[117,-5.65405],[117.5,-5.38746],[118,-5.11765],[118.5,-4.84476],[119,-4.56895],[119.5,-4.29038],[120,-4.0092],[120.5,-3.72558],[121,-3.43969],[121.5,-3.1517],[122,-2.86179],[122.5,-2.57014],[123,-2.27694],[123.5,-1.98236],[124,-1.68658],[124.5,-1.3898],[125,-1.09219],[125.5,-0.79393],[126,-0.49521],[126.5,-0.19619],[127,0.10294],[127.5,0.40202],[128,0.70088],[128.5,0.99937],[129,1.29732],[129.5,1.59458],[130,1.89102],[130.5,2.18649],[131,2.48085],[131.5,2.77398],[132,3.06577],[132.5,3.35608],[133,3.64482],[133.5,3.93188],[134,4.21717],[134.5,4.5006],[135,4.78208],[135.5,5.06153],[136,5.33888],[136.5,5.61407],[137,5.88703],[137.5,6.15771],[138,6.42605],[138.5,6.69202],[139,6.95557],[139.5,7.21665],[140,7.47525],[140.5,7.73133],[141,7.98486],[141.5,8.23582],[142,8.48421],[142.5,8.72999],[143,8.97316],[143.5,9.21372],[144,9.45165],[144.5,9.68695],[145,9.91962],[145.5,10.14965],[146,10.37706],[146.5,10.60185],[147,10.82402],[147.5,11.04358],[148,11.26054],[148.5,11.47491],[149,11.6867],[149.5,11.89593],[150,12.1026],[150.5,12.30674],[151,12.50835],[151.5,12.70746],[152,12.90409],[152.5,13.09824],[153,13.28993],[153.5,13.47919],[154,13.66604],[154.5,13.85049],[155,14.03257],[155.5,14.21228],[156,14.38966],[156.5,14.56472],[157,14.73749],[157.5,14.90798],[158,15.07621],[158.5,15.24221],[159,15.406],[159.5,15.56759],[160,15.727],[160.5,15.88427],[161,16.0394],[161.5,16.19242],[162,16.34335],[162.5,16.4922],[163,16.63901],[163.5,16.78378],[164,16.92654],[164.5,17.0673],[165,17.20609],[165.5,17.34293],[166,17.47783],[166.5,17.61082],[167,17.7419],[167.5,17.87111],[168,17.99845],[168.5,18.12396],[169,18.24763],[169.5,18.3695],[170,18.48958],[170.5,18.60788],[171,18.72442],[171.5,18.83923],[172,18.95231],[172.5,19.06369],[173,19.17337],[173.5,19.28138],[174,19.38773],[174.5,19.49243],[175,19.59551],[175.5,19.69697],[176,19.79683],[176.5,19.89511],[177,19.99181],[177.5,20.08696],[178,20.18057],[178.10742,20.20048]]}},{"type":"Feature","id":"+07140815:north:0","properties":{"id":"+07140815","year":714,"month":8,"day":15,"time_tdt":"00:59:30","type":"금환일식","type_code":"A","saros":95,"gamma":-0.14487,"magnitude":0.94204,"greatest":{"lat":5.40502,"lng":178.98224},"path_width_km":216.5,"duration":"07m46s","delta_t_seconds":3662.8,"catalog_number":6475,"source":"NASA Five Millennium Canon of Solar Eclipses","source_url":"https://eclipse.gsfc.nasa.gov/SEsearch/SEsearchmap.php?Ecl=%2B07140815","boundary":"north","name":"714-08-15 금환일식"},"geometry":{"type":"LineString","coordinates":[[118.72461,6.53535],[119,6.60045],[119.5,6.7182],[120,6.83535],[120.5,6.95188],[121,7.06777],[121.5,7.18302],[122,7.29759],[122.5,7.41146],[123,7.52463],[123.5,7.63707],[124,7.74875],[124.5,7.85967],[125,7.96979],[125.5,8.07909],[126,8.18756],[126.5,8.29518],[127,8.4019],[127.5,8.50773],[128,8.61262],[128.5,8.71657],[129,8.81953],[129.5,8.92149],[130,9.02243],[130.5,9.1223],[131,9.2211],[131.5,9.31879],[132,9.41534],[132.5,9.51072],[133,9.60491],[133.5,9.69787],[134,9.78958],[134.5,9.88],[135,9.9691],[135.5,10.05685],[136,10.14322],[136.5,10.22817],[137,10.31167],[137.5,10.39369],[138,10.47418],[138.5,10.55311],[139,10.63044],[139.5,10.70614],[140,10.78017],[140.5,10.85248],[141,10.92304],[141.5,10.9918],[142,11.05872],[142.5,11.12375],[143,11.18687],[143.5,11.248],[144,11.30712],[144.5,11.36418],[145,11.41911],[145.5,11.47189],[146,11.52245],[146.5,11.57074],[147,11.61671],[147.5,11.66031],[148,11.70149],[148.5,11.74017],[149,11.77632],[149.5,11.80986],[150,11.84074],[150.5,11.8689],[151,11.89428],[151.5,11.9168],[152,11.93641],[152.5,11.95304],[153,11.96662],[153.5,11.97709],[154,11.98436],[154.5,11.98837],[155,11.98904],[155.5,11.98631],[156,11.98008],[156.5,11.97029],[157,11.95686],[157.5,11.9397],[158,11.91874],[158.5,11.89388],[159,11.86505],[159.5,11.83215],[160,11.79511],[160.5,11.75383],[161,11.70822],[161.5,11.65819],[162,11.60366],[162.5,11.54453],[163,11.48071],[163.5,11.4121],[164,11.33861],[164.5,11.26015],[165,11.17663],[165.5,11.08795],[166,10.99403],[166.5,10.89476],[167,10.79007],[167.5,10.67987],[168,10.56406],[168.5,10.44257],[169,10.31532],[169.5,10.18224],[170,10.04324],[170.5,9.89827],[171,9.74726],[171.5,9.59017],[172,9.42692],[172.5,9.2575],[173,9.08186],[173.5,8.89998],[174,8.71185],[174.5,8.51746],[175,8.31682],[175.5,8.10994],[176,7.89686],[176.5,7.67763],[177,7.4523],[177.5,7.22094],[178,6.98364],[178.5,6.7405],[179,6.49164],[179.5,6.2372],[180,5.97732]]}},{"type":"Feature","id":"+07140815:north:1","properties":{"id":"+07140815","year":714,"month":8,"day":15,"time_tdt":"00:59:30","type":"금환일식","type_code":"A","saros":95,"gamma":-0.14487,"magnitude":0.94204,"greatest":{"lat":5.40502,"lng":178.98224},"path_width_km":216.5,"duration":"07m46s","delta_t_seconds":3662.8,"catalog_number":6475,"source":"NASA Five Millennium Canon of Solar Eclipses","source_url":"https://eclipse.gsfc.nasa.gov/SEsearch/SEsearchmap.php?Ecl=%2B07140815","boundary":"north","name":"714-08-15 금환일식"},"geometry":{"type":"LineString","coordinates":[[-179.5,5.71216],[-179,5.44191],[-178.5,5.16676],[-178,4.8869],[-177.5,4.60257],[-177,4.31399],[-176.5,4.02141],[-176,3.72508],[-175.5,3.42525],[-175,3.1222],[-174.5,2.8162],[-174,2.50753],[-173.5,2.19647],[-173,1.8833],[-172.5,1.56829],[-172,1.25174],[-171.5,0.93392],[-171,0.61509],[-170.5,0.29553],[-170,-0.02451],[-169.5,-0.34477],[-169,-0.66501],[-168.5,-0.985],[-168,-1.30451],[-167.5,-1.62334],[-167,-1.94127],[-166.5,-2.25812],[-166,-2.5737],[-165.5,-2.88785],[-165,-3.20041],[-164.5,-3.51124],[-164,-3.82019],[-163.5,-4.12714],[-163,-4.43197],[-162.5,-4.73459],[-162,-5.03489],[-161.5,-5.33279],[-161,-5.62821],[-160.5,-5.92109],[-160,-6.21135],[-159.5,-6.49895],[-159,-6.78384],[-158.5,-7.06597],[-158,-7.34532],[-157.5,-7.62186],[-157,-7.89556],[-156.5,-8.1664],[-156,-8.43437],[-155.5,-8.69945],[-155,-8.96165],[-154.5,-9.22096],[-154,-9.47739],[-153.5,-9.73092],[-153,-9.98158],[-152.5,-10.22937],[-152,-10.4743],[-151.5,-10.71638],[-151,-10.95564],[-150.5,-11.19207],[-150,-11.42572],[-149.5,-11.65658],[-149,-11.88469],[-148.5,-12.11007],[-148,-12.33273],[-147.5,-12.5527],[-147,-12.77001],[-146.5,-12.98467],[-146,-13.19672],[-145.5,-13.40617],[-145,-13.61306],[-144.5,-13.81741],[-144,-14.01924],[-143.5,-14.21859],[-143,-14.41547],[-142.5,-14.60992],[-142,-14.80195],[-141.5,-14.9916],[-141,-15.17889],[-140.5,-15.36385],[-140,-15.5465],[-139.5,-15.72687],[-139,-15.90499],[-138.5,-16.08087],[-138,-16.25455],[-137.5,-16.42605],[-137,-16.59539],[-136.5,-16.7626],[-136,-16.9277],[-135.5,-17.09072],[-135,-17.25167],[-134.5,-17.41059],[-134,-17.56749],[-133.5,-17.72239],[-133,-17.87533],[-132.5,-18.02631],[-132,-18.17537],[-131.5,-18.32252],[-131,-18.46779],[-130.5,-18.61119],[-130,-18.75275],[-129.5,-18.89248],[-129,-19.0304],[-128.5,-19.16655],[-128,-19.30092],[-127.5,-19.43355],[-127,-19.56444],[-126.5,-19.69363],[-126,-19.82112],[-125.5,-19.94693],[-125,-20.07109],[-124.5,-20.19361],[-124,-20.3145],[-123.5,-20.43378],[-123.45703,-20.44396]]}},{"type":"Feature","id":"+07140815:center:0","properties":{"id":"+07140815","year":714,"month":8,"day":15,"time_tdt":"00:59:30","type":"금환일식","type_code":"A","saros":95,"gamma":-0.14487,"magnitude":0.94204,"greatest":{"lat":5.40502,"lng":178.98224},"path_width_km":216.5,"duration":"07m46s","delta_t_seconds":3662.8,"catalog_number":6475,"source":"NASA Five Millennium Canon of Solar Eclipses","source_url":"https://eclipse.gsfc.nasa.gov/SEsearch/SEsearchmap.php?Ecl=%2B07140815","boundary":"center","name":"714-08-15 금환일식"},"geometry":{"type":"LineString","coordinates":[[119.0064,5.3418],[119.5,5.46051],[120,5.58044],[120.5,5.69976],[121,5.81846],[121.5,5.93652],[122,6.05393],[122.5,6.17066],[123,6.28669],[123.5,6.40201],[124,6.51659],[124.5,6.63041],[125,6.74345],[125.5,6.85569],[126,6.96711],[126.5,7.07768],[127,7.18738],[127.5,7.29619],[128,7.40408],[128.5,7.51103],[129,7.61701],[129.5,7.722],[130,7.82597],[130.5,7.92889],[131,8.03074],[131.5,8.13149],[132,8.23111],[132.5,8.32958],[133,8.42685],[133.5,8.5229],[134,8.61771],[134.5,8.71123],[135,8.80344],[135.5,8.8943],[136,8.98378],[136.5,9.07185],[137,9.15846],[137.5,9.24359],[138,9.32719],[138.5,9.40924],[139,9.48968],[139.5,9.56848],[140,9.64561],[140.5,9.72101],[141,9.79466],[141.5,9.86649],[142,9.93648],[142.5,10.00457],[143,10.07073],[143.5,10.1349],[144,10.19703],[144.5,10.25708],[145,10.315],[145.5,10.37073],[146,10.42422],[146.5,10.47543],[147,10.52428],[147.5,10.57074],[148,10.61474],[148.5,10.65622],[149,10.69513],[149.5,10.7314],[150,10.76496],[150.5,10.79577],[151,10.82374],[151.5,10.84882],[152,10.87094],[152.5,10.89002],[153,10.906],[153.5,10.9188],[154,10.92835],[154.5,10.93457],[155,10.93739],[155.5,10.93673],[156,10.93251],[156.5,10.92465],[157,10.91306],[157.5,10.89765],[158,10.87835],[158.5,10.85507],[159,10.82771],[159.5,10.7962],[160,10.76042],[160.5,10.7203],[161,10.67574],[161.5,10.62665],[162,10.57292],[162.5,10.51447],[163,10.45119],[163.5,10.38299],[164,10.30978],[164.5,10.23145],[165,10.14791],[165.5,10.05905],[166,9.9648],[166.5,9.86505],[167,9.7597],[167.5,9.64868],[168,9.53188],[168.5,9.40923],[169,9.28065],[169.5,9.14605],[170,9.00536],[170.5,8.85852],[171,8.70547],[171.5,8.54614],[172,8.3805],[172.5,8.2085],[173,8.03012],[173.5,7.84533],[174,7.65412],[174.5,7.45649],[175,7.25246],[175.5,7.04206],[176,6.82532],[176.5,6.6023],[177,6.37307],[177.5,6.1377],[178,5.89631],[178.5,5.649],[179,5.3959],[179.5,5.13717],[180,4.87297]]}},{"type":"Feature","id":"+07140815:center:1","properties":{"id":"+07140815","year":714,"month":8,"day":15,"time_tdt":"00:59:30","type":"금환일식","type_code":"A","saros":95,"gamma":-0.14487,"magnitude":0.94204,"greatest":{"lat":5.40502,"lng":178.98224},"path_width_km":216.5,"duration":"07m46s","delta_t_seconds":3662.8,"catalog_number":6475,"source":"NASA Five Millennium Canon of Solar Eclipses","source_url":"https://eclipse.gsfc.nasa.gov/SEsearch/SEsearchmap.php?Ecl=%2B07140815","boundary":"center","name":"714-08-15 금환일식"},"geometry":{"type":"LineString","coordinates":[[-179.5,4.60347],[-179,4.32887],[-178.5,4.04937],[-178,3.7652],[-177.5,3.47659],[-177,3.18379],[-176.5,2.88706],[-176,2.58665],[-175.5,2.28284],[-175,1.97591],[-174.5,1.66614],[-174,1.35383],[-173.5,1.03924],[-173,0.72269],[-172.5,0.40444],[-172,0.08479],[-171.5,-0.23599],[-171,-0.55763],[-170.5,-0.87986],[-170,-1.20241],[-169.5,-1.52505],[-169,-1.84753],[-168.5,-2.16962],[-168,-2.49111],[-167.5,-2.81177],[-167,-3.13143],[-166.5,-3.44988],[-166,-3.76697],[-165.5,-4.08252],[-165,-4.39638],[-164.5,-4.70841],[-164,-5.01849],[-163.5,-5.32649],[-163,-5.63231],[-162.5,-5.93585],[-162,-6.23701],[-161.5,-6.53572],[-161,-6.83191],[-160.5,-7.12551],[-160,-7.41646],[-159.5,-7.70472],[-159,-7.99023],[-158.5,-8.27298],[-158,-8.55292],[-157.5,-8.83003],[-157,-9.10429],[-156.5,-9.37569],[-156,-9.64421],[-155.5,-9.90985],[-155,-10.1726],[-154.5,-10.43246],[-154,-10.68944],[-153.5,-10.94354],[-153,-11.19477],[-152.5,-11.44314],[-152,-11.68866],[-151.5,-11.93134],[-151,-12.17121],[-150.5,-12.40828],[-150,-12.64257],[-149.5,-12.87409],[-149,-13.10288],[-148.5,-13.32894],[-148,-13.55231],[-147.5,-13.77301],[-147,-13.99105],[-146.5,-14.20648],[-146,-14.4193],[-145.5,-14.62955],[-145,-14.83725],[-144.5,-15.04243],[-144,-15.24511],[-143.5,-15.44532],[-143,-15.64309],[-142.5,-15.83844],[-142,-16.03139],[-141.5,-16.22197],[-141,-16.41022],[-140.5,-16.59615],[-140,-16.77978],[-139.5,-16.96115],[-139,-17.14029],[-138.5,-17.3172],[-138,-17.49193],[-137.5,-17.66449],[-137,-17.83491],[-136.5,-18.00321],[-136,-18.16941],[-135.5,-18.33354],[-135,-18.49563],[-134.5,-18.65569],[-134,-18.81375],[-133.5,-18.96982],[-133,-19.12394],[-132.5,-19.27612],[-132,-19.42639],[-131.5,-19.57475],[-131,-19.72125],[-130.5,-19.86589],[-130,-20.00869],[-129.5,-20.14968],[-129,-20.28887],[-128.5,-20.42629],[-128,-20.56195],[-127.5,-20.69587],[-127,-20.82807],[-126.5,-20.95857],[-126,-21.08738],[-125.5,-21.21452],[-125,-21.34001],[-124.5,-21.46387],[-124,-21.58611],[-123.78361,-21.64411]]}},{"type":"Feature","id":"+07140815:south:0","properties":{"id":"+07140815","year":714,"month":8,"day":15,"time_tdt":"00:59:30","type":"금환일식","type_code":"A","saros":95,"gamma":-0.14487,"magnitude":0.94204,"greatest":{"lat":5.40502,"lng":178.98224},"path_width_km":216.5,"duration":"07m46s","delta_t_seconds":3662.8,"catalog_number":6475,"source":"NASA Five Millennium Canon of Solar Eclipses","source_url":"https://eclipse.gsfc.nasa.gov/SEsearch/SEsearchmap.php?Ecl=%2B07140815","boundary":"south","name":"714-08-15 금환일식"},"geometry":{"type":"LineString","coordinates":[[119.27344,4.14364],[119.5,4.19943],[120,4.32212],[120.5,4.44423],[121,4.56573],[121.5,4.68661],[122,4.80685],[122.5,4.92642],[123,5.04531],[123.5,5.1635],[124,5.28097],[124.5,5.39769],[125,5.51365],[125.5,5.62882],[126,5.74318],[126.5,5.8567],[127,5.96937],[127.5,6.08116],[128,6.19204],[128.5,6.30199],[129,6.41098],[129.5,6.519],[130,6.626],[130.5,6.73197],[131,6.83687],[131.5,6.94068],[132,7.04337],[132.5,7.14491],[133,7.24527],[133.5,7.34441],[134,7.44231],[134.5,7.53894],[135,7.63425],[135.5,7.72822],[136,7.82081],[136.5,7.91199],[137,8.00172],[137.5,8.08997],[138,8.17669],[138.5,8.26184],[139,8.3454],[139.5,8.42731],[140,8.50754],[140.5,8.58604],[141,8.66277],[141.5,8.73769],[142,8.81075],[142.5,8.8819],[143,8.9511],[143.5,9.0183],[144,9.08346],[144.5,9.14651],[145,9.20741],[145.5,9.2661],[146,9.32254],[146.5,9.37666],[147,9.42841],[147.5,9.47773],[148,9.52456],[148.5,9.56884],[149,9.61051],[149.5,9.64951],[150,9.68577],[150.5,9.71922],[151,9.7498],[151.5,9.77743],[152,9.80206],[152.5,9.82359],[153,9.84197],[153.5,9.85711],[154,9.86894],[154.5,9.87737],[155,9.88234],[155.5,9.88375],[156,9.88152],[156.5,9.87557],[157,9.86581],[157.5,9.85215],[158,9.8345],[158.5,9.81278],[159,9.78688],[159.5,9.75671],[160,9.72219],[160.5,9.6832],[161,9.63965],[161.5,9.59145],[162,9.53849],[162.5,9.48067],[163,9.4179],[163.5,9.35006],[164,9.27706],[164.5,9.1988],[165,9.11517],[165.5,9.02608],[166,8.93142],[166.5,8.8311],[167,8.72501],[167.5,8.61308],[168,8.4952],[168.5,8.37129],[169,8.24126],[169.5,8.10504],[170,7.96256],[170.5,7.81373],[171,7.65851],[171.5,7.49684],[172,7.32867],[172.5,7.15397],[173,6.97271],[173.5,6.78487],[174,6.59046],[174.5,6.38947],[175,6.18193],[175.5,5.96788],[176,5.74736],[176.5,5.52043],[177,5.28719],[177.5,5.04772],[178,4.80214],[178.5,4.55057],[179,4.29316],[179.5,4.03008],[180,3.7615]]}},{"type":"Feature","id":"+07140815:south:1","properties":{"id":"+07140815","year":714,"month":8,"day":15,"time_tdt":"00:59:30","type":"금환일식","type_code":"A","saros":95,"gamma":-0.14487,"magnitude":0.94204,"greatest":{"lat":5.40502,"lng":178.98224},"path_width_km":216.5,"duration":"07m46s","delta_t_seconds":3662.8,"catalog_number":6475,"source":"NASA Five Millennium Canon of Solar Eclipses","source_url":"https://eclipse.gsfc.nasa.gov/SEsearch/SEsearchmap.php?Ecl=%2B07140815","boundary":"south","name":"714-08-15 금환일식"},"geometry":{"type":"LineString","coordinates":[[-179.5,3.48762],[-179,3.20864],[-178.5,2.92479],[-178,2.6363],[-177.5,2.34343],[-177,2.04643],[-176.5,1.74558],[-176,1.44114],[-175.5,1.13341],[-175,0.82267],[-174.5,0.50922],[-174,0.19335],[-173.5,-0.12466],[-173,-0.44449],[-172.5,-0.76587],[-172,-1.08851],[-171.5,-1.41213],[-171,-1.73645],[-170.5,-2.06122],[-170,-2.38617],[-169.5,-2.71106],[-169,-3.03565],[-168.5,-3.35972],[-168,-3.68306],[-167.5,-4.00545],[-167,-4.32671],[-166.5,-4.64667],[-166,-4.96514],[-165.5,-5.28199],[-165,-5.59705],[-164.5,-5.91021],[-164,-6.22133],[-163.5,-6.5303],[-163,-6.83703],[-162.5,-7.14141],[-162,-7.44337],[-161.5,-7.74283],[-161,-8.03972],[-160.5,-8.33399],[-160,-8.62558],[-159.5,-8.91445],[-159,-9.20056],[-158.5,-9.48388],[-158,-9.76437],[-157.5,-10.04203],[-157,-10.31683],[-156.5,-10.58876],[-156,-10.85781],[-155.5,-11.12397],[-155,-11.38725],[-154.5,-11.64765],[-154,-11.90517],[-153.5,-12.15982],[-153,-12.41161],[-152.5,-12.66055],[-152,-12.90665],[-151.5,-13.14993],[-151,-13.39041],[-150.5,-13.6281],[-150,-13.86303],[-149.5,-14.09521],[-149,-14.32466],[-148.5,-14.55141],[-148,-14.77549],[-147.5,-14.99691],[-147,-15.2157],[-146.5,-15.43188],[-146,-15.64548],[-145.5,-15.85653],[-145,-16.06504],[-144.5,-16.27105],[-144,-16.47458],[-143.5,-16.67566],[-143,-16.87431],[-142.5,-17.07056],[-142,-17.26443],[-141.5,-17.45595],[-141,-17.64514],[-140.5,-17.83204],[-140,-18.01666],[-139.5,-18.19904],[-139,-18.37919],[-138.5,-18.55713],[-138,-18.73291],[-137.5,-18.90653],[-137,-19.07802],[-136.5,-19.24741],[-136,-19.41472],[-135.5,-19.57998],[-135,-19.74319],[-134.5,-19.9044],[-134,-20.06361],[-133.5,-20.22086],[-133,-20.37616],[-132.5,-20.52953],[-132,-20.681],[-131.5,-20.83058],[-131,-20.9783],[-130.5,-21.12417],[-130,-21.26822],[-129.5,-21.41047],[-129,-21.55093],[-128.5,-21.68962],[-128,-21.82656],[-127.5,-21.96178],[-127,-22.09528],[-126.5,-22.22708],[-126,-22.35721],[-125.5,-22.48568],[-125,-22.6125],[-124.5,-22.7377],[-124.25,-22.79969]]}}],"attribution":"Eclipse Predictions by Fred Espenak and Jean Meeus (NASA's GSFC)","generated_at":"2026-09-23T01:44:55.277Z"}
