{"type":"FeatureCollection","year":730,"events":[{"id":"+07300422","year":730,"month":4,"day":22,"time_tdt":"01:50:35","type":"부분일식","type_code":"P","saros":108,"gamma":-1.1522,"magnitude":0.70442,"greatest":{"lat":-70.79847,"lng":-145.75726},"path_width_km":0,"duration":"00m00s","delta_t_seconds":3525.1,"catalog_number":6513,"source":"NASA Five Millennium Canon of Solar Eclipses","source_url":"https://eclipse.gsfc.nasa.gov/SEsearch/SEsearchmap.php?Ecl=%2B07300422"},{"id":"+07301016","year":730,"month":10,"day":16,"time_tdt":"16:04:50","type":"부분일식","type_code":"P","saros":113,"gamma":1.18235,"magnitude":0.65903,"greatest":{"lat":71.1599,"lng":7.77399},"path_width_km":0,"duration":"00m00s","delta_t_seconds":3520.9,"catalog_number":6514,"source":"NASA Five Millennium Canon of Solar Eclipses","source_url":"https://eclipse.gsfc.nasa.gov/SEsearch/SEsearchmap.php?Ecl=%2B07301016"}],"features":[],"attribution":"Eclipse Predictions by Fred Espenak and Jean Meeus (NASA's GSFC)","generated_at":"2026-09-23T01:44:55.279Z"}
