{"type":"FeatureCollection","year":732,"events":[{"id":"+07320301","year":732,"month":3,"day":1,"time_tdt":"13:43:50","type":"개기일식","type_code":"T","saros":90,"gamma":0.12261,"magnitude":1.06109,"greatest":{"lat":0.68169,"lng":-10.20251},"path_width_km":202,"duration":"05m32s","delta_t_seconds":3508.9,"catalog_number":6517,"source":"NASA Five Millennium Canon of Solar Eclipses","source_url":"https://eclipse.gsfc.nasa.gov/SEsearch/SEsearchmap.php?Ecl=%2B07320301"},{"id":"+07320825","year":732,"month":8,"day":25,"time_tdt":"07:54:41","type":"금환일식","type_code":"A","saros":95,"gamma":-0.20662,"magnitude":0.94012,"greatest":{"lat":-1.78348,"lng":72.68292},"path_width_km":226.5,"duration":"07m55s","delta_t_seconds":3504.7,"catalog_number":6518,"source":"NASA Five Millennium Canon of Solar Eclipses","source_url":"https://eclipse.gsfc.nasa.gov/SEsearch/SEsearchmap.php?Ecl=%2B07320825"}],"features":[{"type":"Feature","id":"+07320301:north:0","properties":{"id":"+07320301","year":732,"month":3,"day":1,"time_tdt":"13:43:50","type":"개기일식","type_code":"T","saros":90,"gamma":0.12261,"magnitude":1.06109,"greatest":{"lat":0.68169,"lng":-10.20251},"path_width_km":202,"duration":"05m32s","delta_t_seconds":3508.9,"catalog_number":6517,"source":"NASA Five Millennium Canon of Solar Eclipses","source_url":"https://eclipse.gsfc.nasa.gov/SEsearch/SEsearchmap.php?Ecl=%2B07320301","boundary":"north","name":"732-03-01 개기일식"},"geometry":{"type":"LineString","coordinates":[[-73.63281,-9.50305],[-73.5,-9.51663],[-73,-9.56704],[-72.5,-9.61631],[-72,-9.66444],[-71.5,-9.71141],[-71,-9.75719],[-70.5,-9.80178],[-70,-9.84515],[-69.5,-9.88728],[-69,-9.92817],[-68.5,-9.96779],[-68,-10.00612],[-67.5,-10.04315],[-67,-10.07886],[-66.5,-10.11322],[-66,-10.14622],[-65.5,-10.17784],[-65,-10.20806],[-64.5,-10.23686],[-64,-10.26421],[-63.5,-10.29011],[-63,-10.31452],[-62.5,-10.33742],[-62,-10.3588],[-61.5,-10.37862],[-61,-10.39688],[-60.5,-10.41354],[-60,-10.42858],[-59.5,-10.44197],[-59,-10.45371],[-58.5,-10.46374],[-58,-10.47207],[-57.5,-10.47865],[-57,-10.48346],[-56.5,-10.48648],[-56,-10.48768],[-55.5,-10.48703],[-55,-10.4845],[-54.5,-10.48007],[-54,-10.4737],[-53.5,-10.46538],[-53,-10.45506],[-52.5,-10.44272],[-52,-10.42832],[-51.5,-10.41184],[-51,-10.39325],[-50.5,-10.3725],[-50,-10.34958],[-49.5,-10.32444],[-49,-10.29705],[-48.5,-10.26738],[-48,-10.23539],[-47.5,-10.20104],[-47,-10.1643],[-46.5,-10.12514],[-46,-10.08351],[-45.5,-10.03937],[-45,-9.99269],[-44.5,-9.94343],[-44,-9.89155],[-43.5,-9.83701],[-43,-9.77976],[-42.5,-9.71976],[-42,-9.65698],[-41.5,-9.59136],[-41,-9.52287],[-40.5,-9.45146],[-40,-9.37709],[-39.5,-9.29971],[-39,-9.21927],[-38.5,-9.13574],[-38,-9.04906],[-37.5,-8.95918],[-37,-8.86606],[-36.5,-8.76966],[-36,-8.66992],[-35.5,-8.56679],[-35,-8.46024],[-34.5,-8.3502],[-34,-8.23664],[-33.5,-8.1195],[-33,-7.99874],[-32.5,-7.8743],[-32,-7.74615],[-31.5,-7.61424],[-31,-7.47852],[-30.5,-7.33894],[-30,-7.19546],[-29.5,-7.04805],[-29,-6.89665],[-28.5,-6.74123],[-28,-6.58175],[-27.5,-6.41817],[-27,-6.25047],[-26.5,-6.0786],[-26,-5.90255],[-25.5,-5.72228],[-25,-5.53777],[-24.5,-5.34901],[-24,-5.15598],[-23.5,-4.95867],[-23,-4.75707],[-22.5,-4.55118],[-22,-4.34101],[-21.5,-4.12656],[-21,-3.90785],[-20.5,-3.68491],[-20,-3.45776],[-19.5,-3.22643],[-19,-2.99097],[-18.5,-2.75144],[-18,-2.50787],[-17.5,-2.26035],[-17,-2.00894],[-16.5,-1.75373],[-16,-1.49481],[-15.5,-1.23227],[-15,-0.96622],[-14.5,-0.69678],[-14,-0.42408],[-13.5,-0.14823],[-13,0.1306],[-12.5,0.41229],[-12,0.69667],[-11.5,0.98359],[-11,1.27286],[-10.5,1.56433],[-10,1.85781],[-9.5,2.15312],[-9,2.45007],[-8.5,2.74846],[-8,3.04812],[-7.5,3.34883],[-7,3.65042],[-6.5,3.95267],[-6,4.2554],[-5.5,4.55841],[-5,4.86151],[-4.5,5.16451],[-4,5.46723],[-3.5,5.76948],[-3,6.07109],[-2.5,6.37188],[-2,6.6717],[-1.5,6.97038],[-1,7.26776],[-0.5,7.56371],[0,7.85807],[0.5,8.15072],[1,8.44154],[1.5,8.7304],[2,9.01719],[2.5,9.30181],[3,9.58416],[3.5,9.86415],[4,10.1417],[4.5,10.41674],[5,10.68918],[5.5,10.95898],[6,11.22606],[6.5,11.49039],[7,11.75192],[7.5,12.01059],[8,12.26639],[8.5,12.51928],[9,12.76924],[9.5,13.01624],[10,13.26026],[10.5,13.5013],[11,13.73934],[11.5,13.97438],[12,14.20642],[12.5,14.43545],[13,14.66147],[13.5,14.8845],[14,15.10454],[14.5,15.3216],[15,15.53569],[15.5,15.74682],[16,15.95501],[16.5,16.16028],[17,16.36264],[17.5,16.56212],[18,16.75872],[18.5,16.95248],[19,17.14342],[19.5,17.33155],[20,17.5169],[20.5,17.6995],[21,17.87937],[21.5,18.05653],[22,18.23101],[22.5,18.40284],[23,18.57204],[23.5,18.73863],[24,18.90265],[24.5,19.06411],[25,19.22305],[25.5,19.3795],[26,19.53347],[26.5,19.68499],[27,19.8341],[27.5,19.98081],[28,20.12515],[28.5,20.26715],[29,20.40683],[29.5,20.54422],[30,20.67934],[30.5,20.81222],[31,20.94288],[31.5,21.07135],[32,21.19765],[32.5,21.32181],[33,21.44384],[33.5,21.56378],[34,21.68164],[34.5,21.79745],[35,21.91122],[35.5,22.02299],[36,22.13278],[36.5,22.2406],[37,22.34647],[37.5,22.45043],[38,22.55248],[38.5,22.65265],[39,22.75096],[39.5,22.84743],[40,22.94208],[40.5,23.03492],[41,23.12598],[41.5,23.21528],[42,23.30283],[42.5,23.38865],[43,23.47276],[43.5,23.55518],[44,23.63592],[44.5,23.71501],[45,23.79245],[45.5,23.86827],[46,23.94248],[46.5,24.01509],[47,24.08613],[47.5,24.1556],[48,24.22353],[48.5,24.28993],[49,24.35481],[49.5,24.41819],[50,24.48008],[50.5,24.5405],[51,24.59945],[51.5,24.65696],[52,24.71304],[52.5,24.7677],[53,24.82096],[53.5,24.87282]]}},{"type":"Feature","id":"+07320301:center:0","properties":{"id":"+07320301","year":732,"month":3,"day":1,"time_tdt":"13:43:50","type":"개기일식","type_code":"T","saros":90,"gamma":0.12261,"magnitude":1.06109,"greatest":{"lat":0.68169,"lng":-10.20251},"path_width_km":202,"duration":"05m32s","delta_t_seconds":3508.9,"catalog_number":6517,"source":"NASA Five Millennium Canon of Solar Eclipses","source_url":"https://eclipse.gsfc.nasa.gov/SEsearch/SEsearchmap.php?Ecl=%2B07320301","boundary":"center","name":"732-03-01 개기일식"},"geometry":{"type":"LineString","coordinates":[[-73.68099,-10.14687],[-73.5,-10.16642],[-73,-10.21909],[-72.5,-10.27063],[-72,-10.32103],[-71.5,-10.37028],[-71,-10.41835],[-70.5,-10.46524],[-70,-10.51092],[-69.5,-10.55538],[-69,-10.5986],[-68.5,-10.64056],[-68,-10.68124],[-67.5,-10.72064],[-67,-10.75871],[-66.5,-10.79546],[-66,-10.83086],[-65.5,-10.86489],[-65,-10.89753],[-64.5,-10.92876],[-64,-10.95856],[-63.5,-10.98691],[-63,-11.01379],[-62.5,-11.03917],[-62,-11.06304],[-61.5,-11.08538],[-61,-11.10615],[-60.5,-11.12535],[-60,-11.14294],[-59.5,-11.1589],[-59,-11.17321],[-58.5,-11.18584],[-58,-11.19677],[-57.5,-11.20598],[-57,-11.21343],[-56.5,-11.2191],[-56,-11.22297],[-55.5,-11.22501],[-55,-11.22519],[-54.5,-11.22349],[-54,-11.21987],[-53.5,-11.2143],[-53,-11.20677],[-52.5,-11.19723],[-52,-11.18566],[-51.5,-11.17202],[-51,-11.15629],[-50.5,-11.13843],[-50,-11.11841],[-49.5,-11.0962],[-49,-11.07177],[-48.5,-11.04507],[-48,-11.01608],[-47.5,-10.98477],[-47,-10.95108],[-46.5,-10.91499],[-46,-10.87647],[-45.5,-10.83546],[-45,-10.79195],[-44.5,-10.74588],[-44,-10.69721],[-43.5,-10.64591],[-43,-10.59194],[-42.5,-10.53526],[-42,-10.47581],[-41.5,-10.41357],[-41,-10.34849],[-40.5,-10.28052],[-40,-10.20962],[-39.5,-10.13575],[-39,-10.05886],[-38.5,-9.9789],[-38,-9.89584],[-37.5,-9.80962],[-37,-9.72019],[-36.5,-9.62751],[-36,-9.53154],[-35.5,-9.43222],[-35,-9.3295],[-34.5,-9.22334],[-34,-9.1137],[-33.5,-9.00052],[-33,-8.88375],[-32.5,-8.76335],[-32,-8.63926],[-31.5,-8.51146],[-31,-8.37987],[-30.5,-8.24447],[-30,-8.1052],[-29.5,-7.96203],[-29,-7.81491],[-28.5,-7.66379],[-28,-7.50864],[-27.5,-7.34942],[-27,-7.1861],[-26.5,-7.01863],[-26,-6.84699],[-25.5,-6.67115],[-25,-6.49108],[-24.5,-6.30677],[-24,-6.11818],[-23.5,-5.92531],[-23,-5.72814],[-22.5,-5.52667],[-22,-5.3209],[-21.5,-5.11082],[-21,-4.89645],[-20.5,-4.6778],[-20,-4.45489],[-19.5,-4.22775],[-19,-3.99642],[-18.5,-3.76092],[-18,-3.52132],[-17.5,-3.27767],[-17,-3.03002],[-16.5,-2.77846],[-16,-2.52307],[-15.5,-2.26392],[-15,-2.00113],[-14.5,-1.73479],[-14,-1.46502],[-13.5,-1.19194],[-13,-0.91568],[-12.5,-0.63638],[-12,-0.35419],[-11.5,-0.06925],[-11,0.21826],[-10.5,0.50819],[-10,0.80036],[-9.5,1.09459],[-9,1.39069],[-8.5,1.68849],[-8,1.98779],[-7.5,2.2884],[-7,2.59012],[-6.5,2.89276],[-6,3.19611],[-5.5,3.49999],[-5,3.8042],[-4.5,4.10855],[-4,4.41284],[-3.5,4.71689],[-3,5.02051],[-2.5,5.32353],[-2,5.62578],[-1.5,5.92708],[-1,6.22728],[-0.5,6.52621],[0,6.82373],[0.5,7.1197],[1,7.41399],[1.5,7.70645],[2,7.99698],[2.5,8.28546],[3,8.57178],[3.5,8.85585],[4,9.13757],[4.5,9.41686],[5,9.69364],[5.5,9.96783],[6,10.23938],[6.5,10.50823],[7,10.77431],[7.5,11.0376],[8,11.29803],[8.5,11.55559],[9,11.81023],[9.5,12.06193],[10,12.31066],[10.5,12.55642],[11,12.79918],[11.5,13.03894],[12,13.27569],[12.5,13.50942],[13,13.74013],[13.5,13.96784],[14,14.19253],[14.5,14.41422],[15,14.63292],[15.5,14.84864],[16,15.06139],[16.5,15.27119],[17,15.47805],[17.5,15.68199],[18,15.88303],[18.5,16.08118],[19,16.27648],[19.5,16.46894],[20,16.65859],[20.5,16.84545],[21,17.02953],[21.5,17.21088],[22,17.3895],[22.5,17.56544],[23,17.7387],[23.5,17.90932],[24,18.07733],[24.5,18.24275],[25,18.40561],[25.5,18.56593],[26,18.72374],[26.5,18.87906],[27,19.03193],[27.5,19.18236],[28,19.33039],[28.5,19.47605],[29,19.61934],[29.5,19.76031],[30,19.89898],[30.5,20.03537],[31,20.16951],[31.5,20.30142],[32,20.43113],[32.5,20.55866],[33,20.68403],[33.5,20.80728],[34,20.92841],[34.5,21.04747],[35,21.16446],[35.5,21.27941],[36,21.39234],[36.5,21.50328],[37,21.61225],[37.5,21.71927],[38,21.82436],[38.5,21.92754],[39,22.02882],[39.5,22.12824],[40,22.22582],[40.5,22.32156],[41,22.41549],[41.5,22.50763],[42,22.598],[42.5,22.68662],[43,22.7735],[43.5,22.85867],[44,22.94213],[44.5,23.02392],[45,23.10403],[45.5,23.1825],[46,23.25934],[46.5,23.33457],[47,23.40819],[47.5,23.48023],[48,23.55071],[48.5,23.61963],[49,23.68701],[49.5,23.75287],[50,23.81723],[50.5,23.88009],[51,23.94147],[51.5,24.00139],[52,24.05985],[52.5,24.11688],[53,24.17249],[53.5,24.22668],[53.62331,24.23945]]}},{"type":"Feature","id":"+07320301:south:0","properties":{"id":"+07320301","year":732,"month":3,"day":1,"time_tdt":"13:43:50","type":"개기일식","type_code":"T","saros":90,"gamma":0.12261,"magnitude":1.06109,"greatest":{"lat":0.68169,"lng":-10.20251},"path_width_km":202,"duration":"05m32s","delta_t_seconds":3508.9,"catalog_number":6517,"source":"NASA Five Millennium Canon of Solar Eclipses","source_url":"https://eclipse.gsfc.nasa.gov/SEsearch/SEsearchmap.php?Ecl=%2B07320301","boundary":"south","name":"732-03-01 개기일식"},"geometry":{"type":"LineString","coordinates":[[-73.73047,-10.79044],[-73.5,-10.81612],[-73,-10.87101],[-72.5,-10.92479],[-72,-10.97745],[-71.5,-11.02895],[-71,-11.07929],[-70.5,-11.12846],[-70,-11.17643],[-69.5,-11.22318],[-69,-11.26871],[-68.5,-11.31299],[-68,-11.356],[-67.5,-11.39773],[-67,-11.43815],[-66.5,-11.47726],[-66,-11.51503],[-65.5,-11.55143],[-65,-11.58646],[-64.5,-11.62009],[-64,-11.6523],[-63.5,-11.68308],[-63,-11.71239],[-62.5,-11.74022],[-62,-11.76655],[-61.5,-11.79136],[-61,-11.81462],[-60.5,-11.83631],[-60,-11.85641],[-59.5,-11.8749],[-59,-11.89175],[-58.5,-11.90693],[-58,-11.92043],[-57.5,-11.93222],[-57,-11.94227],[-56.5,-11.95055],[-56,-11.95705],[-55.5,-11.96174],[-55,-11.96458],[-54.5,-11.96555],[-54,-11.96463],[-53.5,-11.96178],[-53,-11.95697],[-52.5,-11.95018],[-52,-11.94138],[-51.5,-11.93053],[-51,-11.91761],[-50.5,-11.90259],[-50,-11.88542],[-49.5,-11.86608],[-49,-11.84455],[-48.5,-11.82077],[-48,-11.79472],[-47.5,-11.76637],[-47,-11.73568],[-46.5,-11.7026],[-46,-11.66712],[-45.5,-11.62919],[-45,-11.58876],[-44.5,-11.54582],[-44,-11.5003],[-43.5,-11.45219],[-43,-11.40143],[-42.5,-11.34798],[-42,-11.29181],[-41.5,-11.23287],[-41,-11.17112],[-40.5,-11.10652],[-40,-11.03902],[-39.5,-10.96859],[-39,-10.89517],[-38.5,-10.81872],[-38,-10.73919],[-37.5,-10.65654],[-37,-10.57073],[-36.5,-10.4817],[-36,-10.38942],[-35.5,-10.29382],[-35,-10.19487],[-34.5,-10.09252],[-34,-9.98671],[-33.5,-9.87741],[-33,-9.76456],[-32.5,-9.64812],[-32,-9.52803],[-31.5,-9.40425],[-31,-9.27674],[-30.5,-9.14544],[-30,-9.01032],[-29.5,-8.87132],[-29,-8.72841],[-28.5,-8.58153],[-28,-8.43066],[-27.5,-8.27574],[-27,-8.11674],[-26.5,-7.95363],[-26,-7.78636],[-25.5,-7.61491],[-25,-7.43925],[-24.5,-7.25935],[-24,-7.07519],[-23.5,-6.88675],[-23,-6.69401],[-22.5,-6.49695],[-22,-6.29558],[-21.5,-6.08989],[-21,-5.87989],[-20.5,-5.66557],[-20,-5.44695],[-19.5,-5.22406],[-19,-4.99691],[-18.5,-4.76554],[-18,-4.52999],[-17.5,-4.29031],[-17,-4.04655],[-16.5,-3.79878],[-16,-3.54705],[-15.5,-3.29146],[-15,-3.03209],[-14.5,-2.76903],[-14,-2.50239],[-13.5,-2.23228],[-13,-1.95882],[-12.5,-1.68214],[-12,-1.40238],[-11.5,-1.11967],[-11,-0.83418],[-10.5,-0.54607],[-10,-0.25549],[-9.5,0.03737],[-9,0.33235],[-8.5,0.62926],[-8,0.92791],[-7.5,1.22811],[-7,1.52967],[-6.5,1.83239],[-6,2.13608],[-5.5,2.44054],[-5,2.74557],[-4.5,3.05098],[-4,3.35657],[-3.5,3.66216],[-3,3.96754],[-2.5,4.27254],[-2,4.57698],[-1.5,4.88069],[-1,5.18348],[-0.5,5.4852],[0,5.7857],[0.5,6.08481],[1,6.38239],[1.5,6.67832],[2,6.97245],[2.5,7.26466],[3,7.55485],[3.5,7.84289],[4,8.12869],[4.5,8.41216],[5,8.6932],[5.5,8.97175],[6,9.24772],[6.5,9.52104],[7,9.79167],[7.5,10.05954],[8,10.3246],[8.5,10.58682],[9,10.84615],[9.5,11.10257],[10,11.35604],[10.5,11.60654],[11,11.85406],[11.5,12.09857],[12,12.34007],[12.5,12.57855],[13,12.81401],[13.5,13.04644],[14,13.27585],[14.5,13.50223],[15,13.72561],[15.5,13.94598],[16,14.16335],[16.5,14.37775],[17,14.58918],[17.5,14.79766],[18,15.00321],[18.5,15.20584],[19,15.40558],[19.5,15.60245],[20,15.79647],[20.5,15.98765],[21,16.17604],[21.5,16.36164],[22,16.54449],[22.5,16.7246],[23,16.90201],[23.5,17.07674],[24,17.24882],[24.5,17.41827],[25,17.58512],[25.5,17.74939],[26,17.91111],[26.5,18.07031],[27,18.22701],[27.5,18.38125],[28,18.53304],[28.5,18.68242],[29,18.8294],[29.5,18.97402],[30,19.11631],[30.5,19.25627],[31,19.39396],[31.5,19.52937],[32,19.66256],[32.5,19.79352],[33,19.9223],[33.5,20.04892],[34,20.17339],[34.5,20.29575],[35,20.41602],[35.5,20.53421],[36,20.65036],[36.5,20.76448],[37,20.8766],[37.5,20.98673],[38,21.09491],[38.5,21.20115],[39,21.30547],[39.5,21.4079],[40,21.50844],[40.5,21.60713],[41,21.70399],[41.5,21.79903],[42,21.89227],[42.5,21.98373],[43,22.07343],[43.5,22.16139],[44,22.24762],[44.5,22.33215],[45,22.41499],[45.5,22.49615],[46,22.57567],[46.5,22.65354],[47,22.72979],[47.5,22.80444],[48,22.8775],[48.5,22.94899],[49,23.01891],[49.5,23.0873],[50,23.15415],[50.5,23.21949],[51,23.28334],[51.5,23.3457],[52,23.40658],[52.5,23.46602],[53,23.524],[53.5,23.58056],[53.68164,23.60076]]}},{"type":"Feature","id":"+07320825:north:0","properties":{"id":"+07320825","year":732,"month":8,"day":25,"time_tdt":"07:54:41","type":"금환일식","type_code":"A","saros":95,"gamma":-0.20662,"magnitude":0.94012,"greatest":{"lat":-1.78348,"lng":72.68292},"path_width_km":226.5,"duration":"07m55s","delta_t_seconds":3504.7,"catalog_number":6518,"source":"NASA Five Millennium Canon of Solar Eclipses","source_url":"https://eclipse.gsfc.nasa.gov/SEsearch/SEsearchmap.php?Ecl=%2B07320825","boundary":"north","name":"732-08-25 금환일식"},"geometry":{"type":"LineString","coordinates":[[14.08008,5.14666],[14.5,5.21688],[15,5.29968],[15.5,5.38157],[16,5.46254],[16.5,5.54257],[17,5.62164],[17.5,5.69973],[18,5.77682],[18.5,5.85289],[19,5.92791],[19.5,6.00188],[20,6.07476],[20.5,6.14654],[21,6.21719],[21.5,6.28669],[22,6.35501],[22.5,6.42214],[23,6.48804],[23.5,6.5527],[24,6.61609],[24.5,6.67818],[25,6.73894],[25.5,6.79836],[26,6.85639],[26.5,6.91302],[27,6.96822],[27.5,7.02195],[28,7.07418],[28.5,7.1249],[29,7.17405],[29.5,7.22162],[30,7.26757],[30.5,7.31186],[31,7.35447],[31.5,7.39535],[32,7.43447],[32.5,7.4718],[33,7.5073],[33.5,7.54093],[34,7.57264],[34.5,7.60241],[35,7.63019],[35.5,7.65593],[36,7.6796],[36.5,7.70115],[37,7.72054],[37.5,7.73772],[38,7.75264],[38.5,7.76525],[39,7.77552],[39.5,7.78337],[40,7.78877],[40.5,7.79166],[41,7.79199],[41.5,7.7897],[42,7.78473],[42.5,7.77703],[43,7.76654],[43.5,7.75319],[44,7.73693],[44.5,7.71768],[45,7.69539],[45.5,7.66999],[46,7.64141],[46.5,7.60957],[47,7.57442],[47.5,7.53587],[48,7.49385],[48.5,7.44828],[49,7.39909],[49.5,7.3462],[50,7.28952],[50.5,7.22899],[51,7.1645],[51.5,7.09597],[52,7.02333],[52.5,6.94647],[53,6.86532],[53.5,6.77978],[54,6.68976],[54.5,6.59517],[55,6.49592],[55.5,6.39191],[56,6.28304],[56.5,6.16923],[57,6.05038],[57.5,5.92639],[58,5.79718],[58.5,5.66265],[59,5.52271],[59.5,5.37728],[60,5.22626],[60.5,5.06958],[61,4.90716],[61.5,4.73892],[62,4.56479],[62.5,4.38471],[63,4.19861],[63.5,4.00645],[64,3.80819],[64.5,3.60378],[65,3.39321],[65.5,3.17647],[66,2.95354],[66.5,2.72443],[67,2.48919],[67.5,2.24783],[68,2.00042],[68.5,1.74702],[69,1.48773],[69.5,1.22263],[70,0.95186],[70.5,0.67556],[71,0.39388],[71.5,0.107],[72,-0.1849],[72.5,-0.48159],[73,-0.78284],[73.5,-1.08843],[74,-1.39807],[74.5,-1.71151],[75,-2.02846],[75.5,-2.34861],[76,-2.67167],[76.5,-2.99733],[77,-3.32525],[77.5,-3.65513],[78,-3.98665],[78.5,-4.31947],[79,-4.65329],[79.5,-4.98778],[80,-5.32265],[80.5,-5.65758],[81,-5.99229],[81.5,-6.3265],[82,-6.65995],[82.5,-6.99236],[83,-7.32351],[83.5,-7.65315],[84,-7.98108],[84.5,-8.30709],[85,-8.631],[85.5,-8.95264],[86,-9.27183],[86.5,-9.58845],[87,-9.90235],[87.5,-10.21342],[88,-10.52155],[88.5,-10.82665],[89,-11.12863],[89.5,-11.42742],[90,-11.72296],[90.5,-12.0152],[91,-12.30408],[91.5,-12.58958],[92,-12.87166],[92.5,-13.1503],[93,-13.42549],[93.5,-13.69721],[94,-13.96547],[94.5,-14.23027],[95,-14.4916],[95.5,-14.74948],[96,-15.00392],[96.5,-15.25494],[97,-15.50255],[97.5,-15.74678],[98,-15.98766],[98.5,-16.2252],[99,-16.45944],[99.5,-16.69041],[100,-16.91813],[100.5,-17.14264],[101,-17.36398],[101.5,-17.58217],[102,-17.79724],[102.5,-18.00925],[103,-18.21821],[103.5,-18.42418],[104,-18.62717],[104.5,-18.82723],[105,-19.0244],[105.5,-19.21871],[106,-19.4102],[106.5,-19.59889],[107,-19.78484],[107.5,-19.96807],[108,-20.14862],[108.5,-20.32653],[109,-20.50182],[109.5,-20.67454],[110,-20.84471],[110.5,-21.01237],[111,-21.17756],[111.5,-21.3403],[112,-21.50063],[112.5,-21.65857],[113,-21.81417],[113.5,-21.96745],[114,-22.11844],[114.5,-22.26716],[115,-22.41366],[115.5,-22.55796],[116,-22.70008],[116.5,-22.84006],[117,-22.97792],[117.5,-23.11368],[118,-23.24738],[118.5,-23.37905],[119,-23.50869],[119.5,-23.63635],[120,-23.76204],[120.5,-23.88579],[121,-24.00763],[121.5,-24.12756],[122,-24.24563],[122.5,-24.36185],[123,-24.47624],[123.5,-24.58883],[124,-24.69963],[124.5,-24.80866],[125,-24.91595],[125.5,-25.02152],[126,-25.12539],[126.5,-25.22757],[127,-25.32808],[127.5,-25.42694],[128,-25.52418],[128.5,-25.6198],[129,-25.71383],[129.5,-25.80628],[130,-25.89717],[130.5,-25.98652],[131,-26.07434],[131.5,-26.16065],[132,-26.24547],[132.06445,-26.25629]]}},{"type":"Feature","id":"+07320825:center:0","properties":{"id":"+07320825","year":732,"month":8,"day":25,"time_tdt":"07:54:41","type":"금환일식","type_code":"A","saros":95,"gamma":-0.20662,"magnitude":0.94012,"greatest":{"lat":-1.78348,"lng":72.68292},"path_width_km":226.5,"duration":"07m55s","delta_t_seconds":3504.7,"catalog_number":6518,"source":"NASA Five Millennium Canon of Solar Eclipses","source_url":"https://eclipse.gsfc.nasa.gov/SEsearch/SEsearchmap.php?Ecl=%2B07320825","boundary":"center","name":"732-08-25 금환일식"},"geometry":{"type":"LineString","coordinates":[[14.22557,3.88788],[14.5,3.93488],[15,4.02034],[15.5,4.1049],[16,4.18854],[16.5,4.27125],[17,4.35301],[17.5,4.43379],[18,4.51357],[18.5,4.59235],[19,4.67008],[19.5,4.74676],[20,4.82236],[20.5,4.89686],[21,4.97023],[21.5,5.04246],[22,5.11351],[22.5,5.18337],[23,5.25201],[23.5,5.3194],[24,5.38552],[24.5,5.45035],[25,5.51385],[25.5,5.57599],[26,5.63676],[26.5,5.69612],[27,5.75403],[27.5,5.81048],[28,5.86544],[28.5,5.91886],[29,5.97071],[29.5,6.02098],[30,6.06961],[30.5,6.11658],[31,6.16185],[31.5,6.20539],[32,6.24716],[32.5,6.28712],[33,6.32523],[33.5,6.36146],[34,6.39576],[34.5,6.42809],[35,6.45841],[35.5,6.48668],[36,6.51286],[36.5,6.53689],[37,6.55873],[37.5,6.57833],[38,6.59566],[38.5,6.61064],[39,6.62324],[39.5,6.6334],[40,6.64108],[40.5,6.6462],[41,6.64872],[41.5,6.64859],[42,6.64573],[42.5,6.6401],[43,6.63162],[43.5,6.62024],[44,6.60589],[44.5,6.58851],[45,6.56802],[45.5,6.54436],[46,6.51746],[46.5,6.48724],[47,6.45363],[47.5,6.41655],[48,6.37593],[48.5,6.33169],[49,6.28374],[49.5,6.23201],[50,6.1764],[50.5,6.11684],[51,6.05323],[51.5,5.98549],[52,5.91353],[52.5,5.83725],[53,5.75657],[53.5,5.67139],[54,5.5816],[54.5,5.48713],[55,5.38787],[55.5,5.28372],[56,5.17459],[56.5,5.06038],[57,4.94099],[57.5,4.81632],[58,4.68629],[58.5,4.55079],[59,4.40974],[59.5,4.26304],[60,4.1106],[60.5,3.95235],[61,3.7882],[61.5,3.61808],[62,3.44192],[62.5,3.25965],[63,3.07121],[63.5,2.87657],[64,2.67568],[64.5,2.46851],[65,2.25504],[65.5,2.03526],[66,1.80918],[66.5,1.57682],[67,1.33821],[67.5,1.09341],[68,0.84247],[68.5,0.58548],[69,0.32253],[69.5,0.05375],[70,-0.22072],[70.5,-0.50074],[71,-0.78612],[71.5,-1.07669],[72,-1.37221],[72.5,-1.67248],[73,-1.97723],[73.5,-2.28623],[74,-2.59918],[74.5,-2.9158],[75,-3.2358],[75.5,-3.55886],[76,-3.88467],[76.5,-4.21292],[77,-4.54326],[77.5,-4.87539],[78,-5.20898],[78.5,-5.54369],[79,-5.87922],[79.5,-6.21525],[80,-6.55148],[80.5,-6.8876],[81,-7.22334],[81.5,-7.55842],[82,-7.89258],[82.5,-8.22557],[83,-8.55716],[83.5,-8.88713],[84,-9.21526],[84.5,-9.54138],[85,-9.8653],[85.5,-10.18685],[86,-10.5059],[86.5,-10.8223],[87,-11.13593],[87.5,-11.44669],[88,-11.75446],[88.5,-12.05917],[89,-12.36075],[89.5,-12.65911],[90,-12.95422],[90.5,-13.24602],[91,-13.53447],[91.5,-13.81953],[92,-14.1012],[92.5,-14.37944],[93,-14.65425],[93.5,-14.92562],[94,-15.19355],[94.5,-15.45804],[95,-15.71911],[95.5,-15.97675],[96,-16.23099],[96.5,-16.48184],[97,-16.72933],[97.5,-16.97348],[98,-17.21431],[98.5,-17.45184],[99,-17.68612],[99.5,-17.91716],[100,-18.145],[100.5,-18.36967],[101,-18.5912],[101.5,-18.80963],[102,-19.02499],[102.5,-19.23731],[103,-19.44664],[103.5,-19.653],[104,-19.85643],[104.5,-20.05698],[105,-20.25466],[105.5,-20.44952],[106,-20.6416],[106.5,-20.83092],[107,-21.01753],[107.5,-21.20146],[108,-21.38274],[108.5,-21.5614],[109,-21.73749],[109.5,-21.91103],[110,-22.08206],[110.5,-22.25061],[111,-22.41672],[111.5,-22.5804],[112,-22.7417],[112.5,-22.90065],[113,-23.05728],[113.5,-23.21161],[114,-23.36367],[114.5,-23.5135],[115,-23.66113],[115.5,-23.80658],[116,-23.94987],[116.5,-24.09104],[117,-24.23012],[117.5,-24.36712],[118,-24.50207],[118.5,-24.63501],[119,-24.76595],[119.5,-24.89492],[120,-25.02194],[120.5,-25.14704],[121,-25.27024],[121.5,-25.39156],[122,-25.51102],[122.5,-25.62865],[123,-25.74447],[123.5,-25.85849],[124,-25.97074],[124.5,-26.08125],[125,-26.19002],[125.5,-26.29708],[126,-26.40245],[126.5,-26.50614],[127,-26.60818],[127.5,-26.70858],[128,-26.80737],[128.5,-26.90455],[129,-27.00014],[129.5,-27.09417],[130,-27.18665],[130.5,-27.27759],[131,-27.36702],[131.5,-27.45494],[131.86815,-27.51894]]}},{"type":"Feature","id":"+07320825:south:0","properties":{"id":"+07320825","year":732,"month":8,"day":25,"time_tdt":"07:54:41","type":"금환일식","type_code":"A","saros":95,"gamma":-0.20662,"magnitude":0.94012,"greatest":{"lat":-1.78348,"lng":72.68292},"path_width_km":226.5,"duration":"07m55s","delta_t_seconds":3504.7,"catalog_number":6518,"source":"NASA Five Millennium Canon of Solar Eclipses","source_url":"https://eclipse.gsfc.nasa.gov/SEsearch/SEsearchmap.php?Ecl=%2B07320825","boundary":"south","name":"732-08-25 금환일식"},"geometry":{"type":"LineString","coordinates":[[14.35742,2.62266],[14.5,2.64795],[15,2.73606],[15.5,2.82328],[16,2.9096],[16.5,2.99499],[17,3.07943],[17.5,3.1629],[18,3.24538],[18.5,3.32686],[19,3.4073],[19.5,3.48669],[20,3.56501],[20.5,3.64223],[21,3.71832],[21.5,3.79328],[22,3.86706],[22.5,3.93965],[23,4.01102],[23.5,4.08115],[24,4.15],[24.5,4.21756],[25,4.28379],[25.5,4.34867],[26,4.41216],[26.5,4.47424],[27,4.53488],[27.5,4.59405],[28,4.65172],[28.5,4.70784],[29,4.7624],[29.5,4.81536],[30,4.86667],[30.5,4.91632],[31,4.96426],[31.5,5.01045],[32,5.05485],[32.5,5.09744],[33,5.13816],[33.5,5.17699],[34,5.21387],[34.5,5.24876],[35,5.28162],[35.5,5.31241],[36,5.34108],[36.5,5.36759],[37,5.39188],[37.5,5.41391],[38,5.43362],[38.5,5.45097],[39,5.4659],[39.5,5.47836],[40,5.48829],[40.5,5.49564],[41,5.50034],[41.5,5.50235],[42,5.50159],[42.5,5.498],[43,5.49153],[43.5,5.48209],[44,5.46964],[44.5,5.4541],[45,5.43539],[45.5,5.41345],[46,5.3882],[46.5,5.35957],[47,5.32747],[47.5,5.29184],[48,5.25258],[48.5,5.20962],[49,5.16288],[49.5,5.11225],[50,5.05767],[50.5,4.99904],[51,4.93626],[51.5,4.86925],[52,4.79792],[52.5,4.72216],[53,4.64188],[53.5,4.55698],[54,4.46736],[54.5,4.37293],[55,4.27358],[55.5,4.16921],[56,4.05973],[56.5,3.94503],[57,3.825],[57.5,3.69956],[58,3.5686],[58.5,3.43203],[59,3.28975],[59.5,3.14166],[60,2.98769],[60.5,2.82775],[61,2.66175],[61.5,2.48962],[62,2.31129],[62.5,2.12671],[63,1.93581],[63.5,1.73856],[64,1.53491],[64.5,1.32485],[65,1.10835],[65.5,0.88543],[66,0.65609],[66.5,0.42037],[67,0.1783],[67.5,-0.07005],[68,-0.3246],[68.5,-0.58526],[69,-0.85191],[69.5,-1.12442],[70,-1.40263],[70.5,-1.68639],[71,-1.97548],[71.5,-2.26971],[72,-2.56885],[72.5,-2.87265],[73,-3.18085],[73.5,-3.49319],[74,-3.80936],[74.5,-4.12907],[75,-4.45201],[75.5,-4.77786],[76,-5.1063],[76.5,-5.437],[77,-5.76962],[77.5,-6.10385],[78,-6.43935],[78.5,-6.7758],[79,-7.11289],[79.5,-7.4503],[80,-7.78773],[80.5,-8.12489],[81,-8.46151],[81.5,-8.79731],[82,-9.13205],[82.5,-9.46549],[83,-9.7974],[83.5,-10.12757],[84,-10.4558],[84.5,-10.78192],[85,-11.10575],[85.5,-11.42715],[86,-11.74596],[86.5,-12.06208],[87,-12.37538],[87.5,-12.68576],[88,-12.99313],[88.5,-13.29741],[89,-13.59854],[89.5,-13.89645],[90,-14.19109],[90.5,-14.48243],[91,-14.77042],[91.5,-15.05505],[92,-15.33628],[92.5,-15.61412],[93,-15.88854],[93.5,-16.15956],[94,-16.42716],[94.5,-16.69135],[95,-16.95214],[95.5,-17.20956],[96,-17.4636],[96.5,-17.7143],[97,-17.96167],[97.5,-18.20574],[98,-18.44653],[98.5,-18.68407],[99,-18.91838],[99.5,-19.14951],[100,-19.37747],[100.5,-19.60231],[101,-19.82405],[101.5,-20.04272],[102,-20.25837],[102.5,-20.47103],[103,-20.68072],[103.5,-20.88749],[104,-21.09138],[104.5,-21.2924],[105,-21.49061],[105.5,-21.68603],[106,-21.8787],[106.5,-22.06865],[107,-22.25593],[107.5,-22.44055],[108,-22.62257],[108.5,-22.802],[109,-22.97888],[109.5,-23.15326],[110,-23.32514],[110.5,-23.49458],[111,-23.6616],[111.5,-23.82624],[112,-23.98851],[112.5,-24.14846],[113,-24.30611],[113.5,-24.46149],[114,-24.61463],[114.5,-24.76556],[115,-24.91431],[115.5,-25.0609],[116,-25.20536],[116.5,-25.34772],[117,-25.48801],[117.5,-25.62624],[118,-25.76245],[118.5,-25.89665],[119,-26.02888],[119.5,-26.15916],[120,-26.2875],[120.5,-26.41394],[121,-26.5385],[121.5,-26.66119],[122,-26.78204],[122.5,-26.90107],[123,-27.01831],[123.5,-27.13376],[124,-27.24746],[124.5,-27.35942],[125,-27.46966],[125.5,-27.57821],[126,-27.68507],[126.5,-27.79027],[127,-27.89383],[127.5,-27.99576],[128,-28.09608],[128.5,-28.19481],[129,-28.29197],[129.5,-28.38756],[130,-28.48162],[130.5,-28.57415],[131,-28.66516],[131.5,-28.75469]]}}],"attribution":"Eclipse Predictions by Fred Espenak and Jean Meeus (NASA's GSFC)","generated_at":"2026-09-23T01:44:55.564Z"}
