{"type":"FeatureCollection","year":740,"events":[{"id":"+07400401","year":740,"month":4,"day":1,"time_tdt":"07:15:31","type":"개기일식","type_code":"T","saros":99,"gamma":0.46087,"magnitude":1.02292,"greatest":{"lat":29.80697,"lng":71.40466},"path_width_km":87,"duration":"01m55s","delta_t_seconds":3438.8,"catalog_number":6536,"source":"NASA Five Millennium Canon of Solar Eclipses","source_url":"https://eclipse.gsfc.nasa.gov/SEsearch/SEsearchmap.php?Ecl=%2B07400401"},{"id":"+07400925","year":740,"month":9,"day":25,"time_tdt":"19:42:24","type":"금환일식","type_code":"A","saros":104,"gamma":-0.52688,"magnitude":0.94306,"greatest":{"lat":-29.93962,"lng":-120.91266},"path_width_km":243.2,"duration":"05m45s","delta_t_seconds":3434.6,"catalog_number":6537,"source":"NASA Five Millennium Canon of Solar Eclipses","source_url":"https://eclipse.gsfc.nasa.gov/SEsearch/SEsearchmap.php?Ecl=%2B07400925"}],"features":[{"type":"Feature","id":"+07400401:north:0","properties":{"id":"+07400401","year":740,"month":4,"day":1,"time_tdt":"07:15:31","type":"개기일식","type_code":"T","saros":99,"gamma":0.46087,"magnitude":1.02292,"greatest":{"lat":29.80697,"lng":71.40466},"path_width_km":87,"duration":"01m55s","delta_t_seconds":3438.8,"catalog_number":6536,"source":"NASA Five Millennium Canon of Solar Eclipses","source_url":"https://eclipse.gsfc.nasa.gov/SEsearch/SEsearchmap.php?Ecl=%2B07400401","boundary":"north","name":"740-04-01 개기일식"},"geometry":{"type":"LineString","coordinates":[[20.08008,-0.98402],[20.5,-0.93707],[21,-0.87868],[21.5,-0.81755],[22,-0.75363],[22.5,-0.68688],[23,-0.61726],[23.5,-0.54473],[24,-0.46924],[24.5,-0.39075],[25,-0.30921],[25.5,-0.22458],[26,-0.13679],[26.5,-0.04581],[27,0.04842],[27.5,0.14595],[28,0.24684],[28.5,0.35114],[29,0.45891],[29.5,0.57021],[30,0.6851],[30.5,0.80364],[31,0.92591],[31.5,1.05195],[32,1.18185],[32.5,1.31567],[33,1.45348],[33.5,1.59536],[34,1.74138],[34.5,1.89162],[35,2.04617],[35.5,2.2051],[36,2.3685],[36.5,2.53645],[37,2.70905],[37.5,2.88639],[38,3.06856],[38.5,3.25567],[39,3.4478],[39.5,3.64506],[40,3.84757],[40.5,4.05542],[41,4.26872],[41.5,4.4876],[42,4.71217],[42.5,4.94254],[43,5.17884],[43.5,5.4212],[44,5.66974],[44.5,5.92459],[45,6.18588],[45.5,6.45375],[46,6.72833],[46.5,7.00977],[47,7.29821],[47.5,7.59378],[48,7.89663],[48.5,8.2069],[49,8.52474],[49.5,8.85029],[50,9.18369],[50.5,9.52509],[51,9.8746],[51.5,10.23238],[52,10.59855],[52.5,10.97323],[53,11.35654],[53.5,11.74858],[54,12.14944],[54.5,12.55922],[55,12.97797],[55.5,13.40575],[56,13.84259],[56.5,14.2885],[57,14.74347],[57.5,15.20746],[58,15.6804],[58.5,16.16218],[59,16.65269],[59.5,17.15173],[60,17.65911],[60.5,18.17456],[61,18.6978],[61.5,19.22848],[62,19.76621],[62.5,20.31057],[63,20.86108],[63.5,21.41721],[64,21.97842],[64.5,22.54409],[65,23.1136],[65.5,23.68627],[66,24.26144],[66.5,24.83838],[67,25.41637],[67.5,25.9947],[68,26.57263],[68.5,27.14945],[69,27.72446],[69.5,28.29698],[70,28.86634],[70.5,29.43193],[71,29.99315],[71.5,30.54945],[72,31.10032],[72.5,31.6453],[73,32.18395],[73.5,32.7159],[74,33.24081],[74.5,33.7584],[75,34.2684],[75.5,34.77062],[76,35.26487],[76.5,35.75103],[77,36.22897],[77.5,36.69865],[78,37.15999],[78.5,37.613],[79,38.05766],[79.5,38.494],[80,38.92206],[80.5,39.34191],[81,39.7536],[81.5,40.15723],[82,40.55288],[82.5,40.94067],[83,41.32069],[83.5,41.69307],[84,42.05793],[84.5,42.41539],[85,42.76557],[85.5,43.10862],[86,43.44466],[86.5,43.77383],[87,44.09625],[87.5,44.41206],[88,44.72138],[88.5,45.02436],[89,45.32113],[89.5,45.61179],[90,45.8965],[90.5,46.17536],[91,46.44849],[91.5,46.71603],[92,46.97809],[92.5,47.23477],[93,47.4862],[93.5,47.73248],[94,47.97372],[94.5,48.21003],[95,48.4415],[95.5,48.66824],[96,48.89034],[96.5,49.1079],[97,49.32101],[97.5,49.52975],[98,49.73423],[98.5,49.93451],[99,50.13069],[99.5,50.32284],[100,50.51104],[100.5,50.69538],[101,50.87591],[101.5,51.05272],[102,51.22587],[102.5,51.39543],[103,51.56147],[103.5,51.72405],[104,51.88323],[104.5,52.03908],[105,52.19165],[105.5,52.341],[106,52.48719],[106.5,52.63027],[107,52.77029],[107.5,52.90731],[108,53.04137],[108.5,53.17252],[109,53.30081],[109.5,53.42628],[110,53.54899],[110.5,53.66896],[111,53.78625],[111.5,53.90089],[112,54.01293],[112.5,54.1224],[113,54.22935],[113.5,54.33379],[114,54.43579],[114.5,54.53535],[115,54.63253],[115.5,54.72735],[116,54.81985],[116.5,54.91005],[117,54.99798],[117.5,55.08368],[118,55.16718],[118.5,55.24849],[119,55.32765],[119.5,55.40469],[120,55.47962],[120.5,55.55248],[121,55.62328],[121.5,55.69205],[122,55.75882],[122.5,55.82361],[123,55.88643],[123.5,55.94731],[124,56.00626],[124.5,56.06332],[125,56.11849],[125.5,56.17179],[126,56.22325],[126.5,56.27289],[127,56.32071],[127.5,56.36673],[128,56.41098],[128.5,56.45346],[129,56.4942],[129.5,56.5332],[130,56.57049],[130.5,56.60607],[131,56.63996],[131.5,56.67217],[132,56.70272],[132.5,56.73161],[133,56.75887],[133.5,56.78449],[134,56.8085],[134.5,56.83091],[135,56.85171],[135.5,56.87094],[136,56.88858],[136.5,56.90467],[137,56.91919],[137.5,56.93217],[138,56.94361],[138.5,56.95353],[139,56.96192],[139.5,56.9688],[140,56.97417],[140.5,56.97805],[141,56.98044],[141.5,56.98134],[142,56.98077],[142.5,56.97873],[143,56.97523],[143.5,56.97027],[144,56.96386],[144.5,56.956],[145,56.9467],[145.5,56.93597],[146,56.92381],[146.5,56.91023],[147,56.89522],[147.5,56.87881],[148,56.86098],[148.5,56.84175],[149,56.82111],[149.5,56.79908],[150,56.77565],[150.5,56.75084],[151,56.72463],[151.5,56.69705],[152,56.66808],[152.5,56.63774],[153,56.60602],[153.5,56.57293],[154,56.53848],[154.5,56.50266],[155,56.46548],[155.5,56.42694],[156,56.38704],[156.5,56.34578],[157,56.30318],[157.5,56.25922],[158,56.21391],[158.5,56.16726],[159,56.11926],[159.5,56.06992],[160,56.01924],[160.5,55.96722],[161,55.91386],[161.14453,55.89819]]}},{"type":"Feature","id":"+07400401:center:0","properties":{"id":"+07400401","year":740,"month":4,"day":1,"time_tdt":"07:15:31","type":"개기일식","type_code":"T","saros":99,"gamma":0.46087,"magnitude":1.02292,"greatest":{"lat":29.80697,"lng":71.40466},"path_width_km":87,"duration":"01m55s","delta_t_seconds":3438.8,"catalog_number":6536,"source":"NASA Five Millennium Canon of Solar Eclipses","source_url":"https://eclipse.gsfc.nasa.gov/SEsearch/SEsearchmap.php?Ecl=%2B07400401","boundary":"center","name":"740-04-01 개기일식"},"geometry":{"type":"LineString","coordinates":[[20.12526,-1.12645],[20.5,-1.08841],[21,-1.03304],[21.5,-0.97495],[22,-0.91411],[22.5,-0.85048],[23,-0.78401],[23.5,-0.71466],[24,-0.64239],[24.5,-0.56715],[25,-0.4889],[25.5,-0.40759],[26,-0.32318],[26.5,-0.23561],[27,-0.14483],[27.5,-0.05079],[28,0.04657],[28.5,0.14729],[29,0.25143],[29.5,0.35906],[30,0.47023],[30.5,0.585],[31,0.70344],[31.5,0.82561],[32,0.95158],[32.5,1.08141],[33,1.21518],[33.5,1.35296],[34,1.49482],[34.5,1.64084],[35,1.7911],[35.5,1.94568],[36,2.10466],[36.5,2.26813],[37,2.43617],[37.5,2.60887],[38,2.78633],[38.5,2.96865],[39,3.15591],[39.5,3.34823],[40,3.5457],[40.5,3.74843],[41,3.95653],[41.5,4.17011],[42,4.38928],[42.5,4.61416],[43,4.84488],[43.5,5.08155],[44,5.3243],[44.5,5.57325],[45,5.82854],[45.5,6.09031],[46,6.35867],[46.5,6.63378],[47,6.91577],[47.5,7.20478],[48,7.50096],[48.5,7.80444],[49,8.11538],[49.5,8.4339],[50,8.76016],[50.5,9.0943],[51,9.43646],[51.5,9.78677],[52,10.14536],[52.5,10.51237],[53,10.8879],[53.5,11.27208],[54,11.66501],[54.5,12.06679],[55,12.47748],[55.5,12.89716],[56,13.32587],[56.5,13.76364],[57,14.21048],[57.5,14.66637],[58,15.13126],[58.5,15.60509],[59,16.08774],[59.5,16.57907],[60,17.07891],[60.5,17.58703],[61,18.10317],[61.5,18.62703],[62,19.15827],[62.5,19.69648],[63,20.24123],[63.5,20.79203],[64,21.34837],[64.5,21.90966],[65,22.47532],[65.5,23.04469],[66,23.61711],[66.5,24.1919],[67,24.76833],[67.5,25.3457],[68,25.92328],[68.5,26.50034],[69,27.07618],[69.5,27.65009],[70,28.22139],[70.5,28.78945],[71,29.35363],[71.5,29.91336],[72,30.4681],[72.5,31.01733],[73,31.56061],[73.5,32.09751],[74,32.62767],[74.5,33.15076],[75,33.66649],[75.5,34.17463],[76,34.67496],[76.5,35.16732],[77,35.65158],[77.5,36.12764],[78,36.59543],[78.5,37.05492],[79,37.50608],[79.5,37.94892],[80,38.38346],[80.5,38.80976],[81,39.22786],[81.5,39.63784],[82,40.0398],[82.5,40.43381],[83,40.81999],[83.5,41.19844],[84,41.56929],[84.5,41.93265],[85,42.28865],[85.5,42.63741],[86,42.97907],[86.5,43.31376],[87,43.64161],[87.5,43.96275],[88,44.27731],[88.5,44.58543],[89,44.88723],[89.5,45.18285],[90,45.47241],[90.5,45.75603],[91,46.03384],[91.5,46.30596],[92,46.5725],[92.5,46.83359],[93,47.08934],[93.5,47.33986],[94,47.58526],[94.5,47.82565],[95,48.06112],[95.5,48.29178],[96,48.51773],[96.5,48.73907],[97,48.95588],[97.5,49.16827],[98,49.37632],[98.5,49.58011],[99,49.77973],[99.5,49.97526],[100,50.16679],[100.5,50.35438],[101,50.53812],[101.5,50.71808],[102,50.89432],[102.5,51.06693],[103,51.23596],[103.5,51.40148],[104,51.56356],[104.5,51.72226],[105,51.87763],[105.5,52.02973],[106,52.17863],[106.5,52.32438],[107,52.46703],[107.5,52.60663],[108,52.74324],[108.5,52.8769],[109,53.00766],[109.5,53.13557],[110,53.26068],[110.5,53.38302],[111,53.50264],[111.5,53.61959],[112,53.73389],[112.5,53.8456],[113,53.95475],[113.5,54.06138],[114,54.16552],[114.5,54.26721],[115,54.36649],[115.5,54.46338],[116,54.55792],[116.5,54.65014],[117,54.74007],[117.5,54.82774],[118,54.91318],[118.5,54.99642],[119,55.07749],[119.5,55.1564],[120,55.2332],[120.5,55.3079],[121,55.38052],[121.5,55.4511],[122,55.51966],[122.5,55.58621],[123,55.65078],[123.5,55.71339],[124,55.77406],[124.5,55.83282],[125,55.88967],[125.5,55.94465],[126,55.99777],[126.5,56.04904],[127,56.09849],[127.5,56.14613],[128,56.19198],[128.5,56.23605],[129,56.27836],[129.5,56.31893],[130,56.35777],[130.5,56.39489],[131,56.43031],[131.5,56.46404],[132,56.4961],[132.5,56.52649],[133,56.55524],[133.5,56.58235],[134,56.60783],[134.5,56.6317],[135,56.65396],[135.5,56.67464],[136,56.69373],[136.5,56.71124],[137,56.7272],[137.5,56.7416],[138,56.75445],[138.5,56.76578],[139,56.77557],[139.5,56.78385],[140,56.79062],[140.5,56.79588],[141,56.79965],[141.5,56.80193],[142,56.80274],[142.5,56.80207],[143,56.79993],[143.5,56.79633],[144,56.79128],[144.5,56.78478],[145,56.77684],[145.5,56.76746],[146,56.75665],[146.5,56.74442],[147,56.73076],[147.5,56.71569],[148,56.6992],[148.5,56.68131],[149,56.66202],[149.5,56.64133],[150,56.61924],[150.5,56.59577],[151,56.5709],[151.5,56.54466],[152,56.51703],[152.5,56.48803],[153,56.45766],[153.5,56.42591],[154,56.3928],[154.5,56.35833],[155,56.32249],[155.5,56.2853],[156,56.24675],[156.5,56.20685],[157,56.1656],[157.5,56.123],[158,56.07905],[158.5,56.03376],[159,55.98713],[159.5,55.93915],[160,55.88984],[160.5,55.8392],[161,55.78722],[161.07533,55.78438]]}},{"type":"Feature","id":"+07400401:south:0","properties":{"id":"+07400401","year":740,"month":4,"day":1,"time_tdt":"07:15:31","type":"개기일식","type_code":"T","saros":99,"gamma":0.46087,"magnitude":1.02292,"greatest":{"lat":29.80697,"lng":71.40466},"path_width_km":87,"duration":"01m55s","delta_t_seconds":3438.8,"catalog_number":6536,"source":"NASA Five Millennium Canon of Solar Eclipses","source_url":"https://eclipse.gsfc.nasa.gov/SEsearch/SEsearchmap.php?Ecl=%2B07400401","boundary":"south","name":"740-04-01 개기일식"},"geometry":{"type":"LineString","coordinates":[[20.17578,-1.27155],[20.5,-1.23901],[21,-1.18663],[21.5,-1.13157],[22,-1.07378],[22.5,-1.01323],[23,-0.94988],[23.5,-0.88369],[24,-0.8146],[24.5,-0.74259],[25,-0.6676],[25.5,-0.58959],[26,-0.50851],[26.5,-0.42431],[27,-0.33694],[27.5,-0.24636],[28,-0.1525],[28.5,-0.05532],[29,0.04524],[29.5,0.14923],[30,0.25672],[30.5,0.36777],[31,0.48243],[31.5,0.60078],[32,0.72286],[32.5,0.84876],[33,0.97854],[33.5,1.11228],[34,1.25003],[34.5,1.39189],[35,1.53792],[35.5,1.6882],[36,1.84283],[36.5,2.00187],[37,2.16541],[37.5,2.33355],[38,2.50637],[38.5,2.68397],[39,2.86645],[39.5,3.05389],[40,3.2464],[40.5,3.4441],[41,3.64707],[41.5,3.85544],[42,4.0693],[42.5,4.28879],[43,4.51401],[43.5,4.74509],[44,4.98215],[44.5,5.22531],[45,5.4747],[45.5,5.73046],[46,5.99272],[46.5,6.2616],[47,6.53726],[47.5,6.81983],[48,7.10944],[48.5,7.40625],[49,7.7104],[49.5,8.02202],[50,8.34126],[50.5,8.66826],[51,9.00317],[51.5,9.34613],[52,9.69726],[52.5,10.0567],[53,10.42457],[53.5,10.801],[54,11.18609],[54.5,11.57995],[55,11.98267],[55.5,12.39431],[56,12.81496],[56.5,13.24464],[57,13.68338],[57.5,14.13119],[58,14.58804],[58.5,15.05388],[59,15.52864],[59.5,16.01219],[60,16.50439],[60.5,17.00506],[61,17.51396],[61.5,18.03083],[62,18.55536],[62.5,19.08719],[63,19.62592],[63.5,20.1711],[64,20.72225],[64.5,21.27882],[65,21.84025],[65.5,22.40592],[66,22.9752],[66.5,23.5474],[67,24.12185],[67.5,24.69782],[68,25.2746],[68.5,25.85146],[69,26.42769],[69.5,27.00257],[70,27.57542],[70.5,28.14556],[71,28.71234],[71.5,29.27516],[72,29.83344],[72.5,30.38665],[73,30.93429],[73.5,31.4759],[74,32.0111],[74.5,32.5395],[75,33.0608],[75.5,33.57472],[76,34.08101],[76.5,34.57949],[77,35.06999],[77.5,35.5524],[78,36.0266],[78.5,36.49255],[79,36.95021],[79.5,37.39955],[80,37.8406],[80.5,38.27338],[81,38.69793],[81.5,39.11432],[82,39.52262],[82.5,39.92293],[83,40.31532],[83.5,40.69992],[84,41.07683],[84.5,41.44616],[85,41.80805],[85.5,42.16261],[86,42.50997],[86.5,42.85026],[87,43.18362],[87.5,43.51017],[88,43.83004],[88.5,44.14338],[89,44.4503],[89.5,44.75094],[90,45.04543],[90.5,45.33388],[91,45.61644],[91.5,45.89321],[92,46.16432],[92.5,46.42989],[93,46.69003],[93.5,46.94485],[94,47.19447],[94.5,47.439],[95,47.67853],[95.5,47.91318],[96,48.14304],[96.5,48.36822],[97,48.5888],[97.5,48.80488],[98,49.01656],[98.5,49.22391],[99,49.42703],[99.5,49.62599],[100,49.82089],[100.5,50.0118],[101,50.19879],[101.5,50.38194],[102,50.56133],[102.5,50.73702],[103,50.90909],[103.5,51.0776],[104,51.24261],[104.5,51.40419],[105,51.5624],[105.5,51.7173],[106,51.86895],[106.5,52.0174],[107,52.16272],[107.5,52.30494],[108,52.44413],[108.5,52.58033],[109,52.7136],[109.5,52.84398],[110,52.97152],[110.5,53.09626],[111,53.21824],[111.5,53.33752],[112,53.45412],[112.5,53.5681],[113,53.67949],[113.5,53.78832],[114,53.89464],[114.5,53.99848],[115,54.09987],[115.5,54.19886],[116,54.29547],[116.5,54.38973],[117,54.48168],[117.5,54.57135],[118,54.65876],[118.5,54.74395],[119,54.82694],[119.5,54.90776],[120,54.98644],[120.5,55.06301],[121,55.13748],[121.5,55.20988],[122,55.28024],[122.5,55.34858],[123,55.41492],[123.5,55.47928],[124,55.54169],[124.5,55.60217],[125,55.66073],[125.5,55.71739],[126,55.77218],[126.5,55.82511],[127,55.87621],[127.5,55.92548],[128,55.97294],[128.5,56.01862],[129,56.06252],[129.5,56.10467],[130,56.14508],[130.5,56.18376],[131,56.22072],[131.5,56.25599],[132,56.28957],[132.5,56.32149],[133,56.35174],[133.5,56.38034],[134,56.40731],[134.5,56.43266],[135,56.45639],[135.5,56.47853],[136,56.49907],[136.5,56.51803],[137,56.53543],[137.5,56.55126],[138,56.56555],[138.5,56.57829],[139,56.5895],[139.5,56.59919],[140,56.60736],[140.5,56.61402],[141,56.61919],[141.5,56.62286],[142,56.62505],[142.5,56.62576],[143,56.625],[143.5,56.62277],[144,56.61909],[144.5,56.61396],[145,56.60738],[145.5,56.59936],[146,56.58991],[146.5,56.57903],[147,56.56673],[147.5,56.55301],[148,56.53788],[148.5,56.52134],[149,56.50339],[149.5,56.48405],[150,56.46331],[150.5,56.44118],[151,56.41767],[151.5,56.39277],[152,56.36649],[152.5,56.33883],[153,56.30981],[153.5,56.27941],[154,56.24765],[154.5,56.21453],[155,56.18005],[155.5,56.14421],[156,56.10701],[156.5,56.06847],[157,56.02857],[157.5,55.98733],[158,55.94475],[158.5,55.90082],[159,55.85556],[159.5,55.80896],[160,55.76102],[160.5,55.71175],[161,55.66116]]}},{"type":"Feature","id":"+07400925:north:0","properties":{"id":"+07400925","year":740,"month":9,"day":25,"time_tdt":"19:42:24","type":"금환일식","type_code":"A","saros":104,"gamma":-0.52688,"magnitude":0.94306,"greatest":{"lat":-29.93962,"lng":-120.91266},"path_width_km":243.2,"duration":"05m45s","delta_t_seconds":3434.6,"catalog_number":6537,"source":"NASA Five Millennium Canon of Solar Eclipses","source_url":"https://eclipse.gsfc.nasa.gov/SEsearch/SEsearchmap.php?Ecl=%2B07400925","boundary":"north","name":"740-09-25 금환일식"},"geometry":{"type":"LineString","coordinates":[[-168.5,-1.22782],[-168,-1.25374],[-167.5,-1.28233],[-167,-1.31363],[-166.5,-1.34768],[-166,-1.38453],[-165.5,-1.42422],[-165,-1.4668],[-164.5,-1.51233],[-164,-1.56084],[-163.5,-1.61239],[-163,-1.66704],[-162.5,-1.72484],[-162,-1.78584],[-161.5,-1.8501],[-161,-1.91768],[-160.5,-1.98865],[-160,-2.06306],[-159.5,-2.14099],[-159,-2.22249],[-158.5,-2.30764],[-158,-2.39651],[-157.5,-2.48916],[-157,-2.58569],[-156.5,-2.68616],[-156,-2.79067],[-155.5,-2.89928],[-155,-3.01208],[-154.5,-3.12918],[-154,-3.25065],[-153.5,-3.3766],[-153,-3.50712],[-152.5,-3.64231],[-152,-3.78228],[-151.5,-3.92714],[-151,-4.077],[-150.5,-4.23197],[-150,-4.39218],[-149.5,-4.55776],[-149,-4.72882],[-148.5,-4.90551],[-148,-5.08795],[-147.5,-5.2763],[-147,-5.47071],[-146.5,-5.67131],[-146,-5.87828],[-145.5,-6.09177],[-145,-6.31195],[-144.5,-6.539],[-144,-6.77309],[-143.5,-7.01441],[-143,-7.26315],[-142.5,-7.5195],[-142,-7.78368],[-141.5,-8.05587],[-141,-8.33631],[-140.5,-8.62519],[-140,-8.92276],[-139.5,-9.22922],[-139,-9.54482],[-138.5,-9.86979],[-138,-10.20435],[-137.5,-10.54876],[-137,-10.90324],[-136.5,-11.26804],[-136,-11.64338],[-135.5,-12.0295],[-135,-12.42662],[-134.5,-12.83495],[-134,-13.25469],[-133.5,-13.68602],[-133,-14.12912],[-132.5,-14.58411],[-132,-15.05111],[-131.5,-15.5302],[-131,-16.02143],[-130.5,-16.52478],[-130,-17.0402],[-129.5,-17.56758],[-129,-18.10674],[-128.5,-18.65745],[-128,-19.21939],[-127.5,-19.79216],[-127,-20.37528],[-126.5,-20.9682],[-126,-21.57028],[-125.5,-22.18077],[-125,-22.79888],[-124.5,-23.42373],[-124,-24.05435],[-123.5,-24.68973],[-123,-25.32883],[-122.5,-25.97055],[-122,-26.61377],[-121.5,-27.25739],[-121,-27.90029],[-120.5,-28.5414],[-120,-29.17967],[-119.5,-29.8141],[-119,-30.44376],[-118.5,-31.06778],[-118,-31.68536],[-117.5,-32.29579],[-117,-32.89842],[-116.5,-33.4927],[-116,-34.07815],[-115.5,-34.65437],[-115,-35.22101],[-114.5,-35.77782],[-114,-36.32459],[-113.5,-36.86117],[-113,-37.38748],[-112.5,-37.90347],[-112,-38.40912],[-111.5,-38.90447],[-111,-39.38958],[-110.5,-39.86454],[-110,-40.32946],[-109.5,-40.78446],[-109,-41.2297],[-108.5,-41.66533],[-108,-42.09152],[-107.5,-42.50844],[-107,-42.91629],[-106.5,-43.31525],[-106,-43.70551],[-105.5,-44.08725],[-105,-44.46068],[-104.5,-44.82599],[-104,-45.18335],[-103.5,-45.53297],[-103,-45.87503],[-102.5,-46.2097],[-102,-46.53718],[-101.5,-46.85763],[-101,-47.17122],[-100.5,-47.47813],[-100,-47.77852],[-99.5,-48.07255],[-99,-48.36036],[-98.5,-48.64212],[-98,-48.91797],[-97.5,-49.18806],[-97,-49.45251],[-96.5,-49.71147],[-96,-49.96506],[-95.5,-50.21341],[-95,-50.45665],[-94.5,-50.69489],[-94,-50.92825],[-93.5,-51.15684],[-93,-51.38076],[-92.5,-51.60013],[-92,-51.81504],[-91.5,-52.02559],[-91,-52.23188],[-90.5,-52.43399],[-90,-52.63202],[-89.5,-52.82606],[-89,-53.01619],[-88.5,-53.20248],[-88,-53.38502],[-87.5,-53.56389],[-87,-53.73916],[-86.5,-53.91089],[-86,-54.07917],[-85.5,-54.24405],[-85,-54.40561],[-84.5,-54.5639],[-84,-54.71898],[-83.5,-54.87093],[-83,-55.01978],[-82.5,-55.16561],[-82,-55.30847],[-81.5,-55.4484],[-81,-55.58546],[-80.5,-55.7197],[-80,-55.85116],[-79.5,-55.9799],[-79,-56.10596],[-78.5,-56.22938],[-78,-56.35021],[-77.5,-56.46849],[-77,-56.58426],[-76.5,-56.69755],[-76,-56.80842],[-75.5,-56.91688],[-75,-57.02299],[-74.5,-57.12677],[-74,-57.22826],[-73.5,-57.32749],[-73,-57.4245],[-72.5,-57.51931],[-72,-57.61196],[-71.5,-57.70247],[-71,-57.79088],[-70.5,-57.87721],[-70,-57.9615],[-69.5,-58.04375],[-69,-58.12402],[-68.5,-58.2023],[-68,-58.27864],[-67.5,-58.35306],[-67,-58.42557],[-66.5,-58.49621],[-66,-58.56499],[-65.5,-58.63193],[-65,-58.69706],[-64.5,-58.76039],[-64,-58.82194],[-63.5,-58.88174],[-63,-58.9398],[-62.5,-58.99614],[-62,-59.05078],[-61.5,-59.10373],[-61,-59.15501],[-60.5,-59.20463],[-60,-59.25262],[-59.5,-59.29899],[-59,-59.34375],[-58.5,-59.38691],[-58,-59.4285],[-57.5,-59.46852],[-57,-59.50698],[-56.5,-59.54391],[-56,-59.57931],[-55.5,-59.61319],[-55,-59.64557],[-54.5,-59.67645],[-54,-59.70586],[-53.5,-59.73379],[-53,-59.76026],[-52.5,-59.78528],[-52,-59.80886],[-51.5,-59.83101],[-51,-59.85174],[-50.5,-59.87105],[-50,-59.88896],[-49.5,-59.90547],[-49,-59.9206],[-48.5,-59.93434],[-48,-59.94672],[-47.5,-59.95772],[-47,-59.96737],[-46.5,-59.97567],[-46,-59.98262],[-45.5,-59.98824],[-45,-59.99252],[-44.5,-59.99548],[-44,-59.99712],[-43.5,-59.99744],[-43,-59.99645],[-42.5,-59.99416],[-42,-59.99057],[-41.5,-59.98569],[-41,-59.97952],[-40.5,-59.97206],[-40,-59.96332],[-39.5,-59.95331],[-39,-59.94202],[-38.5,-59.92947],[-38,-59.91565],[-37.5,-59.90056],[-37,-59.88422],[-36.5,-59.86663],[-36,-59.84778],[-35.5,-59.82769],[-35,-59.80634],[-34.5,-59.78376],[-34.45117,-59.78149]]}},{"type":"Feature","id":"+07400925:center:0","properties":{"id":"+07400925","year":740,"month":9,"day":25,"time_tdt":"19:42:24","type":"금환일식","type_code":"A","saros":104,"gamma":-0.52688,"magnitude":0.94306,"greatest":{"lat":-29.93962,"lng":-120.91266},"path_width_km":243.2,"duration":"05m45s","delta_t_seconds":3434.6,"catalog_number":6537,"source":"NASA Five Millennium Canon of Solar Eclipses","source_url":"https://eclipse.gsfc.nasa.gov/SEsearch/SEsearchmap.php?Ecl=%2B07400925","boundary":"center","name":"740-09-25 금환일식"},"geometry":{"type":"LineString","coordinates":[[-169.00016,-2.61312],[-168.5,-2.63143],[-168,-2.65693],[-167.5,-2.68515],[-167,-2.71614],[-166.5,-2.74994],[-166,-2.78661],[-165.5,-2.82618],[-165,-2.86871],[-164.5,-2.91425],[-164,-2.96285],[-163.5,-3.01457],[-163,-3.06945],[-162.5,-3.12756],[-162,-3.18896],[-161.5,-3.25371],[-161,-3.32187],[-160.5,-3.39349],[-160,-3.46866],[-159.5,-3.54744],[-159,-3.62989],[-158.5,-3.7161],[-158,-3.80613],[-157.5,-3.90006],[-157,-3.99798],[-156.5,-4.09996],[-156,-4.20609],[-155.5,-4.31646],[-155,-4.43116],[-154.5,-4.55029],[-154,-4.67393],[-153.5,-4.8022],[-153,-4.93519],[-152.5,-5.07301],[-152,-5.21577],[-151.5,-5.3636],[-151,-5.5166],[-150.5,-5.6749],[-150,-5.83862],[-149.5,-6.0079],[-149,-6.18288],[-148.5,-6.36369],[-148,-6.55048],[-147.5,-6.7434],[-147,-6.94261],[-146.5,-7.14826],[-146,-7.36053],[-145.5,-7.57958],[-145,-7.80559],[-144.5,-8.03874],[-144,-8.27923],[-143.5,-8.52724],[-143,-8.78298],[-142.5,-9.04665],[-142,-9.31846],[-141.5,-9.59862],[-141,-9.88737],[-140.5,-10.18491],[-140,-10.49149],[-139.5,-10.80734],[-139,-11.13268],[-138.5,-11.46777],[-138,-11.81283],[-137.5,-12.16811],[-137,-12.53385],[-136.5,-12.91026],[-136,-13.2976],[-135.5,-13.69606],[-135,-14.10586],[-134.5,-14.5272],[-134,-14.96025],[-133.5,-15.40516],[-133,-15.86206],[-132.5,-16.33105],[-132,-16.8122],[-131.5,-17.30552],[-131,-17.81099],[-130.5,-18.32853],[-130,-18.85799],[-129.5,-19.39918],[-129,-19.95182],[-128.5,-20.51556],[-128,-21.08996],[-127.5,-21.67452],[-127,-22.26865],[-126.5,-22.87165],[-126,-23.48277],[-125.5,-24.10117],[-125,-24.72593],[-124.5,-25.35609],[-124,-25.99061],[-123.5,-26.62843],[-123,-27.26845],[-122.5,-27.90958],[-122,-28.5507],[-121.5,-29.19072],[-121,-29.82859],[-120.5,-30.46329],[-120,-31.09385],[-119.5,-31.71938],[-119,-32.33904],[-118.5,-32.95209],[-118,-33.55782],[-117.5,-34.15566],[-117,-34.74507],[-116.5,-35.32561],[-116,-35.8969],[-115.5,-36.45864],[-115,-37.01059],[-114.5,-37.55257],[-114,-38.08446],[-113.5,-38.60617],[-113,-39.11767],[-112.5,-39.61898],[-112,-40.11012],[-111.5,-40.59117],[-111,-41.06221],[-110.5,-41.52337],[-110,-41.97477],[-109.5,-42.41656],[-109,-42.8489],[-108.5,-43.27195],[-108,-43.6859],[-107.5,-44.09093],[-107,-44.48721],[-106.5,-44.87493],[-106,-45.25429],[-105.5,-45.62547],[-105,-45.98865],[-104.5,-46.34404],[-104,-46.6918],[-103.5,-47.03212],[-103,-47.36518],[-102.5,-47.69115],[-102,-48.01021],[-101.5,-48.32252],[-101,-48.62825],[-100.5,-48.92756],[-100,-49.2206],[-99.5,-49.50752],[-99,-49.78848],[-98.5,-50.06361],[-98,-50.33306],[-97.5,-50.59696],[-97,-50.85545],[-96.5,-51.10864],[-96,-51.35667],[-95.5,-51.59965],[-95,-51.8377],[-94.5,-52.07094],[-94,-52.29947],[-93.5,-52.52339],[-93,-52.74282],[-92.5,-52.95785],[-92,-53.16858],[-91.5,-53.3751],[-91,-53.5775],[-90.5,-53.77587],[-90,-53.9703],[-89.5,-54.16086],[-89,-54.34764],[-88.5,-54.53072],[-88,-54.71017],[-87.5,-54.88606],[-87,-55.05846],[-86.5,-55.22745],[-86,-55.39309],[-85.5,-55.55544],[-85,-55.71456],[-84.5,-55.87053],[-84,-56.02339],[-83.5,-56.1732],[-83,-56.32002],[-82.5,-56.4639],[-82,-56.6049],[-81.5,-56.74307],[-81,-56.87844],[-80.5,-57.01109],[-80,-57.14104],[-79.5,-57.26834],[-79,-57.39304],[-78.5,-57.51519],[-78,-57.63481],[-77.5,-57.75196],[-77,-57.86668],[-76.5,-57.97899],[-76,-58.08893],[-75.5,-58.19655],[-75,-58.30188],[-74.5,-58.40495],[-74,-58.50579],[-73.5,-58.60444],[-73,-58.70093],[-72.5,-58.79529],[-72,-58.88754],[-71.5,-58.97772],[-71,-59.06586],[-70.5,-59.15197],[-70,-59.2361],[-69.5,-59.31826],[-69,-59.39847],[-68.5,-59.47677],[-68,-59.55318],[-67.5,-59.62771],[-67,-59.7004],[-66.5,-59.77126],[-66,-59.84032],[-65.5,-59.90759],[-65,-59.9731],[-64.5,-60.03686],[-64,-60.0989],[-63.5,-60.15923],[-63,-60.21787],[-62.5,-60.27484],[-62,-60.33016],[-61.5,-60.38383],[-61,-60.43589],[-60.5,-60.48633],[-60,-60.53519],[-59.5,-60.58247],[-59,-60.62819],[-58.5,-60.67236],[-58,-60.71499],[-57.5,-60.7561],[-57,-60.79571],[-56.5,-60.83381],[-56,-60.87044],[-55.5,-60.90559],[-55,-60.93928],[-54.5,-60.97152],[-54,-61.00232],[-53.5,-61.03169],[-53,-61.05964],[-52.5,-61.08619],[-52,-61.11133],[-51.5,-61.13509],[-51,-61.15746],[-50.5,-61.17846],[-50,-61.1981],[-49.5,-61.21638],[-49,-61.23332],[-48.5,-61.24891],[-48,-61.26317],[-47.5,-61.2761],[-47,-61.28772],[-46.5,-61.29802],[-46,-61.30702],[-45.5,-61.31471],[-45,-61.32111],[-44.5,-61.32623],[-44,-61.33006],[-43.5,-61.33262],[-43,-61.3339],[-42.5,-61.33392],[-42,-61.33267],[-41.5,-61.33017],[-41,-61.32641],[-40.5,-61.32141],[-40,-61.31516],[-39.5,-61.30767],[-39,-61.29894],[-38.5,-61.28898],[-38,-61.27778],[-37.5,-61.26537],[-37,-61.25172],[-36.5,-61.23686],[-36,-61.22078],[-35.5,-61.20348],[-35,-61.18497],[-34.5,-61.16525],[-34,-61.14432],[-33.85453,-61.2007]]}},{"type":"Feature","id":"+07400925:south:0","properties":{"id":"+07400925","year":740,"month":9,"day":25,"time_tdt":"19:42:24","type":"금환일식","type_code":"A","saros":104,"gamma":-0.52688,"magnitude":0.94306,"greatest":{"lat":-29.93962,"lng":-120.91266},"path_width_km":243.2,"duration":"05m45s","delta_t_seconds":3434.6,"catalog_number":6537,"source":"NASA Five Millennium Canon of Solar Eclipses","source_url":"https://eclipse.gsfc.nasa.gov/SEsearch/SEsearchmap.php?Ecl=%2B07400925","boundary":"south","name":"740-09-25 금환일식"},"geometry":{"type":"LineString","coordinates":[[-169.44727,-4.01385],[-169,-4.03163],[-168.5,-4.05406],[-168,-4.07923],[-167.5,-4.10718],[-167,-4.13796],[-166.5,-4.17163],[-166,-4.20822],[-165.5,-4.24779],[-165,-4.29039],[-164.5,-4.33607],[-164,-4.3849],[-163.5,-4.43691],[-163,-4.49218],[-162.5,-4.55076],[-162,-4.61272],[-161.5,-4.67811],[-161,-4.747],[-160.5,-4.81947],[-160,-4.89558],[-159.5,-4.97539],[-159,-5.059],[-158.5,-5.14646],[-158,-5.23787],[-157.5,-5.3333],[-157,-5.43284],[-156.5,-5.53657],[-156,-5.64458],[-155.5,-5.75698],[-155,-5.87384],[-154.5,-5.99528],[-154,-6.12138],[-153.5,-6.25227],[-153,-6.38805],[-152.5,-6.52883],[-152,-6.67473],[-151.5,-6.82588],[-151,-6.98239],[-150.5,-7.14439],[-150,-7.31203],[-149.5,-7.48544],[-149,-7.66476],[-148.5,-7.85015],[-148,-8.04175],[-147.5,-8.23972],[-147,-8.44423],[-146.5,-8.65546],[-146,-8.87356],[-145.5,-9.09873],[-145,-9.33116],[-144.5,-9.57102],[-144,-9.81853],[-143.5,-10.07388],[-143,-10.33728],[-142.5,-10.60895],[-142,-10.88911],[-141.5,-11.17798],[-141,-11.47578],[-140.5,-11.78277],[-140,-12.09916],[-139.5,-12.42519],[-139,-12.76112],[-138.5,-13.10717],[-138,-13.46358],[-137.5,-13.8306],[-137,-14.20845],[-136.5,-14.59736],[-136,-14.99754],[-135.5,-15.4092],[-135,-15.83252],[-134.5,-16.26767],[-134,-16.7148],[-133.5,-17.17401],[-133,-17.6454],[-132.5,-18.12899],[-132,-18.62481],[-131.5,-19.13278],[-131,-19.65281],[-130.5,-20.18472],[-130,-20.72829],[-129.5,-21.28319],[-129,-21.84905],[-128.5,-22.42538],[-128,-23.01166],[-127.5,-23.60723],[-127,-24.21138],[-126.5,-24.82331],[-126,-25.44216],[-125.5,-26.06699],[-125,-26.6968],[-124.5,-27.33055],[-124,-27.96716],[-123.5,-28.60554],[-123,-29.2446],[-122.5,-29.88323],[-122,-30.52038],[-121.5,-31.155],[-121,-31.78611],[-120.5,-32.41278],[-120,-33.03416],[-119.5,-33.64943],[-119,-34.2579],[-118.5,-34.85891],[-118,-35.45191],[-117.5,-36.0364],[-117,-36.61198],[-116.5,-37.17831],[-116,-37.7351],[-115.5,-38.28214],[-115,-38.81927],[-114.5,-39.3464],[-114,-39.86345],[-113.5,-40.3704],[-113,-40.86728],[-112.5,-41.35414],[-112,-41.83103],[-111.5,-42.29807],[-111,-42.75537],[-110.5,-43.20307],[-110,-43.64131],[-109.5,-44.07025],[-109,-44.49006],[-108.5,-44.90091],[-108,-45.30298],[-107.5,-45.69646],[-107,-46.08152],[-106.5,-46.45835],[-106,-46.82713],[-105.5,-47.18806],[-105,-47.54131],[-104.5,-47.88706],[-104,-48.22549],[-103.5,-48.55677],[-103,-48.88108],[-102.5,-49.19858],[-102,-49.50944],[-101.5,-49.81382],[-101,-50.11187],[-100.5,-50.40375],[-100,-50.6896],[-99.5,-50.96958],[-99,-51.24381],[-98.5,-51.51244],[-98,-51.7756],[-97.5,-52.03342],[-97,-52.28603],[-96.5,-52.53354],[-96,-52.77607],[-95.5,-53.01374],[-95,-53.24666],[-94.5,-53.47493],[-94,-53.69866],[-93.5,-53.91795],[-93,-54.1329],[-92.5,-54.34361],[-92,-54.55016],[-91.5,-54.75264],[-91,-54.95114],[-90.5,-55.14575],[-90,-55.33655],[-89.5,-55.52361],[-89,-55.70701],[-88.5,-55.88683],[-88,-56.06314],[-87.5,-56.236],[-87,-56.40549],[-86.5,-56.57167],[-86,-56.73461],[-85.5,-56.89436],[-85,-57.05099],[-84.5,-57.20455],[-84,-57.3551],[-83.5,-57.5027],[-83,-57.64741],[-82.5,-57.78926],[-82,-57.92831],[-81.5,-58.06462],[-81,-58.19822],[-80.5,-58.32917],[-80,-58.45751],[-79.5,-58.58328],[-79,-58.70652],[-78.5,-58.82728],[-78,-58.9456],[-77.5,-59.06151],[-77,-59.17506],[-76.5,-59.28627],[-76,-59.3952],[-75.5,-59.50186],[-75,-59.60629],[-74.5,-59.70853],[-74,-59.80861],[-73.5,-59.90656],[-73,-60.00242],[-72.5,-60.0962],[-72,-60.18794],[-71.5,-60.27766],[-71,-60.3654],[-70.5,-60.45118],[-70,-60.53502],[-69.5,-60.61695],[-69,-60.697],[-68.5,-60.77519],[-68,-60.85154],[-67.5,-60.92607],[-67,-60.9988],[-66.5,-61.06977],[-66,-61.13898],[-65.5,-61.20646],[-65,-61.27222],[-64.5,-61.33629],[-64,-61.39869],[-63.5,-61.45943],[-63,-61.51852],[-62.5,-61.576],[-62,-61.63187],[-61.5,-61.68615],[-61,-61.73885],[-60.5,-61.78999],[-60,-61.83959],[-59.5,-61.88766],[-59,-61.93422],[-58.5,-61.97927],[-58,-62.02283],[-57.5,-62.06491],[-57,-62.10553],[-56.5,-62.1447],[-56,-62.18243],[-55.5,-62.21874],[-55,-62.25362],[-54.5,-62.2871],[-54,-62.31918],[-53.5,-62.34988],[-53,-62.3792],[-52.5,-62.40715],[-52,-62.43375],[-51.5,-62.45899],[-51,-62.4829],[-50.5,-62.50548],[-50,-62.52674],[-49.5,-62.54668],[-49,-62.56531],[-48.5,-62.58265],[-48,-62.59869],[-47.5,-62.61345],[-47,-62.62692],[-46.5,-62.63913],[-46,-62.65007],[-45.5,-62.65975],[-45,-62.66817],[-44.5,-62.67534],[-44,-62.68128],[-43.5,-62.68597],[-43,-62.68943],[-42.5,-62.69166],[-42,-62.69267],[-41.5,-62.69246],[-41,-62.69103],[-40.5,-62.68839],[-40,-62.68455],[-39.5,-62.6795],[-39,-62.67325],[-38.5,-62.66581],[-38,-62.65717],[-37.5,-62.64734],[-37,-62.63632],[-36.5,-62.62412],[-36,-62.61073],[-35.5,-62.59616],[-35,-62.58042],[-34.5,-62.5635],[-33.5,-62.52615],[-34,-62.54541]]}}],"attribution":"Eclipse Predictions by Fred Espenak and Jean Meeus (NASA's GSFC)","generated_at":"2026-09-23T01:44:55.728Z"}
