{"type":"FeatureCollection","year":749,"events":[{"id":"+07490323","year":749,"month":3,"day":23,"time_tdt":"06:13:53","type":"개기일식","type_code":"T","saros":80,"gamma":0.89316,"magnitude":1.02752,"greatest":{"lat":60.58052,"lng":68.02893},"path_width_km":207.6,"duration":"01m53s","delta_t_seconds":3361.6,"catalog_number":6557,"source":"NASA Five Millennium Canon of Solar Eclipses","source_url":"https://eclipse.gsfc.nasa.gov/SEsearch/SEsearchmap.php?Ecl=%2B07490323"},{"id":"+07490916","year":749,"month":9,"day":16,"time_tdt":"15:10:13","type":"금환일식","type_code":"As","saros":85,"gamma":-0.97729,"magnitude":0.92687,"greatest":{"lat":-68.30651,"lng":-89.22162},"path_width_km":0,"duration":"05m42s","delta_t_seconds":3357.5,"catalog_number":6558,"source":"NASA Five Millennium Canon of Solar Eclipses","source_url":"https://eclipse.gsfc.nasa.gov/SEsearch/SEsearchmap.php?Ecl=%2B07490916"}],"features":[{"type":"Feature","id":"+07490323:north:0","properties":{"id":"+07490323","year":749,"month":3,"day":23,"time_tdt":"06:13:53","type":"개기일식","type_code":"T","saros":80,"gamma":0.89316,"magnitude":1.02752,"greatest":{"lat":60.58052,"lng":68.02893},"path_width_km":207.6,"duration":"01m53s","delta_t_seconds":3361.6,"catalog_number":6557,"source":"NASA Five Millennium Canon of Solar Eclipses","source_url":"https://eclipse.gsfc.nasa.gov/SEsearch/SEsearchmap.php?Ecl=%2B07490323","boundary":"north","name":"749-03-23 개기일식"},"geometry":{"type":"LineString","coordinates":[[21.04492,46.3639],[21.5,46.38718],[22,46.41498],[22.5,46.44512],[23,46.47763],[23.5,46.51256],[24,46.54992],[24.5,46.58975],[25,46.63208],[25.5,46.67695],[26,46.72439],[26.5,46.77442],[27,46.82709],[27.5,46.88243],[28,46.94047],[28.5,47.00124],[29,47.06479],[29.5,47.13114],[30,47.20033],[30.5,47.27241],[31,47.34739],[31.5,47.42533],[32,47.50625],[32.5,47.5902],[33,47.6772],[33.5,47.7673],[34,47.86054],[34.5,47.95694],[35,48.05655],[35.5,48.1594],[36,48.26553],[36.5,48.37497],[37,48.48776],[37.5,48.60393],[38,48.72352],[38.5,48.84656],[39,48.97308],[39.5,49.10312],[40,49.2367],[40.5,49.37386],[41,49.51462],[41.5,49.65901],[42,49.80705],[42.5,49.95877],[43,50.11419],[43.5,50.27333],[44,50.43621],[44.5,50.60284],[45,50.77323],[45.5,50.94739],[46,51.12534],[46.5,51.30707],[47,51.49258],[47.5,51.68187],[48,51.87493],[48.5,52.07175],[49,52.27232],[49.5,52.47662],[50,52.68461],[50.5,52.89628],[51,53.11159],[51.5,53.33049],[52,53.55295],[52.5,53.77892],[53,54.00833],[53.5,54.24114],[54,54.47726],[54.5,54.71664],[55,54.95919],[55.5,55.20483],[56,55.45347],[56.5,55.70501],[57,55.95935],[57.5,56.21639],[58,56.47601],[58.5,56.73811],[59,57.00255],[59.5,57.2692],[60,57.53795],[60.5,57.80865],[61,58.08117],[61.5,58.35536],[62,58.63107],[62.5,58.90816],[63,59.18649],[63.5,59.46589],[64,59.74621],[64.5,60.0273],[65,60.309],[65.5,60.59117],[66,60.87364],[66.5,61.15626],[67,61.43888],[67.5,61.72134],[68,62.00351],[68.5,62.28523],[69,62.56637],[69.5,62.84677],[70,63.12631],[70.5,63.40486],[71,63.68228],[71.5,63.95844],[72,64.23324],[72.5,64.50656],[73,64.77828],[73.5,65.0483],[74,65.31651],[74.5,65.58283],[75,65.84717],[75.5,66.10943],[76,66.36954],[76.5,66.62742],[77,66.883],[77.5,67.13621],[78,67.38701],[78.5,67.63532],[79,67.8811],[79.5,68.1243],[80,68.36488],[80.5,68.6028],[81,68.83803],[81.5,69.07053],[82,69.30029],[82.5,69.52728],[83,69.75148],[83.5,69.97287],[84,70.19145],[84.5,70.4072],[85,70.62012],[85,70.62011],[85.5,70.8302],[86,71.03745],[86.5,71.24186],[87,71.44345],[87.5,71.64222],[88,71.83817],[88.5,72.03132],[89,72.22168],[89.5,72.40926],[90,72.59409],[90.5,72.77617],[91,72.95553],[91.5,73.13219],[92,73.30616],[92.5,73.47748],[93,73.64616],[93.5,73.81224],[94,73.97572],[94.5,74.13665],[95,74.29505],[95.5,74.45093],[96,74.60435],[96.5,74.75531],[97,74.90386],[97.5,75.05001],[98,75.1938],[98.5,75.33526],[99,75.47442],[99.5,75.61131],[100,75.74596],[100.5,75.87839],[101,76.00865],[101.5,76.13675],[102,76.26274],[102.5,76.38663],[103,76.50847],[103.5,76.62827],[104,76.74608],[104.5,76.86192],[105,76.97581],[105.5,77.0878],[106,77.1979],[106.5,77.30615],[107,77.41257],[107.5,77.5172],[108,77.62006],[108.5,77.72118],[109,77.82059],[109.5,77.91831],[110,78.01437],[110.5,78.1088],[111,78.20162],[111.5,78.29286],[112,78.38255],[112.5,78.4707],[113,78.55735],[113.5,78.64251],[114,78.72622],[114.5,78.8085],[115,78.88936],[115.5,78.96883],[116,79.04694],[116.5,79.12371],[117,79.19915],[117.5,79.27329],[118,79.34616],[118.5,79.41776],[119,79.48813],[119.5,79.55727],[120,79.62522],[120.5,79.69199],[121,79.7576],[121.5,79.82206],[122,79.8854],[122.5,79.94764],[123,80.00878],[123.5,80.06885],[124,80.12787],[124.5,80.18585],[125,80.24281],[125.5,80.29876],[126,80.35372],[126.5,80.40771],[127,80.46073],[127.5,80.51281],[128,80.56396],[128.5,80.61419],[129,80.66352],[129.5,80.71195],[130,80.75951],[130.5,80.80621],[131,80.85205],[131.5,80.89706],[132,80.94124],[132.5,80.9846],[133,81.02716],[133.5,81.06893],[134,81.10992],[134.5,81.15014],[135,81.1896],[135.5,81.22831],[136,81.26629],[136.5,81.30353],[137,81.34006],[137.5,81.37588],[138,81.411],[138.5,81.44543],[139,81.47918],[139.5,81.51225],[140,81.54466],[140.5,81.57642],[141,81.60752],[141.5,81.63799],[142,81.66783],[142.5,81.69704],[143,81.72563],[143.5,81.75362],[144,81.781],[144.5,81.80779],[145,81.83399],[145.5,81.8596],[146,81.88464],[146.5,81.90911],[147,81.93302],[147.5,81.95636],[148,81.97916],[148.5,82.00141],[149,82.02312],[149.5,82.04429],[150,82.06494],[150.5,82.08505],[150.5,82.08506],[151,82.10465],[151.5,82.12373],[151.5,82.12374],[152,82.14231],[152.5,82.16037],[153,82.17793],[153.5,82.195],[154,82.21157],[154.5,82.22765],[155,82.24325],[155.5,82.25836],[156,82.273],[156.5,82.28716],[157,82.30085],[157.5,82.31407],[158,82.32682],[158,82.32683],[158.5,82.33912],[159,82.35095],[159,82.35096],[159.5,82.36233],[160,82.37326],[160.5,82.38374],[161,82.39376],[161.5,82.40334],[161.5,82.40335],[162,82.41248],[162.5,82.42118],[163,82.42944],[163.5,82.43726],[164,82.44464],[164.5,82.45159],[164.5,82.4516],[165,82.45811],[165,82.45812],[165.5,82.46421],[166,82.46987],[166.5,82.4751],[167,82.47991],[167.5,82.4843],[168,82.48826],[168.5,82.4918],[169,82.49491],[169.5,82.49761],[170,82.49989],[170.5,82.50175],[171,82.50319],[171.5,82.50421],[172,82.50481],[172.5,82.505],[173,82.50477],[173.5,82.50412],[174,82.50306],[174.5,82.50158],[175,82.49969],[175.5,82.49737],[176,82.49464],[176.5,82.49149],[177,82.48793],[177.5,82.48394],[178,82.47954],[178.5,82.47471],[179,82.46947],[179.5,82.4638],[180,82.45771]]}},{"type":"Feature","id":"+07490323:north:1","properties":{"id":"+07490323","year":749,"month":3,"day":23,"time_tdt":"06:13:53","type":"개기일식","type_code":"T","saros":80,"gamma":0.89316,"magnitude":1.02752,"greatest":{"lat":60.58052,"lng":68.02893},"path_width_km":207.6,"duration":"01m53s","delta_t_seconds":3361.6,"catalog_number":6557,"source":"NASA Five Millennium Canon of Solar Eclipses","source_url":"https://eclipse.gsfc.nasa.gov/SEsearch/SEsearchmap.php?Ecl=%2B07490323","boundary":"north","name":"749-03-23 개기일식"},"geometry":{"type":"LineString","coordinates":[[-179.5,82.4512],[-179,82.44426],[-178.5,82.43689],[-178,82.4291],[-177.5,82.42088],[-177,82.41223],[-176.5,82.40314],[-176,82.39363],[-176,82.39362],[-175.5,82.38367],[-175,82.37328],[-174.5,82.36245],[-174,82.35118],[-173.5,82.33946],[-173,82.3273],[-172.5,82.31469],[-172,82.30163],[-171.5,82.28812],[-171,82.27415],[-170.5,82.25973],[-170,82.24484],[-169.5,82.22949],[-169,82.21367],[-168.5,82.19738],[-168,82.18062],[-167.5,82.16338],[-167,82.14566],[-166.5,82.12746],[-166,82.10877],[-165.5,82.08959],[-165,82.06992],[-164.5,82.04975],[-164,82.02907],[-163.5,82.00789],[-163,81.9862],[-162.5,81.964],[-162.29883,81.95492]]}},{"type":"Feature","id":"+07490323:center:0","properties":{"id":"+07490323","year":749,"month":3,"day":23,"time_tdt":"06:13:53","type":"개기일식","type_code":"T","saros":80,"gamma":0.89316,"magnitude":1.02752,"greatest":{"lat":60.58052,"lng":68.02893},"path_width_km":207.6,"duration":"01m53s","delta_t_seconds":3361.6,"catalog_number":6557,"source":"NASA Five Millennium Canon of Solar Eclipses","source_url":"https://eclipse.gsfc.nasa.gov/SEsearch/SEsearchmap.php?Ecl=%2B07490323","boundary":"center","name":"749-03-23 개기일식"},"geometry":{"type":"LineString","coordinates":[[21.44771,45.62048],[21.5,45.67068],[22,45.693],[22.5,45.71759],[23,45.74447],[23.5,45.77367],[24,45.80523],[24.5,45.83917],[25,45.87552],[25.5,45.91433],[26,45.95561],[26.5,45.9994],[27,46.04574],[27.5,46.09465],[28,46.14617],[28.5,46.20033],[29,46.25717],[29.5,46.31672],[30,46.37902],[30.5,46.4441],[31,46.51199],[31.5,46.58273],[32,46.65636],[32.5,46.73292],[33,46.81243],[33.5,46.89493],[34,46.98047],[34.5,47.06907],[34.5,47.06908],[35,47.16078],[35.5,47.25563],[36,47.35365],[36.5,47.45488],[37,47.55936],[37.5,47.66712],[38,47.77819],[38.5,47.89262],[39,48.01043],[39.5,48.13165],[40,48.25632],[40.5,48.38448],[41,48.51614],[41.5,48.65134],[42,48.79011],[42.5,48.93247],[43,49.07844],[43.5,49.22806],[44,49.38134],[44.5,49.5383],[45,49.69895],[45.5,49.86332],[46,50.03141],[46.5,50.20323],[47,50.37879],[47.5,50.5581],[48,50.74114],[48.5,50.92793],[49,51.11844],[49.5,51.31267],[50,51.51061],[50.5,51.71223],[51,51.91751],[51.5,52.12643],[52,52.33894],[52.5,52.55501],[53,52.77459],[53.5,52.99765],[54,53.22411],[54.5,53.45392],[55,53.68703],[55.5,53.92334],[56,54.1628],[56.5,54.40531],[57,54.65079],[57,54.6508],[57.5,54.89915],[58,55.15029],[58.5,55.40409],[59,55.66046],[59.5,55.91928],[60,56.18043],[60.5,56.44378],[61,56.70921],[61.5,56.97659],[62,57.24577],[62.5,57.51663],[63,57.78901],[63.5,58.06278],[64,58.33779],[64.5,58.61388],[65,58.89091],[65.5,59.16873],[66,59.44719],[66.5,59.72614],[67,60.00542],[67.5,60.28489],[68,60.56439],[68.5,60.84378],[69,61.12293],[69.5,61.40167],[70,61.67988],[70.5,61.95742],[71,62.23415],[71.5,62.50995],[72,62.78469],[72.5,63.05825],[73,63.33052],[73.5,63.60137],[74,63.87071],[74.5,64.13842],[75,64.40442],[75.5,64.6686],[76,64.93089],[76.5,65.19119],[77,65.44942],[77,65.44943],[77.5,65.70553],[78,65.95942],[78.5,66.21105],[79,66.46034],[79.5,66.70725],[80,66.95173],[80.5,67.19372],[81,67.43319],[81.5,67.6701],[82,67.90441],[82.5,68.1361],[83,68.36514],[83.5,68.5915],[84,68.81518],[84.5,69.03614],[85,69.25438],[85.5,69.46989],[86,69.68266],[86.5,69.89269],[87,70.09998],[87.5,70.30452],[88,70.50633],[88.5,70.7054],[89,70.90174],[89.5,71.09536],[90,71.28628],[90.5,71.4745],[91,71.66004],[91.5,71.84292],[92,72.02315],[92.5,72.20075],[93,72.37574],[93.5,72.54815],[94,72.71798],[94.5,72.88528],[95,73.05005],[95.5,73.21232],[96,73.37212],[96.5,73.52948],[97,73.68441],[97.5,73.83695],[98,73.98712],[98.5,74.13494],[98.5,74.13495],[99,74.28046],[99.5,74.42369],[100,74.56466],[100.5,74.7034],[101,74.83995],[101.5,74.97431],[102,75.10654],[102.5,75.23664],[103,75.36466],[103.5,75.49062],[104,75.61455],[104.5,75.73648],[105,75.85643],[105.5,75.97443],[106,76.09052],[106.5,76.20471],[107,76.31704],[107.5,76.42754],[108,76.53622],[108.5,76.64312],[109,76.74827],[109.5,76.85168],[110,76.95339],[110.5,77.05342],[111,77.1518],[111.5,77.24856],[112,77.3437],[112.5,77.43727],[113,77.52929],[113.5,77.61978],[114,77.70875],[114.5,77.79625],[115,77.88228],[115.5,77.96688],[116,78.05006],[116.5,78.13184],[117,78.21225],[117.5,78.29132],[118,78.36905],[118.5,78.44547],[119,78.5206],[119.5,78.59446],[120,78.66707],[120.5,78.73845],[121,78.80861],[121.5,78.87758],[122,78.94538],[122.5,79.01202],[123,79.07752],[123.5,79.1419],[124,79.20517],[124.5,79.26735],[125,79.32846],[125.5,79.38851],[126,79.44752],[126.5,79.5055],[127,79.56248],[127.5,79.61846],[128,79.67345],[128.5,79.72748],[129,79.78056],[129.5,79.8327],[130,79.88392],[130.5,79.93422],[131,79.98362],[131.5,80.03213],[132,80.07978],[132.5,80.12656],[133,80.17248],[133.5,80.21758],[134,80.26184],[134.5,80.30529],[135,80.34793],[135.5,80.38978],[136,80.43085],[136.5,80.47114],[137,80.51067],[137.5,80.54944],[138,80.58748],[138.5,80.62478],[139,80.66135],[139.5,80.69721],[140,80.73236],[140.5,80.76681],[141,80.80057],[141.5,80.83365],[142,80.86606],[142.5,80.8978],[143,80.92888],[143.5,80.95932],[144,80.98911],[144.5,81.01826],[145,81.04679],[145.5,81.07469],[146,81.10198],[146.5,81.12865],[147,81.15473],[147.5,81.18021],[148,81.2051],[148.5,81.22941],[149,81.25313],[149.5,81.27628],[149.5,81.27629],[150,81.29887],[150.5,81.32089],[150.5,81.3209],[151,81.34236],[151.5,81.36328],[152,81.38365],[152.5,81.40347],[153,81.42276],[153.5,81.44151],[154,81.45974],[154.5,81.47744],[155,81.49462],[155.5,81.51128],[156,81.52744],[156.5,81.54308],[157,81.55822],[157.5,81.57285],[158,81.58699],[158.5,81.60063],[159,81.61378],[159.5,81.62645],[160,81.63862],[160.5,81.65032],[161,81.66153],[161.5,81.67226],[162,81.68252],[162.5,81.69231],[163,81.70163],[163.5,81.71048],[164,81.71886],[164.5,81.72678],[165,81.73424],[165.5,81.74123],[166,81.74777],[166.5,81.75385],[167,81.75947],[167.5,81.76465],[168,81.76936],[168.5,81.77363],[169,81.77744],[169.5,81.78081],[170,81.78373],[170.5,81.7862],[171,81.78822],[171.5,81.7898],[172,81.79093],[172.5,81.79161],[173,81.79186],[173.5,81.79165],[174,81.791],[174.5,81.78991],[175,81.78838],[175.5,81.7864],[176,81.78397],[176.5,81.7811],[177,81.77779],[177.5,81.77403],[178,81.76982],[178.5,81.76517],[179,81.76007],[179.5,81.75452],[180,81.74853]]}},{"type":"Feature","id":"+07490323:center:1","properties":{"id":"+07490323","year":749,"month":3,"day":23,"time_tdt":"06:13:53","type":"개기일식","type_code":"T","saros":80,"gamma":0.89316,"magnitude":1.02752,"greatest":{"lat":60.58052,"lng":68.02893},"path_width_km":207.6,"duration":"01m53s","delta_t_seconds":3361.6,"catalog_number":6557,"source":"NASA Five Millennium Canon of Solar Eclipses","source_url":"https://eclipse.gsfc.nasa.gov/SEsearch/SEsearchmap.php?Ecl=%2B07490323","boundary":"center","name":"749-03-23 개기일식"},"geometry":{"type":"LineString","coordinates":[[-179.5,81.74208],[-179,81.73519],[-178.5,81.72784],[-178,81.72004],[-177.5,81.71178],[-177,81.70307],[-176.5,81.6939],[-176,81.68428],[-175.5,81.67419],[-175,81.66364],[-174.5,81.65263],[-174,81.64115],[-173.5,81.6292],[-173.5,81.62921],[-173,81.61679],[-172.5,81.6039],[-172,81.59054],[-171.5,81.5767],[-171,81.56238],[-170.5,81.54758],[-170,81.5323],[-169.5,81.51653],[-169,81.50027],[-168.5,81.48352],[-168,81.46627],[-167.5,81.44852],[-167,81.43028],[-166.5,81.41152],[-166,81.39226],[-165.5,81.37249],[-165,81.3522],[-164.5,81.33139],[-164,81.31006],[-163.19428,81.71139]]}},{"type":"Feature","id":"+07490323:south:0","properties":{"id":"+07490323","year":749,"month":3,"day":23,"time_tdt":"06:13:53","type":"개기일식","type_code":"T","saros":80,"gamma":0.89316,"magnitude":1.02752,"greatest":{"lat":60.58052,"lng":68.02893},"path_width_km":207.6,"duration":"01m53s","delta_t_seconds":3361.6,"catalog_number":6557,"source":"NASA Five Millennium Canon of Solar Eclipses","source_url":"https://eclipse.gsfc.nasa.gov/SEsearch/SEsearchmap.php?Ecl=%2B07490323","boundary":"south","name":"749-03-23 개기일식"},"geometry":{"type":"LineString","coordinates":[[22,44.99416],[22.5,45.01346],[23,45.03498],[23.5,45.05874],[24,45.08478],[24.5,45.11312],[24.5,45.11313],[25,45.14381],[25,45.1438],[25.5,45.17685],[26,45.21229],[26.5,45.25016],[27,45.29049],[27.5,45.33331],[28,45.37865],[28.5,45.42655],[29,45.47704],[29.5,45.53015],[30,45.58591],[30.5,45.64437],[31,45.70555],[31.5,45.76949],[32,45.83622],[32.5,45.90578],[33,45.97821],[33.5,46.05354],[34,46.1318],[34.5,46.21304],[35,46.29728],[35.5,46.38457],[36,46.47494],[36.5,46.56842],[37,46.66505],[37.5,46.76487],[38,46.86791],[38.5,46.9742],[39,47.08379],[39.5,47.1967],[40,47.31297],[40.5,47.43262],[41,47.5557],[41.5,47.68223],[42,47.81225],[42.5,47.94577],[43,48.08283],[43.5,48.22345],[44,48.36766],[44.5,48.51548],[45,48.66694],[45.5,48.82204],[46,48.98081],[46.5,49.14326],[47,49.3094],[47.5,49.47924],[48,49.65279],[48.5,49.83005],[49,50.01102],[49.5,50.19569],[50,50.38406],[50.5,50.57612],[51,50.77185],[51.5,50.97124],[52,51.17425],[52.5,51.38086],[53,51.59103],[53.5,51.80474],[54,52.02193],[54.5,52.24255],[55,52.46656],[55.5,52.69389],[56,52.92448],[56.5,53.15825],[57,53.39514],[57.5,53.63506],[58,53.87793],[58.5,54.12365],[59,54.37213],[59,54.37212],[59.5,54.62325],[60,54.87693],[60.5,55.13304],[61,55.39146],[61.5,55.65208],[62,55.91477],[62.5,56.1794],[63,56.44583],[63.5,56.71393],[64,56.98356],[64.5,57.25459],[64.5,57.25458],[65,57.52685],[65.5,57.80021],[66,58.07453],[66.5,58.34965],[67,58.62542],[67.5,58.90171],[68,59.17835],[68.5,59.45521],[69,59.73214],[69.5,60.009],[70,60.28564],[70.5,60.56192],[71,60.83771],[71.5,61.11287],[72,61.38728],[72.5,61.66081],[73,61.93333],[73,61.93334],[73.5,62.20473],[74,62.4749],[74.5,62.74371],[75,63.01107],[75.5,63.27688],[76,63.54103],[76.5,63.80344],[77,64.06403],[77.5,64.3227],[78,64.57938],[78.5,64.83401],[79,65.0865],[79.5,65.3368],[80,65.58485],[80.5,65.83059],[81,66.07398],[81.5,66.31497],[82,66.55352],[82.5,66.78958],[83,67.02313],[83.5,67.25414],[84,67.48257],[84.5,67.70842],[85,67.93165],[85.5,68.15225],[86,68.37021],[86.5,68.58552],[87,68.79816],[87.5,69.00814],[88,69.21546],[88.5,69.4201],[89,69.62208],[89.5,69.8214],[90,70.01806],[90.5,70.21208],[91,70.40346],[91.5,70.5922],[92,70.77834],[92.5,70.96188],[93,71.14283],[93.5,71.32122],[94,71.49706],[94.5,71.67037],[95,71.84117],[95.5,72.00948],[96,72.17532],[96.5,72.33872],[97,72.49969],[97.5,72.65827],[98,72.81448],[98.5,72.96833],[99,73.11987],[99.5,73.2691],[100,73.41606],[100.5,73.56078],[101,73.70327],[101.5,73.84357],[102,73.98171],[102.5,74.1177],[103,74.25158],[103.5,74.38337],[104,74.51311],[104.5,74.64081],[105,74.7665],[105.5,74.89022],[106,75.01198],[106.5,75.13181],[107,75.24975],[107.5,75.36581],[108,75.48003],[108.5,75.59242],[109,75.70302],[109.5,75.81185],[110,75.91893],[110.5,76.02429],[111,76.12796],[111.5,76.22996],[112,76.33031],[112.5,76.42904],[113,76.52616],[113.5,76.62172],[114,76.71572],[114.5,76.80819],[115,76.89916],[115.5,76.98864],[116,77.07666],[116.5,77.16323],[117,77.24839],[117.5,77.33215],[118,77.41453],[118.5,77.49556],[119,77.57524],[119.5,77.65361],[120,77.73068],[120.5,77.80648],[121,77.88101],[121.5,77.9543],[122,78.02637],[122.5,78.09723],[123,78.16691],[123.5,78.23541],[124,78.30277],[124.5,78.36898],[125,78.43408],[125.5,78.49807],[126,78.56097],[126.5,78.62281],[127,78.68358],[127.5,78.74331],[128,78.80202],[128.5,78.85971],[129,78.91641],[129.5,78.97212],[130,79.02686],[130.5,79.08064],[131,79.13348],[131.5,79.18539],[132,79.23637],[132.5,79.28646],[133,79.33564],[133.5,79.38395],[134,79.43138],[134.5,79.47796],[135,79.52369],[135.5,79.56858],[136,79.61265],[136.5,79.6559],[137,79.69834],[137.5,79.74],[137.5,79.73999],[138,79.78086],[138.5,79.82095],[139,79.86028],[139,79.86027],[139.5,79.89884],[140,79.93666],[140.5,79.97375],[141,80.0101],[141.5,80.04573],[142,80.08065],[142.5,80.11486],[143,80.14838],[143.5,80.18121],[144,80.21336],[144.5,80.24483],[145,80.27564],[145.5,80.30578],[146,80.33528],[146.5,80.36413],[147,80.39234],[147.5,80.41992],[148,80.44687],[148.5,80.4732],[149,80.49892],[149.5,80.52403],[150,80.54853],[150.5,80.57244],[151,80.59576],[151.5,80.61849],[152,80.64064],[152.5,80.66221],[153,80.68322],[153.5,80.70365],[154,80.72353],[154.5,80.74284],[155,80.76161],[155.5,80.77982],[156,80.79749],[156.5,80.81462],[157,80.83121],[157.5,80.84727],[158,80.8628],[158.5,80.8778],[159,80.89228],[159.5,80.90624],[160,80.91969],[160.5,80.93262],[161,80.94504],[161.5,80.95695],[162,80.96836],[162.5,80.97927],[163,80.98967],[163.5,80.99958],[164,81.00899],[164.5,81.01791],[165,81.02634],[165.5,81.03428],[166,81.04174],[166.5,81.0487],[166.5,81.04871],[167,81.05519],[167.5,81.06119],[168,81.06672],[168.5,81.07176],[169,81.07633],[169.5,81.08041],[170,81.08403],[170.5,81.08717],[171,81.08983],[171.5,81.09203],[172,81.09375],[172.5,81.095],[173,81.09577],[173.5,81.09608],[174,81.09592],[174.5,81.09529],[175,81.09419],[175.5,81.09262],[176,81.09058],[176.5,81.08807],[177,81.08509],[178,81.07771],[177.5,81.08164],[178,81.07772],[178.5,81.07333],[179,81.06847],[179.5,81.06314],[180,81.05733]]}},{"type":"Feature","id":"+07490323:south:1","properties":{"id":"+07490323","year":749,"month":3,"day":23,"time_tdt":"06:13:53","type":"개기일식","type_code":"T","saros":80,"gamma":0.89316,"magnitude":1.02752,"greatest":{"lat":60.58052,"lng":68.02893},"path_width_km":207.6,"duration":"01m53s","delta_t_seconds":3361.6,"catalog_number":6557,"source":"NASA Five Millennium Canon of Solar Eclipses","source_url":"https://eclipse.gsfc.nasa.gov/SEsearch/SEsearchmap.php?Ecl=%2B07490323","boundary":"south","name":"749-03-23 개기일식"},"geometry":{"type":"LineString","coordinates":[[-179.5,81.05105],[-179,81.0443],[-178.5,81.03707],[-178,81.02937],[-177.5,81.02119],[-177,81.01253],[-176.5,81.00339],[-176,80.99376],[-176,80.99377],[-175.5,80.98366],[-175,80.97307],[-174.5,80.962],[-174,80.95044],[-173.5,80.93838],[-173,80.92584],[-172.5,80.9128],[-172,80.89927],[-171.5,80.88524],[-171,80.87071],[-170.5,80.85568],[-170,80.84014],[-169.5,80.8241],[-169,80.80754],[-168.5,80.79048],[-168,80.77289],[-165.5,80.67715],[-167.5,80.75479],[-166,80.69735],[-167,80.73617],[-166.5,80.71703]]}},{"type":"Feature","id":"+07490916:north:0","properties":{"id":"+07490916","year":749,"month":9,"day":16,"time_tdt":"15:10:13","type":"금환일식","type_code":"As","saros":85,"gamma":-0.97729,"magnitude":0.92687,"greatest":{"lat":-68.30651,"lng":-89.22162},"path_width_km":0,"duration":"05m42s","delta_t_seconds":3357.5,"catalog_number":6558,"source":"NASA Five Millennium Canon of Solar Eclipses","source_url":"https://eclipse.gsfc.nasa.gov/SEsearch/SEsearchmap.php?Ecl=%2B07490916","boundary":"north","name":"749-09-16 금환일식"},"geometry":{"type":"LineString","coordinates":[[-114.88086,-55.41853],[-114.5,-55.41444],[-114,-55.41143],[-113.5,-55.41113],[-113,-55.4136],[-112.5,-55.41888],[-112,-55.42701],[-111.5,-55.43804],[-111,-55.45201],[-110.5,-55.46897],[-110,-55.48898],[-109.5,-55.51208],[-109,-55.53833],[-108.5,-55.56777],[-108,-55.60046],[-107.5,-55.63646],[-107,-55.67582],[-106.5,-55.71861],[-106,-55.76487],[-105.5,-55.81467],[-105,-55.86807],[-104.5,-55.92514],[-104,-55.98593],[-103.5,-56.05051],[-103,-56.11896],[-102.5,-56.19132],[-102,-56.26768],[-101.5,-56.3481],[-101,-56.43265],[-100.5,-56.52141],[-100,-56.61444],[-99.5,-56.71182],[-99,-56.81363],[-98.5,-56.91993],[-98,-57.03081],[-97.5,-57.14634],[-97,-57.2666],[-96.5,-57.39166],[-96,-57.52161],[-95.5,-57.65651],[-95,-57.79645],[-94.5,-57.94151],[-94,-58.09176],[-93.5,-58.24728],[-93,-58.40815],[-92.5,-58.57443],[-92,-58.74621],[-91.5,-58.92356],[-91,-59.10654],[-90.5,-59.29523],[-90,-59.4897],[-89.5,-59.69],[-89,-59.8962],[-88.5,-60.10836],[-88,-60.32653],[-87.5,-60.55076],[-87,-60.78111],[-86.5,-61.0176],[-86,-61.26029],[-85.5,-61.5092],[-85,-61.76437],[-84.5,-62.0258],[-84,-62.29353],[-83.5,-62.56756],[-83,-62.84789],[-82.5,-63.13452],[-82,-63.42745],[-81.5,-63.72666],[-81,-64.03212],[-80.5,-64.34381],[-80,-64.6617],[-79.5,-64.98574],[-79,-65.3159],[-78.5,-65.65212],[-78,-65.99434],[-77.5,-66.34252],[-77,-66.69658],[-76.5,-67.05648],[-76,-67.42214],[-75.5,-67.79351],[-75,-68.17052],[-74.5,-68.55312],[-74,-68.94127],[-73.5,-69.33493],[-73,-69.73406],[-72.5,-70.13865],[-72,-70.54871],[-71.5,-70.96427],[-71,-71.38537],[-70.5,-71.81211],[-70,-72.24461],[-69.5,-72.68306],[-69,-73.1277],[-68.5,-73.57884],[-68,-74.0369],[-67.5,-74.50242],[-67,-74.97608],[-66.5,-75.4588],[-66,-75.95175],[-65.5,-76.45649],[-65,-76.97514],[-64.5,-77.51062],[-64,-78.06716],[-63.5,-78.6511],[-63,-79.27277],[-62.5,-79.95086],[-62,-80.72626],[-61.5,-81.7368],[-61.5,-84.07621],[-62,-84.70588],[-62.5,-85.09993],[-63,-85.3963],[-63.5,-85.63601],[-64,-85.83788],[-64.5,-86.01236],[-65,-86.16596],[-65.5,-86.30304],[-66,-86.42667],[-66.5,-86.53912],[-67,-86.64214],[-67.5,-86.73705],[-68,-86.82493],[-68.5,-86.90666],[-69,-86.98296],[-69.5,-87.05441],[-70,-87.12152],[-70.5,-87.18473],[-71,-87.24439],[-71.5,-87.30084],[-72,-87.35434],[-72.5,-87.40514],[-73,-87.45346],[-73.5,-87.49948],[-74,-87.54339],[-74.5,-87.58531],[-75,-87.62541],[-75.5,-87.66379],[-76,-87.70057],[-76.5,-87.73586],[-77,-87.76973],[-77.5,-87.80229],[-78,-87.8336],[-78.5,-87.86373],[-79,-87.89275],[-79.5,-87.92072],[-80,-87.9477],[-80.5,-87.97373],[-81,-87.99887],[-81.5,-88.02316],[-82,-88.04663],[-82.5,-88.06933],[-83,-88.0913],[-83.5,-88.11256],[-84,-88.13315],[-84.5,-88.15309],[-85,-88.17242],[-85.5,-88.19116],[-86,-88.20933],[-86.5,-88.22696],[-87,-88.24407],[-87.5,-88.26068],[-87.875,-88.27282]]}},{"type":"Feature","id":"+07490916:center:0","properties":{"id":"+07490916","year":749,"month":9,"day":16,"time_tdt":"15:10:13","type":"금환일식","type_code":"As","saros":85,"gamma":-0.97729,"magnitude":0.92687,"greatest":{"lat":-68.30651,"lng":-89.22162},"path_width_km":0,"duration":"05m42s","delta_t_seconds":3357.5,"catalog_number":6558,"source":"NASA Five Millennium Canon of Solar Eclipses","source_url":"https://eclipse.gsfc.nasa.gov/SEsearch/SEsearchmap.php?Ecl=%2B07490916","boundary":"center","name":"749-09-16 금환일식"},"geometry":{"type":"LineString","coordinates":[[-116.82661,-60.33168],[-117,-60.72735],[-116.5,-60.71884],[-116,-60.71368],[-115.5,-60.71192],[-115,-60.71362],[-114.5,-60.71883],[-114,-60.72762],[-113.5,-60.74006],[-113,-60.7562],[-112.5,-60.77613],[-112,-60.7999],[-111.5,-60.8276],[-111,-60.85931],[-110.5,-60.8951],[-110,-60.93505],[-109.5,-60.97927],[-109,-61.02782],[-108.5,-61.08082],[-108,-61.13835],[-107.5,-61.20052],[-107,-61.26743],[-106.5,-61.3392],[-106,-61.41594],[-105.5,-61.49777],[-105,-61.5848],[-104.5,-61.67719],[-104,-61.77505],[-103.5,-61.87854],[-103,-61.9878],[-102.5,-62.10299],[-102,-62.22428],[-101.5,-62.35183],[-101,-62.48584],[-100.5,-62.6265],[-100,-62.77401],[-99.5,-62.92859],[-99,-63.09046],[-98.5,-63.25989],[-98,-63.43713],[-97.5,-63.62246],[-97,-63.8162],[-96.5,-64.01866],[-96,-64.23023],[-95.5,-64.45127],[-95,-64.68224],[-94.5,-64.92361],[-94,-65.17591],[-93.5,-65.43976],[-93,-65.71581],[-92.5,-66.00487],[-92,-66.30783],[-91.5,-66.62575],[-91,-66.95989],[-90.5,-67.31178],[-90,-67.68328],[-89.5,-68.07675],[-89,-68.49524],[-88.5,-68.94281],[-88,-69.4251],[-87.5,-69.95038],[-87,-70.53166],[-86.5,-71.19172],[-86,-71.97828],[-85.5,-73.03741],[-85.5,-76.28327],[-86,-77.10781],[-86.5,-77.66571],[-87,-78.10305],[-87.5,-78.46753],[-88,-78.78193],[-88.5,-79.05923],[-89,-79.30768],[-89.5,-79.53287],[-90,-79.73882],[-90.5,-79.92855],[-91,-80.10435],[-91.5,-80.26805],[-92,-80.4211],[-92.5,-80.5647],[-93,-80.69985],[-93.5,-80.82739],[-94,-80.94802],[-94.5,-81.06236],[-95,-81.17093],[-95.5,-81.27419],[-96,-81.37255],[-96.5,-81.46637],[-97,-81.55595],[-97.5,-81.64159],[-98,-81.72353],[-98.5,-81.802],[-99,-81.87722],[-99.5,-81.94937],[-100,-82.01861],[-100.5,-82.0851],[-101,-82.14898],[-101.5,-82.21039],[-102,-82.26945],[-102.5,-82.32625],[-103,-82.38091],[-103.5,-82.43353],[-104,-82.48417],[-104.5,-82.53294],[-105,-82.5799],[-105.5,-82.62512],[-106,-82.66867],[-106.5,-82.71061],[-107,-82.751],[-107.5,-82.78988],[-108,-82.82732],[-108.5,-82.86335],[-109,-82.89802],[-109.5,-82.93138],[-110,-82.96346],[-110.5,-82.99429],[-111,-83.02391],[-111.5,-83.05236],[-112,-83.07966],[-112.5,-83.10584],[-113,-83.13093],[-113.5,-83.15496],[-114,-83.17794],[-114.5,-83.1999],[-115,-83.22087],[-115.5,-83.24085],[-116,-83.25987],[-116.5,-83.27795],[-117,-83.2951],[-117.5,-83.31134],[-118,-83.32668],[-118.5,-83.34114],[-119,-83.35472],[-119.5,-83.36744],[-120,-83.37931],[-112.46075,-86.19767]]}}],"attribution":"Eclipse Predictions by Fred Espenak and Jean Meeus (NASA's GSFC)","generated_at":"2026-09-23T01:44:55.996Z"}
