{"type":"FeatureCollection","year":754,"events":[{"id":"+07540625","year":754,"month":6,"day":25,"time_tdt":"05:23:15","type":"개기일식","type_code":"Tm","saros":97,"gamma":0.09549,"magnitude":1.03906,"greatest":{"lat":29.10405,"lng":112.74225},"path_width_km":131.6,"duration":"03m43s","delta_t_seconds":3316.7,"catalog_number":6570,"source":"NASA Five Millennium Canon of Solar Eclipses","source_url":"https://eclipse.gsfc.nasa.gov/SEsearch/SEsearchmap.php?Ecl=%2B07540625"},{"id":"+07541218","year":754,"month":12,"day":18,"time_tdt":"16:57:41","type":"금환일식","type_code":"A","saros":102,"gamma":-0.48236,"magnitude":0.97988,"greatest":{"lat":-52.5038,"lng":-64.49426},"path_width_km":81.9,"duration":"01m45s","delta_t_seconds":3312.6,"catalog_number":6571,"source":"NASA Five Millennium Canon of Solar Eclipses","source_url":"https://eclipse.gsfc.nasa.gov/SEsearch/SEsearchmap.php?Ecl=%2B07541218"}],"features":[{"type":"Feature","id":"+07540625:north:0","properties":{"id":"+07540625","year":754,"month":6,"day":25,"time_tdt":"05:23:15","type":"개기일식","type_code":"Tm","saros":97,"gamma":0.09549,"magnitude":1.03906,"greatest":{"lat":29.10405,"lng":112.74225},"path_width_km":131.6,"duration":"03m43s","delta_t_seconds":3316.7,"catalog_number":6570,"source":"NASA Five Millennium Canon of Solar Eclipses","source_url":"https://eclipse.gsfc.nasa.gov/SEsearch/SEsearchmap.php?Ecl=%2B07540625","boundary":"north","name":"754-06-25 개기일식"},"geometry":{"type":"LineString","coordinates":[[48.61719,2.48554],[49,2.65548],[49.5,2.8787],[50,3.10332],[50.5,3.32933],[51,3.55674],[51.5,3.78553],[52,4.01571],[52.5,4.24727],[53,4.4802],[53.5,4.7145],[54,4.95014],[54.5,5.18714],[55,5.42547],[55.5,5.66513],[56,5.9061],[56.5,6.14838],[57,6.39195],[57.5,6.63679],[58,6.88289],[58.5,7.13023],[59,7.37881],[59.5,7.62858],[60,7.87955],[60.5,8.13169],[61,8.38497],[61.5,8.63937],[62,8.89486],[62.5,9.15143],[63,9.40904],[63.5,9.66766],[64,9.92727],[64.5,10.18782],[65,10.44929],[65.5,10.71164],[66,10.97483],[66.5,11.23883],[67,11.50359],[67.5,11.76907],[68,12.03522],[68.5,12.302],[69,12.56937],[69.5,12.83726],[70,13.10563],[70.5,13.37443],[71,13.64359],[71.5,13.91307],[72,14.18279],[72.5,14.4527],[73,14.72274],[73.5,14.99283],[74,15.26291],[74.5,15.53291],[75,15.80276],[75.5,16.07238],[76,16.3417],[76.5,16.61064],[77,16.87912],[77.5,17.14707],[78,17.41439],[78.5,17.681],[79,17.94682],[79.5,18.21177],[80,18.47574],[80.5,18.73866],[81,19.00044],[81.5,19.26098],[82,19.52019],[82.5,19.77798],[83,20.03425],[83.5,20.28892],[84,20.54188],[84.5,20.79305],[85,21.04233],[85.5,21.28962],[86,21.53484],[86.5,21.77788],[87,22.01867],[87.5,22.2571],[88,22.49308],[88.5,22.72653],[89,22.95735],[89.5,23.18547],[90,23.41079],[90.5,23.63323],[91,23.8527],[91.5,24.06914],[92,24.28245],[92.5,24.49256],[93,24.6994],[93.5,24.90289],[94,25.10296],[94.5,25.29956],[95,25.4926],[95.5,25.68203],[96,25.86778],[96.5,26.0498],[97,26.22804],[97.5,26.40243],[98,26.57294],[98.5,26.7395],[99,26.90208],[99.5,27.06063],[100,27.2151],[100.5,27.36547],[101,27.5117],[101.5,27.65375],[102,27.79159],[102.5,27.92519],[103,28.05452],[103.5,28.17957],[104,28.3003],[104.5,28.4167],[105,28.52874],[105.5,28.63642],[106,28.73972],[106.5,28.83861],[107,28.9331],[107.5,29.02317],[108,29.10881],[108.5,29.19002],[109,29.2668],[109.5,29.33912],[110,29.40701],[110.5,29.47045],[111,29.52944],[111.5,29.58399],[112,29.63409],[112.5,29.67976],[113,29.72099],[113.5,29.75779],[114,29.79017],[114.5,29.81813],[115,29.84169],[115.5,29.86085],[116,29.87562],[116.5,29.88602],[117,29.89205],[117.5,29.89373],[118,29.89107],[118.5,29.88408],[119,29.87278],[119.5,29.85719],[120,29.83733],[120.5,29.8132],[121,29.78483],[121.5,29.75223],[122,29.71543],[122.5,29.67445],[123,29.6293],[123.5,29.58001],[124,29.5266],[124.5,29.4691],[125,29.40752],[125.5,29.3419],[126,29.27226],[126.5,29.19862],[127,29.12102],[127.5,29.03949],[128,28.95404],[128.5,28.86472],[129,28.77156],[129.5,28.67458],[130,28.57383],[130.5,28.46933],[131,28.36113],[131.5,28.24925],[132,28.13374],[132.5,28.01463],[133,27.89197],[133.5,27.7658],[134,27.63615],[134.5,27.50308],[135,27.36662],[135.5,27.22682],[136,27.08373],[136.5,26.93739],[137,26.78786],[137.5,26.63518],[138,26.47941],[138.5,26.32059],[139,26.15878],[139.5,25.99403],[140,25.8264],[140.5,25.65593],[141,25.4827],[141.5,25.30675],[142,25.12814],[142.5,24.94693],[143,24.76318],[143.5,24.57696],[144,24.38831],[144.5,24.19731],[145,24.00401],[145.5,23.80847],[146,23.61076],[146.5,23.41094],[147,23.20908],[147.5,23.00523],[148,22.79946],[148.5,22.59184],[149,22.38242],[149.5,22.17128],[150,21.95847],[150.5,21.74405],[151,21.5281],[151.5,21.31067],[152,21.09183],[152.5,20.87163],[153,20.65015],[153.5,20.42744],[154,20.20356],[154.5,19.97857],[155,19.75254],[155.5,19.52551],[156,19.29756],[156.5,19.06874],[157,18.8391],[157.5,18.6087],[158,18.3776],[158.5,18.14585],[159,17.9135],[159.5,17.68061],[160,17.44723],[160.5,17.2134],[161,16.97919],[161.5,16.74463],[162,16.50978],[162.5,16.27468],[163,16.03938],[163.5,15.80392],[164,15.56835],[164.5,15.3327],[165,15.09703],[165.5,14.86137],[166,14.62575],[166.5,14.39023],[167,14.15483],[167.5,13.9196],[168,13.68456],[168.5,13.44975],[169,13.21521],[169.5,12.98096],[170,12.74705],[170.5,12.51349],[171,12.28032],[171.5,12.04757],[172,11.81526],[172.5,11.58343],[173,11.35209],[173.5,11.12127],[174,10.891],[174.5,10.66129],[175,10.43218],[175.5,10.20367],[176,9.9758],[176.5,9.74859],[177,9.52204],[177.5,9.29619],[178,9.07104],[178.5,8.84662],[179,8.62294],[179.5,8.40001],[180,8.17786]]}},{"type":"Feature","id":"+07540625:center:0","properties":{"id":"+07540625","year":754,"month":6,"day":25,"time_tdt":"05:23:15","type":"개기일식","type_code":"Tm","saros":97,"gamma":0.09549,"magnitude":1.03906,"greatest":{"lat":29.10405,"lng":112.74225},"path_width_km":131.6,"duration":"03m43s","delta_t_seconds":3316.7,"catalog_number":6570,"source":"NASA Five Millennium Canon of Solar Eclipses","source_url":"https://eclipse.gsfc.nasa.gov/SEsearch/SEsearchmap.php?Ecl=%2B07540625","boundary":"center","name":"754-06-25 개기일식"},"geometry":{"type":"LineString","coordinates":[[48.78146,2.19528],[49,2.28945],[49.5,2.50931],[50,2.73055],[50.5,2.95316],[51,3.17715],[51.5,3.4025],[52,3.62921],[52.5,3.85728],[53,4.0867],[53.5,4.31747],[54,4.54957],[54.5,4.783],[55,5.01775],[55.5,5.25381],[56,5.49116],[56.5,5.7298],[57,5.96972],[57.5,6.2109],[58,6.45333],[58.5,6.69698],[59,6.94185],[59.5,7.18792],[60,7.43517],[60.5,7.68358],[61,7.93313],[61.5,8.18379],[62,8.43554],[62.5,8.68836],[63,8.94223],[63.5,9.1971],[64,9.45296],[64.5,9.70978],[65,9.96751],[65.5,10.22614],[66,10.48561],[66.5,10.7459],[67,11.00697],[67.5,11.26877],[68,11.53127],[68.5,11.79441],[69,12.05816],[69.5,12.32246],[70,12.58727],[70.5,12.85253],[71,13.11819],[71.5,13.3842],[72,13.65049],[72.5,13.91701],[73,14.1837],[73.5,14.45048],[74,14.71731],[74.5,14.9841],[75,15.25079],[75.5,15.51732],[76,15.78359],[76.5,16.04955],[77,16.31512],[77.5,16.58021],[78,16.84474],[78.5,17.10864],[79,17.37182],[79.5,17.6342],[80,17.89569],[80.5,18.1562],[81,18.41565],[81.5,18.67394],[82,18.93099],[82.5,19.18671],[83,19.44099],[83.5,19.69376],[84,19.94491],[84.5,20.19436],[85,20.44201],[85.5,20.68776],[86,20.93153],[86.5,21.17322],[87,21.41274],[87.5,21.65],[88,21.8849],[88.5,22.11735],[89,22.34727],[89.5,22.57457],[90,22.79916],[90.5,23.02096],[91,23.23987],[91.5,23.45582],[92,23.66873],[92.5,23.87852],[93,24.08511],[93.5,24.28842],[94,24.48839],[94.5,24.68494],[95,24.87801],[95.5,25.06752],[96,25.25342],[96.5,25.43564],[97,25.61413],[97.5,25.78882],[98,25.95967],[98.5,26.12662],[99,26.28963],[99.5,26.44864],[100,26.60362],[100.5,26.75452],[101,26.90129],[101.5,27.04392],[102,27.18236],[102.5,27.31657],[103,27.44654],[103.5,27.57222],[104,27.69361],[104.5,27.81066],[105,27.92337],[105.5,28.03171],[106,28.13566],[106.5,28.23522],[107,28.33036],[107.5,28.42107],[108,28.50735],[108.5,28.58918],[109,28.66656],[109.5,28.73948],[110,28.80795],[110.5,28.87195],[111,28.93148],[111.5,28.98655],[112,29.03715],[112.5,29.0833],[113,29.12498],[113.5,29.16222],[114,29.19501],[114.5,29.22336],[115,29.24728],[115.5,29.26677],[116,29.28186],[116.5,29.29254],[117,29.29884],[117.5,29.30076],[118,29.29832],[118.5,29.29153],[119,29.28041],[119.5,29.26497],[120,29.24523],[120.5,29.22121],[121,29.19294],[121.5,29.16042],[122,29.12367],[122.5,29.08273],[123,29.03762],[123.5,28.98834],[124,28.93494],[124.5,28.87743],[125,28.81585],[125.5,28.75021],[126,28.68055],[126.5,28.60689],[127,28.52926],[127.5,28.4477],[128,28.36224],[128.5,28.2729],[129,28.17973],[129.5,28.08275],[130,27.98201],[130.5,27.87754],[131,27.76937],[131.5,27.65755],[132,27.54212],[132.5,27.42311],[133,27.30057],[133.5,27.17454],[134,27.04507],[134.5,26.9122],[135,26.77597],[135.5,26.63645],[136,26.49366],[136.5,26.34767],[137,26.19852],[137.5,26.04626],[138,25.89095],[138.5,25.73264],[139,25.57138],[139.5,25.40724],[140,25.24025],[140.5,25.07049],[141,24.89801],[141.5,24.72287],[142,24.54512],[142.5,24.36483],[143,24.18205],[143.5,23.99685],[144,23.80929],[144.5,23.61943],[145,23.42733],[145.5,23.23306],[146,23.03667],[146.5,22.83823],[147,22.63781],[147.5,22.43546],[148,22.23125],[148.5,22.02525],[149,21.81751],[149.5,21.6081],[150,21.39708],[150.5,21.18453],[151,20.97048],[151.5,20.75502],[152,20.5382],[152.5,20.32009],[153,20.10074],[153.5,19.88022],[154,19.65858],[154.5,19.43588],[155,19.21219],[155.5,18.98756],[156,18.76204],[156.5,18.5357],[157,18.30859],[157.5,18.08077],[158,17.85228],[158.5,17.62319],[159,17.39354],[159.5,17.16338],[160,16.93277],[160.5,16.70175],[161,16.47038],[161.5,16.23869],[162,16.00674],[162.5,15.77458],[163,15.54223],[163.5,15.30976],[164,15.0772],[164.5,14.84459],[165,14.61197],[165.5,14.37938],[166,14.14686],[166.5,13.91445],[167,13.68218],[167.5,13.45009],[168,13.2182],[168.5,12.98657],[169,12.7552],[169.5,12.52415],[170,12.29343],[170.5,12.06308],[171,11.83312],[171.5,11.60358],[172,11.37449],[172.5,11.14588],[173,10.91776],[173.5,10.69017],[174,10.46312],[174.5,10.23664],[175,10.01074],[175.5,9.78546],[176,9.5608],[176.5,9.3368],[177,9.11346],[177.5,8.8908],[178,8.66884],[178.5,8.4476],[179,8.2271],[179.5,8.00734],[179.85221,7.85282]]}},{"type":"Feature","id":"+07540625:south:0","properties":{"id":"+07540625","year":754,"month":6,"day":25,"time_tdt":"05:23:15","type":"개기일식","type_code":"Tm","saros":97,"gamma":0.09549,"magnitude":1.03906,"greatest":{"lat":29.10405,"lng":112.74225},"path_width_km":131.6,"duration":"03m43s","delta_t_seconds":3316.7,"catalog_number":6570,"source":"NASA Five Millennium Canon of Solar Eclipses","source_url":"https://eclipse.gsfc.nasa.gov/SEsearch/SEsearchmap.php?Ecl=%2B07540625","boundary":"south","name":"754-06-25 개기일식"},"geometry":{"type":"LineString","coordinates":[[49,1.92607],[49.5,2.14261],[50,2.36051],[50.5,2.57977],[51,2.80037],[51.5,3.02232],[52,3.24561],[52.5,3.47024],[53,3.6962],[53.5,3.92348],[54,4.15208],[54.5,4.38199],[55,4.6132],[55.5,4.84571],[56,5.07949],[56.5,5.31454],[57,5.55086],[57.5,5.78842],[58,6.02721],[58.5,6.26722],[59,6.50844],[59.5,6.75084],[60,6.99441],[60.5,7.23913],[61,7.48499],[61.5,7.73195],[62,7.98],[62.5,8.22912],[63,8.47927],[63.5,8.73044],[64,8.98259],[64.5,9.2357],[65,9.48973],[65.5,9.74466],[66,10.00045],[66.5,10.25706],[67,10.51446],[67.5,10.77261],[68,11.03147],[68.5,11.291],[69,11.55115],[69.5,11.81187],[70,12.07313],[70.5,12.33486],[71,12.59703],[71.5,12.85957],[72,13.12243],[72.5,13.38556],[73,13.64889],[73.5,13.91236],[74,14.17592],[74.5,14.43949],[75,14.70301],[75.5,14.96642],[76,15.22963],[76.5,15.49258],[77,15.7552],[77.5,16.0174],[78,16.27912],[78.5,16.54026],[79,16.80076],[79.5,17.06053],[80,17.31948],[80.5,17.57752],[81,17.83459],[81.5,18.09057],[82,18.3454],[82.5,18.59897],[83,18.8512],[83.5,19.10199],[84,19.35126],[84.5,19.59891],[85,19.84485],[85.5,20.08899],[86,20.33123],[86.5,20.57148],[87,20.80964],[87.5,21.04564],[88,21.27937],[88.5,21.51075],[89,21.73967],[89.5,21.96607],[90,22.18983],[90.5,22.41089],[91,22.62916],[91.5,22.84454],[92,23.05696],[92.5,23.26633],[93,23.47258],[93.5,23.67564],[94,23.87541],[94.5,24.07184],[95,24.26485],[95.5,24.45437],[96,24.64033],[96.5,24.82268],[97,25.00134],[97.5,25.17627],[98,25.34739],[98.5,25.51467],[99,25.67804],[99.5,25.83745],[100,25.99287],[100.5,26.14424],[101,26.29152],[101.5,26.43467],[102,26.57365],[102.5,26.70844],[103,26.83899],[103.5,26.96528],[104,27.08727],[104.5,27.20495],[105,27.31828],[105.5,27.42725],[106,27.53183],[106.5,27.63202],[107,27.72778],[107.5,27.81912],[108,27.90601],[108.5,27.98844],[109,28.06641],[109.5,28.13991],[110,28.20894],[110.5,28.27349],[111,28.33355],[111.5,28.38913],[112,28.44023],[112.5,28.48685],[113,28.52898],[113.5,28.56665],[114,28.59985],[114.5,28.62858],[115,28.65286],[115.5,28.6727],[116,28.6881],[116.5,28.69908],[117,28.70565],[117.5,28.70782],[118,28.7056],[118.5,28.69902],[119,28.68808],[119.5,28.6728],[120,28.65321],[120.5,28.62932],[121,28.60115],[121.5,28.56872],[122,28.53206],[122.5,28.49118],[123,28.44612],[123.5,28.39688],[124,28.34351],[124.5,28.28603],[125,28.22446],[125.5,28.15883],[126,28.08918],[126.5,28.01553],[127,27.93791],[127.5,27.85636],[128,27.77091],[128.5,27.6816],[129,27.58846],[129.5,27.49152],[130,27.39083],[130.5,27.28643],[131,27.17835],[131.5,27.06663],[132,26.95132],[132.5,26.83246],[133,26.71009],[133.5,26.58426],[134,26.45502],[134.5,26.32241],[135,26.18648],[135.5,26.04727],[136,25.90485],[136.5,25.75926],[137,25.61055],[137.5,25.45878],[138,25.30399],[138.5,25.14625],[139,24.98562],[139.5,24.82214],[140,24.65587],[140.5,24.48687],[141,24.31521],[141.5,24.14094],[142,23.96411],[142.5,23.7848],[143,23.60306],[143.5,23.41895],[144,23.23254],[144.5,23.04388],[145,22.85305],[145.5,22.66009],[146,22.46509],[146.5,22.26809],[147,22.06916],[147.5,21.86837],[148,21.66578],[148.5,21.46145],[149,21.25544],[149.5,21.04782],[150,20.83865],[150.5,20.62799],[151,20.41591],[151.5,20.20246],[152,19.98771],[152.5,19.77171],[153,19.55454],[153.5,19.33624],[154,19.11687],[154.5,18.8965],[155,18.67518],[155.5,18.45297],[156,18.22992],[156.5,18.00608],[157,17.78153],[157.5,17.55629],[158,17.33044],[158.5,17.10402],[159,16.87708],[159.5,16.64967],[160,16.42184],[160.5,16.19363],[161,15.9651],[161.5,15.73629],[162,15.50725],[162.5,15.27801],[163,15.04863],[163.5,14.81913],[164,14.58958],[164.5,14.35999],[165,14.13042],[165.5,13.9009],[166,13.67146],[166.5,13.44215],[167,13.21299],[167.5,12.98402],[168,12.75528],[168.5,12.52679],[169,12.29859],[169.5,12.0707],[170,11.84315],[170.5,11.61598],[171,11.38921],[171.5,11.16287],[172,10.93697],[172.5,10.71155],[173,10.48663],[173.5,10.26223],[174,10.03838],[174.5,9.81509],[175,9.59239],[175.5,9.37029],[176,9.14882],[176.5,8.92799],[177,8.70782],[177.5,8.48833],[178,8.26953],[178.5,8.05144],[179,7.83408],[179.5,7.61745],[179.67188,7.54316]]}},{"type":"Feature","id":"+07541218:north:0","properties":{"id":"+07541218","year":754,"month":12,"day":18,"time_tdt":"16:57:41","type":"금환일식","type_code":"A","saros":102,"gamma":-0.48236,"magnitude":0.97988,"greatest":{"lat":-52.5038,"lng":-64.49426},"path_width_km":81.9,"duration":"01m45s","delta_t_seconds":3312.6,"catalog_number":6571,"source":"NASA Five Millennium Canon of Solar Eclipses","source_url":"https://eclipse.gsfc.nasa.gov/SEsearch/SEsearchmap.php?Ecl=%2B07541218","boundary":"north","name":"754-12-18 금환일식"},"geometry":{"type":"LineString","coordinates":[[-135.49023,-20.90225],[-135,-21.12499],[-134.5,-21.35399],[-134,-21.58485],[-133.5,-21.81755],[-133,-22.05209],[-132.5,-22.28848],[-132,-22.5267],[-132,-22.52671],[-131.5,-22.76676],[-131,-23.00864],[-130.5,-23.25234],[-130,-23.49785],[-129.5,-23.74515],[-129.5,-23.74516],[-129,-23.99425],[-128.5,-24.24512],[-128,-24.49775],[-127.5,-24.75213],[-127,-25.00824],[-126.5,-25.26607],[-126,-25.52558],[-125.5,-25.78677],[-125,-26.0496],[-124.5,-26.31407],[-124,-26.58012],[-123.5,-26.84775],[-123,-27.11692],[-122.5,-27.38759],[-122,-27.65974],[-121.5,-27.93332],[-121,-28.2083],[-120.5,-28.48464],[-120,-28.76229],[-119.5,-29.04121],[-119,-29.32135],[-118.5,-29.60267],[-118,-29.8851],[-117.5,-30.1686],[-117,-30.4531],[-116.5,-30.73856],[-116,-31.0249],[-115.5,-31.31206],[-115,-31.59998],[-114.5,-31.88858],[-114,-32.1778],[-113.5,-32.46757],[-113,-32.7578],[-112.5,-33.04841],[-112,-33.33934],[-111.5,-33.63049],[-111,-33.92179],[-110.5,-34.21314],[-110,-34.50447],[-109.5,-34.79567],[-109,-35.08667],[-108.5,-35.37736],[-108,-35.66766],[-107.5,-35.95747],[-107,-36.24671],[-106.5,-36.53526],[-106,-36.82304],[-105.5,-37.10996],[-105,-37.39591],[-104.5,-37.6808],[-104,-37.96453],[-103.5,-38.24702],[-103,-38.52816],[-102.5,-38.80786],[-102,-39.08603],[-102,-39.08604],[-101.5,-39.36259],[-101,-39.63743],[-100.5,-39.91048],[-100,-40.18164],[-99.5,-40.45084],[-99,-40.71798],[-98.5,-40.983],[-98,-41.24581],[-97.5,-41.50634],[-97,-41.76452],[-96.5,-42.02028],[-96,-42.27354],[-95.5,-42.52426],[-95,-42.77236],[-94.5,-43.01779],[-94,-43.26049],[-93.5,-43.50041],[-93,-43.73751],[-92.5,-43.97173],[-92,-44.20304],[-91.5,-44.4314],[-91,-44.65676],[-90.5,-44.87909],[-90,-45.09837],[-89.5,-45.31457],[-89,-45.52765],[-88.5,-45.7376],[-88,-45.9444],[-87.5,-46.14802],[-87,-46.34846],[-86.5,-46.5457],[-86,-46.73973],[-85.5,-46.93054],[-85,-47.11813],[-84.5,-47.30249],[-84,-47.48362],[-83.5,-47.66151],[-83,-47.83618],[-82.5,-48.00762],[-82,-48.17583],[-81.5,-48.34083],[-81,-48.50261],[-80.5,-48.6612],[-80,-48.81658],[-79.5,-48.96879],[-79,-49.11782],[-78.5,-49.26369],[-78,-49.40642],[-77.5,-49.54601],[-77,-49.68248],[-76.5,-49.81585],[-76,-49.94613],[-75.5,-50.07334],[-75,-50.19749],[-74.5,-50.3186],[-74,-50.43669],[-73.5,-50.55178],[-73,-50.66388],[-72.5,-50.77301],[-72,-50.87918],[-71.5,-50.98243],[-71,-51.08275],[-70.5,-51.18018],[-70,-51.27473],[-69.5,-51.36641],[-69,-51.45525],[-68.5,-51.54126],[-68,-51.62446],[-68,-51.62445],[-67.5,-51.70486],[-67,-51.78249],[-66.5,-51.85735],[-66,-51.92947],[-65.5,-51.99887],[-65,-52.06555],[-64.5,-52.12953],[-64,-52.19083],[-63.5,-52.24947],[-63,-52.30545],[-62.5,-52.35879],[-62,-52.4095],[-61.5,-52.45761],[-61,-52.50311],[-60.5,-52.54603],[-60,-52.58637],[-59.5,-52.62415],[-59,-52.65938],[-58.5,-52.69207],[-58,-52.72223],[-57.5,-52.74987],[-57,-52.775],[-56.5,-52.79762],[-56,-52.81776],[-55.5,-52.83541],[-55,-52.85058],[-54.5,-52.86329],[-54,-52.87354],[-53.5,-52.88133],[-53,-52.88667],[-52.5,-52.88958],[-52,-52.89005],[-51.5,-52.88808],[-51,-52.88369],[-50.5,-52.87688],[-50,-52.86765],[-49.5,-52.85601],[-49,-52.84196],[-48.5,-52.8255],[-48,-52.80664],[-47.5,-52.78538],[-47,-52.76171],[-46.5,-52.73565],[-46,-52.70719],[-45.5,-52.67634],[-45,-52.64309],[-44.5,-52.60745],[-44,-52.56941],[-44,-52.56942],[-43.5,-52.52899],[-43,-52.48617],[-42.5,-52.44095],[-42,-52.39334],[-41.5,-52.34334],[-41,-52.29094],[-40.5,-52.23614],[-40,-52.17894],[-39.5,-52.11935],[-39,-52.05735],[-38.5,-51.99295],[-38,-51.92615],[-37.5,-51.85694],[-37,-51.78533],[-36.5,-51.7113],[-36,-51.63486],[-35.5,-51.55602],[-35.5,-51.55601],[-35,-51.47475],[-34.5,-51.39107],[-34,-51.30497],[-33.5,-51.21646],[-33,-51.12552],[-32.5,-51.03216],[-32,-50.93638],[-31.5,-50.83817],[-31,-50.73754],[-30.5,-50.63449],[-30,-50.52901],[-29.5,-50.42111],[-29,-50.31079],[-28.5,-50.19804],[-28,-50.08288],[-27.5,-49.96529],[-27,-49.84529],[-26.5,-49.72288],[-26,-49.59806],[-25.5,-49.47083],[-25,-49.3412],[-24.5,-49.20917],[-24,-49.07476],[-23.5,-48.93796],[-23,-48.79879],[-22.5,-48.65724],[-22,-48.51334],[-21.5,-48.36709],[-21,-48.2185],[-20.5,-48.06757],[-20,-47.91434],[-19.5,-47.75879],[-19,-47.60096],[-18.5,-47.44085],[-18,-47.27849],[-17.5,-47.11388],[-17,-46.94704],[-16.5,-46.778],[-16,-46.60677],[-15.5,-46.43338],[-15,-46.25784],[-14.5,-46.08018],[-14,-45.90042],[-13.5,-45.71859],[-13,-45.53471],[-12.5,-45.34882],[-12,-45.16093],[-11.5,-44.97108],[-11,-44.7793],[-10.5,-44.58561],[-10,-44.39006],[-9.5,-44.19267],[-9,-43.99349],[-8.5,-43.79253],[-8,-43.58985],[-7.5,-43.38547],[-7,-43.17944],[-6.5,-42.9718],[-6,-42.76257],[-5.5,-42.55182],[-5,-42.33957],[-4.5,-42.12586],[-4,-41.91075],[-3.5,-41.69426],[-3,-41.47646],[-2.5,-41.25738],[-2,-41.03706],[-1.5,-40.81555],[-1,-40.5929],[-0.5,-40.36915],[0,-40.14435],[0.5,-39.91855],[1,-39.69178],[1.5,-39.46411],[2,-39.23557],[2.5,-39.00621],[3,-38.77608],[3.5,-38.54523],[4,-38.3137],[4.5,-38.08154],[5,-37.84879],[5.5,-37.6155],[6,-37.38172],[6.5,-37.1475],[7,-36.91287],[7.5,-36.67788],[8,-36.44257],[8.5,-36.207],[9,-35.9712],[9.5,-35.73521],[10,-35.49908],[10.5,-35.26285],[11,-35.02655],[11.5,-34.79024],[12,-34.55394],[12.5,-34.3177],[13,-34.08155],[13.5,-33.84554],[14,-33.60969],[14.5,-33.37405],[15,-33.13865],[15.5,-32.90351],[16,-32.66869],[16.5,-32.4342],[17,-32.20008],[17.5,-31.96636],[18,-31.73307],[18.5,-31.50024],[19,-31.26789],[19.5,-31.03606],[20,-30.80478],[20.42773,-30.60737]]}},{"type":"Feature","id":"+07541218:center:0","properties":{"id":"+07541218","year":754,"month":12,"day":18,"time_tdt":"16:57:41","type":"금환일식","type_code":"A","saros":102,"gamma":-0.48236,"magnitude":0.97988,"greatest":{"lat":-52.5038,"lng":-64.49426},"path_width_km":81.9,"duration":"01m45s","delta_t_seconds":3312.6,"catalog_number":6571,"source":"NASA Five Millennium Canon of Solar Eclipses","source_url":"https://eclipse.gsfc.nasa.gov/SEsearch/SEsearchmap.php?Ecl=%2B07541218","boundary":"center","name":"754-12-18 금환일식"},"geometry":{"type":"LineString","coordinates":[[-135.95012,-21.45808],[-135.5,-21.66414],[-135,-21.88974],[-134.5,-22.11716],[-134,-22.34641],[-133.5,-22.57748],[-133,-22.81037],[-132.5,-23.04508],[-132,-23.28159],[-131.5,-23.51991],[-131,-23.76003],[-130.5,-24.00193],[-130,-24.24561],[-129.5,-24.49106],[-129,-24.73827],[-128.5,-24.98722],[-128,-25.2379],[-127.5,-25.49029],[-127,-25.74437],[-126.5,-26.00014],[-126,-26.25755],[-125.5,-26.5166],[-125,-26.77726],[-124.5,-27.03951],[-124,-27.30331],[-123.5,-27.56863],[-123,-27.83546],[-122.5,-28.10374],[-122,-28.37346],[-121.5,-28.64456],[-121,-28.91702],[-120.5,-29.19079],[-120,-29.46582],[-119.5,-29.74207],[-119,-30.01949],[-118.5,-30.29804],[-118,-30.57765],[-117.5,-30.85828],[-117,-31.13987],[-116.5,-31.42235],[-116,-31.70566],[-115.5,-31.98974],[-115,-32.27453],[-114.5,-32.55995],[-114,-32.84594],[-113.5,-33.13241],[-113,-33.4193],[-112.5,-33.70652],[-112,-33.99401],[-111.5,-34.28166],[-111,-34.56942],[-110.5,-34.85717],[-110,-35.14486],[-109.5,-35.43237],[-109,-35.71963],[-108.5,-36.00654],[-108,-36.29302],[-107.5,-36.57897],[-107,-36.8643],[-106.5,-37.14892],[-106,-37.43272],[-106,-37.43273],[-105.5,-37.71563],[-105,-37.99754],[-104.5,-38.27837],[-104,-38.55801],[-103.5,-38.83638],[-103,-39.11339],[-102.5,-39.38894],[-102,-39.66295],[-101.5,-39.93532],[-101,-40.20598],[-100.5,-40.47483],[-100,-40.7418],[-99.5,-41.0068],[-99,-41.26975],[-98.5,-41.53058],[-98,-41.78922],[-97.5,-42.04558],[-97,-42.29961],[-96.5,-42.55124],[-96,-42.80039],[-95.5,-43.04702],[-95,-43.29106],[-94.5,-43.53246],[-94,-43.77117],[-93.5,-44.00713],[-93,-44.2403],[-92.5,-44.47064],[-92,-44.6981],[-91.5,-44.92266],[-91,-45.14426],[-90.5,-45.36289],[-90,-45.57851],[-89.5,-45.7911],[-89,-46.00063],[-88.5,-46.20708],[-88,-46.41043],[-87.5,-46.61067],[-87,-46.80777],[-86.5,-47.00174],[-86,-47.19256],[-85.5,-47.38022],[-85,-47.56472],[-84.5,-47.74605],[-84,-47.92421],[-83.5,-48.09921],[-83,-48.27103],[-82.5,-48.43969],[-82,-48.6052],[-81.5,-48.76755],[-81,-48.92675],[-80.5,-49.08281],[-80,-49.23574],[-79.5,-49.38556],[-79,-49.53227],[-78.5,-49.67588],[-78,-49.8164],[-77.5,-49.95386],[-77,-50.08826],[-76.5,-50.21962],[-76,-50.34796],[-75.5,-50.47329],[-75,-50.59562],[-74.5,-50.71498],[-74,-50.83137],[-73.5,-50.94482],[-73,-51.05535],[-72.5,-51.16296],[-72,-51.26768],[-71.5,-51.36953],[-71,-51.46852],[-70.5,-51.56467],[-70,-51.658],[-69.5,-51.74852],[-69,-51.83625],[-68.5,-51.92121],[-68,-52.00342],[-67.5,-52.08289],[-67,-52.15964],[-66.5,-52.23368],[-66,-52.30503],[-65.5,-52.3737],[-65,-52.43972],[-64.5,-52.5031],[-64,-52.56384],[-63.5,-52.62197],[-63,-52.6775],[-62.5,-52.73044],[-62,-52.78081],[-61.5,-52.82862],[-61,-52.87388],[-60.5,-52.91661],[-60,-52.95681],[-59.5,-52.9945],[-59,-53.02968],[-58.5,-53.06238],[-58,-53.0926],[-57.5,-53.12034],[-57,-53.14563],[-56.5,-53.16846],[-56,-53.18885],[-55.5,-53.20681],[-55,-53.22233],[-54.5,-53.23544],[-54,-53.24614],[-53.5,-53.25443],[-53,-53.26032],[-52.5,-53.26382],[-52,-53.26493],[-51.5,-53.26366],[-51,-53.26001],[-50.5,-53.25399],[-50,-53.2456],[-49.5,-53.23485],[-49,-53.22173],[-48.5,-53.20625],[-48,-53.18842],[-47.5,-53.16823],[-47,-53.1457],[-46.5,-53.12081],[-46,-53.09358],[-45.5,-53.064],[-45,-53.03207],[-44.5,-52.9978],[-44,-52.96118],[-43.5,-52.92222],[-43,-52.88092],[-42.5,-52.83727],[-42,-52.79128],[-41.5,-52.74294],[-41,-52.69225],[-40.5,-52.63922],[-40,-52.58384],[-39.5,-52.52611],[-39,-52.46602],[-38.5,-52.40359],[-38,-52.3388],[-37.5,-52.27165],[-37,-52.20215],[-36.5,-52.13029],[-36,-52.05606],[-35.5,-51.97948],[-35,-51.90053],[-34.5,-51.81921],[-34,-51.73553],[-33.5,-51.64948],[-33,-51.56105],[-32.5,-51.47026],[-32,-51.37709],[-31.5,-51.28155],[-31,-51.18364],[-30.5,-51.08335],[-30,-50.98069],[-29.5,-50.87565],[-29,-50.76824],[-28.5,-50.65846],[-28,-50.5463],[-27.5,-50.43178],[-27,-50.31488],[-26.5,-50.19563],[-26,-50.074],[-25.5,-49.95002],[-25,-49.82369],[-24.5,-49.695],[-24,-49.56397],[-23.5,-49.4306],[-23,-49.2949],[-22.5,-49.15687],[-22,-49.01653],[-21.5,-48.87387],[-21,-48.72892],[-20.5,-48.58168],[-20,-48.43215],[-19.5,-48.28037],[-19,-48.12633],[-18.5,-47.97005],[-18,-47.81154],[-17.5,-47.65082],[-17,-47.48791],[-16.5,-47.32283],[-16,-47.15559],[-15.5,-46.9862],[-15,-46.8147],[-14.5,-46.64111],[-14,-46.46544],[-13.5,-46.28772],[-13,-46.10797],[-12.5,-45.92622],[-12,-45.7425],[-11.5,-45.55683],[-11,-45.36924],[-10.5,-45.17976],[-10,-44.98842],[-9.5,-44.79526],[-9,-44.6003],[-8.5,-44.40358],[-8,-44.20513],[-7.5,-44.00499],[-7,-43.8032],[-6.5,-43.59979],[-6,-43.3948],[-5.5,-43.18826],[-5,-42.98022],[-4.5,-42.77072],[-4,-42.5598],[-3.5,-42.34749],[-3,-42.13385],[-2.5,-41.91891],[-2,-41.70272],[-1.5,-41.48532],[-1,-41.26675],[-0.5,-41.04706],[0,-40.8263],[0.5,-40.6045],[1,-40.38172],[1.5,-40.15799],[2,-39.93337],[2.5,-39.7079],[3,-39.48162],[3.5,-39.25459],[4,-39.02684],[4.5,-38.79842],[5,-38.56938],[5.5,-38.33977],[6,-38.10962],[6.5,-37.87898],[7,-37.64789],[7.5,-37.41641],[8,-37.18457],[8.5,-36.95241],[9,-36.71999],[9.5,-36.48733],[10,-36.25449],[10.5,-36.0215],[11,-35.7884],[11.5,-35.55524],[12,-35.32205],[12.5,-35.08887],[13,-34.85574],[13.5,-34.62269],[14,-34.38977],[14.5,-34.157],[15,-33.92443],[15.5,-33.69208],[16,-33.45999],[16.5,-33.2282],[17,-32.99673],[17.5,-32.76562],[18,-32.53489],[18.5,-32.30457],[19,-32.0747],[19.5,-31.8453],[20,-31.6164],[20.5,-31.38803],[20.95062,-31.17913]]}},{"type":"Feature","id":"+07541218:south:0","properties":{"id":"+07541218","year":754,"month":12,"day":18,"time_tdt":"16:57:41","type":"금환일식","type_code":"A","saros":102,"gamma":-0.48236,"magnitude":0.97988,"greatest":{"lat":-52.5038,"lng":-64.49426},"path_width_km":81.9,"duration":"01m45s","delta_t_seconds":3312.6,"catalog_number":6571,"source":"NASA Five Millennium Canon of Solar Eclipses","source_url":"https://eclipse.gsfc.nasa.gov/SEsearch/SEsearchmap.php?Ecl=%2B07541218","boundary":"south","name":"754-12-18 금환일식"},"geometry":{"type":"LineString","coordinates":[[-136.42969,-22.02072],[-136,-22.21024],[-135.5,-22.43245],[-135,-22.65647],[-134.5,-22.88229],[-134,-23.10992],[-133.5,-23.33934],[-133,-23.57055],[-132.5,-23.80356],[-132,-24.03835],[-132,-24.03834],[-131.5,-24.27491],[-131,-24.51324],[-130.5,-24.75333],[-130,-24.99516],[-129.5,-25.23874],[-129,-25.48403],[-128.5,-25.73104],[-128,-25.97974],[-127.5,-26.23012],[-127,-26.48215],[-126.5,-26.73583],[-126,-26.99112],[-125.5,-27.24801],[-125,-27.50647],[-124.5,-27.76647],[-124,-28.02799],[-123.5,-28.29099],[-123,-28.55545],[-122.5,-28.82133],[-122,-29.08858],[-121.5,-29.35719],[-121,-29.62709],[-120.5,-29.89826],[-120,-30.17065],[-119.5,-30.44421],[-119,-30.71889],[-118.5,-30.99465],[-118,-31.27142],[-117.5,-31.54916],[-117,-31.8278],[-116.5,-32.10728],[-116,-32.38755],[-115.5,-32.66854],[-115.5,-32.66853],[-115,-32.95017],[-114.5,-33.23239],[-114,-33.51512],[-113.5,-33.79829],[-113,-34.08182],[-112.5,-34.36564],[-112,-34.64966],[-111.5,-34.93381],[-111,-35.21801],[-110.5,-35.50216],[-110,-35.78619],[-109.5,-36.07001],[-109,-36.35353],[-108.5,-36.63666],[-108,-36.91932],[-107.5,-37.20141],[-107,-37.48284],[-106.5,-37.76352],[-106,-38.04336],[-105.5,-38.32227],[-105,-38.60015],[-104.5,-38.87692],[-104,-39.15249],[-103.5,-39.42676],[-103,-39.69965],[-102.5,-39.97107],[-102,-40.24093],[-101.5,-40.50915],[-101,-40.77564],[-100.5,-41.04033],[-100,-41.30313],[-99.5,-41.56396],[-99,-41.82275],[-98.5,-42.07943],[-98,-42.33392],[-97.5,-42.58616],[-97,-42.83608],[-96.5,-43.08361],[-96,-43.32869],[-95.5,-43.57128],[-95,-43.8113],[-94.5,-44.04871],[-94,-44.28346],[-93.5,-44.5155],[-93,-44.74479],[-92.5,-44.97129],[-92,-45.19495],[-91.5,-45.41575],[-91,-45.63364],[-90.5,-45.84861],[-90,-46.06061],[-89.5,-46.26964],[-89,-46.47565],[-88.5,-46.67865],[-88,-46.87859],[-87.5,-47.07549],[-87,-47.2693],[-86.5,-47.46004],[-86,-47.64769],[-85.5,-47.83224],[-85,-48.01369],[-84.5,-48.19203],[-84,-48.36726],[-83.5,-48.53939],[-83,-48.70842],[-83,-48.70841],[-82.5,-48.87434],[-82,-49.03716],[-81.5,-49.1969],[-81,-49.35355],[-80.5,-49.50713],[-80,-49.65764],[-79.5,-49.8051],[-79,-49.94951],[-78.5,-50.09088],[-78,-50.22924],[-77.5,-50.36459],[-77,-50.49695],[-76.5,-50.62633],[-76,-50.75275],[-75.5,-50.87622],[-75.5,-50.87621],[-75,-50.99675],[-74.5,-51.11437],[-74,-51.22909],[-73.5,-51.34093],[-73,-51.44989],[-72.5,-51.55601],[-72,-51.6593],[-71.5,-51.75977],[-71,-51.85744],[-70.5,-51.95232],[-70,-52.04445],[-69.5,-52.13382],[-69,-52.22046],[-68.5,-52.30439],[-68,-52.38561],[-67.5,-52.46415],[-67,-52.54003],[-66.5,-52.61325],[-66,-52.68384],[-65.5,-52.75181],[-65,-52.81717],[-64.5,-52.87994],[-64,-52.94014],[-63.5,-52.99777],[-63,-53.05285],[-62.5,-53.1054],[-62,-53.15543],[-61.5,-53.20294],[-61,-53.24796],[-60.5,-53.29049],[-60,-53.33055],[-59.5,-53.36815],[-59,-53.40329],[-58.5,-53.43599],[-58,-53.46627],[-57.5,-53.49412],[-57,-53.51955],[-56.5,-53.54259],[-56,-53.56323],[-55.5,-53.58149],[-55,-53.59736],[-54.5,-53.61086],[-54.5,-53.61087],[-54,-53.622],[-54,-53.62201],[-53.5,-53.63079],[-53,-53.63722],[-52.5,-53.6413],[-52,-53.64305],[-51.5,-53.64246],[-51,-53.63954],[-50.5,-53.6343],[-50,-53.62673],[-49.5,-53.61685],[-49,-53.60465],[-48.5,-53.59014],[-48,-53.57333],[-47.5,-53.55421],[-47,-53.53278],[-46.5,-53.50905],[-46,-53.48303],[-45.5,-53.4547],[-45,-53.42408],[-44.5,-53.39116],[-44,-53.35594],[-43.5,-53.31843],[-43,-53.27862],[-42.5,-53.23652],[-42,-53.19212],[-41.5,-53.14542],[-41,-53.09643],[-40.5,-53.04513],[-40,-52.99154],[-39.5,-52.93565],[-39,-52.87745],[-38.5,-52.81695],[-38,-52.75415],[-37.5,-52.68904],[-37,-52.62162],[-36.5,-52.55189],[-36,-52.47985],[-35.5,-52.4055],[-35,-52.32883],[-34.5,-52.24984],[-34,-52.16854],[-33.5,-52.08492],[-33,-51.99898],[-32.5,-51.91072],[-32.5,-51.91071],[-32,-51.82013],[-31.5,-51.72722],[-31,-51.63198],[-30.5,-51.53442],[-30,-51.43453],[-29.5,-51.33232],[-29,-51.22779],[-28.5,-51.12092],[-28,-51.01174],[-27.5,-50.90023],[-27,-50.7864],[-26.5,-50.67026],[-26,-50.55179],[-25.5,-50.43102],[-25,-50.30793],[-24.5,-50.18254],[-24,-50.05485],[-23.5,-49.92487],[-23,-49.79259],[-22.5,-49.65804],[-22,-49.5212],[-21.5,-49.3821],[-21,-49.24074],[-20.5,-49.09713],[-20,-48.95129],[-19.5,-48.80321],[-19,-48.65291],[-18.5,-48.50042],[-18,-48.34573],[-17.5,-48.18886],[-17,-48.02983],[-16.5,-47.86866],[-16,-47.70536],[-15.5,-47.53995],[-15,-47.37245],[-14.5,-47.20288],[-14,-47.03126],[-13.5,-46.85761],[-13,-46.68195],[-12.5,-46.50431],[-12,-46.32472],[-11.5,-46.14319],[-11,-45.95977],[-10.5,-45.77446],[-10,-45.58731],[-9.5,-45.39834],[-9,-45.20758],[-8.5,-45.01507],[-8,-44.82083],[-7.5,-44.62491],[-7,-44.42733],[-6.5,-44.22813],[-6,-44.02735],[-5.5,-43.82502],[-5,-43.62118],[-4.5,-43.41586],[-4,-43.20912],[-3.5,-43.00098],[-3,-42.7915],[-2.5,-42.5807],[-2,-42.36862],[-1.5,-42.15533],[-1,-41.94084],[-0.5,-41.72521],[0,-41.50848],[0.5,-41.2907],[1,-41.0719],[1.5,-40.85213],[2,-40.63144],[2.5,-40.40986],[3,-40.18745],[3.5,-39.96425],[4,-39.7403],[4.5,-39.51564],[5,-39.29033],[5.5,-39.0644],[6,-38.8379],[6.5,-38.61087],[7,-38.38336],[7.5,-38.15541],[8,-37.92706],[8.5,-37.69835],[9,-37.46932],[9,-37.46933],[9.5,-37.24003],[10,-37.01051],[10.5,-36.78079],[11,-36.55093],[11.5,-36.32095],[12,-36.0909],[12.5,-35.86081],[13,-35.63073],[13.5,-35.40069],[14,-35.17072],[14.5,-34.94087],[15,-34.71117],[15.5,-34.48164],[16,-34.25233],[16.5,-34.02327],[17,-33.79449],[17.5,-33.56602],[18,-33.33789],[18.5,-33.11013],[19,-32.88277],[19.5,-32.65584],[20,-32.42937],[20.5,-32.20338],[21,-31.97789],[21.5,-31.75294]]}}],"attribution":"Eclipse Predictions by Fred Espenak and Jean Meeus (NASA's GSFC)","generated_at":"2026-09-23T01:44:55.948Z"}
