{"type":"FeatureCollection","year":763,"events":[{"id":"+07630119","year":763,"month":1,"day":19,"time_tdt":"01:00:28","type":"부분일식","type_code":"P","saros":111,"gamma":1.30217,"magnitude":0.44696,"greatest":{"lat":62.95823,"lng":136.64673},"path_width_km":0,"duration":"00m00s","delta_t_seconds":3244,"catalog_number":6589,"source":"NASA Five Millennium Canon of Solar Eclipses","source_url":"https://eclipse.gsfc.nasa.gov/SEsearch/SEsearchmap.php?Ecl=%2B07630119"},{"id":"+07630616","year":763,"month":6,"day":16,"time_tdt":"04:27:29","type":"부분일식","type_code":"P","saros":78,"gamma":1.2526,"magnitude":0.53255,"greatest":{"lat":66.06258,"lng":-64.51489},"path_width_km":0,"duration":"00m00s","delta_t_seconds":3240.6,"catalog_number":6590,"source":"NASA Five Millennium Canon of Solar Eclipses","source_url":"https://eclipse.gsfc.nasa.gov/SEsearch/SEsearchmap.php?Ecl=%2B07630616"},{"id":"+07630715","year":763,"month":7,"day":15,"time_tdt":"13:14:24","type":"부분일식","type_code":"P","saros":116,"gamma":-1.3432,"magnitude":0.36255,"greatest":{"lat":-63.66703,"lng":-42.39819},"path_width_km":0,"duration":"00m00s","delta_t_seconds":3239.9,"catalog_number":6591,"source":"NASA Five Millennium Canon of Solar Eclipses","source_url":"https://eclipse.gsfc.nasa.gov/SEsearch/SEsearchmap.php?Ecl=%2B07630715"},{"id":"+07631209","year":763,"month":12,"day":9,"time_tdt":"14:25:24","type":"금환일식","type_code":"A","saros":83,"gamma":-0.93479,"magnitude":0.98721,"greatest":{"lat":-86.60265,"lng":127.67651},"path_width_km":130.6,"duration":"00m45s","delta_t_seconds":3236.5,"catalog_number":6592,"source":"NASA Five Millennium Canon of Solar Eclipses","source_url":"https://eclipse.gsfc.nasa.gov/SEsearch/SEsearchmap.php?Ecl=%2B07631209"}],"features":[{"type":"Feature","id":"+07631209:north:0","properties":{"id":"+07631209","year":763,"month":12,"day":9,"time_tdt":"14:25:24","type":"금환일식","type_code":"A","saros":83,"gamma":-0.93479,"magnitude":0.98721,"greatest":{"lat":-86.60265,"lng":127.67651},"path_width_km":130.6,"duration":"00m45s","delta_t_seconds":3236.5,"catalog_number":6592,"source":"NASA Five Millennium Canon of Solar Eclipses","source_url":"https://eclipse.gsfc.nasa.gov/SEsearch/SEsearchmap.php?Ecl=%2B07631209","boundary":"north","name":"763-12-09 금환일식"},"geometry":{"type":"LineString","coordinates":[[-152,-60.12845],[-151.5,-60.46927],[-151,-60.81764],[-150.5,-61.17389],[-150,-61.53838],[-149.5,-61.91149],[-149,-62.29365],[-148.5,-62.68534],[-148,-63.08709],[-147.5,-63.4995],[-147,-63.92322],[-146.5,-64.35902],[-146,-64.80777],[-145.5,-65.27047],[-145,-65.7483],[-144.5,-66.24264],[-144,-66.75514],[-143.5,-67.28783],[-143,-67.84321],[-142.5,-68.42445],[-142,-69.03568],[-141.5,-69.68247],[-141,-70.37264],[-140.5,-71.11784],[-140,-71.93688],[-139.5,-72.86402],[-139,-73.97657],[-138.5,-75.56979],[-138.5,-78.65192],[-139,-79.84274],[-139.5,-80.55983],[-140,-81.09831],[-140.5,-81.53532],[-141,-81.90497],[-141.5,-82.22592],[-142,-82.50967],[-142.5,-82.76391],[-143,-82.99408],[-143.5,-83.20416],[-144,-83.39721],[-144.5,-83.57561],[-145,-83.74126],[-145.5,-83.8957],[-146,-84.0402],[-146.5,-84.17583],[-147,-84.3035],[-147.5,-84.42396],[-148,-84.53788],[-148.5,-84.64583],[-149,-84.74832],[-149.5,-84.84579],[-150,-84.93862],[-150.5,-85.02717],[-151,-85.11174],[-151.5,-85.19261],[-152,-85.27003],[-152.5,-85.34422],[-153,-85.4154],[-153.5,-85.48375],[-154,-85.54943],[-154.5,-85.6126],[-155,-85.67341],[-155.5,-85.73198],[-156,-85.78844],[-156.5,-85.8429],[-157,-85.89546],[-157.5,-85.94622],[-158,-85.99526],[-158.5,-86.04267],[-159,-86.08852],[-159.5,-86.13289],[-160,-86.17584],[-160.5,-86.21744],[-161,-86.25774],[-161.5,-86.2968],[-162,-86.33468],[-162.5,-86.37141],[-163,-86.40705],[-163.5,-86.44164],[-164,-86.47522],[-164.5,-86.50783],[-165,-86.5395],[-165.5,-86.57027],[-166,-86.60018],[-166.5,-86.62924],[-167,-86.6575],[-167.5,-86.68498],[-168,-86.7117],[-168.5,-86.7377],[-169,-86.76299],[-169.5,-86.7876],[-170,-86.81154],[-170.5,-86.83485],[-171,-86.85753],[-171.5,-86.87962],[-172,-86.90112],[-172.5,-86.92205],[-173,-86.94243],[-173.5,-86.96228],[-174,-86.9816],[-174.5,-87.00042],[-175,-87.01875],[-175.5,-87.0366],[-176,-87.05398],[-176.5,-87.0709],[-177,-87.08738],[-177.5,-87.10343],[-178,-87.11906],[-178.5,-87.13427],[-179,-87.14909],[-179.5,-87.16351]]}},{"type":"Feature","id":"+07631209:north:1","properties":{"id":"+07631209","year":763,"month":12,"day":9,"time_tdt":"14:25:24","type":"금환일식","type_code":"A","saros":83,"gamma":-0.93479,"magnitude":0.98721,"greatest":{"lat":-86.60265,"lng":127.67651},"path_width_km":130.6,"duration":"00m45s","delta_t_seconds":3236.5,"catalog_number":6592,"source":"NASA Five Millennium Canon of Solar Eclipses","source_url":"https://eclipse.gsfc.nasa.gov/SEsearch/SEsearchmap.php?Ecl=%2B07631209","boundary":"north","name":"763-12-09 금환일식"},"geometry":{"type":"LineString","coordinates":[[180,-87.17754],[179.5,-87.1912],[179,-87.2045],[178.5,-87.21743],[178,-87.23001],[177.5,-87.24225],[177,-87.25415],[176.5,-87.26572],[176,-87.27696],[175.5,-87.28789],[175,-87.2985],[174.5,-87.30881],[174,-87.31882],[173.5,-87.32853],[173,-87.33795],[172.5,-87.34709],[172,-87.35594],[171.5,-87.36452],[171,-87.37283],[170.5,-87.38087],[170,-87.38864],[169.5,-87.39616],[169,-87.40342],[168.5,-87.41042],[168,-87.41718],[167.5,-87.42369],[167,-87.42996],[166.5,-87.43599],[166,-87.44178],[165.5,-87.44733],[165,-87.45265],[164.5,-87.45775],[164,-87.46261],[163.5,-87.46725],[163,-87.47167],[162.5,-87.47587],[162,-87.47985],[161.5,-87.48361],[161,-87.48715],[160.5,-87.49048],[160,-87.4936],[159.5,-87.49651],[159,-87.49921],[158.5,-87.50169],[158,-87.50397],[157.5,-87.50605],[157,-87.50792],[156.5,-87.50958],[156,-87.51104],[155.5,-87.51229],[155,-87.51334],[154.5,-87.51419],[154,-87.51484],[153.5,-87.51528],[153,-87.51552],[152.5,-87.51556],[152,-87.5154],[151.5,-87.51504],[151,-87.51447],[150.5,-87.51371],[150,-87.51274],[149.5,-87.51156],[149,-87.51019],[148.5,-87.50861],[148,-87.50682],[147.5,-87.50483],[147,-87.50263],[146.5,-87.50023],[146,-87.49761],[145.5,-87.49479],[145,-87.49176],[144.5,-87.48851],[144,-87.48505],[143.5,-87.48138],[143,-87.47749],[142.5,-87.47338],[142,-87.46905],[141.5,-87.4645],[141,-87.45972],[140.5,-87.45472],[140,-87.44949],[139.5,-87.44403],[139,-87.43834],[138.5,-87.4324],[138,-87.42623],[137.5,-87.41982],[137,-87.41317],[136.5,-87.40626],[136,-87.3991],[135.5,-87.39169],[135,-87.38402],[134.5,-87.37609],[134,-87.36789],[133.5,-87.35943],[133,-87.35068],[132.5,-87.34166],[132,-87.33236],[131.5,-87.32276],[131,-87.31288],[130.5,-87.30269],[130,-87.2922],[129.5,-87.28141],[129,-87.27029],[128.5,-87.25886],[128,-87.24709],[127.5,-87.235],[127,-87.22256],[126.5,-87.20977],[126,-87.19663],[125.5,-87.18312],[125,-87.16924],[124.5,-87.15498],[124,-87.14033],[123.5,-87.12528],[123,-87.10983],[122.5,-87.09396],[122,-87.07766],[121.5,-87.06092],[121,-87.04373],[120.5,-87.02608],[120,-87.00796],[119.5,-86.98935],[119,-86.97023],[118.5,-86.95061],[118,-86.93046],[117.5,-86.90976],[117,-86.8885],[116.5,-86.86667],[116,-86.84424],[115.5,-86.8212],[115,-86.79753],[114.5,-86.77321],[114,-86.74822],[113.5,-86.72253],[113,-86.69612],[112.5,-86.66898],[112,-86.64106],[111.5,-86.61235],[111,-86.58281],[110.5,-86.55242],[110,-86.52115],[109.5,-86.48896],[109,-86.45581],[108.5,-86.42168],[108,-86.38651],[107.5,-86.35027],[107,-86.31291],[106.5,-86.27439],[106,-86.23465],[105.5,-86.19364],[105,-86.15132],[104.5,-86.1076],[104,-86.06244],[103.5,-86.01575],[103,-85.96748],[102.5,-85.91753],[102,-85.86583],[101.5,-85.81227],[101,-85.75677],[100.5,-85.69921],[100,-85.63949],[99.5,-85.57747],[99,-85.51301],[98.5,-85.44599],[98,-85.37622],[97.5,-85.30354],[97,-85.22775],[96.5,-85.14863],[96,-85.06596],[95.5,-84.97948],[95,-84.88889],[94.5,-84.79387],[94,-84.69407],[93.5,-84.58907],[93,-84.47841],[92.5,-84.36157],[92,-84.23794],[91.5,-84.10684],[91,-83.96745],[90.5,-83.81884],[90,-83.65974],[89.5,-83.4892],[89,-83.3052],[88.5,-83.10585],[88,-82.88863],[87.5,-82.65028],[87,-82.38651],[86.5,-82.09148],[86,-81.75686],[85.5,-81.37005],[85,-80.91039],[84.5,-80.3393],[84,-79.56593],[83.5,-75.5962],[84,-73.79365],[84.5,-72.60548],[85,-71.62732],[85.5,-70.76814],[86,-69.98919],[86.5,-69.26961],[87,-68.59664],[87.5,-67.96179],[88,-67.35904],[88.5,-66.78395],[89,-66.23312],[89.5,-65.70387],[90,-65.19404],[90.5,-64.70187],[91,-64.22587],[91.5,-63.76479],[92,-63.31756],[92.5,-62.88325],[93,-62.46106],[93.5,-62.05027],[94,-61.65024],[94.5,-61.2604],[95,-60.88026],[95.5,-60.50934],[96,-60.14723],[96.5,-59.79355],[97,-59.44795],[97.5,-59.1101],[98,-58.77971],[98.5,-58.45651],[99,-58.14023],[99.5,-57.83065]]}},{"type":"Feature","id":"+07631209:center:0","properties":{"id":"+07631209","year":763,"month":12,"day":9,"time_tdt":"14:25:24","type":"금환일식","type_code":"A","saros":83,"gamma":-0.93479,"magnitude":0.98721,"greatest":{"lat":-86.60265,"lng":127.67651},"path_width_km":130.6,"duration":"00m45s","delta_t_seconds":3236.5,"catalog_number":6592,"source":"NASA Five Millennium Canon of Solar Eclipses","source_url":"https://eclipse.gsfc.nasa.gov/SEsearch/SEsearchmap.php?Ecl=%2B07631209","boundary":"center","name":"763-12-09 금환일식"},"geometry":{"type":"LineString","coordinates":[[-153.73149,-60.54284],[-153.5,-60.75834],[-153,-61.10082],[-152.5,-61.4515],[-152,-61.81081],[-151.5,-62.17919],[-151,-62.55715],[-150.5,-62.94524],[-150,-63.34412],[-149.5,-63.75449],[-149,-64.17719],[-148.5,-64.61317],[-148,-65.06353],[-147.5,-65.52959],[-147,-66.0129],[-146.5,-66.51537],[-146,-67.03932],[-145.5,-67.5877],[-145,-68.16432],[-144.5,-68.77425],[-144,-69.42455],[-143.5,-70.12553],[-143,-70.89342],[-142.5,-71.75668],[-142,-72.77493],[-141.5,-74.13184],[-141.5,-78.12622],[-142,-79.12443],[-142.5,-79.78994],[-143,-80.30628],[-143.5,-80.73295],[-144,-81.09827],[-144.5,-81.41837],[-145,-81.70344],[-145.5,-81.96042],[-146,-82.19428],[-146.5,-82.40871],[-147,-82.60656],[-147.5,-82.79006],[-148,-82.96102],[-148.5,-83.12091],[-149,-83.27093],[-149.5,-83.41212],[-150,-83.54535],[-150.5,-83.67135],[-151,-83.79077],[-151.5,-83.90417],[-152,-84.01204],[-152.5,-84.11481],[-153,-84.21287],[-153.5,-84.30656],[-154,-84.39618],[-154.5,-84.48201],[-155,-84.5643],[-155.5,-84.64326],[-156,-84.71912],[-156.5,-84.79204],[-157,-84.8622],[-157.5,-84.92977],[-158,-84.99487],[-158.5,-85.05765],[-159,-85.11822],[-159.5,-85.17669],[-160,-85.23318],[-160.5,-85.28777],[-161,-85.34056],[-161.5,-85.39164],[-162,-85.44107],[-162.5,-85.48893],[-163,-85.5353],[-163.5,-85.58023],[-164,-85.62379],[-164.5,-85.66602],[-165,-85.707],[-165.5,-85.74675],[-166,-85.78534],[-166.5,-85.82281],[-167,-85.85919],[-167.5,-85.89453],[-168,-85.92887],[-168.5,-85.96223],[-169,-85.99467],[-169.5,-86.02619],[-170,-86.05685],[-170.5,-86.08666],[-171,-86.11565],[-171.5,-86.14386],[-172,-86.17129],[-172.5,-86.19799],[-173,-86.22396],[-173.5,-86.24924],[-174,-86.27383],[-174.5,-86.29777],[-175,-86.32107],[-175.5,-86.34374],[-176,-86.36581],[-176.5,-86.38729],[-177,-86.4082],[-177.5,-86.42855],[-178,-86.44835],[-178.5,-86.46763],[-179,-86.48638],[-179.5,-86.50463]]}},{"type":"Feature","id":"+07631209:center:1","properties":{"id":"+07631209","year":763,"month":12,"day":9,"time_tdt":"14:25:24","type":"금환일식","type_code":"A","saros":83,"gamma":-0.93479,"magnitude":0.98721,"greatest":{"lat":-86.60265,"lng":127.67651},"path_width_km":130.6,"duration":"00m45s","delta_t_seconds":3236.5,"catalog_number":6592,"source":"NASA Five Millennium Canon of Solar Eclipses","source_url":"https://eclipse.gsfc.nasa.gov/SEsearch/SEsearchmap.php?Ecl=%2B07631209","boundary":"center","name":"763-12-09 금환일식"},"geometry":{"type":"LineString","coordinates":[[180,-86.52239],[179.5,-86.53966],[179,-86.55647],[178.5,-86.57281],[178,-86.5887],[177.5,-86.60416],[177,-86.61918],[176.5,-86.63378],[176,-86.64797],[175.5,-86.66175],[175,-86.67514],[174.5,-86.68813],[174,-86.70074],[173.5,-86.71298],[173,-86.72485],[172.5,-86.73636],[172,-86.74751],[171.5,-86.75831],[171,-86.76876],[170.5,-86.77888],[170,-86.78866],[169.5,-86.79812],[169,-86.80725],[168.5,-86.81606],[168,-86.82456],[167.5,-86.83275],[167,-86.84063],[166.5,-86.84821],[166,-86.85549],[165.5,-86.86247],[165,-86.86916],[164.5,-86.87557],[164,-86.88168],[163.5,-86.88752],[163,-86.89307],[162.5,-86.89835],[162,-86.90335],[161.5,-86.90808],[161,-86.91254],[160.5,-86.91673],[160,-86.92065],[159.5,-86.92431],[159,-86.9277],[158.5,-86.93083],[158,-86.93371],[157.5,-86.93632],[157,-86.93867],[156.5,-86.94077],[156,-86.94262],[155.5,-86.9442],[155,-86.94554],[154.5,-86.94662],[154,-86.94744],[153.5,-86.94802],[153,-86.94834],[152.5,-86.94841],[152,-86.94822],[151.5,-86.94779],[151,-86.9471],[150.5,-86.94616],[150,-86.94496],[149.5,-86.94351],[149,-86.94181],[148.5,-86.93985],[148,-86.93763],[147.5,-86.93516],[147,-86.93243],[146.5,-86.92943],[146,-86.92618],[145.5,-86.92267],[145,-86.91889],[144.5,-86.91485],[144,-86.91054],[143.5,-86.90596],[143,-86.9011],[142.5,-86.89598],[142,-86.89057],[141.5,-86.88489],[141,-86.87893],[140.5,-86.87269],[140,-86.86615],[139.5,-86.85933],[139,-86.85221],[138.5,-86.8448],[138,-86.83708],[137.5,-86.82907],[137,-86.82074],[136.5,-86.8121],[136,-86.80314],[135.5,-86.79387],[135,-86.78427],[134.5,-86.77433],[134,-86.76406],[133.5,-86.75346],[133,-86.7425],[132.5,-86.73119],[132,-86.71952],[131.5,-86.70749],[131,-86.69509],[130.5,-86.68231],[130,-86.66914],[129.5,-86.65558],[129,-86.64162],[128.5,-86.62725],[128,-86.61247],[127.5,-86.59726],[127,-86.58161],[126.5,-86.56552],[126,-86.54898],[125.5,-86.53197],[125,-86.51449],[124.5,-86.49652],[124,-86.47805],[123.5,-86.45907],[123,-86.43957],[122.5,-86.41953],[122,-86.39895],[121.5,-86.3778],[121,-86.35607],[120.5,-86.33374],[120,-86.3108],[119.5,-86.28723],[119,-86.26302],[118.5,-86.23814],[118,-86.21257],[117.5,-86.1863],[117,-86.1593],[116.5,-86.13154],[116,-86.10302],[115.5,-86.07369],[115,-86.04353],[114.5,-86.01252],[114,-85.98062],[113.5,-85.94781],[113,-85.91406],[112.5,-85.87932],[112,-85.84356],[111.5,-85.80675],[111,-85.76884],[110.5,-85.72979],[110,-85.68956],[109.5,-85.6481],[109,-85.60535],[108.5,-85.56127],[108,-85.51579],[107.5,-85.46886],[107,-85.4204],[106.5,-85.37035],[106,-85.31864],[105.5,-85.26519],[105,-85.2099],[104.5,-85.1527],[104,-85.09347],[103.5,-85.03212],[103,-84.96852],[102.5,-84.90257],[102,-84.83411],[101.5,-84.763],[101,-84.6891],[100.5,-84.61221],[100,-84.53216],[99.5,-84.44874],[99,-84.36171],[98.5,-84.27083],[98,-84.1758],[97.5,-84.07634],[97,-83.97207],[96.5,-83.86262],[96,-83.74754],[95.5,-83.62634],[95,-83.49844],[94.5,-83.36319],[94,-83.21984],[93.5,-83.06749],[93,-82.90512],[92.5,-82.73149],[92,-82.5451],[91.5,-82.34414],[91,-82.12633],[90.5,-81.88882],[90,-81.62788],[89.5,-81.3385],[89,-81.01376],[88.5,-80.64348],[88,-80.21175],[87.5,-79.69086],[87,-79.02383],[86.5,-78.04384],[86.5,-73.65112],[87,-72.29774],[87.5,-71.26408],[88,-70.38317],[88.5,-69.59785],[89,-68.88028],[89.5,-68.2144],[90,-67.5899],[90.5,-66.9997],[91,-66.43867],[91.5,-65.90297],[92,-65.3896],[92.5,-64.89618],[93,-64.42077],[93.5,-63.96177],[94,-63.51784],[94.5,-63.08783],[95,-62.67076],[95.5,-62.26577],[96,-61.87212],[96.5,-61.48915],[97,-61.11627],[97.5,-60.75295],[98,-60.39872],[98.5,-60.05316],[99,-59.71587],[99.5,-59.38649],[100,-59.06471],[100.5,-58.75022],[101,-58.44274],[101.00616,-58.30487]]}},{"type":"Feature","id":"+07631209:south:0","properties":{"id":"+07631209","year":763,"month":12,"day":9,"time_tdt":"14:25:24","type":"금환일식","type_code":"A","saros":83,"gamma":-0.93479,"magnitude":0.98721,"greatest":{"lat":-86.60265,"lng":127.67651},"path_width_km":130.6,"duration":"00m45s","delta_t_seconds":3236.5,"catalog_number":6592,"source":"NASA Five Millennium Canon of Solar Eclipses","source_url":"https://eclipse.gsfc.nasa.gov/SEsearch/SEsearchmap.php?Ecl=%2B07631209","boundary":"south","name":"763-12-09 금환일식"},"geometry":{"type":"LineString","coordinates":[[-155.5,-61.13573],[-155,-61.47393],[-154.5,-61.82079],[-154,-62.17679],[-153.5,-62.54247],[-153,-62.91844],[-152.5,-63.30539],[-152,-63.7041],[-151.5,-64.11547],[-151,-64.54056],[-150.5,-64.9806],[-150,-65.43707],[-149.5,-65.91176],[-149,-66.40685],[-148.5,-66.92509],[-148,-67.47002],[-147.5,-68.04632],[-147,-68.66043],[-146.5,-69.32162],[-146,-70.04426],[-145.5,-70.8528],[-145,-71.79595],[-144.5,-73.00641],[-144.5,-77.56092],[-145,-78.45032],[-145.5,-79.07755],[-146,-79.57521],[-146.5,-79.9919],[-147,-80.35199],[-147.5,-80.66972],[-148,-80.95428],[-148.5,-81.21204],[-149,-81.44757],[-149.5,-81.66432],[-150,-81.86497],[-150.5,-82.05161],[-151,-82.22597],[-151.5,-82.38943],[-152,-82.54317],[-152.5,-82.68816],[-153,-82.82525],[-153.5,-82.95514],[-154,-83.07847],[-154.5,-83.19578],[-155,-83.30754],[-155.5,-83.41417],[-156,-83.51606],[-156.5,-83.61354],[-157,-83.7069],[-157.5,-83.79642],[-158,-83.88234],[-158.5,-83.96488],[-159,-84.04425],[-159.5,-84.12063],[-160,-84.19419],[-160.5,-84.26508],[-161,-84.33344],[-161.5,-84.39941],[-162,-84.46311],[-162.5,-84.52466],[-163,-84.58414],[-163.5,-84.64167],[-164,-84.69733],[-164.5,-84.75121],[-165,-84.80338],[-165.5,-84.85392],[-166,-84.9029],[-166.5,-84.95038],[-167,-84.99642],[-167.5,-85.04108],[-168,-85.08442],[-168.5,-85.12648],[-169,-85.16731],[-169.5,-85.20696],[-170,-85.24546],[-170.5,-85.28287],[-171,-85.31922],[-171.5,-85.35454],[-172,-85.38887],[-172.5,-85.42224],[-173,-85.45468],[-173.5,-85.48622],[-174,-85.51689],[-174.5,-85.54672],[-175,-85.57573],[-175.5,-85.60394],[-176,-85.63138],[-176.5,-85.65807],[-177,-85.68403],[-177.5,-85.70929],[-178,-85.73385],[-178.5,-85.75774],[-179,-85.78098],[-179.5,-85.80358]]}},{"type":"Feature","id":"+07631209:south:1","properties":{"id":"+07631209","year":763,"month":12,"day":9,"time_tdt":"14:25:24","type":"금환일식","type_code":"A","saros":83,"gamma":-0.93479,"magnitude":0.98721,"greatest":{"lat":-86.60265,"lng":127.67651},"path_width_km":130.6,"duration":"00m45s","delta_t_seconds":3236.5,"catalog_number":6592,"source":"NASA Five Millennium Canon of Solar Eclipses","source_url":"https://eclipse.gsfc.nasa.gov/SEsearch/SEsearchmap.php?Ecl=%2B07631209","boundary":"south","name":"763-12-09 금환일식"},"geometry":{"type":"LineString","coordinates":[[180,-85.82555],[179.5,-85.84693],[179,-85.8677],[178.5,-85.88791],[178,-85.90754],[177.5,-85.92663],[177,-85.94517],[176.5,-85.96319],[176,-85.98069],[175.5,-85.99768],[175,-86.01418],[174.5,-86.0302],[174,-86.04573],[173.5,-86.0608],[173,-86.07542],[172.5,-86.08958],[172,-86.1033],[171.5,-86.11659],[171,-86.12945],[170.5,-86.14189],[170,-86.15392],[169.5,-86.16555],[169,-86.17677],[168.5,-86.1876],[168,-86.19804],[167.5,-86.2081],[167,-86.21778],[166.5,-86.22709],[166,-86.23602],[165.5,-86.2446],[165,-86.25282],[164.5,-86.26068],[164,-86.26819],[163.5,-86.27536],[163,-86.28217],[162.5,-86.28865],[162,-86.29479],[161.5,-86.3006],[161,-86.30608],[160.5,-86.31122],[160,-86.31604],[159.5,-86.32054],[159,-86.32471],[158.5,-86.32856],[158,-86.3321],[157.5,-86.33531],[157,-86.33821],[156.5,-86.3408],[156,-86.34308],[155.5,-86.34504],[155,-86.34669],[154.5,-86.34804],[154,-86.34907],[153.5,-86.34979],[153,-86.35021],[152.5,-86.35031],[152,-86.35011],[151.5,-86.3496],[151,-86.34878],[150.5,-86.34766],[150,-86.34622],[149.5,-86.34447],[149,-86.34241],[148.5,-86.34004],[148,-86.33736],[147.5,-86.33436],[147,-86.33105],[146.5,-86.32742],[146,-86.32347],[145.5,-86.3192],[145,-86.3146],[144.5,-86.30968],[144,-86.30444],[143.5,-86.29886],[143,-86.29296],[142.5,-86.28671],[142,-86.28013],[141.5,-86.27321],[141,-86.26594],[140.5,-86.25832],[140,-86.25036],[139.5,-86.24203],[139,-86.23335],[138.5,-86.2243],[138,-86.21488],[137.5,-86.20509],[137,-86.19492],[136.5,-86.18436],[136,-86.17342],[135.5,-86.16208],[135,-86.15033],[134.5,-86.13818],[134,-86.12562],[133.5,-86.11263],[133,-86.09922],[132.5,-86.08537],[132,-86.07108],[131.5,-86.05633],[131,-86.04113],[130.5,-86.02546],[130,-86.0093],[129.5,-85.99266],[129,-85.97553],[128.5,-85.95788],[128,-85.93972],[127.5,-85.92102],[127,-85.90178],[126.5,-85.88199],[126,-85.86163],[125.5,-85.84069],[125,-85.81916],[124.5,-85.79701],[124,-85.77424],[123.5,-85.75083],[123,-85.72675],[122.5,-85.70201],[122,-85.67657],[121.5,-85.65041],[121,-85.62353],[120.5,-85.59589],[120,-85.56747],[119.5,-85.53825],[119,-85.50821],[118.5,-85.47732],[118,-85.44555],[117.5,-85.41288],[117,-85.37927],[116.5,-85.3447],[116,-85.30913],[115.5,-85.27253],[115,-85.23486],[114.5,-85.19608],[114,-85.15616],[113.5,-85.11504],[113,-85.07269],[112.5,-85.02906],[112,-84.98409],[111.5,-84.93773],[111,-84.88992],[110.5,-84.84061],[110,-84.78973],[109.5,-84.7372],[109,-84.68296],[108.5,-84.62692],[108,-84.569],[107.5,-84.50912],[107,-84.44717],[106.5,-84.38304],[106,-84.31663],[105.5,-84.24782],[105,-84.17647],[104.5,-84.10243],[104,-84.02557],[103.5,-83.94569],[103,-83.86263],[102.5,-83.77618],[102,-83.68612],[101.5,-83.5922],[101,-83.49415],[100.5,-83.39168],[100,-83.28445],[99.5,-83.1721],[99,-83.05419],[98.5,-82.93026],[98,-82.79976],[97.5,-82.6621],[97,-82.51655],[96.5,-82.36229],[96,-82.19836],[95.5,-82.02362],[95,-81.83672],[94.5,-81.63598],[94,-81.41939],[93.5,-81.18437],[93,-80.92766],[92.5,-80.64492],[92,-80.33025],[91.5,-79.97523],[91,-79.56709],[90.5,-79.08477],[90,-78.48853],[89.5,-77.68279],[89,-76.19383],[89,-74.05637],[89.5,-72.23036],[90,-71.09349],[90.5,-70.17193],[91,-69.36994],[91.5,-68.64767],[92,-67.98394],[92.5,-67.36586],[93,-66.7849],[93.5,-66.23505],[94,-65.71186],[94.5,-65.21196],[95,-64.7327],[95.5,-64.27193],[96,-63.82792],[96.5,-63.3992],[97,-62.98456],[97.5,-62.58294],[98,-62.19344],[98.5,-61.81528],[99,-61.44777],[99.5,-61.09028],[100,-60.74229],[100.5,-60.40329],[101,-60.07285],[101.5,-59.75057],[102,-59.43609],[102.5,-59.12907]]}}],"attribution":"Eclipse Predictions by Fred Espenak and Jean Meeus (NASA's GSFC)","generated_at":"2026-09-23T01:44:56.191Z"}
