{"type":"FeatureCollection","year":765,"events":[{"id":"+07650524","year":765,"month":5,"day":24,"time_tdt":"13:41:46","type":"금환일식","type_code":"A","saros":98,"gamma":-0.24648,"magnitude":0.94798,"greatest":{"lat":7.28667,"lng":-12.28387},"path_width_km":197.3,"duration":"07m17s","delta_t_seconds":3224.3,"catalog_number":6595,"source":"NASA Five Millennium Canon of Solar Eclipses","source_url":"https://eclipse.gsfc.nasa.gov/SEsearch/SEsearchmap.php?Ecl=%2B07650524"},{"id":"+07651117","year":765,"month":11,"day":17,"time_tdt":"19:39:02","type":"개기일식","type_code":"T","saros":103,"gamma":0.44305,"magnitude":1.03885,"greatest":{"lat":5.98264,"lng":-101.2428},"path_width_km":145.2,"duration":"03m49s","delta_t_seconds":3220.2,"catalog_number":6596,"source":"NASA Five Millennium Canon of Solar Eclipses","source_url":"https://eclipse.gsfc.nasa.gov/SEsearch/SEsearchmap.php?Ecl=%2B07651117"}],"features":[{"type":"Feature","id":"+07650524:north:0","properties":{"id":"+07650524","year":765,"month":5,"day":24,"time_tdt":"13:41:46","type":"금환일식","type_code":"A","saros":98,"gamma":-0.24648,"magnitude":0.94798,"greatest":{"lat":7.28667,"lng":-12.28387},"path_width_km":197.3,"duration":"07m17s","delta_t_seconds":3224.3,"catalog_number":6595,"source":"NASA Five Millennium Canon of Solar Eclipses","source_url":"https://eclipse.gsfc.nasa.gov/SEsearch/SEsearchmap.php?Ecl=%2B07650524","boundary":"north","name":"765-05-24 금환일식"},"geometry":{"type":"LineString","coordinates":[[-67.9707,-16.29609],[-67.5,-16.11051],[-67,-15.91205],[-66.5,-15.71221],[-66,-15.511],[-65.5,-15.3084],[-65,-15.10442],[-64.5,-14.89906],[-64,-14.69229],[-63.5,-14.48414],[-63,-14.27458],[-62.5,-14.06362],[-62,-13.85126],[-61.5,-13.6375],[-61,-13.42233],[-60.5,-13.20575],[-60,-12.98776],[-59.5,-12.76837],[-59,-12.54756],[-58.5,-12.32536],[-58,-12.10174],[-57.5,-11.87673],[-57,-11.65031],[-56.5,-11.4225],[-56,-11.1933],[-55.5,-10.96272],[-55,-10.73075],[-54.5,-10.49742],[-54,-10.26272],[-53.5,-10.02666],[-53,-9.78926],[-52.5,-9.55053],[-52,-9.31047],[-51.5,-9.06911],[-51,-8.82646],[-50.5,-8.58253],[-50,-8.33735],[-49.5,-8.09093],[-49,-7.8433],[-48.5,-7.59448],[-48,-7.34449],[-47.5,-7.09336],[-47,-6.84113],[-46.5,-6.58781],[-46,-6.33346],[-45.5,-6.0781],[-45,-5.82177],[-44.5,-5.56452],[-44,-5.30638],[-43.5,-5.04741],[-43,-4.78766],[-42.5,-4.52718],[-42,-4.26603],[-41.5,-4.00427],[-41,-3.74196],[-40.5,-3.47916],[-40,-3.21596],[-39.5,-2.95243],[-39,-2.68864],[-38.5,-2.42469],[-38,-2.16065],[-37.5,-1.89662],[-37,-1.6327],[-36.5,-1.36898],[-36,-1.10559],[-35.5,-0.84261],[-35,-0.58018],[-34.5,-0.31842],[-34,-0.05744],[-33.5,0.20263],[-33,0.46164],[-32.5,0.71946],[-32,0.97594],[-31.5,1.23094],[-31,1.48429],[-30.5,1.73586],[-30,1.98546],[-29.5,2.23294],[-29,2.47813],[-28.5,2.72085],[-28,2.96094],[-27.5,3.1982],[-27,3.43247],[-26.5,3.66356],[-26,3.89129],[-25.5,4.11547],[-25,4.33591],[-24.5,4.55244],[-24,4.76487],[-23.5,4.97302],[-23,5.17671],[-22.5,5.37576],[-22,5.56999],[-21.5,5.75923],[-21,5.94333],[-20.5,6.1221],[-20,6.29541],[-19.5,6.46309],[-19,6.62501],[-18.5,6.78102],[-18,6.93099],[-17.5,7.0748],[-17,7.21234],[-16.5,7.34351],[-16,7.46819],[-15.5,7.58631],[-15,7.69778],[-14.5,7.80254],[-14,7.90053],[-13.5,7.99168],[-13,8.07597],[-12.5,8.15335],[-12,8.22381],[-11.5,8.28733],[-11,8.34391],[-10.5,8.39355],[-10,8.43626],[-9.5,8.47207],[-9,8.501],[-8.5,8.52309],[-8,8.53839],[-7.5,8.54696],[-7,8.54884],[-6.5,8.54411],[-6,8.53283],[-5.5,8.5151],[-5,8.49098],[-4.5,8.46058],[-4,8.42398],[-3.5,8.38128],[-3,8.33259],[-2.5,8.27802],[-2,8.21767],[-1.5,8.15165],[-1,8.08009],[-0.5,8.0031],[0,7.9208],[0.5,7.83331],[1,7.74077],[1.5,7.64328],[2,7.54099],[2.5,7.43401],[3,7.32248],[3.5,7.20652],[4,7.08625],[4.5,6.96182],[5,6.83333],[5.5,6.70093],[6,6.56473],[6.5,6.42486],[7,6.28144],[7.5,6.1346],[8,5.98445],[8.5,5.83112],[9,5.67472],[9.5,5.51536],[10,5.35317],[10.5,5.18826],[11,5.02072],[11.5,4.85068],[12,4.67824],[12.5,4.50349],[13,4.32656],[13.5,4.14752],[14,3.96648],[14.5,3.78354],[15,3.59879],[15.5,3.41231],[16,3.2242],[16.5,3.03454],[17,2.84342],[17.5,2.65091],[18,2.45709],[18.5,2.26205],[19,2.06586],[19.5,1.86858],[20,1.67029],[20.5,1.47106],[21,1.27095],[21.5,1.07003],[22,0.86836],[22.5,0.666],[23,0.463],[23.5,0.25943],[24,0.05533],[24.5,-0.14923],[25,-0.35422],[25.5,-0.55957],[26,-0.76525],[26.5,-0.97121],[27,-1.17739],[27.5,-1.38377],[28,-1.59031],[28.5,-1.79695],[29,-2.00366],[29.5,-2.21041],[30,-2.41716],[30.5,-2.62387],[31,-2.83052],[31.5,-3.03708],[32,-3.2435],[32.5,-3.44977],[33,-3.65585],[33.5,-3.86172],[34,-4.06735],[34.5,-4.27272],[35,-4.4778],[35.5,-4.68257],[36,-4.88701],[36.5,-5.0911],[37,-5.29482],[37.5,-5.49814],[38,-5.70105],[38.5,-5.90353],[39,-6.10556],[39.5,-6.30713],[40,-6.50823],[40.5,-6.70882],[41,-6.90891],[41.5,-7.10848],[42,-7.30751],[42.5,-7.506],[43,-7.70392],[43.5,-7.90128],[44,-8.09804],[44.5,-8.29422],[44.57227,-8.32252]]}},{"type":"Feature","id":"+07650524:center:0","properties":{"id":"+07650524","year":765,"month":5,"day":24,"time_tdt":"13:41:46","type":"금환일식","type_code":"A","saros":98,"gamma":-0.24648,"magnitude":0.94798,"greatest":{"lat":7.28667,"lng":-12.28387},"path_width_km":197.3,"duration":"07m17s","delta_t_seconds":3224.3,"catalog_number":6595,"source":"NASA Five Millennium Canon of Solar Eclipses","source_url":"https://eclipse.gsfc.nasa.gov/SEsearch/SEsearchmap.php?Ecl=%2B07650524","boundary":"center","name":"765-05-24 금환일식"},"geometry":{"type":"LineString","coordinates":[[-67.54571,-17.33989],[-67.5,-17.31902],[-67,-17.11894],[-66.5,-16.91748],[-66,-16.71463],[-65.5,-16.51039],[-65,-16.30476],[-64.5,-16.09772],[-64,-15.88928],[-63.5,-15.67944],[-63,-15.46819],[-62.5,-15.25552],[-62,-15.04144],[-61.5,-14.82594],[-61,-14.60902],[-60.5,-14.39069],[-60,-14.17093],[-59.5,-13.94975],[-59,-13.72715],[-58.5,-13.50313],[-58,-13.27769],[-57.5,-13.05083],[-57,-12.82256],[-56.5,-12.59287],[-56,-12.36178],[-55.5,-12.12929],[-55,-11.8954],[-54.5,-11.66011],[-54,-11.42345],[-53.5,-11.18541],[-53,-10.946],[-52.5,-10.70524],[-52,-10.46313],[-51.5,-10.2197],[-51,-9.97495],[-50.5,-9.7289],[-50,-9.48157],[-49.5,-9.23298],[-49,-8.98314],[-48.5,-8.73209],[-48,-8.47984],[-47.5,-8.22642],[-47,-7.97186],[-46.5,-7.71619],[-46,-7.45944],[-45.5,-7.20165],[-45,-6.94286],[-44.5,-6.68311],[-44,-6.42243],[-43.5,-6.16088],[-43,-5.89851],[-42.5,-5.63536],[-42,-5.3715],[-41.5,-5.10698],[-41,-4.84186],[-40.5,-4.57622],[-40,-4.31011],[-39.5,-4.04363],[-39,-3.77683],[-38.5,-3.50982],[-38,-3.24266],[-37.5,-2.97547],[-37,-2.70832],[-36.5,-2.44132],[-36,-2.17459],[-35.5,-1.90822],[-35,-1.64233],[-34.5,-1.37705],[-34,-1.11249],[-33.5,-0.8488],[-33,-0.58609],[-32.5,-0.32453],[-32,-0.06424],[-31.5,0.19462],[-31,0.45189],[-30.5,0.70742],[-30,0.96103],[-29.5,1.21258],[-29,1.46187],[-28.5,1.70874],[-28,1.953],[-27.5,2.19448],[-27,2.43299],[-26.5,2.66833],[-26,2.90033],[-25.5,3.1288],[-25,3.35353],[-24.5,3.57434],[-24,3.79104],[-23.5,4.00345],[-23,4.21136],[-22.5,4.41459],[-22,4.61297],[-21.5,4.80631],[-21,4.99443],[-20.5,5.17716],[-20,5.35434],[-19.5,5.5258],[-19,5.6914],[-18.5,5.85099],[-18,6.00441],[-17.5,6.15156],[-17,6.29229],[-16.5,6.4265],[-16,6.55408],[-15.5,6.67494],[-15,6.78898],[-14.5,6.89614],[-14,6.99634],[-13.5,7.08952],[-13,7.17565],[-12.5,7.25469],[-12,7.3266],[-11.5,7.39138],[-11,7.44901],[-10.5,7.4995],[-10,7.54286],[-9.5,7.57911],[-9,7.60828],[-8.5,7.63041],[-8,7.64555],[-7.5,7.65376],[-7,7.65509],[-6.5,7.64961],[-6,7.63741],[-5.5,7.61856],[-5,7.59315],[-4.5,7.56128],[-4,7.52305],[-3.5,7.47856],[-3,7.42792],[-2.5,7.37125],[-2,7.30865],[-1.5,7.24026],[-1,7.16618],[-0.5,7.08655],[0,7.0015],[0.5,6.91115],[1,6.81563],[1.5,6.71508],[2,6.60963],[2.5,6.4994],[3,6.38455],[3.5,6.26519],[4,6.14146],[4.5,6.0135],[5,5.88143],[5.5,5.74539],[6,5.60552],[6.5,5.46193],[7,5.31476],[7.5,5.16413],[8,5.01018],[8.5,4.85301],[9,4.69276],[9.5,4.52955],[10,4.36348],[10.5,4.19469],[11,4.02327],[11.5,3.84935],[12,3.67302],[12.5,3.49441],[13,3.3136],[13.5,3.13071],[14,2.94583],[14.5,2.75906],[15,2.57049],[15.5,2.38022],[16,2.18833],[16.5,1.99492],[17,1.80006],[17.5,1.60384],[18,1.40634],[18.5,1.20765],[19,1.00782],[19.5,0.80694],[20,0.60508],[20.5,0.4023],[21,0.19868],[21.5,-0.00573],[22,-0.21086],[22.5,-0.41665],[23,-0.62304],[23.5,-0.82998],[24,-1.03741],[24.5,-1.24527],[25,-1.45353],[25.5,-1.66213],[26,-1.87101],[26.5,-2.08015],[27,-2.28948],[27.5,-2.49898],[28,-2.70859],[28.5,-2.91829],[29,-3.12803],[29.5,-3.33777],[30,-3.54749],[30.5,-3.75714],[31,-3.9667],[31.5,-4.17613],[32,-4.3854],[32.5,-4.59449],[33,-4.80336],[33.5,-5.012],[34,-5.22037],[34.5,-5.42845],[35,-5.63621],[35.5,-5.84364],[36,-6.05072],[36.5,-6.25741],[37,-6.46371],[37.5,-6.66959],[38,-6.87503],[38.5,-7.08002],[39,-7.28454],[39.5,-7.48857],[40,-7.6921],[40.5,-7.89511],[41,-8.0976],[41.5,-8.29954],[42,-8.50092],[42.5,-8.70173],[43,-8.90196],[43.5,-9.1016],[44,-9.30064],[44.17718,-9.37141]]}},{"type":"Feature","id":"+07650524:south:0","properties":{"id":"+07650524","year":765,"month":5,"day":24,"time_tdt":"13:41:46","type":"금환일식","type_code":"A","saros":98,"gamma":-0.24648,"magnitude":0.94798,"greatest":{"lat":7.28667,"lng":-12.28387},"path_width_km":197.3,"duration":"07m17s","delta_t_seconds":3224.3,"catalog_number":6595,"source":"NASA Five Millennium Canon of Solar Eclipses","source_url":"https://eclipse.gsfc.nasa.gov/SEsearch/SEsearchmap.php?Ecl=%2B07650524","boundary":"south","name":"765-05-24 금환일식"},"geometry":{"type":"LineString","coordinates":[[-67,-18.33185],[-66.5,-18.12876],[-66,-17.92428],[-65.5,-17.7184],[-65,-17.51111],[-64.5,-17.30241],[-64,-17.0923],[-63.5,-16.88077],[-63,-16.66782],[-62.5,-16.45345],[-62,-16.23765],[-61.5,-16.02043],[-61,-15.80177],[-60.5,-15.58168],[-60,-15.36015],[-59.5,-15.1372],[-59,-14.9128],[-58.5,-14.68698],[-58,-14.45972],[-57.5,-14.23102],[-57,-14.0009],[-56.5,-13.76935],[-56,-13.53638],[-55.5,-13.30198],[-55,-13.06617],[-54.5,-12.82896],[-54,-12.59034],[-53.5,-12.35032],[-53,-12.10892],[-52.5,-11.86615],[-52,-11.62201],[-51.5,-11.37652],[-51,-11.12969],[-50.5,-10.88154],[-50,-10.63208],[-49.5,-10.38133],[-49,-10.12931],[-48.5,-9.87605],[-48,-9.62156],[-47.5,-9.36587],[-47,-9.10901],[-46.5,-8.85101],[-46,-8.5919],[-45.5,-8.33171],[-45,-8.07048],[-44.5,-7.80826],[-44,-7.54507],[-43.5,-7.28097],[-43,-7.01601],[-42.5,-6.75023],[-42,-6.48368],[-41.5,-6.21644],[-41,-5.94856],[-40.5,-5.6801],[-40,-5.41113],[-39.5,-5.14172],[-39,-4.87196],[-38.5,-4.60193],[-38,-4.3317],[-37.5,-4.06137],[-37,-3.79104],[-36.5,-3.5208],[-36,-3.25076],[-35.5,-2.98103],[-35,-2.71172],[-34.5,-2.44296],[-34,-2.17487],[-33.5,-1.90757],[-33,-1.64121],[-32.5,-1.37593],[-32,-1.11187],[-31.5,-0.84918],[-31,-0.58802],[-30.5,-0.32855],[-30,-0.07094],[-29.5,0.18465],[-29,0.43803],[-28.5,0.68903],[-28,0.93747],[-27.5,1.18316],[-27,1.42591],[-26.5,1.66552],[-26,1.9018],[-25.5,2.13457],[-25,2.36361],[-24.5,2.58873],[-24,2.80973],[-23.5,3.02642],[-23,3.2386],[-22.5,3.44607],[-22,3.64864],[-21.5,3.84612],[-21,4.03833],[-20.5,4.22508],[-20,4.4062],[-19.5,4.58152],[-19,4.75087],[-18.5,4.9141],[-18,5.07106],[-17.5,5.22161],[-17,5.36562],[-16.5,5.50296],[-16,5.63351],[-15.5,5.75718],[-15,5.87387],[-14.5,5.9835],[-14,6.08599],[-13.5,6.18128],[-13,6.26932],[-12.5,6.35007],[-12,6.42349],[-11.5,6.48958],[-11,6.54831],[-10.5,6.5997],[-10,6.64375],[-9.5,6.68048],[-9,6.70992],[-8.5,6.73212],[-8,6.74712],[-7.5,6.75498],[-7,6.75577],[-6.5,6.74955],[-6,6.73642],[-5.5,6.71645],[-5,6.68975],[-4.5,6.6564],[-4,6.61652],[-3.5,6.57022],[-3,6.51761],[-2.5,6.45881],[-2,6.39394],[-1.5,6.32314],[-1,6.24652],[-0.5,6.16422],[0,6.07638],[0.5,5.98313],[1,5.88461],[1.5,5.78096],[2,5.67231],[2.5,5.55881],[3,5.44059],[3.5,5.3178],[4,5.19058],[4.5,5.05906],[5,4.92338],[5.5,4.78369],[6,4.64011],[6.5,4.49278],[7,4.34183],[7.5,4.1874],[8,4.02961],[8.5,3.8686],[9,3.70449],[9.5,3.53739],[10,3.36745],[10.5,3.19476],[11,3.01945],[11.5,2.84164],[12,2.66143],[12.5,2.47893],[13,2.29426],[13.5,2.10751],[14,1.91878],[14.5,1.72818],[15,1.5358],[15.5,1.34174],[16,1.14608],[16.5,0.94892],[17,0.75034],[17.5,0.55043],[18,0.34925],[18.5,0.14691],[19,-0.05654],[19.5,-0.26101],[20,-0.46643],[20.5,-0.67274],[21,-0.87987],[21.5,-1.08775],[22,-1.29632],[22.5,-1.50552],[23,-1.7153],[23.5,-1.92558],[24,-2.13633],[24.5,-2.34748],[25,-2.559],[25.5,-2.77082],[26,-2.9829],[26.5,-3.19519],[27,-3.40766],[27.5,-3.62026],[28,-3.83294],[28.5,-4.04568],[29,-4.25843],[29.5,-4.47115],[30,-4.68382],[30.5,-4.89639],[31,-5.10884],[31.5,-5.32113],[32,-5.53324],[32.5,-5.74514],[33,-5.95679],[33.5,-6.16818],[34,-6.37928],[34.5,-6.59006],[35,-6.8005],[35.5,-7.01058],[36,-7.22027],[36.5,-7.42956],[37,-7.63843],[37.5,-7.84686],[38,-8.05483],[38.5,-8.26232],[39,-8.46931],[39.5,-8.6758],[40,-8.88176],[40.5,-9.08718],[41,-9.29206],[41.5,-9.49636],[42,-9.70009],[42.5,-9.90322],[43,-10.10576],[43.5,-10.30768],[43.79102,-10.42491]]}},{"type":"Feature","id":"+07651117:north:0","properties":{"id":"+07651117","year":765,"month":11,"day":17,"time_tdt":"19:39:02","type":"개기일식","type_code":"T","saros":103,"gamma":0.44305,"magnitude":1.03885,"greatest":{"lat":5.98264,"lng":-101.2428},"path_width_km":145.2,"duration":"03m49s","delta_t_seconds":3220.2,"catalog_number":6596,"source":"NASA Five Millennium Canon of Solar Eclipses","source_url":"https://eclipse.gsfc.nasa.gov/SEsearch/SEsearchmap.php?Ecl=%2B07651117","boundary":"north","name":"765-11-17 개기일식"},"geometry":{"type":"LineString","coordinates":[[-158.16016,31.39692],[-158,31.337],[-157.5,31.14904],[-157,30.95977],[-156.5,30.76918],[-156,30.57726],[-155.5,30.38401],[-155,30.18944],[-154.5,29.99353],[-154,29.79629],[-153.5,29.59771],[-153,29.3978],[-152.5,29.19655],[-152,28.99396],[-151.5,28.79003],[-151,28.58477],[-150.5,28.37817],[-150,28.17023],[-149.5,27.96095],[-149,27.75035],[-148.5,27.5384],[-148,27.32513],[-147.5,27.11054],[-147,26.89462],[-146.5,26.67738],[-146,26.45883],[-145.5,26.23898],[-145,26.01782],[-144.5,25.79536],[-144,25.57162],[-143.5,25.3466],[-143,25.12032],[-142.5,24.89277],[-142,24.66397],[-141.5,24.43394],[-141,24.20269],[-140.5,23.97023],[-140,23.73657],[-139.5,23.50174],[-139,23.26575],[-138.5,23.02862],[-138,22.79037],[-137.5,22.55103],[-137,22.31061],[-136.5,22.06914],[-136,21.82665],[-135.5,21.58316],[-135,21.33871],[-134.5,21.09333],[-134,20.84705],[-133.5,20.59991],[-133,20.35194],[-132.5,20.10319],[-132,19.8537],[-131.5,19.60351],[-131,19.35268],[-130.5,19.10124],[-130,18.84926],[-129.5,18.59678],[-129,18.34387],[-128.5,18.09059],[-128,17.837],[-127.5,17.58317],[-127,17.32916],[-126.5,17.07506],[-126,16.82093],[-125.5,16.56686],[-125,16.31293],[-124.5,16.05923],[-124,15.80584],[-123.5,15.55286],[-123,15.30039],[-122.5,15.04853],[-122,14.79737],[-121.5,14.54704],[-121,14.29764],[-120.5,14.04928],[-120,13.80208],[-119.5,13.55616],[-119,13.31165],[-118.5,13.06868],[-118,12.82737],[-117.5,12.58785],[-117,12.35027],[-116.5,12.11476],[-116,11.88146],[-115.5,11.65051],[-115,11.42206],[-114.5,11.19625],[-114,10.97323],[-113.5,10.75314],[-113,10.53613],[-112.5,10.32235],[-112,10.11195],[-111.5,9.90506],[-111,9.70185],[-110.5,9.50244],[-110,9.30699],[-109.5,9.11562],[-109,8.92848],[-108.5,8.74571],[-108,8.56742],[-107.5,8.39374],[-107,8.2248],[-106.5,8.06071],[-106,7.90159],[-105.5,7.74753],[-105,7.59864],[-104.5,7.45502],[-104,7.31674],[-103.5,7.18389],[-103,7.05655],[-102.5,6.93479],[-102,6.81865],[-101.5,6.7082],[-101,6.60349],[-100.5,6.50454],[-100,6.4114],[-99.5,6.32409],[-99,6.24263],[-98.5,6.16701],[-98,6.09726],[-97.5,6.03337],[-97,5.97532],[-96.5,5.92311],[-96,5.8767],[-95.5,5.83607],[-95,5.80119],[-94.5,5.77201],[-94,5.7485],[-93.5,5.7306],[-93,5.71826],[-92.5,5.71142],[-92,5.71001],[-91.5,5.71397],[-91,5.72323],[-90.5,5.73772],[-90,5.75736],[-89.5,5.78207],[-89,5.81176],[-88.5,5.84637],[-88,5.88578],[-87.5,5.92993],[-87,5.97873],[-86.5,6.03207],[-86,6.08987],[-85.5,6.15204],[-85,6.21848],[-84.5,6.2891],[-84,6.36381],[-83.5,6.44251],[-83,6.5251],[-82.5,6.6115],[-82,6.70162],[-81.5,6.79535],[-81,6.8926],[-80.5,6.99328],[-80,7.09731],[-79.5,7.20459],[-79,7.31503],[-78.5,7.42854],[-78,7.54503],[-77.5,7.66442],[-77,7.78662],[-76.5,7.91156],[-76,8.03913],[-75.5,8.16928],[-75,8.3019],[-74.5,8.43693],[-74,8.57429],[-73.5,8.71389],[-73,8.85567],[-72.5,8.99956],[-72,9.14548],[-71.5,9.29335],[-71,9.44312],[-70.5,9.59471],[-70,9.74806],[-69.5,9.9031],[-69,10.05977],[-68.5,10.21801],[-68,10.37776],[-67.5,10.53895],[-67,10.70153],[-66.5,10.86545],[-66,11.03065],[-65.5,11.19707],[-65,11.36467],[-64.5,11.53339],[-64,11.70318],[-63.5,11.87399],[-63,12.04578],[-62.5,12.2185],[-62,12.3921],[-61.5,12.56655],[-61,12.7418],[-60.5,12.9178],[-60,13.09452],[-59.5,13.27191],[-59,13.44995],[-58.5,13.62859],[-58,13.80779],[-57.5,13.98752],[-57,14.16775],[-56.5,14.34844],[-56,14.52957],[-55.5,14.71109],[-55,14.89297],[-54.5,15.0752],[-54,15.25773],[-53.5,15.44055],[-53,15.62362],[-52.5,15.80691],[-52,15.9904],[-51.5,16.17407],[-51,16.35789],[-50.5,16.54184],[-50,16.72588],[-49.5,16.91001],[-49,17.0942],[-48.5,17.27843],[-48,17.46267],[-47.5,17.64692],[-47,17.83113],[-46.5,18.01531],[-46,18.19943],[-45.5,18.38347],[-45,18.56741],[-44.61914,18.70745]]}},{"type":"Feature","id":"+07651117:center:0","properties":{"id":"+07651117","year":765,"month":11,"day":17,"time_tdt":"19:39:02","type":"개기일식","type_code":"T","saros":103,"gamma":0.44305,"magnitude":1.03885,"greatest":{"lat":5.98264,"lng":-101.2428},"path_width_km":145.2,"duration":"03m49s","delta_t_seconds":3220.2,"catalog_number":6596,"source":"NASA Five Millennium Canon of Solar Eclipses","source_url":"https://eclipse.gsfc.nasa.gov/SEsearch/SEsearchmap.php?Ecl=%2B07651117","boundary":"center","name":"765-11-17 개기일식"},"geometry":{"type":"LineString","coordinates":[[-158.25286,31.06059],[-158,30.94411],[-157.5,30.75339],[-157,30.56133],[-156.5,30.36793],[-156,30.17318],[-155.5,29.97708],[-155,29.77963],[-154.5,29.58083],[-154,29.38067],[-153.5,29.17916],[-153,28.97629],[-152.5,28.77206],[-152,28.56647],[-151.5,28.35952],[-151,28.15122],[-150.5,27.94155],[-150,27.73053],[-149.5,27.51815],[-149,27.30442],[-148.5,27.08934],[-148,26.8729],[-147.5,26.65512],[-147,26.436],[-146.5,26.21554],[-146,25.99374],[-145.5,25.77062],[-145,25.54618],[-144.5,25.32043],[-144,25.09337],[-143.5,24.86501],[-143,24.63537],[-142.5,24.40445],[-142,24.17227],[-141.5,23.93884],[-141,23.70416],[-140.5,23.46827],[-140,23.23117],[-139.5,22.99288],[-139,22.75341],[-138.5,22.5128],[-138,22.27106],[-137.5,22.02821],[-137,21.78427],[-136.5,21.53928],[-136,21.29326],[-135.5,21.04624],[-135,20.79826],[-134.5,20.54934],[-134,20.29952],[-133.5,20.04883],[-133,19.79733],[-132.5,19.54504],[-132,19.29202],[-131.5,19.0383],[-131,18.78395],[-130.5,18.52901],[-130,18.27353],[-129.5,18.01758],[-129,17.76121],[-128.5,17.50449],[-128,17.24748],[-127.5,16.99026],[-127,16.73288],[-126.5,16.47544],[-126,16.21801],[-125.5,15.96067],[-125,15.70351],[-124.5,15.44662],[-124,15.19009],[-123.5,14.93401],[-123,14.67849],[-122.5,14.42364],[-122,14.16955],[-121.5,13.91634],[-121,13.66412],[-120.5,13.41301],[-120,13.16314],[-119.5,12.91462],[-119,12.66759],[-118.5,12.42216],[-118,12.17849],[-117.5,11.93669],[-117,11.69692],[-116.5,11.45931],[-116,11.224],[-115.5,10.99114],[-115,10.76087],[-114.5,10.53335],[-114,10.30871],[-113.5,10.08711],[-113,9.8687],[-112.5,9.65362],[-112,9.44202],[-111.5,9.23405],[-111,9.02986],[-110.5,8.82958],[-110,8.63337],[-109.5,8.44134],[-109,8.25366],[-108.5,8.07044],[-108,7.89181],[-107.5,7.71789],[-107,7.54882],[-106.5,7.3847],[-106,7.22563],[-105.5,7.07173],[-105,6.92309],[-104.5,6.77981],[-104,6.64196],[-103.5,6.50963],[-103,6.38288],[-102.5,6.26179],[-102,6.1464],[-101.5,6.03678],[-101,5.93296],[-100.5,5.83498],[-100,5.74286],[-99.5,5.65664],[-99,5.57632],[-98.5,5.50192],[-98,5.43342],[-97.5,5.37084],[-97,5.31416],[-96.5,5.26335],[-96,5.21839],[-95.5,5.17926],[-95,5.14592],[-94.5,5.11832],[-94,5.09643],[-93.5,5.08019],[-93,5.06953],[-92.5,5.06442],[-92,5.06477],[-91.5,5.07053],[-91,5.08162],[-90.5,5.09797],[-90,5.11949],[-89.5,5.14612],[-89,5.17776],[-88.5,5.21434],[-88,5.25577],[-87.5,5.30195],[-87,5.35281],[-86.5,5.40824],[-86,5.46816],[-85.5,5.53248],[-85,5.60109],[-84.5,5.67391],[-84,5.75085],[-83.5,5.8318],[-83,5.91667],[-82.5,6.00538],[-82,6.09782],[-81.5,6.19391],[-81,6.29354],[-80.5,6.39663],[-80,6.50308],[-79.5,6.61281],[-79,6.72572],[-78.5,6.84173],[-78,6.96074],[-77.5,7.08268],[-77,7.20744],[-76.5,7.33496],[-76,7.46514],[-75.5,7.59791],[-75,7.73317],[-74.5,7.87086],[-74,8.0109],[-73.5,8.1532],[-73,8.2977],[-72.5,8.44431],[-72,8.59298],[-71.5,8.74361],[-71,8.89615],[-70.5,9.05053],[-70,9.20668],[-69.5,9.36454],[-69,9.52403],[-68.5,9.6851],[-68,9.84769],[-67.5,10.01174],[-67,10.17719],[-66.5,10.34398],[-66,10.51206],[-65.5,10.68136],[-65,10.85185],[-64.5,11.02347],[-64,11.19616],[-63.5,11.36988],[-63,11.54457],[-62.5,11.72021],[-62,11.89673],[-61.5,12.07409],[-61,12.25225],[-60.5,12.43117],[-60,12.61081],[-59.5,12.79112],[-59,12.97208],[-58.5,13.15363],[-58,13.33574],[-57.5,13.51839],[-57,13.70152],[-56.5,13.88512],[-56,14.06914],[-55.5,14.25356],[-55,14.43833],[-54.5,14.62344],[-54,14.80886],[-53.5,14.99454],[-53,15.18048],[-52.5,15.36663],[-52,15.55297],[-51.5,15.73949],[-51,15.92614],[-50.5,16.11291],[-50,16.29978],[-49.5,16.48672],[-49,16.67371],[-48.5,16.86073],[-48,17.04775],[-47.5,17.23477],[-47,17.42175],[-46.5,17.60867],[-46,17.79553],[-45.5,17.9823],[-45,18.16896],[-44.53307,18.34395]]}},{"type":"Feature","id":"+07651117:south:0","properties":{"id":"+07651117","year":765,"month":11,"day":17,"time_tdt":"19:39:02","type":"개기일식","type_code":"T","saros":103,"gamma":0.44305,"magnitude":1.03885,"greatest":{"lat":5.98264,"lng":-101.2428},"path_width_km":145.2,"duration":"03m49s","delta_t_seconds":3220.2,"catalog_number":6596,"source":"NASA Five Millennium Canon of Solar Eclipses","source_url":"https://eclipse.gsfc.nasa.gov/SEsearch/SEsearchmap.php?Ecl=%2B07651117","boundary":"south","name":"765-11-17 개기일식"},"geometry":{"type":"LineString","coordinates":[[-158.4082,30.70802],[-158,30.55104],[-157.5,30.35753],[-157,30.16266],[-156.5,29.96642],[-156,29.76881],[-155.5,29.56984],[-155,29.36949],[-154.5,29.16777],[-154,28.96466],[-153.5,28.7602],[-153,28.55435],[-152.5,28.34712],[-152,28.1385],[-151.5,27.92851],[-151,27.71714],[-150.5,27.50438],[-150,27.29025],[-149.5,27.07474],[-149,26.85786],[-148.5,26.6396],[-148,26.41997],[-147.5,26.19898],[-147,25.97662],[-146.5,25.75291],[-146,25.52784],[-145.5,25.30143],[-145,25.07367],[-144.5,24.84459],[-144,24.61418],[-143.5,24.38246],[-143,24.14943],[-142.5,23.91512],[-142,23.67952],[-141.5,23.44265],[-141,23.20453],[-140.5,22.96518],[-140,22.7246],[-139.5,22.48282],[-139,22.23985],[-138.5,21.99573],[-138,21.75046],[-137.5,21.50408],[-137,21.2566],[-136.5,21.00806],[-136,20.75849],[-135.5,20.50791],[-135,20.25636],[-134.5,20.00388],[-134,19.75049],[-133.5,19.49624],[-133,19.24117],[-132.5,18.98533],[-132,18.72876],[-131.5,18.4715],[-131,18.21362],[-130.5,17.95515],[-130,17.69617],[-129.5,17.43673],[-129,17.17689],[-128.5,16.91672],[-128,16.65628],[-127.5,16.39566],[-127,16.13492],[-126.5,15.87414],[-126,15.6134],[-125.5,15.3528],[-125,15.09241],[-124.5,14.83234],[-124,14.57267],[-123.5,14.31352],[-123,14.05497],[-122.5,13.79714],[-122,13.54014],[-121.5,13.28407],[-121,13.02907],[-120.5,12.77525],[-120,12.52274],[-119.5,12.27165],[-119,12.02213],[-118.5,11.7743],[-118,11.52831],[-117.5,11.28428],[-117,11.04237],[-116.5,10.80271],[-116,10.56545],[-115.5,10.33074],[-115,10.09872],[-114.5,9.86954],[-114,9.64336],[-113.5,9.42031],[-113,9.20057],[-112.5,8.98426],[-112,8.77154],[-111.5,8.56256],[-111,8.35746],[-110.5,8.15638],[-110,7.95948],[-109.5,7.76687],[-109,7.57871],[-108.5,7.39512],[-108,7.21622],[-107.5,7.04214],[-107,6.873],[-106.5,6.70891],[-106,6.54997],[-105.5,6.39629],[-105,6.24796],[-104.5,6.10508],[-104,5.96771],[-103.5,5.83594],[-103,5.70984],[-102.5,5.58947],[-102,5.47488],[-101.5,5.36612],[-101,5.26323],[-100.5,5.16624],[-100,5.07518],[-99.5,4.99008],[-99,4.91093],[-98.5,4.83775],[-98,4.77053],[-97.5,4.70927],[-97,4.65396],[-96.5,4.60457],[-96,4.56107],[-95.5,4.52344],[-95,4.49163],[-94.5,4.46562],[-94,4.44533],[-93.5,4.43074],[-93,4.42177],[-92.5,4.41836],[-92,4.42046],[-91.5,4.428],[-91,4.44089],[-90.5,4.45908],[-90,4.48247],[-89.5,4.511],[-89,4.54456],[-88.5,4.5831],[-88,4.6265],[-87.5,4.67469],[-87,4.72758],[-86.5,4.78508],[-86,4.84709],[-85.5,4.91352],[-85,4.98428],[-84.5,5.05927],[-84,5.1384],[-83.5,5.22157],[-83,5.3087],[-82.5,5.39968],[-82,5.49442],[-81.5,5.59283],[-81,5.69481],[-80.5,5.80027],[-80,5.90913],[-79.5,6.02128],[-79,6.13664],[-78.5,6.25511],[-78,6.37662],[-77.5,6.50107],[-77,6.62837],[-76.5,6.75845],[-76,6.89121],[-75.5,7.02658],[-75,7.16446],[-74.5,7.30479],[-74,7.44749],[-73.5,7.59247],[-73,7.73966],[-72.5,7.88899],[-72,8.04038],[-71.5,8.19376],[-71,8.34906],[-70.5,8.50621],[-70,8.66515],[-69.5,8.8258],[-69,8.98811],[-68.5,9.152],[-68,9.31743],[-67.5,9.48432],[-67,9.65263],[-66.5,9.82228],[-66,9.99323],[-65.5,10.16541],[-65,10.33879],[-64.5,10.51329],[-64,10.68888],[-63.5,10.86551],[-63,11.04311],[-62.5,11.22165],[-62,11.40109],[-61.5,11.58137],[-61,11.76245],[-60.5,11.94429],[-60,12.12684],[-59.5,12.31008],[-59,12.49395],[-58.5,12.67842],[-58,12.86345],[-57.5,13.04901],[-57,13.23505],[-56.5,13.42156],[-56,13.60848],[-55.5,13.7958],[-55,13.98347],[-54.5,14.17147],[-54,14.35977],[-53.5,14.54833],[-53,14.73714],[-52.5,14.92616],[-52,15.11536],[-51.5,15.30473],[-51,15.49423],[-50.5,15.68384],[-50,15.87353],[-49.5,16.06329],[-49,16.25309],[-48.5,16.44291],[-48,16.63272],[-47.5,16.82251],[-47,17.01226],[-46.5,17.20195],[-46,17.39156],[-45.5,17.58106],[-45,17.77045],[-44.5,17.9597]]}}],"attribution":"Eclipse Predictions by Fred Espenak and Jean Meeus (NASA's GSFC)","generated_at":"2026-09-23T01:44:56.116Z"}
