{"type":"FeatureCollection","year":768,"events":[{"id":"+07680323","year":768,"month":3,"day":23,"time_tdt":"05:55:58","type":"개기일식","type_code":"T","saros":90,"gamma":0.20497,"magnitude":1.06794,"greatest":{"lat":13.86546,"lng":102.05334},"path_width_km":226.2,"duration":"05m56s","delta_t_seconds":3200.4,"catalog_number":6601,"source":"NASA Five Millennium Canon of Solar Eclipses","source_url":"https://eclipse.gsfc.nasa.gov/SEsearch/SEsearchmap.php?Ecl=%2B07680323"},{"id":"+07680915","year":768,"month":9,"day":15,"time_tdt":"22:12:37","type":"금환일식","type_code":"A","saros":95,"gamma":-0.30842,"magnitude":0.93618,"greatest":{"lat":-15.82367,"lng":-147.1106},"path_width_km":248.8,"duration":"08m00s","delta_t_seconds":3196.4,"catalog_number":6602,"source":"NASA Five Millennium Canon of Solar Eclipses","source_url":"https://eclipse.gsfc.nasa.gov/SEsearch/SEsearchmap.php?Ecl=%2B07680915"}],"features":[{"type":"Feature","id":"+07680323:north:0","properties":{"id":"+07680323","year":768,"month":3,"day":23,"time_tdt":"05:55:58","type":"개기일식","type_code":"T","saros":90,"gamma":0.20497,"magnitude":1.06794,"greatest":{"lat":13.86546,"lng":102.05334},"path_width_km":226.2,"duration":"05m56s","delta_t_seconds":3200.4,"catalog_number":6601,"source":"NASA Five Millennium Canon of Solar Eclipses","source_url":"https://eclipse.gsfc.nasa.gov/SEsearch/SEsearchmap.php?Ecl=%2B07680323","boundary":"north","name":"768-03-23 개기일식"},"geometry":{"type":"LineString","coordinates":[[41.06641,-5.26204],[41.5,-5.24035],[42,-5.21394],[42.5,-5.18603],[43,-5.15659],[43.5,-5.1256],[44,-5.09306],[44.5,-5.05894],[45,-5.02322],[45.5,-4.98589],[46,-4.94692],[46.5,-4.9063],[47,-4.864],[47.5,-4.82001],[48,-4.77431],[48.5,-4.72687],[49,-4.67767],[49.5,-4.6267],[50,-4.57392],[50.5,-4.51933],[51,-4.46289],[51.5,-4.40458],[52,-4.34439],[52.5,-4.28228],[53,-4.21823],[53.5,-4.15222],[54,-4.08422],[54.5,-4.01421],[55,-3.94216],[55.5,-3.86805],[56,-3.79185],[56.5,-3.71352],[57,-3.63306],[57.5,-3.55042],[58,-3.46558],[58.5,-3.37852],[59,-3.28919],[59.5,-3.19758],[60,-3.10365],[60.5,-3.00737],[61,-2.90872],[61.5,-2.80766],[62,-2.70415],[62.5,-2.59818],[63,-2.4897],[63.5,-2.37869],[64,-2.26511],[64.5,-2.14892],[65,-2.03011],[65.5,-1.90862],[66,-1.78443],[66.5,-1.6575],[67,-1.5278],[67.5,-1.3953],[68,-1.25996],[68.5,-1.12174],[69,-0.98061],[69.5,-0.83654],[70,-0.68949],[70.5,-0.53943],[71,-0.38632],[71.5,-0.23014],[72,-0.07083],[72.5,0.09162],[73,0.25725],[73.5,0.42609],[74,0.59818],[74.5,0.77354],[75,0.9522],[75.5,1.1342],[76,1.31955],[76.5,1.50828],[77,1.70042],[77.5,1.89599],[78,2.095],[78.5,2.29749],[79,2.50345],[79.5,2.71291],[80,2.92587],[80.5,3.14235],[81,3.36234],[81.5,3.58585],[82,3.81287],[82.5,4.0434],[83,4.27742],[83.5,4.51491],[84,4.75586],[84.5,5.00024],[85,5.24801],[85.5,5.49914],[86,5.75358],[86.5,6.01129],[87,6.2722],[87.5,6.53626],[88,6.80339],[88.5,7.07352],[89,7.34656],[89.5,7.62242],[90,7.90101],[90.5,8.1822],[91,8.4659],[91.5,8.75198],[92,9.04032],[92.5,9.33077],[93,9.62319],[93.5,9.91744],[94,10.21337],[94.5,10.5108],[95,10.80959],[95.5,11.10955],[96,11.4105],[96.5,11.71229],[97,12.01471],[97.5,12.31759],[98,12.62074],[98.5,12.92398],[99,13.22712],[99.5,13.52996],[100,13.83234],[100.5,14.13406],[101,14.43494],[101.5,14.7348],[102,15.03348],[102.5,15.33079],[103,15.62658],[103.5,15.92069],[104,16.21296],[104.5,16.50324],[105,16.7914],[105.5,17.07729],[106,17.3608],[106.5,17.6418],[107,17.92018],[107.5,18.19584],[108,18.46866],[108.5,18.73857],[109,19.00549],[109.5,19.26932],[110,19.53001],[110.5,19.78748],[111,20.04169],[111.5,20.29258],[112,20.54012],[112.5,20.78425],[113,21.02495],[113.5,21.2622],[114,21.49596],[114.5,21.72622],[115,21.95298],[115.5,22.17621],[116,22.39592],[116.5,22.61211],[117,22.82477],[117.5,23.03392],[118,23.23956],[118.5,23.44171],[119,23.64037],[119.5,23.83558],[120,24.02733],[120.5,24.21566],[121,24.40059],[121.5,24.58214],[122,24.76034],[122.5,24.93521],[123,25.10679],[123.5,25.27509],[124,25.44015],[124.5,25.60201],[125,25.76069],[125.5,25.91622],[126,26.06863],[126.5,26.21797],[127,26.36426],[127.5,26.50753],[128,26.64781],[128.5,26.78515],[129,26.91957],[129.5,27.05111],[130,27.1798],[130.5,27.30568],[131,27.42877],[131.5,27.54911],[132,27.66673],[132.5,27.78167],[133,27.89395],[133.5,28.00362],[134,28.11069],[134.5,28.2152],[135,28.31719],[135.5,28.41668],[136,28.51371],[136.5,28.6083],[137,28.70048],[137.5,28.79028],[138,28.87774],[138.5,28.96287],[139,29.04571],[139.5,29.12629],[140,29.20463],[140.5,29.28075],[141,29.3547],[141.5,29.42648],[142,29.49613],[142.5,29.56367],[143,29.62914],[143.5,29.69254],[144,29.75391],[144.5,29.81326],[145,29.87063],[145.5,29.92604],[146,29.9795],[146.5,30.03105],[147,30.0807],[147.5,30.12847],[148,30.17439],[148.5,30.21847],[149,30.26075],[149.5,30.30123],[150,30.33993],[150.5,30.37688],[151,30.4121],[151.5,30.44561],[152,30.47742],[152.5,30.50755],[153,30.53602],[153.5,30.56285],[154,30.58805],[154.5,30.61165],[155,30.63366],[155.5,30.6541],[156,30.67298],[156.5,30.69032],[157,30.70613],[157.5,30.72044],[158,30.73325],[158.5,30.74459],[159,30.75446],[159.5,30.76289],[160,30.76988],[160.5,30.77546],[161,30.77963],[161.5,30.78241],[162,30.78382],[162.5,30.78387],[163,30.78256],[163.5,30.77992],[164,30.77596],[164.5,30.77069],[165,30.76412],[165.5,30.75627],[166,30.74715],[166.5,30.73677],[167,30.72514],[167.5,30.71227],[168,30.69819],[168.5,30.68289],[169,30.66639],[169.5,30.64871],[170,30.62985],[170.5,30.60982],[171,30.58864],[171.5,30.56631],[172,30.54285],[172.20312,30.533]]}},{"type":"Feature","id":"+07680323:center:0","properties":{"id":"+07680323","year":768,"month":3,"day":23,"time_tdt":"05:55:58","type":"개기일식","type_code":"T","saros":90,"gamma":0.20497,"magnitude":1.06794,"greatest":{"lat":13.86546,"lng":102.05334},"path_width_km":226.2,"duration":"05m56s","delta_t_seconds":3200.4,"catalog_number":6601,"source":"NASA Five Millennium Canon of Solar Eclipses","source_url":"https://eclipse.gsfc.nasa.gov/SEsearch/SEsearchmap.php?Ecl=%2B07680323","boundary":"center","name":"768-03-23 개기일식"},"geometry":{"type":"LineString","coordinates":[[41.17513,-6.0203],[41.5,-6.00666],[42,-5.983],[42.5,-5.95787],[43,-5.93123],[43.5,-5.90307],[44,-5.87338],[44.5,-5.84213],[45,-5.80932],[45.5,-5.77491],[46,-5.73889],[46.5,-5.70124],[47,-5.66195],[47.5,-5.62099],[48,-5.57835],[48.5,-5.53399],[49,-5.48791],[49.5,-5.44008],[50,-5.39048],[50.5,-5.33909],[51,-5.28588],[51.5,-5.23084],[52,-5.17394],[52.5,-5.11515],[53,-5.05446],[53.5,-4.99184],[54,-4.92727],[54.5,-4.86071],[55,-4.79215],[55.5,-4.72157],[56,-4.64892],[56.5,-4.5742],[57,-4.49736],[57.5,-4.41839],[58,-4.33726],[58.5,-4.25394],[59,-4.16839],[59.5,-4.0806],[60,-3.99053],[60.5,-3.89815],[61,-3.80343],[61.5,-3.70634],[62,-3.60686],[62.5,-3.50495],[63,-3.40057],[63.5,-3.2937],[64,-3.1843],[64.5,-3.07235],[65,-2.9578],[65.5,-2.84063],[66,-2.7208],[66.5,-2.59827],[67,-2.47302],[67.5,-2.34501],[68,-2.2142],[68.5,-2.08056],[69,-1.94405],[69.5,-1.80465],[70,-1.66231],[70.5,-1.517],[71,-1.36869],[71.5,-1.21734],[72,-1.06291],[72.5,-0.90538],[73,-0.74471],[73.5,-0.58086],[74,-0.41381],[74.5,-0.24353],[75,-0.06997],[75.5,0.10688],[76,0.28706],[76.5,0.4706],[77,0.65751],[77.5,0.84784],[78,1.04159],[78.5,1.23879],[79,1.43945],[79.5,1.64361],[80,1.85126],[80.5,2.06243],[81,2.27711],[81.5,2.49532],[82,2.71706],[82.5,2.94232],[83,3.17111],[83.5,3.4034],[84,3.63919],[84.5,3.87846],[85,4.12118],[85.5,4.36733],[86,4.61686],[86.5,4.86974],[87,5.12592],[87.5,5.38534],[88,5.64796],[88.5,5.91369],[89,6.18246],[89.5,6.4542],[90,6.72882],[90.5,7.00621],[91,7.28628],[91.5,7.56892],[92,7.854],[92.5,8.14141],[93,8.43101],[93.5,8.72265],[94,9.0162],[94.5,9.3115],[95,9.60839],[95.5,9.90672],[96,10.2063],[96.5,10.50697],[97,10.80854],[97.5,11.11084],[98,11.41369],[98.5,11.71689],[99,12.02026],[99.5,12.32361],[100,12.62676],[100.5,12.92951],[101,13.23168],[101.5,13.5331],[102,13.83357],[102.5,14.13291],[103,14.43097],[103.5,14.72757],[104,15.02254],[104.5,15.31573],[105,15.60699],[105.5,15.89617],[106,16.18313],[106.5,16.46775],[107,16.7499],[107.5,17.02946],[108,17.30633],[108.5,17.5804],[109,17.85157],[109.5,18.11976],[110,18.38489],[110.5,18.64689],[111,18.90569],[111.5,19.16123],[112,19.41346],[112.5,19.66233],[113,19.9078],[113.5,20.14984],[114,20.38841],[114.5,20.6235],[115,20.85508],[115.5,21.08314],[116,21.30768],[116.5,21.52867],[117,21.74613],[117.5,21.96005],[118,22.17045],[118.5,22.37732],[119,22.58068],[119.5,22.78054],[120,22.97692],[120.5,23.16984],[121,23.35931],[121.5,23.54537],[122,23.72803],[122.5,23.90732],[123,24.08326],[123.5,24.25589],[124,24.42523],[124.5,24.59131],[125,24.75417],[125.5,24.91383],[126,25.07032],[126.5,25.22369],[127,25.37396],[127.5,25.52116],[128,25.66533],[128.5,25.8065],[129,25.94471],[129.5,26.07999],[130,26.21237],[130.5,26.34188],[131,26.46857],[131.5,26.59246],[132,26.71359],[132.5,26.83198],[133,26.94769],[133.5,27.06072],[134,27.17112],[134.5,27.27893],[135,27.38416],[135.5,27.48686],[136,27.58705],[136.5,27.68476],[137,27.78003],[137.5,27.87288],[138,27.96335],[138.5,28.05146],[139,28.13725],[139.5,28.22073],[140,28.30194],[140.5,28.38091],[141,28.45766],[141.5,28.53222],[142,28.60462],[142.5,28.67487],[143,28.74302],[143.5,28.80908],[144,28.87308],[144.5,28.93503],[145,28.99498],[145.5,29.05293],[146,29.10892],[146.5,29.16296],[147,29.21508],[147.5,29.2653],[148,29.31365],[148.5,29.36014],[149,29.40479],[149.5,29.44763],[150,29.48867],[150.5,29.52794],[151,29.56546],[151.5,29.60124],[152,29.63531],[152.5,29.66768],[153,29.69838],[153.5,29.72741],[154,29.7548],[154.5,29.78057],[155,29.80474],[155.5,29.82731],[156,29.84832],[156.5,29.86776],[157,29.88567],[157.5,29.90206],[158,29.91694],[158.5,29.93033],[159,29.94224],[159.5,29.9527],[160,29.96171],[160.5,29.96928],[161,29.97545],[161.5,29.98021],[162,29.98358],[162.5,29.98558],[163,29.98623],[163.5,29.98552],[164,29.98349],[164.5,29.98013],[165,29.97547],[165.5,29.96952],[166,29.96228],[166.5,29.95378],[167,29.94402],[167.5,29.93302],[168,29.92079],[168.5,29.90734],[169,29.89268],[169.5,29.87682],[170,29.85979],[170.5,29.84157],[171,29.8222],[171.5,29.80168],[172,29.78002],[172.07405,29.78084]]}},{"type":"Feature","id":"+07680323:south:0","properties":{"id":"+07680323","year":768,"month":3,"day":23,"time_tdt":"05:55:58","type":"개기일식","type_code":"T","saros":90,"gamma":0.20497,"magnitude":1.06794,"greatest":{"lat":13.86546,"lng":102.05334},"path_width_km":226.2,"duration":"05m56s","delta_t_seconds":3200.4,"catalog_number":6601,"source":"NASA Five Millennium Canon of Solar Eclipses","source_url":"https://eclipse.gsfc.nasa.gov/SEsearch/SEsearchmap.php?Ecl=%2B07680323","boundary":"south","name":"768-03-23 개기일식"},"geometry":{"type":"LineString","coordinates":[[41.5,-6.76954],[42,-6.74859],[42.5,-6.72618],[43,-6.70229],[43.5,-6.6769],[44,-6.65],[44.5,-6.62157],[45,-6.5916],[45.5,-6.56006],[46,-6.52693],[46.5,-6.4922],[47,-6.45586],[47.5,-6.41787],[48,-6.37821],[48.5,-6.33688],[49,-6.29385],[49.5,-6.2491],[50,-6.2026],[50.5,-6.15434],[51,-6.1043],[51.5,-6.05245],[52,-5.99877],[52.5,-5.94324],[53,-5.88583],[53.5,-5.82652],[54,-5.76529],[54.5,-5.70212],[55,-5.63697],[55.5,-5.56983],[56,-5.50066],[56.5,-5.42945],[57,-5.35616],[57.5,-5.28077],[58,-5.20326],[58.5,-5.12359],[59,-5.04173],[59.5,-4.95767],[60,-4.87136],[60.5,-4.78279],[61,-4.69191],[61.5,-4.59871],[62,-4.50315],[62.5,-4.4052],[63,-4.30482],[63.5,-4.202],[64,-4.09669],[64.5,-3.98886],[65,-3.87848],[65.5,-3.76552],[66,-3.64994],[66.5,-3.53171],[67,-3.4108],[67.5,-3.28717],[68,-3.16079],[68.5,-3.03163],[69,-2.89964],[69.5,-2.76479],[70,-2.62706],[70.5,-2.48639],[71,-2.34277],[71.5,-2.19615],[72,-2.0465],[72.5,-1.89378],[73,-1.73797],[73.5,-1.57902],[74,-1.41691],[74.5,-1.25159],[75,-1.08305],[75.5,-0.91124],[76,-0.73614],[76.5,-0.55771],[77,-0.37594],[77.5,-0.19078],[78,-0.00222],[78.5,0.18976],[79,0.3852],[79.5,0.58411],[80,0.7865],[80.5,0.9924],[81,1.20182],[81.5,1.41476],[82,1.63124],[82.5,1.85125],[83,2.0748],[83.5,2.30189],[84,2.53251],[84.5,2.76664],[85,3.00427],[85.5,3.24537],[86,3.48992],[86.5,3.73789],[87,3.98924],[87.5,4.24392],[88,4.50189],[88.5,4.76308],[89,5.02743],[89.5,5.29487],[90,5.56533],[90.5,5.83871],[91,6.11493],[91.5,6.39388],[92,6.67546],[92.5,6.95955],[93,7.24603],[93.5,7.53477],[94,7.82563],[94.5,8.11847],[95,8.41314],[95.5,8.70948],[96,9.00733],[96.5,9.30652],[97,9.60688],[97.5,9.90823],[98,10.21039],[98.5,10.51317],[99,10.8164],[99.5,11.11988],[100,11.42343],[100.5,11.72684],[101,12.02995],[101.5,12.33256],[102,12.63447],[102.5,12.93552],[103,13.23552],[103.5,13.53429],[104,13.83167],[104.5,14.12748],[105,14.42157],[105.5,14.71378],[106,15.00396],[106.5,15.29198],[107,15.57769],[107.5,15.86097],[108,16.1417],[108.5,16.41976],[109,16.69506],[109.5,16.96748],[110,17.23694],[110.5,17.50337],[111,17.76667],[111.5,18.02678],[112,18.28365],[112.5,18.53721],[113,18.78741],[113.5,19.03422],[114,19.27759],[114.5,19.51749],[115,19.75391],[115.5,19.98681],[116,20.21618],[116.5,20.44202],[117,20.66431],[117.5,20.88305],[118,21.09823],[118.5,21.30988],[119,21.51799],[119.5,21.72257],[120,21.92364],[120.5,22.12121],[121,22.3153],[121.5,22.50593],[122,22.69313],[122.5,22.87691],[123,23.0573],[123.5,23.23433],[124,23.40802],[124.5,23.57842],[125,23.74553],[125.5,23.90941],[126,24.07007],[126.5,24.22755],[127,24.38188],[127.5,24.5331],[128,24.68124],[128.5,24.82633],[129,24.96841],[129.5,25.10751],[130,25.24366],[130.5,25.3769],[131,25.50727],[131.5,25.63479],[132,25.7595],[132.5,25.88144],[133,26.00063],[133.5,26.11712],[134,26.23093],[134.5,26.3421],[135,26.45065],[135.5,26.55663],[136,26.66006],[136.5,26.76098],[137,26.85941],[137.5,26.95539],[138,27.04894],[138.5,27.1401],[139,27.22889],[139.5,27.31535],[140,27.39951],[140.5,27.48138],[141,27.56101],[141.5,27.63841],[142,27.71362],[142.5,27.78666],[143,27.85755],[143.5,27.92633],[144,27.99302],[144.5,28.05764],[145,28.12021],[145.5,28.18078],[146,28.23934],[146.5,28.29594],[147,28.35059],[147.5,28.40332],[148,28.45414],[148.5,28.50309],[149,28.55018],[149.5,28.59543],[150,28.63886],[150.5,28.6805],[151,28.72037],[151.5,28.75848],[152,28.79486],[152.5,28.82952],[153,28.86249],[153.5,28.89378],[154,28.9234],[154.5,28.95139],[155,28.97776],[155.5,29.00252],[156,29.02569],[156.5,29.04729],[157,29.06734],[157.5,29.08585],[158,29.10284],[158.5,29.11832],[159,29.13232],[159.5,29.14484],[160,29.1559],[160.5,29.16553],[161,29.17372],[161.5,29.1805],[162,29.18588],[162.5,29.18987],[163,29.1925],[163.5,29.19377],[164,29.19369],[164.5,29.19229],[165,29.18957],[165.5,29.18554],[166,29.18023],[166.5,29.17364],[167,29.16579],[167.5,29.15668],[168,29.14633],[168.5,29.13476],[169,29.12197],[169.5,29.10798],[170,29.09279],[170.5,29.07642],[171,29.05889],[171.5,29.04019],[171.95898,29.02202]]}},{"type":"Feature","id":"+07680915:north:0","properties":{"id":"+07680915","year":768,"month":9,"day":15,"time_tdt":"22:12:37","type":"금환일식","type_code":"A","saros":95,"gamma":-0.30842,"magnitude":0.93618,"greatest":{"lat":-15.82367,"lng":-147.1106},"path_width_km":248.8,"duration":"08m00s","delta_t_seconds":3196.4,"catalog_number":6602,"source":"NASA Five Millennium Canon of Solar Eclipses","source_url":"https://eclipse.gsfc.nasa.gov/SEsearch/SEsearchmap.php?Ecl=%2B07680915","boundary":"north","name":"768-09-15 금환일식"},"geometry":{"type":"LineString","coordinates":[[156.875,1.22028],[157,1.22265],[157.5,1.23125],[158,1.23846],[158.5,1.24428],[159,1.24867],[159.5,1.25162],[160,1.2531],[160.5,1.25309],[161,1.25158],[161.5,1.24852],[162,1.24392],[162.5,1.23773],[163,1.22993],[163.5,1.22051],[164,1.20942],[164.5,1.19666],[165,1.18219],[165.5,1.16598],[166,1.148],[166.5,1.12823],[167,1.10664],[167.5,1.0832],[168,1.05788],[168.5,1.03064],[169,1.00145],[169.5,0.97029],[170,0.93712],[170.5,0.9019],[171,0.8646],[171.5,0.82518],[172,0.78362],[172.5,0.73986],[173,0.69387],[173.5,0.64562],[174,0.59506],[174.5,0.54215],[175,0.48685],[175.5,0.42912],[176,0.36891],[176.5,0.30618],[177,0.24089],[177.5,0.17298],[178,0.1024],[178.5,0.02912],[179,-0.04692],[179.5,-0.12578],[180,-0.2075]]}},{"type":"Feature","id":"+07680915:north:1","properties":{"id":"+07680915","year":768,"month":9,"day":15,"time_tdt":"22:12:37","type":"금환일식","type_code":"A","saros":95,"gamma":-0.30842,"magnitude":0.93618,"greatest":{"lat":-15.82367,"lng":-147.1106},"path_width_km":248.8,"duration":"08m00s","delta_t_seconds":3196.4,"catalog_number":6602,"source":"NASA Five Millennium Canon of Solar Eclipses","source_url":"https://eclipse.gsfc.nasa.gov/SEsearch/SEsearchmap.php?Ecl=%2B07680915","boundary":"north","name":"768-09-15 금환일식"},"geometry":{"type":"LineString","coordinates":[[-179.5,-0.29214],[-179,-0.37976],[-178.5,-0.4704],[-178,-0.56413],[-177.5,-0.661],[-177,-0.76108],[-176.5,-0.86441],[-176,-0.97108],[-175.5,-1.08113],[-175,-1.19464],[-174.5,-1.31166],[-174,-1.43226],[-173.5,-1.55652],[-173,-1.68449],[-172.5,-1.81625],[-172,-1.95186],[-171.5,-2.0914],[-171,-2.23494],[-170.5,-2.38254],[-170,-2.53429],[-169.5,-2.69025],[-169,-2.85049],[-168.5,-3.01508],[-168,-3.18411],[-167.5,-3.35763],[-167,-3.53572],[-166.5,-3.71844],[-166,-3.90587],[-165.5,-4.09807],[-165,-4.29509],[-164.5,-4.497],[-164,-4.70386],[-163.5,-4.91572],[-163,-5.13263],[-162.5,-5.35462],[-162,-5.58174],[-161.5,-5.81402],[-161,-6.05148],[-160.5,-6.29413],[-160,-6.542],[-159.5,-6.79506],[-159,-7.05331],[-158.5,-7.31673],[-158,-7.58528],[-157.5,-7.85892],[-157,-8.13757],[-156.5,-8.42116],[-156,-8.7096],[-155.5,-9.00279],[-155,-9.3006],[-154.5,-9.60288],[-154,-9.90949],[-153.5,-10.22024],[-153,-10.53495],[-152.5,-10.8534],[-152,-11.17537],[-151.5,-11.50063],[-151,-11.82891],[-150.5,-12.15995],[-150,-12.49346],[-149.5,-12.82916],[-149,-13.16673],[-148.5,-13.50587],[-148,-13.84626],[-147.5,-14.18759],[-147,-14.52953],[-146.5,-14.87175],[-146,-15.21394],[-145.5,-15.55579],[-145,-15.89697],[-144.5,-16.2372],[-144,-16.57617],[-143.5,-16.91361],[-143,-17.24924],[-142.5,-17.5828],[-142,-17.91406],[-141.5,-18.24279],[-141,-18.56876],[-140.5,-18.89179],[-140,-19.21168],[-139.5,-19.52828],[-139,-19.84143],[-138.5,-20.151],[-138,-20.45686],[-137.5,-20.7589],[-137,-21.05703],[-136.5,-21.35117],[-136,-21.64126],[-135.5,-21.92722],[-135,-22.20903],[-134.5,-22.48664],[-134,-22.76002],[-133.5,-23.02916],[-133,-23.29405],[-132.5,-23.55468],[-132,-23.81107],[-131.5,-24.06321],[-131,-24.31114],[-130.5,-24.55486],[-130,-24.7944],[-129.5,-25.0298],[-129,-25.26108],[-128.5,-25.48828],[-128,-25.71145],[-127.5,-25.93062],[-127,-26.14583],[-126.5,-26.35713],[-126,-26.56457],[-125.5,-26.76819],[-125,-26.96805],[-124.5,-27.16418],[-124,-27.35665],[-123.5,-27.5455],[-123,-27.73078],[-122.5,-27.91254],[-122,-28.09083],[-121.5,-28.26571],[-121,-28.43722],[-120.5,-28.60541],[-120,-28.77033],[-119.5,-28.93203],[-119,-29.09056],[-118.5,-29.24597],[-118,-29.3983],[-117.5,-29.5476],[-117,-29.69392],[-116.5,-29.83729],[-116,-29.97778],[-115.5,-30.11541],[-115,-30.25024],[-114.5,-30.3823],[-114,-30.51164],[-113.5,-30.6383],[-113,-30.76232],[-112.5,-30.88373],[-112,-31.00258],[-111.5,-31.1189],[-111,-31.23274],[-110.5,-31.34412],[-110,-31.45309],[-109.5,-31.55967],[-109,-31.66391],[-108.5,-31.76583],[-108,-31.86547],[-107.5,-31.96286],[-107,-32.05804],[-106.5,-32.15103],[-106,-32.24186],[-105.5,-32.33057],[-105,-32.41718],[-104.5,-32.50173],[-104,-32.58423],[-103.5,-32.66472],[-103,-32.74322],[-102.5,-32.81976],[-102,-32.89437],[-101.5,-32.96707],[-101,-33.03788],[-100.5,-33.10683],[-100,-33.17395],[-99.5,-33.23925],[-99,-33.30276],[-98.5,-33.3645],[-98,-33.42449],[-97.5,-33.48276],[-97,-33.53933],[-96.5,-33.59421],[-96,-33.64742],[-95.5,-33.69899],[-95,-33.74894],[-94.5,-33.79728],[-94,-33.84403],[-93.5,-33.88921],[-93,-33.93284],[-92.5,-33.97494],[-92,-34.01552],[-91.5,-34.0546],[-91,-34.0922],[-90.5,-34.12833],[-90,-34.16302],[-89.5,-34.19626],[-89,-34.22809],[-88.5,-34.25851],[-88,-34.28755],[-87.5,-34.31521],[-87,-34.3415],[-86.5,-34.36646],[-86,-34.39008],[-85.5,-34.41238],[-85,-34.43337],[-84.5,-34.45308],[-84,-34.4715],[-83.5,-34.48866],[-83,-34.50456],[-82.5,-34.51922],[-82,-34.53266],[-81.5,-34.54487],[-81,-34.55588],[-80.69922,-34.56193]]}},{"type":"Feature","id":"+07680915:center:0","properties":{"id":"+07680915","year":768,"month":9,"day":15,"time_tdt":"22:12:37","type":"금환일식","type_code":"A","saros":95,"gamma":-0.30842,"magnitude":0.93618,"greatest":{"lat":-15.82367,"lng":-147.1106},"path_width_km":248.8,"duration":"08m00s","delta_t_seconds":3196.4,"catalog_number":6602,"source":"NASA Five Millennium Canon of Solar Eclipses","source_url":"https://eclipse.gsfc.nasa.gov/SEsearch/SEsearchmap.php?Ecl=%2B07680915","boundary":"center","name":"768-09-15 금환일식"},"geometry":{"type":"LineString","coordinates":[[156.63174,-0.16518],[157,-0.15619],[157.5,-0.14562],[158,-0.13644],[158.5,-0.12868],[159,-0.12234],[159.5,-0.11746],[160,-0.11406],[160.5,-0.11215],[161,-0.11177],[161.5,-0.11293],[162,-0.11566],[162.5,-0.11999],[163,-0.12594],[163.5,-0.13353],[164,-0.1428],[164.5,-0.15377],[165,-0.16646],[165.5,-0.1809],[166,-0.19713],[166.5,-0.21517],[167,-0.23506],[167.5,-0.25681],[168,-0.28048],[168.5,-0.30607],[169,-0.33364],[169.5,-0.36321],[170,-0.39482],[170.5,-0.42851],[171,-0.4643],[171.5,-0.50223],[172,-0.54235],[172.5,-0.58469],[173,-0.62929],[173.5,-0.67619],[174,-0.72544],[174.5,-0.77707],[175,-0.83112],[175.5,-0.88765],[176,-0.9467],[176.5,-1.00831],[177,-1.07253],[177.5,-1.13941],[178,-1.209],[178.5,-1.28135],[179,-1.35651],[179.5,-1.43454],[180,-1.51548]]}},{"type":"Feature","id":"+07680915:center:1","properties":{"id":"+07680915","year":768,"month":9,"day":15,"time_tdt":"22:12:37","type":"금환일식","type_code":"A","saros":95,"gamma":-0.30842,"magnitude":0.93618,"greatest":{"lat":-15.82367,"lng":-147.1106},"path_width_km":248.8,"duration":"08m00s","delta_t_seconds":3196.4,"catalog_number":6602,"source":"NASA Five Millennium Canon of Solar Eclipses","source_url":"https://eclipse.gsfc.nasa.gov/SEsearch/SEsearchmap.php?Ecl=%2B07680915","boundary":"center","name":"768-09-15 금환일식"},"geometry":{"type":"LineString","coordinates":[[-179.5,-1.59939],[-179,-1.68634],[-178.5,-1.77637],[-178,-1.86955],[-177.5,-1.96594],[-177,-2.06559],[-176.5,-2.16858],[-176,-2.27495],[-175.5,-2.38479],[-175,-2.49815],[-174.5,-2.6151],[-174,-2.7357],[-173.5,-2.86004],[-173,-2.98817],[-172.5,-3.12017],[-172,-3.2561],[-171.5,-3.39605],[-171,-3.54008],[-170.5,-3.68827],[-170,-3.84068],[-169.5,-3.9974],[-169,-4.15849],[-168.5,-4.32402],[-168,-4.49408],[-167.5,-4.66873],[-167,-4.84803],[-166.5,-5.03206],[-166,-5.22089],[-165.5,-5.41457],[-165,-5.61318],[-164.5,-5.81675],[-164,-6.02536],[-163.5,-6.23905],[-163,-6.45786],[-162.5,-6.68183],[-162,-6.911],[-161.5,-7.14539],[-161,-7.38501],[-160.5,-7.62988],[-160,-7.87999],[-159.5,-8.13534],[-159,-8.39589],[-158.5,-8.66163],[-158,-8.93249],[-157.5,-9.20841],[-157,-9.48933],[-156.5,-9.77515],[-156,-10.06576],[-155.5,-10.36105],[-155,-10.66087],[-154.5,-10.96506],[-154,-11.27346],[-153.5,-11.58587],[-153,-11.90209],[-152.5,-12.22189],[-152,-12.54504],[-151.5,-12.87127],[-151,-13.20033],[-150.5,-13.53194],[-150,-13.8658],[-149.5,-14.20162],[-149,-14.53908],[-148.5,-14.87787],[-148,-15.21768],[-147.5,-15.55819],[-147,-15.89908],[-146.5,-16.24002],[-146,-16.58072],[-145.5,-16.92085],[-145,-17.26013],[-144.5,-17.59825],[-144,-17.93495],[-143.5,-18.26995],[-143,-18.60299],[-142.5,-18.93384],[-142,-19.26227],[-141.5,-19.58806],[-141,-19.91101],[-140.5,-20.23096],[-140,-20.54772],[-139.5,-20.86114],[-139,-21.17109],[-138.5,-21.47745],[-138,-21.78011],[-137.5,-22.07896],[-137,-22.37394],[-136.5,-22.66496],[-136,-22.95198],[-135.5,-23.23493],[-135,-23.51379],[-134.5,-23.78852],[-134,-24.0591],[-133.5,-24.32553],[-133,-24.58779],[-132.5,-24.84589],[-132,-25.09984],[-131.5,-25.34964],[-131,-25.59533],[-130.5,-25.83691],[-130,-26.07443],[-129.5,-26.3079],[-129,-26.53736],[-128.5,-26.76285],[-128,-26.98441],[-127.5,-27.20207],[-127,-27.41588],[-126.5,-27.62589],[-126,-27.83214],[-125.5,-28.03467],[-125,-28.23353],[-124.5,-28.42877],[-124,-28.62044],[-123.5,-28.80858],[-123,-28.99325],[-122.5,-29.1745],[-122,-29.35236],[-121.5,-29.52689],[-121,-29.69814],[-120.5,-29.86616],[-120,-30.03099],[-119.5,-30.19268],[-119,-30.35127],[-118.5,-30.50682],[-118,-30.65936],[-117.5,-30.80895],[-117,-30.95563],[-116.5,-31.09943],[-116,-31.2404],[-115.5,-31.37859],[-115,-31.51404],[-114.5,-31.64678],[-114,-31.77686],[-113.5,-31.90431],[-113,-32.02918],[-112.5,-32.1515],[-112,-32.27131],[-111.5,-32.38865],[-111,-32.50354],[-110.5,-32.61604],[-110,-32.72616],[-109.5,-32.83395],[-109,-32.93943],[-108.5,-33.04265],[-108,-33.14362],[-107.5,-33.24239],[-107,-33.33898],[-106.5,-33.43342],[-106,-33.52574],[-105.5,-33.61598],[-105,-33.70415],[-104.5,-33.79029],[-104,-33.87442],[-103.5,-33.95656],[-103,-34.03676],[-102.5,-34.11502],[-102,-34.19138],[-101.5,-34.26585],[-101,-34.33847],[-100.5,-34.40926],[-100,-34.47823],[-99.5,-34.54541],[-99,-34.61083],[-98.5,-34.6745],[-98,-34.73645],[-97.5,-34.79669],[-97,-34.85525],[-96.5,-34.91215],[-96,-34.9674],[-95.5,-35.02103],[-95,-35.07305],[-94.5,-35.12348],[-94,-35.17234],[-93.5,-35.21965],[-93,-35.26542],[-92.5,-35.30968],[-92,-35.35243],[-91.5,-35.3937],[-91,-35.4335],[-90.5,-35.47185],[-90,-35.50876],[-89.5,-35.54424],[-89,-35.57832],[-88.5,-35.61101],[-88,-35.64232],[-87.5,-35.67226],[-87,-35.70085],[-86.5,-35.72811],[-86,-35.75404],[-85.5,-35.77866],[-85,-35.80199],[-84.5,-35.82403],[-84,-35.8448],[-83.5,-35.86431],[-83,-35.88257],[-82.5,-35.8996],[-82,-35.9154],[-81.5,-35.92999],[-81,-35.94338],[-80.57242,-35.97813]]}},{"type":"Feature","id":"+07680915:south:0","properties":{"id":"+07680915","year":768,"month":9,"day":15,"time_tdt":"22:12:37","type":"금환일식","type_code":"A","saros":95,"gamma":-0.30842,"magnitude":0.93618,"greatest":{"lat":-15.82367,"lng":-147.1106},"path_width_km":248.8,"duration":"08m00s","delta_t_seconds":3196.4,"catalog_number":6602,"source":"NASA Five Millennium Canon of Solar Eclipses","source_url":"https://eclipse.gsfc.nasa.gov/SEsearch/SEsearchmap.php?Ecl=%2B07680915","boundary":"south","name":"768-09-15 금환일식"},"geometry":{"type":"LineString","coordinates":[[156.44727,-1.55956],[156.5,-1.55801],[157,-1.54411],[157.5,-1.53158],[158,-1.52045],[158.5,-1.51074],[159,-1.50247],[159.5,-1.49567],[160,-1.49036],[160.5,-1.48655],[161,-1.48429],[161.5,-1.48358],[162,-1.48445],[162.5,-1.48694],[163,-1.49106],[163.5,-1.49684],[164,-1.50431],[164.5,-1.51349],[165,-1.52442],[165.5,-1.53712],[166,-1.55163],[166.5,-1.56797],[167,-1.58617],[167.5,-1.60627],[168,-1.6283],[168.5,-1.65228],[169,-1.67827],[169.5,-1.70628],[170,-1.73635],[170.5,-1.76853],[171,-1.80285],[171.5,-1.83934],[172,-1.87804],[172.5,-1.91901],[173,-1.96226],[173.5,-2.00785],[174,-2.05583],[174.5,-2.10622],[175,-2.15908],[175.5,-2.21446],[176,-2.27239],[176.5,-2.33294],[177,-2.39614],[177.5,-2.46204],[178,-2.53071],[178.5,-2.60218],[179,-2.67651],[179.5,-2.75377],[180,-2.834]]}},{"type":"Feature","id":"+07680915:south:1","properties":{"id":"+07680915","year":768,"month":9,"day":15,"time_tdt":"22:12:37","type":"금환일식","type_code":"A","saros":95,"gamma":-0.30842,"magnitude":0.93618,"greatest":{"lat":-15.82367,"lng":-147.1106},"path_width_km":248.8,"duration":"08m00s","delta_t_seconds":3196.4,"catalog_number":6602,"source":"NASA Five Millennium Canon of Solar Eclipses","source_url":"https://eclipse.gsfc.nasa.gov/SEsearch/SEsearchmap.php?Ecl=%2B07680915","boundary":"south","name":"768-09-15 금환일식"},"geometry":{"type":"LineString","coordinates":[[-179.5,-2.91726],[-179,-3.0036],[-178.5,-3.0931],[-178,-3.18581],[-177.5,-3.28178],[-177,-3.38109],[-176.5,-3.4838],[-176,-3.58998],[-175.5,-3.69968],[-175,-3.81298],[-174.5,-3.92995],[-174,-4.05065],[-173.5,-4.17516],[-173,-4.30355],[-172.5,-4.43589],[-172,-4.57225],[-171.5,-4.71271],[-171,-4.85734],[-170.5,-5.00622],[-170,-5.15941],[-169.5,-5.317],[-169,-5.47905],[-168.5,-5.64564],[-168,-5.81684],[-167.5,-5.99273],[-167,-6.17337],[-166.5,-6.35883],[-166,-6.54917],[-165.5,-6.74446],[-165,-6.94475],[-164.5,-7.1501],[-164,-7.36057],[-163.5,-7.57619],[-163,-7.79701],[-162.5,-8.02305],[-162,-8.25436],[-161.5,-8.49093],[-161,-8.73279],[-160.5,-8.97994],[-160,-9.23236],[-159.5,-9.49003],[-159,-9.75292],[-158.5,-10.02099],[-158,-10.29416],[-157.5,-10.57238],[-157,-10.85554],[-156.5,-11.14355],[-156,-11.43628],[-155.5,-11.73359],[-155,-12.03533],[-154.5,-12.34133],[-154,-12.6514],[-153.5,-12.96533],[-153,-13.2829],[-152.5,-13.60388],[-152,-13.92801],[-151.5,-14.25503],[-151,-14.58466],[-150.5,-14.91662],[-150,-15.2506],[-149.5,-15.58631],[-149,-15.92342],[-148.5,-16.26164],[-148,-16.60063],[-147.5,-16.94009],[-147,-17.2797],[-146.5,-17.61915],[-146,-17.95814],[-145.5,-18.29637],[-145,-18.63354],[-144.5,-18.9694],[-144,-19.30366],[-143.5,-19.63607],[-143,-19.9664],[-142.5,-20.29442],[-142,-20.61991],[-141.5,-20.94268],[-141,-21.26255],[-140.5,-21.57935],[-140,-21.89294],[-139.5,-22.20316],[-139,-22.5099],[-138.5,-22.81304],[-138,-23.1125],[-137.5,-23.40819],[-137,-23.70003],[-136.5,-23.98797],[-136,-24.27194],[-135.5,-24.55193],[-135,-24.82788],[-134.5,-25.09978],[-134,-25.36762],[-133.5,-25.63139],[-133,-25.89108],[-132.5,-26.14671],[-132,-26.39828],[-131.5,-26.6458],[-131,-26.88931],[-130.5,-27.12882],[-130,-27.36436],[-129.5,-27.59596],[-129,-27.82365],[-128.5,-28.04748],[-128,-28.26748],[-127.5,-28.48369],[-127,-28.69615],[-126.5,-28.9049],[-126,-29.10999],[-125.5,-29.31147],[-125,-29.50937],[-124.5,-29.70375],[-124,-29.89465],[-123.5,-30.08212],[-123,-30.2662],[-122.5,-30.44695],[-122,-30.6244],[-121.5,-30.79861],[-121,-30.96962],[-120.5,-31.13747],[-120,-31.30222],[-119.5,-31.46391],[-119,-31.62257],[-118.5,-31.77826],[-118,-31.93102],[-117.5,-32.0809],[-117,-32.22793],[-116.5,-32.37215],[-116,-32.51361],[-115.5,-32.65235],[-115,-32.7884],[-114.5,-32.92182],[-114,-33.05262],[-113.5,-33.18086],[-113,-33.30657],[-112.5,-33.42978],[-112,-33.55053],[-111.5,-33.66886],[-111,-33.7848],[-110.5,-33.89839],[-110,-34.00965],[-109.5,-34.11862],[-109,-34.22533],[-108.5,-34.32981],[-108,-34.43209],[-107.5,-34.53221],[-107,-34.63019],[-106.5,-34.72606],[-106,-34.81985],[-105.5,-34.91158],[-105,-35.00128],[-104.5,-35.08899],[-104,-35.17472],[-103.5,-35.2585],[-103,-35.34036],[-102.5,-35.42031],[-102,-35.49839],[-101.5,-35.57462],[-101,-35.64901],[-100.5,-35.7216],[-100,-35.7924],[-99.5,-35.86144],[-99,-35.92874],[-98.5,-35.99431],[-98,-36.05818],[-97.5,-36.12037],[-97,-36.1809],[-96.5,-36.23978],[-96,-36.29705],[-95.5,-36.3527],[-95,-36.40677],[-94.5,-36.45926],[-94,-36.51021],[-93.5,-36.55962],[-93,-36.60751],[-92.5,-36.65389],[-92,-36.6988],[-91.5,-36.74223],[-91,-36.7842],[-90.5,-36.82474],[-90,-36.86385],[-89.5,-36.90155],[-89,-36.93786],[-88.5,-36.97279],[-88,-37.00635],[-87.5,-37.03855],[-87,-37.06942],[-86.5,-37.09896],[-86,-37.12718],[-85.5,-37.15411],[-85,-37.17974],[-84.5,-37.2041],[-84,-37.2272],[-83.5,-37.24904],[-83,-37.26965],[-82.5,-37.28902],[-82,-37.30718],[-81.5,-37.32413],[-81,-37.33989],[-80.5,-37.35447]]}}],"attribution":"Eclipse Predictions by Fred Espenak and Jean Meeus (NASA's GSFC)","generated_at":"2026-09-23T01:44:56.188Z"}
