{"type":"FeatureCollection","year":773,"events":[{"id":"+07730624","year":773,"month":6,"day":24,"time_tdt":"21:52:22","type":"금환일식","type_code":"A","saros":107,"gamma":0.82567,"magnitude":0.97335,"greatest":{"lat":79.14146,"lng":-148.01886},"path_width_km":170.8,"duration":"01m53s","delta_t_seconds":3156.5,"catalog_number":6613,"source":"NASA Five Millennium Canon of Solar Eclipses","source_url":"https://eclipse.gsfc.nasa.gov/SEsearch/SEsearchmap.php?Ecl=%2B07730624"},{"id":"+07731218","year":773,"month":12,"day":18,"time_tdt":"13:51:01","type":"부분일식","type_code":"P","saros":112,"gamma":-1.12639,"magnitude":0.76779,"greatest":{"lat":-65.88431,"lng":178.50568},"path_width_km":0,"duration":"00m00s","delta_t_seconds":3152.4,"catalog_number":6614,"source":"NASA Five Millennium Canon of Solar Eclipses","source_url":"https://eclipse.gsfc.nasa.gov/SEsearch/SEsearchmap.php?Ecl=%2B07731218"}],"features":[{"type":"Feature","id":"+07730624:north:0","properties":{"id":"+07730624","year":773,"month":6,"day":24,"time_tdt":"21:52:22","type":"금환일식","type_code":"A","saros":107,"gamma":0.82567,"magnitude":0.97335,"greatest":{"lat":79.14146,"lng":-148.01886},"path_width_km":170.8,"duration":"01m53s","delta_t_seconds":3156.5,"catalog_number":6613,"source":"NASA Five Millennium Canon of Solar Eclipses","source_url":"https://eclipse.gsfc.nasa.gov/SEsearch/SEsearchmap.php?Ecl=%2B07730624","boundary":"north","name":"773-06-24 금환일식"},"geometry":{"type":"LineString","coordinates":[[122,47.92174],[122.5,48.16619],[123,48.4132],[123.5,48.66277],[124,48.91489],[124.5,49.16956],[125,49.42678],[125.5,49.68652],[126,49.94879],[126.5,50.21356],[127,50.48081],[127.5,50.75053],[128,51.02269],[128.5,51.29727],[128.5,51.29728],[129,51.57424],[129.5,51.85357],[130,52.13521],[130.5,52.41913],[131,52.70529],[131.5,52.99363],[132,53.28411],[132.5,53.57667],[133,53.87124],[133.5,54.16777],[134,54.46618],[134.5,54.7664],[135,55.06835],[135.5,55.37194],[136,55.67708],[136.5,55.98369],[137,56.29166],[137.5,56.60088],[138,56.91125],[138.5,57.22265],[139,57.53496],[139.5,57.84806],[140,58.16183],[140.5,58.47612],[141,58.7908],[141.5,59.10574],[142,59.42078],[142.5,59.73579],[143,60.05061],[143.5,60.36509],[144,60.67908],[144.5,60.99242],[145,61.30496],[145.5,61.61654],[146,61.92702],[146.5,62.23622],[147,62.544],[147.5,62.85021],[148,63.1547],[148.5,63.45732],[149,63.75794],[149.5,64.0564],[150,64.35257],[150.5,64.64634],[151,64.93756],[151.5,65.22613],[152,65.51192],[152.5,65.79483],[153,66.07477],[153.5,66.35162],[154,66.62532],[154.5,66.89577],[155,67.1629],[155.5,67.42665],[156,67.68695],[156.5,67.94375],[157,68.19701],[157.5,68.44667],[158,68.69272],[158.5,68.93511],[159,69.17384],[159,69.17383],[159.5,69.40887],[160,69.64021],[160.5,69.86784],[161,70.09177],[161.5,70.31201],[162,70.52855],[162.5,70.74142],[163,70.95063],[163.5,71.1562],[164,71.35816],[164.5,71.55653],[165,71.75135],[165.5,71.94265],[166,72.13046],[166.5,72.31483],[167,72.49578],[167.5,72.67337],[168,72.84764],[168.5,73.01862],[169,73.18637],[169.5,73.35093],[170,73.51235],[170.5,73.67068],[171,73.82596],[171.5,73.97824],[172,74.12758],[172.5,74.27402],[173,74.4176],[173.5,74.55839],[174,74.69642],[174.5,74.83175],[175,74.96443],[175.5,75.09449],[176,75.222],[176.5,75.34699],[177,75.46952],[177.5,75.58963],[178,75.70736],[178.5,75.82276],[179,75.93587],[179.5,76.04674],[180,76.15541]]}},{"type":"Feature","id":"+07730624:north:1","properties":{"id":"+07730624","year":773,"month":6,"day":24,"time_tdt":"21:52:22","type":"금환일식","type_code":"A","saros":107,"gamma":0.82567,"magnitude":0.97335,"greatest":{"lat":79.14146,"lng":-148.01886},"path_width_km":170.8,"duration":"01m53s","delta_t_seconds":3156.5,"catalog_number":6613,"source":"NASA Five Millennium Canon of Solar Eclipses","source_url":"https://eclipse.gsfc.nasa.gov/SEsearch/SEsearchmap.php?Ecl=%2B07730624","boundary":"north","name":"773-06-24 금환일식"},"geometry":{"type":"LineString","coordinates":[[-179.5,76.26192],[-179,76.36632],[-178.5,76.46864],[-178,76.56892],[-177.5,76.6672],[-177,76.76352],[-176.5,76.85792],[-176,76.95044],[-175.5,77.04111],[-175,77.12996],[-174.5,77.21703],[-174,77.30235],[-173.5,77.38597],[-173,77.4679],[-172.5,77.54818],[-172,77.62684],[-171.5,77.70392],[-171,77.77943],[-170.5,77.85342],[-170,77.9259],[-169.5,77.99691],[-169,78.06646],[-168.5,78.1346],[-168,78.20134],[-167.5,78.26671],[-167,78.33073],[-166.5,78.39342],[-166,78.45481],[-165.5,78.51493],[-165,78.57379],[-164.5,78.63141],[-164,78.68781],[-163.5,78.74303],[-163.5,78.74302],[-163,78.79706],[-162.5,78.84994],[-162,78.90169],[-161.5,78.95231],[-161,79.00183],[-160.5,79.05027],[-160,79.09764],[-159.5,79.14397],[-159,79.18925],[-158.5,79.23352],[-158,79.27678],[-157.5,79.31906],[-157,79.36035],[-156.5,79.40069],[-156,79.44008],[-155.5,79.47853],[-155,79.51606],[-154.5,79.55269],[-154,79.58841],[-153.5,79.62325],[-153,79.65721],[-152.5,79.69031],[-152,79.72256],[-151.5,79.75396],[-151,79.78454],[-150.5,79.81429],[-150,79.84322],[-149.5,79.87136],[-149,79.89869],[-148.5,79.92524],[-148,79.95102],[-147.5,79.97602],[-147,80.00026],[-146.5,80.02374],[-146,80.04648],[-145.5,80.06848],[-145,80.08974],[-144.5,80.11028],[-144,80.13009],[-143.5,80.14919],[-143,80.16759],[-142.5,80.18527],[-142,80.20226],[-141.5,80.21856],[-141,80.23417],[-140.5,80.24909],[-140,80.26334],[-139.5,80.27691],[-139,80.28981],[-138.5,80.30204],[-138,80.31361],[-137.5,80.32452],[-137,80.33478],[-136.5,80.34438],[-136,80.35333],[-135.5,80.36163],[-135,80.36929],[-134.5,80.3763],[-134,80.38268],[-134,80.38267],[-133.5,80.38841],[-133,80.39351],[-133,80.3935],[-132.5,80.39797],[-132,80.40179],[-131.5,80.40499],[-131,80.40755],[-130.5,80.40947],[-130,80.41077],[-129.5,80.41144],[-129,80.41148],[-128.5,80.41088],[-128,80.40966],[-127.5,80.40781],[-127,80.40532],[-126.5,80.4022],[-126,80.39846],[-125.5,80.39407],[-125,80.38905],[-124.5,80.3834],[-124,80.37711],[-123.5,80.37018],[-123,80.36261],[-122.5,80.35439],[-122,80.34553],[-121.5,80.33602],[-121,80.32586],[-120.5,80.31504],[-120,80.30357],[-119.5,80.29144],[-119,80.27864],[-118.5,80.26518],[-118,80.25104],[-117.5,80.23623],[-117,80.22074],[-116.5,80.20457],[-116,80.18771],[-115.5,80.17015],[-115,80.15189],[-114.5,80.13293],[-114,80.11327],[-113.5,80.09288],[-113,80.07177],[-113,80.07178],[-112.5,80.04994],[-112,80.02737],[-111.5,80.00407],[-111,79.98001],[-110.5,79.9552],[-110,79.92962],[-109.5,79.90328],[-109,79.87615],[-109,79.87616],[-108.5,79.84825],[-108,79.81954],[-107.5,79.79003],[-107,79.75971],[-106.5,79.72857],[-106,79.6966],[-105.5,79.66378],[-105,79.63012],[-104.5,79.59559],[-104,79.56018],[-103.5,79.5239],[-103,79.48671],[-102.5,79.44862],[-102,79.40962],[-101.5,79.36968],[-101,79.32879],[-100.5,79.28695],[-100,79.24413],[-99.5,79.20033],[-99,79.15553],[-98.5,79.10972],[-98,79.06288],[-97.5,79.01499],[-97,78.96605],[-96.5,78.91602],[-96,78.86491],[-95.5,78.81268],[-95,78.75933],[-94.5,78.70483],[-94,78.64917],[-93.5,78.59232],[-93,78.53428],[-92.5,78.47501],[-92,78.4145],[-91.5,78.35272],[-91.5,78.35273],[-91,78.28967],[-90.5,78.22531],[-90,78.15962],[-89.5,78.09258],[-89,78.02416],[-88.5,77.95435],[-88,77.88312],[-87.5,77.81044],[-87,77.73629],[-86.5,77.66064],[-86,77.58347],[-85.5,77.50474],[-85,77.42443],[-84.5,77.34252],[-84,77.25897],[-83.5,77.17376],[-83,77.08685],[-82.5,76.99821],[-82,76.90782],[-81.5,76.81564],[-81,76.72163],[-80.5,76.62578],[-80,76.52803],[-79.5,76.42837],[-79,76.32675],[-78.5,76.22314],[-78,76.11751],[-77.5,76.00981],[-77,75.90002],[-76.5,75.7881],[-76,75.674],[-75.5,75.5577],[-75,75.43915],[-74.5,75.31832],[-74,75.19517],[-73.5,75.06966],[-73,74.94175],[-72.5,74.8114],[-72,74.67858],[-71.5,74.54324],[-71,74.40535],[-70.5,74.26487],[-70,74.12176],[-69.5,73.97599],[-69,73.82751],[-68.5,73.6763],[-68,73.5223],[-68,73.52231],[-67.5,73.3655],[-67,73.20586],[-66.5,73.04333],[-66,72.8779],[-65.5,72.70953],[-65,72.53818],[-64.5,72.36384],[-64,72.18648],[-63.5,72.00607],[-63,71.8226],[-62.5,71.63603],[-62,71.44636],[-61.5,71.25358],[-61,71.05766],[-60.5,70.8586],[-60,70.65639],[-59.5,70.45104],[-59,70.24254],[-58.5,70.0309],[-58,69.81613],[-57.5,69.59824],[-57,69.37724],[-56.5,69.15316],[-56,68.92602],[-55.5,68.69586],[-55,68.4627],[-54.5,68.22658],[-54,67.98756],[-54,67.98755],[-53.5,67.74566],[-53,67.50096],[-52.5,67.2535],[-52,67.00336],[-52,67.00335],[-51.5,66.75058],[-51,66.49525],[-50.5,66.23745],[-50.5,66.23744],[-50,65.97724],[-49.5,65.71472],[-49,65.44997],[-48.5,65.18308],[-48,64.91415],[-47.5,64.64328],[-47,64.37057],[-46.5,64.09611],[-46,63.82003],[-45.5,63.54242],[-45,63.26339],[-44.5,62.98306],[-44,62.70154],[-43.5,62.41895],[-43,62.13539],[-42.5,61.85098],[-42,61.56584],[-41.5,61.28008],[-41,60.99381],[-40.5,60.70714],[-40,60.42019],[-40,60.42018],[-39.5,60.13306],[-39,59.84586],[-38.5,59.55869],[-38,59.27167],[-37.5,58.98489],[-37,58.69845],[-36.5,58.41244],[-36,58.12696],[-35.5,57.84209],[-35,57.55793],[-34.5,57.27456],[-34,56.99206],[-33.5,56.7105],[-33,56.42997],[-32.5,56.15053],[-32,55.87225],[-31.5,55.59519],[-31,55.31942],[-30.5,55.045],[-30,54.77197],[-29.5,54.5004],[-29,54.23034],[-28.5,53.96182],[-28,53.6949],[-27.5,53.42961],[-27,53.16599],[-26.5,52.90408],[-26,52.64392]]}},{"type":"Feature","id":"+07730624:center:0","properties":{"id":"+07730624","year":773,"month":6,"day":24,"time_tdt":"21:52:22","type":"금환일식","type_code":"A","saros":107,"gamma":0.82567,"magnitude":0.97335,"greatest":{"lat":79.14146,"lng":-148.01886},"path_width_km":170.8,"duration":"01m53s","delta_t_seconds":3156.5,"catalog_number":6613,"source":"NASA Five Millennium Canon of Solar Eclipses","source_url":"https://eclipse.gsfc.nasa.gov/SEsearch/SEsearchmap.php?Ecl=%2B07730624","boundary":"center","name":"773-06-24 금환일식"},"geometry":{"type":"LineString","coordinates":[[123.45291,47.05764],[123.5,47.13588],[124,47.38392],[124.5,47.63448],[125,47.88757],[125.5,48.14317],[126,48.40129],[126.5,48.6619],[127,48.925],[127.5,49.19057],[128,49.45859],[128.5,49.72905],[129,50.00191],[129.5,50.27716],[130,50.55476],[130.5,50.83469],[131,51.1169],[131.5,51.40135],[132,51.68801],[132.5,51.97682],[133,52.26773],[133.5,52.56069],[134,52.85564],[134.5,53.15252],[135,53.45124],[135.5,53.75175],[136,54.05396],[136.5,54.3578],[137,54.66316],[137.5,54.96997],[138,55.27812],[138.5,55.58751],[139,55.89803],[139.5,56.20958],[140,56.52203],[140.5,56.83527],[141,57.14917],[141.5,57.4636],[142,57.77843],[142.5,58.09352],[143,58.40874],[143.5,58.72394],[144,59.03897],[144.5,59.35369],[145,59.66795],[145.5,59.9816],[146,60.29449],[146.5,60.60646],[147,60.91737],[147.5,61.22706],[148,61.53539],[148.5,61.84221],[149,62.14737],[149.5,62.45072],[150,62.75214],[150.5,63.05147],[151,63.3486],[151.5,63.64339],[152,63.93572],[152.5,64.22547],[153,64.51253],[153.5,64.79679],[154,65.07816],[154.5,65.35653],[155,65.63182],[155,65.63183],[155.5,65.90396],[156,66.17286],[156.5,66.43845],[157,66.70068],[157.5,66.95948],[158,67.21482],[158.5,67.46664],[159,67.71492],[159.5,67.95962],[160,68.20071],[160.5,68.43818],[161,68.67201],[161.5,68.9022],[162,69.12875],[162.5,69.35165],[163,69.57091],[163.5,69.78654],[164,69.99856],[164.5,70.20698],[165,70.41182],[165.5,70.61311],[166,70.81088],[166.5,71.00515],[167,71.19597],[167.5,71.38335],[168,71.56735],[168.5,71.74799],[169,71.92533],[169.5,72.09939],[170,72.27022],[170.5,72.43787],[171,72.60238],[171.5,72.7638],[172,72.92217],[172.5,73.07753],[173,73.22994],[173.5,73.37945],[173.5,73.37944],[174,73.52609],[174.5,73.66991],[175,73.81097],[175.5,73.94931],[176,74.08497],[176.5,74.21801],[177,74.34846],[177.5,74.47638],[178,74.60181],[178.5,74.72479],[179,74.84537],[179.5,74.9636],[180,75.0795]]}},{"type":"Feature","id":"+07730624:center:1","properties":{"id":"+07730624","year":773,"month":6,"day":24,"time_tdt":"21:52:22","type":"금환일식","type_code":"A","saros":107,"gamma":0.82567,"magnitude":0.97335,"greatest":{"lat":79.14146,"lng":-148.01886},"path_width_km":170.8,"duration":"01m53s","delta_t_seconds":3156.5,"catalog_number":6613,"source":"NASA Five Millennium Canon of Solar Eclipses","source_url":"https://eclipse.gsfc.nasa.gov/SEsearch/SEsearchmap.php?Ecl=%2B07730624","boundary":"center","name":"773-06-24 금환일식"},"geometry":{"type":"LineString","coordinates":[[-179.5,75.19314],[-179,75.30454],[-178.5,75.41376],[-178,75.52082],[-177.5,75.62577],[-177,75.72866],[-176.5,75.82951],[-176,75.92837],[-175.5,76.02527],[-175,76.12024],[-174.5,76.21334],[-174,76.30458],[-173.5,76.394],[-173,76.48164],[-172.5,76.56753],[-172,76.65169],[-171.5,76.73418],[-171,76.815],[-170.5,76.89419],[-170,76.97179],[-169.5,77.04782],[-169,77.1223],[-168.5,77.19527],[-168,77.26675],[-167.5,77.33677],[-167,77.40535],[-166.5,77.47252],[-166,77.5383],[-165.5,77.60271],[-165,77.66578],[-164.5,77.72754],[-164,77.78799],[-163.5,77.84717],[-163,77.90509],[-162.5,77.96178],[-162,78.01725],[-161.5,78.07153],[-161,78.12462],[-160.5,78.17656],[-160,78.22736],[-160,78.22735],[-159.5,78.27702],[-159,78.32559],[-158.5,78.37306],[-158,78.41945],[-157.5,78.46478],[-157,78.50907],[-156.5,78.55233],[-156,78.59458],[-155.5,78.63582],[-155,78.67607],[-154.5,78.71534],[-154,78.75366],[-153.5,78.79102],[-153,78.82744],[-152.5,78.86294],[-152,78.89752],[-151.5,78.9312],[-151,78.96398],[-150.5,78.99588],[-150,79.02691],[-149.5,79.05707],[-149,79.08638],[-148.5,79.11485],[-148,79.14247],[-147.5,79.16927],[-147,79.19526],[-146.5,79.22043],[-146.5,79.22042],[-146,79.24479],[-145.5,79.26836],[-145,79.29114],[-144.5,79.31314],[-144,79.33436],[-143.5,79.35482],[-143,79.37451],[-142.5,79.39344],[-142,79.41163],[-142,79.41162],[-141.5,79.42906],[-141,79.44576],[-140.5,79.46172],[-140,79.47695],[-139.5,79.49145],[-139,79.50524],[-138.5,79.5183],[-138,79.53065],[-137.5,79.54229],[-137,79.55322],[-136.5,79.56345],[-136,79.57298],[-135.5,79.58181],[-135,79.58995],[-134.5,79.59739],[-134,79.60414],[-133.5,79.61021],[-133,79.61558],[-132.5,79.62028],[-132,79.62428],[-131.5,79.62761],[-131,79.63025],[-130.5,79.63222],[-130,79.6335],[-129.5,79.6341],[-129.5,79.63411],[-129,79.63403],[-128.5,79.63327],[-128.5,79.63328],[-128,79.63184],[-127.5,79.62973],[-127,79.62693],[-126.5,79.62346],[-126,79.6193],[-125.5,79.61446],[-125,79.60894],[-124.5,79.60273],[-124,79.59583],[-123.5,79.58824],[-123,79.57997],[-122.5,79.57099],[-122,79.56133],[-121.5,79.55096],[-121,79.53989],[-120.5,79.52811],[-120,79.51563],[-119.5,79.50244],[-119,79.48853],[-118.5,79.4739],[-118,79.45855],[-117.5,79.44247],[-117,79.42565],[-116.5,79.4081],[-116,79.38981],[-115.5,79.37077],[-115,79.35097],[-115,79.35098],[-114.5,79.33042],[-114,79.3091],[-114,79.30911],[-113.5,79.28702],[-113,79.26415],[-112.5,79.2405],[-112,79.21606],[-111.5,79.19082],[-111,79.16478],[-110.5,79.13792],[-110,79.11024],[-109.5,79.08173],[-109,79.05239],[-108.5,79.02219],[-108,78.99114],[-107.5,78.95923],[-107,78.92644],[-106.5,78.89277],[-106,78.8582],[-105.5,78.82273],[-105,78.78634],[-104.5,78.74902],[-104,78.71076],[-103.5,78.67156],[-103,78.63139],[-102.5,78.59024],[-102,78.54811],[-101.5,78.50497],[-101,78.46082],[-100.5,78.41564],[-100,78.36942],[-99.5,78.32214],[-99,78.27379],[-98.5,78.22435],[-98,78.17381],[-97.5,78.12214],[-97,78.06934],[-96.5,78.01538],[-96,77.96026],[-95.5,77.90394],[-95,77.84641],[-94.5,77.78766],[-94,77.72766],[-93.5,77.6664],[-93,77.60385],[-92.5,77.53999],[-92,77.47481],[-91.5,77.40828],[-91,77.34037],[-90.5,77.27107],[-90,77.20035],[-90,77.20036],[-89.5,77.1282],[-89,77.05457],[-88.5,76.97946],[-88,76.90283],[-87.5,76.82466],[-87,76.74492],[-86.5,76.66359],[-86,76.58064],[-85.5,76.49604],[-85,76.40976],[-84.5,76.32177],[-84,76.23205],[-83.5,76.14056],[-83,76.04727],[-82.5,75.95216],[-82,75.85518],[-81.5,75.75632],[-81,75.65553],[-80.5,75.55278],[-80,75.44804],[-79.5,75.34128],[-79,75.23246],[-78.5,75.12154],[-78,75.0085],[-77.5,74.89329],[-77,74.77589],[-76.5,74.65624],[-76,74.53433],[-75.5,74.4101],[-75,74.28353],[-74.5,74.15458],[-74,74.02321],[-73.5,73.88938],[-73,73.75306],[-72.5,73.61421],[-72,73.4728],[-71.5,73.32878],[-71.5,73.32879],[-71,73.18213],[-70.5,73.03281],[-70,72.88078],[-69.5,72.72601],[-69,72.56846],[-68.5,72.40811],[-68,72.24492],[-67.5,72.07886],[-67,71.90991],[-66.5,71.73803],[-66,71.56321],[-65.5,71.38541],[-65,71.20461],[-64.5,71.02079],[-64,70.83395],[-63.5,70.64404],[-63,70.45108],[-62.5,70.25504],[-62,70.05591],[-61.5,69.8537],[-61,69.64839],[-60.5,69.44],[-60,69.22852],[-59.5,69.01396],[-59,68.79634],[-58.5,68.57567],[-58,68.35196],[-57.5,68.12526],[-57,67.89557],[-56.5,67.66294],[-56,67.4274],[-55.5,67.189],[-55,66.94777],[-54.5,66.70377],[-54,66.45705],[-53.5,66.20767],[-53,65.95569],[-52.5,65.70119],[-52,65.44422],[-51.5,65.18488],[-51,64.92323],[-50.5,64.65936],[-50,64.39336],[-49.5,64.12532],[-49,63.85533],[-48.5,63.58349],[-48,63.30989],[-47.5,63.03464],[-47,62.75785],[-46.5,62.47961],[-46,62.20004],[-45.5,61.91923],[-45,61.63732],[-44.5,61.35439],[-44,61.07057],[-43.5,60.78596],[-43,60.50067],[-42.5,60.21482],[-42,59.92851],[-41.5,59.64185],[-41,59.35495],[-40.5,59.06791],[-40,58.78084],[-39.5,58.49383],[-39,58.20699],[-38.5,57.92042],[-38,57.6342],[-37.5,57.34844],[-37,57.06322],[-36.5,56.77862],[-36,56.49474],[-35.5,56.21164],[-35,55.92942],[-34.5,55.64814],[-34,55.36788],[-33.5,55.08871],[-33,54.81068],[-32.5,54.53387],[-32,54.25834],[-31.5,53.98413],[-31,53.71131],[-30.5,53.43993],[-30,53.17002],[-29.5,52.90165],[-29,52.63484],[-28.5,52.36965],[-28,52.10611],[-27.5,51.84425],[-27.5,51.84424],[-27.48813,51.8129]]}},{"type":"Feature","id":"+07730624:south:0","properties":{"id":"+07730624","year":773,"month":6,"day":24,"time_tdt":"21:52:22","type":"금환일식","type_code":"A","saros":107,"gamma":0.82567,"magnitude":0.97335,"greatest":{"lat":79.14146,"lng":-148.01886},"path_width_km":170.8,"duration":"01m53s","delta_t_seconds":3156.5,"catalog_number":6613,"source":"NASA Five Millennium Canon of Solar Eclipses","source_url":"https://eclipse.gsfc.nasa.gov/SEsearch/SEsearchmap.php?Ecl=%2B07730624","boundary":"south","name":"773-06-24 금환일식"},"geometry":{"type":"LineString","coordinates":[[124.67383,46.23756],[125,46.40057],[125.5,46.65253],[126,46.90699],[126.5,47.16394],[127,47.42337],[127.5,47.68529],[128,47.94966],[128.5,48.21647],[129,48.48572],[129.5,48.75737],[130,49.0314],[130.5,49.3078],[131,49.58651],[131.5,49.86753],[132,50.1508],[132.5,50.43629],[133,50.72395],[133.5,51.01375],[134,51.30562],[134.5,51.59951],[135,51.89536],[135.5,52.19311],[136,52.4927],[136.5,52.79404],[137,53.09706],[137.5,53.40168],[138,53.70782],[138.5,54.01537],[139,54.32426],[139.5,54.63436],[140,54.94559],[140.5,55.25783],[141,55.57096],[141.5,55.88487],[142,56.19944],[142.5,56.51453],[143,56.83003],[143.5,57.14579],[144,57.46168],[144.5,57.77755],[145,58.09328],[145.5,58.4087],[146,58.72368],[146.5,59.03807],[147,59.35172],[147.5,59.66449],[148,59.97622],[148.5,60.28676],[149,60.59598],[149.5,60.90372],[150,61.20984],[150.5,61.5142],[151,61.81667],[151.5,62.11711],[152,62.41538],[152.5,62.71135],[152.5,62.71137],[153,63.00496],[153.5,63.29602],[154,63.58444],[154.5,63.87012],[155,64.15297],[155.5,64.43288],[156,64.70976],[156.5,64.98355],[157,65.25415],[157.5,65.52151],[158,65.78556],[158.5,66.04624],[159,66.30351],[159.5,66.55732],[160,66.80763],[160.5,67.05441],[161,67.29764],[161.5,67.53729],[162,67.77334],[162.5,68.0058],[163,68.23465],[163.5,68.45989],[164,68.68153],[164.5,68.89957],[165,69.11402],[165.5,69.32491],[166,69.53225],[166.5,69.73606],[167,69.93636],[167.5,70.13319],[168,70.32658],[168.5,70.51655],[169,70.70314],[169.5,70.88639],[170,71.06633],[170.5,71.24301],[171,71.41646],[171.5,71.58673],[172,71.75386],[172.5,71.91789],[173,72.07887],[173.5,72.23684],[174,72.39184],[174.5,72.54393],[175,72.69314],[175.5,72.83953],[176,72.98313],[176.5,73.12399],[177,73.26217],[177.5,73.3977],[178,73.53062],[178.5,73.66099],[179,73.78885],[179.5,73.91423],[179.5,73.91424],[180,74.0372]]}},{"type":"Feature","id":"+07730624:south:1","properties":{"id":"+07730624","year":773,"month":6,"day":24,"time_tdt":"21:52:22","type":"금환일식","type_code":"A","saros":107,"gamma":0.82567,"magnitude":0.97335,"greatest":{"lat":79.14146,"lng":-148.01886},"path_width_km":170.8,"duration":"01m53s","delta_t_seconds":3156.5,"catalog_number":6613,"source":"NASA Five Millennium Canon of Solar Eclipses","source_url":"https://eclipse.gsfc.nasa.gov/SEsearch/SEsearchmap.php?Ecl=%2B07730624","boundary":"south","name":"773-06-24 금환일식"},"geometry":{"type":"LineString","coordinates":[[-179.5,74.15777],[-179,74.27601],[-178.5,74.39195],[-178,74.50563],[-177.5,74.61709],[-177,74.72637],[-176.5,74.83351],[-176,74.93855],[-175.5,75.04153],[-175,75.14249],[-174.5,75.24145],[-174,75.33846],[-173.5,75.43355],[-173,75.52676],[-172.5,75.61811],[-172,75.70765],[-171.5,75.79541],[-171,75.88141],[-170.5,75.96568],[-170,76.04827],[-169.5,76.12919],[-169,76.20847],[-168.5,76.28616],[-168,76.36226],[-167.5,76.43681],[-167,76.50984],[-166.5,76.58137],[-166,76.65142],[-165.5,76.72003],[-165,76.78721],[-164.5,76.85299],[-164,76.91739],[-163.5,76.98043],[-163,77.04214],[-162.5,77.10253],[-162,77.16163],[-161.5,77.21946],[-161,77.27604],[-160.5,77.33138],[-160,77.38551],[-159.5,77.43843],[-159,77.49018],[-158.5,77.54077],[-158,77.59021],[-157.5,77.63852],[-157,77.68572],[-156.5,77.73182],[-156,77.77684],[-155.5,77.82079],[-155,77.86368],[-154.5,77.90554],[-154,77.94637],[-153.5,77.98618],[-153,78.025],[-152.5,78.06282],[-152,78.09967],[-151.5,78.13555],[-151,78.17048],[-150.5,78.20447],[-150,78.23753],[-149.5,78.26966],[-149,78.30088],[-148.5,78.3312],[-148,78.36063],[-147.5,78.38917],[-147,78.41684],[-146.5,78.44364],[-146,78.46958],[-145.5,78.49467],[-145,78.51892],[-144.5,78.54233],[-144,78.56491],[-143.5,78.58668],[-143,78.60762],[-142.5,78.62776],[-142,78.6471],[-141.5,78.66563],[-141,78.68338],[-140.5,78.70034],[-140,78.71652],[-139.5,78.73192],[-139,78.74655],[-138.5,78.76041],[-138,78.77351],[-137.5,78.78584],[-137,78.79743],[-136.5,78.80825],[-136,78.81833],[-135.5,78.82767],[-135,78.83626],[-134.5,78.8441],[-134,78.85121],[-133.5,78.85758],[-133,78.86322],[-132.5,78.86812],[-132,78.8723],[-131.5,78.87574],[-131,78.87845],[-130.5,78.88043],[-130,78.88169],[-129.5,78.88222],[-129,78.88202],[-128.5,78.88109],[-128,78.87944],[-127.5,78.87706],[-127,78.87395],[-126.5,78.87011],[-126,78.86554],[-125.5,78.86024],[-125,78.85421],[-124.5,78.84744],[-124,78.83994],[-123.5,78.83169],[-123,78.82271],[-122.5,78.81299],[-122,78.80252],[-121.5,78.7913],[-121,78.77933],[-120.5,78.7666],[-120,78.75312],[-119.5,78.73887],[-119,78.72386],[-118.5,78.70808],[-118,78.69152],[-117.5,78.67418],[-117,78.65606],[-116.5,78.63715],[-116,78.61745],[-115.5,78.59694],[-115,78.57563],[-114.5,78.5535],[-114,78.53056],[-113.5,78.50679],[-113,78.48219],[-112.5,78.45675],[-112,78.43047],[-111.5,78.40333],[-111,78.37532],[-110.5,78.34645],[-110,78.3167],[-109.5,78.28606],[-109,78.25452],[-109,78.25453],[-108.5,78.22208],[-108,78.18873],[-107.5,78.15445],[-107,78.11923],[-106.5,78.08306],[-106.5,78.08307],[-106,78.04594],[-105.5,78.00786],[-105,77.96879],[-104.5,77.92873],[-104,77.88767],[-103.5,77.84559],[-103,77.80248],[-102.5,77.75833],[-102,77.71313],[-101.5,77.66685],[-101.5,77.66686],[-101,77.6195],[-100.5,77.57104],[-100,77.52147],[-99.5,77.47077],[-99,77.41893],[-98.5,77.36593],[-98,77.31174],[-97.5,77.25637],[-97,77.19978],[-96.5,77.14196],[-96,77.08289],[-95.5,77.02256],[-95,76.96094],[-94.5,76.89801],[-94,76.83376],[-93.5,76.76816],[-93.5,76.76815],[-93,76.70119],[-92.5,76.63283],[-92,76.56306],[-91.5,76.49185],[-91,76.41919],[-90.5,76.34505],[-90,76.2694],[-89.5,76.19222],[-89,76.11349],[-88.5,76.03318],[-88,75.95126],[-87.5,75.86771],[-87,75.7825],[-86.5,75.6956],[-86,75.60699],[-85.5,75.51663],[-85,75.4245],[-84.5,75.33056],[-84,75.2348],[-83.5,75.13717],[-83,75.03764],[-82.5,74.93619],[-82,74.83278],[-81.5,74.72739],[-81,74.61996],[-80.5,74.51049],[-80,74.39892],[-79.5,74.28523],[-79,74.16938],[-78.5,74.05134],[-78,73.93107],[-77.5,73.80854],[-77,73.68371],[-76.5,73.55655],[-76,73.42702],[-75.5,73.29509],[-75,73.16072],[-74.5,73.02388],[-74,72.88453],[-73.5,72.74263],[-73,72.59816],[-72.5,72.45107],[-72,72.30134],[-71.5,72.14893],[-71,71.9938],[-70.5,71.83593],[-70,71.67529],[-69.5,71.51184],[-69,71.34556],[-68.5,71.17641],[-68,71.00438],[-67.5,70.82944],[-67,70.65155],[-66.5,70.47071],[-66,70.2869],[-65.5,70.10008],[-65,69.91026],[-64.5,69.71741],[-64,69.52153],[-63.5,69.3226],[-63,69.12063],[-62.5,68.9156],[-62,68.70753],[-61.5,68.4964],[-61,68.28225],[-60.5,68.06506],[-60,67.84486],[-59.5,67.62166],[-59,67.39549],[-58.5,67.16638],[-58,66.93435],[-57.5,66.69944],[-57,66.46168],[-56.5,66.22112],[-56,65.97781],[-55.5,65.7318],[-55,65.48314],[-54.5,65.23189],[-54,64.97812],[-53.5,64.72189],[-53,64.46328],[-53,64.46327],[-52.5,64.20235],[-52,63.9392],[-51.5,63.67391],[-51,63.40655],[-50.5,63.13722],[-50,62.86601],[-49.5,62.59302],[-49,62.31835],[-48.5,62.04209],[-48,61.76434],[-47.5,61.48522],[-47,61.20481],[-46.5,60.92324],[-46,60.64061],[-45.5,60.35702],[-45.5,60.35701],[-45,60.07258],[-44.5,59.7874],[-44,59.50159],[-43.5,59.21525],[-43,58.92849],[-42.5,58.64142],[-42,58.35413],[-41.5,58.06674],[-41,57.77934],[-40.5,57.49203],[-40,57.20491],[-39.5,56.91806],[-39,56.63159],[-38.5,56.34559],[-38,56.06013],[-37.5,55.77531],[-37,55.4912],[-36.5,55.20789],[-36,54.92544],[-35.5,54.64394],[-35,54.36345],[-34.5,54.08404],[-34,53.80577],[-33.5,53.52871],[-33,53.25291],[-32.5,52.97843],[-32,52.70532],[-31.5,52.43363],[-31,52.16341],[-30.5,51.8947],[-30,51.62754],[-29.5,51.36197],[-29,51.09803],[-28.87109,51.03026]]}}],"attribution":"Eclipse Predictions by Fred Espenak and Jean Meeus (NASA's GSFC)","generated_at":"2026-09-23T01:44:56.337Z"}
