{"type":"FeatureCollection","year":793,"events":[{"id":"+07930514","year":793,"month":5,"day":14,"time_tdt":"19:09:27","type":"금환일식","type_code":"A","saros":89,"gamma":-0.52163,"magnitude":0.98523,"greatest":{"lat":-10.3279,"lng":-86.38507},"path_width_km":60.6,"duration":"01m41s","delta_t_seconds":2992.3,"catalog_number":6659,"source":"NASA Five Millennium Canon of Solar Eclipses","source_url":"https://eclipse.gsfc.nasa.gov/SEsearch/SEsearchmap.php?Ecl=%2B07930514"},{"id":"+07931108","year":793,"month":11,"day":8,"time_tdt":"14:39:47","type":"금환일식","type_code":"A","saros":94,"gamma":0.26305,"magnitude":0.97653,"greatest":{"lat":-3.71272,"lng":-25.48138},"path_width_km":86.5,"duration":"02m34s","delta_t_seconds":2988.3,"catalog_number":6660,"source":"NASA Five Millennium Canon of Solar Eclipses","source_url":"https://eclipse.gsfc.nasa.gov/SEsearch/SEsearchmap.php?Ecl=%2B07931108"}],"features":[{"type":"Feature","id":"+07930514:north:0","properties":{"id":"+07930514","year":793,"month":5,"day":14,"time_tdt":"19:09:27","type":"금환일식","type_code":"A","saros":89,"gamma":-0.52163,"magnitude":0.98523,"greatest":{"lat":-10.3279,"lng":-86.38507},"path_width_km":60.6,"duration":"01m41s","delta_t_seconds":2992.3,"catalog_number":6659,"source":"NASA Five Millennium Canon of Solar Eclipses","source_url":"https://eclipse.gsfc.nasa.gov/SEsearch/SEsearchmap.php?Ecl=%2B07930514","boundary":"north","name":"793-05-14 금환일식"},"geometry":{"type":"LineString","coordinates":[[-140.2168,-46.37463],[-140,-46.29188],[-139.5,-46.09944],[-139,-45.90471],[-138.5,-45.70768],[-138,-45.50832],[-137.5,-45.3066],[-137,-45.10249],[-136.5,-44.89598],[-136,-44.68702],[-135.5,-44.4756],[-135,-44.26169],[-134.5,-44.04525],[-134,-43.82626],[-133.5,-43.60469],[-133,-43.38051],[-132.5,-43.15368],[-132,-42.92418],[-131.5,-42.69197],[-131,-42.45702],[-130.5,-42.21931],[-130,-41.97879],[-129.5,-41.73544],[-129,-41.48921],[-128.5,-41.24009],[-128,-40.98802],[-127.5,-40.73299],[-127,-40.47494],[-126.5,-40.21385],[-126,-39.94968],[-125.5,-39.68239],[-125,-39.41196],[-124.5,-39.13833],[-124,-38.86147],[-123.5,-38.58136],[-123,-38.29794],[-122.5,-38.01118],[-122,-37.72104],[-121.5,-37.42749],[-121,-37.13049],[-120.5,-36.83],[-120,-36.52599],[-119.5,-36.21841],[-119,-35.90723],[-118.5,-35.59242],[-118,-35.27394],[-117.5,-34.95175],[-117,-34.62583],[-116.5,-34.29613],[-116,-33.96264],[-115.5,-33.62531],[-115,-33.28413],[-114.5,-32.93907],[-114,-32.59009],[-113.5,-32.23719],[-113,-31.88035],[-112.5,-31.51954],[-112,-31.15477],[-111.5,-30.78601],[-111,-30.41327],[-110.5,-30.03655],[-110,-29.65586],[-109.5,-29.27121],[-109,-28.88262],[-108.5,-28.49012],[-108,-28.09374],[-107.5,-27.69352],[-107,-27.28952],[-106.5,-26.8818],[-106,-26.47042],[-105.5,-26.05549],[-105,-25.63708],[-104.5,-25.21532],[-104,-24.79032],[-103.5,-24.36222],[-103,-23.93118],[-102.5,-23.49737],[-102,-23.06098],[-101.5,-22.62221],[-101,-22.18129],[-100.5,-21.73847],[-100,-21.294],[-99.5,-20.84818],[-99,-20.40131],[-98.5,-19.95371],[-98,-19.50573],[-97.5,-19.05774],[-97,-18.61012],[-96.5,-18.16327],[-96,-17.7176],[-95.5,-17.27356],[-95,-16.83158],[-94.5,-16.39213],[-94,-15.95567],[-93.5,-15.52266],[-93,-15.09359],[-92.5,-14.66892],[-92,-14.24913],[-91.5,-13.83467],[-91,-13.42601],[-90.5,-13.02358],[-90,-12.62782],[-89.5,-12.23912],[-89,-11.85788],[-88.5,-11.48445],[-88,-11.11918],[-87.5,-10.76238],[-87,-10.41433],[-86.5,-10.07529],[-86,-9.74547],[-85.5,-9.42508],[-85,-9.11428],[-84.5,-8.81321],[-84,-8.52197],[-83.5,-8.24065],[-83,-7.9693],[-82.5,-7.70794],[-82,-7.45659],[-81.5,-7.21523],[-81,-6.98383],[-80.5,-6.76232],[-80,-6.55063],[-79.5,-6.34869],[-79,-6.15638],[-78.5,-5.9736],[-78,-5.80022],[-77.5,-5.6361],[-77,-5.48111],[-76.5,-5.3351],[-76,-5.19791],[-75.5,-5.06939],[-75,-4.94937],[-74.5,-4.83768],[-74,-4.73417],[-73.5,-4.63866],[-73,-4.55098],[-72.5,-4.47096],[-72,-4.39844],[-71.5,-4.33325],[-71,-4.27522],[-70.5,-4.22419],[-70,-4.17999],[-69.5,-4.14246],[-69,-4.11144],[-68.5,-4.08678],[-68,-4.06833],[-67.5,-4.05592],[-67,-4.04942],[-66.5,-4.04868],[-66,-4.05356],[-65.5,-4.06391],[-65,-4.0796],[-64.5,-4.1005],[-64,-4.12648],[-63.5,-4.15741],[-63,-4.19317],[-62.5,-4.23363],[-62,-4.27867],[-61.5,-4.32818],[-61,-4.38205],[-60.5,-4.44017],[-60,-4.50242],[-59.5,-4.56871],[-59,-4.63893],[-58.5,-4.71298],[-58,-4.79077],[-57.5,-4.87219],[-57,-4.95716],[-56.5,-5.04558],[-56,-5.13737],[-55.5,-5.23245],[-55,-5.33072],[-54.5,-5.4321],[-54,-5.53652],[-53.5,-5.6439],[-53,-5.75417],[-52.5,-5.86724],[-52,-5.98304],[-51.5,-6.10151],[-51,-6.22258],[-50.5,-6.34617],[-50,-6.47223],[-49.5,-6.60069],[-49,-6.73148],[-48.5,-6.86455],[-48,-6.99984],[-47.5,-7.13728],[-47,-7.27683],[-46.5,-7.41842],[-46,-7.56201],[-45.5,-7.70753],[-45,-7.85494],[-44.5,-8.00419],[-44,-8.15523],[-43.5,-8.30801],[-43,-8.46248],[-42.5,-8.61859],[-42,-8.77631],[-41.5,-8.93559],[-41,-9.09638],[-40.5,-9.25865],[-40,-9.42235],[-39.5,-9.58744],[-39,-9.75388],[-38.5,-9.92164],[-38,-10.09068],[-37.5,-10.26095],[-37,-10.43244],[-36.5,-10.60509],[-36,-10.77888],[-35.5,-10.95378],[-35,-11.12974],[-34.66016,-11.24993]]}},{"type":"Feature","id":"+07930514:center:0","properties":{"id":"+07930514","year":793,"month":5,"day":14,"time_tdt":"19:09:27","type":"금환일식","type_code":"A","saros":89,"gamma":-0.52163,"magnitude":0.98523,"greatest":{"lat":-10.3279,"lng":-86.38507},"path_width_km":60.6,"duration":"01m41s","delta_t_seconds":2992.3,"catalog_number":6659,"source":"NASA Five Millennium Canon of Solar Eclipses","source_url":"https://eclipse.gsfc.nasa.gov/SEsearch/SEsearchmap.php?Ecl=%2B07930514","boundary":"center","name":"793-05-14 금환일식"},"geometry":{"type":"LineString","coordinates":[[-139.89968,-46.85204],[-139.5,-46.65193],[-139,-46.45567],[-138.5,-46.25708],[-138,-46.05616],[-137.5,-45.85287],[-137,-45.64718],[-136.5,-45.43907],[-136,-45.22851],[-135.5,-45.01548],[-135,-44.79994],[-134.5,-44.58186],[-134,-44.36122],[-133.5,-44.13799],[-133,-43.91213],[-132.5,-43.68362],[-132,-43.45242],[-131.5,-43.21851],[-131,-42.98185],[-130.5,-42.7424],[-130,-42.50014],[-129.5,-42.25504],[-129,-42.00705],[-128.5,-41.75615],[-128,-41.50229],[-127.5,-41.24546],[-127,-40.9856],[-126.5,-40.72268],[-126,-40.45668],[-125.5,-40.18754],[-125,-39.91525],[-124.5,-39.63975],[-124,-39.36101],[-123.5,-39.07899],[-123,-38.79367],[-122.5,-38.50499],[-122,-38.21292],[-121.5,-37.91743],[-121,-37.61847],[-120.5,-37.31601],[-120,-37.01001],[-119.5,-36.70044],[-119,-36.38725],[-118.5,-36.07042],[-118,-35.74991],[-117.5,-35.42568],[-117,-35.0977],[-116.5,-34.76593],[-116,-34.43036],[-115.5,-34.09094],[-115,-33.74765],[-114.5,-33.40046],[-114,-33.04935],[-113.5,-32.6943],[-113,-32.3353],[-112.5,-31.97231],[-112,-31.60535],[-111.5,-31.23439],[-111,-30.85943],[-110.5,-30.48048],[-110,-30.09754],[-109.5,-29.71063],[-109,-29.31977],[-108.5,-28.92497],[-108,-28.52629],[-107.5,-28.12375],[-107,-27.71741],[-106.5,-27.30733],[-106,-26.89359],[-105.5,-26.47626],[-105,-26.05545],[-104.5,-25.63127],[-104,-25.20383],[-103.5,-24.77328],[-103,-24.33977],[-102.5,-23.90348],[-102,-23.46458],[-101.5,-23.02329],[-101,-22.57984],[-100.5,-22.13446],[-100,-21.68743],[-99.5,-21.23903],[-99,-20.78957],[-98.5,-20.33937],[-98,-19.88878],[-97.5,-19.43818],[-97,-18.98793],[-96.5,-18.53846],[-96,-18.09018],[-95.5,-17.64352],[-95,-17.19894],[-94.5,-16.7569],[-94,-16.31786],[-93.5,-15.88231],[-93,-15.45071],[-92.5,-15.02355],[-92,-14.60131],[-91.5,-14.18445],[-91,-13.77344],[-90.5,-13.36872],[-90,-12.97072],[-89.5,-12.57986],[-89,-12.19653],[-88.5,-11.8211],[-88,-11.45391],[-87.5,-11.09529],[-87,-10.74551],[-86.5,-10.40484],[-86,-10.0735],[-85.5,-9.7517],[-85,-9.4396],[-84.5,-9.13735],[-84,-8.84505],[-83.5,-8.56279],[-83,-8.29061],[-82.5,-8.02856],[-82,-7.77664],[-81.5,-7.53482],[-81,-7.30309],[-80.5,-7.08137],[-80,-6.8696],[-79.5,-6.66769],[-79,-6.47553],[-78.5,-6.29302],[-78,-6.12002],[-77.5,-5.95639],[-77,-5.80201],[-76.5,-5.65671],[-76,-5.52033],[-75.5,-5.39272],[-75,-5.27371],[-74.5,-5.16314],[-74,-5.06083],[-73.5,-4.96661],[-73,-4.88032],[-72.5,-4.80177],[-72,-4.7308],[-71.5,-4.66724],[-71,-4.61091],[-70.5,-4.56165],[-70,-4.5193],[-69.5,-4.48368],[-69,-4.45465],[-68.5,-4.43203],[-68,-4.41568],[-67.5,-4.40544],[-67,-4.40116],[-66.5,-4.40269],[-66,-4.40989],[-65.5,-4.42261],[-65,-4.44073],[-64.5,-4.46409],[-64,-4.49258],[-63.5,-4.52605],[-63,-4.56439],[-62.5,-4.60747],[-62,-4.65517],[-61.5,-4.70738],[-61,-4.76397],[-60.5,-4.82484],[-60,-4.88987],[-59.5,-4.95897],[-59,-5.03202],[-58.5,-5.10893],[-58,-5.18959],[-57.5,-5.27391],[-57,-5.3618],[-56.5,-5.45317],[-56,-5.54792],[-55.5,-5.64596],[-55,-5.74722],[-54.5,-5.85161],[-54,-5.95905],[-53.5,-6.06945],[-53,-6.18275],[-52.5,-6.29887],[-52,-6.41773],[-51.5,-6.53927],[-51,-6.6634],[-50.5,-6.79008],[-50,-6.91922],[-49.5,-7.05077],[-49,-7.18466],[-48.5,-7.32082],[-48,-7.45921],[-47.5,-7.59975],[-47,-7.7424],[-46.5,-7.8871],[-46,-8.03379],[-45.5,-8.18241],[-45,-8.33293],[-44.5,-8.48528],[-44,-8.63941],[-43.5,-8.79528],[-43,-8.95284],[-42.5,-9.11205],[-42,-9.27285],[-41.5,-9.43521],[-41,-9.59907],[-40.5,-9.76441],[-40,-9.93117],[-39.5,-10.09932],[-39,-10.26881],[-38.5,-10.43962],[-38,-10.61169],[-37.5,-10.785],[-37,-10.9595],[-36.5,-11.13517],[-36,-11.31196],[-35.5,-11.48985],[-35,-11.6688],[-34.75092,-11.75649]]}},{"type":"Feature","id":"+07930514:south:0","properties":{"id":"+07930514","year":793,"month":5,"day":14,"time_tdt":"19:09:27","type":"금환일식","type_code":"A","saros":89,"gamma":-0.52163,"magnitude":0.98523,"greatest":{"lat":-10.3279,"lng":-86.38507},"path_width_km":60.6,"duration":"01m41s","delta_t_seconds":2992.3,"catalog_number":6659,"source":"NASA Five Millennium Canon of Solar Eclipses","source_url":"https://eclipse.gsfc.nasa.gov/SEsearch/SEsearchmap.php?Ecl=%2B07930514","boundary":"south","name":"793-05-14 금환일식"},"geometry":{"type":"LineString","coordinates":[[-139.5,-47.21032],[-139,-47.01252],[-138.5,-46.8124],[-138,-46.60992],[-137.5,-46.40506],[-137,-46.1978],[-136.5,-45.9881],[-136,-45.77594],[-135.5,-45.56129],[-135,-45.34413],[-134.5,-45.12442],[-134,-44.90213],[-133.5,-44.67724],[-133,-44.44971],[-132.5,-44.21951],[-132,-43.98662],[-131.5,-43.751],[-131,-43.51262],[-130.5,-43.27144],[-130,-43.02744],[-129.5,-42.78058],[-129,-42.53082],[-128.5,-42.27814],[-128,-42.02249],[-127.5,-41.76385],[-127,-41.50217],[-126.5,-41.23743],[-126,-40.96958],[-125.5,-40.69859],[-125,-40.42443],[-124.5,-40.14705],[-124,-39.86641],[-123.5,-39.58249],[-123,-39.29525],[-122.5,-39.00464],[-122,-38.71062],[-121.5,-38.41317],[-121,-38.11224],[-120.5,-37.8078],[-120,-37.49981],[-119.5,-37.18823],[-119,-36.87302],[-118.5,-36.55416],[-118,-36.23159],[-117.5,-35.9053],[-117,-35.57524],[-116.5,-35.24139],[-116,-34.90371],[-115.5,-34.56218],[-115,-34.21676],[-114.5,-33.86743],[-114,-33.51416],[-113.5,-33.15695],[-113,-32.79575],[-112.5,-32.43057],[-112,-32.06139],[-111.5,-31.6882],[-111,-31.31101],[-110.5,-30.9298],[-110,-30.54459],[-109.5,-30.15539],[-109,-29.76222],[-108.5,-29.3651],[-108,-28.96408],[-107.5,-28.55918],[-107,-28.15047],[-106.5,-27.73801],[-106,-27.32186],[-105.5,-26.90212],[-105,-26.47887],[-104.5,-26.05223],[-104,-25.62232],[-103.5,-25.18928],[-103,-24.75326],[-102.5,-24.31443],[-102,-23.87299],[-101.5,-23.42914],[-101,-22.9831],[-100.5,-22.53513],[-100,-22.08549],[-99.5,-21.63446],[-99,-21.18236],[-98.5,-20.72951],[-98,-20.27626],[-97.5,-19.82299],[-97,-19.37007],[-96.5,-18.91792],[-96,-18.46697],[-95.5,-18.01764],[-95,-17.57039],[-94.5,-17.1257],[-94,-16.68403],[-93.5,-16.24586],[-93,-15.81168],[-92.5,-15.38196],[-92,-14.95721],[-91.5,-14.53788],[-91,-14.12445],[-90.5,-13.71736],[-90,-13.31707],[-89.5,-12.92398],[-89,-12.53849],[-88.5,-12.16099],[-88,-11.79182],[-87.5,-11.4313],[-87,-11.07973],[-86.5,-10.73737],[-86,-10.40446],[-85.5,-10.08119],[-85,-9.76774],[-84.5,-9.46425],[-84,-9.17083],[-83.5,-8.88757],[-83,-8.61453],[-82.5,-8.35173],[-82,-8.09918],[-81.5,-7.85688],[-81,-7.62477],[-80.5,-7.40281],[-80,-7.19091],[-79.5,-6.989],[-79,-6.79697],[-78.5,-6.61469],[-78,-6.44204],[-77.5,-6.27889],[-77,-6.12508],[-76.5,-5.98047],[-76,-5.84489],[-75.5,-5.71818],[-75,-5.60018],[-74.5,-5.4907],[-74,-5.38958],[-73.5,-5.29665],[-73,-5.21173],[-72.5,-5.13465],[-72,-5.06522],[-71.5,-5.00328],[-71,-4.94866],[-70.5,-4.90118],[-70,-4.86068],[-69.5,-4.82698],[-69,-4.79993],[-68.5,-4.77937],[-68,-4.76513],[-67.5,-4.75706],[-67,-4.755],[-66.5,-4.75882],[-66,-4.76835],[-65.5,-4.78346],[-65,-4.804],[-64.5,-4.82984],[-64,-4.86084],[-63.5,-4.89688],[-63,-4.93782],[-62.5,-4.98354],[-62,-5.03391],[-61.5,-5.08882],[-61,-5.14815],[-60.5,-5.21179],[-60,-5.27963],[-59.5,-5.35155],[-59,-5.42745],[-58.5,-5.50723],[-58,-5.5908],[-57.5,-5.67804],[-57,-5.76887],[-56.5,-5.86319],[-56,-5.96092],[-55.5,-6.06196],[-55,-6.16622],[-54.5,-6.27363],[-54,-6.38411],[-53.5,-6.49756],[-53,-6.61392],[-52.5,-6.73311],[-52,-6.85505],[-51.5,-6.97967],[-51,-7.1069],[-50.5,-7.23667],[-50,-7.36892],[-49.5,-7.50358],[-49,-7.64058],[-48.5,-7.77987],[-48,-7.92137],[-47.5,-8.06504],[-47,-8.21081],[-46.5,-8.35863],[-46,-8.50845],[-45.5,-8.6602],[-45,-8.81383],[-44.5,-8.9693],[-44,-9.12655],[-43.5,-9.28554],[-43,-9.44621],[-42.5,-9.60853],[-42,-9.77243],[-41.5,-9.93789],[-41,-10.10485],[-40.5,-10.27327],[-40,-10.44312],[-39.5,-10.61434],[-39,-10.78691],[-38.5,-10.96078],[-38,-11.13591],[-37.5,-11.31226],[-37,-11.48981],[-36.5,-11.66851],[-36,-11.84833],[-35.5,-12.02923],[-35,-12.21119],[-34.83398,-12.27183]]}},{"type":"Feature","id":"+07931108:north:0","properties":{"id":"+07931108","year":793,"month":11,"day":8,"time_tdt":"14:39:47","type":"금환일식","type_code":"A","saros":94,"gamma":0.26305,"magnitude":0.97653,"greatest":{"lat":-3.71272,"lng":-25.48138},"path_width_km":86.5,"duration":"02m34s","delta_t_seconds":2988.3,"catalog_number":6660,"source":"NASA Five Millennium Canon of Solar Eclipses","source_url":"https://eclipse.gsfc.nasa.gov/SEsearch/SEsearchmap.php?Ecl=%2B07931108","boundary":"north","name":"793-11-08 금환일식"},"geometry":{"type":"LineString","coordinates":[[-80.95898,35.30775],[-80.5,35.15133],[-80,34.97872],[-79.5,34.80375],[-79,34.62642],[-78.5,34.44668],[-78,34.26452],[-77.5,34.07989],[-77,33.89278],[-76.5,33.70314],[-76,33.51095],[-75.5,33.31617],[-75,33.11877],[-74.5,32.91873],[-74,32.71599],[-73.5,32.51053],[-73,32.30232],[-72.5,32.09131],[-72,31.87747],[-71.5,31.66076],[-71,31.44115],[-70.5,31.21858],[-70,30.99303],[-69.5,30.76446],[-69,30.53281],[-68.5,30.29805],[-68,30.06013],[-67.5,29.81902],[-67,29.57466],[-66.5,29.32701],[-66,29.07602],[-65.5,28.82165],[-65,28.56385],[-64.5,28.30257],[-64,28.03776],[-63.5,27.76937],[-63,27.49735],[-62.5,27.22165],[-62,26.94221],[-61.5,26.65899],[-61,26.37192],[-60.5,26.08096],[-60,25.78605],[-59.5,25.48714],[-59,25.18417],[-58.5,24.87707],[-58,24.56581],[-57.5,24.25033],[-57,23.93056],[-56.5,23.60645],[-56,23.27796],[-55.5,22.94501],[-55,22.60757],[-54.5,22.26557],[-54,21.91897],[-53.5,21.56772],[-53,21.21176],[-52.5,20.85105],[-52,20.48556],[-51.5,20.11523],[-51,19.74004],[-50.5,19.35994],[-50,18.97491],[-49.5,18.58493],[-49,18.18998],[-48.5,17.79004],[-48,17.38511],[-47.5,16.97519],[-47,16.5603],[-46.5,16.14045],[-46,15.71568],[-45.5,15.28603],[-45,14.85155],[-44.5,14.41232],[-44,13.96841],[-43.5,13.51993],[-43,13.06699],[-42.5,12.60972],[-42,12.14829],[-41.5,11.68286],[-41,11.21363],[-40.5,10.74081],[-40,10.26465],[-39.5,9.78542],[-39,9.3034],[-38.5,8.81891],[-38,8.33228],[-37.5,7.84388],[-37,7.35409],[-36.5,6.86334],[-36,6.37204],[-35.5,5.88066],[-35,5.38966],[-34.5,4.89954],[-34,4.41079],[-33.5,3.92393],[-33,3.43947],[-32.5,2.95795],[-32,2.47987],[-31.5,2.00577],[-31,1.53615],[-30.5,1.07151],[-30,0.61235],[-29.5,0.15913],[-29,-0.2877],[-28.5,-0.72772],[-28,-1.16054],[-27.5,-1.58577],[-27,-2.00308],[-26.5,-2.41217],[-26,-2.81275],[-25.5,-3.20458],[-25,-3.58745],[-24.5,-3.96117],[-24,-4.3256],[-23.5,-4.6806],[-23,-5.0261],[-22.5,-5.36202],[-22,-5.68832],[-21.5,-6.00498],[-21,-6.312],[-20.5,-6.60941],[-20,-6.89725],[-19.5,-7.17558],[-19,-7.44447],[-18.5,-7.70401],[-18,-7.95429],[-17.5,-8.19542],[-17,-8.42752],[-16.5,-8.6507],[-16,-8.86511],[-15.5,-9.07087],[-15,-9.26813],[-14.5,-9.45702],[-14,-9.63769],[-13.5,-9.81028],[-13,-9.97495],[-12.5,-10.13184],[-12,-10.28109],[-11.5,-10.42286],[-11,-10.55729],[-10.5,-10.68453],[-10,-10.80472],[-9.5,-10.918],[-9,-11.02451],[-8.5,-11.12438],[-8,-11.21777],[-7.5,-11.30479],[-7,-11.38557],[-6.5,-11.46026],[-6,-11.52897],[-5.5,-11.59182],[-5,-11.64894],[-4.5,-11.70044],[-4,-11.74645],[-3.5,-11.78706],[-3,-11.82241],[-2.5,-11.85258],[-2,-11.87769],[-1.5,-11.89783],[-1,-11.91312],[-0.5,-11.92365],[0,-11.92952],[0.5,-11.93081],[1,-11.92762],[1.5,-11.92005],[2,-11.90817],[2.5,-11.89207],[3,-11.87185],[3.5,-11.84757],[4,-11.81932],[4.5,-11.78718],[5,-11.75123],[5.5,-11.71153],[6,-11.66817],[6.5,-11.62121],[7,-11.57072],[7.5,-11.51677],[8,-11.45944],[8.5,-11.39878],[9,-11.33486],[9.5,-11.26775],[10,-11.1975],[10.5,-11.12418],[11,-11.04784],[11.5,-10.96855],[12,-10.88635],[12.5,-10.80132],[13,-10.7135],[13.5,-10.62294],[14,-10.52971],[14.5,-10.43385],[15,-10.33541],[15.5,-10.23444],[16,-10.131],[16.5,-10.02512],[17,-9.91687],[17.5,-9.80628],[18,-9.69341],[18.5,-9.57829],[19,-9.46098],[19.5,-9.34151],[20,-9.21993],[20.5,-9.09628],[21,-8.9706],[21.5,-8.84294],[22,-8.71333],[22.5,-8.58182],[23,-8.44843],[23.5,-8.31323],[24,-8.17623],[24.5,-8.03747],[25,-7.897],[25.5,-7.75485],[26,-7.61106],[26.5,-7.46566],[27,-7.31868],[27.5,-7.17016],[28,-7.02013],[28.5,-6.86863],[29,-6.71568],[29.5,-6.56132],[30,-6.40559],[30.5,-6.24851],[31,-6.0901],[31.5,-5.93042],[32,-5.76947],[32.5,-5.6073],[33,-5.44392],[33.5,-5.27937],[33.91211,-5.14289]]}},{"type":"Feature","id":"+07931108:center:0","properties":{"id":"+07931108","year":793,"month":11,"day":8,"time_tdt":"14:39:47","type":"금환일식","type_code":"A","saros":94,"gamma":0.26305,"magnitude":0.97653,"greatest":{"lat":-3.71272,"lng":-25.48138},"path_width_km":86.5,"duration":"02m34s","delta_t_seconds":2988.3,"catalog_number":6660,"source":"NASA Five Millennium Canon of Solar Eclipses","source_url":"https://eclipse.gsfc.nasa.gov/SEsearch/SEsearchmap.php?Ecl=%2B07931108","boundary":"center","name":"793-11-08 금환일식"},"geometry":{"type":"LineString","coordinates":[[-81.19841,34.70579],[-81,34.61519],[-80.5,34.44615],[-80,34.27479],[-79.5,34.1011],[-79,33.92502],[-78.5,33.74655],[-78,33.56565],[-77.5,33.38228],[-77,33.19643],[-76.5,33.00805],[-76,32.81712],[-75.5,32.6236],[-75,32.42746],[-74.5,32.22867],[-74,32.0272],[-73.5,31.82299],[-73,31.61603],[-72.5,31.40628],[-72,31.19369],[-71.5,30.97823],[-71,30.75987],[-70.5,30.53855],[-70,30.31425],[-69.5,30.08692],[-69,29.85651],[-68.5,29.623],[-68,29.38632],[-67.5,29.14645],[-67,28.90332],[-66.5,28.65691],[-66,28.40716],[-65.5,28.15402],[-65,27.89745],[-64.5,27.6374],[-64,27.37382],[-63.5,27.10665],[-63,26.83585],[-62.5,26.56137],[-62,26.28316],[-61.5,26.00115],[-61,25.7153],[-60.5,25.42555],[-60,25.13186],[-59.5,24.83415],[-59,24.53239],[-58.5,24.22651],[-58,23.91646],[-57.5,23.60218],[-57,23.28363],[-56.5,22.96073],[-56,22.63345],[-55.5,22.30172],[-55,21.96549],[-54.5,21.62471],[-54,21.27934],[-53.5,20.92931],[-53,20.57459],[-52.5,20.21513],[-52,19.85088],[-51.5,19.48182],[-51,19.10789],[-50.5,18.72908],[-50,18.34535],[-49.5,17.95668],[-49,17.56306],[-48.5,17.16448],[-48,16.76093],[-47.5,16.35242],[-47,15.93896],[-46.5,15.52058],[-46,15.09731],[-45.5,14.6692],[-45,14.23631],[-44.5,13.79871],[-44,13.35649],[-43.5,12.90974],[-43,12.4586],[-42.5,12.0032],[-42,11.5437],[-41.5,11.08028],[-41,10.61313],[-40.5,10.14249],[-40,9.6686],[-39.5,9.19171],[-39,8.71214],[-38.5,8.2302],[-38,7.74623],[-37.5,7.26059],[-37,6.77368],[-36.5,6.28591],[-36,5.79771],[-35.5,5.30953],[-35,4.82184],[-34.5,4.33514],[-34,3.84991],[-33.5,3.36667],[-33,2.88592],[-32.5,2.40819],[-32,1.93398],[-31.5,1.46381],[-31,0.99818],[-30.5,0.53758],[-30,0.08248],[-29.5,-0.36666],[-29,-0.8094],[-28.5,-1.24534],[-28,-1.67409],[-27.5,-2.0953],[-27,-2.50863],[-26.5,-2.9138],[-26,-3.31053],[-25.5,-3.6986],[-25,-4.07779],[-24.5,-4.44795],[-24,-4.80892],[-23.5,-5.16059],[-23,-5.50288],[-22.5,-5.83572],[-22,-6.15908],[-21.5,-6.47295],[-21,-6.77732],[-20.5,-7.07223],[-20,-7.35772],[-19.5,-7.63386],[-19,-7.9007],[-18.5,-8.15835],[-18,-8.40689],[-17.5,-8.64643],[-17,-8.87709],[-16.5,-9.09899],[-16,-9.31226],[-15.5,-9.51702],[-15,-9.71342],[-14.5,-9.90159],[-14,-10.08168],[-13.5,-10.25383],[-13,-10.41817],[-12.5,-10.57487],[-12,-10.72406],[-11.5,-10.86588],[-11,-11.00048],[-10.5,-11.128],[-10,-11.24857],[-9.5,-11.36235],[-9,-11.46947],[-8.5,-11.57005],[-8,-11.66423],[-7.5,-11.75215],[-7,-11.83393],[-6.5,-11.90969],[-6,-11.97957],[-5.5,-12.04367],[-5,-12.10212],[-4.5,-12.15503],[-4,-12.20252],[-3.5,-12.24469],[-3,-12.28166],[-2.5,-12.31352],[-2,-12.34039],[-1.5,-12.36237],[-1,-12.37954],[-0.5,-12.39201],[0,-12.39988],[0.5,-12.40323],[1,-12.40215],[1.5,-12.39674],[2,-12.38707],[2.5,-12.37324],[3,-12.35532],[3.5,-12.33339],[4,-12.30753],[4.5,-12.27783],[5,-12.24434],[5.5,-12.20716],[6,-12.16634],[6.5,-12.12196],[7,-12.07408],[7.5,-12.02278],[8,-11.96813],[8.5,-11.91017],[9,-11.84899],[9.5,-11.78463],[10,-11.71717],[10.5,-11.64666],[11,-11.57315],[11.5,-11.49671],[12,-11.4174],[12.5,-11.33526],[13,-11.25035],[13.5,-11.16272],[14,-11.07244],[14.5,-10.97954],[15,-10.88407],[15.5,-10.7861],[16,-10.68566],[16.5,-10.5828],[17,-10.47757],[17.5,-10.37002],[18,-10.26019],[18.5,-10.14813],[19,-10.03388],[19.5,-9.91747],[20,-9.79897],[20.5,-9.6784],[21,-9.5558],[21.5,-9.43123],[22,-9.30471],[22.5,-9.17629],[23,-9.046],[23.5,-8.91389],[24,-8.77999],[24.5,-8.64433],[25,-8.50696],[25.5,-8.3679],[26,-8.2272],[26.5,-8.08488],[27,-7.94099],[27.5,-7.79555],[28,-7.64861],[28.5,-7.50018],[29,-7.3503],[29.5,-7.19901],[30,-7.04633],[30.5,-6.8923],[31,-6.73695],[31.5,-6.5803],[32,-6.42238],[32.5,-6.26323],[33,-6.10287],[33.5,-5.94133],[34,-5.77864],[34.07326,-5.75578]]}},{"type":"Feature","id":"+07931108:south:0","properties":{"id":"+07931108","year":793,"month":11,"day":8,"time_tdt":"14:39:47","type":"금환일식","type_code":"A","saros":94,"gamma":0.26305,"magnitude":0.97653,"greatest":{"lat":-3.71272,"lng":-25.48138},"path_width_km":86.5,"duration":"02m34s","delta_t_seconds":2988.3,"catalog_number":6660,"source":"NASA Five Millennium Canon of Solar Eclipses","source_url":"https://eclipse.gsfc.nasa.gov/SEsearch/SEsearchmap.php?Ecl=%2B07931108","boundary":"south","name":"793-11-08 금환일식"},"geometry":{"type":"LineString","coordinates":[[-81.48633,34.07336],[-81,33.91238],[-80.5,33.74463],[-80,33.57456],[-79.5,33.40214],[-79,33.22735],[-78.5,33.05016],[-78,32.87053],[-77.5,32.68845],[-77,32.50387],[-76.5,32.31677],[-76,32.12712],[-75.5,31.93488],[-75,31.74002],[-74.5,31.5425],[-74,31.34229],[-73.5,31.13937],[-73,30.93368],[-72.5,30.72519],[-72,30.51387],[-71.5,30.29968],[-71,30.08258],[-70.5,29.86253],[-70,29.63949],[-69.5,29.41342],[-69,29.18427],[-68.5,28.95201],[-68,28.71659],[-67.5,28.47797],[-67,28.2361],[-66.5,27.99094],[-66,27.74243],[-65.5,27.49054],[-65,27.23522],[-64.5,26.9764],[-64,26.71406],[-63.5,26.44813],[-63,26.17857],[-62.5,25.90532],[-62,25.62833],[-61.5,25.34756],[-61,25.06293],[-60.5,24.77441],[-60,24.48194],[-59.5,24.18546],[-59,23.88492],[-58.5,23.58026],[-58,23.27143],[-57.5,22.95838],[-57,22.64104],[-56.5,22.31936],[-56,21.9933],[-55.5,21.6628],[-55,21.32779],[-54.5,20.98825],[-54,20.6441],[-53.5,20.29532],[-53,19.94184],[-52.5,19.58363],[-52,19.22065],[-51.5,18.85285],[-51,18.48021],[-50.5,18.10269],[-50,17.72027],[-49.5,17.33292],[-49,16.94065],[-48.5,16.54343],[-48,16.14127],[-47.5,15.73417],[-47,15.32216],[-46.5,14.90526],[-46,14.4835],[-45.5,14.05695],[-45,13.62565],[-44.5,13.18969],[-44,12.74916],[-43.5,12.30417],[-43,11.85484],[-42.5,11.40131],[-42,10.94376],[-41.5,10.48235],[-41,10.01731],[-40.5,9.54885],[-40,9.07722],[-39.5,8.6027],[-39,8.12559],[-38.5,7.6462],[-38,7.16488],[-37.5,6.68201],[-37,6.19797],[-36.5,5.71318],[-36,5.22806],[-35.5,4.74308],[-35,4.25869],[-34.5,3.77539],[-34,3.29366],[-33.5,2.81401],[-33,2.33694],[-32.5,1.86296],[-32,1.39258],[-31.5,0.9263],[-31,0.4646],[-30.5,0.00797],[-30,-0.44312],[-29.5,-0.88825],[-29,-1.32698],[-28.5,-1.75891],[-28,-2.18368],[-27.5,-2.60095],[-27,-3.01039],[-26.5,-3.41172],[-26,-3.8047],[-25.5,-4.18909],[-25,-4.56471],[-24.5,-4.93139],[-24,-5.289],[-23.5,-5.63743],[-23,-5.9766],[-22.5,-6.30646],[-22,-6.62697],[-21.5,-6.93813],[-21,-7.23994],[-20.5,-7.53244],[-20,-7.81567],[-19.5,-8.08968],[-19,-8.35456],[-18.5,-8.61039],[-18,-8.85726],[-17.5,-9.09528],[-17,-9.32457],[-16.5,-9.54524],[-16,-9.75742],[-15.5,-9.96124],[-15,-10.15683],[-14.5,-10.34433],[-14,-10.52388],[-13.5,-10.69562],[-13,-10.85968],[-12.5,-11.01622],[-12,-11.16537],[-11.5,-11.30727],[-11,-11.44206],[-10.5,-11.56989],[-10,-11.69088],[-9.5,-11.80518],[-9,-11.91291],[-8.5,-12.01422],[-8,-12.10922],[-7.5,-12.19804],[-7,-12.28082],[-6.5,-12.35767],[-6,-12.42871],[-5.5,-12.49406],[-5,-12.55384],[-4.5,-12.60816],[-4,-12.65713],[-3.5,-12.70086],[-3,-12.73945],[-2.5,-12.77301],[-2,-12.80163],[-1.5,-12.82542],[-1,-12.84447],[-0.5,-12.85888],[0,-12.86874],[0.5,-12.87413],[1,-12.87515],[1.5,-12.87189],[2,-12.86442],[2.5,-12.85283],[3,-12.8372],[3.5,-12.8176],[4,-12.79412],[4.5,-12.76683],[5,-12.7358],[5.5,-12.7011],[6,-12.66281],[6.5,-12.62099],[7,-12.57571],[7.5,-12.52704],[8,-12.47504],[8.5,-12.41977],[9,-12.3613],[9.5,-12.29969],[10,-12.23499],[10.5,-12.16726],[11,-12.09657],[11.5,-12.02296],[12,-11.9465],[12.5,-11.86723],[13,-11.78522],[13.5,-11.7005],[14,-11.61314],[14.5,-11.52318],[15,-11.43068],[15.5,-11.33567],[16,-11.23821],[16.5,-11.13835],[17,-11.03613],[17.5,-10.9316],[18,-10.82479],[18.5,-10.71576],[19,-10.60455],[19.5,-10.4912],[20,-10.37574],[20.5,-10.25823],[21,-10.13871],[21.5,-10.0172],[22,-9.89375],[22.5,-9.76841],[23,-9.6412],[23.5,-9.51216],[24,-9.38134],[24.5,-9.24876],[25,-9.11447],[25.5,-8.97849],[26,-8.84086],[26.5,-8.70162],[27,-8.5608],[27.5,-8.41843],[28,-8.27454],[28.5,-8.12918],[29,-7.98236],[29.5,-7.83411],[30,-7.68448],[30.5,-7.53349],[31,-7.38117],[31.5,-7.22754],[32,-7.07265],[32.5,-6.91651],[33,-6.75915],[33.5,-6.6006],[34,-6.4409],[34.24023,-6.36376]]}}],"attribution":"Eclipse Predictions by Fred Espenak and Jean Meeus (NASA's GSFC)","generated_at":"2026-09-23T01:44:56.624Z"}
