{"type":"FeatureCollection","year":795,"events":[{"id":"+07950423","year":795,"month":4,"day":23,"time_tdt":"21:24:56","type":"개기일식","type_code":"Tn","saros":109,"gamma":0.98633,"magnitude":1.0587,"greatest":{"lat":65.16828,"lng":130.68738},"path_width_km":0,"duration":"02m58s","delta_t_seconds":2976.5,"catalog_number":6663,"source":"NASA Five Millennium Canon of Solar Eclipses","source_url":"https://eclipse.gsfc.nasa.gov/SEsearch/SEsearchmap.php?Ecl=%2B07950423"},{"id":"+07951017","year":795,"month":10,"day":17,"time_tdt":"18:17:55","type":"부분일식","type_code":"P","saros":114,"gamma":-1.14676,"magnitude":0.7065,"greatest":{"lat":-61.27148,"lng":164.12262},"path_width_km":0,"duration":"00m00s","delta_t_seconds":2972.6,"catalog_number":6664,"source":"NASA Five Millennium Canon of Solar Eclipses","source_url":"https://eclipse.gsfc.nasa.gov/SEsearch/SEsearchmap.php?Ecl=%2B07951017"}],"features":[{"type":"Feature","id":"+07950423:center:0","properties":{"id":"+07950423","year":795,"month":4,"day":23,"time_tdt":"21:24:56","type":"개기일식","type_code":"Tn","saros":109,"gamma":0.98633,"magnitude":1.0587,"greatest":{"lat":65.16828,"lng":130.68738},"path_width_km":0,"duration":"02m58s","delta_t_seconds":2976.5,"catalog_number":6663,"source":"NASA Five Millennium Canon of Solar Eclipses","source_url":"https://eclipse.gsfc.nasa.gov/SEsearch/SEsearchmap.php?Ecl=%2B07950423","boundary":"center","name":"795-04-23 개기일식"},"geometry":{"type":"LineString","coordinates":[[124.98802,53.67204],[124.5,54.1985],[125,54.33935],[125.5,54.49297],[126,54.66035],[126.5,54.84267],[127,55.04132],[127.5,55.25802],[128,55.49488],[128.5,55.75458],[129,56.04057],[129.5,56.35748],[130,56.71181],[130.5,57.11307],[131,57.57647],[131.5,58.12926],[132,58.8312],[132.5,59.89441],[132.5,62.59872],[132,63.64557],[131.5,64.33386],[131,64.87568],[130.5,65.33074],[130,65.72626],[129.5,66.07739],[129,66.39365],[128.5,66.68148],[128,66.94546],[127.5,67.18905],[127,67.41488],[126.5,67.62503],[126,67.82118],[125.5,68.00471],[125,68.17677],[124.5,68.33833],[124,68.4902],[123.5,68.63309],[123,68.76761],[122.5,68.89429],[122,69.01361],[121.5,69.12597],[121,69.23173],[120.5,69.33122],[120,69.42473],[119.5,69.51251],[119,69.59479],[118.5,69.67178],[118,69.74366],[117.5,69.8106],[117,69.87274],[116.5,69.93021],[116,69.98313],[115.5,70.0316],[115,70.07571],[114.5,70.11554],[114,70.15116],[113.5,70.18263],[113,70.20999],[112.5,70.23327],[112,70.25251],[111.5,70.26772],[111,70.27892],[110.5,70.28609],[110,70.28924],[109.5,70.28833],[109,70.28335],[108.5,70.27425],[108,70.26098],[107.5,70.24348],[107,70.22167],[106.5,70.19547],[106,70.16478],[105.5,70.12947],[105,70.08942],[104.5,70.04446],[104,69.99444],[103.5,69.93914],[103,69.87834],[102.5,69.81179],[102,69.7392],[101.5,69.66023],[101,69.57449],[100.5,69.48155],[100,69.38089],[99.5,69.27192],[99,69.15393],[98.5,69.02609],[98,68.8874],[97.5,68.73664],[94.4127,69.76661]]}},{"type":"Feature","id":"+07950423:south:0","properties":{"id":"+07950423","year":795,"month":4,"day":23,"time_tdt":"21:24:56","type":"개기일식","type_code":"Tn","saros":109,"gamma":0.98633,"magnitude":1.0587,"greatest":{"lat":65.16828,"lng":130.68738},"path_width_km":0,"duration":"02m58s","delta_t_seconds":2976.5,"catalog_number":6663,"source":"NASA Five Millennium Canon of Solar Eclipses","source_url":"https://eclipse.gsfc.nasa.gov/SEsearch/SEsearchmap.php?Ecl=%2B07950423","boundary":"south","name":"795-04-23 개기일식"},"geometry":{"type":"LineString","coordinates":[[129.5,50.1524],[130,50.28275],[130.5,50.42133],[131,50.56851],[131.5,50.72467],[132,50.89023],[132.5,51.06568],[133,51.25155],[133.5,51.44841],[134,51.65694],[134.5,51.87789],[135,52.11211],[135.5,52.36057],[136,52.62441],[136.5,52.90496],[137,53.20378],[137.5,53.52275],[138,53.86416],[138.5,54.23083],[139,54.62637],[139.5,55.05546],[140,55.5244],[140.5,56.04208],[141,56.62179],[141.5,57.28507],[142,58.07176],[142.5,59.07447],[143,60.69711],[143,63.35487],[142.5,64.88822],[142,65.80573],[141.5,66.51117],[141,67.09709],[140.5,67.60325],[140,68.05111],[139.5,68.45388],[139,68.82037],[138.5,69.15682],[138,69.46785],[137.5,69.75699],[137,70.02701],[136.5,70.28013],[136,70.51818],[135.5,70.74267],[135,70.95487],[134.5,71.15586],[134,71.34657],[133.5,71.5278],[133,71.70027],[132.5,71.86458],[132,72.02128],[131.5,72.17087],[131,72.31377],[130.5,72.45039],[130,72.58106],[129.5,72.7061],[129,72.82582],[128.5,72.94046],[128,73.05028],[127.5,73.15549],[127,73.25629],[126.5,73.35287],[126,73.4454],[125.5,73.53403],[125,73.61892],[124.5,73.7002],[124,73.778],[123.5,73.85242],[123,73.92359],[122.5,73.99159],[122,74.05652],[121.5,74.11847],[121,74.17752],[120.5,74.23374],[120,74.2872],[119.5,74.33797],[119,74.3861],[118.5,74.43166],[118,74.4747],[117.5,74.51525],[117,74.55337],[116.5,74.58909],[116,74.62246],[115.5,74.65351],[115,74.68226],[114.5,74.70875],[114,74.73301],[113.5,74.75504],[113,74.77488],[112.5,74.79254],[112,74.80803],[111.5,74.82137],[111,74.83257],[110.5,74.84163],[110,74.84855],[109.5,74.85335],[109,74.85602],[108.5,74.85655],[108,74.85495],[107.5,74.8512],[107,74.84529],[106.5,74.83721],[106,74.82694],[105.5,74.81448],[105,74.79978],[104.5,74.78284],[104,74.76361],[103.5,74.74208],[103,74.71821],[102.5,74.69195],[102,74.66327],[101.5,74.63212],[101,74.59845],[100.5,74.56221],[100,74.52334],[99.5,74.48176],[99,74.43742],[98.5,74.39023],[98,74.34011],[97.5,74.28696],[97,74.2307],[96.5,74.17121],[96,74.10837],[95.5,74.04205],[95,73.97212],[94.5,73.89841],[94,73.82077],[93.5,73.73901],[93,73.65291],[92.5,73.56226],[92,73.4668],[91.5,73.36626],[91,73.26031],[90.5,73.14863],[90,73.0308],[89.5,72.90638],[89,72.77487],[88.5,72.63567],[88,72.48812],[87.5,72.33142],[87,72.16466],[86.5,71.98671]]}}],"attribution":"Eclipse Predictions by Fred Espenak and Jean Meeus (NASA's GSFC)","generated_at":"2026-09-23T01:44:56.811Z"}
