{"type":"FeatureCollection","year":803,"events":[{"id":"+08030425","year":803,"month":4,"day":25,"time_tdt":"05:07:36","type":"부분일식","type_code":"P","saros":80,"gamma":1.05526,"magnitude":0.90742,"greatest":{"lat":70.47356,"lng":-21.25452},"path_width_km":0,"duration":"00m00s","delta_t_seconds":2911.7,"catalog_number":6681,"source":"NASA Five Millennium Canon of Solar Eclipses","source_url":"https://eclipse.gsfc.nasa.gov/SEsearch/SEsearchmap.php?Ecl=%2B08030425"},{"id":"+08030524","year":803,"month":5,"day":24,"time_tdt":"13:35:52","type":"부분일식","type_code":"Pb","saros":118,"gamma":-1.53255,"magnitude":0.01225,"greatest":{"lat":-68.0939,"lng":-0.71582},"path_width_km":0,"duration":"00m00s","delta_t_seconds":2911,"catalog_number":6682,"source":"NASA Five Millennium Canon of Solar Eclipses","source_url":"https://eclipse.gsfc.nasa.gov/SEsearch/SEsearchmap.php?Ecl=%2B08030524"},{"id":"+08031019","year":803,"month":10,"day":19,"time_tdt":"13:46:27","type":"부분일식","type_code":"P","saros":85,"gamma":-1.07473,"magnitude":0.82637,"greatest":{"lat":-71.15517,"lng":-144.4165},"path_width_km":0,"duration":"00m00s","delta_t_seconds":2907.8,"catalog_number":6683,"source":"NASA Five Millennium Canon of Solar Eclipses","source_url":"https://eclipse.gsfc.nasa.gov/SEsearch/SEsearchmap.php?Ecl=%2B08031019"}],"features":[],"attribution":"Eclipse Predictions by Fred Espenak and Jean Meeus (NASA's GSFC)","generated_at":"2026-09-23T01:44:56.565Z"}
