{"type":"FeatureCollection","year":806,"events":[{"id":"+08060324","year":806,"month":3,"day":24,"time_tdt":"01:12:11","type":"부분일식","type_code":"P","saros":110,"gamma":-1.21108,"magnitude":0.6048,"greatest":{"lat":-71.86336,"lng":-103.17419},"path_width_km":0,"duration":"00m00s","delta_t_seconds":2888.3,"catalog_number":6688,"source":"NASA Five Millennium Canon of Solar Eclipses","source_url":"https://eclipse.gsfc.nasa.gov/SEsearch/SEsearchmap.php?Ecl=%2B08060324"},{"id":"+08060916","year":806,"month":9,"day":16,"time_tdt":"04:28:29","type":"부분일식","type_code":"P","saros":115,"gamma":1.04086,"magnitude":0.92836,"greatest":{"lat":71.98639,"lng":-142.6875},"path_width_km":0,"duration":"00m00s","delta_t_seconds":2884.4,"catalog_number":6689,"source":"NASA Five Millennium Canon of Solar Eclipses","source_url":"https://eclipse.gsfc.nasa.gov/SEsearch/SEsearchmap.php?Ecl=%2B08060916"}],"features":[],"attribution":"Eclipse Predictions by Fred Espenak and Jean Meeus (NASA's GSFC)","generated_at":"2026-09-23T01:44:56.628Z"}
