{"type":"FeatureCollection","year":813,"events":[{"id":"+08130504","year":813,"month":5,"day":4,"time_tdt":"05:01:53","type":"개기일식","type_code":"T","saros":109,"gamma":0.92091,"magnitude":1.06585,"greatest":{"lat":68.60719,"lng":43.45471},"path_width_km":556.4,"duration":"03m34s","delta_t_seconds":2831.5,"catalog_number":6704,"source":"NASA Five Millennium Canon of Solar Eclipses","source_url":"https://eclipse.gsfc.nasa.gov/SEsearch/SEsearchmap.php?Ecl=%2B08130504"},{"id":"+08131028","year":813,"month":10,"day":28,"time_tdt":"02:03:14","type":"부분일식","type_code":"P","saros":114,"gamma":-1.12485,"magnitude":0.74264,"greatest":{"lat":-61.77032,"lng":38.41089},"path_width_km":0,"duration":"00m00s","delta_t_seconds":2827.6,"catalog_number":6705,"source":"NASA Five Millennium Canon of Solar Eclipses","source_url":"https://eclipse.gsfc.nasa.gov/SEsearch/SEsearchmap.php?Ecl=%2B08131028"}],"features":[{"type":"Feature","id":"+08130504:north:0","properties":{"id":"+08130504","year":813,"month":5,"day":4,"time_tdt":"05:01:53","type":"개기일식","type_code":"T","saros":109,"gamma":0.92091,"magnitude":1.06585,"greatest":{"lat":68.60719,"lng":43.45471},"path_width_km":556.4,"duration":"03m34s","delta_t_seconds":2831.5,"catalog_number":6704,"source":"NASA Five Millennium Canon of Solar Eclipses","source_url":"https://eclipse.gsfc.nasa.gov/SEsearch/SEsearchmap.php?Ecl=%2B08130504","boundary":"north","name":"813-05-04 개기일식"},"geometry":{"type":"LineString","coordinates":[[16.125,44.99848],[16.5,45.12629],[17,45.30219],[17.5,45.48454],[18,45.67352],[18.5,45.86935],[19,46.07225],[19.5,46.28245],[20,46.5002],[20.5,46.72577],[21,46.95945],[21.5,47.20154],[22,47.45238],[22.5,47.71232],[23,47.98175],[23.5,48.26108],[24,48.55076],[24.5,48.8513],[25,49.16322],[25.5,49.48712],[26,49.82366],[26.5,50.17356],[27,50.53763],[27.5,50.91677],[28,51.312],[28.5,51.72449],[29,52.15554],[29.5,52.6067],[30,53.07975],[30.5,53.57679],[31,54.10036],[31.5,54.65352],[32,55.24008],[32.5,55.86488],[33,56.53422],[33.5,57.25663],[34,58.04419],[34.5,58.91508],[35,59.89923],[35.5,61.05316],[36,62.51444],[36.5,65.0307],[36.5,67.47319],[36,69.67812],[35.5,70.8375],[35,71.69863],[34.5,72.39877],[34,72.99413],[33.5,73.51436],[33,73.97736],[32.5,74.39496],[32,74.77544],[31.5,75.12488],[31,75.44789],[30.5,75.74807],[30,76.0283],[29.5,76.2909],[29,76.5378],[28.5,76.77063],[28,76.99074],[27.5,77.1993],[27,77.39733],[26.5,77.58569],[26,77.76517],[25.5,77.93642],[25,78.10006],[24.5,78.25662],[24,78.40657],[23.5,78.55035],[23,78.68835],[22.5,78.82092],[22,78.94837],[21.5,79.071],[21,79.18908],[20.5,79.30285],[20,79.41253],[19.5,79.51834],[19,79.62047],[18.5,79.71908],[18,79.81436],[17.5,79.90644],[17,79.99547],[16.5,80.08159],[16,80.16492],[15.5,80.24557],[15,80.32365],[14.5,80.39927],[14,80.47251],[13.5,80.54347],[13,80.61224],[12.5,80.67888],[12,80.74349],[11.5,80.80612],[11,80.86684],[10.5,80.92572],[10,80.98282],[9.5,81.03819],[9,81.09189],[8.5,81.14397],[8,81.19447],[7.5,81.24344],[7,81.29093],[6.5,81.33697],[6,81.38161],[5.5,81.42488],[5,81.46681],[4.5,81.50745],[4,81.54682],[3.5,81.58496],[3,81.62189],[2.5,81.65764],[2,81.69224],[1.5,81.72571],[1,81.75808],[0.5,81.78936],[0,81.81959],[-0.5,81.84878],[-1,81.87696],[-1.5,81.90414],[-2,81.93033],[-2.5,81.95556],[-3,81.97985],[-3.5,82.0032],[-4,82.02564],[-4.5,82.04717],[-5,82.06781],[-5.5,82.08758],[-6,82.10649],[-6.5,82.12454],[-7,82.14174],[-7.5,82.15812],[-8,82.17367],[-8.5,82.18841],[-9,82.20235],[-9.5,82.21548],[-10,82.22783],[-10.5,82.2394],[-11,82.25019],[-11.5,82.26021],[-12,82.26946],[-12.5,82.27796],[-13,82.2857],[-13.5,82.29269],[-14,82.29893],[-14.5,82.30443],[-15,82.30919],[-15.5,82.31321],[-16,82.31649],[-16.5,82.31904],[-17,82.32085],[-17.5,82.32193],[-18,82.32228],[-18.5,82.3219],[-19,82.32078],[-19.5,82.31892],[-20,82.31633],[-20.5,82.31301],[-21,82.30894],[-21.5,82.30413],[-22,82.29858],[-22.5,82.29227],[-23,82.28521],[-23.5,82.2774],[-24,82.26882],[-24.5,82.25947],[-25,82.24935],[-25.5,82.23845],[-26,82.22676],[-26.5,82.21428],[-27,82.20099],[-27.5,82.1869],[-28,82.17198],[-28.5,82.15623],[-29,82.13965],[-29.5,82.12221],[-30,82.10391],[-30.5,82.08473],[-31,82.06467],[-31.5,82.0437],[-32,82.02182],[-32.5,81.99901],[-33,81.97525],[-33.5,81.95053],[-34,81.92482],[-34.5,81.89812],[-35,81.8704],[-35.5,81.84163],[-36,81.81181],[-36.5,81.7809],[-37,81.74887],[-37.5,81.71572],[-38,81.6814],[-38.5,81.6459],[-39,81.60917],[-39.5,81.5712],[-40,81.53194],[-40.5,81.49137],[-41,81.44944],[-41.5,81.40612],[-42,81.36137],[-42.5,81.31514],[-43,81.26739],[-43.5,81.21807],[-44,81.16713],[-44.5,81.11451],[-45,81.06017],[-45.5,81.00404],[-46,80.94604],[-46.5,80.88613],[-47,80.82422],[-47.5,80.76023],[-48,80.69409],[-48.5,80.6257],[-49,80.55497],[-49.5,80.4818],[-50,80.40608],[-50.5,80.32769],[-51,80.24651],[-51.5,80.16239],[-52,80.0752],[-52.5,79.98476],[-53,79.89092],[-53.5,79.79347],[-54,79.69222],[-54.5,79.58693],[-55,79.47736],[-55.5,79.36322],[-56,79.24423],[-56.5,79.12003],[-57,78.99026],[-57.5,78.85448],[-58,78.71222],[-58.5,78.56293],[-59,78.40601],[-59.5,78.24073],[-60,78.06626],[-60.5,77.88166],[-61,77.68576],[-61.5,77.4772],[-62,77.25433],[-62.5,77.0151],[-63,76.75693],[-63.5,76.47653],[-64,76.16952],[-64.5,75.8299],[-65,75.44904],[-65.5,75.01377],[-66,74.50194],[-66.5,73.87065],[-67,73.01036],[-67.06836,72.85927]]}},{"type":"Feature","id":"+08130504:center:0","properties":{"id":"+08130504","year":813,"month":5,"day":4,"time_tdt":"05:01:53","type":"개기일식","type_code":"T","saros":109,"gamma":0.92091,"magnitude":1.06585,"greatest":{"lat":68.60719,"lng":43.45471},"path_width_km":556.4,"duration":"03m34s","delta_t_seconds":2831.5,"catalog_number":6704,"source":"NASA Five Millennium Canon of Solar Eclipses","source_url":"https://eclipse.gsfc.nasa.gov/SEsearch/SEsearchmap.php?Ecl=%2B08130504","boundary":"center","name":"813-05-04 개기일식"},"geometry":{"type":"LineString","coordinates":[[18.60153,42.71472],[18.5,42.83031],[19,42.99374],[19.5,43.16272],[20,43.33739],[20.5,43.51789],[21,43.70438],[21.5,43.89701],[22,44.09596],[22.5,44.3014],[23,44.51352],[23.5,44.73252],[24,44.95861],[24.5,45.192],[25,45.43294],[25.5,45.68166],[26,45.93843],[26.5,46.20353],[27,46.47726],[27.5,46.75993],[28,47.05188],[28.5,47.35347],[29,47.66508],[29.5,47.98715],[30,48.32011],[30.5,48.66445],[31,49.02069],[31.5,49.38941],[32,49.77123],[32.5,50.16684],[33,50.57698],[33.5,51.00248],[34,51.44427],[34.5,51.90336],[35,52.38092],[35.5,52.87825],[36,53.39684],[36.5,53.93841],[37,54.50495],[37.5,55.09882],[38,55.72284],[38.5,56.38042],[39,57.0758],[39.5,57.81437],[40,58.60318],[40.5,59.45181],[41,60.37395],[41.5,61.39044],[42,62.53631],[42.5,63.88001],[43,65.60115],[43,72.56029],[42.5,73.81882],[42,74.71428],[41.5,75.42575],[41,76.02118],[40.5,76.53509],[40,76.98787],[39.5,77.39275],[39,77.75889],[38.5,78.09293],[38,78.39986],[37.5,78.68356],[37,78.9471],[36.5,79.19294],[36,79.42312],[35.5,79.63934],[35,79.84302],[34.5,80.03537],[34,80.21743],[33.5,80.3901],[33,80.55418],[32.5,80.71035],[32,80.85923],[31.5,81.00135],[31,81.13719],[30.5,81.2672],[30,81.39175],[29.5,81.51121],[29,81.62589],[28.5,81.73607],[28,81.84203],[27.5,81.94401],[27,82.04222],[26.5,82.13687],[26,82.22815],[25.5,82.31624],[25,82.40128],[24.5,82.48344],[24,82.56285],[23.5,82.63963],[23,82.71391],[22.5,82.7858],[22,82.8554],[21.5,82.92281],[21,82.98813],[20.5,83.05143],[20,83.1128],[19.5,83.17232],[19,83.23005],[18.5,83.28606],[18,83.34042],[17.5,83.39319],[17,83.44443],[16.5,83.49418],[16,83.54249],[15.5,83.58943],[15,83.63502],[14.5,83.67932],[14,83.72237],[13.5,83.7642],[13,83.80486],[12.5,83.84437],[12,83.88278],[11.5,83.92011],[11,83.95639],[10.5,83.99166],[10,84.02594],[9.5,84.05925],[9,84.09163],[8.5,84.1231],[8,84.15368],[7.5,84.18339],[7,84.21225],[6.5,84.24029],[6,84.26752],[5.5,84.29396],[5,84.31964],[4.5,84.34455],[4,84.36874],[3.5,84.39219],[3,84.41495],[2.5,84.43701],[2,84.45839],[1.5,84.4791],[1,84.49916],[0.5,84.51858],[0,84.53737],[-0.5,84.55554],[-1,84.5731],[-1.5,84.59006],[-2,84.60643],[-2.5,84.62222],[-3,84.63744],[-3.5,84.6521],[-4,84.6662],[-4.5,84.67976],[-5,84.69277],[-5.5,84.70525],[-6,84.71721],[-6.5,84.72864],[-7,84.73956],[-7.5,84.74998],[-8,84.75988],[-8.5,84.76929],[-9,84.77821],[-9.5,84.78663],[-10,84.79458],[-10.5,84.80204],[-11,84.80902],[-11.5,84.81553],[-12,84.82157],[-12.5,84.82714],[-13,84.83224],[-13.5,84.83688],[-14,84.84107],[-14.5,84.84479],[-15,84.84806],[-15.5,84.85087],[-16,84.85323],[-16.5,84.85513],[-17,84.85658],[-17.5,84.85759],[-18,84.85814],[-18.5,84.85824],[-19,84.85788],[-19.5,84.85708],[-20,84.85583],[-20.5,84.85412],[-21,84.85196],[-21.5,84.84935],[-22,84.84628],[-22.5,84.84276],[-23,84.83877],[-23.5,84.83432],[-24,84.82941],[-24.5,84.82404],[-25,84.81819],[-25.5,84.81188],[-26,84.80509],[-26.5,84.79782],[-27,84.79006],[-27.5,84.78182],[-28,84.77309],[-28.5,84.76387],[-29,84.75414],[-29.5,84.74391],[-30,84.73317],[-30.5,84.72191],[-31,84.71013],[-31.5,84.69781],[-32,84.68497],[-32.5,84.67157],[-33,84.65763],[-33.5,84.64313],[-34,84.62806],[-34.5,84.61242],[-35,84.59619],[-35.5,84.57936],[-36,84.56194],[-36.5,84.54389],[-37,84.52523],[-37.5,84.50592],[-38,84.48597],[-38.5,84.46535],[-39,84.44406],[-39.5,84.42208],[-40,84.3994],[-40.5,84.376],[-41,84.35187],[-41.5,84.32698],[-42,84.30134],[-42.5,84.2749],[-43,84.24767],[-43.5,84.21961],[-44,84.1907],[-44.5,84.16093],[-45,84.13028],[-45.5,84.09871],[-46,84.06621],[-46.5,84.03274],[-47,83.99828],[-47.5,83.96281],[-48,83.92628],[-48.5,83.88868],[-49,83.84996],[-49.5,83.81009],[-50,83.76903],[-50.5,83.72675],[-51,83.68321],[-51.5,83.63835],[-52,83.59214],[-52.5,83.54452],[-53,83.49544],[-53.5,83.44485],[-54,83.3927],[-54.5,83.33891],[-55,83.28342],[-55.5,83.22617],[-56,83.16708],[-56.5,83.10607],[-57,83.04306],[-57.5,82.97795],[-58,82.91064],[-58.5,82.84104],[-59,82.76903],[-59.5,82.69449],[-60,82.6173],[-60.5,82.53729],[-61,82.45434],[-61.5,82.36826],[-62,82.27888],[-62.5,82.186],[-63,82.08939],[-63.5,81.98883],[-64,81.88405],[-64.5,81.77476],[-65,81.66063],[-65.5,81.5413],[-66,81.41637],[-66.5,81.28537],[-67,81.1478],[-67.5,81.00305],[-68,80.85044],[-68.5,80.6892],[-69,80.5184],[-69.5,80.33695],[-70,80.14356],[-70.5,79.93666],[-71,79.71433],[-71.5,79.47417],[-72,79.2131],[-72.5,78.92709],[-73,78.61066],[-73.5,78.25605],[-74,77.85164],[-74.5,77.37849],[-75,76.80168],[-75.5,76.0409],[-76,74.76838],[-74.98923,73.47473]]}},{"type":"Feature","id":"+08130504:south:0","properties":{"id":"+08130504","year":813,"month":5,"day":4,"time_tdt":"05:01:53","type":"개기일식","type_code":"T","saros":109,"gamma":0.92091,"magnitude":1.06585,"greatest":{"lat":68.60719,"lng":43.45471},"path_width_km":556.4,"duration":"03m34s","delta_t_seconds":2831.5,"catalog_number":6704,"source":"NASA Five Millennium Canon of Solar Eclipses","source_url":"https://eclipse.gsfc.nasa.gov/SEsearch/SEsearchmap.php?Ecl=%2B08130504","boundary":"south","name":"813-05-04 개기일식"},"geometry":{"type":"LineString","coordinates":[[20.75,40.90276],[21,40.98154],[20.5,40.82521],[21.5,41.14288],[22,41.30932],[22.5,41.481],[23,41.65802],[23.5,41.84052],[24,42.02861],[24.5,42.22244],[25,42.42215],[25.5,42.62788],[26,42.83979],[26.5,43.05803],[27,43.28278],[27.5,43.51421],[28,43.75251],[28.5,43.99786],[29,44.25047],[29.5,44.51056],[30,44.77833],[30.5,45.05404],[31,45.33791],[31.5,45.63022],[32,45.93124],[32.5,46.24124],[33,46.56054],[33.5,46.88946],[34,47.22834],[34.5,47.57753],[35,47.93743],[35.5,48.30843],[36,48.69096],[36.5,49.08549],[37,49.49251],[37.5,49.91254],[38,50.34615],[38.5,50.79395],[39,51.25658],[39.5,51.73475],[40,52.22923],[40.5,52.74084],[41,53.27051],[41.5,53.81922],[42,54.38809],[42.5,54.97834],[43,55.59133],[43.5,56.22863],[44,56.89198],[44.5,57.58344],[45,58.30537],[45.5,59.0606],[46,59.85254],[46.5,60.6854],[47,61.56455],[47.5,62.49703],[48,63.49248],[48.5,64.56487],[49,65.73585],[49.5,67.04288],[50,68.56254],[50.5,70.51628],[50.5,76.71173],[50,77.9722],[49.5,78.81736],[49,79.46847],[48.5,80.00186],[48,80.45465],[47.5,80.84816],[47,81.19595],[46.5,81.50725],[46,81.78868],[45.5,82.04514],[45,82.28042],[44.5,82.49746],[44,82.69864],[43.5,82.88589],[43,83.06081],[42.5,83.22473],[42,83.37877],[41.5,83.52391],[41,83.66098],[40.5,83.79069],[40,83.91367],[39.5,84.03047],[39,84.14159],[38.5,84.24745],[38,84.34844],[37.5,84.44492],[37,84.53718],[36.5,84.62551],[36,84.71017],[35.5,84.79139],[35,84.86937],[34.5,84.94431],[34,85.01639],[33.5,85.08577],[33,85.15259],[32.5,85.21699],[32,85.27911],[31.5,85.33906],[31,85.39694],[30.5,85.45286],[30,85.50692],[29.5,85.5592],[29,85.60978],[28.5,85.65874],[28,85.70615],[27.5,85.75207],[27,85.79659],[26.5,85.83974],[26,85.88159],[25.5,85.92218],[25,85.96158],[24.5,85.99982],[24,86.03695],[23.5,86.07301],[23,86.10804],[22.5,86.14208],[22,86.17517],[21.5,86.20733],[21,86.23859],[20.5,86.269],[20,86.29857],[19.5,86.32734],[19,86.35533],[18.5,86.38256],[18,86.40907],[17.5,86.43486],[17,86.45997],[16.5,86.48441],[16,86.5082],[15.5,86.53136],[15,86.55392],[14.5,86.57587],[14,86.59726],[13.5,86.61807],[13,86.63835],[12.5,86.65809],[12,86.67731],[11.5,86.69602],[11,86.71424],[10.5,86.73198],[10,86.74925],[9.5,86.76606],[9,86.78242],[8.5,86.79834],[8,86.81384],[7.5,86.82892],[7,86.84359],[6.5,86.85785],[6,86.87173],[5.5,86.88521],[5,86.89833],[4.5,86.91107],[4,86.92345],[3.5,86.93547],[3,86.94715],[2.5,86.95848],[2,86.96948],[1.5,86.98014],[1,86.99048],[0.5,87.0005],[0,87.0102],[-0.5,87.01959],[-1,87.02868],[-1.5,87.03747],[-2,87.04596],[-2.5,87.05416],[-3,87.06207],[-3.5,87.0697],[-4,87.07704],[-4.5,87.08411],[-5,87.09091],[-5.5,87.09743],[-6,87.10369],[-6.5,87.10968],[-7,87.11541],[-7.5,87.12088],[-8,87.12609],[-8.5,87.13105],[-9,87.13576],[-9.5,87.14022],[-10,87.14443],[-10.5,87.14839],[-11,87.15211],[-11.5,87.15558],[-12,87.15882],[-12.5,87.16181],[-13,87.16457],[-13.5,87.16708],[-14,87.16937],[-14.5,87.17141],[-15,87.17323],[-15.5,87.1748],[-16,87.17615],[-16.5,87.17726],[-17,87.17815],[-17.5,87.1788],[-18,87.17922],[-18.5,87.1794],[-19,87.17936],[-19.5,87.17909],[-20,87.17858],[-20.5,87.17784],[-21,87.17688],[-21.5,87.17568],[-22,87.17424],[-22.5,87.17258],[-23,87.17068],[-23.5,87.16854],[-24,87.16617],[-24.5,87.16356],[-25,87.16072],[-25.5,87.15763],[-26,87.1543],[-26.5,87.15073],[-27,87.14692],[-27.5,87.14286],[-28,87.13856],[-28.5,87.13401],[-29,87.1292],[-29.5,87.12414],[-30,87.11882],[-30.5,87.11325],[-31,87.10742],[-31.5,87.10132],[-32,87.09495],[-32.5,87.08832],[-33,87.08141],[-33.5,87.07423],[-34,87.06676],[-34.5,87.05902],[-35,87.05098],[-35.5,87.04266],[-36,87.03404],[-36.5,87.02512],[-37,87.0159],[-37.5,87.00637],[-38,86.99652],[-38.5,86.98636],[-39,86.97587],[-39.5,86.96506],[-40,86.95391],[-40.5,86.94241],[-41,86.93057],[-41.5,86.91838],[-42,86.90582],[-42.5,86.8929],[-43,86.8796],[-43.5,86.86592],[-44,86.85185],[-44.5,86.83738],[-45,86.8225],[-45.5,86.8072],[-46,86.79148],[-46.5,86.77532],[-47,86.75872],[-47.5,86.74166],[-48,86.72413],[-48.5,86.70612],[-49,86.68761],[-49.5,86.66861],[-50,86.64909],[-50.5,86.62903],[-51,86.60843],[-51.5,86.58727],[-52,86.56553],[-52.5,86.5432],[-53,86.52026],[-53.5,86.49669],[-54,86.47247],[-54.5,86.44759],[-55,86.42202],[-55.5,86.39574],[-56,86.36873],[-56.5,86.34096],[-57,86.31241],[-57.5,86.28306],[-58,86.25286],[-58.5,86.22181],[-59,86.18985],[-59.5,86.15697],[-60,86.12313],[-60.5,86.08828],[-61,86.0524],[-61.5,86.01544],[-62,85.97735],[-62.5,85.9381],[-63,85.89763],[-63.5,85.85589],[-64,85.81283],[-64.5,85.76839],[-65,85.72251],[-65.5,85.67511],[-66,85.62613],[-66.5,85.57549],[-67,85.52311],[-67.5,85.4689],[-68,85.41277],[-68.5,85.35461],[-69,85.29431],[-69.5,85.23176],[-70,85.16682],[-70.5,85.09936],[-71,85.02921],[-71.5,84.95622],[-72,84.88019],[-72.5,84.80093],[-73,84.71821],[-73.5,84.63178],[-74,84.54138],[-74.5,84.4467],[-75,84.34739],[-75.5,84.24307],[-76,84.1333],[-76.5,84.01759],[-77,83.89538],[-77.5,83.76601],[-78,83.62871],[-78.5,83.48261],[-79,83.32665],[-79.5,83.15955],[-80,82.9798],[-80.5,82.78548],[-81,82.57423],[-81.5,82.34298],[-82,82.08769],[-82.5,81.80284],[-83,81.48052],[-83.5,81.10873],[-84,80.66763],[-84.5,80.11966],[-85,79.37401],[-85.5,77.97391],[-85.5,75.98853],[-85,74.21131],[-84.5,73.09257]]}}],"attribution":"Eclipse Predictions by Fred Espenak and Jean Meeus (NASA's GSFC)","generated_at":"2026-09-23T01:44:57.119Z"}
