{"type":"FeatureCollection","year":815,"events":[{"id":"+08150314","year":815,"month":3,"day":14,"time_tdt":"22:15:01","type":"금환일식","type_code":"A","saros":91,"gamma":-0.21282,"magnitude":0.96841,"greatest":{"lat":-11.65177,"lng":-133.74707},"path_width_km":115.9,"duration":"03m15s","delta_t_seconds":2816.7,"catalog_number":6708,"source":"NASA Five Millennium Canon of Solar Eclipses","source_url":"https://eclipse.gsfc.nasa.gov/SEsearch/SEsearchmap.php?Ecl=%2B08150314"},{"id":"+08150907","year":815,"month":9,"day":7,"time_tdt":"03:50:18","type":"개기일식","type_code":"T","saros":96,"gamma":0.30027,"magnitude":1.05224,"greatest":{"lat":20.27959,"lng":142.06732},"path_width_km":180.5,"duration":"04m14s","delta_t_seconds":2812.8,"catalog_number":6709,"source":"NASA Five Millennium Canon of Solar Eclipses","source_url":"https://eclipse.gsfc.nasa.gov/SEsearch/SEsearchmap.php?Ecl=%2B08150907"}],"features":[{"type":"Feature","id":"+08150314:north:0","properties":{"id":"+08150314","year":815,"month":3,"day":14,"time_tdt":"22:15:01","type":"금환일식","type_code":"A","saros":91,"gamma":-0.21282,"magnitude":0.96841,"greatest":{"lat":-11.65177,"lng":-133.74707},"path_width_km":115.9,"duration":"03m15s","delta_t_seconds":2816.7,"catalog_number":6708,"source":"NASA Five Millennium Canon of Solar Eclipses","source_url":"https://eclipse.gsfc.nasa.gov/SEsearch/SEsearchmap.php?Ecl=%2B08150314","boundary":"north","name":"815-03-14 금환일식"},"geometry":{"type":"LineString","coordinates":[[157.27734,-40.99548],[157.5,-40.99968],[158,-41.00794],[158.5,-41.01455],[159,-41.01949],[159.5,-41.02276],[160,-41.02434],[160.5,-41.02422],[161,-41.02239],[161.5,-41.01883],[162,-41.01352],[162.5,-41.00646],[163,-40.99763],[163.5,-40.98702],[164,-40.9746],[164.5,-40.96036],[165,-40.9443],[165.5,-40.92638],[166,-40.9066],[166.5,-40.88493],[167,-40.86137],[167.5,-40.83589],[168,-40.80847],[168.5,-40.7791],[169,-40.74775],[169.5,-40.71441],[170,-40.67905],[170.5,-40.64167],[171,-40.60222],[171.5,-40.5607],[172,-40.51708],[172.5,-40.47134],[173,-40.42345],[173.5,-40.3734],[174,-40.32115],[174.5,-40.26668],[175,-40.20996],[175.5,-40.15098],[176,-40.08969],[176.5,-40.02608],[177,-39.96012],[177.5,-39.89177],[178,-39.82101],[178.5,-39.7478],[179,-39.67211],[179.5,-39.59391],[180,-39.51317]]}},{"type":"Feature","id":"+08150314:north:1","properties":{"id":"+08150314","year":815,"month":3,"day":14,"time_tdt":"22:15:01","type":"금환일식","type_code":"A","saros":91,"gamma":-0.21282,"magnitude":0.96841,"greatest":{"lat":-11.65177,"lng":-133.74707},"path_width_km":115.9,"duration":"03m15s","delta_t_seconds":2816.7,"catalog_number":6708,"source":"NASA Five Millennium Canon of Solar Eclipses","source_url":"https://eclipse.gsfc.nasa.gov/SEsearch/SEsearchmap.php?Ecl=%2B08150314","boundary":"north","name":"815-03-14 금환일식"},"geometry":{"type":"LineString","coordinates":[[-179.5,-39.42984],[-179,-39.3439],[-178.5,-39.25531],[-178,-39.16404],[-177.5,-39.07003],[-177,-38.97325],[-176.5,-38.87367],[-176,-38.77123],[-175.5,-38.6659],[-175,-38.55762],[-174.5,-38.44636],[-174,-38.33207],[-173.5,-38.21469],[-173,-38.09418],[-172.5,-37.97048],[-172,-37.84355],[-171.5,-37.71331],[-171,-37.57973],[-170.5,-37.44273],[-170,-37.30227],[-169.5,-37.15826],[-169,-37.01066],[-168.5,-36.85939],[-168,-36.70439],[-167.5,-36.54558],[-167,-36.3829],[-166.5,-36.21625],[-166,-36.04558],[-165.5,-35.87079],[-165,-35.6918],[-164.5,-35.50852],[-164,-35.32088],[-163.5,-35.12877],[-163,-34.9321],[-162.5,-34.73077],[-162,-34.52468],[-161.5,-34.31372],[-161,-34.09779],[-160.5,-33.87678],[-160,-33.65056],[-159.5,-33.41903],[-159,-33.18204],[-158.5,-32.93949],[-158,-32.69123],[-157.5,-32.43712],[-157,-32.17704],[-156.5,-31.91083],[-156,-31.63834],[-155.5,-31.35943],[-155,-31.07392],[-154.5,-30.78166],[-154,-30.48248],[-153.5,-30.1762],[-153,-29.86266],[-152.5,-29.54166],[-152,-29.21302],[-151.5,-28.87655],[-151,-28.53206],[-150.5,-28.17935],[-150,-27.81822],[-149.5,-27.44846],[-149,-27.06989],[-148.5,-26.68228],[-148,-26.28544],[-147.5,-25.87916],[-147,-25.46325],[-146.5,-25.03751],[-146,-24.60176],[-145.5,-24.15581],[-145,-23.6995],[-144.5,-23.23267],[-144,-22.75521],[-143.5,-22.26698],[-143,-21.76791],[-142.5,-21.25793],[-142,-20.73704],[-141.5,-20.20523],[-141,-19.66259],[-140.5,-19.10922],[-140,-18.5453],[-139.5,-17.97106],[-139,-17.38681],[-138.5,-16.79291],[-138,-16.18982],[-137.5,-15.57808],[-137,-14.95829],[-136.5,-14.33116],[-136,-13.69745],[-135.5,-13.05802],[-135,-12.41378],[-134.5,-11.76574],[-134,-11.11492],[-133.5,-10.46241],[-133,-9.80931],[-132.5,-9.15675],[-132,-8.50585],[-131.5,-7.85771],[-131,-7.21341],[-130.5,-6.57398],[-130,-5.9404],[-129.5,-5.31357],[-129,-4.69434],[-128.5,-4.08347],[-128,-3.48162],[-127.5,-2.88941],[-127,-2.30732],[-126.5,-1.7358],[-126,-1.17519],[-125.5,-0.62577],[-125,-0.08774],[-124.5,0.43875],[-124,0.95361],[-123.5,1.45682],[-123,1.94837],[-122.5,2.42833],[-122,2.89677],[-121.5,3.35381],[-121,3.7996],[-120.5,4.23428],[-120,4.65805],[-119.5,5.07108],[-119,5.47359],[-118.5,5.86578],[-118,6.24788],[-117.5,6.62009],[-117,6.98264],[-116.5,7.33576],[-116,7.67966],[-115.5,8.01457],[-115,8.34071],[-114.5,8.65829],[-114,8.96752],[-113.5,9.26861],[-113,9.56176],[-112.5,9.84718],[-112,10.12505],[-111.5,10.39556],[-111,10.6589],[-110.5,10.91525],[-110,11.16477],[-109.5,11.40764],[-109,11.64401],[-108.5,11.87405],[-108,12.09791],[-107.5,12.31573],[-107,12.52766],[-106.5,12.73383],[-106,12.93439],[-105.5,13.12945],[-105,13.31915],[-104.5,13.5036],[-104,13.68293],[-103.5,13.85724],[-103,14.02665],[-102.5,14.19126],[-102,14.35117],[-101.5,14.50649],[-101,14.6573],[-100.5,14.80371],[-100,14.9458],[-99.5,15.08366],[-99,15.21737],[-98.5,15.34701],[-98,15.47267],[-97.5,15.59442],[-97,15.71233],[-96.5,15.82648],[-96,15.93694],[-95.5,16.04377],[-95,16.14704],[-94.5,16.24681],[-94,16.34314],[-93.5,16.4361],[-93,16.52574],[-92.5,16.61211],[-92,16.69529],[-91.5,16.7753],[-91,16.85222],[-90.5,16.92608],[-90,16.99694],[-89.5,17.06484],[-89,17.12983],[-88.5,17.19196],[-88,17.25127],[-87.5,17.3078],[-87,17.36159],[-86.5,17.41268],[-86,17.46112],[-85.5,17.50694],[-85,17.55017],[-84.5,17.59086],[-84,17.62904],[-83.5,17.66474],[-83,17.698],[-82.5,17.72885],[-82,17.75732],[-81.5,17.78345],[-81,17.80726],[-80.5,17.82878],[-80,17.84805],[-79.5,17.86509],[-79,17.87993],[-78.5,17.89259],[-78.07812,17.90161]]}},{"type":"Feature","id":"+08150314:center:0","properties":{"id":"+08150314","year":815,"month":3,"day":14,"time_tdt":"22:15:01","type":"금환일식","type_code":"A","saros":91,"gamma":-0.21282,"magnitude":0.96841,"greatest":{"lat":-11.65177,"lng":-133.74707},"path_width_km":115.9,"duration":"03m15s","delta_t_seconds":2816.7,"catalog_number":6708,"source":"NASA Five Millennium Canon of Solar Eclipses","source_url":"https://eclipse.gsfc.nasa.gov/SEsearch/SEsearchmap.php?Ecl=%2B08150314","boundary":"center","name":"815-03-14 금환일식"},"geometry":{"type":"LineString","coordinates":[[157.18922,-41.82625],[157.5,-41.80011],[158,-41.80621],[158.5,-41.81069],[159,-41.81351],[159.5,-41.81466],[160,-41.81415],[160.5,-41.81194],[161,-41.80804],[161.5,-41.80242],[162,-41.79507],[162.5,-41.78598],[163,-41.77513],[163.5,-41.76251],[164,-41.74811],[164.5,-41.7319],[165,-41.71388],[165.5,-41.69402],[166,-41.67232],[166.5,-41.64875],[167,-41.62329],[167.5,-41.59594],[168,-41.56667],[168.5,-41.53546],[169,-41.50229],[169.5,-41.46715],[170,-41.43001],[170.5,-41.39086],[171,-41.34967],[171.5,-41.30643],[172,-41.26111],[172.5,-41.21368],[173,-41.16413],[173.5,-41.11244],[174,-41.05857],[174.5,-41.0025],[175,-40.94422],[175.5,-40.88368],[176,-40.82087],[176.5,-40.75576],[177,-40.68832],[177.5,-40.61851],[178,-40.54632],[178.5,-40.47171],[179,-40.39465],[179.5,-40.3151],[180,-40.23303]]}},{"type":"Feature","id":"+08150314:center:1","properties":{"id":"+08150314","year":815,"month":3,"day":14,"time_tdt":"22:15:01","type":"금환일식","type_code":"A","saros":91,"gamma":-0.21282,"magnitude":0.96841,"greatest":{"lat":-11.65177,"lng":-133.74707},"path_width_km":115.9,"duration":"03m15s","delta_t_seconds":2816.7,"catalog_number":6708,"source":"NASA Five Millennium Canon of Solar Eclipses","source_url":"https://eclipse.gsfc.nasa.gov/SEsearch/SEsearchmap.php?Ecl=%2B08150314","boundary":"center","name":"815-03-14 금환일식"},"geometry":{"type":"LineString","coordinates":[[-179.5,-40.14842],[-179,-40.06122],[-178.5,-39.97139],[-178,-39.87891],[-177.5,-39.78373],[-177,-39.68581],[-176.5,-39.58512],[-176,-39.4816],[-175.5,-39.37523],[-175,-39.26595],[-174.5,-39.15371],[-174,-39.03848],[-173.5,-38.92021],[-173,-38.79883],[-172.5,-38.67431],[-172,-38.54659],[-171.5,-38.41562],[-171,-38.28133],[-170.5,-38.14368],[-170,-38.0026],[-169.5,-37.85803],[-169,-37.70991],[-168.5,-37.55817],[-168,-37.40275],[-167.5,-37.24357],[-167,-37.08056],[-166.5,-36.91365],[-166,-36.74277],[-165.5,-36.56783],[-165,-36.38875],[-164.5,-36.20544],[-164,-36.01783],[-163.5,-35.82581],[-163,-35.62931],[-162.5,-35.42821],[-162,-35.22242],[-161.5,-35.01184],[-161,-34.79637],[-160.5,-34.57588],[-160,-34.35028],[-159.5,-34.11943],[-159,-33.88323],[-158.5,-33.64155],[-158,-33.39425],[-157.5,-33.14121],[-157,-32.88228],[-156.5,-32.61733],[-156,-32.3462],[-155.5,-32.06876],[-155,-31.78484],[-154.5,-31.49427],[-154,-31.19691],[-153.5,-30.89258],[-153,-30.5811],[-152.5,-30.2623],[-152,-29.93599],[-151.5,-29.60199],[-151,-29.26011],[-150.5,-28.91016],[-150,-28.55193],[-149.5,-28.18523],[-149,-27.80986],[-148.5,-27.42561],[-148,-27.03228],[-147.5,-26.62968],[-147,-26.2176],[-146.5,-25.79585],[-146,-25.36423],[-145.5,-24.92257],[-145,-24.4707],[-144.5,-24.00846],[-144,-23.53571],[-143.5,-23.05231],[-143,-22.55818],[-142.5,-22.05325],[-142,-21.53746],[-141.5,-21.01083],[-141,-20.47338],[-140.5,-19.92522],[-140,-19.36647],[-139.5,-18.79734],[-139,-18.21809],[-138.5,-17.62906],[-138,-17.03066],[-137.5,-16.42337],[-137,-15.80777],[-136.5,-15.18449],[-136,-14.55427],[-135.5,-13.91791],[-135,-13.27631],[-134.5,-12.63041],[-134,-11.98121],[-133.5,-11.32979],[-133,-10.67722],[-132.5,-10.02463],[-132,-9.37314],[-131.5,-8.72386],[-131,-8.07789],[-130.5,-7.43629],[-130,-6.80006],[-129.5,-6.17015],[-129,-5.54744],[-128.5,-4.93274],[-128,-4.32677],[-127.5,-3.73017],[-127,-3.1435],[-126.5,-2.56723],[-126,-2.00175],[-125.5,-1.44738],[-125,-0.90436],[-124.5,-0.37287],[-124,0.14697],[-123.5,0.6551],[-123,1.1515],[-122.5,1.63622],[-122,2.10931],[-121.5,2.57087],[-121,3.02104],[-120.5,3.45997],[-120,3.88782],[-119.5,4.30478],[-119,4.71105],[-118.5,5.10685],[-118,5.49237],[-117.5,5.86785],[-117,6.23351],[-116.5,6.58956],[-116,6.93624],[-115.5,7.27377],[-115,7.60237],[-114.5,7.92226],[-114,8.23365],[-113.5,8.53676],[-113,8.83179],[-112.5,9.11894],[-112,9.39842],[-111.5,9.67041],[-111,9.9351],[-110.5,10.19267],[-110,10.44331],[-109.5,10.68717],[-109,10.92444],[-108.5,11.15526],[-108,11.3798],[-107.5,11.5982],[-107,11.81062],[-106.5,12.01719],[-106,12.21805],[-105.5,12.41333],[-105,12.60317],[-104.5,12.78768],[-104,12.96699],[-103.5,13.14121],[-103,13.31045],[-102.5,13.47483],[-102,13.63444],[-101.5,13.78939],[-101,13.93978],[-100.5,14.0857],[-100,14.22724],[-99.5,14.3645],[-99,14.49755],[-98.5,14.62649],[-98,14.75139],[-97.5,14.87233],[-97,14.98939],[-96.5,15.10264],[-96,15.21215],[-95.5,15.31799],[-95,15.42023],[-94.5,15.51893],[-94,15.61415],[-93.5,15.70597],[-93,15.79442],[-92.5,15.87958],[-92,15.9615],[-91.5,16.04024],[-91,16.11583],[-90.5,16.18835],[-90,16.25783],[-89.5,16.32433],[-89,16.38789],[-88.5,16.44856],[-88,16.50638],[-87.5,16.5614],[-87,16.61365],[-86.5,16.66319],[-86,16.71004],[-85.5,16.75426],[-85,16.79586],[-84.5,16.8349],[-84,16.87142],[-83.5,16.90543],[-83,16.93698],[-82.5,16.96611],[-82,16.99284],[-81.5,17.01721],[-81,17.03924],[-80.5,17.05898],[-80,17.07644],[-79.5,17.09165],[-79,17.10466],[-78.5,17.11547],[-78,17.12413],[-77.98826,17.13029]]}},{"type":"Feature","id":"+08150314:south:0","properties":{"id":"+08150314","year":815,"month":3,"day":14,"time_tdt":"22:15:01","type":"금환일식","type_code":"A","saros":91,"gamma":-0.21282,"magnitude":0.96841,"greatest":{"lat":-11.65177,"lng":-133.74707},"path_width_km":115.9,"duration":"03m15s","delta_t_seconds":2816.7,"catalog_number":6708,"source":"NASA Five Millennium Canon of Solar Eclipses","source_url":"https://eclipse.gsfc.nasa.gov/SEsearch/SEsearchmap.php?Ecl=%2B08150314","boundary":"south","name":"815-03-14 금환일식"},"geometry":{"type":"LineString","coordinates":[[157.5,-42.60208],[158,-42.60607],[158.5,-42.60843],[159,-42.60915],[159.5,-42.60822],[160,-42.60563],[160.5,-42.60137],[161,-42.59542],[161.5,-42.58777],[162,-42.5784],[162.5,-42.56731],[163,-42.55447],[163.5,-42.53988],[164,-42.52352],[164.5,-42.50537],[165,-42.48542],[165.5,-42.46366],[166,-42.44006],[166.5,-42.41461],[167,-42.3873],[167.5,-42.3581],[168,-42.327],[168.5,-42.29398],[169,-42.25903],[169.5,-42.22212],[170,-42.18323],[170.5,-42.14234],[171,-42.09944],[171.5,-42.05451],[172,-42.00751],[172.5,-41.95843],[173,-41.90725],[173.5,-41.85394],[174,-41.79849],[174.5,-41.74086],[175,-41.68102],[175.5,-41.61897],[176,-41.55466],[176.5,-41.48807],[177,-41.41918],[177.5,-41.34795],[178,-41.27436],[178.5,-41.19838],[179,-41.11996],[179.5,-41.0391],[180,-40.95574]]}},{"type":"Feature","id":"+08150314:south:1","properties":{"id":"+08150314","year":815,"month":3,"day":14,"time_tdt":"22:15:01","type":"금환일식","type_code":"A","saros":91,"gamma":-0.21282,"magnitude":0.96841,"greatest":{"lat":-11.65177,"lng":-133.74707},"path_width_km":115.9,"duration":"03m15s","delta_t_seconds":2816.7,"catalog_number":6708,"source":"NASA Five Millennium Canon of Solar Eclipses","source_url":"https://eclipse.gsfc.nasa.gov/SEsearch/SEsearchmap.php?Ecl=%2B08150314","boundary":"south","name":"815-03-14 금환일식"},"geometry":{"type":"LineString","coordinates":[[-179.5,-40.86986],[-179,-40.78142],[-178.5,-40.69039],[-178,-40.59673],[-177.5,-40.5004],[-177,-40.40136],[-176.5,-40.29958],[-176,-40.19502],[-175.5,-40.08762],[-175,-39.97735],[-174.5,-39.86417],[-174,-39.74803],[-173.5,-39.62887],[-173,-39.50665],[-172.5,-39.38133],[-172,-39.25285],[-171.5,-39.12115],[-171,-38.98618],[-170.5,-38.84789],[-170,-38.70622],[-169.5,-38.5611],[-169,-38.41247],[-168.5,-38.26027],[-168,-38.10444],[-167.5,-37.9449],[-167,-37.78159],[-166.5,-37.61442],[-166,-37.44334],[-165.5,-37.26825],[-165,-37.08908],[-164.5,-36.90575],[-164,-36.71817],[-163.5,-36.52626],[-163,-36.32991],[-162.5,-36.12904],[-162,-35.92355],[-161.5,-35.71335],[-161,-35.49832],[-160.5,-35.27835],[-160,-35.05335],[-159.5,-34.82319],[-159,-34.58775],[-158.5,-34.34692],[-158,-34.10057],[-157.5,-33.84856],[-157,-33.59077],[-156.5,-33.32705],[-156,-33.05726],[-155.5,-32.78125],[-155,-32.49888],[-154.5,-32.20999],[-154,-31.91439],[-153.5,-31.61196],[-153,-31.3025],[-152.5,-30.98585],[-152,-30.66182],[-151.5,-30.33024],[-151,-29.99091],[-150.5,-29.64364],[-150,-29.28825],[-149.5,-28.92454],[-149,-28.5523],[-148.5,-28.17133],[-148,-27.78145],[-147.5,-27.38244],[-147,-26.97411],[-146.5,-26.55626],[-146,-26.12871],[-145.5,-25.69126],[-145,-25.24375],[-144.5,-24.786],[-144,-24.31788],[-143.5,-23.83925],[-143,-23.34999],[-142.5,-22.85003],[-142,-22.33931],[-141.5,-21.8178],[-141,-21.28552],[-140.5,-20.74253],[-140,-20.18895],[-139.5,-19.62494],[-139,-19.05074],[-138.5,-18.46663],[-138,-17.87299],[-137.5,-17.27025],[-137,-16.65895],[-136.5,-16.03967],[-136,-15.41311],[-135.5,-14.78003],[-135,-14.14126],[-134.5,-13.49773],[-134,-12.85041],[-133.5,-12.20032],[-133,-11.54854],[-132.5,-10.89618],[-132,-10.24436],[-131.5,-9.59419],[-131,-8.94679],[-130.5,-8.30322],[-130,-7.66454],[-129.5,-7.03172],[-129,-6.40569],[-128.5,-5.78729],[-128,-5.17729],[-127.5,-4.57638],[-127,-3.98516],[-126.5,-3.40416],[-126,-2.8338],[-125.5,-2.27446],[-125,-1.7264],[-124.5,-1.18986],[-124,-0.66497],[-123.5,-0.15183],[-123,0.34953],[-122.5,0.83911],[-122,1.31696],[-121.5,1.78317],[-121,2.23785],[-120.5,2.68114],[-120,3.1132],[-119.5,3.53422],[-119,3.94438],[-118.5,4.3439],[-118,4.73298],[-117.5,5.11185],[-117,5.48073],[-116.5,5.83984],[-116,6.18941],[-115.5,6.52966],[-115,6.86083],[-114.5,7.18313],[-114,7.49678],[-113.5,7.80199],[-113,8.09898],[-112.5,8.38796],[-112,8.66912],[-111.5,8.94266],[-111,9.20878],[-110.5,9.46765],[-110,9.71946],[-109.5,9.96439],[-109,10.2026],[-108.5,10.43426],[-108,10.65954],[-107.5,10.87857],[-107,11.09152],[-106.5,11.29853],[-106,11.49974],[-105.5,11.69529],[-105,11.8853],[-104.5,12.0699],[-104,12.24923],[-103.5,12.42338],[-103,12.59249],[-102.5,12.75666],[-102,12.91599],[-101.5,13.0706],[-101,13.22058],[-100.5,13.36603],[-100,13.50705],[-99.5,13.64372],[-99,13.77613],[-98.5,13.90437],[-98,14.02852],[-97.5,14.14867],[-97,14.26488],[-96.5,14.37724],[-96,14.48581],[-95.5,14.59067],[-95,14.69188],[-94.5,14.78951],[-94,14.88363],[-93.5,14.9743],[-93,15.06158],[-92.5,15.14553],[-92,15.22619],[-91.5,15.30364],[-91,15.37792],[-90.5,15.44909],[-90,15.5172],[-89.5,15.58229],[-89,15.64441],[-88.5,15.70361],[-88,15.75994],[-87.5,15.81344],[-87,15.86416],[-86.5,15.91213],[-86,15.95739],[-85.5,15.99999],[-85,16.03997],[-84.5,16.07735],[-84,16.11219],[-83.5,16.14451],[-83,16.17435],[-82.5,16.20174],[-82,16.22672],[-81.5,16.24932],[-81,16.26957],[-80.5,16.2875],[-80,16.30314],[-79.5,16.31653],[-79,16.32769],[-78.5,16.33664],[-78,16.34342],[-77.88477,16.34468]]}},{"type":"Feature","id":"+08150907:north:0","properties":{"id":"+08150907","year":815,"month":9,"day":7,"time_tdt":"03:50:18","type":"개기일식","type_code":"T","saros":96,"gamma":0.30027,"magnitude":1.05224,"greatest":{"lat":20.27959,"lng":142.06732},"path_width_km":180.5,"duration":"04m14s","delta_t_seconds":2812.8,"catalog_number":6709,"source":"NASA Five Millennium Canon of Solar Eclipses","source_url":"https://eclipse.gsfc.nasa.gov/SEsearch/SEsearchmap.php?Ecl=%2B08150907","boundary":"north","name":"815-09-07 개기일식"},"geometry":{"type":"LineString","coordinates":[[62.60742,46.76173],[63,46.79701],[63.5,46.84061],[64,46.88273],[64.5,46.92336],[65,46.96249],[65.5,47.00011],[66,47.03621],[66.5,47.0708],[67,47.10386],[67.5,47.13538],[68,47.16536],[68.5,47.1938],[69,47.22068],[69.5,47.24599],[70,47.26973],[70.5,47.2919],[71,47.31247],[71.5,47.33145],[72,47.34883],[72.5,47.3646],[73,47.37874],[73.5,47.39125],[74,47.40212],[74.5,47.41135],[75,47.41891],[75.5,47.42481],[76,47.42903],[76.5,47.43156],[77,47.4324],[77.5,47.43152],[78,47.42893],[78.5,47.4246],[79,47.41853],[79.5,47.4107],[80,47.40111],[80.5,47.38973],[81,47.37657],[81.5,47.3616],[82,47.34481],[82.5,47.32619],[83,47.30572],[83.5,47.2834],[84,47.2592],[84.5,47.2331],[85,47.20511],[85.5,47.17519],[86,47.14333],[86.5,47.10952],[87,47.07374],[87.5,47.03596],[88,46.99618],[88.5,46.95438],[89,46.91053],[89.5,46.86461],[90,46.81661],[90.5,46.76651],[91,46.71428],[91.5,46.6599],[92,46.60335],[92.5,46.54461],[93,46.48365],[93.5,46.42046],[94,46.35499],[94.5,46.28724],[95,46.21717],[95.5,46.14476],[96,46.06998],[96.5,45.99279],[97,45.91318],[97.5,45.83111],[98,45.74656],[98.5,45.65948],[99,45.56985],[99.5,45.47764],[100,45.3828],[100.5,45.28532],[101,45.18514],[101.5,45.08223],[102,44.97656],[102.5,44.86808],[103,44.75676],[103.5,44.64255],[104,44.52541],[104.5,44.4053],[105,44.28217],[105.5,44.15598],[106,44.02668],[106.5,43.89421],[107,43.75854],[107.5,43.61961],[108,43.47736],[108.5,43.33174],[109,43.18269],[109.5,43.03017],[110,42.8741],[110.5,42.71442],[111,42.55109],[111.5,42.38402],[112,42.21315],[112.5,42.03842],[113,41.85975],[113.5,41.67708],[114,41.49033],[114.5,41.29942],[115,41.10427],[115.5,40.90481],[116,40.70096],[116.5,40.49262],[117,40.27971],[117.5,40.06215],[118,39.83983],[118.5,39.61268],[119,39.38059],[119.5,39.14346],[120,38.90119],[120.5,38.65368],[121,38.40083],[121.5,38.14253],[122,37.87867],[122.5,37.60913],[123,37.33381],[123.5,37.05258],[124,36.76534],[124.5,36.47196],[125,36.17232],[125.5,35.8663],[126,35.55377],[126.5,35.23463],[127,34.90873],[127.5,34.57597],[128,34.23621],[128.5,33.88934],[129,33.53524],[129.5,33.17379],[130,32.80488],[130.5,32.42841],[131,32.04426],[131.5,31.65235],[132,31.25259],[132.5,30.84489],[133,30.42919],[133.5,30.00543],[134,29.57358],[134.5,29.1336],[135,28.68548],[135.5,28.22924],[136,27.76491],[136.5,27.29255],[137,26.81224],[137.5,26.32409],[138,25.82825],[138.5,25.32488],[139,24.81421],[139.5,24.29647],[140,23.77195],[140.5,23.24098],[141,22.7039],[141.5,22.16114],[142,21.61311],[142.5,21.06031],[143,20.50325],[143.5,19.94247],[144,19.37854],[144.5,18.81208],[145,18.24372],[145.5,17.67408],[146,17.10384],[146.5,16.53366],[147,15.9642],[147.5,15.39612],[148,14.83007],[148.5,14.26669],[149,13.70659],[149.5,13.15035],[150,12.59855],[150.5,12.05171],[151,11.51031],[151.5,10.97481],[152,10.44564],[152.5,9.92315],[153,9.4077],[153.5,8.89957],[154,8.39904],[154.5,7.9063],[155,7.42157],[155.5,6.94497],[156,6.47664],[156.5,6.01667],[157,5.56512],[157.5,5.12202],[158,4.6874],[158.5,4.26124],[159,3.84352],[159.5,3.4342],[160,3.03323],[160.5,2.64053],[161,2.25602],[161.5,1.87962],[162,1.51123],[162.5,1.15074],[163,0.79804],[163.5,0.45302],[164,0.11556],[164.5,-0.21447],[165,-0.53719],[165.5,-0.85273],[166,-1.16121],[166.5,-1.46275],[167,-1.7575],[167.5,-2.04557],[168,-2.32708],[168.5,-2.60217],[169,-2.87095],[169.5,-3.13355],[170,-3.39009],[170.5,-3.64068],[171,-3.88544],[171.5,-4.12449],[172,-4.35793],[172.5,-4.58587],[173,-4.80842],[173.5,-5.02569],[174,-5.23778],[174.5,-5.44478],[175,-5.64679],[175.5,-5.84391],[176,-6.03623],[176.5,-6.22384],[177,-6.40683],[177.5,-6.58528],[178,-6.75928],[178.5,-6.92891],[179,-7.09424],[179.5,-7.25536],[180,-7.41234]]}},{"type":"Feature","id":"+08150907:north:1","properties":{"id":"+08150907","year":815,"month":9,"day":7,"time_tdt":"03:50:18","type":"개기일식","type_code":"T","saros":96,"gamma":0.30027,"magnitude":1.05224,"greatest":{"lat":20.27959,"lng":142.06732},"path_width_km":180.5,"duration":"04m14s","delta_t_seconds":2812.8,"catalog_number":6709,"source":"NASA Five Millennium Canon of Solar Eclipses","source_url":"https://eclipse.gsfc.nasa.gov/SEsearch/SEsearchmap.php?Ecl=%2B08150907","boundary":"north","name":"815-09-07 개기일식"},"geometry":{"type":"LineString","coordinates":[[-179.5,-7.56526],[-179,-7.71418],[-178.5,-7.85917],[-178,-8.00031],[-177.5,-8.13765],[-177,-8.27126],[-176.5,-8.40121],[-176,-8.52755],[-175.5,-8.65035],[-175,-8.76966],[-174.5,-8.88553],[-174,-8.99803],[-173.5,-9.1072],[-173,-9.2131],[-172.5,-9.31578],[-172,-9.41529],[-171.5,-9.51167],[-171,-9.60498],[-170.5,-9.69525],[-170,-9.78253],[-169.5,-9.86688],[-169,-9.94831],[-168.5,-10.02689],[-168,-10.10265],[-167.5,-10.17563],[-167,-10.24587],[-166.5,-10.3134],[-166,-10.37826],[-165.5,-10.44049],[-165,-10.50012],[-164.5,-10.55719],[-164,-10.61172],[-163.5,-10.66376],[-163,-10.71334],[-162.5,-10.76047],[-162.4668,-10.76352]]}},{"type":"Feature","id":"+08150907:center:0","properties":{"id":"+08150907","year":815,"month":9,"day":7,"time_tdt":"03:50:18","type":"개기일식","type_code":"T","saros":96,"gamma":0.30027,"magnitude":1.05224,"greatest":{"lat":20.27959,"lng":142.06732},"path_width_km":180.5,"duration":"04m14s","delta_t_seconds":2812.8,"catalog_number":6709,"source":"NASA Five Millennium Canon of Solar Eclipses","source_url":"https://eclipse.gsfc.nasa.gov/SEsearch/SEsearchmap.php?Ecl=%2B08150907","boundary":"center","name":"815-09-07 개기일식"},"geometry":{"type":"LineString","coordinates":[[62.82711,46.27349],[63,46.22477],[63.5,46.2672],[64,46.30813],[64.5,46.34757],[65,46.3855],[65.5,46.42192],[66,46.45682],[66.5,46.49019],[67,46.52203],[67.5,46.55233],[68,46.58107],[68.5,46.60827],[69,46.63389],[69.5,46.65795],[70,46.68043],[70.5,46.70131],[71,46.7206],[71.5,46.73829],[72,46.75436],[72.5,46.7688],[73,46.78162],[73.5,46.79279],[74,46.80231],[74.5,46.81017],[75,46.81636],[75.5,46.82086],[76,46.82368],[76.5,46.82479],[77,46.82419],[77.5,46.82186],[78,46.8178],[78.5,46.81199],[79,46.80442],[79.5,46.79508],[80,46.78395],[80.5,46.77103],[81,46.75629],[81.5,46.73973],[82,46.72134],[82.5,46.70108],[83,46.67897],[83.5,46.65497],[84,46.62907],[84.5,46.60126],[85,46.57152],[85.5,46.53984],[86,46.50619],[86.5,46.47057],[87,46.43294],[87.5,46.3933],[88,46.35162],[88.5,46.3079],[89,46.26209],[89.5,46.21419],[90,46.16418],[90.5,46.11203],[91,46.05773],[91.5,46.00124],[92,45.94255],[92.5,45.88163],[93,45.81846],[93.5,45.75302],[94,45.68527],[94.5,45.61519],[95,45.54276],[95.5,45.46794],[96,45.39071],[96.5,45.31104],[97,45.2289],[97.5,45.14426],[98,45.05708],[98.5,44.96734],[99,44.87499],[99.5,44.78001],[100,44.68237],[100.5,44.58201],[101,44.47891],[101.5,44.37303],[102,44.26432],[102.5,44.15276],[103,44.03829],[103.5,43.92087],[104,43.80046],[104.5,43.67702],[105,43.55049],[105.5,43.42083],[106,43.288],[106.5,43.15193],[107,43.01257],[107.5,42.86988],[108,42.72381],[108.5,42.57428],[109,42.42124],[109.5,42.26464],[110,42.10441],[110.5,41.94049],[111,41.77282],[111.5,41.60132],[112,41.42593],[112.5,41.24658],[113,41.06319],[113.5,40.87569],[114,40.68401],[114.5,40.48806],[115,40.28777],[115.5,40.08304],[116,39.87381],[116.5,39.65997],[117,39.44144],[117.5,39.21813],[118,38.98993],[118.5,38.75677],[119,38.51853],[119.5,38.27512],[120,38.02642],[120.5,37.77235],[121,37.51278],[121.5,37.24761],[122,36.97672],[122.5,36.70001],[123,36.41735],[123.5,36.12862],[124,35.83372],[124.5,35.53251],[125,35.22487],[125.5,34.91069],[126,34.58984],[126.5,34.26219],[127,33.92763],[127.5,33.58604],[128,33.23728],[128.5,32.88125],[129,32.51783],[129.5,32.14691],[130,31.76839],[130.5,31.38215],[131,30.98812],[131.5,30.5862],[132,30.17633],[132.5,29.75843],[133,29.33245],[133.5,28.89836],[134,28.45614],[134.5,28.00579],[135,27.54732],[135.5,27.08078],[136,26.60624],[136.5,26.12378],[137,25.63353],[137.5,25.13565],[138,24.63032],[138.5,24.11777],[139,23.59825],[139.5,23.07206],[140,22.53955],[140.5,22.00108],[141,21.45707],[141.5,20.90797],[142,20.35428],[142.5,19.79652],[143,19.23525],[143.5,18.67105],[144,18.10454],[144.5,17.53635],[145,16.96713],[145.5,16.39754],[146,15.82823],[146.5,15.25989],[147,14.69315],[147.5,14.12866],[148,13.56705],[148.5,13.00893],[149,12.45486],[149.5,11.9054],[150,11.36107],[150.5,10.82233],[151,10.28963],[151.5,9.76336],[152,9.24389],[152.5,8.73154],[153,8.22659],[153.5,7.72929],[154,7.23984],[154.5,6.75842],[155,6.28516],[155.5,5.82019],[156,5.36357],[156.5,4.91536],[157,4.47559],[157.5,4.04427],[158,3.62138],[158.5,3.2069],[159,2.80079],[159.5,2.40297],[160,2.01338],[160.5,1.63193],[161,1.25854],[161.5,0.8931],[162,0.5355],[162.5,0.18564],[163,-0.1566],[163.5,-0.49134],[164,-0.8187],[164.5,-1.13882],[165,-1.45181],[165.5,-1.75779],[166,-2.0569],[166.5,-2.34927],[167,-2.63501],[167.5,-2.91426],[168,-3.18713],[168.5,-3.45375],[169,-3.71423],[169.5,-3.9687],[170,-4.21728],[170.5,-4.46007],[171,-4.69719],[171.5,-4.92875],[172,-5.15486],[172.5,-5.37562],[173,-5.59114],[173.5,-5.80151],[174,-6.00684],[174.5,-6.20721],[175,-6.40273],[175.5,-6.59349],[176,-6.77957],[176.5,-6.96106],[177,-7.13805],[177.5,-7.31062],[178,-7.47884],[178.5,-7.64281],[179,-7.80259],[179.5,-7.95825],[180,-8.10988]]}},{"type":"Feature","id":"+08150907:center:1","properties":{"id":"+08150907","year":815,"month":9,"day":7,"time_tdt":"03:50:18","type":"개기일식","type_code":"T","saros":96,"gamma":0.30027,"magnitude":1.05224,"greatest":{"lat":20.27959,"lng":142.06732},"path_width_km":180.5,"duration":"04m14s","delta_t_seconds":2812.8,"catalog_number":6709,"source":"NASA Five Millennium Canon of Solar Eclipses","source_url":"https://eclipse.gsfc.nasa.gov/SEsearch/SEsearchmap.php?Ecl=%2B08150907","boundary":"center","name":"815-09-07 개기일식"},"geometry":{"type":"LineString","coordinates":[[-179.5,-8.25753],[-179,-8.40129],[-178.5,-8.54121],[-178,-8.67736],[-177.5,-8.80981],[-177,-8.93861],[-176.5,-9.06383],[-176,-9.18553],[-175.5,-9.30376],[-175,-9.41857],[-174.5,-9.53003],[-174,-9.63818],[-173.5,-9.74307],[-173,-9.84476],[-172.5,-9.9433],[-172,-10.03873],[-171.5,-10.13109],[-171,-10.22044],[-170.5,-10.30682],[-170,-10.39027],[-169.5,-10.47083],[-169,-10.54855],[-168.5,-10.62345],[-168,-10.69559],[-167.5,-10.765],[-167,-10.83172],[-166.5,-10.89578],[-166,-10.95723],[-165.5,-11.01608],[-165,-11.07238],[-164.5,-11.12616],[-164,-11.17746],[-163.5,-11.2263],[-163,-11.27271],[-162.59861,-11.30908]]}},{"type":"Feature","id":"+08150907:south:0","properties":{"id":"+08150907","year":815,"month":9,"day":7,"time_tdt":"03:50:18","type":"개기일식","type_code":"T","saros":96,"gamma":0.30027,"magnitude":1.05224,"greatest":{"lat":20.27959,"lng":142.06732},"path_width_km":180.5,"duration":"04m14s","delta_t_seconds":2812.8,"catalog_number":6709,"source":"NASA Five Millennium Canon of Solar Eclipses","source_url":"https://eclipse.gsfc.nasa.gov/SEsearch/SEsearchmap.php?Ecl=%2B08150907","boundary":"south","name":"815-09-07 개기일식"},"geometry":{"type":"LineString","coordinates":[[62.98047,45.6539],[63,45.65554],[63.5,45.69676],[64,45.73648],[64.5,45.7747],[65,45.8114],[65.5,45.84659],[66,45.88025],[66.5,45.91238],[67,45.94296],[67.5,45.972],[68,45.99949],[68.5,46.0254],[69,46.04975],[69.5,46.07251],[70,46.09369],[70.5,46.11326],[71,46.13123],[71.5,46.14759],[72,46.16232],[72.5,46.17541],[73,46.18686],[73.5,46.19666],[74,46.20479],[74.5,46.21125],[75,46.21602],[75.5,46.2191],[76,46.22047],[76.5,46.22013],[77,46.21806],[77.5,46.21424],[78,46.20868],[78.5,46.20135],[79,46.19224],[79.5,46.18135],[80,46.16865],[80.5,46.15414],[81,46.13779],[81.5,46.1196],[82,46.09955],[82.5,46.07763],[83,46.05383],[83.5,46.02811],[84,46.00048],[84.5,45.97091],[85,45.93939],[85.5,45.9059],[86,45.87042],[86.5,45.83293],[87,45.79342],[87.5,45.75187],[88,45.70825],[88.5,45.66256],[89,45.61475],[89.5,45.56483],[90,45.51276],[90.5,45.45852],[91,45.40209],[91.5,45.34344],[92,45.28256],[92.5,45.21942],[93,45.15398],[93.5,45.08624],[94,45.01615],[94.5,44.9437],[95,44.86885],[95.5,44.79157],[96,44.71184],[96.5,44.62963],[97,44.5449],[97.5,44.45762],[98,44.36777],[98.5,44.27529],[99,44.18017],[99.5,44.08236],[100,43.98184],[100.5,43.87855],[101,43.77246],[101.5,43.66354],[102,43.55173],[102.5,43.43701],[103,43.31931],[103.5,43.19862],[104,43.07486],[104.5,42.948],[105,42.818],[105.5,42.68479],[106,42.54833],[106.5,42.40857],[107,42.26545],[107.5,42.11892],[108,41.96892],[108.5,41.81538],[109,41.65826],[109.5,41.49749],[110,41.333],[110.5,41.16473],[111,40.99261],[111.5,40.81657],[112,40.63654],[112.5,40.45245],[113,40.26422],[113.5,40.07178],[114,39.87504],[114.5,39.67393],[115,39.46835],[115.5,39.25823],[116,39.04347],[116.5,38.82399],[117,38.59969],[117.5,38.37048],[118,38.13625],[118.5,37.89692],[119,37.65237],[119.5,37.40251],[120,37.14722],[120.5,36.8864],[121,36.61993],[121.5,36.34771],[122,36.06962],[122.5,35.78554],[123,35.49535],[123.5,35.19893],[124,34.89617],[124.5,34.58693],[125,34.27111],[125.5,33.94856],[126,33.61918],[126.5,33.28284],[127,32.93942],[127.5,32.58879],[128,32.23085],[128.5,31.86547],[129,31.49256],[129.5,31.112],[130,30.72369],[130.5,30.32756],[131,29.9235],[131.5,29.51147],[132,29.09138],[132.5,28.6632],[133,28.2269],[133.5,27.78247],[134,27.3299],[134.5,26.86923],[135,26.4005],[135.5,25.9238],[136,25.43922],[136.5,24.94691],[137,24.44702],[137.5,23.93976],[138,23.42536],[138.5,22.9041],[139,22.37628],[139.5,21.84227],[140,21.30245],[140.5,20.75724],[141,20.20712],[141.5,19.65259],[142,19.09418],[142.5,18.53246],[143,17.96803],[143.5,17.40151],[144,16.83354],[144.5,16.26476],[145,15.69585],[145.5,15.12745],[146,14.56024],[146.5,13.99485],[147,13.43194],[147.5,12.87211],[148,12.31596],[148.5,11.76405],[149,11.21692],[149.5,10.67506],[150,10.13895],[150.5,9.609],[151,9.08559],[151.5,8.56909],[152,8.05978],[152.5,7.55794],[153,7.06381],[153.5,6.57756],[154,6.09938],[154.5,5.62938],[155,5.16767],[155.5,4.71431],[156,4.26936],[156.5,3.83283],[157,3.40472],[157.5,2.98501],[158,2.57368],[158.5,2.17067],[159,1.77592],[159.5,1.38934],[160,1.01086],[160.5,0.64038],[161,0.2778],[161.5,-0.07698],[162,-0.42409],[162.5,-0.76364],[163,-1.09575],[163.5,-1.42053],[164,-1.73812],[164.5,-2.04864],[165,-2.35222],[165.5,-2.64897],[166,-2.93904],[166.5,-3.22253],[167,-3.49958],[167.5,-3.7703],[168,-4.03482],[168.5,-4.29326],[169,-4.54574],[169.5,-4.79236],[170,-5.03325],[170.5,-5.26851],[171,-5.49825],[171.5,-5.72258],[172,-5.94161],[172.5,-6.15542],[173,-6.36414],[173.5,-6.56785],[174,-6.76664],[174.5,-6.96061],[175,-7.14985],[175.5,-7.33445],[176,-7.5145],[176.5,-7.69007],[177,-7.86125],[177.5,-8.02812],[178,-8.19075],[178.5,-8.34923],[179,-8.50362],[179.5,-8.654],[180,-8.80043]]}},{"type":"Feature","id":"+08150907:south:1","properties":{"id":"+08150907","year":815,"month":9,"day":7,"time_tdt":"03:50:18","type":"개기일식","type_code":"T","saros":96,"gamma":0.30027,"magnitude":1.05224,"greatest":{"lat":20.27959,"lng":142.06732},"path_width_km":180.5,"duration":"04m14s","delta_t_seconds":2812.8,"catalog_number":6709,"source":"NASA Five Millennium Canon of Solar Eclipses","source_url":"https://eclipse.gsfc.nasa.gov/SEsearch/SEsearchmap.php?Ecl=%2B08150907","boundary":"south","name":"815-09-07 개기일식"},"geometry":{"type":"LineString","coordinates":[[-179.5,-8.94299],[-179,-9.08173],[-178.5,-9.21673],[-178,-9.34805],[-177.5,-9.47574],[-177,-9.59987],[-176.5,-9.7205],[-176,-9.83768],[-175.5,-9.95146],[-175,-10.06191],[-174.5,-10.16907],[-174,-10.27299],[-173.5,-10.37372],[-173,-10.47131],[-172.5,-10.56581],[-172,-10.65727],[-171.5,-10.74572],[-171,-10.83122],[-170.5,-10.9138],[-170,-10.99351],[-169.5,-11.07038],[-169,-11.14446],[-168.5,-11.21579],[-168,-11.2844],[-167.5,-11.35033],[-167,-11.41361],[-166.5,-11.47428],[-166,-11.53238],[-165.5,-11.58794],[-165,-11.64098],[-164.5,-11.69155],[-164,-11.73968],[-163.5,-11.78538],[-163,-11.82871]]}}],"attribution":"Eclipse Predictions by Fred Espenak and Jean Meeus (NASA's GSFC)","generated_at":"2026-09-23T01:44:57.076Z"}
