{"type":"FeatureCollection","year":826,"events":[{"id":"+08260210","year":826,"month":2,"day":10,"time_tdt":"19:46:24","type":"금환일식","type_code":"A","saros":92,"gamma":0.27804,"magnitude":0.94868,"greatest":{"lat":2.84325,"lng":-105.10248},"path_width_km":195.8,"duration":"06m32s","delta_t_seconds":2730.8,"catalog_number":6733,"source":"NASA Five Millennium Canon of Solar Eclipses","source_url":"https://eclipse.gsfc.nasa.gov/SEsearch/SEsearchmap.php?Ecl=%2B08260210"},{"id":"+08260807","year":826,"month":8,"day":7,"time_tdt":"10:27:15","type":"개기일식","type_code":"T","saros":97,"gamma":-0.18688,"magnitude":1.01805,"greatest":{"lat":5.04649,"lng":33.13269},"path_width_km":62.8,"duration":"01m56s","delta_t_seconds":2727,"catalog_number":6734,"source":"NASA Five Millennium Canon of Solar Eclipses","source_url":"https://eclipse.gsfc.nasa.gov/SEsearch/SEsearchmap.php?Ecl=%2B08260807"}],"features":[{"type":"Feature","id":"+08260210:north:0","properties":{"id":"+08260210","year":826,"month":2,"day":10,"time_tdt":"19:46:24","type":"금환일식","type_code":"A","saros":92,"gamma":0.27804,"magnitude":0.94868,"greatest":{"lat":2.84325,"lng":-105.10248},"path_width_km":195.8,"duration":"06m32s","delta_t_seconds":2730.8,"catalog_number":6733,"source":"NASA Five Millennium Canon of Solar Eclipses","source_url":"https://eclipse.gsfc.nasa.gov/SEsearch/SEsearchmap.php?Ecl=%2B08260210","boundary":"north","name":"826-02-10 금환일식"},"geometry":{"type":"LineString","coordinates":[[-162.80859,3.01182],[-162.5,2.93941],[-162,2.82262],[-161.5,2.70652],[-161,2.59111],[-160.5,2.47643],[-160,2.36249],[-159.5,2.24931],[-159,2.13692],[-158.5,2.02533],[-158,1.91457],[-157.5,1.80465],[-157,1.69562],[-156.5,1.58747],[-156,1.48025],[-155.5,1.37398],[-155,1.26867],[-154.5,1.16436],[-154,1.06108],[-153.5,0.95885],[-153,0.85769],[-152.5,0.75764],[-152,0.65872],[-151.5,0.56097],[-151,0.46441],[-150.5,0.36908],[-150,0.27501],[-149.5,0.18222],[-149,0.09076],[-148.5,0.00065],[-148,-0.08807],[-147.5,-0.17536],[-147,-0.26119],[-146.5,-0.34551],[-146,-0.4283],[-145.5,-0.50952],[-145,-0.58912],[-144.5,-0.66705],[-144,-0.7433],[-143.5,-0.81779],[-143,-0.89051],[-142.5,-0.96139],[-142,-1.0304],[-141.5,-1.09748],[-141,-1.16259],[-140.5,-1.22569],[-140,-1.28671],[-139.5,-1.3456],[-139,-1.40233],[-138.5,-1.45682],[-138,-1.50902],[-137.5,-1.55889],[-137,-1.60635],[-136.5,-1.65135],[-136,-1.69384],[-135.5,-1.73373],[-135,-1.77099],[-134.5,-1.80552],[-134,-1.83728],[-133.5,-1.86619],[-133,-1.89219],[-132.5,-1.91519],[-132,-1.93513],[-131.5,-1.95193],[-131,-1.96551],[-130.5,-1.9758],[-130,-1.98272],[-129.5,-1.98619],[-129,-1.98612],[-128.5,-1.98242],[-128,-1.97502],[-127.5,-1.96382],[-127,-1.94874],[-126.5,-1.92967],[-126,-1.90654],[-125.5,-1.87925],[-125,-1.84769],[-124.5,-1.81178],[-124,-1.77142],[-123.5,-1.7265],[-123,-1.67694],[-122.5,-1.62262],[-122,-1.56345],[-121.5,-1.49933],[-121,-1.43015],[-120.5,-1.35582],[-120,-1.27623],[-119.5,-1.19129],[-119,-1.10089],[-118.5,-1.00495],[-118,-0.90336],[-117.5,-0.79603],[-117,-0.68288],[-116.5,-0.56382],[-116,-0.43876],[-115.5,-0.30763],[-115,-0.17035],[-114.5,-0.02687],[-114,0.12287],[-113.5,0.27894],[-113,0.44137],[-112.5,0.6102],[-112,0.78545],[-111.5,0.96713],[-111,1.15525],[-110.5,1.3498],[-110,1.55076],[-109.5,1.75809],[-109,1.97174],[-108.5,2.19165],[-108,2.41773],[-107.5,2.6499],[-107,2.88804],[-106.5,3.13203],[-106,3.38172],[-105.5,3.63696],[-105,3.89758],[-104.5,4.16339],[-104,4.43419],[-103.5,4.70977],[-103,4.98989],[-102.5,5.27432],[-102,5.56282],[-101.5,5.85513],[-101,6.15098],[-100.5,6.45011],[-100,6.75224],[-99.5,7.05709],[-99,7.36439],[-98.5,7.67385],[-98,7.98521],[-97.5,8.29818],[-97,8.61249],[-96.5,8.92788],[-96,9.2441],[-95.5,9.56088],[-95,9.87799],[-94.5,10.19519],[-94,10.51225],[-93.5,10.82896],[-93,11.14512],[-92.5,11.46052],[-92,11.77499],[-91.5,12.08835],[-91,12.40044],[-90.5,12.71111],[-90,13.02021],[-89.5,13.32762],[-89,13.63321],[-88.5,13.93687],[-88,14.2385],[-87.5,14.538],[-87,14.8353],[-86.5,15.13031],[-86,15.42297],[-85.5,15.71321],[-85,16.00097],[-84.5,16.28623],[-84,16.56892],[-83.5,16.84901],[-83,17.12648],[-82.5,17.40129],[-82,17.67343],[-81.5,17.94287],[-81,18.20962],[-80.5,18.47364],[-80,18.73495],[-79.5,18.99354],[-79,19.2494],[-78.5,19.50254],[-78,19.75297],[-77.5,20.00069],[-77,20.24571],[-76.5,20.48805],[-76,20.72771],[-75.5,20.96471],[-75,21.19906],[-74.5,21.43078],[-74,21.65989],[-73.5,21.88641],[-73,22.11036],[-72.5,22.33175],[-72,22.5506],[-71.5,22.76695],[-71,22.9808],[-70.5,23.19219],[-70,23.40112],[-69.5,23.60764],[-69,23.81175],[-68.5,24.01349],[-68,24.21286],[-67.5,24.40991],[-67,24.60465],[-66.5,24.7971],[-66,24.98729],[-65.5,25.17524],[-65,25.36097],[-64.5,25.54451],[-64,25.72587],[-63.5,25.90509],[-63,26.08218],[-62.5,26.25717],[-62,26.43007],[-61.5,26.60091],[-61,26.76972],[-60.5,26.9365],[-60,27.10129],[-59.5,27.2641],[-59,27.42496],[-58.5,27.58388],[-58,27.74089],[-57.5,27.896],[-57,28.04924],[-56.5,28.20062],[-56,28.35016],[-55.5,28.49789],[-55,28.64381],[-54.5,28.78795],[-54,28.93033],[-53.5,29.07097],[-53,29.20987],[-52.5,29.34707],[-52,29.48257],[-51.5,29.61639],[-51,29.74855],[-50.5,29.87907],[-50,30.00796],[-49.5,30.13524],[-49,30.26091],[-48.5,30.38501],[-48,30.50754],[-47.5,30.62852],[-47,30.74795]]}},{"type":"Feature","id":"+08260210:center:0","properties":{"id":"+08260210","year":826,"month":2,"day":10,"time_tdt":"19:46:24","type":"금환일식","type_code":"A","saros":92,"gamma":0.27804,"magnitude":0.94868,"greatest":{"lat":2.84325,"lng":-105.10248},"path_width_km":195.8,"duration":"06m32s","delta_t_seconds":2730.8,"catalog_number":6733,"source":"NASA Five Millennium Canon of Solar Eclipses","source_url":"https://eclipse.gsfc.nasa.gov/SEsearch/SEsearchmap.php?Ecl=%2B08260210","boundary":"center","name":"826-02-10 금환일식"},"geometry":{"type":"LineString","coordinates":[[-162.95704,1.89775],[-162.5,1.79372],[-162,1.67968],[-161.5,1.56633],[-161,1.45369],[-160.5,1.34178],[-160,1.23062],[-159.5,1.12023],[-159,1.01063],[-158.5,0.90185],[-158,0.7939],[-157.5,0.68681],[-157,0.5806],[-156.5,0.47529],[-156,0.37091],[-155.5,0.26749],[-155,0.16504],[-154.5,0.06359],[-154,-0.03683],[-153.5,-0.13619],[-153,-0.23448],[-152.5,-0.33165],[-152,-0.42768],[-151.5,-0.52255],[-151,-0.61622],[-150.5,-0.70867],[-150,-0.79985],[-149.5,-0.88975],[-149,-0.97833],[-148.5,-1.06554],[-148,-1.15137],[-147.5,-1.23578],[-147,-1.31873],[-146.5,-1.40018],[-146,-1.4801],[-145.5,-1.55844],[-145,-1.63518],[-144.5,-1.71027],[-144,-1.78366],[-143.5,-1.85533],[-143,-1.92521],[-142.5,-1.99328],[-142,-2.05949],[-141.5,-2.12379],[-141,-2.18613],[-140.5,-2.24646],[-140,-2.30475],[-139.5,-2.36093],[-139,-2.41495],[-138.5,-2.46677],[-138,-2.51632],[-137.5,-2.56356],[-137,-2.60842],[-136.5,-2.65085],[-136,-2.69079],[-135.5,-2.72819],[-135,-2.76296],[-134.5,-2.79506],[-134,-2.82442],[-133.5,-2.85097],[-133,-2.87465],[-132.5,-2.89538],[-132,-2.91309],[-131.5,-2.92772],[-131,-2.93919],[-130.5,-2.94741],[-130,-2.95232],[-129.5,-2.95384],[-129,-2.95189],[-128.5,-2.94637],[-128,-2.93722],[-127.5,-2.92435],[-127,-2.90766],[-126.5,-2.88708],[-126,-2.86251],[-125.5,-2.83386],[-125,-2.80104],[-124.5,-2.76396],[-124,-2.72252],[-123.5,-2.67662],[-123,-2.62618],[-122.5,-2.5711],[-122,-2.51127],[-121.5,-2.4466],[-121,-2.37699],[-120.5,-2.30235],[-120,-2.22258],[-119.5,-2.13758],[-119,-2.04726],[-118.5,-1.95152],[-118,-1.85026],[-117.5,-1.74341],[-117,-1.63087],[-116.5,-1.51256],[-116,-1.3884],[-115.5,-1.25831],[-115,-1.12222],[-114.5,-0.98007],[-114,-0.83179],[-113.5,-0.67734],[-113,-0.51666],[-112.5,-0.34972],[-112,-0.1765],[-111.5,0.00302],[-111,0.18886],[-110.5,0.381],[-110,0.57944],[-109.5,0.78413],[-109,0.99505],[-108.5,1.21213],[-108,1.4353],[-107.5,1.66448],[-107,1.89956],[-106.5,2.14044],[-106,2.38698],[-105.5,2.63903],[-105,2.89644],[-104.5,3.15902],[-104,3.4266],[-103.5,3.69896],[-103,3.97589],[-102.5,4.25716],[-102,4.54254],[-101.5,4.83178],[-101,5.12463],[-100.5,5.42081],[-100,5.72007],[-99.5,6.02214],[-99,6.32673],[-98.5,6.63358],[-98,6.94242],[-97.5,7.25296],[-97,7.56495],[-96.5,7.87811],[-96,8.19218],[-95.5,8.50693],[-95,8.82209],[-94.5,9.13743],[-94,9.45272],[-93.5,9.76775],[-93,10.08231],[-92.5,10.39619],[-92,10.70921],[-91.5,11.02119],[-91,11.33196],[-90.5,11.64137],[-90,11.94927],[-89.5,12.25553],[-89,12.56001],[-88.5,12.86261],[-88,13.16321],[-87.5,13.46173],[-87,13.75806],[-86.5,14.05213],[-86,14.34387],[-85.5,14.63321],[-85,14.92009],[-84.5,15.20447],[-84,15.48629],[-83.5,15.76553],[-83,16.04214],[-82.5,16.3161],[-82,16.58739],[-81.5,16.85598],[-81,17.12186],[-80.5,17.38502],[-80,17.64546],[-79.5,17.90316],[-79,18.15813],[-78.5,18.41037],[-78,18.65989],[-77.5,18.90669],[-77,19.15077],[-76.5,19.39215],[-76,19.63085],[-75.5,19.86687],[-75,20.10023],[-74.5,20.33094],[-74,20.55903],[-73.5,20.78451],[-73,21.0074],[-72.5,21.22772],[-72,21.44549],[-71.5,21.66073],[-71,21.87347],[-70.5,22.08372],[-70,22.29151],[-69.5,22.49687],[-69,22.6998],[-68.5,22.90035],[-68,23.09852],[-67.5,23.29435],[-67,23.48785],[-66.5,23.67906],[-66,23.86799],[-65.5,24.05466],[-65,24.23911],[-64.5,24.42135],[-64,24.6014],[-63.5,24.7793],[-63,24.95505],[-62.5,25.12869],[-62,25.30024],[-61.5,25.46971],[-61,25.63713],[-60.5,25.80253],[-60,25.96592],[-59.5,26.12732],[-59,26.28676],[-58.5,26.44426],[-58,26.59983],[-57.5,26.7535],[-57,26.90528],[-56.5,27.0552],[-56,27.20328],[-55.5,27.34952],[-55,27.49397],[-54.5,27.63662],[-54,27.7775],[-53.5,27.91663],[-53,28.05403],[-52.5,28.18971],[-52,28.32369],[-51.5,28.45599],[-51,28.58662],[-50.5,28.7156],[-50,28.84294],[-49.5,28.96867],[-49,29.0928],[-48.5,29.21534],[-48,29.33631],[-47.5,29.45572],[-47,29.5736],[-46.5,29.68994],[-46.40619,29.71155]]}},{"type":"Feature","id":"+08260210:south:0","properties":{"id":"+08260210","year":826,"month":2,"day":10,"time_tdt":"19:46:24","type":"금환일식","type_code":"A","saros":92,"gamma":0.27804,"magnitude":0.94868,"greatest":{"lat":2.84325,"lng":-105.10248},"path_width_km":195.8,"duration":"06m32s","delta_t_seconds":2730.8,"catalog_number":6733,"source":"NASA Five Millennium Canon of Solar Eclipses","source_url":"https://eclipse.gsfc.nasa.gov/SEsearch/SEsearchmap.php?Ecl=%2B08260210","boundary":"south","name":"826-02-10 금환일식"},"geometry":{"type":"LineString","coordinates":[[-163.11914,0.79255],[-163,0.76577],[-162.5,0.65378],[-162,0.54248],[-161.5,0.43187],[-161,0.32199],[-160.5,0.21284],[-160,0.10446],[-159.5,-0.00315],[-159,-0.10995],[-158.5,-0.21593],[-158,-0.32107],[-157.5,-0.42534],[-157,-0.52873],[-156.5,-0.6312],[-156,-0.73274],[-155.5,-0.83332],[-155,-0.93292],[-154.5,-1.03151],[-154,-1.12907],[-153.5,-1.22557],[-153,-1.32098],[-152.5,-1.41528],[-152,-1.50844],[-151.5,-1.60043],[-151,-1.69121],[-150.5,-1.78077],[-150,-1.86908],[-149.5,-1.95609],[-149,-2.04178],[-148.5,-2.12611],[-148,-2.20906],[-147.5,-2.29058],[-147,-2.37065],[-146.5,-2.44923],[-146,-2.52628],[-145.5,-2.60176],[-145,-2.67564],[-144.5,-2.74788],[-144,-2.81843],[-143.5,-2.88726],[-143,-2.95433],[-142.5,-3.01959],[-142,-3.08299],[-141.5,-3.14451],[-141,-3.20408],[-140.5,-3.26166],[-140,-3.31721],[-139.5,-3.37067],[-139,-3.42199],[-138.5,-3.47114],[-138,-3.51804],[-137.5,-3.56265],[-137,-3.60491],[-136.5,-3.64477],[-136,-3.68217],[-135.5,-3.71704],[-135,-3.74934],[-134.5,-3.779],[-134,-3.80596],[-133.5,-3.83014],[-133,-3.8515],[-132.5,-3.86995],[-132,-3.88543],[-131.5,-3.89787],[-131,-3.9072],[-130.5,-3.91335],[-130,-3.91624],[-129.5,-3.9158],[-129,-3.91194],[-128.5,-3.90459],[-128,-3.89367],[-127.5,-3.8791],[-127,-3.86079],[-126.5,-3.83866],[-126,-3.81262],[-125.5,-3.78258],[-125,-3.74847],[-124.5,-3.71018],[-124,-3.66762],[-123.5,-3.62071],[-123,-3.56935],[-122.5,-3.51345],[-122,-3.45291],[-121.5,-3.38765],[-121,-3.31756],[-120.5,-3.24255],[-120,-3.16253],[-119.5,-3.07741],[-119,-2.98709],[-118.5,-2.89148],[-118,-2.79049],[-117.5,-2.68403],[-117,-2.57203],[-116.5,-2.45439],[-116,-2.33104],[-115.5,-2.2019],[-115,-2.0669],[-114.5,-1.92598],[-114,-1.77908],[-113.5,-1.62614],[-113,-1.46711],[-112.5,-1.30197],[-112,-1.13067],[-111.5,-0.9532],[-111,-0.76955],[-110.5,-0.57972],[-110,-0.38371],[-109.5,-0.18155],[-109,0.02672],[-108.5,0.24106],[-108,0.4614],[-107.5,0.68767],[-107,0.91978],[-106.5,1.15761],[-106,1.40106],[-105.5,1.64998],[-105,1.90422],[-104.5,2.16362],[-104,2.42801],[-103.5,2.69718],[-103,2.97094],[-102.5,3.24906],[-102,3.53133],[-101.5,3.81749],[-101,4.10732],[-100.5,4.40054],[-100,4.69691],[-99.5,4.99615],[-99,5.29801],[-98.5,5.60221],[-98,5.90847],[-97.5,6.21654],[-97,6.52614],[-96.5,6.83702],[-96,7.1489],[-95.5,7.46154],[-95,7.7747],[-94.5,8.08813],[-94,8.4016],[-93.5,8.71489],[-93,9.02778],[-92.5,9.34009],[-92,9.6516],[-91.5,9.96215],[-91,10.27156],[-90.5,10.57966],[-90,10.88631],[-89.5,11.19137],[-89,11.49471],[-88.5,11.7962],[-88,12.09574],[-87.5,12.39323],[-87,12.68856],[-86.5,12.98166],[-86,13.27245],[-85.5,13.56086],[-85,13.84684],[-84.5,14.13032],[-84,14.41125],[-83.5,14.68961],[-83,14.96535],[-82.5,15.23844],[-82,15.50885],[-81.5,15.77657],[-81,16.04158],[-80.5,16.30386],[-80,16.56341],[-79.5,16.82022],[-79,17.07429],[-78.5,17.32562],[-78,17.57421],[-77.5,17.82007],[-77,18.06321],[-76.5,18.30363],[-76,18.54135],[-75.5,18.77639],[-75,19.00874],[-74.5,19.23844],[-74,19.46549],[-73.5,19.68993],[-73,19.91175],[-72.5,20.13099],[-72,20.34767],[-71.5,20.56181],[-71,20.77342],[-70.5,20.98253],[-70,21.18917],[-69.5,21.39335],[-69,21.5951],[-68.5,21.79445],[-68,21.99141],[-67.5,22.18601],[-67,22.37827],[-66.5,22.56822],[-66,22.75588],[-65.5,22.94127],[-65,23.12442],[-64.5,23.30535],[-64,23.48408],[-63.5,23.66064],[-63,23.83505],[-62.5,24.00734],[-62,24.17752],[-61.5,24.34561],[-61,24.51165],[-60.5,24.67564],[-60,24.83762],[-59.5,24.9976],[-59,25.15561],[-58.5,25.31167],[-58,25.46579],[-57.5,25.618],[-57,25.76832],[-56.5,25.91677],[-56,26.06336],[-55.5,26.20812],[-55,26.35107],[-54.5,26.49222],[-54,26.63159],[-53.5,26.76921],[-53,26.90508],[-52.5,27.03923],[-52,27.17168],[-51.5,27.30243],[-51,27.43152],[-50.5,27.55895],[-50,27.68474],[-49.5,27.80891],[-49,27.93147],[-48.5,28.05244],[-48,28.17184],[-47.5,28.28968],[-47,28.40597],[-46.5,28.52073],[-46.16602,28.59654]]}},{"type":"Feature","id":"+08260807:north:0","properties":{"id":"+08260807","year":826,"month":8,"day":7,"time_tdt":"10:27:15","type":"개기일식","type_code":"T","saros":97,"gamma":-0.18688,"magnitude":1.01805,"greatest":{"lat":5.04649,"lng":33.13269},"path_width_km":62.8,"duration":"01m56s","delta_t_seconds":2727,"catalog_number":6734,"source":"NASA Five Millennium Canon of Solar Eclipses","source_url":"https://eclipse.gsfc.nasa.gov/SEsearch/SEsearchmap.php?Ecl=%2B08260807","boundary":"north","name":"826-08-07 개기일식"},"geometry":{"type":"LineString","coordinates":[[-28.25977,1.45524],[-28,1.52935],[-27.5,1.67168],[-27,1.81356],[-26.5,1.95498],[-26,2.09593],[-25.5,2.23637],[-25,2.37631],[-24.5,2.5157],[-24,2.65454],[-23.5,2.7928],[-23,2.93047],[-22.5,3.06751],[-22,3.20391],[-21.5,3.33965],[-21,3.47471],[-20.5,3.60905],[-20,3.74266],[-19.5,3.87551],[-19,4.00758],[-18.5,4.13884],[-18,4.26927],[-17.5,4.39884],[-17,4.52752],[-16.5,4.65529],[-16,4.78212],[-15.5,4.90798],[-15,5.03284],[-14.5,5.15667],[-14,5.27945],[-13.5,5.40114],[-13,5.5217],[-12.5,5.64112],[-12,5.75935],[-11.5,5.87637],[-11,5.99214],[-10.5,6.10662],[-10,6.21978],[-9.5,6.33159],[-9,6.44201],[-8.5,6.551],[-8,6.65852],[-7.5,6.76454],[-7,6.86901],[-6.5,6.9719],[-6,7.07317],[-5.5,7.17277],[-5,7.27067],[-4.5,7.36681],[-4,7.46116],[-3.5,7.55367],[-3,7.6443],[-2.5,7.733],[-2,7.81972],[-1.5,7.90441],[-1,7.98703],[-0.5,8.06753],[0,8.14586],[0.5,8.22196],[1,8.29578],[1.5,8.36727],[2,8.43638],[2.5,8.50305],[3,8.56723],[3.5,8.62886],[4,8.68787],[4.5,8.74422],[5,8.79785],[5.5,8.84868],[6,8.89667],[6.5,8.94175],[7,8.98385],[7.5,9.02292],[8,9.05889],[8.5,9.09169],[9,9.12125],[9.5,9.14751],[10,9.17041],[10.5,9.18986],[11,9.20581],[11.5,9.21817],[12,9.22689],[12.5,9.23189],[13,9.23309],[13.5,9.23043],[14,9.22383],[14.5,9.21322],[15,9.19852],[15.5,9.17966],[16,9.15657],[16.5,9.12917],[17,9.09739],[17.5,9.06115],[18,9.02039],[18.5,8.97502],[19,8.92498],[19.5,8.8702],[20,8.81061],[20.5,8.74613],[21,8.67671],[21.5,8.60227],[22,8.52276],[22.5,8.4381],[23,8.34826],[23.5,8.25316],[24,8.15276],[24.5,8.047],[25,7.93585],[25.5,7.81926],[26,7.6972],[26.5,7.56963],[27,7.43653],[27.5,7.29787],[28,7.15365],[28.5,7.00385],[29,6.84847],[29.5,6.68752],[30,6.52101],[30.5,6.34896],[31,6.1714],[31.5,5.98836],[32,5.7999],[32.5,5.60606],[33,5.4069],[33.5,5.2025],[34,4.99294],[34.5,4.77831],[35,4.55871],[35.5,4.33424],[36,4.10503],[36.5,3.87119],[37,3.63286],[37.5,3.39018],[38,3.14331],[38.5,2.8924],[39,2.6376],[39.5,2.37909],[40,2.11705],[40.5,1.85166],[41,1.58309],[41.5,1.31154],[42,1.03719],[42.5,0.76024],[43,0.48088],[43.5,0.19931],[44,-0.08429],[44.5,-0.36971],[45,-0.65676],[45.5,-0.94526],[46,-1.23502],[46.5,-1.52585],[47,-1.81757],[47.5,-2.11],[48,-2.40298],[48.5,-2.69633],[49,-2.9899],[49.5,-3.28352],[50,-3.57704],[50.5,-3.87032],[51,-4.16323],[51.5,-4.45562],[52,-4.74737],[52.5,-5.03836],[53,-5.32848],[53.5,-5.61762],[54,-5.90566],[54.5,-6.19253],[55,-6.47812],[55.5,-6.76236],[56,-7.04516],[56.5,-7.32644],[57,-7.60615],[57.5,-7.88421],[58,-8.16057],[58.5,-8.43517],[59,-8.70797],[59.5,-8.97891],[60,-9.24796],[60.5,-9.51507],[61,-9.78022],[61.5,-10.04337],[62,-10.3045],[62.5,-10.56358],[63,-10.82059],[63.5,-11.07551],[64,-11.32832],[64.5,-11.57902],[65,-11.82758],[65.5,-12.07401],[66,-12.31829],[66.5,-12.56042],[67,-12.8004],[67.5,-13.03822],[68,-13.27388],[68.5,-13.50738],[69,-13.73873],[69.5,-13.96794],[70,-14.19499],[70.5,-14.4199],[71,-14.64269],[71.5,-14.86334],[72,-15.08188],[72.5,-15.2983],[73,-15.51263],[73.5,-15.72487],[74,-15.93503],[74.5,-16.14312],[75,-16.34916],[75.5,-16.55315],[76,-16.75512],[76.5,-16.95506],[77,-17.153],[77.5,-17.34895],[78,-17.54292],[78.5,-17.73492],[79,-17.92497],[79.5,-18.11309],[80,-18.29929],[80.5,-18.48357],[81,-18.66596],[81.5,-18.84648],[82,-19.02512],[82.5,-19.20192],[83,-19.37688],[83.5,-19.55002],[84,-19.72135],[84.5,-19.89088],[85,-20.05864],[85.5,-20.22463],[86,-20.38888],[86.5,-20.55138],[87,-20.71216],[87.5,-20.87124],[88,-21.02861],[88.5,-21.18431],[89,-21.33834],[89.5,-21.49071],[90,-21.64145],[90.5,-21.79055],[91,-21.93805],[91.5,-22.08394],[92,-22.22824],[92.17383,-22.27804]]}},{"type":"Feature","id":"+08260807:center:0","properties":{"id":"+08260807","year":826,"month":8,"day":7,"time_tdt":"10:27:15","type":"개기일식","type_code":"T","saros":97,"gamma":-0.18688,"magnitude":1.01805,"greatest":{"lat":5.04649,"lng":33.13269},"path_width_km":62.8,"duration":"01m56s","delta_t_seconds":2727,"catalog_number":6734,"source":"NASA Five Millennium Canon of Solar Eclipses","source_url":"https://eclipse.gsfc.nasa.gov/SEsearch/SEsearchmap.php?Ecl=%2B08260807","boundary":"center","name":"826-08-07 개기일식"},"geometry":{"type":"LineString","coordinates":[[-28.25919,1.44648],[-28,1.51932],[-27.5,1.65912],[-27,1.79848],[-26.5,1.93737],[-26,2.07578],[-25.5,2.21367],[-25,2.35105],[-24.5,2.48788],[-24,2.62414],[-23.5,2.75982],[-23,2.89489],[-22.5,3.02934],[-22,3.16313],[-21.5,3.29626],[-21,3.42869],[-20.5,3.56041],[-20,3.69139],[-19.5,3.8216],[-19,3.95102],[-18.5,4.07963],[-18,4.20741],[-17.5,4.33431],[-17,4.46033],[-16.5,4.58543],[-16,4.70958],[-15.5,4.83276],[-15,4.95494],[-14.5,5.07609],[-14,5.19617],[-13.5,5.31517],[-13,5.43304],[-12.5,5.54976],[-12,5.66529],[-11.5,5.77961],[-11,5.89268],[-10.5,6.00445],[-10,6.11491],[-9.5,6.22402],[-9,6.33173],[-8.5,6.43801],[-8,6.54283],[-7.5,6.64614],[-7,6.74791],[-6.5,6.8481],[-6,6.94667],[-5.5,7.04358],[-5,7.13877],[-4.5,7.23222],[-4,7.32388],[-3.5,7.41371],[-3,7.50165],[-2.5,7.58767],[-2,7.67172],[-1.5,7.75374],[-1,7.8337],[-0.5,7.91153],[0,7.9872],[0.5,8.06065],[1,8.13183],[1.5,8.20069],[2,8.26717],[2.5,8.33121],[3,8.39277],[3.5,8.45178],[4,8.5082],[4.5,8.56195],[5,8.61298],[5.5,8.66124],[6,8.70666],[6.5,8.74917],[7,8.78872],[7.5,8.82524],[8,8.85867],[8.5,8.88894],[9,8.91598],[9.5,8.93973],[10,8.96012],[10.5,8.97709],[11,8.99055],[11.5,9.00045],[12,9.0067],[12.5,9.00925],[13,9.00801],[13.5,9.00292],[14,8.9939],[14.5,8.98088],[15,8.96378],[15.5,8.94253],[16,8.91707],[16.5,8.8873],[17,8.85317],[17.5,8.8146],[18,8.77151],[18.5,8.72383],[19,8.6715],[19.5,8.61444],[20,8.55258],[20.5,8.48585],[21,8.41419],[21.5,8.33754],[22,8.25583],[22.5,8.16901],[23,8.07701],[23.5,7.97978],[24,7.87728],[24.5,7.76944],[25,7.65624],[25.5,7.53764],[26,7.41359],[26.5,7.28406],[27,7.14905],[27.5,7.00852],[28,6.86247],[28.5,6.71088],[29,6.55377],[29.5,6.39114],[30,6.223],[30.5,6.04939],[31,5.87032],[31.5,5.68585],[32,5.49602],[32.5,5.30089],[33,5.10053],[33.5,4.89501],[34,4.68441],[34.5,4.46883],[35,4.24838],[35.5,4.02316],[36,3.7933],[36.5,3.55892],[37,3.32016],[37.5,3.07717],[38,2.83009],[38.5,2.57909],[39,2.32434],[39.5,2.06599],[40,1.80423],[40.5,1.53925],[41,1.27121],[41.5,1.00032],[42,0.72676],[42.5,0.45072],[43,0.1724],[43.5,-0.10801],[44,-0.39033],[44.5,-0.67435],[45,-0.95988],[45.5,-1.24675],[46,-1.53476],[46.5,-1.82374],[47,-2.1135],[47.5,-2.40388],[48,-2.6947],[48.5,-2.9858],[49,-3.27703],[49.5,-3.56822],[50,-3.85924],[50.5,-4.14995],[51,-4.4402],[51.5,-4.72987],[52,-5.01884],[52.5,-5.30699],[53,-5.59421],[53.5,-5.88039],[54,-6.16544],[54.5,-6.44927],[55,-6.73178],[55.5,-7.0129],[56,-7.29255],[56.5,-7.57066],[57,-7.84717],[57.5,-8.122],[58,-8.39512],[58.5,-8.66646],[59,-8.93597],[59.5,-9.20363],[60,-9.46937],[60.5,-9.73318],[61,-9.99502],[61.5,-10.25486],[62,-10.51267],[62.5,-10.76843],[63,-11.02212],[63.5,-11.27373],[64,-11.52324],[64.5,-11.77064],[65,-12.01591],[65.5,-12.25906],[66,-12.50006],[66.5,-12.73893],[67,-12.97565],[67.5,-13.21023],[68,-13.44267],[68.5,-13.67296],[69,-13.90111],[69.5,-14.12713],[70,-14.35102],[70.5,-14.57278],[71,-14.79243],[71.5,-15.00997],[72,-15.2254],[72.5,-15.43874],[73,-15.65001],[73.5,-15.8592],[74,-16.06633],[74.5,-16.27141],[75,-16.47445],[75.5,-16.67547],[76,-16.87448],[76.5,-17.07148],[77,-17.2665],[77.5,-17.45955],[78,-17.65064],[78.5,-17.83978],[79,-18.02699],[79.5,-18.21228],[80,-18.39567],[80.5,-18.57717],[81,-18.75679],[81.5,-18.93455],[82,-19.11047],[82.5,-19.28455],[83,-19.45681],[83.5,-19.62727],[84,-19.79594],[84.5,-19.96284],[85,-20.12797],[85.5,-20.29136],[86,-20.45301],[86.5,-20.61295],[87,-20.77118],[87.5,-20.92771],[88,-21.08257],[88.5,-21.23577],[89,-21.38731],[89.5,-21.53722],[90,-21.6855],[90.5,-21.83217],[91,-21.97724],[91.5,-22.12073],[92,-22.26264],[92.16156,-22.3106]]}},{"type":"Feature","id":"+08260807:south:0","properties":{"id":"+08260807","year":826,"month":8,"day":7,"time_tdt":"10:27:15","type":"개기일식","type_code":"T","saros":97,"gamma":-0.18688,"magnitude":1.01805,"greatest":{"lat":5.04649,"lng":33.13269},"path_width_km":62.8,"duration":"01m56s","delta_t_seconds":2727,"catalog_number":6734,"source":"NASA Five Millennium Canon of Solar Eclipses","source_url":"https://eclipse.gsfc.nasa.gov/SEsearch/SEsearchmap.php?Ecl=%2B08260807","boundary":"south","name":"826-08-07 개기일식"},"geometry":{"type":"LineString","coordinates":[[-28.25586,1.43887],[-28,1.5093],[-27.5,1.6466],[-27,1.78344],[-26.5,1.9198],[-26,2.05567],[-25.5,2.19103],[-25,2.32585],[-24.5,2.46011],[-24,2.59381],[-23.5,2.72691],[-23,2.8594],[-22.5,2.99125],[-22,3.12245],[-21.5,3.25297],[-21,3.38279],[-20.5,3.51188],[-20,3.64023],[-19.5,3.76781],[-19,3.89459],[-18.5,4.02056],[-18,4.14568],[-17.5,4.26993],[-17,4.39329],[-16.5,4.51572],[-16,4.6372],[-15.5,4.75771],[-15,4.87721],[-14.5,4.99567],[-14,5.11308],[-13.5,5.22938],[-13,5.34456],[-12.5,5.45859],[-12,5.57143],[-11.5,5.68305],[-11,5.79341],[-10.5,5.90249],[-10,6.01025],[-9.5,6.11665],[-9,6.22166],[-8.5,6.32524],[-8,6.42735],[-7.5,6.52796],[-7,6.62704],[-6.5,6.72452],[-6,6.82039],[-5.5,6.9146],[-5,7.0071],[-4.5,7.09786],[-4,7.18683],[-3.5,7.27397],[-3,7.35923],[-2.5,7.44257],[-2,7.52393],[-1.5,7.60329],[-1,7.68057],[-0.5,7.75575],[0,7.82876],[0.5,7.89956],[1,7.96809],[1.5,8.0343],[2,8.09814],[2.5,8.15956],[3,8.21849],[3.5,8.27489],[4,8.32869],[4.5,8.37984],[5,8.42828],[5.5,8.47395],[6,8.51679],[6.5,8.55673],[7,8.59371],[7.5,8.62768],[8,8.65856],[8.5,8.68629],[9,8.7108],[9.5,8.73203],[10,8.74991],[10.5,8.76437],[11,8.77535],[11.5,8.78276],[12,8.78654],[12.5,8.78663],[13,8.78294],[13.5,8.7754],[14,8.76395],[14.5,8.74851],[15,8.729],[15.5,8.70536],[16,8.6775],[16.5,8.64537],[17,8.60887],[17.5,8.56795],[18,8.52253],[18.5,8.47253],[19,8.41789],[19.5,8.35853],[20,8.2944],[20.5,8.22542],[21,8.15152],[21.5,8.07265],[22,7.98873],[22.5,7.89973],[23,7.80557],[23.5,7.70621],[24,7.6016],[24.5,7.49169],[25,7.37643],[25.5,7.25581],[26,7.12977],[26.5,6.9983],[27,6.86138],[27.5,6.71898],[28,6.57111],[28.5,6.41775],[29,6.25891],[29.5,6.09461],[30,5.92487],[30.5,5.7497],[31,5.56915],[31.5,5.38327],[32,5.1921],[32.5,4.99571],[33,4.79416],[33.5,4.58754],[34,4.37594],[34.5,4.15945],[35,3.93818],[35.5,3.71225],[36,3.48178],[36.5,3.2469],[37,3.00775],[37.5,2.76449],[38,2.51725],[38.5,2.26622],[39,2.01154],[39.5,1.7534],[40,1.49197],[40.5,1.22744],[41,0.95999],[41.5,0.6898],[42,0.41707],[42.5,0.14199],[43,-0.13525],[43.5,-0.41446],[44,-0.69545],[44.5,-0.97803],[45,-1.26202],[45.5,-1.54722],[46,-1.83345],[46.5,-2.12055],[47,-2.40832],[47.5,-2.69661],[48,-2.98526],[48.5,-3.27409],[49,-3.56296],[49.5,-3.85171],[50,-4.14022],[50.5,-4.42833],[51,-4.71592],[51.5,-5.00286],[52,-5.28904],[52.5,-5.57435],[53,-5.85866],[53.5,-6.1419],[54,-6.42396],[54.5,-6.70475],[55,-6.98419],[55.5,-7.2622],[56,-7.53871],[56.5,-7.81365],[57,-8.08696],[57.5,-8.35859],[58,-8.62847],[58.5,-8.89656],[59,-9.16282],[59.5,-9.4272],[60,-9.68966],[60.5,-9.95018],[61,-10.20873],[61.5,-10.46527],[62,-10.71978],[62.5,-10.97225],[63,-11.22265],[63.5,-11.47097],[64,-11.71719],[64.5,-11.96131],[65,-12.20331],[65.5,-12.4432],[66,-12.68095],[66.5,-12.91658],[67,-13.15007],[67.5,-13.38143],[68,-13.61066],[68.5,-13.83776],[69,-14.06274],[69.5,-14.2856],[70,-14.50634],[70.5,-14.72497],[71,-14.9415],[71.5,-15.15594],[72,-15.36829],[72.5,-15.57857],[73,-15.78679],[73.5,-15.99295],[74,-16.19707],[74.5,-16.39916],[75,-16.59922],[75.5,-16.79729],[76,-16.99335],[76.5,-17.18744],[77,-17.37956],[77.5,-17.56972],[78,-17.75794],[78.5,-17.94424],[79,-18.12862],[79.5,-18.3111],[80,-18.4917],[80.5,-18.67042],[81,-18.84729],[81.5,-19.02231],[82,-19.19551],[82.5,-19.36689],[83,-19.53647],[83.5,-19.70427],[84,-19.87029],[84.5,-20.03456],[85,-20.19708],[85.5,-20.35787],[86,-20.51695],[86.5,-20.67432],[87,-20.83001],[87.5,-20.98402],[88,-21.13637],[88.5,-21.28707],[89,-21.43614],[89.5,-21.58359],[90,-21.72942],[90.5,-21.87367],[91,-22.01633],[91.5,-22.15742],[92,-22.29696],[92.1543,-22.3397]]}}],"attribution":"Eclipse Predictions by Fred Espenak and Jean Meeus (NASA's GSFC)","generated_at":"2026-09-23T01:44:57.185Z"}
