{"type":"FeatureCollection","year":84,"events":[{"id":"+00840621","year":84,"month":6,"day":21,"time_tdt":"23:14:05","type":"금환일식","type_code":"A","saros":67,"gamma":-0.58665,"magnitude":0.94661,"greatest":{"lat":-12.12501,"lng":-124.86475},"path_width_km":242.2,"duration":"07m19s","delta_t_seconds":9701.9,"catalog_number":4983,"source":"NASA Five Millennium Canon of Solar Eclipses","source_url":"https://eclipse.gsfc.nasa.gov/SEsearch/SEsearchmap.php?Ecl=%2B00840621"},{"id":"+00841216","year":84,"month":12,"day":16,"time_tdt":"06:16:36","type":"개기일식","type_code":"T","saros":72,"gamma":0.06987,"magnitude":1.04514,"greatest":{"lat":-19.69501,"lng":126.86627},"path_width_km":150.8,"duration":"04m10s","delta_t_seconds":9697.2,"catalog_number":4984,"source":"NASA Five Millennium Canon of Solar Eclipses","source_url":"https://eclipse.gsfc.nasa.gov/SEsearch/SEsearchmap.php?Ecl=%2B00841216"}],"features":[{"type":"Feature","id":"+00840621:north:0","properties":{"id":"+00840621","year":84,"month":6,"day":21,"time_tdt":"23:14:05","type":"금환일식","type_code":"A","saros":67,"gamma":-0.58665,"magnitude":0.94661,"greatest":{"lat":-12.12501,"lng":-124.86475},"path_width_km":242.2,"duration":"07m19s","delta_t_seconds":9701.9,"catalog_number":4983,"source":"NASA Five Millennium Canon of Solar Eclipses","source_url":"https://eclipse.gsfc.nasa.gov/SEsearch/SEsearchmap.php?Ecl=%2B00840621","boundary":"north","name":"84-06-21 금환일식"},"geometry":{"type":"LineString","coordinates":[[-175.06445,-37.31373],[-175,-37.28396],[-174.5,-37.05208],[-174,-36.81855],[-173.5,-36.58336],[-173,-36.34652],[-172.5,-36.10801],[-172,-35.86783],[-171.5,-35.62598],[-171,-35.38246],[-170.5,-35.13725],[-170,-34.89035],[-169.5,-34.64177],[-169,-34.3915],[-168.5,-34.13954],[-168,-33.88588],[-167.5,-33.63053],[-167,-33.37349],[-166.5,-33.11475],[-166,-32.85431],[-165.5,-32.59219],[-165,-32.32837],[-164.5,-32.06287],[-164,-31.79569],[-163.5,-31.52684],[-163,-31.25631],[-162.5,-30.98412],[-162,-30.71029],[-161.5,-30.4348],[-161,-30.15769],[-160.5,-29.87896],[-160,-29.59863],[-159.5,-29.31671],[-159,-29.03322],[-158.5,-28.74818],[-158,-28.46162],[-157.5,-28.17355],[-157,-27.88401],[-156.5,-27.59303],[-156,-27.30063],[-155.5,-27.00684],[-155,-26.71172],[-154.5,-26.41529],[-154,-26.11761],[-153.5,-25.81872],[-153,-25.51867],[-152.5,-25.21751],[-152,-24.91531],[-151.5,-24.61212],[-151,-24.30802],[-150.5,-24.00309],[-150,-23.69739],[-149.5,-23.39101],[-149,-23.08404],[-148.5,-22.77658],[-148,-22.46872],[-147.5,-22.16058],[-147,-21.85226],[-146.5,-21.54389],[-146,-21.23559],[-145.5,-20.92751],[-145,-20.61977],[-144.5,-20.31254],[-144,-20.00596],[-143.5,-19.70021],[-143,-19.39546],[-142.5,-19.09189],[-142,-18.78969],[-141.5,-18.48906],[-141,-18.1902],[-140.5,-17.89334],[-140,-17.59868],[-139.5,-17.30647],[-139,-17.01694],[-138.5,-16.73033],[-138,-16.4469],[-137.5,-16.1669],[-137,-15.89059],[-136.5,-15.61824],[-136,-15.35011],[-135.5,-15.08649],[-135,-14.82764],[-134.5,-14.57384],[-134,-14.32537],[-133.5,-14.0825],[-133,-13.8455],[-132.5,-13.61464],[-132,-13.39018],[-131.5,-13.17237],[-131,-12.96147],[-130.5,-12.75771],[-130,-12.56132],[-129.5,-12.37252],[-129,-12.19151],[-128.5,-12.01848],[-128,-11.85362],[-127.5,-11.69707],[-127,-11.549],[-126.5,-11.40951],[-126,-11.27874],[-125.5,-11.15676],[-125,-11.04366],[-124.5,-10.93949],[-124,-10.8443],[-123.5,-10.75811],[-123,-10.68091],[-122.5,-10.61271],[-122,-10.55347],[-121.5,-10.50315],[-121,-10.46169],[-120.5,-10.42901],[-120,-10.40504],[-119.5,-10.38967],[-119,-10.38279],[-118.5,-10.38428],[-118,-10.39401],[-117.5,-10.41183],[-117,-10.43759],[-116.5,-10.47115],[-116,-10.51233],[-115.5,-10.56096],[-115,-10.61688],[-114.5,-10.6799],[-114,-10.74985],[-113.5,-10.82654],[-113,-10.90978],[-112.5,-10.99939],[-112,-11.09519],[-111.5,-11.19698],[-111,-11.30458],[-110.5,-11.41781],[-110,-11.53647],[-109.5,-11.66039],[-109,-11.78939],[-108.5,-11.92328],[-108,-12.0619],[-107.5,-12.20507],[-107,-12.35262],[-106.5,-12.50438],[-106,-12.66019],[-105.5,-12.81989],[-105,-12.98332],[-104.5,-13.15034],[-104,-13.32079],[-103.5,-13.49453],[-103,-13.67141],[-102.5,-13.85131],[-102,-14.03408],[-101.5,-14.21961],[-101,-14.40775],[-100.5,-14.59839],[-100,-14.79141],[-99.5,-14.9867],[-99,-15.18415],[-98.5,-15.38364],[-98,-15.58507],[-97.5,-15.78835],[-97,-15.99337],[-96.5,-16.20005],[-96,-16.40828],[-95.5,-16.61799],[-95,-16.82908],[-94.5,-17.04149],[-94,-17.25511],[-93.5,-17.46989],[-93,-17.68575],[-92.5,-17.90261],[-92,-18.12041],[-91.5,-18.33908],[-91,-18.55856],[-90.5,-18.77879],[-90,-18.99971],[-89.5,-19.22126],[-89,-19.44339],[-88.5,-19.66604],[-88,-19.88916],[-87.5,-20.11271],[-87,-20.33663],[-86.5,-20.56089],[-86,-20.78544],[-85.5,-21.01024],[-85,-21.23524],[-84.5,-21.46041],[-84,-21.6857],[-83.5,-21.9111],[-83,-22.13655],[-82.5,-22.36203],[-82,-22.5875],[-81.5,-22.81294],[-81,-23.03831],[-80.5,-23.26358],[-80,-23.48873],[-79.5,-23.71373],[-79,-23.93856],[-78.5,-24.16319],[-78,-24.3876],[-77.5,-24.61176],[-77,-24.83565],[-76.5,-25.05925],[-76,-25.28255],[-75.5,-25.50552],[-75.22461,-25.62818]]}},{"type":"Feature","id":"+00840621:center:0","properties":{"id":"+00840621","year":84,"month":6,"day":21,"time_tdt":"23:14:05","type":"금환일식","type_code":"A","saros":67,"gamma":-0.58665,"magnitude":0.94661,"greatest":{"lat":-12.12501,"lng":-124.86475},"path_width_km":242.2,"duration":"07m19s","delta_t_seconds":9701.9,"catalog_number":4983,"source":"NASA Five Millennium Canon of Solar Eclipses","source_url":"https://eclipse.gsfc.nasa.gov/SEsearch/SEsearchmap.php?Ecl=%2B00840621","boundary":"center","name":"84-06-21 금환일식"},"geometry":{"type":"LineString","coordinates":[[-174.44132,-38.46596],[-174.5,-38.45151],[-174,-38.21592],[-173.5,-37.97866],[-173,-37.73974],[-172.5,-37.49914],[-172,-37.25686],[-171.5,-37.0129],[-171,-36.76726],[-170.5,-36.51992],[-170,-36.27089],[-169.5,-36.02016],[-169,-35.76773],[-168.5,-35.5136],[-168,-35.25777],[-167.5,-35.00024],[-167,-34.741],[-166.5,-34.48006],[-166,-34.21742],[-165.5,-33.95308],[-165,-33.68703],[-164.5,-33.4193],[-164,-33.14987],[-163.5,-32.87876],[-163,-32.60597],[-162.5,-32.33151],[-162,-32.05538],[-161.5,-31.7776],[-161,-31.49818],[-160.5,-31.21714],[-160,-30.93447],[-159.5,-30.65021],[-159,-30.36437],[-158.5,-30.07697],[-158,-29.78803],[-157.5,-29.49757],[-157,-29.20562],[-156.5,-28.91221],[-156,-28.61738],[-155.5,-28.32114],[-155,-28.02354],[-154.5,-27.72463],[-154,-27.42443],[-153.5,-27.12301],[-153,-26.8204],[-152.5,-26.51667],[-152,-26.21187],[-151.5,-25.90606],[-151,-25.59931],[-150.5,-25.2917],[-150,-24.98329],[-149.5,-24.67417],[-149,-24.36443],[-148.5,-24.05416],[-148,-23.74346],[-147.5,-23.43243],[-147,-23.12119],[-146.5,-22.80986],[-146,-22.49856],[-145.5,-22.18742],[-145,-21.87659],[-144.5,-21.56621],[-144,-21.25644],[-143.5,-20.94744],[-143,-20.63939],[-142.5,-20.33247],[-142,-20.02687],[-141.5,-19.72278],[-141,-19.4204],[-140.5,-19.11997],[-140,-18.82169],[-139.5,-18.5258],[-139,-18.23253],[-138.5,-17.94213],[-138,-17.65486],[-137.5,-17.37098],[-137,-17.09073],[-136.5,-16.81441],[-136,-16.54228],[-135.5,-16.27462],[-135,-16.01171],[-134.5,-15.75382],[-134,-15.50126],[-133.5,-15.25429],[-133,-15.01319],[-132.5,-14.77824],[-132,-14.54972],[-131.5,-14.32789],[-131,-14.113],[-130.5,-13.90531],[-130,-13.70505],[-129.5,-13.51246],[-129,-13.32775],[-128.5,-13.15112],[-128,-12.98276],[-127.5,-12.82285],[-127,-12.67153],[-126.5,-12.52896],[-126,-12.39524],[-125.5,-12.27048],[-125,-12.15476],[-124.5,-12.04816],[-124,-11.95072],[-123.5,-11.86246],[-123,-11.7834],[-122.5,-11.71353],[-122,-11.65282],[-121.5,-11.60124],[-121,-11.55873],[-120.5,-11.5252],[-120,-11.50058],[-119.5,-11.48477],[-119,-11.47765],[-118.5,-11.47909],[-118,-11.48897],[-117.5,-11.50713],[-117,-11.53342],[-116.5,-11.56768],[-116,-11.60974],[-115.5,-11.65942],[-115,-11.71655],[-114.5,-11.78094],[-114,-11.8524],[-113.5,-11.93075],[-113,-12.01579],[-112.5,-12.10733],[-112,-12.20518],[-111.5,-12.30914],[-111,-12.41902],[-110.5,-12.53462],[-110,-12.65576],[-109.5,-12.78225],[-109,-12.9139],[-108.5,-13.05053],[-108,-13.19196],[-107.5,-13.33801],[-107,-13.48849],[-106.5,-13.64326],[-106,-13.80212],[-105.5,-13.96493],[-105,-14.13151],[-104.5,-14.30173],[-104,-14.47541],[-103.5,-14.65241],[-103,-14.8326],[-102.5,-15.01582],[-102,-15.20195],[-101.5,-15.39085],[-101,-15.58238],[-100.5,-15.77644],[-100,-15.97289],[-99.5,-16.17162],[-99,-16.37251],[-98.5,-16.57546],[-98,-16.78037],[-97.5,-16.98712],[-97,-17.19562],[-96.5,-17.40578],[-96,-17.6175],[-95.5,-17.83069],[-95,-18.04527],[-94.5,-18.26115],[-94,-18.47826],[-93.5,-18.69651],[-93,-18.91584],[-92.5,-19.13617],[-92,-19.35743],[-91.5,-19.57956],[-91,-19.80249],[-90.5,-20.02616],[-90,-20.25051],[-89.5,-20.47549],[-89,-20.70103],[-88.5,-20.92709],[-88,-21.15361],[-87.5,-21.38055],[-87,-21.60785],[-86.5,-21.83548],[-86,-22.06339],[-85.5,-22.29153],[-85,-22.51987],[-84.5,-22.74837],[-84,-22.97698],[-83.5,-23.20568],[-83,-23.43443],[-82.5,-23.66319],[-82,-23.89193],[-81.5,-24.12063],[-81,-24.34924],[-80.5,-24.57775],[-80,-24.80613],[-79.5,-25.03434],[-79,-25.26237],[-78.5,-25.49019],[-78,-25.71777],[-77.5,-25.9451],[-77,-26.17214],[-76.5,-26.39889],[-76,-26.62531],[-75.6235,-26.80113]]}},{"type":"Feature","id":"+00840621:south:0","properties":{"id":"+00840621","year":84,"month":6,"day":21,"time_tdt":"23:14:05","type":"금환일식","type_code":"A","saros":67,"gamma":-0.58665,"magnitude":0.94661,"greatest":{"lat":-12.12501,"lng":-124.86475},"path_width_km":242.2,"duration":"07m19s","delta_t_seconds":9701.9,"catalog_number":4983,"source":"NASA Five Millennium Canon of Solar Eclipses","source_url":"https://eclipse.gsfc.nasa.gov/SEsearch/SEsearchmap.php?Ecl=%2B00840621","boundary":"south","name":"84-06-21 금환일식"},"geometry":{"type":"LineString","coordinates":[[-173.5,-39.40414],[-173,-39.16305],[-172.5,-38.92028],[-172,-38.67582],[-171.5,-38.42966],[-171,-38.18181],[-170.5,-37.93226],[-170,-37.681],[-169.5,-37.42804],[-169,-37.17337],[-168.5,-36.91698],[-168,-36.65889],[-167.5,-36.39908],[-167,-36.13757],[-166.5,-35.87433],[-166,-35.60939],[-165.5,-35.34274],[-165,-35.07438],[-164.5,-34.80431],[-164,-34.53255],[-163.5,-34.25909],[-163,-33.98394],[-162.5,-33.70712],[-162,-33.42862],[-161.5,-33.14845],[-161,-32.86664],[-160.5,-32.58319],[-160,-32.29811],[-159.5,-32.01142],[-159,-31.72314],[-158.5,-31.43329],[-158,-31.14188],[-157.5,-30.84895],[-157,-30.55451],[-156.5,-30.2586],[-156,-29.96124],[-155.5,-29.66247],[-155,-29.36233],[-154.5,-29.06085],[-154,-28.75807],[-153.5,-28.45404],[-153,-28.14881],[-152.5,-27.84244],[-152,-27.53497],[-151.5,-27.22647],[-151,-26.91701],[-150.5,-26.60665],[-150,-26.29547],[-149.5,-25.98356],[-149,-25.67099],[-148.5,-25.35786],[-148,-25.04426],[-147.5,-24.7303],[-147,-24.4161],[-146.5,-24.10176],[-146,-23.78741],[-145.5,-23.47318],[-145,-23.15922],[-144.5,-22.84566],[-144,-22.53266],[-143.5,-22.22039],[-143,-21.90901],[-142.5,-21.59871],[-142,-21.28967],[-141.5,-20.9821],[-141,-20.67619],[-140.5,-20.37216],[-140,-20.07023],[-139.5,-19.77063],[-139,-19.47361],[-138.5,-19.1794],[-138,-18.88827],[-137.5,-18.60048],[-137,-18.31628],[-136.5,-18.03596],[-136,-17.75979],[-135.5,-17.48806],[-135,-17.22105],[-134.5,-16.95904],[-134,-16.70234],[-133.5,-16.45122],[-133,-16.20598],[-132.5,-15.9669],[-132,-15.73425],[-131.5,-15.50832],[-131,-15.28938],[-130.5,-15.07768],[-130,-14.87348],[-129.5,-14.67702],[-129,-14.48851],[-128.5,-14.30819],[-128,-14.13624],[-127.5,-13.97286],[-127,-13.8182],[-126.5,-13.67242],[-126,-13.53564],[-125.5,-13.40799],[-125,-13.28955],[-124.5,-13.1804],[-124,-13.08059],[-123.5,-12.99016],[-123,-12.90912],[-122.5,-12.83747],[-122,-12.77519],[-121.5,-12.72223],[-121,-12.67856],[-120.5,-12.64408],[-120,-12.61871],[-119.5,-12.60236],[-119,-12.5949],[-118.5,-12.59621],[-118,-12.60615],[-117.5,-12.62457],[-117,-12.65131],[-116.5,-12.6862],[-116,-12.72907],[-115.5,-12.77973],[-115,-12.83801],[-114.5,-12.90372],[-114,-12.97664],[-113.5,-13.0566],[-113,-13.1434],[-112.5,-13.23682],[-112,-13.33668],[-111.5,-13.44277],[-111,-13.55489],[-110.5,-13.67284],[-110,-13.79644],[-109.5,-13.92547],[-109,-14.05976],[-108.5,-14.1991],[-108,-14.34332],[-107.5,-14.49223],[-107,-14.64565],[-106.5,-14.80341],[-106,-14.96532],[-105.5,-15.13123],[-105,-15.30097],[-104.5,-15.47438],[-104,-15.65129],[-103.5,-15.83157],[-103,-16.01506],[-102.5,-16.20162],[-102,-16.39111],[-101.5,-16.5834],[-101,-16.77834],[-100.5,-16.97583],[-100,-17.17572],[-99.5,-17.37792],[-99,-17.58229],[-98.5,-17.78873],[-98,-17.99712],[-97.5,-18.20738],[-97,-18.41939],[-96.5,-18.63306],[-96,-18.8483],[-95.5,-19.06501],[-95,-19.28311],[-94.5,-19.50251],[-94,-19.72314],[-93.5,-19.94492],[-93,-20.16776],[-92.5,-20.3916],[-92,-20.61638],[-91.5,-20.84201],[-91,-21.06844],[-90.5,-21.2956],[-90,-21.52344],[-89.5,-21.7519],[-89,-21.98092],[-88.5,-22.21044],[-88,-22.44043],[-87.5,-22.67082],[-87,-22.90157],[-86.5,-23.13263],[-86,-23.36396],[-85.5,-23.59552],[-85,-23.82727],[-84.5,-24.05916],[-84,-24.29117],[-83.5,-24.52324],[-83,-24.75536],[-82.5,-24.98748],[-82,-25.21957],[-81.5,-25.45161],[-81,-25.68355],[-80.5,-25.91538],[-80,-26.14706],[-79.5,-26.37858],[-79,-26.60989],[-78.5,-26.84098],[-78,-27.07183],[-77.5,-27.30241],[-77,-27.5327],[-76.5,-27.76267],[-76,-27.99232]]}},{"type":"Feature","id":"+00841216:north:0","properties":{"id":"+00841216","year":84,"month":12,"day":16,"time_tdt":"06:16:36","type":"개기일식","type_code":"T","saros":72,"gamma":0.06987,"magnitude":1.04514,"greatest":{"lat":-19.69501,"lng":126.86627},"path_width_km":150.8,"duration":"04m10s","delta_t_seconds":9697.2,"catalog_number":4984,"source":"NASA Five Millennium Canon of Solar Eclipses","source_url":"https://eclipse.gsfc.nasa.gov/SEsearch/SEsearchmap.php?Ecl=%2B00841216","boundary":"north","name":"84-12-16 개기일식"},"geometry":{"type":"LineString","coordinates":[[67.19922,11.79295],[67.5,11.66191],[68,11.44264],[68.5,11.22159],[69,10.99874],[69.5,10.77409],[70,10.54763],[70.5,10.31936],[71,10.08927],[71.5,9.85736],[72,9.62362],[72.5,9.38804],[73,9.15063],[73.5,8.91138],[74,8.67028],[74.5,8.42734],[75,8.18255],[75.5,7.93591],[76,7.68742],[76.5,7.43708],[77,7.18489],[77.5,6.93085],[78,6.67497],[78.5,6.41725],[79,6.15769],[79.5,5.89629],[80,5.63307],[80.5,5.36804],[81,5.10119],[81.5,4.83255],[82,4.56211],[82.5,4.2899],[83,4.01594],[83.5,3.74022],[84,3.46278],[84.5,3.18363],[85,2.90279],[85.5,2.62028],[86,2.33614],[86.5,2.05038],[87,1.76303],[87.5,1.47414],[88,1.18372],[88.5,0.89181],[89,0.59846],[89.5,0.3037],[90,0.00758],[90.5,-0.28985],[91,-0.58856],[91.5,-0.88847],[92,-1.18955],[92.5,-1.49173],[93,-1.79495],[93.5,-2.09914],[94,-2.40424],[94.5,-2.71017],[95,-3.01687],[95.5,-3.32425],[96,-3.63223],[96.5,-3.94072],[97,-4.24963],[97.5,-4.55888],[98,-4.86837],[98.5,-5.17799],[99,-5.48764],[99.5,-5.79722],[100,-6.10661],[100.5,-6.4157],[101,-6.72437],[101.5,-7.03251],[102,-7.33998],[102.5,-7.64667],[103,-7.95244],[103.5,-8.25717],[104,-8.56071],[104.5,-8.86294],[105,-9.16371],[105.5,-9.46289],[106,-9.76033],[106.5,-10.0559],[107,-10.34945],[107.5,-10.64084],[108,-10.92992],[108.5,-11.21655],[109,-11.5006],[109.5,-11.78191],[110,-12.06035],[110.5,-12.33578],[111,-12.60807],[111.5,-12.87707],[112,-13.14266],[112.5,-13.40471],[113,-13.66308],[113.5,-13.91766],[114,-14.16833],[114.5,-14.41496],[115,-14.65746],[115.5,-14.89571],[116,-15.1296],[116.5,-15.35904],[117,-15.58393],[117.5,-15.80419],[118,-16.01973],[118.5,-16.23047],[119,-16.43633],[119.5,-16.63725],[120,-16.83315],[120.5,-17.02399],[121,-17.2097],[121.5,-17.39023],[122,-17.56554],[122.5,-17.73559],[123,-17.90035],[123.5,-18.05977],[124,-18.21384],[124.5,-18.36252],[125,-18.50581],[125.5,-18.64369],[126,-18.77614],[126.5,-18.90316],[127,-19.02474],[127.5,-19.14089],[128,-19.25161],[128.5,-19.3569],[129,-19.45678],[129.5,-19.55125],[130,-19.64033],[130.5,-19.72404],[131,-19.8024],[131.5,-19.87543],[132,-19.94316],[132.5,-20.0056],[133,-20.0628],[133.5,-20.11477],[134,-20.16156],[134.5,-20.20319],[135,-20.2397],[135.5,-20.27112],[136,-20.2975],[136.5,-20.31887],[137,-20.33528],[137.5,-20.34676],[138,-20.35336],[138.5,-20.35512],[139,-20.35208],[139.5,-20.34429],[140,-20.3318],[140.5,-20.31465],[141,-20.29289],[141.5,-20.26657],[142,-20.23574],[142.5,-20.20044],[143,-20.16073],[143.5,-20.11666],[144,-20.06828],[144.5,-20.01564],[145,-19.95879],[145.5,-19.89779],[146,-19.83269],[146.5,-19.76354],[147,-19.69039],[147.5,-19.61331],[148,-19.53235],[148.5,-19.44755],[149,-19.35899],[149.5,-19.2667],[150,-19.17076],[150.5,-19.07121],[151,-18.96811],[151.5,-18.86152],[152,-18.7515],[152.5,-18.6381],[153,-18.52138],[153.5,-18.4014],[154,-18.27822],[154.5,-18.15189],[155,-18.02248],[155.5,-17.89004],[156,-17.75462],[156.5,-17.6163],[157,-17.47512],[157.5,-17.33115],[158,-17.18443],[158.5,-17.03505],[159,-16.88304],[159.5,-16.72847],[160,-16.57139],[160.5,-16.41187],[161,-16.24996],[161.5,-16.08573],[162,-15.91922],[162.5,-15.75049],[163,-15.57961],[163.5,-15.40662],[164,-15.23159],[164.5,-15.05457],[165,-14.87561],[165.5,-14.69478],[166,-14.51212],[166.5,-14.32769],[167,-14.14155],[167.5,-13.95375],[168,-13.76434],[168.5,-13.57337],[169,-13.3809],[169.5,-13.18697],[170,-12.99165],[170.5,-12.79497],[171,-12.59699],[171.5,-12.39776],[172,-12.19733],[172.5,-11.99574],[173,-11.79304],[173.5,-11.58928],[174,-11.38451],[174.5,-11.17876],[175,-10.97209],[175.5,-10.76454],[176,-10.55615],[176.5,-10.34696],[177,-10.13702],[177.5,-9.92636],[178,-9.71503],[178.5,-9.50307],[179,-9.29051],[179.5,-9.0774],[180,-8.86376]]}},{"type":"Feature","id":"+00841216:north:1","properties":{"id":"+00841216","year":84,"month":12,"day":16,"time_tdt":"06:16:36","type":"개기일식","type_code":"T","saros":72,"gamma":0.06987,"magnitude":1.04514,"greatest":{"lat":-19.69501,"lng":126.86627},"path_width_km":150.8,"duration":"04m10s","delta_t_seconds":9697.2,"catalog_number":4984,"source":"NASA Five Millennium Canon of Solar Eclipses","source_url":"https://eclipse.gsfc.nasa.gov/SEsearch/SEsearchmap.php?Ecl=%2B00841216","boundary":"north","name":"84-12-16 개기일식"},"geometry":{"type":"LineString","coordinates":[[-179.5,-8.64965],[-179,-8.43508],[-178.5,-8.22011],[-178,-8.00476],[-177.5,-7.78907],[-177,-7.57307],[-176.5,-7.35679],[-176,-7.14026],[-175.5,-6.92352],[-175,-6.7066],[-174.5,-6.48952],[-174,-6.27232],[-173.5,-6.05501],[-173,-5.83764],[-172.5,-5.62023],[-172,-5.4028],[-171.5,-5.18538],[-171,-4.96799],[-170.5,-4.75067],[-170,-4.53342],[-169.5,-4.31628],[-169,-4.09927],[-168.5,-3.88241],[-168,-3.66572],[-167.9082,-3.62596]]}},{"type":"Feature","id":"+00841216:center:0","properties":{"id":"+00841216","year":84,"month":12,"day":16,"time_tdt":"06:16:36","type":"개기일식","type_code":"T","saros":72,"gamma":0.06987,"magnitude":1.04514,"greatest":{"lat":-19.69501,"lng":126.86627},"path_width_km":150.8,"duration":"04m10s","delta_t_seconds":9697.2,"catalog_number":4984,"source":"NASA Five Millennium Canon of Solar Eclipses","source_url":"https://eclipse.gsfc.nasa.gov/SEsearch/SEsearchmap.php?Ecl=%2B00841216","boundary":"center","name":"84-12-16 개기일식"},"geometry":{"type":"LineString","coordinates":[[67.01508,11.42773],[67.5,11.21135],[68,10.98863],[68.5,10.76409],[69,10.53772],[69.5,10.30953],[70,10.0795],[70.5,9.84763],[71,9.61391],[71.5,9.37834],[72,9.14091],[72.5,8.90162],[73,8.66046],[73.5,8.41743],[74,8.17253],[74.5,7.92576],[75,7.67711],[75.5,7.42658],[76,7.17418],[76.5,6.9199],[77,6.66375],[77.5,6.40572],[78,6.14582],[78.5,5.88406],[79,5.62044],[79.5,5.35497],[80,5.08764],[80.5,4.81848],[81,4.54749],[81.5,4.27469],[82,4.00008],[82.5,3.72368],[83,3.4455],[83.5,3.16556],[84,2.88389],[84.5,2.6005],[85,2.31541],[85.5,2.02866],[86,1.74025],[86.5,1.45024],[87,1.15864],[87.5,0.86548],[88,0.57082],[88.5,0.27467],[89,-0.02291],[89.5,-0.32188],[90,-0.62219],[90.5,-0.92381],[91,-1.22666],[91.5,-1.5307],[92,-1.83588],[92.5,-2.14212],[93,-2.44936],[93.5,-2.75754],[94,-3.06657],[94.5,-3.3764],[95,-3.68692],[95.5,-3.99808],[96,-4.30977],[96.5,-4.62191],[97,-4.9344],[97.5,-5.24715],[98,-5.56005],[98.5,-5.87301],[99,-6.18591],[99.5,-6.49864],[100,-6.81109],[100.5,-7.12313],[101,-7.43465],[101.5,-7.74553],[102,-8.05563],[102.5,-8.36483],[103,-8.67299],[103.5,-8.97998],[104,-9.28566],[104.5,-9.58989],[105,-9.89254],[105.5,-10.19346],[106,-10.4925],[106.5,-10.78954],[107,-11.08441],[107.5,-11.37698],[108,-11.66711],[108.5,-11.95465],[109,-12.23946],[109.5,-12.52141],[110,-12.80034],[110.5,-13.07612],[111,-13.34863],[111.5,-13.61772],[112,-13.88326],[112.5,-14.14514],[113,-14.40323],[113.5,-14.6574],[114,-14.90754],[114.5,-15.15355],[115,-15.3953],[115.5,-15.63271],[116,-15.86566],[116.5,-16.09407],[117,-16.31785],[117.5,-16.53692],[118,-16.75119],[118.5,-16.96059],[119,-17.16504],[119.5,-17.3645],[120,-17.55889],[120.5,-17.74816],[121,-17.93227],[121.5,-18.11116],[122,-18.2848],[122.5,-18.45315],[123,-18.61618],[123.5,-18.77386],[124,-18.92618],[124.5,-19.0731],[125,-19.21462],[125.5,-19.35072],[126,-19.48141],[126.5,-19.60666],[127,-19.72649],[127.5,-19.8409],[128,-19.94989],[128.5,-20.05347],[129,-20.15166],[129.5,-20.24446],[130,-20.33189],[130.5,-20.41398],[131,-20.49074],[131.5,-20.56219],[132,-20.62837],[132.5,-20.68929],[133,-20.745],[133.5,-20.79551],[134,-20.84086],[134.5,-20.88108],[135,-20.91622],[135.5,-20.94629],[136,-20.97135],[136.5,-20.99143],[137,-21.00657],[137.5,-21.0168],[138,-21.02218],[138.5,-21.02274],[139,-21.01853],[139.5,-21.00959],[140,-20.99596],[140.5,-20.97769],[141,-20.95484],[141.5,-20.92743],[142,-20.89553],[142.5,-20.85917],[143,-20.81841],[143.5,-20.7733],[144,-20.72388],[144.5,-20.67021],[145,-20.61234],[145.5,-20.55031],[146,-20.48418],[146.5,-20.41401],[147,-20.33983],[147.5,-20.26171],[148,-20.1797],[148.5,-20.09386],[149,-20.00423],[149.5,-19.91087],[150,-19.81383],[150.5,-19.71318],[151,-19.60896],[151.5,-19.50123],[152,-19.39005],[152.5,-19.27547],[153,-19.15754],[153.5,-19.03634],[154,-18.9119],[154.5,-18.78429],[155,-18.65357],[155.5,-18.51979],[156,-18.38301],[156.5,-18.24329],[157,-18.10069],[157.5,-17.95525],[158,-17.80705],[158.5,-17.65613],[159,-17.50257],[159.5,-17.3464],[160,-17.1877],[160.5,-17.02651],[161,-16.8629],[161.5,-16.69693],[162,-16.52864],[162.5,-16.35811],[163,-16.18538],[163.5,-16.01051],[164,-15.83356],[164.5,-15.65458],[165,-15.47363],[165.5,-15.29077],[166,-15.10605],[166.5,-14.91952],[167,-14.73124],[167.5,-14.54127],[168,-14.34965],[168.5,-14.15645],[169,-13.96171],[169.5,-13.76548],[170,-13.56782],[170.5,-13.36877],[171,-13.1684],[171.5,-12.96674],[172,-12.76385],[172.5,-12.55977],[173,-12.35456],[173.5,-12.14826],[174,-11.94092],[174.5,-11.73258],[175,-11.52329],[175.5,-11.3131],[176,-11.10204],[176.5,-10.89017],[177,-10.67752],[177.5,-10.46413],[178,-10.25006],[178.5,-10.03533],[179,-9.81999],[179.5,-9.60408],[180,-9.38764]]}},{"type":"Feature","id":"+00841216:center:1","properties":{"id":"+00841216","year":84,"month":12,"day":16,"time_tdt":"06:16:36","type":"개기일식","type_code":"T","saros":72,"gamma":0.06987,"magnitude":1.04514,"greatest":{"lat":-19.69501,"lng":126.86627},"path_width_km":150.8,"duration":"04m10s","delta_t_seconds":9697.2,"catalog_number":4984,"source":"NASA Five Millennium Canon of Solar Eclipses","source_url":"https://eclipse.gsfc.nasa.gov/SEsearch/SEsearchmap.php?Ecl=%2B00841216","boundary":"center","name":"84-12-16 개기일식"},"geometry":{"type":"LineString","coordinates":[[-179.5,-9.17069],[-179,-8.95329],[-178.5,-8.73546],[-178,-8.51725],[-177.5,-8.29868],[-177,-8.07979],[-176.5,-7.86061],[-176,-7.64118],[-175.5,-7.42153],[-175,-7.20169],[-174.5,-6.98169],[-174,-6.76155],[-173.5,-6.54132],[-173,-6.32101],[-172.5,-6.10066],[-172,-5.88028],[-171.5,-5.65992],[-171,-5.43959],[-170.5,-5.21932],[-170,-4.99913],[-169.5,-4.77905],[-169,-4.5591],[-168.5,-4.3393],[-168,-4.11968],[-167.72447,-3.99865]]}},{"type":"Feature","id":"+00841216:south:0","properties":{"id":"+00841216","year":84,"month":12,"day":16,"time_tdt":"06:16:36","type":"개기일식","type_code":"T","saros":72,"gamma":0.06987,"magnitude":1.04514,"greatest":{"lat":-19.69501,"lng":126.86627},"path_width_km":150.8,"duration":"04m10s","delta_t_seconds":9697.2,"catalog_number":4984,"source":"NASA Five Millennium Canon of Solar Eclipses","source_url":"https://eclipse.gsfc.nasa.gov/SEsearch/SEsearchmap.php?Ecl=%2B00841216","boundary":"south","name":"84-12-16 개기일식"},"geometry":{"type":"LineString","coordinates":[[66.82617,11.06015],[67,10.98257],[67.5,10.75818],[68,10.53196],[68.5,10.30388],[69,10.07396],[69.5,9.84217],[70,9.60851],[70.5,9.37299],[71,9.13558],[71.5,8.8963],[72,8.65512],[72.5,8.41206],[73,8.1671],[73.5,7.92024],[74,7.67148],[74.5,7.42082],[75,7.16825],[75.5,6.91378],[76,6.65741],[76.5,6.39913],[77,6.13895],[77.5,5.87688],[78,5.61291],[78.5,5.34705],[79,5.07931],[79.5,4.8097],[80,4.53821],[80.5,4.26487],[81,3.98968],[81.5,3.71266],[82,3.43381],[82.5,3.15316],[83,2.87073],[83.5,2.58652],[84,2.30056],[84.5,2.01288],[85,1.7235],[85.5,1.43244],[86,1.13973],[86.5,0.84542],[87,0.54951],[87.5,0.25207],[88,-0.04688],[88.5,-0.3473],[89,-0.64914],[89.5,-0.95236],[90,-1.2569],[90.5,-1.56271],[91,-1.86974],[91.5,-2.17793],[92,-2.48721],[92.5,-2.79752],[93,-3.10879],[93.5,-3.42095],[94,-3.73392],[94.5,-4.04763],[95,-4.36198],[95.5,-4.67689],[96,-4.99227],[96.5,-5.30802],[97,-5.62406],[97.5,-5.94027],[98,-6.25655],[98.5,-6.57279],[99,-6.88888],[99.5,-7.2047],[100,-7.52014],[100.5,-7.83507],[101,-8.14936],[101.5,-8.46289],[102,-8.77553],[102.5,-9.08714],[103,-9.39759],[103.5,-9.70673],[104,-10.01444],[104.5,-10.32057],[105,-10.62497],[105.5,-10.9275],[106,-11.22803],[106.5,-11.52639],[107,-11.82246],[107.5,-12.11609],[108,-12.40713],[108.5,-12.69544],[109,-12.98087],[109.5,-13.2633],[110,-13.54258],[110.5,-13.81858],[111,-14.09117],[111.5,-14.36021],[112,-14.62558],[112.5,-14.88715],[113,-15.14481],[113.5,-15.39845],[114,-15.64794],[114.5,-15.89319],[115,-16.13408],[115.5,-16.37053],[116,-16.60244],[116.5,-16.82971],[117,-17.05228],[117.5,-17.27005],[118,-17.48295],[118.5,-17.69092],[119,-17.89389],[119.5,-18.09181],[120,-18.28461],[120.5,-18.47226],[121,-18.65469],[121.5,-18.83188],[122,-19.0038],[122.5,-19.1704],[123,-19.33166],[123.5,-19.48756],[124,-19.63808],[124.5,-19.78321],[125,-19.92293],[125.5,-20.05725],[126,-20.18614],[126.5,-20.30962],[127,-20.42769],[127.5,-20.54034],[128,-20.6476],[128.5,-20.74947],[129,-20.84596],[129.5,-20.93709],[130,-21.02288],[130.5,-21.10335],[131,-21.17852],[131.5,-21.24841],[132,-21.31306],[132.5,-21.37248],[133,-21.42671],[133.5,-21.47578],[134,-21.51971],[134.5,-21.55856],[135,-21.59234],[135.5,-21.62109],[136,-21.64485],[136.5,-21.66366],[137,-21.67756],[137.5,-21.68659],[138,-21.69078],[138.5,-21.69018],[139,-21.68483],[139.5,-21.67477],[140,-21.66004],[140.5,-21.6407],[141,-21.61678],[141.5,-21.58833],[142,-21.55539],[142.5,-21.51802],[143,-21.47626],[143.5,-21.43015],[144,-21.37974],[144.5,-21.32509],[145,-21.26623],[145.5,-21.20323],[146,-21.13612],[146.5,-21.06497],[147,-20.98981],[147.5,-20.91071],[148,-20.82771],[148.5,-20.74086],[149,-20.65022],[149.5,-20.55584],[150,-20.45776],[150.5,-20.35606],[151,-20.25077],[151.5,-20.14195],[152,-20.02967],[152.5,-19.91396],[153,-19.79489],[153.5,-19.6725],[154,-19.54687],[154.5,-19.41804],[155,-19.28606],[155.5,-19.151],[156,-19.01291],[156.5,-18.87185],[157,-18.72787],[157.5,-18.58103],[158,-18.43139],[158.5,-18.279],[159,-18.12392],[159.5,-17.96621],[160,-17.80593],[160.5,-17.64313],[161,-17.47787],[161.5,-17.3102],[162,-17.14019],[162.5,-16.96789],[163,-16.79336],[163.5,-16.61665],[164,-16.43782],[164.5,-16.25693],[165,-16.07403],[165.5,-15.88917],[166,-15.70242],[166.5,-15.51383],[167,-15.32346],[167.5,-15.13135],[168,-14.93756],[168.5,-14.74214],[169,-14.54516],[169.5,-14.34665],[170,-14.14668],[170.5,-13.94529],[171,-13.74254],[171.5,-13.53847],[172,-13.33314],[172.5,-13.1266],[173,-12.91889],[173.5,-12.71006],[174,-12.50016],[174.5,-12.28924],[175,-12.07735],[175.5,-11.86452],[176,-11.65081],[176.5,-11.43625],[177,-11.2209],[177.5,-11.0048],[178,-10.78798],[178.5,-10.57049],[179,-10.35237],[179.5,-10.13365],[180,-9.91439]]}},{"type":"Feature","id":"+00841216:south:1","properties":{"id":"+00841216","year":84,"month":12,"day":16,"time_tdt":"06:16:36","type":"개기일식","type_code":"T","saros":72,"gamma":0.06987,"magnitude":1.04514,"greatest":{"lat":-19.69501,"lng":126.86627},"path_width_km":150.8,"duration":"04m10s","delta_t_seconds":9697.2,"catalog_number":4984,"source":"NASA Five Millennium Canon of Solar Eclipses","source_url":"https://eclipse.gsfc.nasa.gov/SEsearch/SEsearchmap.php?Ecl=%2B00841216","boundary":"south","name":"84-12-16 개기일식"},"geometry":{"type":"LineString","coordinates":[[-179.5,-9.69462],[-179,-9.47437],[-178.5,-9.25368],[-178,-9.03259],[-177.5,-8.81113],[-177,-8.58935],[-176.5,-8.36726],[-176,-8.14492],[-175.5,-7.92234],[-175,-7.69956],[-174.5,-7.47662],[-174,-7.25354],[-173.5,-7.03036],[-173,-6.80709],[-172.5,-6.58378],[-172,-6.36045],[-171.5,-6.13712],[-171,-5.91382],[-170.5,-5.69059],[-170,-5.46743],[-169.5,-5.24439],[-169,-5.02147],[-168.5,-4.79872],[-168,-4.57614],[-167.54102,-4.37199]]}}],"attribution":"Eclipse Predictions by Fred Espenak and Jean Meeus (NASA's GSFC)","generated_at":"2026-09-23T01:44:44.402Z"}
