{"type":"FeatureCollection","year":859,"events":[{"id":"+08590506","year":859,"month":5,"day":6,"time_tdt":"12:26:38","type":"개기일식","type_code":"T","saros":100,"gamma":-0.23618,"magnitude":1.04203,"greatest":{"lat":4.18501,"lng":4.74683},"path_width_km":144.5,"duration":"04m17s","delta_t_seconds":2477.5,"catalog_number":6807,"source":"NASA Five Millennium Canon of Solar Eclipses","source_url":"https://eclipse.gsfc.nasa.gov/SEsearch/SEsearchmap.php?Ecl=%2B08590506"},{"id":"+08591029","year":859,"month":10,"day":29,"time_tdt":"17:26:19","type":"금환일식","type_code":"A","saros":105,"gamma":0.2818,"magnitude":0.98208,"greatest":{"lat":0.97918,"lng":-71.47778},"path_width_km":66.2,"duration":"02m03s","delta_t_seconds":2474,"catalog_number":6808,"source":"NASA Five Millennium Canon of Solar Eclipses","source_url":"https://eclipse.gsfc.nasa.gov/SEsearch/SEsearchmap.php?Ecl=%2B08591029"}],"features":[{"type":"Feature","id":"+08590506:north:0","properties":{"id":"+08590506","year":859,"month":5,"day":6,"time_tdt":"12:26:38","type":"개기일식","type_code":"T","saros":100,"gamma":-0.23618,"magnitude":1.04203,"greatest":{"lat":4.18501,"lng":4.74683},"path_width_km":144.5,"duration":"04m17s","delta_t_seconds":2477.5,"catalog_number":6807,"source":"NASA Five Millennium Canon of Solar Eclipses","source_url":"https://eclipse.gsfc.nasa.gov/SEsearch/SEsearchmap.php?Ecl=%2B08590506","boundary":"north","name":"859-05-06 개기일식"},"geometry":{"type":"LineString","coordinates":[[-54.22852,-22.56371],[-54,-22.48894],[-53.5,-22.32422],[-53,-22.15795],[-52.5,-21.99013],[-52,-21.82073],[-51.5,-21.64976],[-51,-21.4772],[-50.5,-21.30304],[-50,-21.12728],[-49.5,-20.94989],[-49,-20.77088],[-48.5,-20.59023],[-48,-20.40793],[-47.5,-20.22397],[-47,-20.03834],[-46.5,-19.85104],[-46,-19.66205],[-45.5,-19.47137],[-45,-19.27898],[-44.5,-19.08487],[-44,-18.88904],[-43.5,-18.69148],[-43,-18.49218],[-42.5,-18.29113],[-42,-18.08832],[-41.5,-17.88375],[-41,-17.67741],[-40.5,-17.46929],[-40,-17.25938],[-39.5,-17.04769],[-39,-16.83419],[-38.5,-16.6189],[-38,-16.40179],[-37.5,-16.18288],[-37,-15.96216],[-36.5,-15.73961],[-36,-15.51525],[-35.5,-15.28907],[-35,-15.06107],[-34.5,-14.83125],[-34,-14.59961],[-33.5,-14.36616],[-33,-14.1309],[-32.5,-13.89382],[-32,-13.65495],[-31.5,-13.41429],[-31,-13.17184],[-30.5,-12.92762],[-30,-12.68163],[-29.5,-12.4339],[-29,-12.18444],[-28.5,-11.93326],[-28,-11.68039],[-27.5,-11.42584],[-27,-11.16964],[-26.5,-10.91182],[-26,-10.6524],[-25.5,-10.39142],[-25,-10.12891],[-24.5,-9.86491],[-24,-9.59945],[-23.5,-9.33259],[-23,-9.06436],[-22.5,-8.79482],[-22,-8.52401],[-21.5,-8.25201],[-21,-7.97886],[-20.5,-7.70464],[-20,-7.42941],[-19.5,-7.15324],[-19,-6.87621],[-18.5,-6.59841],[-18,-6.31992],[-17.5,-6.04084],[-17,-5.76125],[-16.5,-5.48125],[-16,-5.20097],[-15.5,-4.92049],[-15,-4.63994],[-14.5,-4.35944],[-14,-4.07911],[-13.5,-3.79909],[-13,-3.51949],[-12.5,-3.24047],[-12,-2.96216],[-11.5,-2.68471],[-11,-2.40827],[-10.5,-2.133],[-10,-1.85904],[-9.5,-1.58656],[-9,-1.31572],[-8.5,-1.04669],[-8,-0.77963],[-7.5,-0.51471],[-7,-0.25209],[-6.5,0.00805],[-6,0.26554],[-5.5,0.52022],[-5,0.77192],[-4.5,1.02047],[-4,1.26572],[-3.5,1.5075],[-3,1.74565],[-2.5,1.98002],[-2,2.21046],[-1.5,2.43683],[-1,2.65899],[-0.5,2.8768],[0,3.09013],[0.5,3.29887],[1,3.5029],[1.5,3.70211],[2,3.89639],[2.5,4.08566],[3,4.26983],[3.5,4.44882],[4,4.62256],[4.5,4.79097],[5,4.95402],[5.5,5.11164],[6,5.2638],[6.5,5.41045],[7,5.55159],[7.5,5.68717],[8,5.81719],[8.5,5.94165],[9,6.06054],[9.5,6.17386],[10,6.28163],[10.5,6.38386],[11,6.48058],[11.5,6.57181],[12,6.65758],[12.5,6.73793],[13,6.8129],[13.5,6.88253],[14,6.94687],[14.5,7.00597],[15,7.05989],[15.5,7.10867],[16,7.15238],[16.5,7.19108],[17,7.22483],[17.5,7.2537],[18,7.27776],[18.5,7.29706],[19,7.3117],[19.5,7.32172],[20,7.32721],[20.5,7.32824],[21,7.32488],[21.5,7.31721],[22,7.3053],[22.5,7.28922],[23,7.26905],[23.5,7.24486],[24,7.21674],[24.5,7.18474],[25,7.14896],[25.5,7.10946],[26,7.06631],[26.5,7.01959],[27,6.96938],[27.5,6.91574],[28,6.85875],[28.5,6.79848],[29,6.735],[29.5,6.66838],[30,6.59868],[30.5,6.52599],[31,6.45036],[31.5,6.37186],[32,6.29056],[32.5,6.20653],[33,6.11982],[33.5,6.03051],[34,5.93865],[34.5,5.84431],[35,5.74755],[35.5,5.64843],[36,5.547],[36.5,5.44333],[37,5.33748],[37.5,5.22949],[38,5.11943],[38.5,5.00735],[39,4.89331],[39.5,4.77735],[40,4.65953],[40.5,4.53989],[41,4.4185],[41.5,4.2954],[42,4.17064],[42.5,4.04426],[43,3.91631],[43.5,3.78684],[44,3.6559],[44.5,3.52352],[45,3.38975],[45.5,3.25463],[46,3.1182],[46.5,2.98051],[47,2.8416],[47.5,2.7015],[48,2.56025],[48.5,2.41789],[49,2.27446],[49.5,2.12999],[50,1.98452],[50.5,1.83808],[51,1.69072],[51.5,1.54245],[52,1.39331],[52.5,1.24334],[53,1.09257],[53.5,0.94103],[54,0.78874],[54.5,0.63574],[55,0.48205],[55.5,0.32771],[56,0.17273],[56.5,0.01716],[57,-0.13899],[57.5,-0.29569],[58,-0.45292],[58.5,-0.61064],[59,-0.76884],[59.5,-0.9275],[60,-1.08658],[60.5,-1.24607],[61,-1.40595],[61.5,-1.56619],[62,-1.72677],[62.5,-1.88767],[63,-2.04888],[63.5,-2.21036],[64,-2.37211],[64.5,-2.5341],[65,-2.69632],[65.5,-2.85874]]}},{"type":"Feature","id":"+08590506:center:0","properties":{"id":"+08590506","year":859,"month":5,"day":6,"time_tdt":"12:26:38","type":"개기일식","type_code":"T","saros":100,"gamma":-0.23618,"magnitude":1.04203,"greatest":{"lat":4.18501,"lng":4.74683},"path_width_km":144.5,"duration":"04m17s","delta_t_seconds":2477.5,"catalog_number":6807,"source":"NASA Five Millennium Canon of Solar Eclipses","source_url":"https://eclipse.gsfc.nasa.gov/SEsearch/SEsearchmap.php?Ecl=%2B08590506","boundary":"center","name":"859-05-06 개기일식"},"geometry":{"type":"LineString","coordinates":[[-54.09876,-22.92363],[-54,-22.88278],[-53.5,-22.72079],[-53,-22.55728],[-52.5,-22.39223],[-52,-22.22563],[-51.5,-22.05748],[-51,-21.88777],[-50.5,-21.71648],[-50,-21.54361],[-49.5,-21.36914],[-49,-21.19308],[-48.5,-21.01539],[-48,-20.83608],[-47.5,-20.65514],[-47,-20.47256],[-46.5,-20.28833],[-46,-20.10243],[-45.5,-19.91486],[-45,-19.72561],[-44.5,-19.53468],[-44,-19.34204],[-43.5,-19.1477],[-43,-18.95164],[-42.5,-18.75386],[-42,-18.55435],[-41.5,-18.3531],[-41,-18.1501],[-40.5,-17.94535],[-40,-17.73885],[-39.5,-17.53057],[-39,-17.32052],[-38.5,-17.1087],[-38,-16.89509],[-37.5,-16.6797],[-37,-16.46252],[-36.5,-16.24354],[-36,-16.02277],[-35.5,-15.8002],[-35,-15.57583],[-34.5,-15.34967],[-34,-15.12171],[-33.5,-14.89195],[-33,-14.6604],[-32.5,-14.42707],[-32,-14.19195],[-31.5,-13.95505],[-31,-13.71639],[-30.5,-13.47596],[-30,-13.23379],[-29.5,-12.98988],[-29,-12.74426],[-28.5,-12.49692],[-28,-12.2479],[-27.5,-11.99721],[-27,-11.74487],[-26.5,-11.49091],[-26,-11.23536],[-25.5,-10.97824],[-25,-10.71958],[-24.5,-10.45943],[-24,-10.19781],[-23.5,-9.93477],[-23,-9.67035],[-22.5,-9.4046],[-22,-9.13756],[-21.5,-8.8693],[-21,-8.59987],[-20.5,-8.32933],[-20,-8.05774],[-19.5,-7.78518],[-19,-7.51172],[-18.5,-7.23743],[-18,-6.9624],[-17.5,-6.68672],[-17,-6.41047],[-16.5,-6.13375],[-16,-5.85667],[-15.5,-5.57932],[-15,-5.30183],[-14.5,-5.02429],[-14,-4.74684],[-13.5,-4.46959],[-13,-4.19268],[-12.5,-3.91623],[-12,-3.6404],[-11.5,-3.3653],[-11,-3.09111],[-10.5,-2.81795],[-10,-2.54599],[-9.5,-2.27538],[-9,-2.00628],[-8.5,-1.73886],[-8,-1.47327],[-7.5,-1.20968],[-7,-0.94826],[-6.5,-0.68917],[-6,-0.43259],[-5.5,-0.17868],[-5,0.07239],[-4.5,0.32045],[-4,0.56535],[-3.5,0.80692],[-3,1.045],[-2.5,1.27943],[-2,1.51006],[-1.5,1.73675],[-1,1.95935],[-0.5,2.17772],[0,2.39174],[0.5,2.60127],[1,2.80619],[1.5,3.0064],[2,3.20178],[2.5,3.39224],[3,3.57769],[3.5,3.75803],[4,3.93319],[4.5,4.10311],[5,4.26772],[5.5,4.42697],[6,4.58081],[6.5,4.7292],[7,4.8721],[7.5,5.0095],[8,5.14138],[8.5,5.26772],[9,5.38852],[9.5,5.50378],[10,5.61351],[10.5,5.71772],[11,5.81643],[11.5,5.90967],[12,5.99746],[12.5,6.07983],[13,6.15684],[13.5,6.2285],[14,6.29489],[14.5,6.35603],[15,6.41199],[15.5,6.46282],[16,6.50857],[16.5,6.54932],[17,6.58512],[17.5,6.61603],[18,6.64213],[18.5,6.66349],[19,6.68016],[19.5,6.69223],[20,6.69976],[20.5,6.70283],[21,6.70152],[21.5,6.69589],[22,6.68602],[22.5,6.67199],[23,6.65387],[23.5,6.63174],[24,6.60567],[24.5,6.57574],[25,6.54202],[25.5,6.50459],[26,6.46352],[26.5,6.41889],[27,6.37077],[27.5,6.31923],[28,6.26434],[28.5,6.20619],[29,6.14483],[29.5,6.08035],[30,6.0128],[30.5,5.94226],[31,5.86879],[31.5,5.79247],[32,5.71336],[32.5,5.63153],[33,5.54703],[33.5,5.45994],[34,5.37032],[34.5,5.27822],[35,5.18372],[35.5,5.08687],[36,4.98772],[36.5,4.88635],[37,4.7828],[37.5,4.67713],[38,4.5694],[38.5,4.45966],[39,4.34797],[39.5,4.23438],[40,4.11893],[40.5,4.00169],[41,3.88269],[41.5,3.762],[42,3.63966],[42.5,3.51571],[43,3.3902],[43.5,3.26318],[44,3.13469],[44.5,3.00477],[45,2.87348],[45.5,2.74084],[46,2.60691],[46.5,2.47172],[47,2.33531],[47.5,2.19772],[48,2.05899],[48.5,1.91916],[49,1.77826],[49.5,1.63633],[50,1.4934],[50.5,1.34951],[51,1.20469],[51.5,1.05897],[52,0.91239],[52.5,0.76498],[53,0.61677],[53.5,0.46779],[54,0.31807],[54.5,0.16764],[55,0.01652],[55.5,-0.13526],[56,-0.28766],[56.5,-0.44066],[57,-0.59425],[57.5,-0.74838],[58,-0.90304],[58.5,-1.0582],[59,-1.21383],[59.5,-1.36993],[60,-1.52645],[60.5,-1.68339],[61,-1.84071],[61.5,-1.9984],[62,-2.15644],[62.5,-2.3148],[63,-2.47346],[63.5,-2.63242],[64,-2.79164],[64.5,-2.95111],[65,-3.11081],[65.4111,-3.2419]]}},{"type":"Feature","id":"+08590506:south:0","properties":{"id":"+08590506","year":859,"month":5,"day":6,"time_tdt":"12:26:38","type":"개기일식","type_code":"T","saros":100,"gamma":-0.23618,"magnitude":1.04203,"greatest":{"lat":4.18501,"lng":4.74683},"path_width_km":144.5,"duration":"04m17s","delta_t_seconds":2477.5,"catalog_number":6807,"source":"NASA Five Millennium Canon of Solar Eclipses","source_url":"https://eclipse.gsfc.nasa.gov/SEsearch/SEsearchmap.php?Ecl=%2B08590506","boundary":"south","name":"859-05-06 개기일식"},"geometry":{"type":"LineString","coordinates":[[-53.99414,-23.27396],[-53.5,-23.11653],[-53,-22.95574],[-52.5,-22.79344],[-52,-22.62961],[-51.5,-22.46426],[-51,-22.29736],[-50.5,-22.12891],[-50,-21.9589],[-49.5,-21.78733],[-49,-21.61417],[-48.5,-21.43942],[-48,-21.26307],[-47.5,-21.08512],[-47,-20.90554],[-46.5,-20.72434],[-46,-20.5415],[-45.5,-20.35701],[-45,-20.17087],[-44.5,-19.98307],[-44,-19.79359],[-43.5,-19.60243],[-43,-19.40958],[-42.5,-19.21503],[-42,-19.01878],[-41.5,-18.82081],[-41,-18.62112],[-40.5,-18.4197],[-40,-18.21655],[-39.5,-18.01166],[-39,-17.80501],[-38.5,-17.59662],[-38,-17.38647],[-37.5,-17.17455],[-37,-16.96087],[-36.5,-16.74542],[-36,-16.5282],[-35.5,-16.3092],[-35,-16.08842],[-34.5,-15.86587],[-34,-15.64154],[-33.5,-15.41544],[-33,-15.18757],[-32.5,-14.95792],[-32,-14.72651],[-31.5,-14.49335],[-31,-14.25843],[-30.5,-14.02176],[-30,-13.78336],[-29.5,-13.54324],[-29,-13.30141],[-28.5,-13.05788],[-28,-12.81267],[-27.5,-12.5658],[-27,-12.31729],[-26.5,-12.06716],[-26,-11.81544],[-25.5,-11.56215],[-25,-11.30732],[-24.5,-11.05099],[-24,-10.79318],[-23.5,-10.53395],[-23,-10.27332],[-22.5,-10.01134],[-22,-9.74806],[-21.5,-9.48353],[-21,-9.2178],[-20.5,-8.95094],[-20,-8.683],[-19.5,-8.41405],[-19,-8.14415],[-18.5,-7.87339],[-18,-7.60183],[-17.5,-7.32957],[-17,-7.05669],[-16.5,-6.78327],[-16,-6.50942],[-15.5,-6.23524],[-15,-5.96084],[-14.5,-5.68631],[-14,-5.41178],[-13.5,-5.13737],[-13,-4.8632],[-12.5,-4.5894],[-12,-4.3161],[-11.5,-4.04344],[-11,-3.77156],[-10.5,-3.50061],[-10,-3.23073],[-9.5,-2.96209],[-9,-2.69482],[-8.5,-2.4291],[-8,-2.16509],[-7.5,-1.90294],[-7,-1.64282],[-6.5,-1.3849],[-6,-1.12934],[-5.5,-0.87631],[-5,-0.62599],[-4.5,-0.37852],[-4,-0.13409],[-3.5,0.10715],[-3,0.34504],[-2.5,0.57942],[-2,0.81013],[-1.5,1.03703],[-1,1.25997],[-0.5,1.4788],[0,1.69339],[0.5,1.90362],[1,2.10935],[1.5,2.31046],[2,2.50686],[2.5,2.69842],[3,2.88507],[3.5,3.06669],[4,3.24322],[4.5,3.41458],[5,3.5807],[5.5,3.74152],[6,3.89699],[6.5,4.04707],[7,4.19171],[7.5,4.33089],[8,4.46459],[8.5,4.59279],[9,4.71548],[9.5,4.83266],[10,4.94434],[10.5,5.05052],[11,5.15122],[11.5,5.24646],[12,5.33627],[12.5,5.42068],[13,5.49972],[13.5,5.57344],[14,5.64187],[14.5,5.70508],[15,5.7631],[15.5,5.816],[16,5.86382],[16.5,5.90664],[17,5.94451],[17.5,5.9775],[18,6.00567],[18.5,6.02909],[19,6.04784],[19.5,6.06198],[20,6.07159],[20.5,6.07674],[21,6.0775],[21.5,6.07395],[22,6.06616],[22.5,6.05421],[23,6.03818],[23.5,6.01814],[24,5.99416],[24.5,5.96633],[25,5.93471],[25.5,5.89939],[26,5.86044],[26.5,5.81793],[27,5.77193],[27.5,5.72253],[28,5.66979],[28.5,5.61379],[29,5.55459],[29.5,5.49228],[30,5.42691],[30.5,5.35856],[31,5.28729],[31.5,5.21318],[32,5.13629],[32.5,5.05669],[33,4.97443],[33.5,4.8896],[34,4.80224],[34.5,4.71242],[35,4.6202],[35.5,4.52565],[36,4.42882],[36.5,4.32976],[37,4.22854],[37.5,4.12522],[38,4.01984],[38.5,3.91247],[39,3.80316],[39.5,3.69195],[40,3.5789],[40.5,3.46406],[41,3.34749],[41.5,3.22922],[42,3.10932],[42.5,2.98781],[43,2.86476],[43.5,2.7402],[44,2.61419],[44.5,2.48675],[45,2.35794],[45.5,2.22781],[46,2.09638],[46.5,1.96369],[47,1.8298],[47.5,1.69473],[48,1.55853],[48.5,1.42123],[49,1.28287],[49.5,1.14348],[50,1.0031],[50.5,0.86176],[51,0.71949],[51.5,0.57633],[52,0.43232],[52.5,0.28747],[53,0.14182],[53.5,-0.00459],[54,-0.15175],[54.5,-0.29961],[55,-0.44816],[55.5,-0.59737],[56,-0.7472],[56.5,-0.89764],[57,-1.04866],[57.5,-1.20022],[58,-1.35232],[58.5,-1.50492],[59,-1.65799],[59.5,-1.81153],[60,-1.9655],[60.5,-2.11988],[61,-2.27466],[61.5,-2.4298],[62,-2.5853],[62.5,-2.74113],[63,-2.89726],[63.5,-3.05369],[64,-3.21039],[64.5,-3.36734],[65,-3.52454],[65.3125,-3.62289]]}},{"type":"Feature","id":"+08591029:north:0","properties":{"id":"+08591029","year":859,"month":10,"day":29,"time_tdt":"17:26:19","type":"금환일식","type_code":"A","saros":105,"gamma":0.2818,"magnitude":0.98208,"greatest":{"lat":0.97918,"lng":-71.47778},"path_width_km":66.2,"duration":"02m03s","delta_t_seconds":2474,"catalog_number":6808,"source":"NASA Five Millennium Canon of Solar Eclipses","source_url":"https://eclipse.gsfc.nasa.gov/SEsearch/SEsearchmap.php?Ecl=%2B08591029","boundary":"north","name":"859-10-29 금환일식"},"geometry":{"type":"LineString","coordinates":[[-130,28.64448],[-129.5,28.50501],[-129,28.364],[-128.5,28.22142],[-128,28.07727],[-127.5,27.93154],[-127,27.7842],[-126.5,27.63525],[-126,27.48467],[-125.5,27.33245],[-125,27.17858],[-124.5,27.02304],[-124,26.86581],[-123.5,26.70689],[-123,26.54626],[-122.5,26.3839],[-122,26.21979],[-121.5,26.05394],[-121,25.88631],[-120.5,25.71689],[-120,25.54568],[-119.5,25.37265],[-119,25.19778],[-118.5,25.02107],[-118,24.8425],[-117.5,24.66206],[-117,24.47971],[-116.5,24.29547],[-116,24.10929],[-115.5,23.92118],[-115,23.73112],[-114.5,23.53908],[-114,23.34506],[-113.5,23.14904],[-113,22.95101],[-112.5,22.75094],[-112,22.54883],[-111.5,22.34467],[-111,22.13842],[-110.5,21.9301],[-110,21.71967],[-109.5,21.50713],[-109,21.29246],[-108.5,21.07565],[-108,20.8567],[-107.5,20.63558],[-107,20.41229],[-106.5,20.18682],[-106,19.95916],[-105.5,19.7293],[-105,19.49724],[-104.5,19.26297],[-104,19.02648],[-103.5,18.78777],[-103,18.54684],[-102.5,18.30369],[-102,18.05832],[-101.5,17.81073],[-101,17.56093],[-100.5,17.30892],[-100,17.05471],[-99.5,16.79831],[-99,16.53973],[-98.5,16.279],[-98,16.01613],[-97.5,15.75115],[-97,15.48407],[-96.5,15.21493],[-96,14.94376],[-95.5,14.67059],[-95,14.39547],[-94.5,14.11845],[-94,13.83956],[-93.5,13.55887],[-93,13.27643],[-92.5,12.99231],[-92,12.70658],[-91.5,12.41931],[-91,12.1306],[-90.5,11.84052],[-90,11.54917],[-89.5,11.25665],[-89,10.96307],[-88.5,10.66855],[-88,10.37321],[-87.5,10.07717],[-87,9.78059],[-86.5,9.48359],[-86,9.18633],[-85.5,8.88897],[-85,8.59168],[-84.5,8.29462],[-84,7.99799],[-83.5,7.70195],[-83,7.40672],[-82.5,7.11247],[-82,6.81942],[-81.5,6.52777],[-81,6.23773],[-80.5,5.94952],[-80,5.66336],[-79.5,5.37945],[-79,5.09802],[-78.5,4.81929],[-78,4.54348],[-77.5,4.2708],[-77,4.00147],[-76.5,3.73569],[-76,3.47368],[-75.5,3.21562],[-75,2.96173],[-74.5,2.71217],[-74,2.46713],[-73.5,2.22678],[-73,1.99128],[-72.5,1.76078],[-72,1.53543],[-71.5,1.31535],[-71,1.10066],[-70.5,0.89148],[-70,0.68789],[-69.5,0.48999],[-69,0.29785],[-68.5,0.11154],[-68,-0.0689],[-67.5,-0.24341],[-67,-0.41197],[-66.5,-0.57455],[-66,-0.73115],[-65.5,-0.88175],[-65,-1.02636],[-64.5,-1.16501],[-64,-1.2977],[-63.5,-1.42446],[-63,-1.54534],[-62.5,-1.66038],[-62,-1.76962],[-61.5,-1.87311],[-61,-1.97092],[-60.5,-2.0631],[-60,-2.14973],[-59.5,-2.23087],[-59,-2.3066],[-58.5,-2.37699],[-58,-2.44213],[-57.5,-2.50208],[-57,-2.55695],[-56.5,-2.6068],[-56,-2.65173],[-55.5,-2.69182],[-55,-2.72716],[-54.5,-2.75783],[-54,-2.78393],[-53.5,-2.80553],[-53,-2.82274],[-52.5,-2.83563],[-52,-2.8443],[-51.5,-2.84882],[-51,-2.84929],[-50.5,-2.84579],[-50,-2.83841],[-49.5,-2.82722],[-49,-2.81232],[-48.5,-2.79378],[-48,-2.77168],[-47.5,-2.7461],[-47,-2.71713],[-46.5,-2.68484],[-46,-2.64929],[-45.5,-2.61058],[-45,-2.56877],[-44.5,-2.52394],[-44,-2.47615],[-43.5,-2.42548],[-43,-2.37199],[-42.5,-2.31575],[-42,-2.25682],[-41.5,-2.19528],[-41,-2.13118],[-40.5,-2.0646],[-40,-1.99557],[-39.5,-1.92418],[-39,-1.85047],[-38.5,-1.7745],[-38,-1.69634],[-37.5,-1.61603],[-37,-1.53363],[-36.5,-1.44918],[-36,-1.36275],[-35.5,-1.27439],[-35,-1.18414],[-34.5,-1.09204],[-34,-0.99816],[-33.5,-0.90253],[-33,-0.80521],[-32.5,-0.70623],[-32,-0.60563],[-31.5,-0.50347],[-31,-0.39978],[-30.5,-0.2946],[-30,-0.18798],[-29.5,-0.07995],[-29,0.02945],[-28.5,0.14018],[-28,0.25221],[-27.5,0.36549],[-27,0.48001],[-26.5,0.59571],[-26,0.71257],[-25.5,0.83055],[-25,0.94963],[-24.5,1.06976],[-24,1.19093],[-23.5,1.3131],[-23,1.43624],[-22.5,1.56032],[-22,1.68531],[-21.5,1.81119],[-21,1.93793],[-20.5,2.0655],[-20,2.19388],[-19.5,2.32305],[-19,2.45297],[-18.5,2.58362],[-18,2.71499],[-17.5,2.84704],[-17,2.97975],[-16.5,3.11311],[-16,3.24709],[-15.5,3.38166],[-15,3.51682],[-14.5,3.65253],[-14,3.78878],[-13.5,3.92555],[-13,4.06282],[-12.66602,4.15478]]}},{"type":"Feature","id":"+08591029:center:0","properties":{"id":"+08591029","year":859,"month":10,"day":29,"time_tdt":"17:26:19","type":"금환일식","type_code":"A","saros":105,"gamma":0.2818,"magnitude":0.98208,"greatest":{"lat":0.97918,"lng":-71.47778},"path_width_km":66.2,"duration":"02m03s","delta_t_seconds":2474,"catalog_number":6808,"source":"NASA Five Millennium Canon of Solar Eclipses","source_url":"https://eclipse.gsfc.nasa.gov/SEsearch/SEsearchmap.php?Ecl=%2B08591029","boundary":"center","name":"859-10-29 금환일식"},"geometry":{"type":"LineString","coordinates":[[-130.2348,28.15148],[-130,28.07989],[-129.5,27.94237],[-129,27.80331],[-128.5,27.6627],[-128,27.52052],[-127.5,27.37676],[-127,27.23141],[-126.5,27.08445],[-126,26.93586],[-125.5,26.78565],[-125,26.63378],[-124.5,26.48026],[-124,26.32505],[-123.5,26.16816],[-123,26.00956],[-122.5,25.84924],[-122,25.68718],[-121.5,25.52338],[-121,25.35781],[-120.5,25.19047],[-120,25.02132],[-119.5,24.85037],[-119,24.6776],[-118.5,24.50298],[-118,24.32651],[-117.5,24.14817],[-117,23.96794],[-116.5,23.78581],[-116,23.60176],[-115.5,23.41578],[-115,23.22785],[-114.5,23.03796],[-114,22.84609],[-113.5,22.65222],[-113,22.45635],[-112.5,22.25845],[-112,22.05851],[-111.5,21.85653],[-111,21.65247],[-110.5,21.44633],[-110,21.2381],[-109.5,21.02776],[-109,20.8153],[-108.5,20.60071],[-108,20.38397],[-107.5,20.16508],[-107,19.94402],[-106.5,19.72079],[-106,19.49537],[-105.5,19.26776],[-105,19.03794],[-104.5,18.80593],[-104,18.5717],[-103.5,18.33525],[-103,18.09659],[-102.5,17.85571],[-102,17.61262],[-101.5,17.36731],[-101,17.11979],[-100.5,16.87006],[-100,16.61814],[-99.5,16.36404],[-99,16.10776],[-98.5,15.84933],[-98,15.58876],[-97.5,15.32607],[-97,15.0613],[-96.5,14.79447],[-96,14.5256],[-95.5,14.25474],[-95,13.98193],[-94.5,13.70721],[-94,13.43062],[-93.5,13.15224],[-93,12.8721],[-92.5,12.59028],[-92,12.30684],[-91.5,12.02187],[-91,11.73544],[-90.5,11.44764],[-90,11.15857],[-89.5,10.86832],[-89,10.577],[-88.5,10.28472],[-88,9.99162],[-87.5,9.69781],[-87,9.40344],[-86.5,9.10863],[-86,8.81356],[-85.5,8.51836],[-85,8.22321],[-84.5,7.92828],[-84,7.63374],[-83.5,7.33978],[-83,7.04659],[-82.5,6.75436],[-82,6.4633],[-81.5,6.1736],[-81,5.88548],[-80.5,5.59914],[-80,5.3148],[-79.5,5.03268],[-79,4.753],[-78.5,4.47596],[-78,4.20178],[-77.5,3.93069],[-77,3.66288],[-76.5,3.39856],[-76,3.13794],[-75.5,2.88122],[-75,2.62858],[-74.5,2.38021],[-74,2.13629],[-73.5,1.89698],[-73,1.66244],[-72.5,1.43282],[-72,1.20827],[-71.5,0.9889],[-71,0.77484],[-70.5,0.56619],[-70,0.36306],[-69.5,0.16552],[-69,-0.02635],[-68.5,-0.21248],[-68,-0.39282],[-67.5,-0.56733],[-67,-0.73598],[-66.5,-0.89875],[-66,-1.05561],[-65.5,-1.20658],[-65,-1.35165],[-64.5,-1.49083],[-64,-1.62415],[-63.5,-1.75163],[-63,-1.87331],[-62.5,-1.98923],[-62,-2.09943],[-61.5,-2.20397],[-61,-2.30291],[-60.5,-2.3963],[-60,-2.48421],[-59.5,-2.56671],[-59,-2.64386],[-58.5,-2.71576],[-58,-2.78246],[-57.5,-2.84406],[-57,-2.90062],[-56.5,-2.95224],[-56,-2.999],[-55.5,-3.04097],[-55,-3.07826],[-54.5,-3.11093],[-54,-3.13908],[-53.5,-3.1628],[-53,-3.18216],[-52.5,-3.19726],[-52,-3.20817],[-51.5,-3.21499],[-51,-3.2178],[-50.5,-3.21669],[-50,-3.21173],[-49.5,-3.203],[-49,-3.19059],[-48.5,-3.17458],[-48,-3.15505],[-47.5,-3.13207],[-47,-3.10572],[-46.5,-3.07609],[-46,-3.04323],[-45.5,-3.00722],[-45,-2.96815],[-44.5,-2.92607],[-44,-2.88106],[-43.5,-2.83319],[-43,-2.78252],[-42.5,-2.72912],[-42,-2.67305],[-41.5,-2.61438],[-41,-2.55317],[-40.5,-2.48948],[-40,-2.42337],[-39.5,-2.3549],[-39,-2.28413],[-38.5,-2.21111],[-38,-2.1359],[-37.5,-2.05855],[-37,-1.97912],[-36.5,-1.89766],[-36,-1.81421],[-35.5,-1.72883],[-35,-1.64157],[-34.5,-1.55248],[-34,-1.46159],[-33.5,-1.36896],[-33,-1.27464],[-32.5,-1.17866],[-32,-1.08107],[-31.5,-0.98191],[-31,-0.88122],[-30.5,-0.77904],[-30,-0.67541],[-29.5,-0.57037],[-29,-0.46396],[-28.5,-0.35622],[-28,-0.24717],[-27.5,-0.13686],[-27,-0.02532],[-26.5,0.08742],[-26,0.20131],[-25.5,0.31635],[-25,0.43247],[-24.5,0.54967],[-24,0.66791],[-23.5,0.78715],[-23,0.90737],[-22.5,1.02855],[-22,1.15064],[-21.5,1.27364],[-21,1.3975],[-20.5,1.5222],[-20,1.64772],[-19.5,1.77403],[-19,1.90112],[-18.5,2.02894],[-18,2.15749],[-17.5,2.28673],[-17,2.41665],[-16.5,2.54723],[-16,2.67843],[-15.5,2.81025],[-15,2.94266],[-14.5,3.07563],[-14,3.20916],[-13.5,3.34322],[-13,3.47779],[-12.56007,3.59657]]}},{"type":"Feature","id":"+08591029:south:0","properties":{"id":"+08591029","year":859,"month":10,"day":29,"time_tdt":"17:26:19","type":"금환일식","type_code":"A","saros":105,"gamma":0.2818,"magnitude":0.98208,"greatest":{"lat":0.97918,"lng":-71.47778},"path_width_km":66.2,"duration":"02m03s","delta_t_seconds":2474,"catalog_number":6808,"source":"NASA Five Millennium Canon of Solar Eclipses","source_url":"https://eclipse.gsfc.nasa.gov/SEsearch/SEsearchmap.php?Ecl=%2B08591029","boundary":"south","name":"859-10-29 금환일식"},"geometry":{"type":"LineString","coordinates":[[-130.38477,27.62096],[-130,27.51768],[-129.5,27.38212],[-129,27.24503],[-128.5,27.10639],[-128,26.96619],[-127.5,26.82441],[-127,26.68105],[-126.5,26.53609],[-126,26.38951],[-125.5,26.2413],[-125,26.09145],[-124.5,25.93995],[-124,25.78678],[-123.5,25.63192],[-123,25.47536],[-122.5,25.31709],[-122,25.15709],[-121.5,24.99535],[-121,24.83185],[-120.5,24.66657],[-120,24.49951],[-119.5,24.33065],[-119,24.15996],[-118.5,23.98745],[-118,23.81308],[-117.5,23.63685],[-117,23.45874],[-116.5,23.27873],[-116,23.09681],[-115.5,22.91297],[-115,22.72718],[-114.5,22.53944],[-114,22.34972],[-113.5,22.15801],[-113,21.96431],[-112.5,21.76858],[-112,21.57082],[-111.5,21.37101],[-111,21.16915],[-110.5,20.9652],[-110,20.75917],[-109.5,20.55104],[-109,20.34079],[-108.5,20.12841],[-108,19.9139],[-107.5,19.69723],[-107,19.4784],[-106.5,19.2574],[-106,19.03422],[-105.5,18.80885],[-105,18.58129],[-104.5,18.35153],[-104,18.11956],[-103.5,17.88537],[-103,17.64898],[-102.5,17.41037],[-102,17.16955],[-101.5,16.92651],[-101,16.68127],[-100.5,16.43383],[-100,16.1842],[-99.5,15.93238],[-99,15.6784],[-98.5,15.42226],[-98,15.16398],[-97.5,14.90359],[-97,14.64112],[-96.5,14.37658],[-96,14.11001],[-95.5,13.84145],[-95,13.57093],[-94.5,13.29851],[-94,13.02422],[-93.5,12.74812],[-93,12.47028],[-92.5,12.19074],[-92,11.90959],[-91.5,11.62689],[-91,11.34274],[-90.5,11.0572],[-90,10.77038],[-89.5,10.48238],[-89,10.19331],[-88.5,9.90326],[-88,9.61238],[-87.5,9.32077],[-87,9.02859],[-86.5,8.73596],[-86,8.44305],[-85.5,8.14999],[-85,7.85696],[-84.5,7.56413],[-84,7.27166],[-83.5,6.97975],[-83,6.68858],[-82.5,6.39834],[-82,6.10923],[-81.5,5.82145],[-81,5.53521],[-80.5,5.25072],[-80,4.96819],[-79.5,4.68782],[-79,4.40984],[-78.5,4.13446],[-78,3.86189],[-77.5,3.59234],[-77,3.32603],[-76.5,3.06314],[-76,2.80389],[-75.5,2.54846],[-75,2.29705],[-74.5,2.04984],[-74,1.807],[-73.5,1.5687],[-73,1.33509],[-72.5,1.10632],[-72,0.88254],[-71.5,0.66385],[-71,0.45039],[-70.5,0.24226],[-70,0.03955],[-69.5,-0.15765],[-69,-0.34927],[-68.5,-0.53524],[-68,-0.71551],[-67.5,-0.89004],[-67,-1.0588],[-66.5,-1.22177],[-66,-1.37892],[-65.5,-1.53027],[-65,-1.6758],[-64.5,-1.81554],[-64,-1.9495],[-63.5,-2.0777],[-63,-2.20019],[-62.5,-2.317],[-62,-2.42818],[-61.5,-2.53378],[-61,-2.63385],[-60.5,-2.72845],[-60,-2.81764],[-59.5,-2.9015],[-59,-2.98009],[-58.5,-3.05348],[-58,-3.12175],[-57.5,-3.18498],[-57,-3.24325],[-56.5,-3.29663],[-56,-3.34521],[-55.5,-3.38907],[-55,-3.42829],[-54.5,-3.46295],[-54,-3.49315],[-53.5,-3.51896],[-53,-3.54048],[-52.5,-3.55777],[-52,-3.57093],[-51.5,-3.58004],[-51,-3.58518],[-50.5,-3.58643],[-50,-3.58387],[-49.5,-3.5776],[-49,-3.56767],[-48.5,-3.55418],[-48,-3.5372],[-47.5,-3.5168],[-47,-3.49307],[-46.5,-3.46607],[-46,-3.43588],[-45.5,-3.40257],[-45,-3.36622],[-44.5,-3.32688],[-44,-3.28463],[-43.5,-3.23954],[-43,-3.19168],[-42.5,-3.1411],[-42,-3.08787],[-41.5,-3.03206],[-41,-2.97372],[-40.5,-2.91291],[-40,-2.8497],[-39.5,-2.78414],[-39,-2.71629],[-38.5,-2.6462],[-38,-2.57393],[-37.5,-2.49954],[-37,-2.42306],[-36.5,-2.34456],[-36,-2.26408],[-35.5,-2.18167],[-35,-2.09739],[-34.5,-2.01128],[-34,-1.92337],[-33.5,-1.83373],[-33,-1.74239],[-32.5,-1.6494],[-32,-1.5548],[-31.5,-1.45863],[-31,-1.36092],[-30.5,-1.26173],[-30,-1.16109],[-29.5,-1.05903],[-29,-0.9556],[-28.5,-0.85082],[-28,-0.74475],[-27.5,-0.6374],[-27,-0.52882],[-26.5,-0.41904],[-26,-0.30809],[-25.5,-0.196],[-25,-0.08281],[-24.5,0.03146],[-24,0.14678],[-23.5,0.26311],[-23,0.38042],[-22.5,0.4987],[-22,0.61791],[-21.5,0.73802],[-21,0.85901],[-20.5,0.98085],[-20,1.10352],[-19.5,1.227],[-19,1.35125],[-18.5,1.47625],[-18,1.60199],[-17.5,1.72844],[-17,1.85557],[-16.5,1.98337],[-16,2.11181],[-15.5,2.24087],[-15,2.37054],[-14.5,2.50078],[-14,2.63159],[-13.5,2.76295],[-13,2.89483],[-12.5,3.02721],[-12.45508,3.03913]]}}],"attribution":"Eclipse Predictions by Fred Espenak and Jean Meeus (NASA's GSFC)","generated_at":"2026-09-23T01:44:57.806Z"}
