{"type":"FeatureCollection","year":862,"events":[{"id":"+08620304","year":862,"month":3,"day":4,"time_tdt":"11:03:38","type":"금환일식","type_code":"A","saros":92,"gamma":0.34339,"magnitude":0.9591,"greatest":{"lat":14.50611,"lng":21.18054},"path_width_km":157.5,"duration":"04m49s","delta_t_seconds":2456.6,"catalog_number":6813,"source":"NASA Five Millennium Canon of Solar Eclipses","source_url":"https://eclipse.gsfc.nasa.gov/SEsearch/SEsearchmap.php?Ecl=%2B08620304"},{"id":"+08620829","year":862,"month":8,"day":29,"time_tdt":"01:24:08","type":"혼성일식","type_code":"H","saros":97,"gamma":-0.30126,"magnitude":1.00513,"greatest":{"lat":-8.72892,"lng":163.92645},"path_width_km":18.6,"duration":"00m33s","delta_t_seconds":2453,"catalog_number":6814,"source":"NASA Five Millennium Canon of Solar Eclipses","source_url":"https://eclipse.gsfc.nasa.gov/SEsearch/SEsearchmap.php?Ecl=%2B08620829"}],"features":[{"type":"Feature","id":"+08620304:north:0","properties":{"id":"+08620304","year":862,"month":3,"day":4,"time_tdt":"11:03:38","type":"금환일식","type_code":"A","saros":92,"gamma":0.34339,"magnitude":0.9591,"greatest":{"lat":14.50611,"lng":21.18054},"path_width_km":157.5,"duration":"04m49s","delta_t_seconds":2456.6,"catalog_number":6813,"source":"NASA Five Millennium Canon of Solar Eclipses","source_url":"https://eclipse.gsfc.nasa.gov/SEsearch/SEsearchmap.php?Ecl=%2B08620304","boundary":"north","name":"862-03-04 금환일식"},"geometry":{"type":"LineString","coordinates":[[-35.58789,3.65205],[-35.5,3.64424],[-35,3.60054],[-34.5,3.55808],[-34,3.51687],[-33.5,3.47694],[-33,3.43831],[-32.5,3.40101],[-32,3.36504],[-31.5,3.33044],[-31,3.29724],[-30.5,3.26544],[-30,3.23509],[-29.5,3.2062],[-29,3.17879],[-28.5,3.1529],[-28,3.12855],[-27.5,3.10576],[-27,3.08457],[-26.5,3.065],[-26,3.04708],[-25.5,3.03084],[-25,3.01632],[-24.5,3.00353],[-24,2.99252],[-23.5,2.9833],[-23,2.97593],[-22.5,2.97043],[-22,2.96683],[-21.5,2.96517],[-21,2.96548],[-20.5,2.96781],[-20,2.97219],[-19.5,2.97865],[-19,2.98724],[-18.5,2.998],[-18,3.01096],[-17.5,3.02618],[-17,3.04368],[-16.5,3.06352],[-16,3.08575],[-15.5,3.1104],[-15,3.13752],[-14.5,3.16717],[-14,3.19938],[-13.5,3.23422],[-13,3.27173],[-12.5,3.31197],[-12,3.35498],[-11.5,3.40083],[-11,3.44956],[-10.5,3.50125],[-10,3.55593],[-9.5,3.61369],[-9,3.67456],[-8.5,3.73863],[-8,3.80595],[-7.5,3.87658],[-7,3.95059],[-6.5,4.02805],[-6,4.10903],[-5.5,4.19359],[-5,4.2818],[-4.5,4.37375],[-4,4.46949],[-3.5,4.5691],[-3,4.67266],[-2.5,4.78024],[-2,4.89191],[-1.5,5.00776],[-1,5.12785],[-0.5,5.25227],[0,5.38109],[0.5,5.51438],[1,5.65223],[1.5,5.7947],[2,5.94187],[2.5,6.09382],[3,6.25061],[3.5,6.41231],[4,6.579],[4.5,6.75073],[5,6.92756],[5.5,7.10956],[6,7.29677],[6.5,7.48925],[7,7.68703],[7.5,7.89015],[8,8.0987],[8.5,8.31253],[9,8.53182],[9.5,8.75653],[10,8.98663],[10.5,9.22213],[11,9.463],[11.5,9.70919],[12,9.96066],[12.5,10.21733],[13,10.47915],[13.5,10.746],[14,11.0178],[14.5,11.2944],[15,11.57569],[15.5,11.86151],[16,12.15169],[16.5,12.44605],[17,12.7444],[17.5,13.04653],[18,13.35222],[18.5,13.66123],[19,13.97332],[19.5,14.28823],[20,14.6057],[20.5,14.92546],[21,15.24723],[21.5,15.57073],[22,15.89567],[22.5,16.22178],[23,16.54877],[23.5,16.87635],[24,17.20425],[24.5,17.53219],[25,17.8599],[25.5,18.18714],[26,18.51364],[26.5,18.83916],[27,19.16348],[27.5,19.48637],[28,19.80762],[28.5,20.12704],[29,20.44444],[29.5,20.75966],[30,21.07252],[30.5,21.38289],[31,21.69062],[31.5,21.9956],[32,22.29771],[32.5,22.59685],[33,22.89293],[33.5,23.18588],[34,23.47561],[34.5,23.76207],[35,24.0452],[35.5,24.32497],[36,24.60133],[36.5,24.87425],[37,25.14372],[37.5,25.40972],[38,25.67223],[38.5,25.93125],[39,26.18678],[39.5,26.43882],[40,26.68738],[40.5,26.93247],[41,27.17411],[41.5,27.41231],[42,27.64709],[42.5,27.87848],[43,28.1065],[43.5,28.33118],[44,28.55254],[44.5,28.77061],[45,28.98543],[45.5,29.19703],[46,29.40544],[46.5,29.61069],[47,29.81283],[47.5,30.01187],[48,30.20786],[48.5,30.40084],[49,30.59083],[49.5,30.77788],[50,30.96202],[50.5,31.14329],[51,31.32172],[51.5,31.49735],[52,31.67021],[52.5,31.84034],[53,32.00777],[53.5,32.17254],[54,32.33468],[54.5,32.49423],[55,32.65122],[55.5,32.80568],[56,32.95764],[56.5,33.10714],[57,33.25421],[57.5,33.39889],[58,33.54119],[58.5,33.68116],[59,33.81881],[59.5,33.95419],[60,34.08732],[60.5,34.21823],[61,34.34695],[61.5,34.4735],[62,34.59791],[62.5,34.72021],[63,34.84043],[63.5,34.95858],[64,35.07471],[64.5,35.18882],[65,35.30095],[65.5,35.41112],[66,35.51935],[66.5,35.62566],[67,35.73009],[67.5,35.83264],[68,35.93335],[68.5,36.03223],[69,36.12931],[69.5,36.2246],[70,36.31813],[70.5,36.40992],[71,36.49998],[71.5,36.58834],[72,36.67501],[72.5,36.76001],[73,36.84337],[73.5,36.92509],[74,37.0052],[74.5,37.08371],[75,37.16064],[75.5,37.23601],[76,37.30983],[76.5,37.38212],[77,37.45289],[77.5,37.52217],[78,37.58995],[78.5,37.65627],[79,37.72114],[79.5,37.78456],[80,37.84656],[80.5,37.90714],[81,37.96632],[81.5,38.02412],[82,38.08055],[82.5,38.13561],[83,38.18933],[83.5,38.24171],[84,38.29277],[84.5,38.34252],[85,38.39097],[85.5,38.43813],[86,38.48402],[86.5,38.52865]]}},{"type":"Feature","id":"+08620304:center:0","properties":{"id":"+08620304","year":862,"month":3,"day":4,"time_tdt":"11:03:38","type":"금환일식","type_code":"A","saros":92,"gamma":0.34339,"magnitude":0.9591,"greatest":{"lat":14.50611,"lng":21.18054},"path_width_km":157.5,"duration":"04m49s","delta_t_seconds":2456.6,"catalog_number":6813,"source":"NASA Five Millennium Canon of Solar Eclipses","source_url":"https://eclipse.gsfc.nasa.gov/SEsearch/SEsearchmap.php?Ecl=%2B08620304","boundary":"center","name":"862-03-04 금환일식"},"geometry":{"type":"LineString","coordinates":[[-35.51586,2.68138],[-35.5,2.68044],[-35,2.63906],[-34.5,2.59891],[-34,2.56002],[-33.5,2.52241],[-33,2.48609],[-32.5,2.4511],[-32,2.41745],[-31.5,2.38516],[-31,2.35425],[-30.5,2.32476],[-30,2.29671],[-29.5,2.27011],[-29,2.24499],[-28.5,2.22138],[-28,2.19931],[-27.5,2.1788],[-27,2.15987],[-26.5,2.14256],[-26,2.1269],[-25.5,2.1129],[-25,2.10061],[-24.5,2.09005],[-24,2.08125],[-23.5,2.07425],[-23,2.06907],[-22.5,2.06575],[-22,2.06432],[-21.5,2.06482],[-21,2.06728],[-20.5,2.07174],[-20,2.07823],[-19.5,2.08679],[-19,2.09746],[-18.5,2.11028],[-18,2.12529],[-17.5,2.14253],[-17,2.16204],[-16.5,2.18387],[-16,2.20806],[-15.5,2.23464],[-15,2.26368],[-14.5,2.29522],[-14,2.3293],[-13.5,2.36597],[-13,2.40529],[-12.5,2.4473],[-12,2.49206],[-11.5,2.53962],[-11,2.59003],[-10.5,2.64336],[-10,2.69965],[-9.5,2.75898],[-9,2.82139],[-8.5,2.88694],[-8,2.95571],[-7.5,3.02775],[-7,3.10312],[-6.5,3.18189],[-6,3.26414],[-5.5,3.34991],[-5,3.4393],[-4.5,3.53235],[-4,3.62915],[-3.5,3.72977],[-3,3.83427],[-2.5,3.94274],[-2,4.05524],[-1.5,4.17185],[-1,4.29264],[-0.5,4.4177],[0,4.54708],[0.5,4.68088],[1,4.81916],[1.5,4.96199],[2,5.10946],[2.5,5.26163],[3,5.41857],[3.5,5.58035],[4,5.74703],[4.5,5.91869],[5,6.09538],[5.5,6.27716],[6,6.46409],[6.5,6.6562],[7,6.85355],[7.5,7.05617],[8,7.2641],[8.5,7.47735],[9,7.69595],[9.5,7.91991],[10,8.14921],[10.5,8.38385],[11,8.62382],[11.5,8.86906],[12,9.11955],[12.5,9.37522],[13,9.63599],[13.5,9.9018],[14,10.17252],[14.5,10.44806],[15,10.72828],[15.5,11.01304],[16,11.30218],[16.5,11.59553],[17,11.89289],[17.5,12.19407],[18,12.49885],[18.5,12.80701],[19,13.11829],[19.5,13.43246],[20,13.74925],[20.5,14.0684],[21,14.38963],[21.5,14.71266],[22,15.03721],[22.5,15.363],[23,15.68973],[23.5,16.01714],[24,16.34493],[24.5,16.67283],[25,17.00058],[25.5,17.3279],[26,17.65454],[26.5,17.98026],[27,18.30482],[27.5,18.62799],[28,18.94957],[28.5,19.26934],[29,19.58712],[29.5,19.90273],[30,20.21601],[30.5,20.5268],[31,20.83496],[31.5,21.14036],[32,21.44289],[32.5,21.74244],[33,22.03892],[33.5,22.33224],[34,22.62232],[34.5,22.90911],[35,23.19255],[35.5,23.47259],[36,23.74919],[36.5,24.02232],[37,24.29195],[37.5,24.55807],[38,24.82067],[38.5,25.07974],[39,25.33527],[39.5,25.58727],[40,25.83575],[40.5,26.08071],[41,26.32218],[41.5,26.56016],[42,26.79468],[42.5,27.02576],[43,27.25343],[43.5,27.47771],[44,27.69864],[44.5,27.91623],[45,28.13053],[45.5,28.34156],[46,28.54936],[46.5,28.75396],[47,28.9554],[47.5,29.15372],[48,29.34894],[48.5,29.54111],[49,29.73026],[49.5,29.91643],[50,30.09966],[50.5,30.27997],[51,30.45742],[51.5,30.63202],[52,30.80383],[52.5,30.97288],[53,31.13919],[53.5,31.30282],[54,31.46378],[54.5,31.62213],[55,31.77788],[55.5,31.93108],[56,32.08176],[56.5,32.22995],[57,32.37568],[57.5,32.51899],[58,32.65991],[58.5,32.79847],[59,32.93469],[59.5,33.06862],[60,33.20027],[60.5,33.32969],[61,33.45689],[61.5,33.5819],[62,33.70476],[62.5,33.82549],[63,33.94411],[63.5,34.06066],[64,34.17516],[64.5,34.28763],[65,34.3981],[65.5,34.50659],[66,34.61313],[66.5,34.71775],[67,34.82045],[67.5,34.92128],[68,35.02024],[68.5,35.11736],[69,35.21267],[69.5,35.30618],[70,35.39792],[70.5,35.4879],[71,35.57614],[71.5,35.66267],[72,35.74751],[72.5,35.83066],[73,35.91216],[73.5,35.99201],[74,36.07024],[74.5,36.14687],[75,36.22191],[75.5,36.29537],[76,36.36728],[76.5,36.43765],[77,36.5065],[77.5,36.57385],[78,36.6397],[78.5,36.70407],[79,36.76698],[79.5,36.82845],[80,36.88848],[80.5,36.94709],[81,37.0043],[81.5,37.06012],[82,37.11456],[82.5,37.16763],[83,37.21935],[83.5,37.26973],[84,37.31879],[84.5,37.36653],[85,37.41297],[85.5,37.45812],[86,37.50199],[86.5,37.54459],[86.64366,37.58682]]}},{"type":"Feature","id":"+08620304:south:0","properties":{"id":"+08620304","year":862,"month":3,"day":4,"time_tdt":"11:03:38","type":"금환일식","type_code":"A","saros":92,"gamma":0.34339,"magnitude":0.9591,"greatest":{"lat":14.50611,"lng":21.18054},"path_width_km":157.5,"duration":"04m49s","delta_t_seconds":2456.6,"catalog_number":6813,"source":"NASA Five Millennium Canon of Solar Eclipses","source_url":"https://eclipse.gsfc.nasa.gov/SEsearch/SEsearchmap.php?Ecl=%2B08620304","boundary":"south","name":"862-03-04 금환일식"},"geometry":{"type":"LineString","coordinates":[[-35.45312,1.71773],[-35,1.68238],[-34.5,1.64454],[-34,1.60796],[-33.5,1.57266],[-33,1.53865],[-32.5,1.50596],[-32,1.47461],[-31.5,1.44463],[-31,1.41602],[-30.5,1.38883],[-30,1.36306],[-29.5,1.33875],[-29,1.31592],[-28.5,1.29459],[-28,1.2748],[-27.5,1.25655],[-27,1.23989],[-26.5,1.22484],[-26,1.21142],[-25.5,1.19967],[-25,1.18961],[-24.5,1.18127],[-24,1.17469],[-23.5,1.16989],[-23,1.1669],[-22.5,1.16577],[-22,1.16651],[-21.5,1.16917],[-21,1.17377],[-20.5,1.18036],[-20,1.18896],[-19.5,1.19963],[-19,1.21238],[-18.5,1.22727],[-18,1.24433],[-17.5,1.2636],[-17,1.28512],[-16.5,1.30893],[-16,1.33509],[-15.5,1.36362],[-15,1.39458],[-14.5,1.42801],[-14,1.46396],[-13.5,1.50248],[-13,1.54361],[-12.5,1.58741],[-12,1.63393],[-11.5,1.68321],[-11,1.73532],[-10.5,1.79031],[-10,1.84823],[-9.5,1.90914],[-9,1.97309],[-8.5,2.04016],[-8,2.11039],[-7.5,2.18386],[-7,2.26061],[-6.5,2.34073],[-6,2.42426],[-5.5,2.51128],[-5,2.60186],[-4.5,2.69606],[-4,2.79395],[-3.5,2.8956],[-3,3.00108],[-2.5,3.11047],[-2,3.22383],[-1.5,3.34124],[-1,3.46278],[-0.5,3.58851],[0,3.71851],[0.5,3.85285],[1,3.99161],[1.5,4.13485],[2,4.28266],[2.5,4.4351],[3,4.59224],[3.5,4.75415],[4,4.92089],[4.5,5.09253],[5,5.26913],[5.5,5.45075],[6,5.63744],[6.5,5.82926],[7,6.02623],[7.5,6.22841],[8,6.43583],[8.5,6.64851],[9,6.86648],[9.5,7.08974],[10,7.31829],[10.5,7.55213],[11,7.79124],[11.5,8.03559],[12,8.28515],[12.5,8.53985],[13,8.79964],[13.5,9.06443],[14,9.33413],[14.5,9.60863],[15,9.88781],[15.5,10.17154],[16,10.45966],[16.5,10.75201],[17,11.0484],[17.5,11.34864],[18,11.65253],[18.5,11.95983],[19,12.27031],[19.5,12.58373],[20,12.89984],[20.5,13.21837],[21,13.53905],[21.5,13.8616],[22,14.18574],[22.5,14.51119],[23,14.83766],[23.5,15.16488],[24,15.49255],[24.5,15.8204],[25,16.14815],[25.5,16.47555],[26,16.80232],[26.5,17.12822],[27,17.45301],[27.5,17.77646],[28,18.09835],[28.5,18.41847],[29,18.73662],[29.5,19.05263],[30,19.36632],[30.5,19.67753],[31,19.98612],[31.5,20.29195],[32,20.5949],[32.5,20.89487],[33,21.19175],[33.5,21.48542],[34,21.7759],[34.5,22.06302],[35,22.34677],[35.5,22.62709],[36,22.90394],[36.5,23.17728],[37,23.44709],[37.5,23.71335],[38,23.97604],[38.5,24.23516],[39,24.4907],[39.5,24.74267],[40,24.99107],[40.5,25.23591],[41,25.47721],[41.5,25.71498],[42,25.94924],[42.5,26.18002],[43,26.40734],[43.5,26.63123],[44,26.85171],[44.5,27.06882],[45,27.28259],[45.5,27.49305],[46,27.70024],[46.5,27.90419],[47,28.10493],[47.5,28.30251],[48,28.49696],[48.5,28.68831],[49,28.87661],[49.5,29.06189],[50,29.24419],[50.5,29.42354],[51,29.59999],[51.5,29.77356],[52,29.94431],[52.5,30.11225],[53,30.27744],[53.5,30.4399],[54,30.59968],[54.5,30.7568],[55,30.91131],[55.5,31.06323],[56,31.21261],[56.5,31.35947],[57,31.50384],[57.5,31.64577],[58,31.78529],[58.5,31.92241],[59,32.05719],[59.5,32.18964],[60,32.3198],[60.5,32.44769],[61,32.57335],[61.5,32.69681],[62,32.81809],[62.5,32.93722],[63,33.05423],[63.5,33.16915],[64,33.282],[64.5,33.3928],[65,33.50159],[65.5,33.60839],[66,33.71321],[66.5,33.8161],[67,33.91707],[67.5,34.01613],[68,34.11333],[68.5,34.20867],[69,34.30218],[69.5,34.39388],[70,34.4838],[70.5,34.57195],[71,34.65835],[71.5,34.74303],[72,34.826],[72.5,34.90728],[73,34.9869],[73.5,35.06486],[74,35.14119],[74.5,35.2159],[75,35.28902],[75.5,35.36056],[76,35.43054],[76.5,35.49897],[77,35.56587],[77.5,35.63125],[78,35.69514],[78.5,35.75754],[79,35.81848],[79.5,35.87796],[80,35.93601],[80.5,35.99263],[81,36.04783],[81.5,36.10165],[82,36.15408],[82.5,36.20514],[83,36.25484],[83.5,36.3032],[84,36.35023],[84.5,36.39595],[85,36.44035],[85.5,36.48346],[86,36.52529],[86.5,36.56585],[86.66016,36.57858]]}},{"type":"Feature","id":"+08620829:north:0","properties":{"id":"+08620829","year":862,"month":8,"day":29,"time_tdt":"01:24:08","type":"혼성일식","type_code":"H","saros":97,"gamma":-0.30126,"magnitude":1.00513,"greatest":{"lat":-8.72892,"lng":163.92645},"path_width_km":18.6,"duration":"00m33s","delta_t_seconds":2453,"catalog_number":6814,"source":"NASA Five Millennium Canon of Solar Eclipses","source_url":"https://eclipse.gsfc.nasa.gov/SEsearch/SEsearchmap.php?Ecl=%2B08620829","boundary":"north","name":"862-08-29 혼성일식"},"geometry":{"type":"LineString","coordinates":[[105.19141,-0.83434],[105.5,-0.79141],[106,-0.72271],[106.5,-0.65508],[107,-0.58852],[107.5,-0.52307],[108,-0.45875],[108.5,-0.39556],[109,-0.33355],[109.5,-0.27271],[110,-0.21308],[110.5,-0.15469],[111,-0.09754],[111.5,-0.04166],[112,0.01292],[112.5,0.06618],[113,0.1181],[113.5,0.16865],[114,0.21781],[114.5,0.26555],[115,0.31185],[115.5,0.35667],[116,0.40001],[116.5,0.44181],[117,0.48207],[117.5,0.52074],[118,0.55781],[118.5,0.59323],[119,0.62699],[119.5,0.65904],[120,0.68936],[120.5,0.71792],[121,0.74468],[121.5,0.76961],[122,0.79268],[122.5,0.81384],[123,0.83307],[123.5,0.85033],[124,0.86557],[124.5,0.87877],[125,0.88989],[125.5,0.89887],[126,0.9057],[126.5,0.91031],[127,0.91267],[127.5,0.91275],[128,0.91048],[128.5,0.90583],[129,0.89876],[129.5,0.88921],[130,0.87715],[130.5,0.86251],[131,0.84525],[131.5,0.82532],[132,0.80267],[132.5,0.77725],[133,0.749],[133.5,0.71786],[134,0.68379],[134.5,0.64672],[135,0.6066],[135.5,0.56337],[136,0.51697],[136.5,0.46734],[137,0.41442],[137.5,0.35814],[138,0.29844],[138.5,0.23526],[139,0.16853],[139.5,0.09819],[140,0.02417],[140.5,-0.0536],[141,-0.13083],[141.5,-0.21072],[142,-0.29458],[142.5,-0.38248],[143,-0.47448],[143.5,-0.57066],[144,-0.67109],[144.5,-0.77583],[145,-0.88497],[145.5,-0.99857],[146,-1.11669],[146.5,-1.23942],[147,-1.36681],[147.5,-1.49892],[148,-1.63583],[148.5,-1.7776],[149,-1.92428],[149.5,-2.07592],[150,-2.23259],[150.5,-2.39433],[151,-2.56119],[151.5,-2.7332],[152,-2.91041],[152.5,-3.09283],[153,-3.28051],[153.5,-3.47344],[154,-3.67165],[154.5,-3.87513],[155,-4.08388],[155.5,-4.29788],[156,-4.51711],[156.5,-4.74153],[157,-4.97111],[157.5,-5.20578],[158,-5.44548],[158.5,-5.69013],[159,-5.93964],[159.5,-6.19392],[160,-6.45285],[160.5,-6.7163],[161,-6.98413],[161.5,-7.2562],[162,-7.53236],[162.5,-7.81242],[163,-8.0962],[163.5,-8.38352],[164,-8.67417],[164.5,-8.96794],[165,-9.26463],[165.5,-9.56399],[166,-9.86581],[166.5,-10.16986],[167,-10.47588],[167.5,-10.78365],[168,-11.09293],[168.5,-11.40347],[169,-11.71504],[169.5,-12.0274],[170,-12.34031],[170.5,-12.65356],[171,-12.9669],[171.5,-13.28013],[172,-13.59303],[172.5,-13.9054],[173,-14.21704],[173.5,-14.52777],[174,-14.8374],[174.5,-15.14577],[175,-15.4527],[175.5,-15.75806],[176,-16.06169],[176.5,-16.36347],[177,-16.66327],[177.5,-16.96097],[178,-17.25647],[178.5,-17.54966],[179,-17.84047],[179.5,-18.1288],[180,-18.41458]]}},{"type":"Feature","id":"+08620829:north:1","properties":{"id":"+08620829","year":862,"month":8,"day":29,"time_tdt":"01:24:08","type":"혼성일식","type_code":"H","saros":97,"gamma":-0.30126,"magnitude":1.00513,"greatest":{"lat":-8.72892,"lng":163.92645},"path_width_km":18.6,"duration":"00m33s","delta_t_seconds":2453,"catalog_number":6814,"source":"NASA Five Millennium Canon of Solar Eclipses","source_url":"https://eclipse.gsfc.nasa.gov/SEsearch/SEsearchmap.php?Ecl=%2B08620829","boundary":"north","name":"862-08-29 혼성일식"},"geometry":{"type":"LineString","coordinates":[[-179.5,-18.69776],[-179,-18.97826],[-178.5,-19.25604],[-178,-19.53104],[-177.5,-19.80324],[-177,-20.07259],[-176.5,-20.33907],[-176,-20.60265],[-175.5,-20.86331],[-175,-21.12104],[-174.5,-21.37583],[-174,-21.62766],[-173.5,-21.87655],[-173,-22.12247],[-172.5,-22.36545],[-172,-22.60548],[-171.5,-22.84256],[-171,-23.07672],[-170.5,-23.30797],[-170,-23.5363],[-169.5,-23.76175],[-169,-23.98411],[-168.5,-24.19862],[-168,-24.41031],[-167.5,-24.6192],[-167,-24.8253],[-166.5,-25.02866],[-166,-25.22928],[-165.5,-25.42719],[-165,-25.62242],[-164.5,-25.81499],[-164,-26.00493],[-163.5,-26.19227],[-163,-26.37703],[-162.5,-26.55923],[-162,-26.73891],[-161.5,-26.91609],[-161,-27.09079],[-160.5,-27.26305],[-160,-27.43289],[-159.5,-27.60033],[-159,-27.76541],[-158.5,-27.92814],[-158,-28.08856],[-157.5,-28.24668],[-157,-28.40254],[-156.5,-28.55616],[-156,-28.70757],[-155.5,-28.85678],[-155,-29.00383],[-154.5,-29.14874],[-154,-29.29153],[-153.5,-29.43223],[-153,-29.57085],[-152.5,-29.70743],[-152,-29.84198],[-151.5,-29.97452],[-151,-30.10509],[-150.5,-30.2337],[-150,-30.36037],[-149.5,-30.48512],[-149,-30.60798],[-148.5,-30.72896],[-148,-30.84809],[-147.5,-30.96538],[-147,-31.08086],[-146.5,-31.19454],[-146,-31.30644],[-145.5,-31.41659],[-145,-31.52499],[-144.5,-31.63167],[-144,-31.73665],[-143.5,-31.83994],[-143,-31.94157],[-142.5,-32.04154],[-142,-32.13987],[-141.5,-32.23659],[-141,-32.3317],[-140.5,-32.42523],[-140,-32.51718],[-139.5,-32.60758],[-139,-32.69644],[-138.5,-32.78377],[-138,-32.86959],[-137.5,-32.95391],[-137,-33.03675],[-136.5,-33.11812],[-136,-33.19804],[-135.5,-33.27652],[-135,-33.35356],[-134.5,-33.4292],[-134,-33.50343],[-133.5,-33.57627],[-133,-33.64773],[-132.70703,-33.68897]]}},{"type":"Feature","id":"+08620829:center:0","properties":{"id":"+08620829","year":862,"month":8,"day":29,"time_tdt":"01:24:08","type":"혼성일식","type_code":"H","saros":97,"gamma":-0.30126,"magnitude":1.00513,"greatest":{"lat":-8.72892,"lng":163.92645},"path_width_km":18.6,"duration":"00m33s","delta_t_seconds":2453,"catalog_number":6814,"source":"NASA Five Millennium Canon of Solar Eclipses","source_url":"https://eclipse.gsfc.nasa.gov/SEsearch/SEsearchmap.php?Ecl=%2B08620829","boundary":"center","name":"862-08-29 혼성일식"},"geometry":{"type":"LineString","coordinates":[[105.19508,-1.02577],[105.5,-0.98131],[106,-0.91013],[106.5,-0.84002],[107,-0.77098],[107.5,-0.70303],[108,-0.6362],[108.5,-0.5705],[109,-0.50595],[109.5,-0.44259],[110,-0.38042],[110.5,-0.31947],[111,-0.25976],[111.5,-0.20131],[112,-0.14416],[112.5,-0.08831],[113,-0.0338],[113.5,0.01935],[114,0.07112],[114.5,0.12148],[115,0.1704],[115.5,0.21786],[116,0.26383],[116.5,0.30829],[117,0.3512],[117.5,0.39253],[118,0.43227],[118.5,0.47037],[119,0.50681],[119.5,0.54155],[120,0.57457],[120.5,0.60583],[121,0.6353],[121.5,0.66295],[122,0.68874],[122.5,0.71263],[123,0.73459],[123.5,0.75459],[124,0.77258],[124.5,0.78853],[125,0.8024],[125.5,0.81415],[126,0.82374],[126.5,0.83112],[127,0.83626],[127.5,0.83911],[128,0.83963],[128.5,0.83777],[129,0.83349],[129.5,0.82674],[130,0.81747],[130.5,0.80563],[131,0.79118],[131.5,0.77406],[132,0.75422],[132.5,0.73161],[133,0.70617],[133.5,0.67785],[134,0.64659],[134.5,0.61235],[135,0.57505],[135.5,0.53464],[136,0.49105],[136.5,0.44424],[137,0.39414],[137.5,0.34067],[138,0.28379],[138.5,0.22342],[139,0.15951],[139.5,0.09197],[140,0.02075],[140.5,-0.05422],[141,-0.13301],[141.5,-0.21569],[142,-0.30233],[142.5,-0.393],[143,-0.48777],[143.5,-0.58671],[144,-0.68988],[144.5,-0.79737],[145,-0.90923],[145.5,-1.02554],[146,-1.14636],[146.5,-1.27177],[147,-1.40182],[147.5,-1.53658],[148,-1.67612],[148.5,-1.82049],[149,-1.96975],[149.5,-2.12395],[150,-2.28314],[150.5,-2.44738],[151,-2.6167],[151.5,-2.79115],[152,-2.97074],[152.5,-3.15552],[153,-3.3455],[153.5,-3.5407],[154,-3.74112],[154.5,-3.94676],[155,-4.15762],[155.5,-4.37366],[156,-4.59487],[156.5,-4.82121],[157,-5.05263],[157.5,-5.28907],[158,-5.53046],[158.5,-5.77672],[159,-6.02775],[159.5,-6.28346],[160,-6.54371],[160.5,-6.8084],[161,-7.07737],[161.5,-7.35047],[162,-7.62754],[162.5,-7.90841],[163,-8.19289],[163.5,-8.48078],[164,-8.77189],[164.5,-9.066],[165,-9.3629],[165.5,-9.66236],[166,-9.96416],[166.5,-10.26805],[167,-10.5738],[167.5,-10.88118],[168,-11.18994],[168.5,-11.49985],[169,-11.81067],[169.5,-12.12216],[170,-12.4341],[170.5,-12.74626],[171,-13.05841],[171.5,-13.37035],[172,-13.68186],[172.5,-13.99275],[173,-14.30282],[173.5,-14.61189],[174,-14.91978],[174.5,-15.22633],[175,-15.53137],[175.5,-15.83477],[176,-16.13638],[176.5,-16.43608],[177,-16.73373],[177.5,-17.02924],[178,-17.3225],[178.5,-17.61341],[179,-17.90188],[179.5,-18.18785],[180,-18.47124]]}},{"type":"Feature","id":"+08620829:center:1","properties":{"id":"+08620829","year":862,"month":8,"day":29,"time_tdt":"01:24:08","type":"혼성일식","type_code":"H","saros":97,"gamma":-0.30126,"magnitude":1.00513,"greatest":{"lat":-8.72892,"lng":163.92645},"path_width_km":18.6,"duration":"00m33s","delta_t_seconds":2453,"catalog_number":6814,"source":"NASA Five Millennium Canon of Solar Eclipses","source_url":"https://eclipse.gsfc.nasa.gov/SEsearch/SEsearchmap.php?Ecl=%2B08620829","boundary":"center","name":"862-08-29 혼성일식"},"geometry":{"type":"LineString","coordinates":[[-179.5,-18.75198],[-179,-19.03002],[-178.5,-19.30531],[-178,-19.57781],[-177.5,-19.84747],[-177,-20.11428],[-176.5,-20.37819],[-176,-20.63919],[-175.5,-20.89726],[-175,-21.15239],[-174.5,-21.40457],[-174,-21.65379],[-173.5,-21.90006],[-173,-22.14336],[-172.5,-22.38371],[-172,-22.62111],[-171.5,-22.85557],[-171,-23.0871],[-170.5,-23.31572],[-170,-23.54143],[-169.5,-23.76426],[-169,-23.98422],[-168.5,-24.20133],[-168,-24.41561],[-167.5,-24.62709],[-167,-24.83578],[-166.5,-25.04171],[-166,-25.2449],[-165.5,-25.44538],[-165,-25.64316],[-164.5,-25.83828],[-164,-26.03076],[-163.5,-26.22063],[-163,-26.40791],[-162.5,-26.59263],[-162,-26.77482],[-161.5,-26.95449],[-161,-27.13169],[-160.5,-27.30642],[-160,-27.47873],[-159.5,-27.64864],[-159,-27.81616],[-158.5,-27.98134],[-158,-28.14419],[-157.5,-28.30474],[-157,-28.46301],[-156.5,-28.61904],[-156,-28.77284],[-155.5,-28.92444],[-155,-29.07387],[-154.5,-29.22115],[-154,-29.36629],[-153.5,-29.50934],[-153,-29.6503],[-152.5,-29.78921],[-152,-29.92608],[-151.5,-30.06094],[-151,-30.19382],[-150.5,-30.32472],[-150,-30.45368],[-149.5,-30.58071],[-149,-30.70583],[-148.5,-30.82907],[-148,-30.95045],[-147.5,-31.06999],[-147,-31.1877],[-146.5,-31.30361],[-146,-31.41773],[-145.5,-31.53008],[-145,-31.64069],[-144.5,-31.74956],[-144,-31.85673],[-143.5,-31.9622],[-143,-32.06599],[-142.5,-32.16812],[-142,-32.26861],[-141.5,-32.36747],[-141,-32.46472],[-140.5,-32.56038],[-140,-32.65445],[-139.5,-32.74697],[-139,-32.83793],[-138.5,-32.92736],[-138,-33.01527],[-137.5,-33.10168],[-137,-33.1866],[-136.5,-33.27005],[-136,-33.35203],[-135.5,-33.43256],[-135,-33.51166],[-134.5,-33.58933],[-134,-33.6656],[-133.5,-33.74047],[-133,-33.81395],[-132.75443,-33.87568]]}},{"type":"Feature","id":"+08620829:south:0","properties":{"id":"+08620829","year":862,"month":8,"day":29,"time_tdt":"01:24:08","type":"혼성일식","type_code":"H","saros":97,"gamma":-0.30126,"magnitude":1.00513,"greatest":{"lat":-8.72892,"lng":163.92645},"path_width_km":18.6,"duration":"00m33s","delta_t_seconds":2453,"catalog_number":6814,"source":"NASA Five Millennium Canon of Solar Eclipses","source_url":"https://eclipse.gsfc.nasa.gov/SEsearch/SEsearchmap.php?Ecl=%2B08620829","boundary":"south","name":"862-08-29 혼성일식"},"geometry":{"type":"LineString","coordinates":[[105.20312,-1.21561],[105.5,-1.1714],[106,-1.09775],[106.5,-1.02515],[107,-0.95361],[107.5,-0.88316],[108,-0.81382],[108.5,-0.7456],[109,-0.67853],[109.5,-0.61262],[110,-0.5479],[110.5,-0.4844],[111,-0.42212],[111.5,-0.36111],[112,-0.30137],[112.5,-0.24293],[113,-0.18582],[113.5,-0.13007],[114,-0.07568],[114.5,-0.0227],[115,0.02885],[115.5,0.07895],[116,0.12756],[116.5,0.17467],[117,0.22024],[117.5,0.26424],[118,0.30665],[118.5,0.34743],[119,0.38656],[119.5,0.424],[120,0.45972],[120.5,0.49369],[121,0.52587],[121.5,0.55624],[122,0.58475],[122.5,0.61137],[123,0.63607],[123.5,0.65881],[124,0.67955],[124.5,0.69826],[125,0.71489],[125.5,0.7294],[126,0.74176],[126.5,0.75191],[127,0.75983],[127.5,0.76546],[128,0.76877],[128.5,0.7697],[129,0.76821],[129.5,0.76426],[130,0.75779],[130.5,0.74875],[131,0.73711],[131.5,0.7228],[132,0.70577],[132.5,0.68597],[133,0.66334],[133.5,0.63784],[134,0.6094],[134.5,0.57797],[135,0.54349],[135.5,0.5059],[136,0.46514],[136.5,0.42115],[137,0.37386],[137.5,0.32321],[138,0.26915],[138.5,0.21159],[139,0.15048],[139.5,0.08575],[140,0.01734],[140.5,-0.05483],[141,-0.13519],[141.5,-0.22066],[142,-0.31009],[142.5,-0.40353],[143,-0.50107],[143.5,-0.60276],[144,-0.70869],[144.5,-0.81891],[145,-0.9335],[145.5,-1.05252],[146,-1.17605],[146.5,-1.30414],[147,-1.43686],[147.5,-1.57427],[148,-1.71643],[148.5,-1.86341],[149,-2.01525],[149.5,-2.172],[150,-2.33373],[150.5,-2.50046],[151,-2.67225],[151.5,-2.84912],[152,-3.03111],[152.5,-3.21824],[153,-3.41053],[153.5,-3.60799],[154,-3.81062],[154.5,-4.01842],[155,-4.23137],[155.5,-4.44946],[156,-4.67264],[156.5,-4.90089],[157,-5.13415],[157.5,-5.37234],[158,-5.61541],[158.5,-5.86327],[159,-6.11581],[159.5,-6.37293],[160,-6.63451],[160.5,-6.90042],[161,-7.17051],[161.5,-7.44462],[162,-7.7226],[162.5,-8.00426],[163,-8.28942],[163.5,-8.57787],[164,-8.86943],[164.5,-9.16386],[165,-9.46096],[165.5,-9.7605],[166,-10.06225],[166.5,-10.36598],[167,-10.67144],[167.5,-10.97841],[168,-11.28665],[168.5,-11.59591],[169,-11.90597],[169.5,-12.21658],[170,-12.52754],[170.5,-12.8386],[171,-13.14956],[171.5,-13.4602],[172,-13.77032],[172.5,-14.07972],[173,-14.38822],[173.5,-14.69563],[174,-15.00178],[174.5,-15.30651],[175,-15.60967],[175.5,-15.91112],[176,-16.21071],[176.5,-16.50832],[177,-16.80385],[177.5,-17.09717],[178,-17.38819],[178.5,-17.67682],[179,-17.96298],[179.5,-18.24659],[180,-18.52759]]}},{"type":"Feature","id":"+08620829:south:1","properties":{"id":"+08620829","year":862,"month":8,"day":29,"time_tdt":"01:24:08","type":"혼성일식","type_code":"H","saros":97,"gamma":-0.30126,"magnitude":1.00513,"greatest":{"lat":-8.72892,"lng":163.92645},"path_width_km":18.6,"duration":"00m33s","delta_t_seconds":2453,"catalog_number":6814,"source":"NASA Five Millennium Canon of Solar Eclipses","source_url":"https://eclipse.gsfc.nasa.gov/SEsearch/SEsearchmap.php?Ecl=%2B08620829","boundary":"south","name":"862-08-29 혼성일식"},"geometry":{"type":"LineString","coordinates":[[-179.5,-18.80591],[-179,-19.0815],[-178.5,-19.35432],[-178,-19.62432],[-177.5,-19.89147],[-177,-20.15574],[-176.5,-20.4171],[-176,-20.67554],[-175.5,-20.93104],[-175,-21.18358],[-174.5,-21.43317],[-174,-21.67979],[-173.5,-21.92344],[-173,-22.16414],[-172.5,-22.40187],[-172,-22.63666],[-171.5,-22.86851],[-171,-23.09742],[-170.5,-23.32343],[-170,-23.54653],[-169.5,-23.76675],[-169,-23.98433],[-168.5,-24.20405],[-168,-24.42094],[-167.5,-24.63502],[-167,-24.84631],[-166.5,-25.05483],[-166,-25.2606],[-165.5,-25.46365],[-165,-25.664],[-164.5,-25.86168],[-164,-26.05671],[-163.5,-26.24912],[-163,-26.43894],[-162.5,-26.62618],[-162,-26.81088],[-161.5,-26.99306],[-161,-27.17275],[-160.5,-27.34998],[-160,-27.52477],[-159.5,-27.69714],[-159,-27.86713],[-158.5,-28.03475],[-158,-28.20004],[-157.5,-28.36302],[-157,-28.52372],[-156.5,-28.68216],[-156,-28.83836],[-155.5,-28.99235],[-155,-29.14416],[-154.5,-29.29381],[-154,-29.44133],[-153.5,-29.58673],[-153,-29.73003],[-152.5,-29.87128],[-152,-30.01048],[-151.5,-30.14765],[-151,-30.28283],[-150.5,-30.41603],[-150,-30.54728],[-149.5,-30.67659],[-149,-30.80399],[-148.5,-30.92949],[-148,-31.05313],[-147.5,-31.17491],[-147,-31.29485],[-146.5,-31.41299],[-146,-31.52933],[-145.5,-31.64389],[-145,-31.7567],[-144.5,-31.86777],[-144,-31.97712],[-143.5,-32.08476],[-143,-32.19072],[-142.5,-32.29502],[-142,-32.39766],[-141.5,-32.49866],[-141,-32.59805],[-140.5,-32.69584],[-140,-32.79203],[-139.5,-32.88666],[-139,-32.97973],[-138.5,-33.07126],[-138,-33.16127],[-137.5,-33.24976],[-137,-33.33675],[-136.5,-33.42226],[-136,-33.50631],[-135.5,-33.58889],[-135,-33.67004],[-134.5,-33.74975],[-134,-33.82805],[-133.5,-33.90495],[-133,-33.98045],[-132.73633,-34.01971]]}}],"attribution":"Eclipse Predictions by Fred Espenak and Jean Meeus (NASA's GSFC)","generated_at":"2026-09-23T01:44:57.866Z"}
