{"type":"FeatureCollection","year":88,"events":[{"id":"+00880410","year":88,"month":4,"day":10,"time_tdt":"05:50:43","type":"개기일식","type_code":"T","saros":69,"gamma":-0.16424,"magnitude":1.06246,"greatest":{"lat":-1.00216,"lng":137.24945},"path_width_km":207.2,"duration":"05m15s","delta_t_seconds":9665.2,"catalog_number":4991,"source":"NASA Five Millennium Canon of Solar Eclipses","source_url":"https://eclipse.gsfc.nasa.gov/SEsearch/SEsearchmap.php?Ecl=%2B00880410"},{"id":"+00881003","year":88,"month":10,"day":3,"time_tdt":"12:48:46","type":"금환일식","type_code":"A","saros":74,"gamma":0.22562,"magnitude":0.95821,"greatest":{"lat":7.84046,"lng":32.0174},"path_width_km":155.4,"duration":"04m25s","delta_t_seconds":9660.5,"catalog_number":4992,"source":"NASA Five Millennium Canon of Solar Eclipses","source_url":"https://eclipse.gsfc.nasa.gov/SEsearch/SEsearchmap.php?Ecl=%2B00881003"}],"features":[{"type":"Feature","id":"+00880410:north:0","properties":{"id":"+00880410","year":88,"month":4,"day":10,"time_tdt":"05:50:43","type":"개기일식","type_code":"T","saros":69,"gamma":-0.16424,"magnitude":1.06246,"greatest":{"lat":-1.00216,"lng":137.24945},"path_width_km":207.2,"duration":"05m15s","delta_t_seconds":9665.2,"catalog_number":4991,"source":"NASA Five Millennium Canon of Solar Eclipses","source_url":"https://eclipse.gsfc.nasa.gov/SEsearch/SEsearchmap.php?Ecl=%2B00880410","boundary":"north","name":"88-04-10 개기일식"},"geometry":{"type":"LineString","coordinates":[[73.97852,-36.87354],[74,-36.87067],[74.5,-36.80288],[75,-36.73313],[75.5,-36.66141],[76,-36.58769],[76.5,-36.51196],[77,-36.43419],[77.5,-36.35436],[78,-36.27244],[78.5,-36.18843],[79,-36.10228],[79.5,-36.01399],[80,-35.92353],[80.5,-35.83086],[81,-35.73597],[81.5,-35.63884],[82,-35.53942],[82.5,-35.43771],[83,-35.33366],[83.5,-35.22726],[84,-35.11847],[84.5,-35.00726],[85,-34.8936],[85.5,-34.77747],[86,-34.65882],[86.5,-34.53764],[87,-34.41387],[87.5,-34.2875],[88,-34.15848],[88.5,-34.02678],[89,-33.89236],[89.5,-33.75519],[90,-33.61522],[90.5,-33.47241],[91,-33.32674],[91.5,-33.17814],[92,-33.02659],[92.5,-32.87203],[93,-32.71442],[93.5,-32.55372],[94,-32.38988],[94.5,-32.22285],[95,-32.05258],[95.5,-31.87902],[96,-31.70212],[96.5,-31.52182],[97,-31.33806],[97.5,-31.15081],[98,-30.95998],[98.5,-30.76553],[99,-30.56739],[99.5,-30.36551],[100,-30.15981],[100.5,-29.95024],[101,-29.73672],[101.5,-29.51918],[102,-29.29756],[102.5,-29.07179],[103,-28.84178],[103.5,-28.60746],[104,-28.36876],[104.5,-28.12559],[105,-27.87788],[105.5,-27.62553],[106,-27.36847],[106.5,-27.1066],[107,-26.83985],[107.5,-26.5681],[108,-26.29129],[108.5,-26.0093],[109,-25.72204],[109.5,-25.42942],[110,-25.13133],[110.5,-24.82768],[111,-24.51836],[111.5,-24.20327],[112,-23.8823],[112.5,-23.55534],[113,-23.2223],[113.5,-22.88306],[114,-22.53753],[114.5,-22.18558],[115,-21.82713],[115.5,-21.46205],[116,-21.09026],[116.5,-20.71165],[117,-20.32613],[117.5,-19.9336],[118,-19.53397],[118.5,-19.12717],[119,-18.71312],[119.5,-18.29175],[120,-17.863],[120.5,-17.42682],[121,-16.98318],[121.5,-16.53206],[122,-16.07345],[122.5,-15.60736],[123,-15.13382],[123.5,-14.65288],[124,-14.16462],[124.5,-13.66913],[125,-13.16654],[125.5,-12.65701],[126,-12.14072],[126.5,-11.61789],[127,-11.08878],[127.5,-10.55369],[128,-10.01293],[128.5,-9.46688],[129,-8.91595],[129.5,-8.36057],[130,-7.80123],[130.5,-7.23845],[131,-6.67278],[131.5,-6.1048],[132,-5.53512],[132.5,-4.96436],[133,-4.3932],[133.5,-3.82228],[134,-3.25229],[134.5,-2.68389],[135,-2.11777],[135.5,-1.55458],[136,-0.99498],[136.5,-0.43958],[137,0.111],[137.5,0.65619],[138,1.19546],[138.5,1.72829],[139,2.25424],[139.5,2.77286],[140,3.28378],[140.5,3.78667],[141,4.28121],[141.5,4.76716],[142,5.2443],[142.5,5.71244],[143,6.17144],[143.5,6.6212],[144,7.06164],[144.5,7.4927],[145,7.91437],[145.5,8.32666],[146,8.72958],[146.5,9.12317],[147,9.50752],[147.5,9.88268],[148,10.24876],[148.5,10.60585],[149,10.95407],[149.5,11.29354],[150,11.62438],[150.5,11.94674],[151,12.26075],[151.5,12.56654],[152,12.86427],[152.5,13.15408],[153,13.43611],[153.5,13.71052],[154,13.97744],[154.5,14.23703],[155,14.48943],[155.5,14.73478],[156,14.97322],[156.5,15.20489],[157,15.42993],[157.5,15.64848],[158,15.86066],[158.5,16.06661],[159,16.26644],[159.5,16.46029],[160,16.64828],[160.5,16.83052],[161,17.00713],[161.5,17.17822],[162,17.3439],[162.5,17.50428],[163,17.65945],[163.5,17.80953],[164,17.95461],[164.5,18.09479],[165,18.23015],[165.5,18.36079],[166,18.4868],[166.5,18.60827],[167,18.72527],[167.5,18.83789],[168,18.94621],[168.5,19.05029],[169,19.15023],[169.5,19.24609],[170,19.33794],[170.5,19.42585],[171,19.50988],[171.5,19.59011],[172,19.66659],[172.5,19.73939],[173,19.80856],[173.5,19.87417],[174,19.93627],[174.5,19.99491],[175,20.05016],[175.5,20.10205],[176,20.15066],[176.5,20.19601],[177,20.23817],[177.5,20.27717],[178,20.31307],[178.5,20.34592],[179,20.37574],[179.5,20.40259],[180,20.42652]]}},{"type":"Feature","id":"+00880410:north:1","properties":{"id":"+00880410","year":88,"month":4,"day":10,"time_tdt":"05:50:43","type":"개기일식","type_code":"T","saros":69,"gamma":-0.16424,"magnitude":1.06246,"greatest":{"lat":-1.00216,"lng":137.24945},"path_width_km":207.2,"duration":"05m15s","delta_t_seconds":9665.2,"catalog_number":4991,"source":"NASA Five Millennium Canon of Solar Eclipses","source_url":"https://eclipse.gsfc.nasa.gov/SEsearch/SEsearchmap.php?Ecl=%2B00880410","boundary":"north","name":"88-04-10 개기일식"},"geometry":{"type":"LineString","coordinates":[[-179.5,20.44755],[-179,20.46573],[-178.5,20.4811],[-178,20.4937],[-177.5,20.50356],[-177,20.51072],[-176.5,20.51521],[-176,20.51708],[-175.5,20.51635],[-175,20.51306],[-174.5,20.50724],[-174,20.49892],[-173.5,20.48814],[-173,20.47492],[-172.5,20.4593],[-172,20.44129],[-171.5,20.42094],[-171,20.39828],[-170.5,20.37332],[-170,20.34609],[-169.5,20.31663],[-169,20.28496],[-168.5,20.2511],[-168,20.21508],[-167.5,20.17692],[-167,20.13666],[-166.5,20.09431],[-166,20.04989],[-165.5,20.00344],[-165,19.95496],[-164.5,19.9045],[-164,19.85206],[-163.5,19.79767],[-163,19.74135],[-162.5,19.68312],[-162,19.62301],[-161.5,19.56103],[-161,19.49721],[-160.5,19.43155],[-160.375,19.41486]]}},{"type":"Feature","id":"+00880410:center:0","properties":{"id":"+00880410","year":88,"month":4,"day":10,"time_tdt":"05:50:43","type":"개기일식","type_code":"T","saros":69,"gamma":-0.16424,"magnitude":1.06246,"greatest":{"lat":-1.00216,"lng":137.24945},"path_width_km":207.2,"duration":"05m15s","delta_t_seconds":9665.2,"catalog_number":4991,"source":"NASA Five Millennium Canon of Solar Eclipses","source_url":"https://eclipse.gsfc.nasa.gov/SEsearch/SEsearchmap.php?Ecl=%2B00880410","boundary":"center","name":"88-04-10 개기일식"},"geometry":{"type":"LineString","coordinates":[[74.10882,-37.56011],[74.5,-37.47432],[75,-37.40691],[75.5,-37.33755],[76,-37.26623],[76.5,-37.19292],[77,-37.1176],[77.5,-37.04027],[78,-36.96088],[78.5,-36.87942],[79,-36.79588],[79.5,-36.71022],[80,-36.62242],[80.5,-36.53246],[81,-36.44032],[81.5,-36.34596],[82,-36.24938],[82.5,-36.15053],[83,-36.04939],[83.5,-35.94594],[84,-35.84014],[84.5,-35.73197],[85,-35.6214],[85.5,-35.5084],[86,-35.39294],[86.5,-35.27498],[87,-35.1545],[87.5,-35.03146],[88,-34.90583],[88.5,-34.77757],[89,-34.64665],[89.5,-34.51304],[90,-34.37668],[90.5,-34.23755],[91,-34.09561],[91.5,-33.95081],[92,-33.80312],[92.5,-33.6525],[93,-33.49889],[93.5,-33.34226],[94,-33.18256],[94.5,-33.01974],[95,-32.85376],[95.5,-32.68457],[96,-32.51211],[96.5,-32.33634],[97,-32.1572],[97.5,-31.97463],[98,-31.7886],[98.5,-31.59902],[99,-31.40585],[99.5,-31.20903],[100,-31.0085],[100.5,-30.80418],[101,-30.59603],[101.5,-30.38396],[102,-30.16792],[102.5,-29.94783],[103,-29.72363],[103.5,-29.49523],[104,-29.26257],[104.5,-29.02556],[105,-28.78414],[105.5,-28.53821],[106,-28.2877],[106.5,-28.03252],[107,-27.77258],[107.5,-27.50781],[108,-27.2381],[108.5,-26.96337],[109,-26.68353],[109.5,-26.39847],[110,-26.10811],[110.5,-25.81234],[111,-25.51107],[111.5,-25.20419],[112,-24.8916],[112.5,-24.5732],[113,-24.24888],[113.5,-23.91854],[114,-23.58208],[114.5,-23.23938],[115,-22.89035],[115.5,-22.53488],[116,-22.17287],[116.5,-21.8042],[117,-21.4288],[117.5,-21.04655],[118,-20.65737],[118.5,-20.26117],[119,-19.85786],[119.5,-19.44737],[120,-19.02962],[120.5,-18.60457],[121,-18.17215],[121.5,-17.73232],[122,-17.28507],[122.5,-16.83037],[123,-16.36824],[123.5,-15.89869],[124,-15.42177],[124.5,-14.93755],[125,-14.4461],[125.5,-13.94755],[126,-13.44204],[126.5,-12.92974],[127,-12.41086],[127.5,-11.88564],[128,-11.35436],[128.5,-10.81732],[129,-10.27488],[129.5,-9.72743],[130,-9.17539],[130.5,-8.61922],[131,-8.05942],[131.5,-7.49654],[132,-6.93112],[132.5,-6.36378],[133,-5.79513],[133.5,-5.22581],[134,-4.65647],[134.5,-4.08779],[135,-3.52044],[135.5,-2.95509],[136,-2.3924],[136.5,-1.83302],[137,-1.2776],[137.5,-0.72674],[138,-0.18103],[138.5,0.35898],[139,0.89278],[139.5,1.41987],[140,1.93983],[140.5,2.45225],[141,2.95678],[141.5,3.45309],[142,3.94092],[142.5,4.42002],[143,4.89021],[143.5,5.35133],[144,5.80325],[144.5,6.24588],[145,6.67915],[145.5,7.10305],[146,7.51755],[146.5,7.92268],[147,8.31847],[147.5,8.70498],[148,9.08228],[148.5,9.45046],[149,9.8096],[149.5,10.15983],[150,10.50126],[150.5,10.83402],[151,11.15823],[151.5,11.47403],[152,11.78157],[152.5,12.08098],[153,12.37241],[153.5,12.65601],[154,12.93193],[154.5,13.2003],[155,13.46128],[155.5,13.71502],[156,13.96165],[156.5,14.20132],[157,14.43417],[157.5,14.66033],[158,14.87995],[158.5,15.09316],[159,15.30008],[159.5,15.50085],[160,15.69559],[160.5,15.88441],[161,16.06745],[161.5,16.24482],[162,16.41663],[162.5,16.583],[163,16.74402],[163.5,16.89981],[164,17.05047],[164.5,17.19609],[165,17.33679],[165.5,17.47264],[166,17.60374],[166.5,17.73018],[167,17.85205],[167.5,17.96943],[168,18.08241],[168.5,18.19106],[169,18.29546],[169.5,18.3957],[170,18.49183],[170.5,18.58393],[171,18.67208],[171.5,18.75634],[172,18.83677],[172.5,18.91344],[173,18.98642],[173.5,19.05575],[174,19.12151],[174.5,19.18375],[175,19.24253],[175.5,19.29789],[176,19.3499],[176.5,19.3986],[177,19.44405],[177.5,19.48629],[178,19.52538],[178.5,19.56135],[179,19.59426],[179.5,19.62415],[180,19.65106]]}},{"type":"Feature","id":"+00880410:center:1","properties":{"id":"+00880410","year":88,"month":4,"day":10,"time_tdt":"05:50:43","type":"개기일식","type_code":"T","saros":69,"gamma":-0.16424,"magnitude":1.06246,"greatest":{"lat":-1.00216,"lng":137.24945},"path_width_km":207.2,"duration":"05m15s","delta_t_seconds":9665.2,"catalog_number":4991,"source":"NASA Five Millennium Canon of Solar Eclipses","source_url":"https://eclipse.gsfc.nasa.gov/SEsearch/SEsearchmap.php?Ecl=%2B00880410","boundary":"center","name":"88-04-10 개기일식"},"geometry":{"type":"LineString","coordinates":[[-179.5,19.67504],[-179,19.69612],[-178.5,19.71435],[-178,19.72977],[-177.5,19.74241],[-177,19.75231],[-176.5,19.75952],[-176,19.76405],[-175.5,19.76596],[-175,19.76527],[-174.5,19.76203],[-174,19.75625],[-173.5,19.74797],[-173,19.73724],[-172.5,19.72406],[-172,19.70849],[-171.5,19.69054],[-171,19.67025],[-170.5,19.64764],[-170,19.62274],[-169.5,19.59558],[-169,19.56619],[-168.5,19.5346],[-168,19.50082],[-167.5,19.46489],[-167,19.42682],[-166.5,19.38665],[-166,19.3444],[-165.5,19.3001],[-165,19.25376],[-164.5,19.2054],[-164,19.15506],[-163.5,19.10276],[-163,19.04851],[-162.5,18.99234],[-162,18.93427],[-161.5,18.87432],[-161,18.81251],[-160.5,18.74886],[-160.34503,18.73543]]}},{"type":"Feature","id":"+00880410:south:0","properties":{"id":"+00880410","year":88,"month":4,"day":10,"time_tdt":"05:50:43","type":"개기일식","type_code":"T","saros":69,"gamma":-0.16424,"magnitude":1.06246,"greatest":{"lat":-1.00216,"lng":137.24945},"path_width_km":207.2,"duration":"05m15s","delta_t_seconds":9665.2,"catalog_number":4991,"source":"NASA Five Millennium Canon of Solar Eclipses","source_url":"https://eclipse.gsfc.nasa.gov/SEsearch/SEsearchmap.php?Ecl=%2B00880410","boundary":"south","name":"88-04-10 개기일식"},"geometry":{"type":"LineString","coordinates":[[74.18164,-38.18631],[74.5,-38.14583],[75,-38.0807],[75.5,-38.01366],[76,-37.94468],[76.5,-37.87375],[77,-37.80084],[77.5,-37.72594],[78,-37.64903],[78.5,-37.57008],[79,-37.48907],[79.5,-37.40598],[80,-37.32079],[80.5,-37.23348],[81,-37.14402],[81.5,-37.05239],[82,-36.95856],[82.5,-36.86251],[83,-36.76421],[83.5,-36.66364],[84,-36.56077],[84.5,-36.45557],[85,-36.34802],[85.5,-36.23808],[86,-36.12572],[86.5,-36.01092],[87,-35.89364],[87.5,-35.77385],[88,-35.65153],[88.5,-35.52663],[89,-35.39912],[89.5,-35.26897],[90,-35.13613],[90.5,-35.00059],[91,-34.86229],[91.5,-34.72119],[92,-34.57727],[92.5,-34.43047],[93,-34.28075],[93.5,-34.12808],[94,-33.97241],[94.5,-33.8137],[95,-33.65189],[95.5,-33.48694],[96,-33.31881],[96.5,-33.14744],[97,-32.97278],[97.5,-32.79478],[98,-32.61339],[98.5,-32.42856],[99,-32.24021],[99.5,-32.04831],[100,-31.85278],[100.5,-31.65358],[101,-31.45062],[101.5,-31.24387],[102,-31.03324],[102.5,-30.81866],[103,-30.60008],[103.5,-30.37743],[104,-30.15062],[104.5,-29.91958],[105,-29.68425],[105.5,-29.44454],[106,-29.20037],[106.5,-28.95166],[107,-28.69834],[107.5,-28.44031],[108,-28.17748],[108.5,-27.90978],[109,-27.63711],[109.5,-27.35937],[110,-27.07648],[110.5,-26.78834],[111,-26.49485],[111.5,-26.19592],[112,-25.89144],[112.5,-25.58132],[113,-25.26545],[113.5,-24.94372],[114,-24.61605],[114.5,-24.28231],[115,-23.94241],[115.5,-23.59625],[116,-23.24371],[116.5,-22.88471],[117,-22.51913],[117.5,-22.14687],[118,-21.76785],[118.5,-21.38196],[119,-20.98913],[119.5,-20.58926],[120,-20.18227],[120.5,-19.7681],[121,-19.34669],[121.5,-18.91797],[122,-18.48191],[122.5,-18.03847],[123,-17.58764],[123.5,-17.12941],[124,-16.66381],[124.5,-16.19086],[125,-15.71063],[125.5,-15.22319],[126,-14.72865],[126.5,-14.22713],[127,-13.7188],[127.5,-13.20386],[128,-12.68252],[128.5,-12.15504],[129,-11.62173],[129.5,-11.08291],[130,-10.53896],[130.5,-9.99027],[131,-9.43731],[131.5,-8.88055],[132,-8.3205],[132.5,-7.75772],[133,-7.19279],[133.5,-6.62631],[134,-6.05892],[134.5,-5.49126],[135,-4.92398],[135.5,-4.35777],[136,-3.79328],[136.5,-3.23119],[137,-2.67214],[137.5,-2.11679],[138,-1.56574],[138.5,-1.0196],[139,-0.47893],[139.5,0.05574],[140,0.58392],[140.5,1.10514],[141,1.619],[141.5,2.12511],[142,2.62315],[142.5,3.11281],[143,3.59386],[143.5,4.06607],[144,4.52928],[144.5,4.98334],[145,5.42815],[145.5,5.86364],[146,6.28976],[146.5,6.70649],[147,7.11384],[147.5,7.51184],[148,7.90054],[148.5,8.27999],[149,8.65029],[149.5,9.01152],[150,9.36378],[150.5,9.7072],[151,10.0419],[151.5,10.36799],[152,10.68563],[152.5,10.99494],[153,11.29607],[153.5,11.58916],[154,11.87437],[154.5,12.15183],[155,12.42169],[155.5,12.6841],[156,12.93921],[156.5,13.18717],[157,13.4281],[157.5,13.66217],[158,13.88949],[158.5,14.11022],[159,14.32449],[159.5,14.53243],[160,14.73417],[160.5,14.92983],[161,15.11954],[161.5,15.30341],[162,15.48158],[162.5,15.65415],[163,15.82123],[163.5,15.98294],[164,16.13938],[164.5,16.29066],[165,16.43687],[165.5,16.57812],[166,16.71449],[166.5,16.84609],[167,16.973],[167.5,17.09532],[168,17.21312],[168.5,17.32649],[169,17.43551],[169.5,17.54027],[170,17.64083],[170.5,17.73727],[171,17.82967],[171.5,17.9181],[172,18.00261],[172.5,18.08329],[173,18.16019],[173.5,18.23338],[174,18.30292],[174.5,18.36887],[175,18.43129],[175.5,18.49024],[176,18.54576],[176.5,18.59792],[177,18.64676],[177.5,18.69234],[178,18.73471],[178.5,18.77391],[179,18.81],[179.5,18.84302],[180,18.87301]]}},{"type":"Feature","id":"+00880410:south:1","properties":{"id":"+00880410","year":88,"month":4,"day":10,"time_tdt":"05:50:43","type":"개기일식","type_code":"T","saros":69,"gamma":-0.16424,"magnitude":1.06246,"greatest":{"lat":-1.00216,"lng":137.24945},"path_width_km":207.2,"duration":"05m15s","delta_t_seconds":9665.2,"catalog_number":4991,"source":"NASA Five Millennium Canon of Solar Eclipses","source_url":"https://eclipse.gsfc.nasa.gov/SEsearch/SEsearchmap.php?Ecl=%2B00880410","boundary":"south","name":"88-04-10 개기일식"},"geometry":{"type":"LineString","coordinates":[[-179.5,18.90002],[-179,18.92409],[-178.5,18.94526],[-178,18.96358],[-177.5,18.97908],[-177,18.9918],[-176.5,19.00179],[-176,19.00907],[-175.5,19.01369],[-175,19.01567],[-174.5,19.01507],[-174,19.0119],[-173.5,19.0062],[-173,18.99801],[-172.5,18.98736],[-172,18.97427],[-171.5,18.95879],[-171,18.94093],[-170.5,18.92073],[-170,18.89822],[-169.5,18.87342],[-169,18.84637],[-168.5,18.81709],[-168,18.7856],[-167.5,18.75194],[-167,18.71613],[-166.5,18.67819],[-166,18.63816],[-165.5,18.59605],[-165,18.55188],[-164.5,18.50569],[-164,18.4575],[-163.5,18.40732],[-163,18.35518],[-162.5,18.30111],[-162,18.24512],[-161.5,18.18724],[-161,18.12748],[-160.5,18.06588],[-160.40234,18.05363]]}},{"type":"Feature","id":"+00881003:north:0","properties":{"id":"+00881003","year":88,"month":10,"day":3,"time_tdt":"12:48:46","type":"금환일식","type_code":"A","saros":74,"gamma":0.22562,"magnitude":0.95821,"greatest":{"lat":7.84046,"lng":32.0174},"path_width_km":155.4,"duration":"04m25s","delta_t_seconds":9660.5,"catalog_number":4992,"source":"NASA Five Millennium Canon of Solar Eclipses","source_url":"https://eclipse.gsfc.nasa.gov/SEsearch/SEsearchmap.php?Ecl=%2B00881003","boundary":"north","name":"88-10-03 금환일식"},"geometry":{"type":"LineString","coordinates":[[-33,43.23763],[-32.5,43.2027],[-32,43.16605],[-31.5,43.12766],[-31,43.08751],[-30.5,43.0456],[-30,43.00189],[-29.5,42.95639],[-29,42.90906],[-28.5,42.85989],[-28,42.80887],[-27.5,42.75598],[-27,42.70119],[-26.5,42.64449],[-26,42.58585],[-25.5,42.52527],[-25,42.46271],[-24.5,42.39816],[-24,42.33159],[-23.5,42.26299],[-23,42.19232],[-22.5,42.11957],[-22,42.04472],[-21.5,41.96773],[-21,41.88859],[-20.5,41.80726],[-20,41.72372],[-19.5,41.63795],[-19,41.54991],[-18.5,41.45958],[-18,41.36692],[-17.5,41.27191],[-17,41.17452],[-16.5,41.07472],[-16,40.97247],[-15.5,40.86773],[-15,40.76048],[-14.5,40.65068],[-14,40.53829],[-13.5,40.42328],[-13,40.30561],[-12.5,40.18523],[-12,40.0621],[-11.5,39.9362],[-11,39.80746],[-10.5,39.67586],[-10,39.54133],[-9.5,39.40385],[-9,39.26335],[-8.5,39.11979],[-8,38.97311],[-7.5,38.82327],[-7,38.67021],[-6.5,38.51388],[-6,38.35422],[-5.5,38.19116],[-5,38.02466],[-4.5,37.85463],[-4,37.68103],[-3.5,37.50379],[-3,37.32283],[-2.5,37.13808],[-2,36.94947],[-1.5,36.75693],[-1,36.56038],[-0.5,36.35974],[0,36.15492],[0.5,35.94585],[1,35.73242],[1.5,35.51456],[2,35.29216],[2.5,35.06514],[3,34.83338],[3.5,34.59679],[4,34.35527],[4.5,34.10869],[5,33.85695],[5.5,33.59994],[6,33.33752],[6.5,33.06958],[7,32.79598],[7.5,32.5166],[8,32.2313],[8.5,31.93994],[9,31.64237],[9.5,31.33845],[10,31.02802],[10.5,30.71093],[11,30.38701],[11.5,30.0561],[12,29.71804],[12.5,29.37264],[13,29.01973],[13.5,28.65914],[14,28.29068],[14.5,27.91416],[15,27.52941],[15.5,27.13623],[16,26.73443],[16.5,26.32384],[17,25.90425],[17.5,25.4755],[18,25.03739],[18.5,24.58977],[19,24.13247],[19.5,23.66533],[20,23.18822],[20.5,22.70102],[21,22.20361],[21.5,21.69594],[22,21.17794],[22.5,20.64959],[23,20.11092],[23.5,19.56199],[24,19.00289],[24.5,18.43381],[25,17.85495],[25.5,17.2666],[26,16.66911],[26.5,16.06291],[27,15.44851],[27.5,14.82649],[28,14.19751],[28.5,13.56232],[29,12.92175],[29.5,12.27669],[30,11.62811],[30.5,10.97704],[31,10.32454],[31.5,9.67174],[32,9.01975],[32.5,8.36972],[33,7.72278],[33.5,7.08004],[34,6.44256],[34.5,5.81137],[35,5.18742],[35.5,4.57161],[36,3.96473],[36.5,3.36751],[37,2.78058],[37.5,2.2045],[38,1.63972],[38.5,1.08663],[39,0.54552],[39.5,0.01662],[40,-0.49992],[40.5,-1.004],[41,-1.49559],[41.5,-1.9747],[42,-2.4414],[42.5,-2.89577],[43,-3.33795],[43.5,-3.7681],[44,-4.18639],[44.5,-4.59303],[45,-4.98822],[45.5,-5.3722],[46,-5.74519],[46.5,-6.10744],[47,-6.4592],[47.5,-6.8007],[48,-7.1322],[48.5,-7.45394],[49,-7.76616],[49.5,-8.06911],[50,-8.36302],[50.5,-8.64812],[51,-8.92465],[51.5,-9.19282],[52,-9.45285],[52.5,-9.70495],[53,-9.94933],[53.5,-10.18619],[54,-10.41571],[54.5,-10.6381],[55,-10.85352],[55.5,-11.06216],[56,-11.26419],[56.5,-11.45976],[57,-11.64905],[57.5,-11.8322],[58,-12.00936],[58.5,-12.18068],[59,-12.34629],[59.5,-12.50633],[60,-12.66093],[60.5,-12.81021],[61,-12.9543],[61.5,-13.09331],[62,-13.22736],[62.5,-13.35655],[63,-13.48099],[63.5,-13.60078],[64,-13.71602],[64.5,-13.82681],[65,-13.93324],[65.5,-14.03539],[66,-14.13336],[66.5,-14.22723],[67,-14.31707],[67.5,-14.40298],[68,-14.48501],[68.5,-14.56326],[69,-14.63778],[69.5,-14.70865],[70,-14.77594],[70.5,-14.8397],[71,-14.90001],[71.5,-14.95692],[72,-15.0105],[72.5,-15.0608],[73,-15.10787],[73.5,-15.15178],[74,-15.19257],[74.5,-15.2303],[75,-15.26502],[75.5,-15.29678],[76,-15.32561],[76.5,-15.35158],[77,-15.37472],[77.5,-15.39507],[78,-15.41269],[78.5,-15.42761],[79,-15.43987],[79.5,-15.44952],[80,-15.45658],[80.5,-15.46111],[81,-15.46313],[81.5,-15.46267],[82,-15.45979],[82.5,-15.4545],[83,-15.44685],[83.5,-15.43686],[84,-15.42457],[84.5,-15.41001],[85,-15.3932],[85.5,-15.37419],[86,-15.35299],[86.5,-15.32964],[87,-15.30416],[87.5,-15.27659],[88,-15.24694],[88.5,-15.21525],[88.88477,-15.18949]]}},{"type":"Feature","id":"+00881003:center:0","properties":{"id":"+00881003","year":88,"month":10,"day":3,"time_tdt":"12:48:46","type":"금환일식","type_code":"A","saros":74,"gamma":0.22562,"magnitude":0.95821,"greatest":{"lat":7.84046,"lng":32.0174},"path_width_km":155.4,"duration":"04m25s","delta_t_seconds":9660.5,"catalog_number":4992,"source":"NASA Five Millennium Canon of Solar Eclipses","source_url":"https://eclipse.gsfc.nasa.gov/SEsearch/SEsearchmap.php?Ecl=%2B00881003","boundary":"center","name":"88-10-03 금환일식"},"geometry":{"type":"LineString","coordinates":[[-33.27844,42.31324],[-33,42.28191],[-32.5,42.24869],[-32,42.21373],[-31.5,42.17702],[-31,42.13852],[-30.5,42.09824],[-30,42.05616],[-29.5,42.01225],[-29,41.96649],[-28.5,41.91888],[-28,41.8694],[-27.5,41.81801],[-27,41.76472],[-26.5,41.70948],[-26,41.6523],[-25.5,41.59314],[-25,41.53198],[-24.5,41.46881],[-24,41.4036],[-23.5,41.33632],[-23,41.26696],[-22.5,41.19549],[-22,41.12189],[-21.5,41.04613],[-21,40.96819],[-20.5,40.88803],[-20,40.80564],[-19.5,40.72098],[-19,40.63403],[-18.5,40.54476],[-18,40.45313],[-17.5,40.35912],[-17,40.2627],[-16.5,40.16383],[-16,40.06247],[-15.5,39.95861],[-15,39.85219],[-14.5,39.74318],[-14,39.63156],[-13.5,39.51727],[-13,39.40028],[-12.5,39.28054],[-12,39.15803],[-11.5,39.03269],[-11,38.90448],[-10.5,38.77336],[-10,38.63928],[-9.5,38.50218],[-9,38.36203],[-8.5,38.21877],[-8,38.07235],[-7.5,37.92272],[-7,37.76981],[-6.5,37.61358],[-6,37.45396],[-5.5,37.29089],[-5,37.12432],[-4.5,36.95417],[-4,36.78038],[-3.5,36.60288],[-3,36.42161],[-2.5,36.23648],[-2,36.04743],[-1.5,35.85437],[-1,35.65723],[-0.5,35.45592],[0,35.25036],[0.5,35.04046],[1,34.82613],[1.5,34.60728],[2,34.3838],[2.5,34.15561],[3,33.92259],[3.5,33.68464],[4,33.44165],[4.5,33.19352],[5,32.94011],[5.5,32.68131],[6,32.417],[6.5,32.14705],[7,31.87132],[7.5,31.58968],[8,31.30199],[8.5,31.0081],[9,30.70787],[9.5,30.40114],[10,30.08776],[10.5,29.76756],[11,29.44038],[11.5,29.10605],[12,28.76439],[12.5,28.41523],[13,28.05839],[13.5,27.69369],[14,27.32093],[14.5,26.93994],[15,26.55051],[15.5,26.15247],[16,25.74562],[16.5,25.32977],[17,24.90473],[17.5,24.47034],[18,24.0264],[18.5,23.57276],[19,23.10925],[19.5,22.63573],[20,22.15208],[20.5,21.65817],[21,21.15393],[21.5,20.6393],[22,20.11425],[22.5,19.57878],[23,19.03295],[23.5,18.47684],[24,17.91062],[24.5,17.33448],[25,16.74869],[25.5,16.1536],[26,15.54961],[26.5,14.93721],[27,14.31696],[27.5,13.68952],[28,13.05562],[28.5,12.41607],[29,11.77175],[29.5,11.12361],[30,10.47268],[30.5,9.82001],[31,9.16672],[31.5,8.51392],[32,7.86277],[32.5,7.2144],[33,6.56991],[33.5,5.9304],[34,5.29688],[34.5,4.67033],[35,4.05166],[35.5,3.44167],[36,2.84112],[36.5,2.25066],[37,1.67085],[37.5,1.10217],[38,0.54501],[38.5,-0.0003],[39,-0.53353],[39.5,-1.0545],[40,-1.56313],[40.5,-2.05934],[41,-2.54315],[41.5,-3.01461],[42,-3.47381],[42.5,-3.92086],[43,-4.35591],[43.5,-4.77914],[44,-5.19074],[44.5,-5.59092],[45,-5.9799],[45.5,-6.35792],[46,-6.7252],[46.5,-7.08198],[47,-7.42852],[47.5,-7.76506],[48,-8.09184],[48.5,-8.40909],[49,-8.71707],[49.5,-9.01601],[50,-9.30613],[50.5,-9.58767],[51,-9.86084],[51.5,-10.12587],[52,-10.38296],[52.5,-10.63231],[53,-10.87414],[53.5,-11.10862],[54,-11.33595],[54.5,-11.55631],[55,-11.76987],[55.5,-11.97681],[56,-12.17729],[56.5,-12.37147],[57,-12.5595],[57.5,-12.74153],[58,-12.91771],[58.5,-13.08817],[59,-13.25305],[59.5,-13.41247],[60,-13.56657],[60.5,-13.71547],[61,-13.85927],[61.5,-13.9981],[62,-14.13206],[62.5,-14.26127],[63,-14.38581],[63.5,-14.5058],[64,-14.62132],[64.5,-14.73247],[65,-14.83934],[65.5,-14.94201],[66,-15.04057],[66.5,-15.1351],[67,-15.22567],[67.5,-15.31237],[68,-15.39527],[68.5,-15.47444],[69,-15.54994],[69.5,-15.62185],[70,-15.69023],[70.5,-15.75515],[71,-15.81666],[71.5,-15.87482],[72,-15.92969],[72.5,-15.98134],[73,-16.0298],[73.5,-16.07514],[74,-16.11741],[74.5,-16.15666],[75,-16.19293],[75.5,-16.22627],[76,-16.25673],[76.5,-16.28436],[77,-16.3092],[77.5,-16.33128],[78,-16.35066],[78.5,-16.36737],[79,-16.38145],[79.5,-16.39295],[80,-16.40189],[80.5,-16.40831],[81,-16.41225],[81.5,-16.41375],[82,-16.41284],[82.5,-16.40955],[83,-16.40391],[83.5,-16.39596],[84,-16.38573],[84.5,-16.37324],[85,-16.35854],[85.5,-16.34163],[86,-16.32257],[86.5,-16.30136],[87,-16.27805],[87.5,-16.25265],[88,-16.22519],[88.5,-16.1957],[88.85464,-16.17278]]}},{"type":"Feature","id":"+00881003:south:0","properties":{"id":"+00881003","year":88,"month":10,"day":3,"time_tdt":"12:48:46","type":"금환일식","type_code":"A","saros":74,"gamma":0.22562,"magnitude":0.95821,"greatest":{"lat":7.84046,"lng":32.0174},"path_width_km":155.4,"duration":"04m25s","delta_t_seconds":9660.5,"catalog_number":4992,"source":"NASA Five Millennium Canon of Solar Eclipses","source_url":"https://eclipse.gsfc.nasa.gov/SEsearch/SEsearchmap.php?Ecl=%2B00881003","boundary":"south","name":"88-10-03 금환일식"},"geometry":{"type":"LineString","coordinates":[[-33.30469,41.34796],[-33,41.32963],[-32.5,41.29815],[-32,41.26491],[-31.5,41.2299],[-31,41.19309],[-30.5,41.15447],[-30,41.11403],[-29.5,41.07174],[-29,41.0276],[-28.5,40.98157],[-28,40.93365],[-27.5,40.88381],[-27,40.83203],[-26.5,40.7783],[-26,40.72259],[-25.5,40.66489],[-25,40.60516],[-24.5,40.5434],[-24,40.47957],[-23.5,40.41365],[-23,40.34562],[-22.5,40.27546],[-22,40.20314],[-21.5,40.12864],[-21,40.05192],[-20.5,39.97297],[-20,39.89175],[-19.5,39.80823],[-19,39.7224],[-18.5,39.63421],[-18,39.54363],[-17.5,39.45064],[-17,39.35521],[-16.5,39.2573],[-16,39.15687],[-15.5,39.05389],[-15,38.94832],[-14.5,38.84014],[-14,38.72929],[-13.5,38.61574],[-13,38.49946],[-12.5,38.38039],[-12,38.2585],[-11.5,38.13375],[-11,38.00608],[-10.5,37.87546],[-10,37.74183],[-9.5,37.60514],[-9,37.46535],[-8.5,37.3224],[-8,37.17624],[-7.5,37.02682],[-7,36.87407],[-6.5,36.71794],[-6,36.55837],[-5.5,36.3953],[-5,36.22866],[-4.5,36.05838],[-4,35.8844],[-3.5,35.70665],[-3,35.52506],[-2.5,35.33954],[-2,35.15003],[-1.5,34.95644],[-1,34.75869],[-0.5,34.5567],[0,34.35038],[0.5,34.13963],[1,33.92437],[1.5,33.7045],[2,33.47992],[2.5,33.25052],[3,33.01621],[3.5,32.77686],[4,32.53237],[4.5,32.28262],[5,32.0275],[5.5,31.76687],[6,31.5006],[6.5,31.22858],[7,30.95065],[7.5,30.66668],[8,30.37652],[8.5,30.08004],[9,29.77706],[9.5,29.46744],[10,29.15101],[10.5,28.8276],[11,28.49706],[11.5,28.15919],[12,27.81383],[12.5,27.46079],[13,27.0999],[13.5,26.73095],[14,26.35376],[14.5,25.96815],[15,25.57391],[15.5,25.17085],[16,24.7588],[16.5,24.33754],[17,23.90691],[17.5,23.46671],[18,23.01679],[18.5,22.55697],[19,22.0871],[19.5,21.60705],[20,21.11671],[20.5,20.61597],[21,20.10478],[21.5,19.58308],[22,19.05089],[22.5,18.50823],[23,17.95519],[23.5,17.3919],[24,16.81856],[24.5,16.23541],[25,15.64279],[25.5,15.04109],[26,14.43077],[26.5,13.81239],[27,13.18658],[27.5,12.55405],[28,11.9156],[28.5,11.27211],[29,10.6245],[29.5,9.97379],[30,9.32104],[30.5,8.66735],[31,8.01383],[31.5,7.36164],[32,6.71191],[32.5,6.06576],[33,5.42427],[33.5,4.7885],[34,4.15941],[34.5,3.53794],[35,2.92491],[35.5,2.32108],[36,1.72713],[36.5,1.14364],[37,0.5711],[37.5,0.00992],[38,-0.53955],[38.5,-1.07707],[39,-1.60246],[39.5,-2.11558],[40,-2.61639],[40.5,-3.10487],[41,-3.58107],[41.5,-4.04505],[42,-4.49694],[42.5,-4.93687],[43,-5.36501],[43.5,-5.78155],[44,-6.18669],[44.5,-6.58064],[45,-6.96364],[45.5,-7.33592],[46,-7.69771],[46.5,-8.04925],[47,-8.3908],[47.5,-8.72258],[48,-9.04484],[48.5,-9.35782],[49,-9.66174],[49.5,-9.95685],[50,-10.24337],[50.5,-10.52151],[51,-10.7915],[51.5,-11.05354],[52,-11.30784],[52.5,-11.5546],[53,-11.794],[53.5,-12.02624],[54,-12.2515],[54.5,-12.46995],[55,-12.68177],[55.5,-12.88712],[56,-13.08615],[56.5,-13.27902],[57,-13.46589],[57.5,-13.64689],[58,-13.82216],[58.5,-13.99184],[59,-14.15605],[59.5,-14.31493],[60,-14.46859],[60.5,-14.61716],[61,-14.76073],[61.5,-14.89943],[62,-15.03336],[62.5,-15.16263],[63,-15.28732],[63.5,-15.40754],[64,-15.52337],[64.5,-15.63492],[65,-15.74226],[65.5,-15.84548],[66,-15.94465],[66.5,-16.03987],[67,-16.1312],[67.5,-16.21872],[68,-16.30249],[68.5,-16.3826],[69,-16.4591],[69.5,-16.53206],[70,-16.60155],[70.5,-16.66762],[71,-16.73034],[71.5,-16.78976],[72,-16.84594],[72.5,-16.89893],[73,-16.94879],[73.5,-16.99557],[74,-17.03932],[74.5,-17.08008],[75,-17.1179],[75.5,-17.15284],[76,-17.18493],[76.5,-17.21421],[77,-17.24074],[77.5,-17.26456],[78,-17.28569],[78.5,-17.30419],[79,-17.32008],[79.5,-17.33342],[80,-17.34422],[80.5,-17.35254],[81,-17.35841],[81.5,-17.36185],[82,-17.3629],[82.5,-17.3616],[83,-17.35797],[83.5,-17.35205],[84,-17.34387],[84.5,-17.33345],[85,-17.32083],[85.5,-17.30603],[86,-17.28908],[86.5,-17.27002],[87,-17.24885],[87.5,-17.22562],[88,-17.20034],[88.5,-17.17305],[88.75,-17.15865]]}}],"attribution":"Eclipse Predictions by Fred Espenak and Jean Meeus (NASA's GSFC)","generated_at":"2026-09-23T01:44:44.488Z"}
