{"type":"FeatureCollection","year":886,"events":[{"id":"+08860507","year":886,"month":5,"day":7,"time_tdt":"18:49:14","type":"부분일식","type_code":"P","saros":81,"gamma":-1.19257,"magnitude":0.64349,"greatest":{"lat":-62.56695,"lng":-43.13971},"path_width_km":0,"duration":"00m00s","delta_t_seconds":2281.5,"catalog_number":6866,"source":"NASA Five Millennium Canon of Solar Eclipses","source_url":"https://eclipse.gsfc.nasa.gov/SEsearch/SEsearchmap.php?Ecl=%2B08860507"},{"id":"+08860606","year":886,"month":6,"day":6,"time_tdt":"03:28:26","type":"부분일식","type_code":"P","saros":119,"gamma":1.39441,"magnitude":0.26466,"greatest":{"lat":64.84746,"lng":-18.69983},"path_width_km":0,"duration":"00m00s","delta_t_seconds":2280.9,"catalog_number":6867,"source":"NASA Five Millennium Canon of Solar Eclipses","source_url":"https://eclipse.gsfc.nasa.gov/SEsearch/SEsearchmap.php?Ecl=%2B08860606"},{"id":"+08861030","year":886,"month":10,"day":30,"time_tdt":"23:23:09","type":"부분일식","type_code":"P","saros":86,"gamma":1.14083,"magnitude":0.73383,"greatest":{"lat":62.09832,"lng":-106.81073},"path_width_km":0,"duration":"00m00s","delta_t_seconds":2278.1,"catalog_number":6868,"source":"NASA Five Millennium Canon of Solar Eclipses","source_url":"https://eclipse.gsfc.nasa.gov/SEsearch/SEsearchmap.php?Ecl=%2B08861030"}],"features":[],"attribution":"Eclipse Predictions by Fred Espenak and Jean Meeus (NASA's GSFC)","generated_at":"2026-09-23T01:44:57.933Z"}
