{"type":"FeatureCollection","year":888,"events":[{"id":"+08880415","year":888,"month":4,"day":15,"time_tdt":"04:11:50","type":"금환일식","type_code":"A","saros":101,"gamma":0.29099,"magnitude":0.94144,"greatest":{"lat":26.51314,"lng":117.66913},"path_width_km":225.5,"duration":"06m22s","delta_t_seconds":2267.8,"catalog_number":6871,"source":"NASA Five Millennium Canon of Solar Eclipses","source_url":"https://eclipse.gsfc.nasa.gov/SEsearch/SEsearchmap.php?Ecl=%2B08880415"},{"id":"+08881009","year":888,"month":10,"day":9,"time_tdt":"05:11:15","type":"개기일식","type_code":"T","saros":106,"gamma":-0.27151,"magnitude":1.04844,"greatest":{"lat":-22.07706,"lng":100.42975},"path_width_km":166.7,"duration":"03m55s","delta_t_seconds":2264.3,"catalog_number":6872,"source":"NASA Five Millennium Canon of Solar Eclipses","source_url":"https://eclipse.gsfc.nasa.gov/SEsearch/SEsearchmap.php?Ecl=%2B08881009"}],"features":[{"type":"Feature","id":"+08880415:north:0","properties":{"id":"+08880415","year":888,"month":4,"day":15,"time_tdt":"04:11:50","type":"금환일식","type_code":"A","saros":101,"gamma":0.29099,"magnitude":0.94144,"greatest":{"lat":26.51314,"lng":117.66913},"path_width_km":225.5,"duration":"06m22s","delta_t_seconds":2267.8,"catalog_number":6871,"source":"NASA Five Millennium Canon of Solar Eclipses","source_url":"https://eclipse.gsfc.nasa.gov/SEsearch/SEsearchmap.php?Ecl=%2B08880415","boundary":"north","name":"888-04-15 금환일식"},"geometry":{"type":"LineString","coordinates":[[65.85547,-8.2626],[66,-8.23403],[66.5,-8.13348],[67,-8.03024],[67.5,-7.92425],[68,-7.81548],[68.5,-7.70389],[69,-7.58942],[69.5,-7.47204],[70,-7.3517],[70.5,-7.22835],[71,-7.10194],[71.5,-6.97242],[72,-6.83974],[72.5,-6.70384],[73,-6.56468],[73.5,-6.42218],[74,-6.2763],[74.5,-6.12697],[75,-5.97413],[75.5,-5.81773],[76,-5.65768],[76.5,-5.49393],[77,-5.3264],[77.5,-5.15503],[78,-4.97974],[78.5,-4.80045],[79,-4.61709],[79.5,-4.42957],[80,-4.23781],[80.5,-4.04173],[81,-3.84124],[81.5,-3.63624],[82,-3.42664],[82.5,-3.21235],[83,-2.99327],[83.5,-2.76929],[84,-2.54031],[84.5,-2.30622],[85,-2.0669],[85.5,-1.82225],[86,-1.57214],[86.5,-1.31646],[87,-1.05507],[87.5,-0.78784],[88,-0.51466],[88.5,-0.23537],[89,0.05015],[89.5,0.34206],[90,0.64049],[90.5,0.94559],[91,1.25752],[91.5,1.57644],[92,1.90249],[92.5,2.23583],[93,2.57663],[93.5,2.92506],[94,3.28126],[94.5,3.6454],[95,4.01765],[95.5,4.39816],[96,4.7871],[96.5,5.18461],[97,5.59085],[97.5,6.00594],[98,6.43003],[98.5,6.86324],[99,7.30567],[99.5,7.75741],[100,8.21854],[100.5,8.6891],[101,9.16913],[101.5,9.65862],[102,10.15753],[102.5,10.6658],[103,11.18331],[103.5,11.7099],[104,12.24536],[104.5,12.78945],[105,13.34185],[105.5,13.90218],[106,14.47001],[106.5,15.04485],[107,15.62613],[107.5,16.21324],[108,16.80549],[108.5,17.40216],[109,18.00244],[109.5,18.6055],[110,19.21048],[110.5,19.81648],[111,20.42257],[111.5,21.02783],[112,21.63134],[112.5,22.23219],[113,22.8295],[113.5,23.4224],[114,24.01011],[114.5,24.59185],[115,25.16692],[115.5,25.73469],[116,26.29458],[116.5,26.84607],[117,27.38872],[117.5,27.92214],[118,28.44603],[118.5,28.96011],[119,29.46419],[119.5,29.95811],[120,30.44177],[120.5,30.91512],[121,31.37814],[121.5,31.83084],[122,32.27328],[122.5,32.70552],[123,33.12767],[123.5,33.53985],[124,33.94218],[124.5,34.33483],[125,34.71795],[125.5,35.09171],[126,35.45629],[126.5,35.81186],[127,36.15863],[127.5,36.49676],[128,36.82646],[128.5,37.14791],[129,37.4613],[129.5,37.76681],[130,38.06464],[130.5,38.35495],[131,38.63793],[131.5,38.91375],[132,39.18259],[132.5,39.44461],[133,39.69997],[133.5,39.94884],[134,40.19136],[134.5,40.42769],[135,40.65798],[135.5,40.88236],[136,41.10097],[136.5,41.31396],[137,41.52143],[137.5,41.72353],[138,41.92038],[138.5,42.11208],[139,42.29876],[139.5,42.48052],[140,42.65747],[140.5,42.82971],[141,42.99735],[141.5,43.16048],[142,43.31919],[142.5,43.47357],[143,43.62372],[143.5,43.76971],[144,43.91162],[144.5,44.04954],[145,44.18354],[145.5,44.31369],[146,44.44007],[146.5,44.56275],[147,44.68179],[147.5,44.79725],[148,44.90921],[148.5,45.01771],[149,45.12283],[149.5,45.22461],[150,45.32311],[150.5,45.41838],[151,45.51048],[151.5,45.59945],[152,45.68535],[152.5,45.76821],[153,45.84809],[153.5,45.92504],[154,45.99908],[154.5,46.07026],[155,46.13863],[155.5,46.20422],[156,46.26707],[156.5,46.32721],[157,46.38469],[157.5,46.43953],[158,46.49177],[158.5,46.54144],[159,46.58858],[159.5,46.6332],[160,46.67535],[160.5,46.71505],[161,46.75233],[161.5,46.78721],[162,46.81972],[162.5,46.84989],[163,46.87774],[163.5,46.9033],[164,46.92659],[164.5,46.94763],[165,46.96644],[165.5,46.98305],[166,46.99747],[166.5,47.00974],[167,47.01985],[167.5,47.02785],[168,47.03373],[168.5,47.03753],[169,47.03927],[169.5,47.03894],[170,47.03659],[170.5,47.03221],[171,47.02583],[171.5,47.01746],[172,47.00712],[172.5,46.99483],[173,46.98059],[173.5,46.96442],[174,46.94634],[174.5,46.92636],[175,46.90448],[175.5,46.88074],[176,46.85513],[176.5,46.82767],[177,46.79838],[177.5,46.76726],[178,46.73432],[178.5,46.69959],[179,46.66306],[179.5,46.62475],[180,46.58468]]}},{"type":"Feature","id":"+08880415:north:1","properties":{"id":"+08880415","year":888,"month":4,"day":15,"time_tdt":"04:11:50","type":"금환일식","type_code":"A","saros":101,"gamma":0.29099,"magnitude":0.94144,"greatest":{"lat":26.51314,"lng":117.66913},"path_width_km":225.5,"duration":"06m22s","delta_t_seconds":2267.8,"catalog_number":6871,"source":"NASA Five Millennium Canon of Solar Eclipses","source_url":"https://eclipse.gsfc.nasa.gov/SEsearch/SEsearchmap.php?Ecl=%2B08880415","boundary":"north","name":"888-04-15 금환일식"},"geometry":{"type":"LineString","coordinates":[[-179.5,46.54284],[-179,46.49926],[-178.5,46.45394],[-178,46.40689],[-177.5,46.35813],[-177,46.30766],[-176.5,46.25549],[-176,46.20164],[-175.5,46.14611],[-175,46.08891],[-174.5,46.03005],[-174,45.96954],[-173.5,45.90739],[-173,45.84361],[-172.5,45.77821],[-172,45.71119],[-171.5,45.64257],[-171,45.57236],[-170.5,45.50056],[-170,45.42719],[-169.5,45.35224],[-169,45.27574],[-168.5,45.19769],[-168,45.11809],[-167.5,45.03696],[-167,44.95431],[-166.5,44.87014],[-166,44.78447],[-165.5,44.6973],[-165,44.60864],[-164.5,44.5185],[-164,44.42689],[-163.5,44.33382],[-163,44.2393],[-162.5,44.14333],[-162,44.04593],[-161,43.84685],[-161.5,43.9471],[-161.25,43.89715]]}},{"type":"Feature","id":"+08880415:center:0","properties":{"id":"+08880415","year":888,"month":4,"day":15,"time_tdt":"04:11:50","type":"금환일식","type_code":"A","saros":101,"gamma":0.29099,"magnitude":0.94144,"greatest":{"lat":26.51314,"lng":117.66913},"path_width_km":225.5,"duration":"06m22s","delta_t_seconds":2267.8,"catalog_number":6871,"source":"NASA Five Millennium Canon of Solar Eclipses","source_url":"https://eclipse.gsfc.nasa.gov/SEsearch/SEsearchmap.php?Ecl=%2B08880415","boundary":"center","name":"888-04-15 금환일식"},"geometry":{"type":"LineString","coordinates":[[66.3718,-9.52276],[66.5,-9.49756],[67,-9.3945],[67.5,-9.28876],[68,-9.18028],[68.5,-9.06904],[69,-8.95498],[69.5,-8.83807],[70,-8.71826],[70.5,-8.5955],[71,-8.46975],[71.5,-8.34095],[72,-8.20907],[72.5,-8.07403],[73,-7.9358],[73.5,-7.79432],[74,-7.64952],[74.5,-7.50137],[75,-7.34978],[75.5,-7.19471],[76,-7.03609],[76.5,-6.87385],[77,-6.70794],[77.5,-6.53827],[78,-6.36478],[78.5,-6.1874],[79,-6.00605],[79.5,-5.82066],[80,-5.63113],[80.5,-5.4374],[81,-5.23938],[81.5,-5.03698],[82,-4.8301],[82.5,-4.61867],[83,-4.40257],[83.5,-4.18172],[84,-3.95602],[84.5,-3.72535],[85,-3.48961],[85.5,-3.24869],[86,-3.00247],[86.5,-2.75085],[87,-2.49369],[87.5,-2.23088],[88,-1.96229],[88.5,-1.68778],[89,-1.40722],[89.5,-1.12048],[90,-0.82741],[90.5,-0.52787],[91,-0.22171],[91.5,0.09122],[92,0.41107],[92.5,0.738],[93,1.07217],[93.5,1.41374],[94,1.76286],[94.5,2.11971],[95,2.48444],[95.5,2.85722],[96,3.23821],[96.5,3.62757],[97,4.02546],[97.5,4.43202],[98,4.8474],[98.5,5.27173],[99,5.70516],[99.5,6.14777],[100,6.59969],[100.5,7.06098],[101,7.53172],[101.5,8.01193],[102,8.50163],[102.5,9.00081],[103,9.50939],[103.5,10.02729],[104,10.55437],[104.5,11.09045],[105,11.63529],[105.5,12.18859],[106,12.75001],[106.5,13.31913],[107,13.89548],[107.5,14.47853],[108,15.06766],[108.5,15.66222],[109,16.26148],[109.5,16.86466],[110,17.47093],[110.5,18.07943],[111,18.68925],[111.5,19.29945],[112,19.90912],[112.5,20.51729],[113,21.12305],[113.5,21.72547],[114,22.32368],[114.5,22.91685],[115,23.50416],[115.5,24.0849],[116,24.65839],[116.5,25.22401],[117,25.78121],[117.5,26.32953],[118,26.86855],[118.5,27.39792],[119,27.91737],[119.5,28.42666],[120,28.92563],[120.5,29.41417],[121,29.8922],[121.5,30.3597],[122,30.81667],[122.5,31.26315],[123,31.69922],[123.5,32.12498],[124,32.54054],[124.5,32.94604],[125,33.34162],[125.5,33.72747],[126,34.10373],[126.5,34.47061],[127,34.82828],[127.5,35.17693],[128,35.51675],[128.5,35.84795],[129,36.17072],[129.5,36.48524],[130,36.79171],[130.5,37.09032],[131,37.38125],[131.5,37.6647],[132,37.94083],[132.5,38.20983],[133,38.47187],[133.5,38.72712],[134,38.97573],[134.5,39.21787],[135,39.45369],[135.5,39.68335],[136,39.90699],[136.5,40.12474],[137,40.33675],[137.5,40.54316],[138,40.74408],[138.5,40.93964],[139,41.12997],[139.5,41.31518],[140,41.49539],[140.5,41.67069],[141,41.8412],[141.5,42.00703],[142,42.16826],[142.5,42.32499],[143,42.47733],[143.5,42.62534],[144,42.76913],[144.5,42.90878],[145,43.04436],[145.5,43.17595],[146,43.30364],[146.5,43.42748],[147,43.54756],[147.5,43.66394],[148,43.77668],[148.5,43.88586],[149,43.99152],[149.5,44.09374],[150,44.19257],[150.5,44.28807],[151,44.38028],[151.5,44.46927],[152,44.55508],[152.5,44.63776],[153,44.71736],[153.5,44.79393],[154,44.86751],[154.5,44.93814],[155,45.00587],[155.5,45.07074],[156,45.13278],[156.5,45.19204],[157,45.24854],[157.5,45.30234],[158,45.35346],[158.5,45.40193],[159,45.44779],[159.5,45.49108],[160,45.53181],[160.5,45.57003],[161,45.60576],[161.5,45.63902],[162,45.66986],[162.5,45.69828],[163,45.72433],[163.5,45.74802],[164,45.76938],[164.5,45.78843],[165,45.8052],[165.5,45.81971],[166,45.83198],[166.5,45.84203],[167,45.84988],[167.5,45.85555],[168,45.85907],[168.5,45.86045],[169,45.85971],[169.5,45.85687],[170,45.85195],[170.5,45.84496],[171,45.83592],[171.5,45.82484],[172,45.81175],[172.5,45.79666],[173,45.77959],[173.5,45.76054],[174,45.73954],[174.5,45.7166],[175,45.69173],[175.5,45.66495],[176,45.63627],[176.5,45.6057],[177,45.57326],[177.5,45.53896],[178,45.50281],[178.5,45.46482],[179,45.42501],[179.5,45.38339],[180,45.33997]]}},{"type":"Feature","id":"+08880415:center:1","properties":{"id":"+08880415","year":888,"month":4,"day":15,"time_tdt":"04:11:50","type":"금환일식","type_code":"A","saros":101,"gamma":0.29099,"magnitude":0.94144,"greatest":{"lat":26.51314,"lng":117.66913},"path_width_km":225.5,"duration":"06m22s","delta_t_seconds":2267.8,"catalog_number":6871,"source":"NASA Five Millennium Canon of Solar Eclipses","source_url":"https://eclipse.gsfc.nasa.gov/SEsearch/SEsearchmap.php?Ecl=%2B08880415","boundary":"center","name":"888-04-15 금환일식"},"geometry":{"type":"LineString","coordinates":[[-179.5,45.29476],[-179,45.24777],[-178.5,45.19902],[-178,45.14852],[-177.5,45.09626],[-177,45.04228],[-176.5,44.98657],[-176,44.92916],[-175.5,44.87004],[-175,44.80923],[-174.5,44.74674],[-174,44.68258],[-173.5,44.61675],[-173,44.54928],[-172.5,44.48017],[-172,44.40942],[-171.5,44.33706],[-171,44.26308],[-170.5,44.18751],[-170,44.11034],[-169.5,44.03159],[-169,43.95127],[-168.5,43.86939],[-168,43.78595],[-167.5,43.70097],[-167,43.61446],[-166.5,43.52643],[-166,43.43688],[-165.5,43.34582],[-165,43.25328],[-164.5,43.15925],[-164,43.06374],[-163.5,42.96677],[-163,42.86834],[-162.5,42.76847],[-162,42.66716],[-161.6884,42.64142]]}},{"type":"Feature","id":"+08880415:south:0","properties":{"id":"+08880415","year":888,"month":4,"day":15,"time_tdt":"04:11:50","type":"금환일식","type_code":"A","saros":101,"gamma":0.29099,"magnitude":0.94144,"greatest":{"lat":26.51314,"lng":117.66913},"path_width_km":225.5,"duration":"06m22s","delta_t_seconds":2267.8,"catalog_number":6871,"source":"NASA Five Millennium Canon of Solar Eclipses","source_url":"https://eclipse.gsfc.nasa.gov/SEsearch/SEsearchmap.php?Ecl=%2B08880415","boundary":"south","name":"888-04-15 금환일식"},"geometry":{"type":"LineString","coordinates":[[67,-10.74922],[67.5,-10.64364],[68,-10.53538],[68.5,-10.42441],[69,-10.31068],[69.5,-10.19415],[70,-10.07478],[70.5,-9.95252],[71,-9.82732],[71.5,-9.69915],[72,-9.56795],[72.5,-9.43367],[73,-9.29627],[73.5,-9.15568],[74,-9.01186],[74.5,-8.86475],[75,-8.71429],[75.5,-8.56043],[76,-8.40309],[76.5,-8.24223],[77,-8.07778],[77.5,-7.90967],[78,-7.73783],[78.5,-7.5622],[79,-7.3827],[79.5,-7.19925],[80,-7.01178],[80.5,-6.82022],[81,-6.62448],[81.5,-6.42447],[82,-6.22012],[82.5,-6.01133],[83,-5.79801],[83.5,-5.58006],[84,-5.35739],[84.5,-5.12991],[85,-4.8975],[85.5,-4.66005],[86,-4.41747],[86.5,-4.16964],[87,-3.91644],[87.5,-3.65775],[88,-3.39345],[88.5,-3.12341],[89,-2.84751],[89.5,-2.5656],[90,-2.27757],[90.5,-1.98325],[91,-1.68252],[91.5,-1.37522],[92,-1.06121],[92.5,-0.74033],[93,-0.41243],[93.5,-0.07735],[94,0.26508],[94.5,0.615],[95,0.9726],[95.5,1.33802],[96,1.71143],[96.5,2.093],[97,2.48289],[97.5,2.88125],[98,3.28824],[98.5,3.70401],[99,4.1287],[99.5,4.56244],[100,5.00535],[100.5,5.45754],[101,5.9191],[101.5,6.3901],[102,6.87059],[102.5,7.36059],[103,7.86009],[103.5,8.36907],[104,8.88742],[104.5,9.41505],[105,9.95178],[105.5,10.49739],[106,11.05162],[106.5,11.61413],[107,12.18454],[107.5,12.76239],[108,13.34717],[108.5,13.93829],[109,14.5351],[109.5,15.13689],[110,15.7429],[110.5,16.3523],[111,16.96422],[111.5,17.57777],[112,18.192],[112.5,18.80596],[113,19.41871],[113.5,20.02927],[114,20.63672],[114.5,21.24016],[115,21.83869],[115.5,22.43151],[116,23.01784],[116.5,23.59697],[117,24.16826],[117.5,24.73112],[118,25.28504],[118.5,25.8296],[119,26.36441],[119.5,26.88916],[120,27.40361],[120.5,27.90759],[121,28.40094],[121.5,28.88359],[122,29.35549],[122.5,29.81666],[123,30.26713],[123.5,30.70695],[124,31.13624],[124.5,31.5551],[125,31.96367],[125.5,32.36211],[126,32.75057],[126.5,33.12925],[127,33.49831],[127.5,33.85796],[128,34.20839],[128.5,34.54979],[129,34.88236],[129.5,35.20631],[130,35.52184],[130.5,35.82914],[131,36.1284],[131.5,36.41982],[132,36.70359],[132.5,36.97989],[133,37.24891],[133.5,37.51082],[134,37.7658],[134.5,38.014],[135,38.25561],[135.5,38.49077],[136,38.71964],[136.5,38.94237],[137,39.1591],[137.5,39.36999],[138,39.57515],[138.5,39.77473],[139,39.96886],[139.5,40.15764],[140,40.34122],[140.5,40.5197],[141,40.69319],[141.5,40.8618],[142,41.02564],[142.5,41.18481],[143,41.3394],[143.5,41.48951],[144,41.63523],[144.5,41.77665],[145,41.91386],[145.5,42.04693],[146,42.17595],[146.5,42.30099],[147,42.42213],[147.5,42.53943],[148,42.65298],[148.5,42.76283],[149,42.86906],[149.5,42.97171],[150,43.07087],[150.5,43.16657],[151,43.25889],[151.5,43.34788],[152,43.43358],[152.5,43.51606],[153,43.59536],[153.5,43.67153],[154,43.74461],[154.5,43.81466],[155,43.88172],[155.5,43.94583],[156,44.00702],[156.5,44.06535],[157,44.12085],[157.5,44.17355],[158,44.2235],[158.5,44.27073],[159,44.31528],[159.5,44.35717],[160,44.39644],[160.5,44.43313],[161,44.46725],[161.5,44.49885],[162,44.52795],[162.5,44.55458],[163,44.57876],[163.5,44.60053],[164,44.61991],[164.5,44.63692],[165,44.65158],[165.5,44.66393],[166,44.67398],[166.5,44.68176],[167,44.68729],[167.5,44.69059],[168,44.69168],[168.5,44.69058],[169,44.68732],[169.5,44.6819],[170,44.67435],[170.5,44.66469],[171,44.65293],[171.5,44.6391],[172,44.62321],[172.5,44.60527],[173,44.5853],[173.5,44.56333],[174,44.53935],[174.5,44.5134],[175,44.48548],[175.5,44.45562],[176,44.42381],[176.5,44.39008],[177,44.35445],[177.5,44.31692],[178,44.27751],[178.5,44.23623],[179,44.19309],[179.5,44.14812],[180,44.10131]]}},{"type":"Feature","id":"+08880415:south:1","properties":{"id":"+08880415","year":888,"month":4,"day":15,"time_tdt":"04:11:50","type":"금환일식","type_code":"A","saros":101,"gamma":0.29099,"magnitude":0.94144,"greatest":{"lat":26.51314,"lng":117.66913},"path_width_km":225.5,"duration":"06m22s","delta_t_seconds":2267.8,"catalog_number":6871,"source":"NASA Five Millennium Canon of Solar Eclipses","source_url":"https://eclipse.gsfc.nasa.gov/SEsearch/SEsearchmap.php?Ecl=%2B08880415","boundary":"south","name":"888-04-15 금환일식"},"geometry":{"type":"LineString","coordinates":[[-179.5,44.05269],[-179,44.00226],[-178.5,43.95004],[-178,43.89604],[-177.5,43.84026],[-177,43.78274],[-176.5,43.72346],[-176,43.66245],[-175.5,43.59972],[-175,43.53527],[-174.5,43.46913],[-174,43.40129],[-173.5,43.33177],[-173,43.26059],[-172.5,43.18775],[-172,43.11326],[-171.5,43.03714],[-171,42.95939],[-170.5,42.88003],[-170,42.79906],[-169.5,42.7165],[-169,42.63236],[-168.5,42.54665],[-168,42.45937],[-167.5,42.37054],[-167,42.28018],[-166.5,42.18828],[-166,42.09487],[-165.5,41.99994],[-165,41.90352],[-164.5,41.80561],[-164,41.70622],[-163.5,41.60537],[-163,41.50307],[-162.5,41.39931],[-162.37109,41.37233]]}},{"type":"Feature","id":"+08881009:north:0","properties":{"id":"+08881009","year":888,"month":10,"day":9,"time_tdt":"05:11:15","type":"개기일식","type_code":"T","saros":106,"gamma":-0.27151,"magnitude":1.04844,"greatest":{"lat":-22.07706,"lng":100.42975},"path_width_km":166.7,"duration":"03m55s","delta_t_seconds":2264.3,"catalog_number":6872,"source":"NASA Five Millennium Canon of Solar Eclipses","source_url":"https://eclipse.gsfc.nasa.gov/SEsearch/SEsearchmap.php?Ecl=%2B08881009","boundary":"north","name":"888-10-09 개기일식"},"geometry":{"type":"LineString","coordinates":[[45.11719,12.55858],[45.5,12.50492],[46,12.4327],[46.5,12.35801],[47,12.28082],[47.5,12.20111],[48,12.11884],[48.5,12.03398],[49,11.94649],[49.5,11.85634],[50,11.76349],[50.5,11.66791],[51,11.56957],[51.5,11.46841],[52,11.3644],[52.5,11.25751],[53,11.14768],[53.5,11.03489],[54,10.91908],[54.5,10.80021],[55,10.67824],[55.5,10.55312],[56,10.4248],[56.5,10.29323],[57,10.15836],[57.5,10.02015],[58,9.87854],[58.5,9.73347],[59,9.58489],[59.5,9.43274],[60,9.27697],[60.5,9.11752],[61,8.95432],[61.5,8.78731],[62,8.61643],[62.5,8.44161],[63,8.26278],[63.5,8.07988],[64,7.89283],[64.5,7.70157],[65,7.50601],[65.5,7.30609],[66,7.10172],[66.5,6.89282],[67,6.67931],[67.5,6.46111],[68,6.23814],[68.5,6.0103],[69,5.77751],[69.5,5.53968],[70,5.29671],[70.5,5.04851],[71,4.79498],[71.5,4.53603],[72,4.27155],[72.5,4.00145],[73,3.72563],[73.5,3.44397],[74,3.15638],[74.5,2.86275],[75,2.56298],[75.5,2.25696],[76,1.94458],[76.5,1.62573],[77,1.30032],[77.5,0.96824],[78,0.62939],[78.5,0.28367],[79,-0.06903],[79.5,-0.42879],[80,-0.7957],[80.5,-1.16984],[81,-1.55129],[81.5,-1.94013],[82,-2.33641],[82.5,-2.74019],[83,-3.15151],[83.5,-3.57039],[84,-3.99685],[84.5,-4.43089],[85,-4.87249],[85.5,-5.32161],[86,-5.7782],[86.5,-6.24218],[87,-6.71345],[87.5,-7.19186],[88,-7.67727],[88.5,-8.16949],[89,-8.6683],[89.5,-9.17345],[90,-9.68466],[90.5,-10.20162],[91,-10.72397],[91.5,-11.25133],[92,-11.78329],[92.5,-12.31941],[93,-12.85921],[93.5,-13.40218],[94,-13.9478],[94.5,-14.49552],[95,-15.04478],[95.5,-15.59499],[96,-16.14556],[96.5,-16.69591],[97,-17.24543],[97.5,-17.79353],[98,-18.33964],[98.5,-18.88319],[99,-19.42363],[99.5,-19.96043],[100,-20.49309],[100.5,-21.02114],[101,-21.54413],[101.5,-22.06165],[102,-22.57332],[102.5,-23.07881],[103,-23.57778],[103.5,-24.06998],[104,-24.55516],[104.5,-25.03311],[105,-25.50365],[105.5,-25.96664],[106,-26.42194],[106.5,-26.86948],[107,-27.30918],[107.5,-27.741],[108,-28.16491],[108.5,-28.58091],[109,-28.98902],[109.5,-29.38926],[110,-29.78167],[110.5,-30.16631],[111,-30.54324],[111.5,-30.91255],[112,-31.27431],[112.5,-31.62862],[113,-31.97557],[113.5,-32.31527],[114,-32.64782],[114.5,-32.97333],[115,-33.29191],[115.5,-33.60369],[116,-33.90876],[116.5,-34.20725],[117,-34.49928],[117.5,-34.78496],[118,-35.0644],[118.5,-35.33773],[119,-35.60505],[119.5,-35.86648],[120,-36.12212],[120.5,-36.3721],[121,-36.61651],[121.5,-36.85546],[122,-37.08906],[122.5,-37.31741],[123,-37.54061],[123.5,-37.75876],[124,-37.97194],[124.5,-38.18027],[125,-38.38381],[125.5,-38.58268],[126,-38.77695],[126.5,-38.96671],[127,-39.15204],[127.5,-39.33302],[128,-39.50973],[128.5,-39.68224],[129,-39.85064],[129.5,-40.015],[130,-40.17538],[130.5,-40.33185],[131,-40.48449],[131.5,-40.63335],[132,-40.77849],[132.5,-40.91999],[133,-41.05791],[133.5,-41.19229],[134,-41.32319],[134.5,-41.45068],[135,-41.5748],[135.5,-41.69561],[136,-41.81316],[136.5,-41.9275],[137,-42.03867],[137.5,-42.14672],[138,-42.2517],[138.5,-42.35365],[139,-42.45262],[139.5,-42.54865],[140,-42.64177],[140.5,-42.73202],[141,-42.81946],[141.5,-42.9041],[142,-42.986],[142.5,-43.06517],[143,-43.14167],[143.5,-43.21552],[144,-43.28676],[144.5,-43.35541],[145,-43.42151],[145.5,-43.48509],[146,-43.54618],[146.5,-43.6048],[147,-43.66098],[147.5,-43.71476],[148,-43.76615],[148.5,-43.81519],[149,-43.86189],[149.5,-43.90629],[150,-43.9484],[150.5,-43.98825],[151,-44.02586],[151.5,-44.06126],[152,-44.09446],[152.5,-44.12548],[153,-44.15435],[153.5,-44.18109],[154,-44.20571],[154.5,-44.22824],[155,-44.24868],[155.5,-44.26707],[156,-44.28342],[156.5,-44.29774],[157,-44.31005],[157.5,-44.32037],[158,-44.32871],[158.5,-44.33509],[159,-44.33952],[159.5,-44.34203],[160,-44.34261],[160.5,-44.3413],[161,-44.33809],[161.5,-44.33301],[162,-44.32607],[162.5,-44.31728],[163,-44.30665],[163.5,-44.2942],[164,-44.27993],[164.5,-44.26387],[165,-44.24601],[165.5,-44.22638],[166,-44.20499],[166.5,-44.18183],[167,-44.15694],[167.5,-44.13031],[168,-44.10195],[168.5,-44.07188],[169,-44.04011],[169.5,-44.00665],[170,-43.9715],[170.5,-43.93468],[171,-43.89619],[171.5,-43.85605],[172,-43.81426],[172.5,-43.77083],[173,-43.72578],[173.5,-43.6791],[174,-43.63081],[174.5,-43.58092],[175,-43.52944],[175.5,-43.47637],[176,-43.42172],[176.5,-43.3655],[177,-43.30772],[177.5,-43.24839],[178,-43.18751],[178.5,-43.1251],[179,-43.06115],[179.5,-42.99569],[180,-42.92871]]}},{"type":"Feature","id":"+08881009:north:1","properties":{"id":"+08881009","year":888,"month":10,"day":9,"time_tdt":"05:11:15","type":"개기일식","type_code":"T","saros":106,"gamma":-0.27151,"magnitude":1.04844,"greatest":{"lat":-22.07706,"lng":100.42975},"path_width_km":166.7,"duration":"03m55s","delta_t_seconds":2264.3,"catalog_number":6872,"source":"NASA Five Millennium Canon of Solar Eclipses","source_url":"https://eclipse.gsfc.nasa.gov/SEsearch/SEsearchmap.php?Ecl=%2B08881009","boundary":"north","name":"888-10-09 개기일식"},"geometry":{"type":"LineString","coordinates":[[-179.5,-42.86022],[-179.04883,-42.79713]]}},{"type":"Feature","id":"+08881009:center:0","properties":{"id":"+08881009","year":888,"month":10,"day":9,"time_tdt":"05:11:15","type":"개기일식","type_code":"T","saros":106,"gamma":-0.27151,"magnitude":1.04844,"greatest":{"lat":-22.07706,"lng":100.42975},"path_width_km":166.7,"duration":"03m55s","delta_t_seconds":2264.3,"catalog_number":6872,"source":"NASA Five Millennium Canon of Solar Eclipses","source_url":"https://eclipse.gsfc.nasa.gov/SEsearch/SEsearchmap.php?Ecl=%2B08881009","boundary":"center","name":"888-10-09 개기일식"},"geometry":{"type":"LineString","coordinates":[[44.9771,12.08371],[45,12.0792],[45.5,12.00623],[46,11.93078],[46.5,11.85283],[47,11.77235],[47.5,11.68929],[48,11.60363],[48.5,11.51533],[49,11.42437],[49.5,11.33069],[50,11.23427],[50.5,11.13506],[51,11.03304],[51.5,10.92815],[52,10.82036],[52.5,10.70963],[53,10.59591],[53.5,10.47917],[54,10.35935],[54.5,10.23641],[55,10.11031],[55.5,9.98099],[56,9.84841],[56.5,9.71251],[57,9.57325],[57.5,9.43057],[58,9.28442],[58.5,9.13474],[59,8.98147],[59.5,8.82456],[60,8.66394],[60.5,8.49956],[61,8.33135],[61.5,8.15924],[62,7.98317],[62.5,7.80307],[63,7.61887],[63.5,7.4305],[64,7.23789],[64.5,7.04096],[65,6.83963],[65.5,6.63383],[66,6.42347],[66.5,6.20848],[67,5.98876],[67.5,5.76424],[68,5.53482],[68.5,5.30041],[69,5.06093],[69.5,4.81627],[70,4.56635],[70.5,4.31107],[71,4.05032],[71.5,3.78402],[72,3.51204],[72.5,3.23431],[73,2.9507],[73.5,2.66111],[74,2.36545],[74.5,2.06359],[75,1.75544],[75.5,1.44089],[76,1.11983],[76.5,0.79216],[77,0.45777],[77.5,0.11657],[78,-0.23156],[78.5,-0.5867],[79,-0.94895],[79.5,-1.3184],[80,-1.69513],[80.5,-2.07921],[81,-2.47072],[81.5,-2.86971],[82,-3.27623],[82.5,-3.69033],[83,-4.11203],[83.5,-4.54133],[84,-4.97824],[84.5,-5.42273],[85,-5.87476],[85.5,-6.33426],[86,-6.80116],[86.5,-7.27533],[87,-7.75664],[87.5,-8.24493],[88,-8.74],[88.5,-9.24162],[89,-9.74953],[89.5,-10.26344],[90,-10.78302],[90.5,-11.30793],[91,-11.83775],[91.5,-12.37207],[92,-12.91043],[92.5,-13.45235],[93,-13.99731],[93.5,-14.54479],[94,-15.09421],[94.5,-15.64501],[95,-16.19661],[95.5,-16.74841],[96,-17.29981],[96.5,-17.85021],[97,-18.39903],[97.5,-18.9457],[98,-19.48964],[98.5,-20.0303],[99,-20.56718],[99.5,-21.09977],[100,-21.62761],[100.5,-22.15026],[101,-22.66732],[101.5,-23.17842],[102,-23.68323],[102.5,-24.18143],[103,-24.67278],[103.5,-25.15702],[104,-25.63398],[104.5,-26.10346],[105,-26.56535],[105.5,-27.01951],[106,-27.46588],[106.5,-27.90438],[107,-28.33499],[107.5,-28.75767],[108,-29.17244],[108.5,-29.57931],[109,-29.97831],[109.5,-30.3695],[110,-30.75293],[110.5,-31.12866],[111,-31.49679],[111.5,-31.85739],[112,-32.21056],[112.5,-32.55639],[113,-32.895],[113.5,-33.22648],[114,-33.55095],[114.5,-33.86853],[115,-34.17932],[115.5,-34.48344],[116,-34.78101],[116.5,-35.07215],[117,-35.35696],[117.5,-35.63557],[118,-35.9081],[118.5,-36.17464],[119,-36.43533],[119.5,-36.69026],[120,-36.93955],[120.5,-37.18331],[121,-37.42163],[121.5,-37.65463],[122,-37.88241],[122.5,-38.10506],[123,-38.32268],[123.5,-38.53537],[124,-38.74322],[124.5,-38.94633],[125,-39.14477],[125.5,-39.33864],[126,-39.52803],[126.5,-39.713],[127,-39.89365],[127.5,-40.07006],[128,-40.24229],[128.5,-40.41042],[129,-40.57453],[129.5,-40.73468],[130,-40.89094],[130.5,-41.04339],[131,-41.19208],[131.5,-41.33707],[132,-41.47844],[132.5,-41.61623],[133,-41.75051],[133.5,-41.88133],[134,-42.00875],[134.5,-42.13282],[135,-42.25359],[135.5,-42.37111],[136,-42.48544],[136.5,-42.59661],[137,-42.70468],[137.5,-42.80969],[138,-42.91169],[138.5,-43.01071],[139,-43.1068],[139.5,-43.2],[140,-43.29035],[140.5,-43.37788],[141,-43.46264],[141.5,-43.54466],[142,-43.62397],[142.5,-43.70062],[143,-43.77462],[143.5,-43.84602],[144,-43.91485],[144.5,-43.98113],[145,-44.0449],[145.5,-44.10619],[146,-44.16502],[146.5,-44.22142],[147,-44.27542],[147.5,-44.32704],[148,-44.37632],[148.5,-44.42327],[149,-44.46792],[149.5,-44.51029],[150,-44.5504],[150.5,-44.58829],[151,-44.62396],[151.5,-44.65744],[152,-44.68875],[152.5,-44.71792],[153,-44.74495],[153.5,-44.76988],[154,-44.79271],[154.5,-44.81347],[155,-44.83217],[155.5,-44.84883],[156,-44.86347],[156.5,-44.87611],[157,-44.88675],[157.5,-44.89543],[158,-44.90214],[158.5,-44.90691],[159,-44.90975],[159.5,-44.91067],[160,-44.9097],[160.5,-44.90684],[161,-44.9021],[161.5,-44.8955],[162,-44.88705],[162.5,-44.87677],[163,-44.86466],[163.5,-44.85074],[164,-44.83501],[164.5,-44.8175],[165,-44.79821],[165.5,-44.77716],[166,-44.75434],[166.5,-44.72978],[167,-44.70349],[167.5,-44.67547],[168,-44.64573],[168.5,-44.61429],[169,-44.58115],[169.5,-44.54633],[170,-44.50982],[170.5,-44.47165],[171,-44.43182],[171.5,-44.39034],[172,-44.34722],[172.5,-44.30246],[173,-44.25608],[173.5,-44.20808],[174,-44.15847],[174.5,-44.10727],[175,-44.05447],[175.5,-44.00009],[176,-43.94413],[176.5,-43.88661],[177,-43.82752],[177.5,-43.76688],[178,-43.7047],[178.5,-43.64098],[179,-43.57573],[179.5,-43.50896],[180,-43.44067]]}},{"type":"Feature","id":"+08881009:center:1","properties":{"id":"+08881009","year":888,"month":10,"day":9,"time_tdt":"05:11:15","type":"개기일식","type_code":"T","saros":106,"gamma":-0.27151,"magnitude":1.04844,"greatest":{"lat":-22.07706,"lng":100.42975},"path_width_km":166.7,"duration":"03m55s","delta_t_seconds":2264.3,"catalog_number":6872,"source":"NASA Five Millennium Canon of Solar Eclipses","source_url":"https://eclipse.gsfc.nasa.gov/SEsearch/SEsearchmap.php?Ecl=%2B08881009","boundary":"center","name":"888-10-09 개기일식"},"geometry":{"type":"LineString","coordinates":[[-179.5,-43.37088],[-179,-43.29958],[-178.86861,-43.32953]]}},{"type":"Feature","id":"+08881009:south:0","properties":{"id":"+08881009","year":888,"month":10,"day":9,"time_tdt":"05:11:15","type":"개기일식","type_code":"T","saros":106,"gamma":-0.27151,"magnitude":1.04844,"greatest":{"lat":-22.07706,"lng":100.42975},"path_width_km":166.7,"duration":"03m55s","delta_t_seconds":2264.3,"catalog_number":6872,"source":"NASA Five Millennium Canon of Solar Eclipses","source_url":"https://eclipse.gsfc.nasa.gov/SEsearch/SEsearchmap.php?Ecl=%2B08881009","boundary":"south","name":"888-10-09 개기일식"},"geometry":{"type":"LineString","coordinates":[[44.83398,11.6054],[45,11.58064],[45.5,11.50443],[46,11.4257],[46.5,11.34443],[47,11.26057],[47.5,11.1741],[48,11.08498],[48.5,10.99317],[49,10.89865],[49.5,10.80137],[50,10.70129],[50.5,10.59838],[51,10.49259],[51.5,10.38389],[52,10.27223],[52.5,10.15758],[53,10.03988],[53.5,9.91909],[54,9.79516],[54.5,9.66805],[55,9.53772],[55.5,9.4041],[56,9.26715],[56.5,9.12682],[57,8.98305],[57.5,8.83578],[58,8.68497],[58.5,8.53056],[59,8.37247],[59.5,8.21067],[60,8.04507],[60.5,7.87562],[61,7.70225],[61.5,7.5249],[62,7.3435],[62.5,7.15797],[63,6.96824],[63.5,6.77424],[64,6.5759],[64.5,6.37313],[65,6.16586],[65.5,5.95401],[66,5.73749],[66.5,5.51621],[67,5.29009],[67.5,5.05905],[68,4.82298],[68.5,4.5818],[69,4.33542],[69.5,4.08373],[70,3.82664],[70.5,3.56405],[71,3.29586],[71.5,3.02196],[72,2.74226],[72.5,2.45664],[73,2.165],[73.5,1.86724],[74,1.56324],[74.5,1.2529],[75,0.93612],[75.5,0.61278],[76,0.28278],[76.5,-0.05399],[77,-0.39762],[77.5,-0.74822],[78,-1.10588],[78.5,-1.4707],[79,-1.84276],[79.5,-2.22215],[80,-2.60893],[80.5,-3.00319],[81,-3.40497],[81.5,-3.81432],[82,-4.23128],[82.5,-4.65587],[83,-5.0881],[83.5,-5.52796],[84,-5.97542],[84.5,-6.43043],[85,-6.89293],[85.5,-7.36282],[86,-7.83998],[86.5,-8.32427],[87,-8.81551],[87.5,-9.31349],[88,-9.81799],[88.5,-10.32872],[89,-10.8454],[89.5,-11.36767],[90,-11.89518],[90.5,-12.42751],[91,-12.96423],[91.5,-13.50488],[92,-14.04895],[92.5,-14.59594],[93,-15.14528],[93.5,-15.69643],[94,-16.24879],[94.5,-16.80179],[95,-17.35481],[95.5,-17.90727],[96,-18.45856],[96.5,-19.00809],[97,-19.5553],[97.5,-20.09962],[98,-20.6405],[98.5,-21.17744],[99,-21.70995],[99.5,-22.23756],[100,-22.75985],[100.5,-23.27642],[101,-23.78692],[101.5,-24.29103],[102,-24.78844],[102.5,-25.2789],[103,-25.7622],[103.5,-26.23813],[104,-26.70655],[104.5,-27.16731],[105,-27.62031],[105.5,-28.06548],[106,-28.50277],[106.5,-28.93214],[107,-29.35358],[107.5,-29.76709],[108,-30.17271],[108.5,-30.57046],[109,-30.9604],[109.5,-31.3426],[110,-31.71711],[110.5,-32.08404],[111,-32.44346],[111.5,-32.79547],[112,-33.14017],[112.5,-33.47766],[113,-33.80806],[113.5,-34.13148],[114,-34.44802],[114.5,-34.75782],[115,-35.06097],[115.5,-35.3576],[116,-35.64782],[116.5,-35.93176],[117,-36.20952],[117.5,-36.48122],[118,-36.74698],[118.5,-37.00691],[119,-37.26111],[119.5,-37.5097],[120,-37.75278],[120.5,-37.99046],[121,-38.22284],[121.5,-38.45003],[122,-38.67212],[122.5,-38.88921],[123,-39.10139],[123.5,-39.30875],[124,-39.5114],[124.5,-39.70941],[125,-39.90287],[125.5,-40.09186],[126,-40.27648],[126.5,-40.45679],[127,-40.63287],[127.5,-40.8048],[128,-40.97266],[128.5,-41.13651],[129,-41.29642],[129.5,-41.45247],[130,-41.60472],[130.5,-41.75323],[131,-41.89806],[131.5,-42.03928],[132,-42.17695],[132.5,-42.31112],[133,-42.44185],[133.5,-42.56919],[134,-42.6932],[134.5,-42.81392],[135,-42.93142],[135.5,-43.04572],[136,-43.1569],[136.5,-43.26498],[137,-43.37002],[137.5,-43.47206],[138,-43.57113],[138.5,-43.66729],[139,-43.76057],[139.5,-43.85101],[140,-43.93865],[140.5,-44.02352],[141,-44.10566],[141.5,-44.18511],[142,-44.2619],[142.5,-44.33607],[143,-44.40763],[143.5,-44.47664],[144,-44.54311],[144.5,-44.60707],[145,-44.66856],[145.5,-44.72761],[146,-44.78423],[146.5,-44.83846],[147,-44.89033],[147.5,-44.93985],[148,-44.98705],[148.5,-45.03196],[149,-45.0746],[149.5,-45.11499],[150,-45.15316],[150.5,-45.18912],[151,-45.22289],[151.5,-45.25451],[152,-45.28397],[152.5,-45.31132],[153,-45.33656],[153.5,-45.35971],[154,-45.3808],[154.5,-45.39983],[155,-45.41682],[155.5,-45.4318],[156,-45.44478],[156.5,-45.45577],[157,-45.46479],[157.5,-45.47186],[158,-45.47698],[158.5,-45.48017],[159,-45.48146],[159.5,-45.48084],[160,-45.47834],[160.5,-45.47397],[161,-45.46773],[161.5,-45.45965],[162,-45.44973],[162.5,-45.43799],[163,-45.42444],[163.5,-45.40908],[164,-45.39194],[164.5,-45.37302],[165,-45.35232],[165.5,-45.32988],[166,-45.30568],[166.5,-45.27975],[167,-45.25209],[167.5,-45.22271],[168,-45.19163],[168.5,-45.15884],[169,-45.12437],[169.5,-45.08821],[170,-45.05039],[170.5,-45.0109],[171,-44.96975],[171.5,-44.92696],[172,-44.88254],[172.5,-44.83648],[173,-44.7888],[173.5,-44.73951],[174,-44.68862],[174.5,-44.63612],[175,-44.58204],[175.5,-44.52638],[176,-44.46914],[176.5,-44.41033],[177,-44.34997],[177.5,-44.28805],[178,-44.22459],[178.5,-44.15959],[179,-44.09306],[179.5,-44.02501],[180,-43.95544]]}},{"type":"Feature","id":"+08881009:south:1","properties":{"id":"+08881009","year":888,"month":10,"day":9,"time_tdt":"05:11:15","type":"개기일식","type_code":"T","saros":106,"gamma":-0.27151,"magnitude":1.04844,"greatest":{"lat":-22.07706,"lng":100.42975},"path_width_km":166.7,"duration":"03m55s","delta_t_seconds":2264.3,"catalog_number":6872,"source":"NASA Five Millennium Canon of Solar Eclipses","source_url":"https://eclipse.gsfc.nasa.gov/SEsearch/SEsearchmap.php?Ecl=%2B08881009","boundary":"south","name":"888-10-09 개기일식"},"geometry":{"type":"LineString","coordinates":[[-179.5,-43.88437],[-179,-43.81179],[-178.64062,-43.75871]]}}],"attribution":"Eclipse Predictions by Fred Espenak and Jean Meeus (NASA's GSFC)","generated_at":"2026-09-23T01:44:58.233Z"}
