{"type":"FeatureCollection","year":890,"events":[{"id":"+08900223","year":890,"month":2,"day":23,"time_tdt":"01:48:59","type":"개기일식","type_code":"T-","saros":83,"gamma":-1.00052,"magnitude":1.00051,"greatest":{"lat":-61.19718,"lng":-89.09827},"path_width_km":0,"duration":"00m00s","delta_t_seconds":2254.6,"catalog_number":6875,"source":"NASA Five Millennium Canon of Solar Eclipses","source_url":"https://eclipse.gsfc.nasa.gov/SEsearch/SEsearchmap.php?Ecl=%2B08900223"},{"id":"+08900819","year":890,"month":8,"day":19,"time_tdt":"10:47:01","type":"부분일식","type_code":"P","saros":88,"gamma":1.07885,"magnitude":0.82681,"greatest":{"lat":61.37113,"lng":139.75934},"path_width_km":0,"duration":"00m00s","delta_t_seconds":2251.2,"catalog_number":6876,"source":"NASA Five Millennium Canon of Solar Eclipses","source_url":"https://eclipse.gsfc.nasa.gov/SEsearch/SEsearchmap.php?Ecl=%2B08900819"}],"features":[{"type":"Feature","id":"+08900223:north:0","properties":{"id":"+08900223","year":890,"month":2,"day":23,"time_tdt":"01:48:59","type":"개기일식","type_code":"T-","saros":83,"gamma":-1.00052,"magnitude":1.00051,"greatest":{"lat":-61.19718,"lng":-89.09827},"path_width_km":0,"duration":"00m00s","delta_t_seconds":2254.6,"catalog_number":6875,"source":"NASA Five Millennium Canon of Solar Eclipses","source_url":"https://eclipse.gsfc.nasa.gov/SEsearch/SEsearchmap.php?Ecl=%2B08900223","boundary":"north","name":"890-02-23 개기일식"},"geometry":{"type":"LineString","coordinates":[[-88,-62.56912],[-88.5,-62.63093],[-89,-62.65063],[-89.5,-62.63404],[-90,-62.58299],[-90.5,-62.49635],[-91,-62.36951],[-91.5,-62.19197],[-92,-61.93823],[-92.5,-61.50904],[-92.5,-60.59374],[-92,-60.24138],[-91.5,-60.06644],[-91,-59.96968]]}}],"attribution":"Eclipse Predictions by Fred Espenak and Jean Meeus (NASA's GSFC)","generated_at":"2026-09-23T01:44:58.385Z"}
