{"type":"FeatureCollection","year":897,"events":[{"id":"+08970405","year":897,"month":4,"day":5,"time_tdt":"23:34:59","type":"부분일식","type_code":"P","saros":82,"gamma":1.20193,"magnitude":0.61567,"greatest":{"lat":71.58957,"lng":80.60736},"path_width_km":0,"duration":"00m00s","delta_t_seconds":2204.9,"catalog_number":6891,"source":"NASA Five Millennium Canon of Solar Eclipses","source_url":"https://eclipse.gsfc.nasa.gov/SEsearch/SEsearchmap.php?Ecl=%2B08970405"},{"id":"+08970930","year":897,"month":9,"day":30,"time_tdt":"04:27:23","type":"부분일식","type_code":"P","saros":87,"gamma":-1.07419,"magnitude":0.86721,"greatest":{"lat":-71.85577,"lng":15.49475},"path_width_km":0,"duration":"00m00s","delta_t_seconds":2201.5,"catalog_number":6892,"source":"NASA Five Millennium Canon of Solar Eclipses","source_url":"https://eclipse.gsfc.nasa.gov/SEsearch/SEsearchmap.php?Ecl=%2B08970930"}],"features":[],"attribution":"Eclipse Predictions by Fred Espenak and Jean Meeus (NASA's GSFC)","generated_at":"2026-09-23T01:44:58.147Z"}
