{"type":"FeatureCollection","year":912,"events":[{"id":"+09120617","year":912,"month":6,"day":17,"time_tdt":"18:50:25","type":"개기일식","type_code":"T","saros":90,"gamma":0.73224,"magnitude":1.07085,"greatest":{"lat":70.35394,"lng":-81.198},"path_width_km":340.3,"duration":"04m21s","delta_t_seconds":2100.7,"catalog_number":6925,"source":"NASA Five Millennium Canon of Solar Eclipses","source_url":"https://eclipse.gsfc.nasa.gov/SEsearch/SEsearchmap.php?Ecl=%2B09120617"},{"id":"+09121211","year":912,"month":12,"day":11,"time_tdt":"13:06:23","type":"금환일식","type_code":"A","saros":95,"gamma":-0.45041,"magnitude":0.93405,"greatest":{"lat":-50.42978,"lng":-5.73151},"path_width_km":276.1,"duration":"06m38s","delta_t_seconds":2097.5,"catalog_number":6926,"source":"NASA Five Millennium Canon of Solar Eclipses","source_url":"https://eclipse.gsfc.nasa.gov/SEsearch/SEsearchmap.php?Ecl=%2B09121211"}],"features":[{"type":"Feature","id":"+09120617:north:0","properties":{"id":"+09120617","year":912,"month":6,"day":17,"time_tdt":"18:50:25","type":"개기일식","type_code":"T","saros":90,"gamma":0.73224,"magnitude":1.07085,"greatest":{"lat":70.35394,"lng":-81.198},"path_width_km":340.3,"duration":"04m21s","delta_t_seconds":2100.7,"catalog_number":6925,"source":"NASA Five Millennium Canon of Solar Eclipses","source_url":"https://eclipse.gsfc.nasa.gov/SEsearch/SEsearchmap.php?Ecl=%2B09120617","boundary":"north","name":"912-06-17 개기일식"},"geometry":{"type":"LineString","coordinates":[[163.79492,48.21604],[164,48.32068],[164.5,48.57631],[165,48.83262],[165.5,49.08957],[166,49.34712],[166.5,49.60521],[167,49.8638],[167.5,50.12284],[168,50.38227],[168.5,50.64205],[169,50.90212],[169.5,51.16242],[170,51.4229],[170.5,51.6835],[171,51.94416],[171.5,52.20483],[172,52.46543],[172.5,52.72592],[173,52.98622],[173.5,53.24628],[174,53.50602],[174.5,53.7654],[175,54.02434],[175.5,54.28277],[176,54.54064],[176.5,54.79788],[177,55.05441],[177.5,55.31018],[178,55.56513],[178.5,55.81918],[179,56.07227],[179.5,56.32433],[180,56.57532]]}},{"type":"Feature","id":"+09120617:north:1","properties":{"id":"+09120617","year":912,"month":6,"day":17,"time_tdt":"18:50:25","type":"개기일식","type_code":"T","saros":90,"gamma":0.73224,"magnitude":1.07085,"greatest":{"lat":70.35394,"lng":-81.198},"path_width_km":340.3,"duration":"04m21s","delta_t_seconds":2100.7,"catalog_number":6925,"source":"NASA Five Millennium Canon of Solar Eclipses","source_url":"https://eclipse.gsfc.nasa.gov/SEsearch/SEsearchmap.php?Ecl=%2B09120617","boundary":"north","name":"912-06-17 개기일식"},"geometry":{"type":"LineString","coordinates":[[-179.5,56.82515],[-179,57.07377],[-178.5,57.32112],[-178,57.56714],[-177.5,57.81176],[-177,58.05494],[-176.5,58.29661],[-176,58.53673],[-175.5,58.77523],[-175,59.01206],[-174.5,59.24718],[-174,59.48053],[-173.5,59.71208],[-173,59.94177],[-172.5,60.16955],[-172,60.3954],[-171.5,60.61927],[-171,60.84112],[-170.5,61.06092],[-170,61.27864],[-169.5,61.49424],[-169,61.70769],[-168.5,61.91897],[-168,62.12806],[-167.5,62.33492],[-167,62.53954],[-166.5,62.7419],[-166.5,62.74191],[-166,62.94199],[-165.5,63.13978],[-165,63.33527],[-164.5,63.52844],[-164,63.71928],[-163.5,63.90779],[-163,64.09395],[-162.5,64.27777],[-162,64.45925],[-161.5,64.63837],[-161,64.81514],[-160.5,64.98957],[-160,65.16165],[-159.5,65.33139],[-159,65.4988],[-158.5,65.66387],[-158,65.82663],[-157.5,65.98707],[-157,66.14522],[-156.5,66.30107],[-156,66.45464],[-155.5,66.60595],[-155,66.755],[-154.5,66.90182],[-154.5,66.90181],[-154,67.04641],[-154,67.0464],[-153.5,67.18879],[-153,67.32897],[-152.5,67.46699],[-152,67.60284],[-151.5,67.73655],[-151,67.86814],[-150.5,67.99762],[-150,68.12501],[-149.5,68.25034],[-149,68.37361],[-148.5,68.49486],[-148,68.61409],[-147.5,68.73133],[-147,68.84661],[-146.5,68.95992],[-146,69.07131],[-145.5,69.18079],[-145.5,69.18078],[-145,69.28837],[-144.5,69.39407],[-144,69.49793],[-143.5,69.59995],[-143,69.70015],[-142.5,69.79857],[-142,69.8952],[-141.5,69.99008],[-141,70.08322],[-140.5,70.17465],[-140,70.26437],[-139.5,70.35241],[-139,70.43879],[-138.5,70.52353],[-138,70.60664],[-137.5,70.68813],[-137,70.76804],[-136.5,70.84637],[-136,70.92315],[-135.5,70.99838],[-135,71.07209],[-134.5,71.14429],[-134,71.21499],[-133.5,71.28423],[-133,71.35199],[-132.5,71.41832],[-132,71.48321],[-131.5,71.54668],[-131,71.60875],[-130.5,71.66943],[-130,71.72874],[-129.5,71.78668],[-129,71.84328],[-128.5,71.89854],[-128,71.95248],[-128,71.95247],[-127.5,72.0051],[-127,72.05643],[-126.5,72.10647],[-126.5,72.10646],[-126,72.15523],[-125.5,72.20273],[-125.5,72.20272],[-125,72.24897],[-124.5,72.29397],[-124,72.33773],[-123.5,72.38028],[-123,72.42161],[-122.5,72.46173],[-122,72.50066],[-121.5,72.5384],[-121,72.57497],[-120.5,72.61037],[-120,72.6446],[-119.5,72.67768],[-119,72.70962],[-118.5,72.74041],[-118,72.77008],[-117.5,72.79862],[-117,72.82604],[-116.5,72.85234],[-116,72.87754],[-115.5,72.90164],[-115,72.92465],[-114.5,72.94656],[-114,72.96739],[-113.5,72.98713],[-113,73.0058],[-112.5,73.0234],[-112,73.03992],[-111.5,73.05538],[-111,73.06978],[-110.5,73.08312],[-110,73.09541],[-110,73.0954],[-109.5,73.10663],[-109,73.11681],[-108.5,73.12594],[-108,73.13402],[-107.5,73.14105],[-107,73.14704],[-106.5,73.15198],[-106,73.15589],[-106,73.15588],[-105.5,73.15874],[-105,73.16056],[-104.5,73.16133],[-104,73.16106],[-103.5,73.15975],[-103,73.15739],[-102.5,73.15399],[-102.5,73.15398],[-102,73.14954],[-102,73.14953],[-101.5,73.14404],[-101,73.13749],[-100.5,73.12989],[-100,73.12123],[-99.5,73.11152],[-99,73.10075],[-98.5,73.08892],[-98,73.07601],[-97.5,73.06204],[-97,73.047],[-96.5,73.03087],[-96,73.01367],[-95.5,72.99537],[-95,72.97599],[-94.5,72.9555],[-94,72.93391],[-93.5,72.91121],[-93,72.8874],[-92.5,72.86246],[-92,72.83639],[-91.5,72.80919],[-91,72.78084],[-90.5,72.75134],[-90,72.72068],[-89.5,72.68885],[-89,72.65585],[-88.5,72.62166],[-88,72.58627],[-87.5,72.54968],[-87,72.51187],[-86.5,72.47284],[-86,72.43258],[-85.5,72.39106],[-85,72.34829],[-84.5,72.30425],[-84,72.25892],[-83.5,72.2123],[-83,72.16437],[-83,72.16438],[-82.5,72.11513],[-82,72.06454],[-81.5,72.01261],[-81,71.95932],[-80.5,71.90465],[-80,71.84858],[-79.5,71.79111],[-79,71.73221],[-78.5,71.67188],[-78,71.61008],[-77.5,71.54681],[-77,71.48205],[-76.5,71.41578],[-76,71.34797],[-75.5,71.27862],[-75,71.20771],[-74.5,71.1352],[-74,71.06109],[-73.5,70.98535],[-73,70.90796],[-72.5,70.8289],[-72,70.74814],[-71.5,70.66567],[-71,70.58146],[-70.5,70.49549],[-70,70.40773],[-69.5,70.31816],[-69,70.22675],[-69,70.22676],[-68.5,70.13349],[-68,70.03833],[-67.5,69.94126],[-67,69.84225],[-66.5,69.74127],[-66,69.63829],[-66,69.6383],[-65.5,69.5333],[-65,69.42624],[-65,69.42625],[-64.5,69.31711],[-64,69.20587],[-63.5,69.09248],[-63,68.97692],[-62.5,68.85916],[-62,68.73917],[-61.5,68.61691],[-61,68.49236],[-60.5,68.36548],[-60,68.23623],[-59.5,68.1046],[-59,67.97054],[-58.5,67.83402],[-58,67.69501],[-57.5,67.55347],[-57,67.40938],[-56.5,67.26269],[-56,67.11338],[-56,67.11339],[-55.5,66.96142],[-55,66.80677],[-54.5,66.64939],[-54,66.48926],[-53.5,66.32634],[-53,66.1606],[-52.5,65.99202],[-52,65.82055],[-51.5,65.64618],[-51,65.46887],[-50.5,65.28859],[-50,65.10532],[-49.5,64.91904],[-49,64.72971],[-48.5,64.53731],[-48,64.34183],[-47.5,64.14324],[-47,63.94152],[-46.5,63.73667],[-46,63.52865],[-45.5,63.31747],[-45,63.10311],[-44.5,62.88556],[-44,62.66483],[-43.5,62.4409],[-43,62.21379],[-42.5,61.98348],[-42,61.75],[-41.5,61.51335],[-41,61.27355],[-40.5,61.03061],[-40.5,61.03062],[-40,60.78457],[-39.5,60.53543],[-39,60.28324],[-38.5,60.02803],[-38,59.76983],[-37.5,59.50869],[-37,59.24466],[-36.5,58.97778],[-36,58.70812],[-35.5,58.43573],[-35,58.16069],[-34.5,57.88305],[-34,57.60289],[-33.5,57.32029],[-33,57.03534],[-32.5,56.74811],[-32,56.45871],[-31.5,56.16721],[-31,55.87373],[-30.5,55.57835],[-30,55.28119],[-29.5,54.98235],[-29,54.68195],[-28.5,54.38008],[-28,54.07688],[-27.5,53.77245],[-27,53.4669],[-26.5,53.16037],[-26,52.85296],[-25.5,52.54481],[-25,52.23602],[-24.5,51.92672],[-24,51.61703],[-23.5,51.30706],[-23,50.99694],[-22.5,50.68679],[-22,50.37671],[-21.5,50.06683],[-21,49.75725],[-20.5,49.44808],[-20,49.13943],[-19.5,48.83141],[-19,48.52411],[-18.5,48.21764],[-18,47.91209],[-17.5,47.60756],[-17,47.30413],[-16.5,47.00189],[-16,46.70092],[-15.5,46.40131],[-15,46.10312],[-14.5,45.80643],[-14,45.51132],[-13.5,45.21784],[-13,44.92606],[-12.5,44.63603],[-12,44.34782],[-11.5,44.06147],[-11,43.77704],[-10.5,43.49456],[-10,43.21409],[-9.5,42.93566],[-9,42.65932],[-8.5,42.38508],[-8,42.113],[-7.5,41.84308],[-7,41.57537],[-6.5,41.30989],[-6,41.04665],[-5.5,40.78568],[-5,40.527],[-4.5,40.27061],[-4,40.01654],[-3.5,39.7648],[-3,39.51539],[-2.5,39.26832],[-2,39.02361],[-1.5,38.78125],[-1.5,38.78124],[-1,38.54124],[-0.78516,38.43884]]}},{"type":"Feature","id":"+09120617:center:0","properties":{"id":"+09120617","year":912,"month":6,"day":17,"time_tdt":"18:50:25","type":"개기일식","type_code":"T","saros":90,"gamma":0.73224,"magnitude":1.07085,"greatest":{"lat":70.35394,"lng":-81.198},"path_width_km":340.3,"duration":"04m21s","delta_t_seconds":2100.7,"catalog_number":6925,"source":"NASA Five Millennium Canon of Solar Eclipses","source_url":"https://eclipse.gsfc.nasa.gov/SEsearch/SEsearchmap.php?Ecl=%2B09120617","boundary":"center","name":"912-06-17 개기일식"},"geometry":{"type":"LineString","coordinates":[[165.42,47.21006],[165.5,47.25157],[166,47.50022],[166.5,47.74948],[167,47.99933],[167.5,48.24972],[168,48.5006],[168.5,48.75193],[169,49.00367],[169.5,49.25576],[170,49.50816],[170.5,49.76082],[171,50.01369],[171.5,50.26672],[172,50.51985],[172.5,50.77303],[173,51.0262],[173.5,51.27932],[174,51.53233],[174.5,51.78516],[175,52.03776],[175.5,52.29008],[176,52.54206],[176.5,52.79363],[177,53.04474],[177.5,53.29533],[178,53.54534],[178.5,53.79471],[179,54.04338],[179.5,54.29129],[180,54.53838]]}},{"type":"Feature","id":"+09120617:center:1","properties":{"id":"+09120617","year":912,"month":6,"day":17,"time_tdt":"18:50:25","type":"개기일식","type_code":"T","saros":90,"gamma":0.73224,"magnitude":1.07085,"greatest":{"lat":70.35394,"lng":-81.198},"path_width_km":340.3,"duration":"04m21s","delta_t_seconds":2100.7,"catalog_number":6925,"source":"NASA Five Millennium Canon of Solar Eclipses","source_url":"https://eclipse.gsfc.nasa.gov/SEsearch/SEsearchmap.php?Ecl=%2B09120617","boundary":"center","name":"912-06-17 개기일식"},"geometry":{"type":"LineString","coordinates":[[-179.5,54.7846],[-179,55.02988],[-178.5,55.27416],[-178,55.5174],[-177.5,55.75952],[-177,56.00049],[-176.5,56.24023],[-176,56.4787],[-175.5,56.71584],[-175,56.9516],[-174.5,57.18593],[-174,57.41878],[-173.5,57.65011],[-173,57.87985],[-172.5,58.10797],[-172,58.33442],[-171.5,58.55917],[-171,58.78216],[-170.5,59.00336],[-170,59.22273],[-169.5,59.44024],[-169,59.65584],[-168.5,59.86952],[-168,60.08123],[-167.5,60.29095],[-167,60.49864],[-166.5,60.70429],[-166,60.90787],[-165.5,61.10936],[-165,61.30873],[-164.5,61.50597],[-164,61.70106],[-163.5,61.89399],[-163,62.08474],[-162.5,62.2733],[-162,62.45965],[-161.5,62.6438],[-161,62.82573],[-160.5,63.00544],[-160,63.18292],[-159.5,63.35818],[-159,63.53119],[-158.5,63.70198],[-158,63.87053],[-157.5,64.03686],[-157,64.20095],[-156.5,64.36283],[-156,64.52249],[-155.5,64.67993],[-155,64.83517],[-154.5,64.98822],[-154,65.13908],[-153.5,65.28776],[-153,65.43428],[-152.5,65.57864],[-152.5,65.57863],[-152,65.72085],[-151.5,65.86094],[-151,65.9989],[-150.5,66.13477],[-150,66.26854],[-149.5,66.40023],[-149,66.52987],[-148.5,66.65746],[-148,66.78301],[-147.5,66.90656],[-147,67.0281],[-146.5,67.14767],[-146,67.26526],[-145.5,67.38091],[-145,67.49463],[-144.5,67.60643],[-144,67.71634],[-143.5,67.82436],[-143,67.93052],[-142.5,68.03484],[-142,68.13732],[-141.5,68.238],[-141,68.33687],[-141,68.33688],[-140.5,68.43398],[-140,68.52932],[-139.5,68.62291],[-139,68.71478],[-139,68.71479],[-138.5,68.80495],[-138,68.89341],[-137.5,68.9802],[-137,69.06533],[-136.5,69.14881],[-136,69.23067],[-135.5,69.31091],[-135,69.38956],[-134.5,69.46662],[-134,69.54211],[-133.5,69.61606],[-133,69.68846],[-132.5,69.75935],[-132,69.82872],[-131.5,69.8966],[-131,69.963],[-130.5,70.02793],[-130,70.09141],[-129.5,70.15345],[-129,70.21406],[-128.5,70.27325],[-128,70.33104],[-127.5,70.38744],[-127,70.44246],[-126.5,70.49611],[-126,70.54841],[-125.5,70.59936],[-125,70.64897],[-124.5,70.69726],[-124,70.74423],[-123.5,70.7899],[-123,70.83428],[-122.5,70.87737],[-122,70.91918],[-121.5,70.95973],[-121,70.99901],[-120.5,71.03705],[-120,71.07384],[-119.5,71.1094],[-119,71.14373],[-118.5,71.17684],[-118,71.20873],[-117.5,71.23942],[-117,71.26891],[-116.5,71.2972],[-116,71.32431],[-115.5,71.35024],[-115,71.37498],[-114.5,71.39856],[-114,71.42096],[-113.5,71.44221],[-113,71.4623],[-112.5,71.48123],[-112,71.49901],[-111.5,71.51564],[-111,71.53113],[-110.5,71.54549],[-110.5,71.54548],[-110,71.5587],[-109.5,71.57077],[-109,71.58172],[-108.5,71.59153],[-108,71.60021],[-107.5,71.60777],[-107,71.61419],[-106.5,71.61949],[-106,71.62367],[-105.5,71.62672],[-105,71.62865],[-104.5,71.62945],[-104,71.62912],[-103.5,71.62767],[-103,71.62509],[-102.5,71.62139],[-102.5,71.62138],[-102,71.61655],[-101.5,71.61058],[-101,71.60348],[-100.5,71.59524],[-100,71.58587],[-99.5,71.57535],[-99,71.56369],[-98.5,71.55088],[-98,71.53692],[-97.5,71.5218],[-97,71.50552],[-96.5,71.48808],[-96,71.46947],[-95.5,71.44969],[-95,71.42873],[-94.5,71.40658],[-94,71.38324],[-93.5,71.3587],[-93,71.33296],[-92.5,71.306],[-92,71.27783],[-91.5,71.24843],[-91,71.2178],[-90.5,71.18592],[-90,71.1528],[-89.5,71.11841],[-89,71.08276],[-88.5,71.04583],[-88,71.00761],[-87.5,70.96809],[-87,70.92727],[-86.5,70.88512],[-86,70.84165],[-85.5,70.79683],[-85,70.75066],[-84.5,70.70312],[-84,70.6542],[-83.5,70.60389],[-83,70.55217],[-83,70.55218],[-82.5,70.49904],[-82,70.44447],[-81.5,70.38846],[-81,70.33098],[-80.5,70.27202],[-80,70.21157],[-79.5,70.14961],[-79,70.08612],[-79,70.08613],[-78.5,70.02109],[-78.5,70.0211],[-78,69.9545],[-77.5,69.88634],[-77,69.81657],[-76.5,69.74519],[-76,69.67218],[-75.5,69.59751],[-75,69.52117],[-74.5,69.44313],[-74,69.36338],[-73.5,69.2819],[-73,69.19866],[-72.5,69.11364],[-72,69.02682],[-71.5,68.93817],[-71,68.84768],[-70.5,68.75532],[-70,68.66106],[-69.5,68.56488],[-69,68.46676],[-68.5,68.36667],[-68,68.26459],[-67.5,68.16048],[-67,68.05432],[-66.5,67.94609],[-66.5,67.9461],[-66,67.83576],[-65.5,67.7233],[-65,67.60869],[-64.5,67.49188],[-64,67.37287],[-63.5,67.25161],[-63,67.12808],[-62.5,67.00225],[-62,66.87409],[-61.5,66.74358],[-61,66.61067],[-60.5,66.47535],[-60,66.33757],[-59.5,66.19732],[-59,66.05456],[-58.5,65.90927],[-58,65.76141],[-57.5,65.61095],[-57,65.45786],[-56.5,65.30212],[-56,65.1437],[-55.5,64.98256],[-55,64.81869],[-54.5,64.65205],[-54,64.48262],[-53.5,64.31037],[-53,64.13528],[-52.5,63.95732],[-52,63.77647],[-51.5,63.59272],[-51,63.40602],[-50.5,63.21638],[-50,63.02377],[-49.5,62.82818],[-49,62.62958],[-48.5,62.42798],[-48,62.22335],[-47.5,62.01569],[-47,61.80499],[-46.5,61.59125],[-46,61.37446],[-45.5,61.15464],[-45,60.93177],[-44.5,60.70587],[-44,60.47695],[-43.5,60.24502],[-43,60.0101],[-42.5,59.7722],[-42,59.53134],[-41.5,59.28757],[-41,59.04089],[-40.5,58.79136],[-40,58.53899],[-39.5,58.28385],[-39,58.02596],[-38.5,57.76539],[-38,57.50218],[-37.5,57.23639],[-37,56.96809],[-36.5,56.69733],[-36,56.42418],[-35.5,56.14873],[-35,55.87103],[-34.5,55.59119],[-34,55.30927],[-33.5,55.02536],[-33,54.73956],[-32.5,54.45196],[-32,54.16265],[-31.5,53.87173],[-31,53.57931],[-30.5,53.28548],[-30,52.99035],[-29.5,52.69403],[-29,52.39662],[-28.5,52.09823],[-28,51.79898],[-27.5,51.49898],[-27,51.19832],[-26.5,50.89714],[-26,50.59553],[-25.5,50.2936],[-25,49.99148],[-24.5,49.68925],[-24,49.38704],[-23.5,49.08495],[-23,48.78308],[-22.5,48.48153],[-22,48.18041],[-21.5,47.87981],[-21,47.57983],[-20.5,47.28057],[-20,46.9821],[-19.5,46.68453],[-19,46.38793],[-18.5,46.09239],[-18,45.79799],[-17.5,45.5048],[-17,45.2129],[-16.5,44.92235],[-16,44.63323],[-15.5,44.3456],[-15,44.05952],[-14.5,43.77504],[-14,43.49223],[-13.5,43.21113],[-13,42.93179],[-12.5,42.65427],[-12,42.37859],[-11.5,42.10481],[-11,41.83296],[-10.5,41.56308],[-10,41.29519],[-9.5,41.02934],[-9,40.76554],[-8.5,40.50382],[-8,40.24422],[-7.5,39.98674],[-7,39.7314],[-6.5,39.47824],[-6,39.22725],[-5.5,38.97846],[-5,38.73187],[-4.5,38.4875],[-4,38.24535],[-3.5,38.00544],[-3,37.76777],[-2.5,37.53234],[-2.12223,37.32293]]}},{"type":"Feature","id":"+09120617:south:0","properties":{"id":"+09120617","year":912,"month":6,"day":17,"time_tdt":"18:50:25","type":"개기일식","type_code":"T","saros":90,"gamma":0.73224,"magnitude":1.07085,"greatest":{"lat":70.35394,"lng":-81.198},"path_width_km":340.3,"duration":"04m21s","delta_t_seconds":2100.7,"catalog_number":6925,"source":"NASA Five Millennium Canon of Solar Eclipses","source_url":"https://eclipse.gsfc.nasa.gov/SEsearch/SEsearchmap.php?Ecl=%2B09120617","boundary":"south","name":"912-06-17 개기일식"},"geometry":{"type":"LineString","coordinates":[[167,46.24013],[167.5,46.4825],[168,46.72543],[168.5,46.96889],[169,47.21284],[169.5,47.45723],[170,47.70203],[170.5,47.9472],[171,48.19268],[171.5,48.43844],[172,48.68443],[172.5,48.9306],[173,49.17691],[173.5,49.4233],[174,49.66973],[174.5,49.91615],[175,50.1625],[175.5,50.40874],[176,50.65482],[176.5,50.90067],[177,51.14626],[177.5,51.39152],[178,51.6364],[178.5,51.88084],[179,52.1248],[179.5,52.36822],[180,52.61104]]}},{"type":"Feature","id":"+09120617:south:1","properties":{"id":"+09120617","year":912,"month":6,"day":17,"time_tdt":"18:50:25","type":"개기일식","type_code":"T","saros":90,"gamma":0.73224,"magnitude":1.07085,"greatest":{"lat":70.35394,"lng":-81.198},"path_width_km":340.3,"duration":"04m21s","delta_t_seconds":2100.7,"catalog_number":6925,"source":"NASA Five Millennium Canon of Solar Eclipses","source_url":"https://eclipse.gsfc.nasa.gov/SEsearch/SEsearchmap.php?Ecl=%2B09120617","boundary":"south","name":"912-06-17 개기일식"},"geometry":{"type":"LineString","coordinates":[[-179.5,52.85321],[-179,53.09467],[-178.5,53.33537],[-178,53.57526],[-177.5,53.81428],[-177,54.05238],[-176.5,54.2895],[-176,54.5256],[-175.5,54.76061],[-175,54.99449],[-174.5,55.2272],[-174,55.45867],[-173.5,55.68886],[-173,55.91772],[-172.5,56.1452],[-172,56.37127],[-171.5,56.59587],[-171,56.81895],[-171,56.81896],[-170.5,57.04049],[-170,57.26044],[-169.5,57.47875],[-169,57.6954],[-168.5,57.91033],[-168.5,57.91034],[-168,58.12353],[-167.5,58.33495],[-167,58.54456],[-166.5,58.75234],[-166,58.95824],[-165.5,59.16225],[-165,59.36434],[-164.5,59.56448],[-164,59.76266],[-163.5,59.95884],[-163,60.15301],[-162.5,60.34516],[-162,60.53526],[-161.5,60.72329],[-161,60.90926],[-160.5,61.09313],[-160,61.27491],[-159.5,61.45459],[-159.5,61.45458],[-159,61.63214],[-158.5,61.80757],[-158,61.98088],[-157.5,62.15205],[-157,62.32109],[-156.5,62.48799],[-156,62.65275],[-155.5,62.81538],[-155,62.97586],[-154.5,63.13421],[-154,63.29044],[-153.5,63.44453],[-153,63.5965],[-152.5,63.74636],[-152,63.89411],[-151.5,64.03975],[-151,64.1833],[-150.5,64.32477],[-150,64.46416],[-149.5,64.60149],[-149,64.73676],[-148.5,64.86999],[-148,65.00118],[-147.5,65.13036],[-147,65.25753],[-146.5,65.3827],[-146,65.5059],[-145.5,65.62712],[-145,65.74639],[-144.5,65.86372],[-144,65.97912],[-143.5,66.09261],[-143,66.20421],[-142.5,66.31392],[-142,66.42176],[-141.5,66.52775],[-141,66.6319],[-140.5,66.73423],[-140,66.83475],[-139.5,66.93348],[-139,67.03043],[-138.5,67.12562],[-138,67.21905],[-138,67.21906],[-137.5,67.31076],[-137,67.40075],[-136.5,67.48903],[-136,67.57562],[-135.5,67.66054],[-135,67.7438],[-134.5,67.82541],[-134,67.90539],[-134,67.9054],[-133.5,67.98376],[-133,68.06052],[-132.5,68.13569],[-132,68.20928],[-131.5,68.28131],[-131,68.35179],[-130.5,68.42073],[-130,68.48814],[-130,68.48815],[-129.5,68.55405],[-129,68.61845],[-128.5,68.68137],[-128,68.74281],[-127.5,68.80278],[-127,68.8613],[-126.5,68.91838],[-126,68.97403],[-125.5,69.02826],[-125,69.08108],[-124.5,69.13249],[-124,69.18252],[-123.5,69.23117],[-123,69.27844],[-122.5,69.32436],[-122,69.36892],[-121.5,69.41213],[-121,69.45402],[-121,69.45401],[-120.5,69.49457],[-120,69.5338],[-119.5,69.57172],[-119,69.60834],[-118.5,69.64366],[-118,69.67769],[-117.5,69.71043],[-117,69.7419],[-116.5,69.77209],[-116,69.80102],[-115.5,69.82869],[-115,69.8551],[-114.5,69.88027],[-114,69.90418],[-113.5,69.92686],[-113,69.9483],[-112.5,69.96851],[-112,69.98749],[-111.5,70.00524],[-111,70.02178],[-110.5,70.03709],[-110,70.05118],[-109.5,70.06407],[-109,70.07574],[-108.5,70.08619],[-108,70.09545],[-107.5,70.10349],[-107,70.11033],[-106.5,70.11596],[-106,70.12038],[-105.5,70.12361],[-105,70.12562],[-104.5,70.12644],[-104,70.12604],[-103.5,70.12444],[-103,70.12163],[-102.5,70.11762],[-102,70.11239],[-101.5,70.10595],[-101,70.09829],[-100.5,70.08942],[-100,70.07933],[-99.5,70.06801],[-99,70.05547],[-98.5,70.0417],[-98,70.02669],[-97.5,70.01044],[-97,69.99295],[-96.5,69.97422],[-96,69.95423],[-95.5,69.93298],[-95,69.91046],[-94.5,69.88668],[-94,69.86162],[-93.5,69.83528],[-93,69.80764],[-92.5,69.77871],[-92,69.74848],[-91.5,69.71693],[-91,69.68405],[-90.5,69.64985],[-90,69.61431],[-89.5,69.57742],[-89,69.53918],[-88.5,69.49957],[-88.5,69.49956],[-88,69.45857],[-87.5,69.41619],[-87,69.37241],[-86.5,69.32722],[-86,69.28061],[-85.5,69.23256],[-85,69.18307],[-84.5,69.13212],[-84,69.07969],[-83.5,69.02578],[-83,68.97037],[-82.5,68.91344],[-82,68.85498],[-81.5,68.79499],[-81,68.73343],[-80.5,68.6703],[-80,68.60557],[-79.5,68.53924],[-79,68.47129],[-78.5,68.40169],[-78,68.33043],[-77.5,68.2575],[-77,68.18287],[-76.5,68.10653],[-76,68.02845],[-75.5,67.94862],[-75,67.86702],[-74.5,67.78362],[-74,67.69841],[-73.5,67.61136],[-73,67.52246],[-73,67.52245],[-72.5,67.43167],[-72,67.33898],[-71.5,67.24437],[-71,67.14781],[-70.5,67.04928],[-70,66.94876],[-69.5,66.84621],[-69,66.74163],[-68.5,66.63497],[-68,66.52623],[-68,66.52622],[-67.5,66.41536],[-67,66.30235],[-66.5,66.18717],[-66,66.06979],[-65.5,65.9502],[-65,65.82835],[-64.5,65.70423],[-64,65.57781],[-64,65.5778],[-63.5,65.44905],[-63,65.31794],[-62.5,65.18445],[-62,65.04855],[-61.5,64.91021],[-61,64.76941],[-60.5,64.62612],[-60,64.48031],[-59.5,64.33195],[-59,64.18103],[-58.5,64.02751],[-58,63.87137],[-57.5,63.71258],[-57,63.55113],[-56.5,63.38698],[-56,63.22011],[-55.5,63.0505],[-55,62.87813],[-54.5,62.70298],[-54,62.52502],[-53.5,62.34425],[-53,62.16064],[-52.5,61.97417],[-52,61.78483],[-51.5,61.59262],[-51,61.39751],[-50.5,61.19949],[-50,60.99857],[-50,60.99856],[-49.5,60.79472],[-49,60.58796],[-48.5,60.37827],[-48,60.16566],[-47.5,59.95012],[-47,59.73168],[-46.5,59.51032],[-46,59.28607],[-45.5,59.05894],[-45,58.82894],[-44.5,58.59609],[-44,58.36043],[-43.5,58.12196],[-43,57.88073],[-42.5,57.63676],[-42.5,57.63675],[-42,57.39009],[-41.5,57.14076],[-41,56.88881],[-40.5,56.63429],[-40,56.37726],[-39.5,56.11776],[-39,55.85585],[-38.5,55.59159],[-38,55.32505],[-37.5,55.0563],[-37,54.7854],[-36.5,54.51243],[-36,54.23747],[-35.5,53.9606],[-35,53.6819],[-34.5,53.40146],[-34,53.11937],[-33.5,52.83571],[-33,52.55059],[-32.5,52.26409],[-32,51.97632],[-31.5,51.68738],[-31,51.39735],[-30.5,51.10635],[-30,50.81448],[-29.5,50.52184],[-29,50.22852],[-28.5,49.93465],[-28,49.64031],[-27.5,49.34561],[-27,49.05066],[-26.5,48.75556],[-26,48.46039],[-25.5,48.16528],[-25,47.87031],[-24.5,47.57557],[-24,47.28117],[-23.5,46.9872],[-23,46.69375],[-22.5,46.40091],[-22,46.10875],[-21.5,45.81738],[-21,45.52686],[-20.5,45.23728],[-20,44.94872],[-19.5,44.66124],[-19,44.37493],[-18.5,44.08984],[-18,43.80604],[-17.5,43.5236],[-17,43.24257],[-16.5,42.96301],[-16,42.68499],[-15.5,42.40854],[-15,42.13371],[-14.5,41.86056],[-14,41.58913],[-13.5,41.31945],[-13,41.05158],[-12.5,40.78553],[-12,40.52135],[-11.5,40.25907],[-11,39.99872],[-10.5,39.74032],[-10,39.4839],[-9.5,39.22948],[-9,38.97709],[-8.5,38.72674],[-8,38.47844],[-7.5,38.23223],[-7,37.9881],[-6.5,37.74607],[-6,37.50616],[-5.5,37.26837],[-5,37.03271],[-4.5,36.79918],[-4,36.5678],[-3.5,36.33856]]}},{"type":"Feature","id":"+09121211:north:0","properties":{"id":"+09121211","year":912,"month":12,"day":11,"time_tdt":"13:06:23","type":"금환일식","type_code":"A","saros":95,"gamma":-0.45041,"magnitude":0.93405,"greatest":{"lat":-50.42978,"lng":-5.73151},"path_width_km":276.1,"duration":"06m38s","delta_t_seconds":2097.5,"catalog_number":6926,"source":"NASA Five Millennium Canon of Solar Eclipses","source_url":"https://eclipse.gsfc.nasa.gov/SEsearch/SEsearchmap.php?Ecl=%2B09121211","boundary":"north","name":"912-12-11 금환일식"},"geometry":{"type":"LineString","coordinates":[[-84.29297,-26.40744],[-84,-26.54055],[-83.5,-26.76838],[-83,-26.99702],[-82.5,-27.22645],[-82,-27.45664],[-81.5,-27.68758],[-81,-27.91924],[-80.5,-28.1516],[-80,-28.38462],[-79.5,-28.6183],[-79,-28.85259],[-78.5,-29.08747],[-78,-29.32292],[-77.5,-29.5589],[-77,-29.79538],[-76.5,-30.03232],[-76,-30.26971],[-75.5,-30.50749],[-75,-30.74565],[-74.5,-30.98413],[-74,-31.22291],[-73.5,-31.46195],[-73,-31.7012],[-72.5,-31.94064],[-72,-32.18021],[-71.5,-32.41987],[-71,-32.65959],[-70.5,-32.89932],[-70,-33.13901],[-69.5,-33.37862],[-69,-33.61811],[-68.5,-33.85742],[-68,-34.09651],[-67.5,-34.33532],[-67,-34.57382],[-66.5,-34.81195],[-66,-35.04965],[-65.5,-35.28688],[-65,-35.52359],[-64.5,-35.75972],[-64,-35.99523],[-63.5,-36.23005],[-63,-36.46413],[-62.5,-36.69743],[-62,-36.92988],[-61.5,-37.16143],[-61,-37.39203],[-60.5,-37.62162],[-60,-37.85015],[-59.5,-38.07757],[-59,-38.30381],[-58.5,-38.52884],[-58,-38.75258],[-57.5,-38.975],[-57,-39.19604],[-56.5,-39.41564],[-56,-39.63375],[-55.5,-39.85032],[-55,-40.06531],[-54.5,-40.27866],[-54,-40.49032],[-53.5,-40.70025],[-53,-40.90839],[-52.5,-41.1147],[-52,-41.31914],[-51.5,-41.52167],[-51,-41.72223],[-50.5,-41.92078],[-50,-42.11729],[-49.5,-42.31172],[-49,-42.50402],[-48.5,-42.69416],[-48,-42.8821],[-47.5,-43.0678],[-47,-43.25124],[-46.5,-43.43239],[-46,-43.61119],[-45.5,-43.78764],[-45,-43.9617],[-44.5,-44.13334],[-44,-44.30254],[-43.5,-44.46926],[-43,-44.63349],[-42.5,-44.79521],[-42,-44.95439],[-41.5,-45.11101],[-41,-45.26505],[-40.5,-45.4165],[-40,-45.56534],[-39.5,-45.71155],[-39,-45.85511],[-38.5,-45.99602],[-38,-46.13425],[-37.5,-46.26981],[-37,-46.40267],[-36.5,-46.53282],[-36,-46.66026],[-35.5,-46.78498],[-35,-46.90698],[-34.5,-47.02623],[-34,-47.14274],[-33.5,-47.2565],[-33,-47.3675],[-32.5,-47.47575],[-32,-47.58123],[-31.5,-47.68394],[-31,-47.78389],[-30.5,-47.88106],[-30,-47.97545],[-29.5,-48.06706],[-29,-48.15589],[-28.5,-48.24195],[-28,-48.32521],[-27.5,-48.4057],[-27,-48.48339],[-26.5,-48.5583],[-26,-48.63043],[-25.5,-48.69976],[-25,-48.76631],[-24.5,-48.83007],[-24,-48.89104],[-23.5,-48.94922],[-23,-49.00461],[-22.5,-49.05721],[-22,-49.10701],[-21.5,-49.15402],[-21,-49.19824],[-20.5,-49.23967],[-20,-49.27829],[-19.5,-49.31412],[-19,-49.34715],[-18.5,-49.37738],[-18,-49.40481],[-17.5,-49.42942],[-17,-49.45123],[-16.5,-49.47023],[-16,-49.48641],[-15.5,-49.49977],[-15,-49.51031],[-14.5,-49.51802],[-14,-49.5229],[-13.5,-49.52494],[-13,-49.52414],[-12.5,-49.52049],[-12,-49.51399],[-11.5,-49.50463],[-11,-49.4924],[-10.5,-49.47729],[-10,-49.45931],[-9.5,-49.43843],[-9,-49.41466],[-8.5,-49.38798],[-8,-49.35839],[-7.5,-49.32587],[-7,-49.29041],[-6.5,-49.25201],[-6,-49.21066],[-5.5,-49.16634],[-5,-49.11904],[-4.5,-49.06876],[-4,-49.01548],[-3.5,-48.95919],[-3,-48.89987],[-2.5,-48.83752],[-2,-48.77212],[-1.5,-48.70366],[-1,-48.63212],[-0.5,-48.5575],[0,-48.47978],[0.5,-48.39895],[1,-48.31499],[1.5,-48.22788],[2,-48.13763],[2.5,-48.04421],[3,-47.94761],[3.5,-47.84782],[4,-47.74482],[4.5,-47.63861],[5,-47.52917],[5.5,-47.41648],[6,-47.30054],[6.5,-47.18133],[7,-47.05886],[7.5,-46.93309],[8,-46.80403],[8.5,-46.67167],[9,-46.536],[9.5,-46.39702],[10,-46.2547],[10.5,-46.10907],[11,-45.96009],[11.5,-45.80779],[12,-45.65215],[12.5,-45.49317],[13,-45.33086],[13.5,-45.16522],[14,-44.99626],[14.5,-44.82397],[15,-44.64837],[15.5,-44.46947],[16,-44.28729],[16.5,-44.10183],[17,-43.91311],[17.5,-43.72115],[18,-43.52597],[18.5,-43.32759],[19,-43.12605],[19.5,-42.92137],[20,-42.71357],[20.5,-42.5027],[21,-42.28879],[21.5,-42.07187],[22,-41.852],[22.5,-41.62921],[23,-41.40355],[23.5,-41.17507],[24,-40.94382],[24.5,-40.70987],[25,-40.47326],[25.5,-40.23406],[26,-39.99233],[26.5,-39.74814],[27,-39.50156],[27.5,-39.25265],[28,-39.00149],[28.5,-38.74816],[29,-38.49273],[29.5,-38.23528],[30,-37.9759],[30.5,-37.71467],[30.5,-37.71466],[31,-37.45166],[31.5,-37.18697],[32,-36.92069],[32.5,-36.6529],[33,-36.38369],[33.5,-36.11315],[34,-35.84138],[34.5,-35.56845],[35,-35.29447],[35.5,-35.01953],[36,-34.7437],[36.5,-34.4671],[37,-34.1898],[37.5,-33.9119],[38,-33.63347],[38.5,-33.35462],[39,-33.07543],[39.5,-32.79598],[40,-32.51636],[40.5,-32.23665],[41,-31.95692],[41.5,-31.67727],[42,-31.39776],[42.5,-31.11848],[43,-30.83949],[43.5,-30.56087],[44,-30.28269],[44.5,-30.00501],[45,-29.72791],[45.5,-29.45144],[46,-29.17566],[46.5,-28.90064],[47,-28.62643],[47.5,-28.35309],[48,-28.08066],[48.5,-27.80921],[49,-27.53877],[49.5,-27.26939],[50,-27.00112],[50.5,-26.734],[51,-26.46806],[51.5,-26.20335],[52,-25.9399],[52.5,-25.67775],[53,-25.41693],[53.5,-25.15746],[54,-24.89938],[54.5,-24.64271],[55,-24.38748],[55.5,-24.13371],[56,-23.88142],[56.5,-23.63063],[57,-23.38137],[57.5,-23.13365],[58,-22.88748],[58.5,-22.64288],[59,-22.39986],[59.5,-22.15844],[60,-21.91863],[60.5,-21.68043],[61,-21.44386],[61.5,-21.20892],[62,-20.97563],[62.5,-20.74398],[62.5,-20.74397],[63,-20.51398],[63.5,-20.28564],[64,-20.05896],[64,-20.05895],[64.34961,-19.90144]]}},{"type":"Feature","id":"+09121211:center:0","properties":{"id":"+09121211","year":912,"month":12,"day":11,"time_tdt":"13:06:23","type":"금환일식","type_code":"A","saros":95,"gamma":-0.45041,"magnitude":0.93405,"greatest":{"lat":-50.42978,"lng":-5.73151},"path_width_km":276.1,"duration":"06m38s","delta_t_seconds":2097.5,"catalog_number":6926,"source":"NASA Five Millennium Canon of Solar Eclipses","source_url":"https://eclipse.gsfc.nasa.gov/SEsearch/SEsearchmap.php?Ecl=%2B09121211","boundary":"center","name":"912-12-11 금환일식"},"geometry":{"type":"LineString","coordinates":[[-85.46126,-27.72775],[-85,-27.93983],[-84.5,-28.16531],[-84,-28.39158],[-83.5,-28.61861],[-83,-28.84639],[-82.5,-29.07489],[-82,-29.30409],[-81.5,-29.53396],[-81,-29.76447],[-80.5,-29.99561],[-80,-30.22734],[-79.5,-30.45964],[-79,-30.69248],[-78.5,-30.92582],[-78,-31.15963],[-77.5,-31.39389],[-77,-31.62856],[-76.5,-31.86361],[-76,-32.099],[-75.5,-32.33469],[-75,-32.57065],[-74.5,-32.80684],[-74,-33.04322],[-73.5,-33.27976],[-73,-33.51641],[-72.5,-33.75312],[-72,-33.98987],[-71.5,-34.2266],[-71,-34.46327],[-70.5,-34.69983],[-70,-34.93624],[-69.5,-35.17246],[-69,-35.40843],[-68.5,-35.64411],[-68,-35.87945],[-67.5,-36.1144],[-67,-36.34891],[-66.5,-36.58293],[-66,-36.81641],[-65.5,-37.0493],[-65,-37.28154],[-64.5,-37.51309],[-64,-37.74389],[-63.5,-37.97389],[-63,-38.20304],[-62.5,-38.43128],[-62,-38.65856],[-61.5,-38.88484],[-61,-39.11005],[-60.5,-39.33415],[-60,-39.55708],[-59.5,-39.77879],[-59,-39.99923],[-58.5,-40.21835],[-58,-40.43609],[-57.5,-40.65242],[-57,-40.86727],[-56.5,-41.0806],[-56,-41.29236],[-55.5,-41.50251],[-55,-41.71099],[-54.5,-41.91776],[-54,-42.12278],[-53.5,-42.32601],[-53,-42.52739],[-52.5,-42.72689],[-52,-42.92446],[-51.5,-43.12008],[-51,-43.31369],[-50.5,-43.50526],[-50,-43.69476],[-49.5,-43.88214],[-49,-44.06739],[-48.5,-44.25045],[-48,-44.4313],[-47.5,-44.60992],[-47,-44.78626],[-46.5,-44.96031],[-46,-45.13204],[-45.5,-45.30141],[-45,-45.46842],[-44.5,-45.63303],[-44,-45.79522],[-43.5,-45.95497],[-43,-46.11226],[-42.5,-46.26707],[-42,-46.4194],[-41.5,-46.56921],[-41,-46.71649],[-40.5,-46.86124],[-40,-47.00343],[-39.5,-47.14305],[-39,-47.2801],[-38.5,-47.41456],[-38,-47.54643],[-37.5,-47.67568],[-37,-47.80233],[-36.5,-47.92635],[-36,-48.04774],[-35.5,-48.1665],[-35,-48.28262],[-34.5,-48.3961],[-34,-48.50693],[-33.5,-48.6151],[-33,-48.72063],[-32.5,-48.82349],[-32,-48.9237],[-31.5,-49.02124],[-31,-49.11612],[-30.5,-49.20834],[-30,-49.29789],[-29.5,-49.38478],[-29,-49.469],[-28.5,-49.55056],[-28,-49.62945],[-27.5,-49.70568],[-27,-49.77924],[-26.5,-49.85013],[-26,-49.91836],[-25.5,-49.98393],[-25,-50.04683],[-24.5,-50.10708],[-24,-50.16465],[-23.5,-50.21957],[-23,-50.27182],[-22.5,-50.32141],[-22,-50.36834],[-21.5,-50.41261],[-21,-50.45422],[-20.5,-50.49316],[-20,-50.52944],[-19.5,-50.56305],[-19,-50.594],[-18.5,-50.62228],[-18,-50.64789],[-17.5,-50.67084],[-17,-50.69111],[-16.5,-50.7087],[-16,-50.72362],[-15.5,-50.73585],[-15,-50.7454],[-14.5,-50.75227],[-14,-50.75644],[-13.5,-50.75791],[-13,-50.75668],[-12.5,-50.75275],[-12,-50.7461],[-11.5,-50.73674],[-11,-50.72465],[-10.5,-50.70983],[-10,-50.69228],[-9.5,-50.67197],[-9,-50.64892],[-8.5,-50.6231],[-8,-50.59452],[-7.5,-50.56315],[-7,-50.529],[-6.5,-50.49206],[-6,-50.4523],[-5.5,-50.40973],[-5,-50.36433],[-4.5,-50.3161],[-4,-50.26501],[-3.5,-50.21107],[-3,-50.15425],[-2.5,-50.09454],[-2,-50.03194],[-1.5,-49.96644],[-1,-49.89801],[-0.5,-49.82664],[0,-49.75233],[0.5,-49.67506],[1,-49.59481],[1.5,-49.51158],[2,-49.42534],[2.5,-49.33609],[3,-49.24382],[3.5,-49.14851],[4,-49.05014],[4.5,-48.9487],[5,-48.84419],[5.5,-48.73658],[6,-48.62587],[6.5,-48.51205],[7,-48.39509],[7.5,-48.275],[8,-48.15176],[8.5,-48.02535],[9,-47.89578],[9.5,-47.76303],[10,-47.6271],[10.5,-47.48797],[11,-47.34564],[11.5,-47.20011],[12,-47.05137],[12.5,-46.89942],[13,-46.74425],[13.5,-46.58587],[14,-46.42428],[14.5,-46.25948],[15,-46.09147],[15.5,-45.92026],[16,-45.74585],[16.5,-45.56826],[17,-45.3875],[17.5,-45.20357],[18,-45.0165],[18.5,-44.8263],[19,-44.63299],[19.5,-44.43659],[20,-44.23713],[20.5,-44.03463],[21,-43.82912],[21.5,-43.62063],[22,-43.40921],[22.5,-43.19487],[23,-42.97766],[23.5,-42.75763],[24,-42.53482],[24.5,-42.30927],[25,-42.08103],[25.5,-41.85017],[26,-41.61672],[26.5,-41.38076],[27,-41.14233],[27.5,-40.90151],[28,-40.65835],[28.5,-40.41293],[29,-40.16531],[29.5,-39.91557],[30,-39.66378],[30.5,-39.41001],[31,-39.15435],[31.5,-38.89687],[32,-38.63766],[32.5,-38.37679],[33,-38.11435],[33.5,-37.85043],[34,-37.5851],[34.5,-37.31847],[35,-37.0506],[35.5,-36.7816],[36,-36.51155],[36.5,-36.24053],[37,-35.96864],[37.5,-35.69597],[38,-35.42259],[38.5,-35.1486],[39,-34.87408],[39.5,-34.59912],[40,-34.3238],[40.5,-34.04821],[41,-33.77243],[41.5,-33.49653],[42,-33.22061],[42.5,-32.94473],[43,-32.66897],[43.5,-32.39341],[44,-32.11811],[44.5,-31.84316],[45,-31.56861],[45.5,-31.29455],[45.5,-31.29454],[46,-31.02102],[46.5,-30.74809],[47,-30.47583],[47.5,-30.20429],[48,-29.93353],[48.5,-29.6636],[49,-29.39456],[49.5,-29.12645],[50,-28.85933],[50.5,-28.59324],[51,-28.32822],[51.5,-28.06432],[52,-27.80158],[52.5,-27.54002],[53,-27.2797],[53.5,-27.02065],[54,-26.76289],[54.5,-26.50646],[55,-26.25138],[55.5,-25.99769],[56,-25.74541],[56.5,-25.49456],[57,-25.24517],[57.5,-24.99725],[58,-24.75083],[58.5,-24.50592],[59,-24.26254],[59.5,-24.02071],[59.5,-24.0207],[60,-23.78043],[60.5,-23.54173],[61,-23.30461],[61.5,-23.06909],[62,-22.83517],[62.5,-22.60286],[63,-22.37218],[63,-22.37217],[63.5,-22.14312],[64,-21.91569],[64.5,-21.6899],[65,-21.46575],[65.47451,-21.25278]]}},{"type":"Feature","id":"+09121211:south:0","properties":{"id":"+09121211","year":912,"month":12,"day":11,"time_tdt":"13:06:23","type":"금환일식","type_code":"A","saros":95,"gamma":-0.45041,"magnitude":0.93405,"greatest":{"lat":-50.42978,"lng":-5.73151},"path_width_km":276.1,"duration":"06m38s","delta_t_seconds":2097.5,"catalog_number":6926,"source":"NASA Five Millennium Canon of Solar Eclipses","source_url":"https://eclipse.gsfc.nasa.gov/SEsearch/SEsearchmap.php?Ecl=%2B09121211","boundary":"south","name":"912-12-11 금환일식"},"geometry":{"type":"LineString","coordinates":[[-86.625,-29.09544],[-86.5,-29.15092],[-86,-29.37335],[-85.5,-29.59657],[-85,-29.82055],[-84.5,-30.04527],[-84,-30.27072],[-83.5,-30.49686],[-83,-30.72367],[-82.5,-30.95113],[-82,-31.17921],[-81.5,-31.40788],[-81,-31.63712],[-80.5,-31.8669],[-80,-32.09719],[-79.5,-32.32796],[-79,-32.55918],[-78.5,-32.79081],[-78,-33.02282],[-77.5,-33.25519],[-77,-33.48786],[-76.5,-33.72081],[-76,-33.954],[-75.5,-34.18739],[-75,-34.42095],[-74.5,-34.65463],[-74,-34.88839],[-73.5,-35.12219],[-73,-35.356],[-72.5,-35.58976],[-72,-35.82343],[-71.5,-36.05697],[-71,-36.29034],[-70.5,-36.52348],[-70,-36.75635],[-69.5,-36.98891],[-69,-37.2211],[-68.5,-37.45288],[-68,-37.68419],[-67.5,-37.915],[-67,-38.14524],[-66.5,-38.37487],[-66,-38.60385],[-65.5,-38.83211],[-65,-39.0596],[-64.5,-39.28629],[-64,-39.51211],[-63.5,-39.73701],[-63,-39.96095],[-62.5,-40.18387],[-62,-40.40572],[-61.5,-40.62645],[-61,-40.84601],[-60.5,-41.06436],[-60,-41.28144],[-59.5,-41.49719],[-59,-41.71159],[-58.5,-41.92457],[-58,-42.13608],[-57.5,-42.34609],[-57,-42.55455],[-56.5,-42.76141],[-56,-42.96662],[-55.5,-43.17015],[-55,-43.37195],[-54.5,-43.57198],[-54,-43.7702],[-53.5,-43.96657],[-53,-44.16105],[-52.5,-44.3536],[-52,-44.54419],[-51.5,-44.73278],[-51,-44.91935],[-50.5,-45.10384],[-50,-45.28624],[-49.5,-45.46652],[-49,-45.64464],[-48.5,-45.82057],[-48,-45.99429],[-47.5,-46.16578],[-47,-46.33501],[-46.5,-46.50195],[-46,-46.66659],[-45.5,-46.8289],[-45,-46.98886],[-44.5,-47.14645],[-44,-47.30166],[-43.5,-47.45447],[-43,-47.60487],[-42.5,-47.75283],[-42,-47.89835],[-41.5,-48.04142],[-41,-48.18202],[-40.5,-48.32013],[-40,-48.45576],[-39.5,-48.58889],[-39,-48.71952],[-38.5,-48.84763],[-38,-48.97322],[-37.5,-49.09628],[-37.5,-49.09629],[-37,-49.21682],[-36.5,-49.33482],[-36,-49.45028],[-35.5,-49.56319],[-35,-49.67356],[-34.5,-49.78138],[-34,-49.88665],[-33.5,-49.98937],[-33,-50.08954],[-32.5,-50.18715],[-32,-50.28221],[-31.5,-50.37471],[-31,-50.46466],[-30.5,-50.55205],[-30,-50.63689],[-29.5,-50.71918],[-29,-50.79892],[-28.5,-50.87611],[-28,-50.95074],[-27.5,-51.02283],[-27,-51.09238],[-26.5,-51.15938],[-26,-51.22383],[-25.5,-51.28574],[-25,-51.34511],[-24.5,-51.40195],[-24,-51.45624],[-23.5,-51.50799],[-23,-51.55721],[-22.5,-51.6039],[-22,-51.64804],[-21.5,-51.68966],[-21,-51.72874],[-20.5,-51.76528],[-20,-51.79929],[-19.5,-51.83077],[-19,-51.85971],[-18.5,-51.88611],[-18,-51.90998],[-17.5,-51.93131],[-17,-51.95009],[-17,-51.9501],[-16.5,-51.96634],[-16,-51.98004],[-15.5,-51.9912],[-15,-51.9998],[-14.5,-52.00585],[-14,-52.00934],[-13.5,-52.01027],[-13,-52.00864],[-12.5,-52.00444],[-12,-51.99766],[-11.5,-51.9883],[-11,-51.97635],[-10.5,-51.96182],[-10,-51.94468],[-9.5,-51.92494],[-9,-51.90258],[-8.5,-51.87761],[-8,-51.85001],[-7.5,-51.81977],[-7,-51.78688],[-6.5,-51.75134],[-6,-51.71314],[-5.5,-51.67226],[-5,-51.6287],[-4.5,-51.58245],[-4,-51.53349],[-3.5,-51.48181],[-3,-51.42741],[-2.5,-51.37027],[-2,-51.31039],[-1.5,-51.24773],[-1,-51.18231],[-0.5,-51.11409],[0,-51.04308],[0.5,-50.96926],[1,-50.89261],[1.5,-50.81312],[2,-50.73077],[2.5,-50.64557],[3,-50.55748],[3.5,-50.4665],[4,-50.37262],[4.5,-50.27581],[5,-50.17608],[5.5,-50.0734],[6,-49.96776],[6.5,-49.85915],[7,-49.74756],[7.5,-49.63297],[8,-49.51537],[8.5,-49.39476],[9,-49.27112],[9.5,-49.14443],[10,-49.0147],[10.5,-48.88191],[11,-48.74606],[11.5,-48.60713],[12,-48.46512],[12.5,-48.32002],[13,-48.17184],[13.5,-48.02056],[14,-47.86618],[14.5,-47.7087],[15,-47.54813],[15.5,-47.38446],[16,-47.2177],[16.5,-47.04785],[16.5,-47.04784],[17,-46.87491],[17.5,-46.6989],[18,-46.51983],[18.5,-46.3377],[19,-46.15253],[19.5,-45.96434],[20,-45.77314],[20.5,-45.57896],[21,-45.38181],[21.5,-45.18171],[22,-44.97871],[22.5,-44.77282],[23,-44.56408],[23.5,-44.35252],[24,-44.13817],[24.5,-43.92108],[25,-43.70129],[25.5,-43.47884],[26,-43.25378],[26.5,-43.02616],[27,-42.79603],[27.5,-42.56344],[28,-42.32846],[28.5,-42.09113],[29,-41.85153],[29.5,-41.60971],[30,-41.36574],[30.5,-41.1197],[31,-40.87164],[31.5,-40.62165],[32,-40.36979],[32.5,-40.11615],[33,-39.8608],[33.5,-39.60382],[34,-39.34528],[34.5,-39.08528],[35,-38.82389],[35.5,-38.56119],[36,-38.29728],[36.5,-38.03223],[37,-37.76613],[37.5,-37.49906],[38,-37.23111],[38.5,-36.96237],[39,-36.69292],[39.5,-36.42284],[40,-36.15221],[40.5,-35.88113],[41,-35.60967],[41.5,-35.33791],[42,-35.06594],[42.5,-34.79384],[43,-34.52167],[43.5,-34.24952],[44,-33.97747],[44.5,-33.70558],[45,-33.43393],[45.5,-33.16258],[46,-32.89162],[46.5,-32.62109],[47,-32.35107],[47.5,-32.08162],[48,-31.8128],[48.5,-31.54466],[49,-31.27727],[49.5,-31.01068],[50,-30.74494],[50.5,-30.4801],[50.5,-30.48009],[51,-30.2162],[51.5,-29.95331],[52,-29.69145],[52.5,-29.43068],[52.5,-29.43067],[53,-29.17102],[53.5,-28.91253],[54,-28.65524],[54.5,-28.39918],[54.5,-28.39917],[55,-28.14438],[55.5,-27.89088],[56,-27.6387],[56.5,-27.38788],[57,-27.13844],[57.5,-26.89041],[58,-26.6438],[58.5,-26.39863],[59,-26.15494],[59.5,-25.91273],[60,-25.67203],[60.5,-25.43285],[61,-25.1952],[61.5,-24.95911],[62,-24.72457],[62.5,-24.4916],[63,-24.26022],[63.5,-24.03043],[64,-23.80224],[64.5,-23.57565],[65,-23.35068],[65.5,-23.12733],[66,-22.9056],[66.5,-22.6855],[66.64453,-22.62218]]}}],"attribution":"Eclipse Predictions by Fred Espenak and Jean Meeus (NASA's GSFC)","generated_at":"2026-09-23T01:44:58.636Z"}
