{"type":"FeatureCollection","year":913,"events":[{"id":"+09130607","year":913,"month":6,"day":7,"time_tdt":"10:09:57","type":"개기일식","type_code":"T","saros":100,"gamma":-0.01344,"magnitude":1.03542,"greatest":{"lat":22.602,"lng":35.51324},"path_width_km":119.2,"duration":"03m33s","delta_t_seconds":2094.2,"catalog_number":6927,"source":"NASA Five Millennium Canon of Solar Eclipses","source_url":"https://eclipse.gsfc.nasa.gov/SEsearch/SEsearchmap.php?Ecl=%2B09130607"},{"id":"+09131130","year":913,"month":11,"day":30,"time_tdt":"18:50:01","type":"금환일식","type_code":"A","saros":105,"gamma":0.26019,"magnitude":0.98696,"greatest":{"lat":-7.56546,"lng":-95.19342},"path_width_km":47.7,"duration":"01m30s","delta_t_seconds":2091,"catalog_number":6928,"source":"NASA Five Millennium Canon of Solar Eclipses","source_url":"https://eclipse.gsfc.nasa.gov/SEsearch/SEsearchmap.php?Ecl=%2B09131130"}],"features":[{"type":"Feature","id":"+09130607:north:0","properties":{"id":"+09130607","year":913,"month":6,"day":7,"time_tdt":"10:09:57","type":"개기일식","type_code":"T","saros":100,"gamma":-0.01344,"magnitude":1.03542,"greatest":{"lat":22.602,"lng":35.51324},"path_width_km":119.2,"duration":"03m33s","delta_t_seconds":2094.2,"catalog_number":6927,"source":"NASA Five Millennium Canon of Solar Eclipses","source_url":"https://eclipse.gsfc.nasa.gov/SEsearch/SEsearchmap.php?Ecl=%2B09130607","boundary":"north","name":"913-06-07 개기일식"},"geometry":{"type":"LineString","coordinates":[[-27.98242,0.92451],[-27.5,1.1361],[-27,1.35629],[-26.5,1.57738],[-26,1.79936],[-25.5,2.02223],[-25,2.24596],[-24.5,2.47054],[-24,2.69596],[-23.5,2.92221],[-23,3.14927],[-22.5,3.37712],[-22,3.60575],[-21.5,3.83513],[-21,4.06526],[-20.5,4.29611],[-20,4.52766],[-19.5,4.75989],[-19,4.99277],[-18.5,5.2263],[-18,5.46043],[-17.5,5.69515],[-17,5.93043],[-16.5,6.16625],[-16,6.40257],[-15.5,6.63937],[-15,6.87662],[-14.5,7.11428],[-14,7.35232],[-13.5,7.59072],[-13,7.82943],[-12.5,8.06841],[-12,8.30764],[-11.5,8.54707],[-11,8.78667],[-10.5,9.02638],[-10,9.26618],[-9.5,9.50601],[-9,9.74583],[-8.5,9.9856],[-8,10.22526],[-7.5,10.46476],[-7,10.70406],[-6.5,10.94311],[-6,11.18184],[-5.5,11.42021],[-5,11.65816],[-4.5,11.89563],[-4,12.13257],[-3.5,12.3689],[-3,12.60458],[-2.5,12.83953],[-2,13.07369],[-1.5,13.307],[-1,13.5394],[-0.5,13.7708],[0,14.00115],[0.5,14.23037],[1,14.45839],[1.5,14.68515],[2,14.91056],[2.5,15.13455],[3,15.35704],[3.5,15.57797],[4,15.79725],[4.5,16.01481],[5,16.23057],[5.5,16.44445],[6,16.65637],[6.5,16.86625],[7,17.07401],[7.5,17.27958],[8,17.48287],[8.5,17.6838],[9,17.8823],[9.5,18.07828],[10,18.27167],[10.5,18.46238],[11,18.65034],[11.5,18.83546],[12,19.01768],[12.5,19.19691],[13,19.37307],[13.5,19.5461],[14,19.71591],[14.5,19.88244],[15,20.0456],[15.5,20.20534],[16,20.36157],[16.5,20.51423],[17,20.66326],[17.5,20.80857],[18,20.95012],[18.5,21.08783],[19,21.22164],[19.5,21.3515],[20,21.47734],[20.5,21.5991],[21,21.71674],[21.5,21.83018],[22,21.93939],[22.5,22.04431],[23,22.1449],[23.5,22.24109],[24,22.33286],[24.5,22.42015],[25,22.50292],[25.5,22.58113],[26,22.65474],[26.5,22.72372],[27,22.78802],[27.5,22.84763],[28,22.9025],[28.5,22.9526],[29,22.99791],[29.5,23.03839],[30,23.07404],[30.5,23.10481],[31,23.1307],[31.5,23.15167],[32,23.16773],[32.5,23.17884],[33,23.18499],[33.5,23.18618],[34,23.18239],[34.5,23.17361],[35,23.15984],[35.5,23.14108],[36,23.11732],[36.5,23.08855],[37,23.05479],[37.5,23.01603],[38,22.97229],[38.5,22.92356],[39,22.86985],[39.5,22.81119],[40,22.74758],[40.5,22.67903],[41,22.60558],[41.5,22.52723],[42,22.44401],[42.5,22.35594],[43,22.26306],[43.5,22.16539],[44,22.06297],[44.5,21.95582],[45,21.84399],[45.5,21.72752],[46,21.60644],[46.5,21.48081],[47,21.35066],[47.5,21.21606],[48,21.07705],[48.5,20.93368],[49,20.78602],[49.5,20.63411],[50,20.47804],[50.5,20.31785],[51,20.15362],[51.5,19.98542],[52,19.81331],[52.5,19.63738],[53,19.45769],[53.5,19.27432],[54,19.08736],[54.5,18.89688],[55,18.70297],[55.5,18.50572],[56,18.3052],[56.5,18.10152],[57,17.89475],[57.5,17.68499],[58,17.47233],[58.5,17.25687],[59,17.03869],[59.5,16.81789],[60,16.59457],[60.5,16.36882],[61,16.14073],[61.5,15.91041],[62,15.67794],[62.5,15.44342],[63,15.20696],[63.5,14.96863],[64,14.72854],[64.5,14.48678],[65,14.24344],[65.5,13.99862],[66,13.7524],[66.5,13.50488],[67,13.25614],[67.5,13.00627],[68,12.75536],[68.5,12.50349],[69,12.25075],[69.5,11.99721],[70,11.74296],[70.5,11.48807],[71,11.23263],[71.5,10.9767],[72,10.72036],[72.5,10.46368],[73,10.20673],[73.5,9.94957],[74,9.69228],[74.5,9.43491],[75,9.17752],[75.5,8.92019],[76,8.66296],[76.5,8.40589],[77,8.14903],[77.5,7.89244],[78,7.63617],[78.5,7.38027],[79,7.12477],[79.5,6.86974],[80,6.61521],[80.5,6.36122],[81,6.10781],[81.5,5.85502],[82,5.6029],[82.5,5.35146],[83,5.10075],[83.5,4.8508],[84,4.60165],[84.5,4.35331],[85,4.10581],[85.5,3.8592],[86,3.61348],[86.5,3.36868],[87,3.12484],[87.5,2.88196],[88,2.64006],[88.5,2.39918],[89,2.15933],[89.5,1.92051],[90,1.68276],[90.5,1.44609],[91,1.21051],[91.5,0.97603],[92,0.74267],[92.5,0.51044],[93,0.27935],[93.5,0.04941],[94,-0.17936],[94.5,-0.40697],[95,-0.63339],[95.5,-0.85863],[96,-1.08268],[96.5,-1.30552],[97,-1.52716],[97.5,-1.74758],[97.8457,-1.89927]]}},{"type":"Feature","id":"+09130607:center:0","properties":{"id":"+09130607","year":913,"month":6,"day":7,"time_tdt":"10:09:57","type":"개기일식","type_code":"T","saros":100,"gamma":-0.01344,"magnitude":1.03542,"greatest":{"lat":22.602,"lng":35.51324},"path_width_km":119.2,"duration":"03m33s","delta_t_seconds":2094.2,"catalog_number":6927,"source":"NASA Five Millennium Canon of Solar Eclipses","source_url":"https://eclipse.gsfc.nasa.gov/SEsearch/SEsearchmap.php?Ecl=%2B09130607","boundary":"center","name":"913-06-07 개기일식"},"geometry":{"type":"LineString","coordinates":[[-27.86228,0.68389],[-27.5,0.83984],[-27,1.057],[-26.5,1.27505],[-26,1.49398],[-25.5,1.71377],[-25,1.93441],[-24.5,2.1559],[-24,2.3782],[-23.5,2.60132],[-23,2.82524],[-22.5,3.04994],[-22,3.27541],[-21.5,3.50162],[-21,3.72856],[-20.5,3.95622],[-20,4.18456],[-19.5,4.41358],[-19,4.64325],[-18.5,4.87355],[-18,5.10446],[-17.5,5.33595],[-17,5.56799],[-16.5,5.80057],[-16,6.03365],[-15.5,6.2672],[-15,6.5012],[-14.5,6.73562],[-14,6.97043],[-13.5,7.20559],[-13,7.44107],[-12.5,7.67683],[-12,7.91284],[-11.5,8.14906],[-11,8.38546],[-10.5,8.62199],[-10,8.85861],[-9.5,9.09528],[-9,9.33195],[-8.5,9.56859],[-8,9.80514],[-7.5,10.04155],[-7,10.27778],[-6.5,10.51378],[-6,10.7495],[-5.5,10.98487],[-5,11.21986],[-4.5,11.45439],[-4,11.68841],[-3.5,11.92187],[-3,12.15471],[-2.5,12.38686],[-2,12.61825],[-1.5,12.84884],[-1,13.07854],[-0.5,13.3073],[0,13.53505],[0.5,13.76171],[1,13.98723],[1.5,14.21151],[2,14.43451],[2.5,14.65613],[3,14.87632],[3.5,15.09498],[4,15.31206],[4.5,15.52746],[5,15.74112],[5.5,15.95296],[6,16.16289],[6.5,16.37084],[7,16.57673],[7.5,16.78049],[8,16.98202],[8.5,17.18126],[9,17.37812],[9.5,17.57252],[10,17.76438],[10.5,17.95363],[11,18.14018],[11.5,18.32395],[12,18.50488],[12.5,18.68287],[13,18.85785],[13.5,19.02975],[14,19.19848],[14.5,19.36398],[15,19.52617],[15.5,19.68498],[16,19.84034],[16.5,19.99216],[17,20.1404],[17.5,20.28497],[18,20.42581],[18.5,20.56285],[19,20.69603],[19.5,20.82529],[20,20.95057],[20.5,21.0718],[21,21.18893],[21.5,21.3019],[22,21.41066],[22.5,21.51515],[23,21.61532],[23.5,21.71112],[24,21.80251],[24.5,21.88943],[25,21.97185],[25.5,22.04972],[26,22.123],[26.5,22.19165],[27,22.25564],[27.5,22.31492],[28,22.36947],[28.5,22.41926],[29,22.46424],[29.5,22.5044],[30,22.53972],[30.5,22.57016],[31,22.5957],[31.5,22.61633],[32,22.63202],[32.5,22.64276],[33,22.64854],[33.5,22.64934],[34,22.64515],[34.5,22.63596],[35,22.62178],[35.5,22.60258],[36,22.57838],[36.5,22.54916],[37,22.51494],[37.5,22.47571],[38,22.43149],[38.5,22.38227],[39,22.32808],[39.5,22.26892],[40,22.20481],[40.5,22.13577],[41,22.06182],[41.5,21.98297],[42,21.89926],[42.5,21.81071],[43,21.71735],[43.5,21.61922],[44,21.51634],[44.5,21.40875],[45,21.2965],[45.5,21.17963],[46,21.05817],[46.5,20.93219],[47,20.80172],[47.5,20.66682],[48,20.52755],[48.5,20.38396],[49,20.23612],[49.5,20.08408],[50,19.92791],[50.5,19.76767],[51,19.60344],[51.5,19.4353],[52,19.2633],[52.5,19.08753],[53,18.90807],[53.5,18.72499],[54,18.53838],[54.5,18.34833],[55,18.15491],[55.5,17.95822],[56,17.75833],[56.5,17.55535],[57,17.34937],[57.5,17.14046],[58,16.92873],[58.5,16.71428],[59,16.49719],[59.5,16.27755],[60,16.05547],[60.5,15.83105],[61,15.60436],[61.5,15.37551],[62,15.1446],[62.5,14.91172],[63,14.67697],[63.5,14.44043],[64,14.2022],[64.5,13.96238],[65,13.72106],[65.5,13.47832],[66,13.23425],[66.5,12.98895],[67,12.7425],[67.5,12.49499],[68,12.2465],[68.5,11.99711],[69,11.7469],[69.5,11.49596],[70,11.24437],[70.5,10.99219],[71,10.7395],[71.5,10.48638],[72,10.23289],[72.5,9.97911],[73,9.7251],[73.5,9.47093],[74,9.21666],[74.5,8.96235],[75,8.70806],[75.5,8.45385],[76,8.19978],[76.5,7.94589],[77,7.69225],[77.5,7.4389],[78,7.18588],[78.5,6.93325],[79,6.68106],[79.5,6.42934],[80,6.17813],[80.5,5.92748],[81,5.67743],[81.5,5.42801],[82,5.17925],[82.5,4.93119],[83,4.68387],[83.5,4.43731],[84,4.19154],[84.5,3.94659],[85,3.70249],[85.5,3.45926],[86,3.21693],[86.5,2.97552],[87,2.73505],[87.5,2.49555],[88,2.25703],[88.5,2.0195],[89,1.783],[89.5,1.54753],[90,1.31312],[90.5,1.07977],[91,0.8475],[91.5,0.61632],[92,0.38625],[92.5,0.15729],[93,-0.07054],[93.5,-0.29723],[94,-0.52278],[94.5,-0.74716],[95,-0.97039],[95.5,-1.19245],[96,-1.41332],[96.5,-1.63302],[97,-1.85152],[97.5,-2.06883],[97.71153,-2.16078]]}},{"type":"Feature","id":"+09130607:south:0","properties":{"id":"+09130607","year":913,"month":6,"day":7,"time_tdt":"10:09:57","type":"개기일식","type_code":"T","saros":100,"gamma":-0.01344,"magnitude":1.03542,"greatest":{"lat":22.602,"lng":35.51324},"path_width_km":119.2,"duration":"03m33s","delta_t_seconds":2094.2,"catalog_number":6927,"source":"NASA Five Millennium Canon of Solar Eclipses","source_url":"https://eclipse.gsfc.nasa.gov/SEsearch/SEsearchmap.php?Ecl=%2B09130607","boundary":"south","name":"913-06-07 개기일식"},"geometry":{"type":"LineString","coordinates":[[-27.73633,0.44434],[-27.5,0.54526],[-27,0.75942],[-26.5,0.97446],[-26,1.19036],[-25.5,1.40711],[-25,1.62469],[-24.5,1.8431],[-24,2.06232],[-23.5,2.28235],[-23,2.50315],[-22.5,2.72473],[-22,2.94706],[-21.5,3.17013],[-21,3.39391],[-20.5,3.6184],[-20,3.84357],[-19.5,4.06941],[-19,4.29589],[-18.5,4.52299],[-18,4.7507],[-17.5,4.97898],[-17,5.20781],[-16.5,5.43717],[-16,5.66703],[-15.5,5.89737],[-15,6.12815],[-14.5,6.35935],[-14,6.59094],[-13.5,6.82288],[-13,7.05515],[-12.5,7.28771],[-12,7.52052],[-11.5,7.75355],[-11,7.98676],[-10.5,8.22012],[-10,8.45358],[-9.5,8.6871],[-9,8.92064],[-8.5,9.15415],[-8,9.3876],[-7.5,9.62094],[-7,9.85411],[-6.5,10.08706],[-6,10.31976],[-5.5,10.55214],[-5,10.78416],[-4.5,11.01575],[-4,11.24686],[-3.5,11.47745],[-3,11.70743],[-2.5,11.93677],[-2,12.16539],[-1.5,12.39323],[-1,12.62023],[-0.5,12.84633],[0,13.07146],[0.5,13.29554],[1,13.51852],[1.5,13.74032],[2,13.96088],[2.5,14.18011],[3,14.39795],[3.5,14.61432],[4,14.82915],[4.5,15.04237],[5,15.25389],[5.5,15.46365],[6,15.67155],[6.5,15.87754],[7,16.08151],[7.5,16.28341],[8,16.48314],[8.5,16.68064],[9,16.87581],[9.5,17.06858],[10,17.25887],[10.5,17.4466],[11,17.63169],[11.5,17.81407],[12,17.99364],[12.5,18.17034],[13,18.34409],[13.5,18.5148],[14,18.68241],[14.5,18.84683],[15,19.00799],[15.5,19.16582],[16,19.32024],[16.5,19.47119],[17,19.61858],[17.5,19.76235],[18,19.90243],[18.5,20.03876],[19,20.17126],[19.5,20.29987],[20,20.42454],[20.5,20.54519],[21,20.66177],[21.5,20.77422],[22,20.88248],[22.5,20.9865],[23,21.08622],[23.5,21.18159],[24,21.27256],[24.5,21.35909],[25,21.44112],[25.5,21.51862],[26,21.59153],[26.5,21.65983],[27,21.72346],[27.5,21.7824],[28,21.8366],[28.5,21.88604],[29,21.93068],[29.5,21.9705],[30,22.00546],[30.5,22.03554],[31,22.06073],[31.5,22.08099],[32,22.09631],[32.5,22.10667],[33,22.11206],[33.5,22.11246],[34,22.10786],[34.5,22.09826],[35,22.08365],[35.5,22.06402],[36,22.03937],[36.5,22.0097],[37,21.97502],[37.5,21.93532],[38,21.89063],[38.5,21.84094],[39,21.78626],[39.5,21.72662],[40,21.66203],[40.5,21.5925],[41,21.51807],[41.5,21.43874],[42,21.35456],[42.5,21.26555],[43,21.17173],[43.5,21.07316],[44,20.96985],[44.5,20.86186],[45,20.74922],[45.5,20.63198],[46,20.51018],[46.5,20.38389],[47,20.25313],[47.5,20.11799],[48,19.9785],[48.5,19.83474],[49,19.68676],[49.5,19.53463],[50,19.37842],[50.5,19.21819],[51,19.05402],[51.5,18.88598],[52,18.71416],[52.5,18.53862],[53,18.35944],[53.5,18.17672],[54,17.99053],[54.5,17.80096],[55,17.6081],[55.5,17.41203],[56,17.21285],[56.5,17.01064],[57,16.80549],[57.5,16.59751],[58,16.38678],[58.5,16.1734],[59,15.95746],[59.5,15.73905],[60,15.51828],[60.5,15.29523],[61,15.07001],[61.5,14.84271],[62,14.61341],[62.5,14.38222],[63,14.14923],[63.5,13.91454],[64,13.67823],[64.5,13.44039],[65,13.20112],[65.5,12.96051],[66,12.71864],[66.5,12.4756],[67,12.23148],[67.5,11.98636],[68,11.74032],[68.5,11.49344],[69,11.2458],[69.5,10.99749],[70,10.74857],[70.5,10.49911],[71,10.24921],[71.5,9.99891],[72,9.74829],[72.5,9.49742],[73,9.24637],[73.5,8.99519],[74,8.74394],[74.5,8.4927],[75,8.2415],[75.5,7.99042],[76,7.7395],[76.5,7.48879],[77,7.23835],[77.5,6.98822],[78,6.73846],[78.5,6.4891],[79,6.24018],[79.5,5.99176],[80,5.74386],[80.5,5.49654],[81,5.24982],[81.5,5.00374],[82,4.75833],[82.5,4.51363],[83,4.26966],[83.5,4.02647],[84,3.78406],[84.5,3.54248],[85,3.30174],[85.5,3.06188],[86,2.82291],[86.5,2.58485],[87,2.34774],[87.5,2.11158],[88,1.87639],[88.5,1.6422],[89,1.40902],[89.5,1.17687],[90,0.94575],[90.5,0.71569],[91,0.4867],[91.5,0.25879],[92,0.03198],[92.5,-0.19374],[93,-0.41834],[93.5,-0.64181],[94,-0.86416],[94.5,-1.08536],[95,-1.30542],[95.5,-1.52432],[96,-1.74206],[96.5,-1.95864],[97,-2.17404],[97.5,-2.38826]]}},{"type":"Feature","id":"+09131130:north:0","properties":{"id":"+09131130","year":913,"month":11,"day":30,"time_tdt":"18:50:01","type":"금환일식","type_code":"A","saros":105,"gamma":0.26019,"magnitude":0.98696,"greatest":{"lat":-7.56546,"lng":-95.19342},"path_width_km":47.7,"duration":"01m30s","delta_t_seconds":2091,"catalog_number":6928,"source":"NASA Five Millennium Canon of Solar Eclipses","source_url":"https://eclipse.gsfc.nasa.gov/SEsearch/SEsearchmap.php?Ecl=%2B09131130","boundary":"north","name":"913-11-30 금환일식"},"geometry":{"type":"LineString","coordinates":[[-152.41797,15.55031],[-152,15.3715],[-151.5,15.15657],[-151,14.94053],[-150.5,14.72339],[-150,14.50515],[-149.5,14.28581],[-149,14.06539],[-148.5,13.84389],[-148,13.62131],[-147.5,13.39766],[-147,13.17296],[-146.5,12.94721],[-146,12.72041],[-145.5,12.49259],[-145,12.26374],[-144.5,12.03389],[-144,11.80304],[-143.5,11.57121],[-143,11.33841],[-142.5,11.10465],[-142,10.86996],[-141.5,10.63434],[-141,10.39782],[-140.5,10.16041],[-140,9.92214],[-139.5,9.68302],[-139,9.44308],[-138.5,9.20233],[-138,8.96081],[-137.5,8.71855],[-137,8.47555],[-136.5,8.23187],[-136,7.98752],[-135.5,7.74254],[-135,7.49696],[-134.5,7.25081],[-134,7.00414],[-133.5,6.75697],[-133,6.50936],[-132.5,6.26134],[-132,6.01296],[-131.5,5.76426],[-131,5.51529],[-130.5,5.2661],[-130,5.01674],[-129.5,4.76727],[-129,4.51774],[-128.5,4.26822],[-128,4.01877],[-127.5,3.76944],[-127,3.5203],[-126.5,3.27143],[-126,3.0229],[-125.5,2.77478],[-125,2.52714],[-124.5,2.28007],[-124,2.03365],[-123.5,1.78796],[-123,1.5431],[-122.5,1.29914],[-122,1.05619],[-121.5,0.81434],[-121,0.57369],[-120.5,0.33434],[-120,0.0964],[-119.5,-0.14003],[-119,-0.37484],[-118.5,-0.60792],[-118,-0.83915],[-117.5,-1.06842],[-117,-1.29561],[-116.5,-1.52059],[-116,-1.74325],[-115.5,-1.96346],[-115,-2.1811],[-114.5,-2.39603],[-114,-2.60813],[-113.5,-2.81726],[-113,-3.02331],[-112.5,-3.22612],[-112,-3.42558],[-111.5,-3.62155],[-111,-3.81389],[-110.5,-4.00248],[-110,-4.18717],[-109.5,-4.36785],[-109,-4.54438],[-108.5,-4.71663],[-108,-4.88447],[-107.5,-5.04777],[-107,-5.20642],[-106.5,-5.36029],[-106,-5.50926],[-105.5,-5.65322],[-105,-5.79205],[-104.5,-5.92565],[-104,-6.0539],[-103.5,-6.17672],[-103,-6.29399],[-102.5,-6.40562],[-102,-6.51153],[-101.5,-6.61164],[-101,-6.70586],[-100.5,-6.79412],[-100,-6.87635],[-99.5,-6.9525],[-99,-7.02249],[-98.5,-7.08629],[-98,-7.14384],[-97.5,-7.1951],[-97,-7.24005],[-96.5,-7.27864],[-96,-7.31087],[-95.5,-7.33672],[-95,-7.35617],[-94.5,-7.36922],[-94,-7.37587],[-93.5,-7.37614],[-93,-7.37004],[-92.5,-7.35758],[-92,-7.33879],[-91.5,-7.31371],[-91,-7.28237],[-90.5,-7.24482],[-90,-7.2011],[-89.5,-7.15127],[-89,-7.09538],[-88.5,-7.0335],[-88,-6.96569],[-87.5,-6.89204],[-87,-6.81261],[-86.5,-6.72749],[-86,-6.63677],[-85.5,-6.54052],[-85,-6.43885],[-84.5,-6.33186],[-84,-6.21963],[-83.5,-6.10227],[-83,-5.9799],[-82.5,-5.85261],[-82,-5.72051],[-81.5,-5.58372],[-81,-5.44234],[-80.5,-5.29651],[-80,-5.14632],[-79.5,-4.9919],[-79,-4.83337],[-78.5,-4.67085],[-78,-4.50445],[-77.5,-4.33429],[-77,-4.1605],[-76.5,-3.9832],[-76,-3.8025],[-75.5,-3.61853],[-75,-3.4314],[-74.5,-3.24123],[-74,-3.04814],[-73.5,-2.85224],[-73,-2.65365],[-72.5,-2.45248],[-72,-2.24884],[-71.5,-2.04285],[-71,-1.83461],[-70.5,-1.62423],[-70,-1.41181],[-69.5,-1.19745],[-69,-0.98127],[-68.5,-0.76335],[-68,-0.5438],[-67.5,-0.32271],[-67,-0.10017],[-66.5,0.12373],[-66,0.3489],[-65.5,0.57526],[-65,0.80271],[-64.5,1.03118],[-64,1.26059],[-63.5,1.49086],[-63,1.72192],[-62.5,1.95369],[-62,2.1861],[-61.5,2.41909],[-61,2.65259],[-60.5,2.88654],[-60,3.12086],[-59.5,3.35551],[-59,3.59043],[-58.5,3.82555],[-58,4.06083],[-57.5,4.29622],[-57,4.53165],[-56.5,4.76709],[-56,5.00249],[-55.5,5.23781],[-55,5.47299],[-54.5,5.708],[-54,5.9428],[-53.5,6.17735],[-53,6.41161],[-52.5,6.64556],[-52,6.87914],[-51.5,7.11234],[-51,7.34512],[-50.5,7.57745],[-50,7.8093],[-49.5,8.04064],[-49,8.27145],[-48.5,8.50171],[-48,8.73138],[-47.5,8.96045],[-47,9.1889],[-46.5,9.4167],[-46,9.64383],[-45.5,9.87027],[-45,10.09601],[-44.5,10.32103],[-44,10.54532],[-43.5,10.76884],[-43,10.9916],[-42.5,11.21358],[-42,11.43476],[-41.5,11.65513],[-41,11.87468],[-40.5,12.0934],[-40,12.31127],[-39.5,12.52829],[-39,12.74444],[-38.5,12.95972],[-38,13.17412],[-37.625,13.33434]]}},{"type":"Feature","id":"+09131130:center:0","properties":{"id":"+09131130","year":913,"month":11,"day":30,"time_tdt":"18:50:01","type":"금환일식","type_code":"A","saros":105,"gamma":0.26019,"magnitude":0.98696,"greatest":{"lat":-7.56546,"lng":-95.19342},"path_width_km":47.7,"duration":"01m30s","delta_t_seconds":2091,"catalog_number":6928,"source":"NASA Five Millennium Canon of Solar Eclipses","source_url":"https://eclipse.gsfc.nasa.gov/SEsearch/SEsearchmap.php?Ecl=%2B09131130","boundary":"center","name":"913-11-30 금환일식"},"geometry":{"type":"LineString","coordinates":[[-152.58489,15.12381],[-152.5,15.08506],[-152,14.87368],[-151.5,14.66121],[-151,14.44765],[-150.5,14.233],[-150,14.01727],[-149.5,13.80046],[-149,13.58258],[-148.5,13.36363],[-148,13.14363],[-147.5,12.92258],[-147,12.70049],[-146.5,12.47737],[-146,12.25322],[-145.5,12.02806],[-145,11.80189],[-144.5,11.57474],[-144,11.3466],[-143.5,11.1175],[-143,10.88745],[-142.5,10.65646],[-142,10.42455],[-141.5,10.19173],[-141,9.95802],[-140.5,9.72345],[-140,9.48803],[-139.5,9.25177],[-139,9.01471],[-138.5,8.77687],[-138,8.53827],[-137.5,8.29893],[-137,8.05889],[-136.5,7.81817],[-136,7.5768],[-135.5,7.33481],[-135,7.09224],[-134.5,6.84912],[-134,6.60548],[-133.5,6.36138],[-133,6.11683],[-132.5,5.87189],[-132,5.6266],[-131.5,5.381],[-131,5.13515],[-130.5,4.88909],[-130,4.64287],[-129.5,4.39655],[-129,4.15018],[-128.5,3.90383],[-128,3.65754],[-127.5,3.4114],[-127,3.16545],[-126.5,2.91977],[-126,2.67443],[-125.5,2.42951],[-125,2.18507],[-124.5,1.9412],[-124,1.69798],[-123.5,1.45549],[-123,1.21382],[-122.5,0.97306],[-122,0.73329],[-121.5,0.49462],[-121,0.25714],[-120.5,0.02095],[-120,-0.21385],[-119.5,-0.44715],[-119,-0.67884],[-118.5,-0.90882],[-118,-1.13698],[-117.5,-1.36319],[-117,-1.58735],[-116.5,-1.80933],[-116,-2.02902],[-115.5,-2.24628],[-115,-2.461],[-114.5,-2.67306],[-114,-2.88232],[-113.5,-3.08865],[-113,-3.29194],[-112.5,-3.49204],[-112,-3.68883],[-111.5,-3.88218],[-111,-4.07196],[-110.5,-4.25804],[-110,-4.44028],[-109.5,-4.61856],[-109,-4.79276],[-108.5,-4.96274],[-108,-5.12837],[-107.5,-5.28954],[-107,-5.44613],[-106.5,-5.59801],[-106,-5.74507],[-105.5,-5.88719],[-105,-6.02426],[-104.5,-6.15618],[-104,-6.28284],[-103.5,-6.40415],[-103,-6.51999],[-102.5,-6.6303],[-102,-6.73497],[-101.5,-6.83392],[-101,-6.92708],[-100.5,-7.01438],[-100,-7.09574],[-99.5,-7.17111],[-99,-7.24043],[-98.5,-7.30365],[-98,-7.36072],[-97.5,-7.4116],[-97,-7.45627],[-96.5,-7.49469],[-96,-7.52684],[-95.5,-7.5527],[-95,-7.57227],[-94.5,-7.58555],[-94,-7.59253],[-93.5,-7.59322],[-93,-7.58764],[-92.5,-7.5758],[-92,-7.55774],[-91.5,-7.53348],[-91,-7.50306],[-90.5,-7.46653],[-90,-7.42392],[-89.5,-7.37529],[-89,-7.3207],[-88.5,-7.26021],[-88,-7.19389],[-87.5,-7.12181],[-87,-7.04404],[-86.5,-6.96067],[-86,-6.87178],[-85.5,-6.77745],[-85,-6.67777],[-84.5,-6.57285],[-84,-6.46277],[-83.5,-6.34765],[-83,-6.22757],[-82.5,-6.10265],[-82,-5.97299],[-81.5,-5.8387],[-81,-5.6999],[-80.5,-5.55669],[-80,-5.40919],[-79.5,-5.25752],[-79,-5.10179],[-78.5,-4.94212],[-78,-4.77862],[-77.5,-4.61142],[-77,-4.44063],[-76.5,-4.26636],[-76,-4.08874],[-75.5,-3.90789],[-75,-3.72391],[-74.5,-3.53692],[-74,-3.34705],[-73.5,-3.15439],[-73,-2.95908],[-72.5,-2.7612],[-72,-2.56088],[-71.5,-2.35823],[-71,-2.15335],[-70.5,-1.94634],[-70,-1.7373],[-69.5,-1.52635],[-69,-1.31358],[-68.5,-1.09908],[-68,-0.88296],[-67.5,-0.66529],[-67,-0.44619],[-66.5,-0.22573],[-66,-0.004],[-65.5,0.21891],[-65,0.44293],[-64.5,0.66796],[-64,0.89394],[-63.5,1.12079],[-63,1.34842],[-62.5,1.57678],[-62,1.80579],[-61.5,2.03539],[-61,2.2655],[-60.5,2.49607],[-60,2.72704],[-59.5,2.95834],[-59,3.18992],[-58.5,3.42172],[-58,3.65369],[-57.5,3.88578],[-57,4.11794],[-56.5,4.35013],[-56,4.58228],[-55.5,4.81437],[-55,5.04634],[-54.5,5.27816],[-54,5.50978],[-53.5,5.74118],[-53,5.97231],[-52.5,6.20313],[-52,6.43362],[-51.5,6.66374],[-51,6.89346],[-50.5,7.12275],[-50,7.35158],[-49.5,7.57992],[-49,7.80775],[-48.5,8.03505],[-48,8.26179],[-47.5,8.48794],[-47,8.71348],[-46.5,8.9384],[-46,9.16268],[-45.5,9.38629],[-45,9.60921],[-44.5,9.83143],[-44,10.05294],[-43.5,10.27371],[-43,10.49373],[-42.5,10.71299],[-42,10.93148],[-41.5,11.14917],[-41,11.36607],[-40.5,11.58215],[-40,11.7974],[-39.5,12.01183],[-39,12.22541],[-38.5,12.43813],[-38,12.64999],[-37.5,12.86098],[-37.44728,12.88371]]}},{"type":"Feature","id":"+09131130:south:0","properties":{"id":"+09131130","year":913,"month":11,"day":30,"time_tdt":"18:50:01","type":"금환일식","type_code":"A","saros":105,"gamma":0.26019,"magnitude":0.98696,"greatest":{"lat":-7.56546,"lng":-95.19342},"path_width_km":47.7,"duration":"01m30s","delta_t_seconds":2091,"catalog_number":6928,"source":"NASA Five Millennium Canon of Solar Eclipses","source_url":"https://eclipse.gsfc.nasa.gov/SEsearch/SEsearchmap.php?Ecl=%2B09131130","boundary":"south","name":"913-11-30 금환일식"},"geometry":{"type":"LineString","coordinates":[[-152.76367,14.69685],[-152.5,14.5871],[-152,14.37817],[-151.5,14.16816],[-151,13.95708],[-150.5,13.74492],[-150,13.5317],[-149.5,13.31741],[-149,13.10208],[-148.5,12.88569],[-148,12.66827],[-147.5,12.44981],[-147,12.23033],[-146.5,12.00983],[-146,11.78833],[-145.5,11.56583],[-145,11.34234],[-144.5,11.11788],[-144,10.89245],[-143.5,10.66608],[-143,10.43877],[-142.5,10.21055],[-142,9.98141],[-141.5,9.75139],[-141,9.5205],[-140.5,9.28875],[-140,9.05618],[-139.5,8.82278],[-139,8.5886],[-138.5,8.35366],[-138,8.11796],[-137.5,7.88155],[-137,7.64445],[-136.5,7.40669],[-136,7.16829],[-135.5,6.92929],[-135,6.68972],[-134.5,6.44961],[-134,6.20901],[-133.5,5.96794],[-133,5.72645],[-132.5,5.48458],[-132,5.24238],[-131.5,4.99987],[-131,4.75712],[-130.5,4.51418],[-130,4.27109],[-129.5,4.0279],[-129,3.78468],[-128.5,3.54147],[-128,3.29835],[-127.5,3.05536],[-127,2.81259],[-126.5,2.57008],[-126,2.32792],[-125.5,2.08618],[-125,1.84493],[-124.5,1.60424],[-124,1.3642],[-123.5,1.12489],[-123,0.88639],[-122.5,0.6488],[-122,0.4122],[-121.5,0.17668],[-121,-0.05765],[-120.5,-0.29071],[-120,-0.52238],[-119.5,-0.75258],[-119,-0.98118],[-118.5,-1.20809],[-118,-1.4332],[-117.5,-1.65638],[-117,-1.87753],[-116.5,-2.09653],[-116,-2.31327],[-115.5,-2.52761],[-115,-2.73945],[-114.5,-2.94865],[-114,-3.1551],[-113.5,-3.35866],[-113,-3.55921],[-112.5,-3.75663],[-112,-3.95078],[-111.5,-4.14154],[-111,-4.32878],[-110.5,-4.51237],[-110,-4.69218],[-109.5,-4.8681],[-109,-5.03998],[-108.5,-5.20772],[-108,-5.37118],[-107.5,-5.53024],[-107,-5.68478],[-106.5,-5.8347],[-106,-5.97986],[-105.5,-6.12016],[-105,-6.2555],[-104.5,-6.38576],[-104,-6.51085],[-103.5,-6.63066],[-103,-6.74511],[-102.5,-6.85409],[-102,-6.95753],[-101.5,-7.05535],[-101,-7.14747],[-100.5,-7.23381],[-100,-7.31432],[-99.5,-7.38892],[-99,-7.45757],[-98.5,-7.52022],[-98,-7.57682],[-97.5,-7.62733],[-97,-7.67172],[-96.5,-7.70996],[-96,-7.74203],[-95.5,-7.76792],[-95,-7.78762],[-94.5,-7.80111],[-94,-7.80841],[-93.5,-7.80953],[-93,-7.80446],[-92.5,-7.79325],[-92,-7.7759],[-91.5,-7.75246],[-91,-7.72295],[-90.5,-7.68742],[-90,-7.64591],[-89.5,-7.59847],[-89,-7.54517],[-88.5,-7.48606],[-88,-7.42121],[-87.5,-7.35068],[-87,-7.27456],[-86.5,-7.19291],[-86,-7.10583],[-85.5,-7.0134],[-85,-6.9157],[-84.5,-6.81282],[-84,-6.70488],[-83.5,-6.59195],[-83,-6.47415],[-82.5,-6.35157],[-82,-6.22433],[-81.5,-6.09252],[-81,-5.95626],[-80.5,-5.81566],[-80,-5.67082],[-79.5,-5.52187],[-79,-5.36891],[-78.5,-5.21207],[-78,-5.05145],[-77.5,-4.88717],[-77,-4.71934],[-76.5,-4.54809],[-76,-4.37352],[-75.5,-4.19575],[-75,-4.01489],[-74.5,-3.83107],[-74,-3.64438],[-73.5,-3.45494],[-73,-3.26287],[-72.5,-3.06826],[-72,-2.87124],[-71.5,-2.6719],[-71,-2.47034],[-70.5,-2.26668],[-70,-2.06101],[-69.5,-1.85343],[-69,-1.64405],[-68.5,-1.43294],[-68,-1.22022],[-67.5,-1.00597],[-67,-0.79028],[-66.5,-0.57324],[-66,-0.35492],[-65.5,-0.13543],[-65,0.08517],[-64.5,0.30678],[-64,0.52935],[-63.5,0.75279],[-63,0.97702],[-62.5,1.20199],[-62,1.42761],[-61.5,1.65383],[-61,1.88057],[-60.5,2.10778],[-60,2.3354],[-59.5,2.56337],[-59,2.79162],[-58.5,3.02012],[-58,3.24879],[-57.5,3.4776],[-57,3.7065],[-56.5,3.93543],[-56,4.16435],[-55.5,4.39322],[-55,4.62199],[-54.5,4.85063],[-54,5.07909],[-53.5,5.30734],[-53,5.53533],[-52.5,5.76305],[-52,5.99044],[-51.5,6.21749],[-51,6.44415],[-50.5,6.67041],[-50,6.89622],[-49.5,7.12157],[-49,7.34643],[-48.5,7.57077],[-48,7.79457],[-47.5,8.01781],[-47,8.24046],[-46.5,8.4625],[-46,8.68392],[-45.5,8.90469],[-45,9.1248],[-44.5,9.34422],[-44,9.56295],[-43.5,9.78097],[-43,9.99826],[-42.5,10.2148],[-42,10.43059],[-41.5,10.64561],[-41,10.85985],[-40.5,11.07329],[-40,11.28593],[-39.5,11.49776],[-39,11.70876],[-38.5,11.91892],[-38,12.12825],[-37.5,12.33672],[-37.26758,12.43333]]}}],"attribution":"Eclipse Predictions by Fred Espenak and Jean Meeus (NASA's GSFC)","generated_at":"2026-09-23T01:44:58.631Z"}
