{"type":"FeatureCollection","year":919,"events":[{"id":"+09190203","year":919,"month":2,"day":3,"time_tdt":"16:00:53","type":"개기일식","type_code":"T","saros":84,"gamma":0.99087,"magnitude":1.00203,"greatest":{"lat":65.18217,"lng":-78.87439},"path_width_km":62.3,"duration":"00m09s","delta_t_seconds":2056.3,"catalog_number":6939,"source":"NASA Five Millennium Canon of Solar Eclipses","source_url":"https://eclipse.gsfc.nasa.gov/SEsearch/SEsearchmap.php?Ecl=%2B09190203"},{"id":"+09190729","year":919,"month":7,"day":29,"time_tdt":"19:44:05","type":"부분일식","type_code":"P","saros":89,"gamma":-1.04367,"magnitude":0.91121,"greatest":{"lat":-69.56637,"lng":-136.79138},"path_width_km":0,"duration":"00m00s","delta_t_seconds":2053.1,"catalog_number":6940,"source":"NASA Five Millennium Canon of Solar Eclipses","source_url":"https://eclipse.gsfc.nasa.gov/SEsearch/SEsearchmap.php?Ecl=%2B09190729"}],"features":[{"type":"Feature","id":"+09190203:north:0","properties":{"id":"+09190203","year":919,"month":2,"day":3,"time_tdt":"16:00:53","type":"개기일식","type_code":"T","saros":84,"gamma":0.99087,"magnitude":1.00203,"greatest":{"lat":65.18217,"lng":-78.87439},"path_width_km":62.3,"duration":"00m09s","delta_t_seconds":2056.3,"catalog_number":6939,"source":"NASA Five Millennium Canon of Solar Eclipses","source_url":"https://eclipse.gsfc.nasa.gov/SEsearch/SEsearchmap.php?Ecl=%2B09190203","boundary":"north","name":"919-02-03 개기일식"},"geometry":{"type":"LineString","coordinates":[[-97.70703,65.86206],[-97.5,65.79825],[-97,65.64976],[-96.5,65.50907],[-96,65.376],[-95.5,65.2504],[-95,65.13218],[-94.5,65.02124],[-94,64.91753],[-93.5,64.821],[-93,64.73162],[-92.5,64.64939],[-92,64.57431],[-91.5,64.50642],[-91,64.44573],[-90.5,64.39231],[-90,64.34622],[-89.5,64.30753],[-89,64.27632],[-88.5,64.25269],[-88,64.23676],[-87.5,64.22865],[-87,64.2285],[-86.5,64.23646],[-86,64.25269],[-85.5,64.27738],[-85,64.31073],[-84.5,64.35295],[-84,64.40429],[-83.5,64.46502],[-83,64.53543],[-82.5,64.61583],[-82,64.7066],[-81.5,64.80814],[-81,64.9209],[-80.5,65.0454],[-80,65.18224],[-79.5,65.3321],[-79,65.49579],[-78.5,65.67426],[-78,65.86866],[-77.5,66.08037],[-77,66.31115],[-76.5,66.56322],[-76,66.83951],[-75.5,67.144],[-75,67.4824],[-74.5,67.86334],[-74,68.3012],[-73.5,68.82352],[-73,69.499],[-72.5,71.60183],[-73,72.74613],[-73.5,73.30642],[-73.875,73.6249]]}},{"type":"Feature","id":"+09190203:center:0","properties":{"id":"+09190203","year":919,"month":2,"day":3,"time_tdt":"16:00:53","type":"개기일식","type_code":"T","saros":84,"gamma":0.99087,"magnitude":1.00203,"greatest":{"lat":65.18217,"lng":-78.87439},"path_width_km":62.3,"duration":"00m09s","delta_t_seconds":2056.3,"catalog_number":6939,"source":"NASA Five Millennium Canon of Solar Eclipses","source_url":"https://eclipse.gsfc.nasa.gov/SEsearch/SEsearchmap.php?Ecl=%2B09190203","boundary":"center","name":"919-02-03 개기일식"},"geometry":{"type":"LineString","coordinates":[[-97.96842,65.62243],[-97.5,65.78686],[-97,65.62644],[-96.5,65.47428],[-96,65.33013],[-95.5,65.19381],[-95,65.06518],[-94.5,64.9441],[-94,64.8305],[-93.5,64.72429],[-93,64.62543],[-92.5,64.53389],[-92,64.44965],[-91.5,64.37273],[-91,64.30315],[-90.5,64.24093],[-90,64.18613],[-89.5,64.13881],[-89,64.09904],[-88.5,64.06691],[-88,64.04253],[-87.5,64.026],[-87,64.01745],[-86.5,64.01702],[-86,64.02488],[-85.5,64.04118],[-85,64.06612],[-84.5,64.09991],[-84,64.14276],[-83.5,64.19493],[-83,64.2567],[-82.5,64.32837],[-82,64.41027],[-81.5,64.50278],[-81,64.60632],[-80.5,64.72137],[-80,64.84847],[-79.5,64.98825],[-79,65.14142],[-78.5,65.30884],[-78,65.49151],[-77.5,65.69065],[-77,65.90776],[-76.5,66.14472],[-76,66.40393],[-75.5,66.68861],[-75,67.00316],[-74.5,67.35399],[-74,67.75105],[-73.5,68.2114],[-73,68.76964],[-72.5,69.5237],[-72.5,72.33808],[-73,72.97512],[-73.5,73.42196],[-70.40841,74.06666]]}},{"type":"Feature","id":"+09190203:south:0","properties":{"id":"+09190203","year":919,"month":2,"day":3,"time_tdt":"16:00:53","type":"개기일식","type_code":"T","saros":84,"gamma":0.99087,"magnitude":1.00203,"greatest":{"lat":65.18217,"lng":-78.87439},"path_width_km":62.3,"duration":"00m09s","delta_t_seconds":2056.3,"catalog_number":6939,"source":"NASA Five Millennium Canon of Solar Eclipses","source_url":"https://eclipse.gsfc.nasa.gov/SEsearch/SEsearchmap.php?Ecl=%2B09190203","boundary":"south","name":"919-02-03 개기일식"},"geometry":{"type":"LineString","coordinates":[[-97.4375,65.75288],[-97,65.60215],[-97.5,65.77498],[-96.5,65.43811],[-96,65.28254],[-95.5,65.1352],[-95,64.99589],[-94.5,64.86445],[-94,64.74075],[-93.5,64.62468],[-93,64.51618],[-92.5,64.41518],[-92,64.32165],[-91.5,64.23559],[-91,64.15699],[-90.5,64.08587],[-90,64.02227],[-89.5,63.96623],[-89,63.91782],[-88.5,63.87711],[-88,63.84419],[-87.5,63.81917],[-87,63.80215],[-86.5,63.79328],[-86,63.79269],[-85.5,63.80054],[-85,63.81701],[-84.5,63.84229],[-84,63.8766],[-83.5,63.92016],[-83,63.97324],[-82.5,64.03611],[-82,64.1091],[-81.5,64.19255],[-81,64.28684],[-80.5,64.39242],[-80,64.50979],[-79.5,64.6395],[-79,64.78221],[-78.5,64.93867],[-78,65.10977],[-77.5,65.29659],[-77,65.50039],[-76.5,65.72278],[-76,65.96576],[-75.5,66.23192],[-75,66.52473],[-74.5,66.84904],[-74,67.21195],[-73.5,67.62475],[-73,68.10742],[-72.5,68.70279],[-72,69.5514],[-72.5,72.65616],[-73,73.13826],[-73.5,73.5134]]}}],"attribution":"Eclipse Predictions by Fred Espenak and Jean Meeus (NASA's GSFC)","generated_at":"2026-09-23T01:44:58.837Z"}
