{"type":"FeatureCollection","year":921,"events":[{"id":"+09210112","year":921,"month":1,"day":12,"time_tdt":"03:02:26","type":"금환일식","type_code":"A","saros":104,"gamma":-0.39249,"magnitude":0.92074,"greatest":{"lat":-44.03128,"lng":149.07123},"path_width_km":326.6,"duration":"08m51s","delta_t_seconds":2043.4,"catalog_number":6943,"source":"NASA Five Millennium Canon of Solar Eclipses","source_url":"https://eclipse.gsfc.nasa.gov/SEsearch/SEsearchmap.php?Ecl=%2B09210112"},{"id":"+09210708","year":921,"month":7,"day":8,"time_tdt":"01:55:03","type":"개기일식","type_code":"T","saros":109,"gamma":0.4862,"magnitude":1.0765,"greatest":{"lat":51.40604,"lng":162.70703},"path_width_km":284,"duration":"05m32s","delta_t_seconds":2040.2,"catalog_number":6944,"source":"NASA Five Millennium Canon of Solar Eclipses","source_url":"https://eclipse.gsfc.nasa.gov/SEsearch/SEsearchmap.php?Ecl=%2B09210708"}],"features":[{"type":"Feature","id":"+09210112:north:0","properties":{"id":"+09210112","year":921,"month":1,"day":12,"time_tdt":"03:02:26","type":"금환일식","type_code":"A","saros":104,"gamma":-0.39249,"magnitude":0.92074,"greatest":{"lat":-44.03128,"lng":149.07123},"path_width_km":326.6,"duration":"08m51s","delta_t_seconds":2043.4,"catalog_number":6943,"source":"NASA Five Millennium Canon of Solar Eclipses","source_url":"https://eclipse.gsfc.nasa.gov/SEsearch/SEsearchmap.php?Ecl=%2B09210112","boundary":"north","name":"921-01-12 금환일식"},"geometry":{"type":"LineString","coordinates":[[73.54102,-25.15737],[74,-25.33885],[74.5,-25.53696],[75,-25.7355],[75.5,-25.93443],[76,-26.13375],[76.5,-26.33342],[77,-26.53344],[77.5,-26.73377],[78,-26.9344],[78.5,-27.13531],[79,-27.33646],[79.5,-27.53785],[80,-27.73944],[80.5,-27.9412],[81,-28.14312],[81.5,-28.34517],[82,-28.54732],[82.5,-28.74955],[83,-28.95181],[83.5,-29.1541],[84,-29.35637],[84.5,-29.5586],[85,-29.76076],[85.5,-29.96282],[86,-30.16474],[86.5,-30.36649],[87,-30.56804],[87.5,-30.76936],[88,-30.97041],[88.5,-31.17116],[89,-31.37156],[89.5,-31.5716],[90,-31.77122],[90.5,-31.9704],[91,-32.1691],[91.5,-32.36727],[92,-32.56488],[92.5,-32.76189],[93,-32.95827],[93.5,-33.15397],[94,-33.34896],[94.5,-33.54318],[95,-33.73662],[95.5,-33.92921],[96,-34.12093],[96.5,-34.31172],[97,-34.50156],[97.5,-34.69039],[98,-34.87819],[98.5,-35.06489],[99,-35.25047],[99.5,-35.43488],[100,-35.61809],[100.5,-35.80004],[101,-35.9807],[101.5,-36.16002],[102,-36.33797],[102.5,-36.5145],[103,-36.68958],[103.5,-36.86315],[104,-37.03519],[104.5,-37.20565],[105,-37.37449],[105.5,-37.54167],[106,-37.70716],[106.5,-37.87091],[107,-38.03288],[107.5,-38.19305],[108,-38.35136],[108.5,-38.50779],[109,-38.6623],[109.5,-38.81485],[110,-38.9654],[110.5,-39.11393],[111,-39.2604],[111.5,-39.40477],[112,-39.54702],[112.5,-39.6871],[113,-39.825],[113.5,-39.96067],[114,-40.09409],[114.5,-40.22522],[115,-40.35405],[115.5,-40.48053],[116,-40.60465],[116.5,-40.72637],[117,-40.84567],[117.5,-40.96253],[118,-41.07691],[118.5,-41.18879],[119,-41.29816],[119.5,-41.40497],[120,-41.50922],[120.5,-41.61088],[121,-41.70993],[121.5,-41.80635],[122,-41.9001],[122.5,-41.99119],[123,-42.07958],[123.5,-42.16525],[124,-42.24819],[124.5,-42.32838],[125,-42.4058],[125.5,-42.48043],[126,-42.55226],[126.5,-42.62126],[127,-42.68742],[127.5,-42.75072],[128,-42.81115],[128.5,-42.86869],[129,-42.92333],[129.5,-42.97505],[130,-43.02382],[130.5,-43.06965],[131,-43.11251],[131.5,-43.15239],[132,-43.18927],[132.5,-43.22313],[133,-43.25397],[133.5,-43.28177],[134,-43.30651],[134.5,-43.32818],[135,-43.34676],[135.5,-43.36224],[136,-43.37461],[136.5,-43.38384],[137,-43.38993],[137.5,-43.39286],[138,-43.39261],[138.5,-43.38918],[139,-43.38253],[139.5,-43.37267],[140,-43.35957],[140.5,-43.34322],[141,-43.32361],[141.5,-43.30071],[142,-43.27452],[142.5,-43.24502],[143,-43.21219],[143.5,-43.17601],[144,-43.13648],[144.5,-43.09358],[145,-43.04728],[145.5,-42.99759],[146,-42.94447],[146.5,-42.88792],[147,-42.82792],[147.5,-42.76446],[148,-42.69752],[148.5,-42.62709],[149,-42.55315],[149.5,-42.4757],[150,-42.39471],[150.5,-42.31018],[151,-42.22208],[151.5,-42.13043],[152,-42.03519],[152.5,-41.93636],[153,-41.83393],[153.5,-41.72789],[154,-41.61824],[154.5,-41.50496],[155,-41.38806],[155.5,-41.26752],[156,-41.14334],[156.5,-41.01553],[157,-40.88408],[157.5,-40.74899],[158,-40.61026],[158.5,-40.4679],[159,-40.32191],[159.5,-40.17231],[160,-40.01909],[160.5,-39.86228],[161,-39.70189],[161.5,-39.53793],[162,-39.37042],[162.5,-39.19938],[163,-39.02484],[163.5,-38.84683],[164,-38.66536],[164.5,-38.48048],[165,-38.29222],[165.5,-38.10061],[166,-37.90569],[166.5,-37.70752],[167,-37.50613],[167.5,-37.30157],[168,-37.0939],[168.5,-36.88317],[169,-36.66944],[169.5,-36.45277],[170,-36.23323],[170.5,-36.01088],[171,-35.78579],[171.5,-35.55803],[172,-35.32769],[172.5,-35.09484],[173,-34.85955],[173.5,-34.62192],[174,-34.38203],[174.5,-34.13996],[175,-33.89581],[175.5,-33.64966],[176,-33.4016],[176.5,-33.15174],[177,-32.90017],[177.5,-32.64698],[178,-32.39226],[178.5,-32.13613],[179,-31.87867],[179.5,-31.61998],[180,-31.36016]]}},{"type":"Feature","id":"+09210112:north:1","properties":{"id":"+09210112","year":921,"month":1,"day":12,"time_tdt":"03:02:26","type":"금환일식","type_code":"A","saros":104,"gamma":-0.39249,"magnitude":0.92074,"greatest":{"lat":-44.03128,"lng":149.07123},"path_width_km":326.6,"duration":"08m51s","delta_t_seconds":2043.4,"catalog_number":6943,"source":"NASA Five Millennium Canon of Solar Eclipses","source_url":"https://eclipse.gsfc.nasa.gov/SEsearch/SEsearchmap.php?Ecl=%2B09210112","boundary":"north","name":"921-01-12 금환일식"},"geometry":{"type":"LineString","coordinates":[[-179.5,-31.09932],[-179,-30.83754],[-178.5,-30.57492],[-178,-30.31157],[-177.5,-30.04757],[-177,-29.78302],[-176.5,-29.51802],[-176,-29.25265],[-175.5,-28.98701],[-175,-28.72118],[-174.5,-28.45525],[-174,-28.18931],[-173.5,-27.92344],[-173,-27.65772],[-172.5,-27.39223],[-172,-27.12705],[-171.5,-26.86225],[-171,-26.59789],[-170.5,-26.33406],[-170,-26.07082],[-169.5,-25.80823],[-169,-25.54636],[-168.5,-25.28526],[-168,-25.02499],[-167.5,-24.76561],[-167,-24.50718],[-166.5,-24.24973],[-166,-23.99332],[-165.5,-23.73799],[-165,-23.48379],[-164.5,-23.23076],[-164,-22.97894],[-163.5,-22.72836],[-163,-22.47905],[-162.5,-22.23106],[-162,-21.98441],[-161.5,-21.73913],[-161,-21.49524],[-160.5,-21.25278],[-160,-21.01176],[-159.5,-20.77221],[-159,-20.53415],[-158.5,-20.29759],[-158,-20.06255],[-157.5,-19.82905],[-157,-19.5971],[-156.5,-19.36672],[-156,-19.13791],[-155.5,-18.91069],[-155,-18.68506],[-154.5,-18.46105],[-154,-18.23864],[-153.5,-18.01785],[-153,-17.79868],[-152.5,-17.58114],[-152,-17.36523],[-151.5,-17.15095],[-151,-16.93831],[-150.5,-16.7273],[-150,-16.51794],[-149.5,-16.3102],[-149,-16.10411],[-148.5,-15.89965],[-148,-15.69682],[-147.5,-15.49562],[-147,-15.29605],[-146.5,-15.0981],[-146,-14.90178],[-145.9375,-14.87735]]}},{"type":"Feature","id":"+09210112:center:0","properties":{"id":"+09210112","year":921,"month":1,"day":12,"time_tdt":"03:02:26","type":"금환일식","type_code":"A","saros":104,"gamma":-0.39249,"magnitude":0.92074,"greatest":{"lat":-44.03128,"lng":149.07123},"path_width_km":326.6,"duration":"08m51s","delta_t_seconds":2043.4,"catalog_number":6943,"source":"NASA Five Millennium Canon of Solar Eclipses","source_url":"https://eclipse.gsfc.nasa.gov/SEsearch/SEsearchmap.php?Ecl=%2B09210112","boundary":"center","name":"921-01-12 금환일식"},"geometry":{"type":"LineString","coordinates":[[72.32703,-26.73307],[72.5,-26.8022],[73,-26.99755],[73.5,-27.19331],[74,-27.38946],[74.5,-27.58598],[75,-27.78286],[75.5,-27.98007],[76,-28.17758],[76.5,-28.37539],[77,-28.57347],[77.5,-28.7718],[78,-28.97035],[78.5,-29.16909],[79,-29.36801],[79.5,-29.56709],[80,-29.76628],[80.5,-29.96558],[81,-30.16494],[81.5,-30.36435],[82,-30.56378],[82.5,-30.7632],[83,-30.96257],[83.5,-31.16187],[84,-31.36108],[84.5,-31.56015],[85,-31.75906],[85.5,-31.95777],[86,-32.15626],[86.5,-32.35448],[87,-32.55241],[87.5,-32.75001],[88,-32.94726],[88.5,-33.1441],[89,-33.34051],[89.5,-33.53645],[90,-33.73189],[90.5,-33.92678],[91,-34.1211],[91.5,-34.3148],[92,-34.50784],[92.5,-34.70019],[93,-34.89182],[93.5,-35.08267],[94,-35.27271],[94.5,-35.46191],[95,-35.65023],[95.5,-35.83761],[96,-36.02403],[96.5,-36.20945],[97,-36.39382],[97.5,-36.57711],[98,-36.75928],[98.5,-36.94028],[99,-37.12008],[99.5,-37.29864],[100,-37.47592],[100.5,-37.65187],[101,-37.82647],[101.5,-37.99967],[102,-38.17143],[102.5,-38.34172],[103,-38.5105],[103.5,-38.67773],[104,-38.84337],[104.5,-39.00739],[105,-39.16974],[105.5,-39.33041],[106,-39.48934],[106.5,-39.6465],[107,-39.80187],[107.5,-39.9554],[108,-40.10706],[108.5,-40.25682],[109,-40.40465],[109.5,-40.55052],[110,-40.69439],[110.5,-40.83623],[111,-40.97602],[111.5,-41.11372],[112,-41.24931],[112.5,-41.38276],[113,-41.51404],[113.5,-41.64312],[114,-41.76998],[114.5,-41.89459],[115,-42.01693],[115.5,-42.13697],[116,-42.2547],[116.5,-42.37007],[117,-42.48309],[117.5,-42.59371],[118,-42.70192],[118.5,-42.80771],[119,-42.91104],[119.5,-43.0119],[120,-43.11027],[120.5,-43.20614],[121,-43.29947],[121.5,-43.39026],[122,-43.47849],[122.5,-43.56414],[123,-43.64719],[123.5,-43.72763],[124,-43.80544],[124.5,-43.88061],[125,-43.95312],[125.5,-44.02295],[126,-44.0901],[126.5,-44.15454],[127,-44.21627],[127.5,-44.27526],[128,-44.33151],[128.5,-44.38501],[129,-44.43573],[129.5,-44.48366],[130,-44.5288],[130.5,-44.57113],[131,-44.61063],[131.5,-44.6473],[132,-44.68111],[132.5,-44.71207],[133,-44.74014],[133.5,-44.76534],[134,-44.78763],[134.5,-44.807],[135,-44.82345],[135.5,-44.83697],[136,-44.84753],[136.5,-44.85512],[137,-44.85974],[137.5,-44.86136],[138,-44.85999],[138.5,-44.85559],[139,-44.84816],[139.5,-44.83769],[140,-44.82416],[140.5,-44.80756],[141,-44.78787],[141.5,-44.76508],[142,-44.73918],[142.5,-44.71016],[143,-44.67799],[143.5,-44.64266],[144,-44.60416],[144.5,-44.56248],[145,-44.5176],[145.5,-44.46951],[146,-44.41818],[146.5,-44.36362],[147,-44.3058],[147.5,-44.24471],[148,-44.18034],[148.5,-44.11266],[149,-44.04168],[149.5,-43.96737],[150,-43.88972],[150.5,-43.80872],[151,-43.72436],[151.5,-43.63662],[152,-43.54549],[152.5,-43.45096],[153,-43.35303],[153.5,-43.25168],[154,-43.14689],[154.5,-43.03867],[155,-42.92701],[155.5,-42.81189],[156,-42.69332],[156.5,-42.57129],[157,-42.44579],[157.5,-42.31682],[158,-42.18439],[158.5,-42.04849],[159,-41.90912],[159.5,-41.76629],[160,-41.62],[160.5,-41.47026],[161,-41.31708],[161.5,-41.16046],[162,-41.00043],[162.5,-40.837],[163,-40.67017],[163.5,-40.49998],[164,-40.32645],[164.5,-40.14959],[165,-39.96943],[165.5,-39.78601],[166,-39.59936],[166.5,-39.4095],[167,-39.21649],[167.5,-39.02034],[168,-38.82112],[168.5,-38.61887],[169,-38.41363],[169.5,-38.20545],[170,-37.9944],[170.5,-37.78052],[171,-37.56388],[171.5,-37.34455],[172,-37.12257],[172.5,-36.89803],[173,-36.671],[173.5,-36.44154],[174,-36.20974],[174.5,-35.97566],[175,-35.7394],[175.5,-35.50104],[176,-35.26065],[176.5,-35.01832],[177,-34.77415],[177.5,-34.52822],[178,-34.28061],[178.5,-34.03143],[179,-33.78076],[179.5,-33.5287],[180,-33.27534]]}},{"type":"Feature","id":"+09210112:center:1","properties":{"id":"+09210112","year":921,"month":1,"day":12,"time_tdt":"03:02:26","type":"금환일식","type_code":"A","saros":104,"gamma":-0.39249,"magnitude":0.92074,"greatest":{"lat":-44.03128,"lng":149.07123},"path_width_km":326.6,"duration":"08m51s","delta_t_seconds":2043.4,"catalog_number":6943,"source":"NASA Five Millennium Canon of Solar Eclipses","source_url":"https://eclipse.gsfc.nasa.gov/SEsearch/SEsearchmap.php?Ecl=%2B09210112","boundary":"center","name":"921-01-12 금환일식"},"geometry":{"type":"LineString","coordinates":[[-179.5,-33.02078],[-179,-32.7651],[-178.5,-32.5084],[-178,-32.25078],[-177.5,-31.99232],[-177,-31.73313],[-176.5,-31.47329],[-176,-31.21289],[-175.5,-30.95203],[-175,-30.6908],[-174.5,-30.42927],[-174,-30.16754],[-173.5,-29.90569],[-173,-29.64381],[-172.5,-29.38197],[-172,-29.12026],[-171.5,-28.85874],[-171,-28.5975],[-170.5,-28.33662],[-170,-28.07615],[-169.5,-27.81617],[-169,-27.55674],[-168.5,-27.29794],[-168,-27.03981],[-167.5,-26.78242],[-167,-26.52583],[-166.5,-26.27009],[-166,-26.01526],[-165.5,-25.76138],[-165,-25.5085],[-164.5,-25.25666],[-164,-25.00592],[-163.5,-24.75631],[-163,-24.50787],[-162.5,-24.26064],[-162,-24.01465],[-161.5,-23.76994],[-161,-23.52653],[-160.5,-23.28446],[-160,-23.04376],[-159.5,-22.80444],[-159,-22.56654],[-158.5,-22.33007],[-158,-22.09506],[-157.5,-21.86153],[-157,-21.62949],[-156.5,-21.39895],[-156,-21.16995],[-155.5,-20.94248],[-155,-20.71656],[-154.5,-20.4922],[-154,-20.26941],[-153.5,-20.04821],[-153,-19.82859],[-152.5,-19.61056],[-152,-19.39414],[-151.5,-19.17932],[-151,-18.96612],[-150.5,-18.75452],[-150,-18.54454],[-149.5,-18.33618],[-149,-18.12944],[-148.5,-17.92432],[-148,-17.72081],[-147.5,-17.51892],[-147,-17.31865],[-146.5,-17.12],[-146,-16.92295],[-145.5,-16.72752],[-145,-16.53369],[-144.81649,-16.46294]]}},{"type":"Feature","id":"+09210112:south:0","properties":{"id":"+09210112","year":921,"month":1,"day":12,"time_tdt":"03:02:26","type":"금환일식","type_code":"A","saros":104,"gamma":-0.39249,"magnitude":0.92074,"greatest":{"lat":-44.03128,"lng":149.07123},"path_width_km":326.6,"duration":"08m51s","delta_t_seconds":2043.4,"catalog_number":6943,"source":"NASA Five Millennium Canon of Solar Eclipses","source_url":"https://eclipse.gsfc.nasa.gov/SEsearch/SEsearchmap.php?Ecl=%2B09210112","boundary":"south","name":"921-01-12 금환일식"},"geometry":{"type":"LineString","coordinates":[[71.03906,-28.32283],[71.5,-28.50046],[72,-28.69353],[72.5,-28.88698],[73,-29.08079],[73.5,-29.27495],[74,-29.46943],[74.5,-29.66421],[75,-29.85928],[75.5,-30.05461],[76,-30.25017],[76.5,-30.44595],[77,-30.64192],[77.5,-30.83806],[78,-31.03434],[78.5,-31.23075],[79,-31.42724],[79.5,-31.62381],[80,-31.82041],[80.5,-32.01703],[81,-32.21363],[81.5,-32.41019],[82,-32.60667],[82.5,-32.80306],[83,-32.99931],[83.5,-33.1954],[84,-33.3913],[84.5,-33.58697],[85,-33.78239],[85.5,-33.97752],[86,-34.17232],[86.5,-34.36677],[87,-34.56083],[87.5,-34.75447],[88,-34.94764],[88.5,-35.14033],[89,-35.33248],[89.5,-35.52408],[90,-35.71507],[90.5,-35.90542],[91,-36.0951],[91.5,-36.28407],[92,-36.47229],[92.5,-36.65973],[93,-36.84634],[93.5,-37.0321],[94,-37.21696],[94.5,-37.40089],[95,-37.58384],[95.5,-37.76578],[96,-37.94667],[96.5,-38.12648],[97,-38.30517],[97.5,-38.48269],[98,-38.65902],[98.5,-38.83411],[99,-39.00793],[99.5,-39.18044],[100,-39.3516],[100.5,-39.52138],[101,-39.68975],[101.5,-39.85666],[102,-40.02208],[102.5,-40.18597],[103,-40.34831],[103.5,-40.50906],[104,-40.66818],[104.5,-40.82564],[105,-40.98141],[105.5,-41.13545],[106,-41.28774],[106.5,-41.43825],[107,-41.58693],[107.5,-41.73377],[108,-41.87873],[108.5,-42.02178],[109,-42.1629],[109.5,-42.30206],[110,-42.43923],[110.5,-42.57438],[111,-42.70749],[111.5,-42.83854],[112,-42.96749],[112.5,-43.09433],[113,-43.21903],[113.5,-43.34157],[114,-43.46193],[114.5,-43.58008],[115,-43.696],[115.5,-43.80968],[116,-43.92109],[116.5,-44.03021],[117,-44.13703],[117.5,-44.24153],[118,-44.34368],[118.5,-44.44347],[119,-44.54089],[119.5,-44.63592],[120,-44.72854],[120.5,-44.81873],[121,-44.90649],[121.5,-44.99179],[122,-45.07463],[122.5,-45.15498],[123,-45.23284],[123.5,-45.30819],[124,-45.38102],[124.5,-45.45132],[125,-45.51907],[125.5,-45.58425],[126,-45.64687],[126.5,-45.70691],[127,-45.76435],[127.5,-45.81918],[128,-45.87139],[128.5,-45.92098],[129,-45.96793],[129.5,-46.01222],[130,-46.05386],[130.5,-46.09282],[131,-46.1291],[131.5,-46.16268],[132,-46.19356],[132.5,-46.22172],[133,-46.24715],[133.5,-46.26985],[134,-46.28979],[134.5,-46.30698],[135,-46.3214],[135.5,-46.33303],[136,-46.34187],[136.5,-46.3479],[137,-46.35112],[137.5,-46.35151],[138,-46.34906],[138.5,-46.34376],[139,-46.33559],[139.5,-46.32455],[140,-46.31062],[140.5,-46.29379],[141,-46.27405],[141.5,-46.25138],[142,-46.22577],[142.5,-46.19721],[143,-46.16568],[143.5,-46.13118],[144,-46.09369],[144.5,-46.05319],[145,-46.00967],[145.5,-45.96313],[146,-45.91353],[146.5,-45.86088],[147,-45.80516],[147.5,-45.74635],[148,-45.68445],[148.5,-45.61942],[149,-45.55128],[149.5,-45.47999],[150,-45.40556],[150.5,-45.32795],[151,-45.24717],[151.5,-45.1632],[152,-45.07603],[152.5,-44.98564],[153,-44.89203],[153.5,-44.79518],[154,-44.69509],[154.5,-44.59174],[155,-44.48512],[155.5,-44.37523],[156,-44.26206],[156.5,-44.14561],[157,-44.02586],[157.5,-43.90281],[158,-43.77646],[158.5,-43.6468],[159,-43.51384],[159.5,-43.37758],[160,-43.238],[160.5,-43.09513],[161,-42.94896],[161.5,-42.79949],[162,-42.64675],[162.5,-42.49072],[163,-42.33144],[163.5,-42.1689],[164,-42.00312],[164.5,-41.83413],[165,-41.66194],[165.5,-41.48658],[166,-41.30806],[166.5,-41.12642],[167,-40.94168],[167.5,-40.75387],[168,-40.56304],[168.5,-40.36921],[169,-40.17243],[169.5,-39.97273],[170,-39.77017],[170.5,-39.5648],[171,-39.35665],[171.5,-39.14578],[172,-38.93226],[172.5,-38.71614],[173,-38.49747],[173.5,-38.27633],[174,-38.05278],[174.5,-37.82689],[175,-37.59873],[175.5,-37.36837],[176,-37.13588],[176.5,-36.90135],[177,-36.66486],[177.5,-36.42648],[178,-36.1863],[178.5,-35.9444],[179,-35.70086],[179.5,-35.45578],[180,-35.20924]]}},{"type":"Feature","id":"+09210112:south:1","properties":{"id":"+09210112","year":921,"month":1,"day":12,"time_tdt":"03:02:26","type":"금환일식","type_code":"A","saros":104,"gamma":-0.39249,"magnitude":0.92074,"greatest":{"lat":-44.03128,"lng":149.07123},"path_width_km":326.6,"duration":"08m51s","delta_t_seconds":2043.4,"catalog_number":6943,"source":"NASA Five Millennium Canon of Solar Eclipses","source_url":"https://eclipse.gsfc.nasa.gov/SEsearch/SEsearchmap.php?Ecl=%2B09210112","boundary":"south","name":"921-01-12 금환일식"},"geometry":{"type":"LineString","coordinates":[[-179.5,-34.96133],[-179,-34.71214],[-178.5,-34.46176],[-178,-34.21027],[-177.5,-33.95778],[-177,-33.70436],[-176.5,-33.4501],[-176,-33.1951],[-175.5,-32.93945],[-175,-32.68323],[-174.5,-32.42653],[-174,-32.16943],[-173.5,-31.91203],[-173,-31.6544],[-172.5,-31.39662],[-172,-31.13879],[-171.5,-30.88096],[-171,-30.62324],[-170.5,-30.36568],[-170,-30.10836],[-169.5,-29.85136],[-169,-29.59474],[-168.5,-29.33857],[-168,-29.08292],[-167.5,-28.82785],[-167,-28.57342],[-166.5,-28.31969],[-166,-28.06671],[-165.5,-27.81455],[-165,-27.56325],[-164.5,-27.31287],[-164,-27.06345],[-163.5,-26.81504],[-163,-26.56767],[-162.5,-26.32141],[-162,-26.07627],[-161.5,-25.8323],[-161,-25.58954],[-160.5,-25.34802],[-160,-25.10777],[-159.5,-24.86882],[-159,-24.63121],[-158.5,-24.39494],[-158,-24.16006],[-157.5,-23.92658],[-157,-23.69452],[-156.5,-23.46391],[-156,-23.23477],[-155.5,-23.0071],[-155,-22.78093],[-154.5,-22.55627],[-154,-22.33313],[-153.5,-22.11153],[-153,-21.89147],[-152.5,-21.67297],[-152,-21.45603],[-151.5,-21.24067],[-151,-21.02688],[-150.5,-20.81468],[-150,-20.60406],[-149.5,-20.39504],[-149,-20.18761],[-148.5,-19.98178],[-148,-19.77755],[-147.5,-19.57493],[-147,-19.3739],[-146.5,-19.17447],[-146,-18.97665],[-145.5,-18.78042],[-145,-18.58579],[-144.5,-18.39276],[-144,-18.20132],[-143.65234,-18.06914]]}},{"type":"Feature","id":"+09210708:north:0","properties":{"id":"+09210708","year":921,"month":7,"day":8,"time_tdt":"01:55:03","type":"개기일식","type_code":"T","saros":109,"gamma":0.4862,"magnitude":1.0765,"greatest":{"lat":51.40604,"lng":162.70703},"path_width_km":284,"duration":"05m32s","delta_t_seconds":2040.2,"catalog_number":6944,"source":"NASA Five Millennium Canon of Solar Eclipses","source_url":"https://eclipse.gsfc.nasa.gov/SEsearch/SEsearchmap.php?Ecl=%2B09210708","boundary":"north","name":"921-07-08 개기일식"},"geometry":{"type":"LineString","coordinates":[[78.94531,30.32874],[79,30.35209],[79.5,30.56591],[80,30.78041],[80.5,30.99556],[81,31.21135],[81.5,31.42774],[82,31.64473],[82.5,31.86228],[83,32.08037],[83.5,32.29897],[84,32.51805],[84.5,32.7376],[85,32.95758],[85.5,33.17797],[86,33.39872],[86.5,33.61983],[87,33.84124],[87.5,34.06294],[88,34.28489],[88.5,34.50706],[89,34.72941],[89.5,34.95191],[90,35.17453],[90.5,35.39723],[91,35.61997],[91.5,35.84272],[92,36.06544],[92.5,36.28809],[93,36.51063],[93.5,36.73303],[94,36.95524],[94.5,37.17723],[95,37.39895],[95.5,37.62037],[96,37.84144],[96.5,38.06212],[97,38.28237],[97.5,38.50215],[98,38.72142],[98.5,38.94012],[99,39.15823],[99.5,39.37569],[100,39.59247],[100.5,39.80852],[101,40.02379],[101.5,40.23826],[102,40.45186],[102.5,40.66456],[103,40.87633],[103.5,41.0871],[104,41.29685],[104.5,41.50552],[104.5,41.50553],[105,41.7131],[105.5,41.91952],[106,42.12475],[106.5,42.32875],[107,42.53147],[107.5,42.73289],[108,42.93295],[108.5,43.13164],[109,43.32889],[109.5,43.52469],[110,43.719],[110.5,43.91177],[111,44.10298],[111.5,44.29259],[112,44.48057],[112.5,44.66689],[113,44.85152],[113.5,45.03442],[114,45.21558],[114.5,45.39495],[115,45.57252],[115.5,45.74825],[116,45.92213],[116.5,46.09412],[117,46.2642],[117.5,46.43236],[118,46.59857],[118.5,46.7628],[119,46.92505],[119.5,47.08529],[120,47.24349],[120.5,47.39966],[121,47.55376],[121.5,47.70579],[122,47.85572],[122.5,48.00356],[123,48.14927],[123.5,48.29286],[124,48.43431],[124.5,48.57361],[125,48.71075],[125.5,48.84573],[126,48.97852],[126.5,49.10913],[127,49.23756],[127.5,49.36378],[128,49.4878],[128.5,49.60962],[129,49.72922],[129.5,49.84661],[130,49.96178],[130.5,50.07473],[131,50.18545],[131.5,50.29395],[132,50.40022],[132.5,50.50426],[133,50.60607],[133.5,50.70565],[134,50.803],[134.5,50.89812],[135,50.99102],[135.5,51.08168],[136,51.17011],[136.5,51.25632],[137,51.3403],[137.5,51.42206],[138,51.50159],[138.5,51.5789],[139,51.654],[139.5,51.72687],[140,51.79753],[140.5,51.86598],[141,51.93222],[141.5,51.99625],[142,52.05807],[142.5,52.11769],[143,52.1751],[143.5,52.23032],[144,52.28333],[144.5,52.33415],[145,52.38278],[145.5,52.42921],[146,52.47345],[146.5,52.5155],[147,52.55536],[147.5,52.59304],[148,52.62853],[148.5,52.66184],[149,52.69296],[149.5,52.7219],[150,52.74865],[150.5,52.77322],[151,52.79562],[151.5,52.81583],[151.5,52.81582],[152,52.83385],[152.5,52.84969],[153,52.86335],[153.5,52.87483],[154,52.88412],[154.5,52.89122],[155,52.89613],[155.5,52.89886],[155.5,52.89885],[156,52.89938],[156.5,52.89772],[157,52.89386],[157.5,52.88779],[158,52.87953],[158.5,52.86906],[159,52.85637],[159.5,52.84147],[160,52.82436],[160.5,52.80502],[161,52.78346],[161.5,52.75966],[162,52.73363],[162.5,52.70535],[163,52.67483],[163.5,52.64206],[164,52.60702],[164.5,52.56973],[165,52.53016],[165.5,52.48831],[166,52.44418],[166.5,52.39775],[167,52.34903],[167.5,52.298],[168,52.24466],[168.5,52.18899],[169,52.131],[169.5,52.07067],[170,52.00799],[170.5,51.94297],[171,51.87558],[171.5,51.80582],[172,51.73368],[172.5,51.65916],[173,51.58224],[173.5,51.50292],[174,51.42119],[174.5,51.33703],[175,51.25045],[175.5,51.16143],[176,51.06997],[176.5,50.97605],[177,50.87968],[177.5,50.78083],[178,50.67951],[178.5,50.5757],[179,50.4694],[179.5,50.36061],[180,50.24931]]}},{"type":"Feature","id":"+09210708:north:1","properties":{"id":"+09210708","year":921,"month":7,"day":8,"time_tdt":"01:55:03","type":"개기일식","type_code":"T","saros":109,"gamma":0.4862,"magnitude":1.0765,"greatest":{"lat":51.40604,"lng":162.70703},"path_width_km":284,"duration":"05m32s","delta_t_seconds":2040.2,"catalog_number":6944,"source":"NASA Five Millennium Canon of Solar Eclipses","source_url":"https://eclipse.gsfc.nasa.gov/SEsearch/SEsearchmap.php?Ecl=%2B09210708","boundary":"north","name":"921-07-08 개기일식"},"geometry":{"type":"LineString","coordinates":[[-179.5,50.1355],[-179,50.01917],[-179,50.01918],[-178.5,49.90033],[-178,49.77896],[-177.5,49.65506],[-177,49.52862],[-176.5,49.39965],[-176,49.26814],[-175.5,49.13409],[-175,48.99749],[-174.5,48.85836],[-174,48.71668],[-173.5,48.57245],[-173,48.42569],[-172.5,48.2764],[-172,48.12457],[-171.5,47.97021],[-171,47.81333],[-170.5,47.65394],[-170,47.49204],[-169.5,47.32765],[-169,47.16077],[-168.5,46.99142],[-168,46.81961],[-167.5,46.64535],[-167,46.46866],[-166.5,46.28956],[-166,46.10807],[-165.5,45.9242],[-165,45.73798],[-164.5,45.54944],[-164,45.35859],[-163.5,45.16546],[-163,44.97009],[-162.5,44.77249],[-162,44.57271],[-161.5,44.37077],[-161,44.16672],[-160.5,43.96057],[-160,43.75239],[-159.5,43.54219],[-159,43.33002],[-158.5,43.11593],[-158,42.89996],[-157.5,42.68215],[-157,42.46256],[-156.5,42.24122],[-156,42.01818],[-155.5,41.79351],[-155,41.56724],[-154.5,41.33944],[-154,41.11015],[-154,41.11016],[-153.5,40.87944],[-153,40.64735],[-152.5,40.41395],[-152,40.17929],[-151.5,39.94343],[-151,39.70643],[-150.5,39.46835],[-150,39.22925],[-149.5,38.98918],[-149,38.74822],[-148.5,38.50642],[-148,38.26385],[-147.5,38.02056],[-147,37.77661],[-146.5,37.53207],[-146,37.287],[-145.5,37.04146],[-145,36.79551],[-144.5,36.54921],[-144,36.30261],[-143.5,36.05579],[-143,35.80878],[-142.5,35.56167],[-142,35.31449],[-141.5,35.0673],[-141,34.82017],[-140.5,34.57314],[-140,34.32627],[-139.5,34.07961],[-139,33.83321],[-138.5,33.58712],[-138,33.34139],[-137.5,33.09607],[-137,32.8512],[-136.5,32.60683],[-136,32.36301],[-135.5,32.11977],[-135,31.87716],[-134.5,31.63521],[-134,31.39397],[-133.5,31.15348],[-133,30.91376],[-132.5,30.67487],[-132,30.43682],[-131.5,30.19965],[-131,29.9634],[-130.5,29.7281],[-130,29.49377],[-129.5,29.26044],[-129,29.02814],[-128.5,28.79689],[-128,28.56672],[-127.5,28.33766],[-127,28.10972],[-126.5,27.88292],[-126,27.65729],[-125.5,27.43285],[-125.5,27.43284],[-125,27.2096],[-124.5,26.98758],[-124,26.7668],[-123.5,26.54726],[-123,26.329],[-122.5,26.11201],[-122,25.89632],[-121.5,25.68193],[-121,25.46886],[-120.56055,25.28268]]}},{"type":"Feature","id":"+09210708:center:0","properties":{"id":"+09210708","year":921,"month":7,"day":8,"time_tdt":"01:55:03","type":"개기일식","type_code":"T","saros":109,"gamma":0.4862,"magnitude":1.0765,"greatest":{"lat":51.40604,"lng":162.70703},"path_width_km":284,"duration":"05m32s","delta_t_seconds":2040.2,"catalog_number":6944,"source":"NASA Five Millennium Canon of Solar Eclipses","source_url":"https://eclipse.gsfc.nasa.gov/SEsearch/SEsearchmap.php?Ecl=%2B09210708","boundary":"center","name":"921-07-08 개기일식"},"geometry":{"type":"LineString","coordinates":[[79.71841,29.4165],[80,29.53163],[80.5,29.74218],[81,29.95338],[81.5,30.16521],[82,30.37766],[82.5,30.59069],[83,30.80429],[83.5,31.01843],[84,31.2331],[84.5,31.44825],[85,31.66388],[85.5,31.87995],[86,32.09644],[86.5,32.31332],[87,32.53055],[87.5,32.74812],[88,32.966],[88.5,33.18414],[89,33.40253],[89.5,33.62113],[90,33.83991],[90.5,34.05883],[91,34.27786],[91.5,34.49697],[92,34.71613],[92.5,34.93529],[93,35.15442],[93.5,35.37349],[94,35.59246],[94.5,35.81129],[95,36.02994],[95.5,36.24837],[96,36.46655],[96.5,36.68443],[97,36.90198],[97.5,37.11916],[98,37.33591],[98.5,37.55222],[99,37.76802],[99.5,37.98329],[100,38.19798],[100.5,38.41204],[101,38.62545],[101.5,38.83814],[102,39.05009],[102.5,39.26125],[103,39.47158],[103.5,39.68104],[104,39.88958],[104.5,40.09717],[105,40.30376],[105.5,40.50931],[106,40.71379],[106.5,40.91714],[107,41.11934],[107.5,41.32033],[108,41.52009],[108.5,41.71857],[109,41.91574],[109.5,42.11155],[110,42.30598],[110.5,42.49898],[111,42.69052],[111.5,42.88056],[112,43.06907],[112.5,43.25601],[113,43.44136],[113.5,43.62507],[114,43.80713],[114.5,43.98749],[115,44.16614],[115.5,44.34303],[116,44.51815],[116.5,44.69146],[117,44.86293],[117.5,45.03256],[118,45.2003],[118.5,45.36613],[119,45.53004],[119.5,45.692],[120,45.85199],[120.5,46.00998],[121,46.16597],[121.5,46.31993],[122,46.47185],[122.5,46.6217],[123,46.76947],[123.5,46.91516],[124,47.05873],[124.5,47.20019],[125,47.33951],[125.5,47.47669],[126,47.61171],[126.5,47.74457],[127,47.87525],[127.5,48.00374],[128,48.13005],[128.5,48.25415],[129,48.37604],[129.5,48.49572],[130,48.61318],[130.5,48.72841],[131,48.84141],[131.5,48.95218],[132,49.0607],[132.5,49.16699],[133,49.27102],[133.5,49.37281],[134,49.47235],[134.5,49.56964],[135,49.66466],[135.5,49.75744],[136,49.84796],[136.5,49.93621],[137,50.02222],[137.5,50.10596],[138,50.18744],[138.5,50.26666],[139,50.34363],[139.5,50.41834],[140,50.49079],[140.5,50.56098],[141,50.62892],[141.5,50.6946],[142,50.75803],[142.5,50.8192],[143,50.87812],[143.5,50.93479],[144,50.9892],[144.5,51.04137],[145,51.09128],[145.5,51.13895],[146,51.18437],[146.5,51.22754],[147,51.26847],[147.5,51.30715],[148,51.34358],[148.5,51.37776],[149,51.4097],[149.5,51.4394],[150,51.46685],[150.5,51.49205],[151,51.515],[151.5,51.53571],[152,51.55417],[152.5,51.57038],[153,51.58434],[153.5,51.59605],[154,51.6055],[154.5,51.6127],[155,51.61764],[155.5,51.62032],[156,51.62074],[156.5,51.61889],[156.5,51.6189],[157,51.61478],[157.5,51.6084],[158,51.59974],[158.5,51.58881],[159,51.57559],[159.5,51.56009],[160,51.5423],[160.5,51.52222],[161,51.49984],[161.5,51.47516],[162,51.44817],[162.5,51.41886],[163,51.38724],[163.5,51.35329],[164,51.31701],[164.5,51.2784],[165,51.23745],[165.5,51.19415],[166,51.14849],[166.5,51.10047],[167,51.05008],[167.5,50.99732],[168,50.94218],[168.5,50.88465],[169,50.82472],[169.5,50.76238],[170,50.69764],[170.5,50.63048],[171,50.56089],[171.5,50.48887],[172,50.4144],[172.5,50.33749],[173,50.25813],[173.5,50.1763],[174,50.092],[174.5,50.00522],[175,49.91596],[175.5,49.8242],[176,49.72995],[176.5,49.63319],[177,49.53392],[177.5,49.43214],[178,49.32783],[178.5,49.22099],[179,49.11162],[179.5,48.99971],[180,48.88526]]}},{"type":"Feature","id":"+09210708:center:1","properties":{"id":"+09210708","year":921,"month":7,"day":8,"time_tdt":"01:55:03","type":"개기일식","type_code":"T","saros":109,"gamma":0.4862,"magnitude":1.0765,"greatest":{"lat":51.40604,"lng":162.70703},"path_width_km":284,"duration":"05m32s","delta_t_seconds":2040.2,"catalog_number":6944,"source":"NASA Five Millennium Canon of Solar Eclipses","source_url":"https://eclipse.gsfc.nasa.gov/SEsearch/SEsearchmap.php?Ecl=%2B09210708","boundary":"center","name":"921-07-08 개기일식"},"geometry":{"type":"LineString","coordinates":[[-179.5,48.76827],[-179,48.64872],[-178.5,48.52662],[-178,48.40197],[-177.5,48.27477],[-177,48.145],[-176.5,48.01268],[-176,47.87781],[-175.5,47.74037],[-175,47.60039],[-174.5,47.45786],[-174,47.31278],[-173.5,47.16515],[-173,47.015],[-172.5,46.86231],[-172,46.70711],[-171.5,46.54939],[-171,46.38918],[-170.5,46.22647],[-170,46.06128],[-169.5,45.89364],[-169,45.72354],[-168.5,45.55101],[-168,45.37607],[-167.5,45.19874],[-167,45.01902],[-166.5,44.83696],[-166,44.65257],[-165.5,44.46588],[-165,44.27691],[-164.5,44.08569],[-164,43.89225],[-163.5,43.69663],[-163,43.49885],[-162.5,43.29895],[-162,43.09696],[-161.5,42.89292],[-161,42.68688],[-160.5,42.47887],[-160,42.26893],[-159.5,42.05711],[-159,41.84344],[-159,41.84345],[-158.5,41.62799],[-158,41.41079],[-158,41.41078],[-157.5,41.19188],[-157,40.97134],[-156.5,40.74919],[-156,40.5255],[-155.5,40.30031],[-155,40.07369],[-154.5,39.84568],[-154,39.61635],[-153.5,39.38575],[-153,39.15393],[-152.5,38.92095],[-152,38.68688],[-151.5,38.45177],[-151,38.21568],[-150.5,37.97867],[-150,37.74081],[-149.5,37.50214],[-149,37.26273],[-148.5,37.02264],[-148,36.78194],[-147.5,36.54067],[-147,36.2989],[-146.5,36.05669],[-146,35.8141],[-145.5,35.57119],[-145,35.32801],[-144.5,35.08461],[-144,34.84107],[-143.5,34.59743],[-143,34.35374],[-142.5,34.11007],[-142,33.86646],[-141.5,33.62297],[-141,33.37965],[-140.5,33.13655],[-140,32.89371],[-139.5,32.65119],[-139,32.40903],[-138.5,32.16728],[-138,31.92599],[-137.5,31.68519],[-137,31.44493],[-136.5,31.20525],[-136,30.96619],[-135.5,30.72779],[-135,30.49009],[-134.5,30.25311],[-134,30.01691],[-133.5,29.78151],[-133,29.54694],[-132.5,29.31324],[-132,29.08044],[-131.5,28.84856],[-131,28.61763],[-130.5,28.38768],[-130,28.15874],[-129.5,27.93083],[-129,27.70397],[-128.5,27.47819],[-128,27.25351],[-127.5,27.02994],[-127,26.80751],[-126.5,26.58624],[-126,26.36614],[-125.5,26.14724],[-125.5,26.14723],[-125,25.92953],[-124.5,25.71305],[-124,25.4978],[-123.5,25.2838],[-123,25.07107],[-122.5,24.8596],[-122,24.64941],[-121.5,24.44052],[-121.29228,24.35883]]}},{"type":"Feature","id":"+09210708:south:0","properties":{"id":"+09210708","year":921,"month":7,"day":8,"time_tdt":"01:55:03","type":"개기일식","type_code":"T","saros":109,"gamma":0.4862,"magnitude":1.0765,"greatest":{"lat":51.40604,"lng":162.70703},"path_width_km":284,"duration":"05m32s","delta_t_seconds":2040.2,"catalog_number":6944,"source":"NASA Five Millennium Canon of Solar Eclipses","source_url":"https://eclipse.gsfc.nasa.gov/SEsearch/SEsearchmap.php?Ecl=%2B09210708","boundary":"south","name":"921-07-08 개기일식"},"geometry":{"type":"LineString","coordinates":[[80.5,28.5179],[81,28.72464],[81.5,28.93202],[82,29.14004],[82.5,29.34866],[83,29.55788],[83.5,29.76766],[84,29.97798],[84.5,30.18883],[85,30.40018],[85.5,30.61201],[86,30.82428],[86.5,31.03699],[87,31.25009],[87.5,31.46357],[88,31.6774],[88.5,31.89155],[89,32.10599],[89.5,32.32069],[90,32.53562],[90.5,32.75075],[91,32.96606],[91.5,33.18151],[92,33.39706],[92.5,33.61268],[93,33.82835],[93.5,34.04402],[94,34.25966],[94.5,34.47524],[95,34.69072],[95.5,34.90606],[96,35.12124],[96.5,35.3362],[97,35.55091],[97.5,35.76533],[98,35.97943],[98.5,36.19317],[99,36.4065],[99.5,36.61939],[100,36.8318],[100.5,37.04369],[101,37.25501],[101.5,37.46572],[102,37.6758],[102.5,37.88518],[103,38.09384],[103.5,38.30174],[104,38.50882],[104.5,38.71505],[105,38.9204],[105.5,39.12481],[106,39.32825],[106.5,39.53068],[107,39.73206],[107.5,39.93234],[108,40.1315],[108.5,40.32948],[109,40.52625],[109.5,40.72178],[110,40.91602],[110.5,41.10893],[111,41.30049],[111.5,41.49064],[112,41.67937],[112.5,41.86662],[113,42.05238],[113.5,42.23659],[114,42.41924],[114.5,42.60029],[115,42.7797],[115.5,42.95744],[116,43.13349],[116.5,43.30782],[117,43.48039],[117.5,43.65118],[118,43.82016],[118.5,43.9873],[119,44.15259],[119.5,44.31599],[120,44.47748],[120.5,44.63704],[121,44.79464],[121.5,44.95027],[122,45.10391],[122.5,45.25553],[123,45.40512],[123.5,45.55265],[124,45.69812],[124.5,45.8415],[125,45.98278],[125.5,46.12195],[126,46.25899],[126.5,46.39388],[127,46.52662],[127.5,46.65719],[128,46.78558],[128.5,46.91179],[129,47.03579],[129.5,47.15759],[130,47.27717],[130.5,47.39453],[131,47.50965],[131.5,47.62253],[132,47.73317],[132.5,47.84156],[133,47.94769],[133.5,48.05156],[134,48.15316],[134.5,48.25249],[135,48.34954],[135.5,48.44432],[136,48.53681],[136.5,48.62702],[137,48.71495],[137.5,48.80058],[138,48.88393],[138.5,48.96498],[139,49.04374],[139.5,49.1202],[140,49.19436],[140.5,49.26623],[141,49.3358],[141.5,49.40307],[142,49.46804],[142.5,49.53071],[143,49.59108],[143.5,49.64915],[144,49.70492],[144.5,49.75838],[145,49.80954],[145.5,49.8584],[146,49.90496],[146.5,49.94921],[147,49.99116],[147.5,50.03081],[148,50.06815],[148.5,50.10318],[149,50.13591],[149.5,50.16633],[150,50.19445],[150.5,50.22025],[151,50.24375],[151.5,50.26493],[152,50.2838],[152.5,50.30035],[153,50.31459],[153.5,50.32651],[154,50.33611],[154.5,50.34339],[155,50.34834],[155.5,50.35096],[156,50.35126],[156.5,50.34922],[157,50.34484],[157.5,50.33812],[158,50.32906],[158.5,50.31766],[159,50.3039],[159.5,50.28778],[160,50.26931],[160.5,50.24847],[161,50.22527],[161.5,50.19969],[162,50.17174],[162,50.17173],[162.5,50.1414],[162.5,50.14139],[163,50.10867],[163.5,50.07354],[164,50.03602],[164.5,49.99609],[165,49.95375],[165.5,49.909],[166,49.86182],[166.5,49.81221],[167,49.76016],[167.5,49.70567],[168,49.64874],[168.5,49.58934],[169,49.52749],[169.5,49.46317],[170,49.39637],[170.5,49.32709],[171,49.25532],[171.5,49.18106],[172,49.10429],[172.5,49.02502],[173,48.94324],[173.5,48.85893],[174,48.7721],[174.5,48.68274],[175,48.59084],[175.5,48.49639],[176,48.3994],[176.5,48.29986],[177,48.19776],[177.5,48.0931],[178,47.98588],[178.5,47.87608],[179,47.76372],[179.5,47.64878],[180,47.53127]]}},{"type":"Feature","id":"+09210708:south:1","properties":{"id":"+09210708","year":921,"month":7,"day":8,"time_tdt":"01:55:03","type":"개기일식","type_code":"T","saros":109,"gamma":0.4862,"magnitude":1.0765,"greatest":{"lat":51.40604,"lng":162.70703},"path_width_km":284,"duration":"05m32s","delta_t_seconds":2040.2,"catalog_number":6944,"source":"NASA Five Millennium Canon of Solar Eclipses","source_url":"https://eclipse.gsfc.nasa.gov/SEsearch/SEsearchmap.php?Ecl=%2B09210708","boundary":"south","name":"921-07-08 개기일식"},"geometry":{"type":"LineString","coordinates":[[-179.5,47.41119],[-179.5,47.41118],[-179,47.28852],[-178.5,47.16328],[-178,47.03547],[-177.5,46.90507],[-177,46.77211],[-176.5,46.63658],[-176,46.49848],[-175.5,46.35782],[-175,46.21461],[-174.5,46.06885],[-174,45.92055],[-173.5,45.76971],[-173,45.61635],[-172.5,45.46048],[-172,45.30211],[-171.5,45.14126],[-171,44.97793],[-170.5,44.81215],[-170,44.64392],[-169.5,44.47328],[-169,44.30023],[-168.5,44.1248],[-168,43.94701],[-167.5,43.76689],[-167,43.58446],[-166.5,43.39975],[-166,43.21278],[-165.5,43.02359],[-165,42.83221],[-164.5,42.63866],[-164,42.44299],[-163.5,42.24523],[-163,42.04541],[-162.5,41.84357],[-162,41.63976],[-161.5,41.43402],[-161,41.22638],[-160.5,41.0169],[-160,40.80561],[-159.5,40.59256],[-159,40.37781],[-158.5,40.1614],[-158,39.94338],[-157.5,39.7238],[-157,39.50271],[-156.5,39.28017],[-156,39.05624],[-155.5,38.83095],[-155,38.60438],[-154.5,38.37658],[-154,38.14761],[-153.5,37.91751],[-153,37.68635],[-153,37.68636],[-152.5,37.4542],[-152,37.2211],[-151.5,36.98711],[-151,36.7523],[-150.5,36.51672],[-150,36.28044],[-149.5,36.04351],[-149,35.80598],[-148.5,35.56793],[-148,35.3294],[-147.5,35.09045],[-147,34.85114],[-146.5,34.61154],[-146,34.37169],[-145.5,34.13164],[-145,33.89146],[-144.5,33.6512],[-144,33.41092],[-143.5,33.17065],[-143,32.93047],[-143,32.93046],[-142.5,32.6904],[-142,32.45052],[-141.5,32.21086],[-141,31.97147],[-140.5,31.73239],[-140,31.49369],[-139.5,31.25539],[-139,31.01754],[-138.5,30.78019],[-138,30.54336],[-137.5,30.30712],[-137,30.07148],[-136.5,29.8365],[-136,29.60219],[-135.5,29.36861],[-135,29.13579],[-134.5,28.90375],[-134,28.67253],[-133.5,28.44215],[-133,28.21266],[-132.5,27.98407],[-132,27.75641],[-131.5,27.52971],[-131,27.304],[-130.5,27.07929],[-130,26.85561],[-129.5,26.63298],[-129,26.41143],[-128.5,26.19096],[-128,25.97161],[-127.5,25.75338],[-127,25.5363],[-126.5,25.32038],[-126,25.10564],[-125.5,24.89208],[-125,24.67973],[-124.5,24.4686],[-124,24.2587],[-123.5,24.05003],[-123,23.84262],[-122.5,23.63647],[-122.02539,23.44196]]}}],"attribution":"Eclipse Predictions by Fred Espenak and Jean Meeus (NASA's GSFC)","generated_at":"2026-09-23T01:44:58.756Z"}
