{"type":"FeatureCollection","year":922,"events":[{"id":"+09220101","year":922,"month":1,"day":1,"time_tdt":"02:12:56","type":"부분일식","type_code":"P","saros":114,"gamma":-1.06421,"magnitude":0.84473,"greatest":{"lat":-67.34151,"lng":-25.47894},"path_width_km":0,"duration":"00m00s","delta_t_seconds":2036.9,"catalog_number":6945,"source":"NASA Five Millennium Canon of Solar Eclipses","source_url":"https://eclipse.gsfc.nasa.gov/SEsearch/SEsearchmap.php?Ecl=%2B09220101"},{"id":"+09220529","year":922,"month":5,"day":29,"time_tdt":"09:05:23","type":"부분일식","type_code":"P","saros":81,"gamma":-1.3483,"magnitude":0.35699,"greatest":{"lat":-64.16631,"lng":83.00604},"path_width_km":0,"duration":"00m00s","delta_t_seconds":2034.3,"catalog_number":6946,"source":"NASA Five Millennium Canon of Solar Eclipses","source_url":"https://eclipse.gsfc.nasa.gov/SEsearch/SEsearchmap.php?Ecl=%2B09220529"},{"id":"+09220627","year":922,"month":6,"day":27,"time_tdt":"18:00:27","type":"부분일식","type_code":"P","saros":119,"gamma":1.2555,"magnitude":0.52774,"greatest":{"lat":66.74932,"lng":101.84174},"path_width_km":0,"duration":"00m00s","delta_t_seconds":2033.7,"catalog_number":6947,"source":"NASA Five Millennium Canon of Solar Eclipses","source_url":"https://eclipse.gsfc.nasa.gov/SEsearch/SEsearchmap.php?Ecl=%2B09220627"},{"id":"+09221121","year":922,"month":11,"day":21,"time_tdt":"16:29:24","type":"부분일식","type_code":"P","saros":86,"gamma":1.14957,"magnitude":0.71848,"greatest":{"lat":63.59715,"lng":-22.74628},"path_width_km":0,"duration":"00m00s","delta_t_seconds":2031.1,"catalog_number":6948,"source":"NASA Five Millennium Canon of Solar Eclipses","source_url":"https://eclipse.gsfc.nasa.gov/SEsearch/SEsearchmap.php?Ecl=%2B09221121"}],"features":[],"attribution":"Eclipse Predictions by Fred Espenak and Jean Meeus (NASA's GSFC)","generated_at":"2026-09-23T01:44:58.506Z"}
