{"type":"FeatureCollection","year":93,"events":[{"id":"+00930116","year":93,"month":1,"day":16,"time_tdt":"00:32:32","type":"개기일식","type_code":"T","saros":81,"gamma":0.62024,"magnitude":1.02498,"greatest":{"lat":15.7484,"lng":-154.95099},"path_width_km":107.4,"duration":"02m25s","delta_t_seconds":9619.3,"catalog_number":5003,"source":"NASA Five Millennium Canon of Solar Eclipses","source_url":"https://eclipse.gsfc.nasa.gov/SEsearch/SEsearchmap.php?Ecl=%2B00930116"},{"id":"+00930712","year":93,"month":7,"day":12,"time_tdt":"09:56:16","type":"금환일식","type_code":"A","saros":86,"gamma":-0.81747,"magnitude":0.94372,"greatest":{"lat":-31.19927,"lng":58.80084},"path_width_km":357.5,"duration":"06m41s","delta_t_seconds":9614.6,"catalog_number":5004,"source":"NASA Five Millennium Canon of Solar Eclipses","source_url":"https://eclipse.gsfc.nasa.gov/SEsearch/SEsearchmap.php?Ecl=%2B00930712"},{"id":"+00931207","year":93,"month":12,"day":7,"time_tdt":"05:17:33","type":"부분일식","type_code":"P","saros":53,"gamma":-1.41195,"magnitude":0.23517,"greatest":{"lat":-67.20727,"lng":-37.2804},"path_width_km":0,"duration":"00m00s","delta_t_seconds":9610.7,"catalog_number":5005,"source":"NASA Five Millennium Canon of Solar Eclipses","source_url":"https://eclipse.gsfc.nasa.gov/SEsearch/SEsearchmap.php?Ecl=%2B00931207"}],"features":[{"type":"Feature","id":"+00930116:north:0","properties":{"id":"+00930116","year":93,"month":1,"day":16,"time_tdt":"00:32:32","type":"개기일식","type_code":"T","saros":81,"gamma":0.62024,"magnitude":1.02498,"greatest":{"lat":15.7484,"lng":-154.95099},"path_width_km":107.4,"duration":"02m25s","delta_t_seconds":9619.3,"catalog_number":5003,"source":"NASA Five Millennium Canon of Solar Eclipses","source_url":"https://eclipse.gsfc.nasa.gov/SEsearch/SEsearchmap.php?Ecl=%2B00930116","boundary":"north","name":"93-01-16 개기일식"},"geometry":{"type":"LineString","coordinates":[[154.57227,20.87275],[155,20.70574],[155.5,20.51138],[156,20.31798],[156.5,20.12558],[157,19.9342],[157.5,19.7439],[158,19.5547],[158.5,19.36664],[159,19.17976],[159.5,18.9941],[160,18.8097],[160.5,18.6266],[161,18.44485],[161.5,18.26448],[162,18.08555],[162.5,17.90809],[163,17.73216],[163.5,17.55779],[164,17.38505],[164.5,17.21398],[165,17.04463],[165.5,16.87705],[166,16.71129],[166.5,16.54742],[167,16.38548],[167.5,16.22554],[168,16.06764],[168.5,15.91186],[169,15.75826],[169.5,15.60689],[170,15.45782],[170.5,15.31111],[171,15.16684],[171.5,15.02507],[172,14.88588],[172.5,14.74932],[173,14.61549],[173.5,14.48444],[174,14.35627],[174.5,14.23105],[175,14.10885],[175.5,13.98977],[176,13.87388],[176.5,13.76128],[177,13.65204],[177.5,13.54626],[178,13.44404],[178.5,13.34546],[179,13.25062],[179.5,13.15961],[180,13.07254]]}},{"type":"Feature","id":"+00930116:north:1","properties":{"id":"+00930116","year":93,"month":1,"day":16,"time_tdt":"00:32:32","type":"개기일식","type_code":"T","saros":81,"gamma":0.62024,"magnitude":1.02498,"greatest":{"lat":15.7484,"lng":-154.95099},"path_width_km":107.4,"duration":"02m25s","delta_t_seconds":9619.3,"catalog_number":5003,"source":"NASA Five Millennium Canon of Solar Eclipses","source_url":"https://eclipse.gsfc.nasa.gov/SEsearch/SEsearchmap.php?Ecl=%2B00930116","boundary":"north","name":"93-01-16 개기일식"},"geometry":{"type":"LineString","coordinates":[[-179.5,12.98952],[-179,12.91063],[-178.5,12.83599],[-178,12.76571],[-177.5,12.69989],[-177,12.63864],[-176.5,12.58209],[-176,12.53034],[-175.5,12.4835],[-175,12.44171],[-174.5,12.40508],[-174,12.37373],[-173.5,12.34779],[-173,12.32737],[-172.5,12.31262],[-172,12.30364],[-171.5,12.30058],[-171,12.30356],[-170.5,12.31271],[-170,12.32816],[-169.5,12.35004],[-169,12.37848],[-168.5,12.41362],[-168,12.45557],[-167.5,12.50447],[-167,12.56044],[-166.5,12.62361],[-166,12.6941],[-165.5,12.77203],[-165,12.8575],[-164.5,12.95064],[-164,13.05155],[-163.5,13.16033],[-163,13.27707],[-162.5,13.40186],[-162,13.53479],[-161.5,13.67593],[-161,13.82533],[-160.5,13.98307],[-160,14.14916],[-159.5,14.32367],[-159,14.50659],[-158.5,14.69794],[-158,14.89772],[-157.5,15.1059],[-157,15.32245],[-156.5,15.54732],[-156,15.78045],[-155.5,16.02176],[-155,16.27114],[-154.5,16.52849],[-154,16.79368],[-153.5,17.06655],[-153,17.34696],[-152.5,17.63471],[-152,17.92961],[-151.5,18.23146],[-151,18.54004],[-150.5,18.8551],[-150,19.1764],[-149.5,19.50368],[-149,19.83667],[-148.5,20.17509],[-148,20.51865],[-147.5,20.86707],[-147,21.22004],[-146.5,21.57727],[-146,21.93845],[-145.5,22.30327],[-145,22.67144],[-144.5,23.04266],[-144,23.41662],[-143.5,23.79303],[-143,24.1716],[-142.5,24.55205],[-142,24.9341],[-141.5,25.31747],[-141,25.70192],[-140.5,26.08718],[-140,26.47301],[-139.5,26.85919],[-139,27.24547],[-138.5,27.63166],[-138,28.01754],[-137.5,28.40292],[-137,28.78762],[-136.5,29.17146],[-136,29.55428],[-135.5,29.93593],[-135,30.31625],[-134.5,30.69511],[-134,31.07239],[-133.5,31.44796],[-133,31.82173],[-132.5,32.19357],[-132,32.5634],[-131.5,32.93114],[-131,33.2967],[-130.5,33.66],[-130,34.02099],[-129.5,34.3796],[-129,34.73577],[-128.5,35.08945],[-128,35.44061],[-127.5,35.78919],[-127,36.13516],[-126.5,36.47849],[-126,36.81915],[-125.5,37.15712],[-125,37.49238],[-124.5,37.82491],[-124,38.15469],[-123.5,38.48172],[-123,38.80598],[-122.5,39.12746],[-122,39.44617],[-121.5,39.7621],[-121,40.07524],[-120.5,40.38561],[-120,40.6932],[-119.5,40.99801],[-119,41.30006],[-118.5,41.59935],[-118,41.89589],[-117.5,42.18968],[-117,42.48075],[-116.5,42.76909],[-116,43.05472],[-115.5,43.33766],[-115,43.61792],[-114.5,43.8955],[-114,44.17044],[-113.5,44.44273],[-113,44.7124],[-112.5,44.97946],[-112,45.24394],[-111.5,45.50584],[-111,45.76518],[-110.5,46.02199],[-110,46.27627],[-109.5,46.52805],[-109,46.77734],[-108.5,47.02416],[-108,47.26853],[-107.5,47.51047],[-107,47.75],[-106.5,47.98713],[-106,48.22188],[-105.5,48.45428],[-105,48.68433],[-104.5,48.91206],[-104,49.13749],[-103.5,49.36063],[-103,49.58151],[-102.58203,49.76442]]}},{"type":"Feature","id":"+00930116:center:0","properties":{"id":"+00930116","year":93,"month":1,"day":16,"time_tdt":"00:32:32","type":"개기일식","type_code":"T","saros":81,"gamma":0.62024,"magnitude":1.02498,"greatest":{"lat":15.7484,"lng":-154.95099},"path_width_km":107.4,"duration":"02m25s","delta_t_seconds":9619.3,"catalog_number":5003,"source":"NASA Five Millennium Canon of Solar Eclipses","source_url":"https://eclipse.gsfc.nasa.gov/SEsearch/SEsearchmap.php?Ecl=%2B00930116","boundary":"center","name":"93-01-16 개기일식"},"geometry":{"type":"LineString","coordinates":[[154.54062,20.65597],[155,20.47822],[155.5,20.28094],[156,20.08461],[156.5,19.88927],[157,19.69494],[157.5,19.50167],[158,19.30949],[158.5,19.11844],[159,18.92856],[159.5,18.73989],[160,18.55247],[160.5,18.36634],[161,18.18155],[161.5,17.99813],[162,17.81613],[162.5,17.6356],[163,17.45659],[163.5,17.27913],[164,17.10329],[164.5,16.92911],[165,16.75664],[165.5,16.58593],[166,16.41704],[166.5,16.25002],[167,16.08493],[167.5,15.92182],[168,15.76076],[168.5,15.6018],[169,15.44501],[169.5,15.29044],[170,15.13817],[170.5,14.98826],[171,14.84077],[171.5,14.69577],[172,14.55334],[172.5,14.41355],[173,14.27647],[173.5,14.14217],[174,14.01074],[174.5,13.88225],[175,13.75678],[175.5,13.63442],[176,13.51524],[176.5,13.39934],[177,13.2868],[177.5,13.17772],[178,13.07218],[178.5,12.97027],[179,12.8721],[179.5,12.77776],[180,12.68735]]}},{"type":"Feature","id":"+00930116:center:1","properties":{"id":"+00930116","year":93,"month":1,"day":16,"time_tdt":"00:32:32","type":"개기일식","type_code":"T","saros":81,"gamma":0.62024,"magnitude":1.02498,"greatest":{"lat":15.7484,"lng":-154.95099},"path_width_km":107.4,"duration":"02m25s","delta_t_seconds":9619.3,"catalog_number":5003,"source":"NASA Five Millennium Canon of Solar Eclipses","source_url":"https://eclipse.gsfc.nasa.gov/SEsearch/SEsearchmap.php?Ecl=%2B00930116","boundary":"center","name":"93-01-16 개기일식"},"geometry":{"type":"LineString","coordinates":[[-179.5,12.60097],[-179,12.51872],[-178.5,12.44072],[-178,12.36706],[-177.5,12.29786],[-177,12.23323],[-176.5,12.17328],[-176,12.11813],[-175.5,12.06788],[-175,12.02268],[-174.5,11.98262],[-174,11.94784],[-173.5,11.91845],[-173,11.89459],[-172.5,11.87638],[-172,11.86394],[-171.5,11.85741],[-171,11.85692],[-170.5,11.86259],[-170,11.87456],[-169.5,11.89295],[-169,11.9179],[-168.5,11.94955],[-168,11.98801],[-167.5,12.03341],[-167,12.0859],[-166.5,12.14559],[-166,12.2126],[-165.5,12.28705],[-165,12.36908],[-164.5,12.45878],[-164,12.55626],[-163.5,12.66164],[-163,12.77502],[-162.5,12.89647],[-162,13.0261],[-161.5,13.16397],[-161,13.31016],[-160.5,13.46473],[-160,13.62773],[-159.5,13.7992],[-159,13.97916],[-158.5,14.16763],[-158,14.36462],[-157.5,14.5701],[-157,14.78407],[-156.5,15.00647],[-156,15.23725],[-155.5,15.47634],[-155,15.72365],[-154.5,15.97907],[-154,16.24249],[-153.5,16.51376],[-153,16.79274],[-152.5,17.07924],[-152,17.37308],[-151.5,17.67407],[-151,17.98198],[-150.5,18.29658],[-150,18.61762],[-149.5,18.94487],[-149,19.27803],[-148.5,19.61684],[-148,19.96102],[-147.5,20.31026],[-147,20.66427],[-146.5,21.02276],[-146,21.3854],[-145.5,21.7519],[-145,22.12195],[-144.5,22.49524],[-144,22.87146],[-143.5,23.25032],[-143,23.63152],[-142.5,24.01476],[-142,24.39976],[-141.5,24.78625],[-141,25.17395],[-140.5,25.5626],[-140,25.95196],[-139.5,26.34177],[-139,26.73181],[-138.5,27.12185],[-138,27.51168],[-137.5,27.90109],[-137,28.28991],[-136.5,28.67793],[-136,29.065],[-135.5,29.45095],[-135,29.83562],[-134.5,30.21888],[-134,30.60059],[-133.5,30.98063],[-133,31.35887],[-132.5,31.73523],[-132,32.10958],[-131.5,32.48185],[-131,32.85194],[-130.5,33.21979],[-130,33.58531],[-129.5,33.94845],[-129,34.30914],[-128.5,34.66734],[-128,35.02298],[-127.5,35.37604],[-127,35.72647],[-126.5,36.07424],[-126,36.41932],[-125.5,36.76168],[-125,37.1013],[-124.5,37.43816],[-124,37.77224],[-123.5,38.10354],[-123,38.43204],[-122.5,38.75774],[-122,39.08062],[-121.5,39.40069],[-121,39.71794],[-120.5,40.03238],[-120,40.344],[-119.5,40.65282],[-119,40.95883],[-118.5,41.26205],[-118,41.56248],[-117.5,41.86013],[-117,42.15501],[-116.5,42.44713],[-116,42.73651],[-115.5,43.02315],[-115,43.30708],[-114.5,43.5883],[-114,43.86683],[-113.5,44.14269],[-113,44.41588],[-112.5,44.68644],[-112,44.95437],[-111.5,45.21968],[-111,45.48241],[-110.5,45.74257],[-110,46.00016],[-109.5,46.25522],[-109,46.50776],[-108.5,46.75779],[-108,47.00535],[-107.5,47.25043],[-107,47.49307],[-106.5,47.73328],[-106,47.97109],[-105.5,48.2065],[-105,48.43954],[-104.5,48.67023],[-104,48.89858],[-103.5,49.12461],[-103,49.34835],[-102.5,49.56981],[-102.48811,49.61055]]}},{"type":"Feature","id":"+00930116:south:0","properties":{"id":"+00930116","year":93,"month":1,"day":16,"time_tdt":"00:32:32","type":"개기일식","type_code":"T","saros":81,"gamma":0.62024,"magnitude":1.02498,"greatest":{"lat":15.7484,"lng":-154.95099},"path_width_km":107.4,"duration":"02m25s","delta_t_seconds":9619.3,"catalog_number":5003,"source":"NASA Five Millennium Canon of Solar Eclipses","source_url":"https://eclipse.gsfc.nasa.gov/SEsearch/SEsearchmap.php?Ecl=%2B00930116","boundary":"south","name":"93-01-16 개기일식"},"geometry":{"type":"LineString","coordinates":[[154.5,20.45187],[155,20.25077],[155.5,20.05057],[156,19.85131],[156.5,19.65302],[157,19.45574],[157.5,19.2595],[158,19.06435],[158.5,18.87031],[159,18.67743],[159.5,18.48575],[160,18.29532],[160.5,18.10616],[161,17.91832],[161.5,17.73185],[162,17.5468],[162.5,17.3632],[163,17.18111],[163.5,17.00057],[164,16.82163],[164.5,16.64434],[165,16.46875],[165.5,16.29492],[166,16.1229],[166.5,15.95274],[167,15.7845],[167.5,15.61824],[168,15.45401],[168.5,15.29188],[169,15.13191],[169.5,14.97416],[170,14.81869],[170.5,14.66558],[171,14.51488],[171.5,14.36667],[172,14.22102],[172.5,14.078],[173,13.93768],[173.5,13.80015],[174,13.66546],[174.5,13.53372],[175,13.40499],[175.5,13.27936],[176,13.15691],[176.5,13.03773],[177,12.92191],[177.5,12.80953],[178,12.70069],[178.5,12.59548],[179,12.494],[179.5,12.39634],[180,12.3026]]}},{"type":"Feature","id":"+00930116:south:1","properties":{"id":"+00930116","year":93,"month":1,"day":16,"time_tdt":"00:32:32","type":"개기일식","type_code":"T","saros":81,"gamma":0.62024,"magnitude":1.02498,"greatest":{"lat":15.7484,"lng":-154.95099},"path_width_km":107.4,"duration":"02m25s","delta_t_seconds":9619.3,"catalog_number":5003,"source":"NASA Five Millennium Canon of Solar Eclipses","source_url":"https://eclipse.gsfc.nasa.gov/SEsearch/SEsearchmap.php?Ecl=%2B00930116","boundary":"south","name":"93-01-16 개기일식"},"geometry":{"type":"LineString","coordinates":[[-179.5,12.21289],[-179,12.12731],[-178.5,12.04596],[-178,11.96895],[-177.5,11.89639],[-177,11.82839],[-176.5,11.76507],[-176,11.70653],[-175.5,11.6529],[-175,11.6043],[-174.5,11.56084],[-174,11.52265],[-173.5,11.48984],[-173,11.46256],[-172.5,11.44091],[-172,11.42504],[-171.5,11.41506],[-171,11.41111],[-170.5,11.41333],[-170,11.42183],[-169.5,11.43676],[-169,11.45824],[-168.5,11.4864],[-168,11.52139],[-167.5,11.56332],[-167,11.61233],[-166.5,11.66854],[-166,11.73208],[-165.5,11.80308],[-165,11.88165],[-164.5,11.96791],[-164,12.06198],[-163.5,12.16395],[-163,12.27394],[-162.5,12.39205],[-162,12.51835],[-161.5,12.65294],[-161,12.79589],[-160.5,12.94727],[-160,13.10713],[-159.5,13.27552],[-159,13.45248],[-158.5,13.63802],[-158,13.83216],[-157.5,14.03489],[-157,14.2462],[-156.5,14.46606],[-156,14.69441],[-155.5,14.9312],[-155,15.17634],[-154.5,15.42974],[-154,15.69129],[-153.5,15.96085],[-153,16.23829],[-152.5,16.52343],[-152,16.8161],[-151.5,17.1161],[-151,17.42322],[-150.5,17.73724],[-150,18.05791],[-149.5,18.38499],[-149,18.71821],[-148.5,19.05729],[-148,19.40196],[-147.5,19.75191],[-147,20.10685],[-146.5,20.46648],[-146,20.83049],[-145.5,21.19856],[-145,21.57039],[-144.5,21.94565],[-144,22.32405],[-143.5,22.70528],[-143,23.08903],[-142.5,23.47499],[-142,23.86289],[-141.5,24.25243],[-141,24.64334],[-140.5,25.03535],[-140,25.42819],[-139.5,25.82161],[-139,26.21538],[-138.5,26.60925],[-138,27.00302],[-137.5,27.39647],[-137,27.78939],[-136.5,28.1816],[-136,28.57292],[-135.5,28.96319],[-135,29.35223],[-134.5,29.7399],[-134,30.12607],[-133.5,30.51059],[-133,30.89335],[-132.5,31.27424],[-132,31.65315],[-131.5,32.02999],[-131,32.40465],[-130.5,32.77708],[-130,33.14718],[-129.5,33.51488],[-129,33.88014],[-128.5,34.24289],[-128,34.60307],[-127.5,34.96066],[-127,35.31559],[-126.5,35.66784],[-126,36.01738],[-125.5,36.36417],[-125,36.7082],[-124.5,37.04944],[-124,37.38787],[-123.5,37.72349],[-123,38.05627],[-122.5,38.38622],[-122,38.71332],[-121.5,39.03758],[-121,39.35898],[-120.5,39.67753],[-120,39.99323],[-119.5,40.30609],[-119,40.61611],[-118.5,40.9233],[-118,41.22765],[-117.5,41.5292],[-117,41.82793],[-116.5,42.12388],[-116,42.41704],[-115.5,42.70743],[-115,42.99506],[-114.5,43.27995],[-114,43.56211],[-113.5,43.84156],[-113,44.11832],[-112.5,44.39239],[-112,44.66381],[-111.5,44.93258],[-111,45.19872],[-110.5,45.46225],[-110,45.72319],[-109.5,45.98156],[-109,46.23737],[-108.5,46.49065],[-108,46.74141],[-107.5,46.98967],[-107,47.23545],[-106.5,47.47876],[-106,47.71964],[-105.5,47.9581],[-105,48.19415],[-104.5,48.42781],[-104,48.65911],[-103.5,48.88806],[-103,49.11468],[-102.5,49.339]]}},{"type":"Feature","id":"+00930712:north:0","properties":{"id":"+00930712","year":93,"month":7,"day":12,"time_tdt":"09:56:16","type":"금환일식","type_code":"A","saros":86,"gamma":-0.81747,"magnitude":0.94372,"greatest":{"lat":-31.19927,"lng":58.80084},"path_width_km":357.5,"duration":"06m41s","delta_t_seconds":9614.6,"catalog_number":5004,"source":"NASA Five Millennium Canon of Solar Eclipses","source_url":"https://eclipse.gsfc.nasa.gov/SEsearch/SEsearchmap.php?Ecl=%2B00930712","boundary":"north","name":"93-07-12 금환일식"},"geometry":{"type":"LineString","coordinates":[[16.88867,-36.5281],[17,-36.48009],[17.5,-36.26501],[18,-36.05085],[18.5,-35.83767],[19,-35.62549],[19.5,-35.41437],[20,-35.20436],[20.5,-34.99548],[21,-34.7878],[21.5,-34.58137],[22,-34.37622],[22.5,-34.17242],[23,-33.97002],[23.5,-33.76907],[24,-33.56964],[24.5,-33.37177],[25,-33.17554],[25.5,-32.981],[26,-32.78822],[26.5,-32.59726],[27,-32.4082],[27.5,-32.22111],[28,-32.03605],[28.5,-31.85312],[29,-31.67237],[29.5,-31.4939],[30,-31.31779],[30.5,-31.14412],[31,-30.97299],[31.5,-30.80448],[32,-30.63869],[32.5,-30.47572],[33,-30.31567],[33.5,-30.15864],[34,-30.00473],[34.5,-29.85407],[35,-29.70676],[35.5,-29.56292],[36,-29.42268],[36.5,-29.28615],[37,-29.15346],[37.5,-29.02474],[38,-28.90014],[38.5,-28.77978],[39,-28.66382],[39.5,-28.55239],[40,-28.44566],[40.5,-28.34376],[41,-28.24686],[41.5,-28.15513],[42,-28.06872],[42.5,-27.98781],[43,-27.91256],[43.5,-27.84314],[44,-27.77975],[44.5,-27.72256],[45,-27.67174],[45.5,-27.62749],[46,-27.58999],[46.5,-27.55943],[47,-27.536],[47.5,-27.51988],[48,-27.51126],[48.5,-27.51034],[49,-27.5173],[49.5,-27.53231],[50,-27.55557],[50.5,-27.58725],[51,-27.62751],[51.5,-27.67653],[52,-27.73446],[52.5,-27.80144],[53,-27.87763],[53.5,-27.96315],[54,-28.05811],[54.5,-28.16262],[55,-28.27677],[55.5,-28.40064],[56,-28.53427],[56.5,-28.67772],[57,-28.83099],[57.5,-28.9941],[58,-29.16701],[58.5,-29.34969],[59,-29.54208],[59.5,-29.74408],[60,-29.9556],[60.5,-30.17649],[61,-30.4066],[61.5,-30.64576],[62,-30.89378],[62.5,-31.15042],[63,-31.41547],[63.5,-31.68866],[64,-31.96973],[64.5,-32.25837],[65,-32.55431],[65.5,-32.85722],[66,-33.16678],[66.5,-33.48266],[67,-33.80453],[67.5,-34.13204],[68,-34.46485],[68.5,-34.80262],[69,-35.145],[69.5,-35.49165],[70,-35.84224],[70.5,-36.19643],[71,-36.55389],[71.5,-36.91432],[72,-37.27739],[72.5,-37.64281],[73,-38.01028],[73.5,-38.37953],[74,-38.75028],[74.5,-39.12228],[75,-39.49527],[75.5,-39.86902],[76,-40.24331],[76.5,-40.61791],[77,-40.99264],[77.5,-41.36728],[78,-41.74167],[78.5,-42.11564],[79,-42.48901],[79.5,-42.86164],[80,-43.23339],[80.5,-43.60413],[81,-43.97372],[81.5,-44.34206],[82,-44.70904],[82.5,-45.07455],[83,-45.4385],[83.5,-45.80081],[84,-46.1614],[84.5,-46.52018],[85,-46.8771],[85.5,-47.23208],[86,-47.58507],[86.5,-47.93602],[87,-48.28488],[87.5,-48.6316],[88,-48.97614],[88.5,-49.31846],[89,-49.65853],[89.5,-49.99631],[90,-50.33179],[90.5,-50.66493],[91,-50.99571],[91.5,-51.32411],[92,-51.65012],[92.5,-51.97371],[93,-52.29488],[93.5,-52.6136],[94,-52.92988],[94.5,-53.24369],[95,-53.55504],[95.5,-53.86392],[96,-54.17032],[96.5,-54.47424],[97,-54.77567],[97.5,-55.07462],[98,-55.37108],[98.5,-55.66505],[99,-55.95654],[99.5,-56.24554],[100,-56.53206],[100.5,-56.8161],[101,-57.09767],[101.5,-57.37676],[102,-57.65339],[102.4043,-57.87527]]}},{"type":"Feature","id":"+00930712:center:0","properties":{"id":"+00930712","year":93,"month":7,"day":12,"time_tdt":"09:56:16","type":"금환일식","type_code":"A","saros":86,"gamma":-0.81747,"magnitude":0.94372,"greatest":{"lat":-31.19927,"lng":58.80084},"path_width_km":357.5,"duration":"06m41s","delta_t_seconds":9614.6,"catalog_number":5004,"source":"NASA Five Millennium Canon of Solar Eclipses","source_url":"https://eclipse.gsfc.nasa.gov/SEsearch/SEsearchmap.php?Ecl=%2B00930712","boundary":"center","name":"93-07-12 금환일식"},"geometry":{"type":"LineString","coordinates":[[17.32501,-38.13229],[17.5,-38.05897],[18,-37.83931],[18.5,-37.62067],[19,-37.4031],[19.5,-37.18664],[20,-36.97134],[20.5,-36.75724],[21,-36.54439],[21.5,-36.33284],[22,-36.12265],[22.5,-35.91387],[23,-35.70655],[23.5,-35.50074],[24,-35.29652],[24.5,-35.09393],[25,-34.89305],[25.5,-34.69393],[26,-34.49665],[26.5,-34.30126],[27,-34.10785],[27.5,-33.91648],[28,-33.72723],[28.5,-33.54018],[29,-33.35542],[29.5,-33.17301],[30,-32.99305],[30.5,-32.81563],[31,-32.64084],[31.5,-32.46878],[32,-32.29953],[32.5,-32.13321],[33,-31.96992],[33.5,-31.80975],[34,-31.65284],[34.5,-31.49927],[35,-31.34919],[35.5,-31.2027],[36,-31.05993],[36.5,-30.92101],[37,-30.78607],[37.5,-30.65526],[38,-30.52869],[38.5,-30.40653],[39,-30.28892],[39.5,-30.17601],[40,-30.06795],[40.5,-29.96491],[41,-29.86705],[41.5,-29.77453],[42,-29.68752],[42.5,-29.6062],[43,-29.53075],[43.5,-29.46134],[44,-29.39817],[44.5,-29.3414],[45,-29.29124],[45.5,-29.24788],[46,-29.21149],[46.5,-29.18229],[47,-29.16045],[47.5,-29.14617],[48,-29.13966],[48.5,-29.14109],[49,-29.15065],[49.5,-29.16854],[50,-29.19493],[50.5,-29.23001],[51,-29.27393],[51.5,-29.32688],[52,-29.389],[52.5,-29.46044],[53,-29.54135],[53.5,-29.63183],[54,-29.73201],[54.5,-29.84198],[55,-29.96183],[55.5,-30.09162],[56,-30.23139],[56.5,-30.38118],[57,-30.54099],[57.5,-30.71082],[58,-30.89062],[58.5,-31.08034],[59,-31.2799],[59.5,-31.4892],[60,-31.70812],[60.5,-31.9365],[61,-32.17418],[61.5,-32.42096],[62,-32.67663],[62.5,-32.94097],[63,-33.21371],[63.5,-33.49459],[64,-33.78332],[64.5,-34.07961],[65,-34.38315],[65.5,-34.69361],[66,-35.01066],[66.5,-35.33397],[67,-35.66319],[67.5,-35.99798],[68,-36.33799],[68.5,-36.68288],[69,-37.0323],[69.5,-37.38591],[70,-37.74337],[70.5,-38.10435],[71,-38.46853],[71.5,-38.8356],[72,-39.20525],[72.5,-39.57718],[73,-39.9511],[73.5,-40.32674],[74,-40.70384],[74.5,-41.08213],[75,-41.46139],[75.5,-41.84136],[76,-42.22185],[76.5,-42.60263],[77,-42.9835],[77.5,-43.36429],[78,-43.7448],[78.5,-44.12488],[79,-44.50437],[79.5,-44.88312],[80,-45.261],[80.5,-45.63786],[81,-46.01359],[81.5,-46.38808],[82,-46.76121],[82.5,-47.1329],[83,-47.50304],[83.5,-47.87156],[84,-48.23837],[84.5,-48.6034],[85,-48.96657],[85.5,-49.32783],[86,-49.68712],[86.5,-50.04439],[87,-50.39957],[87.5,-50.75264],[88,-51.10354],[88.5,-51.45223],[89,-51.79869],[89.5,-52.14287],[90,-52.48475],[90.5,-52.8243],[91,-53.16149],[91.5,-53.49631],[92,-53.82873],[92.5,-54.15874],[93,-54.48631],[93.5,-54.81144],[94,-55.13411],[94.5,-55.4543],[95,-55.77202],[95.5,-56.08724],[96,-56.39996],[96.5,-56.71018],[97,-57.01788],[97.5,-57.32307],[98,-57.62574],[98.5,-57.92589],[99,-58.22351],[99.5,-58.5186],[100,-58.81117],[100.5,-59.10121],[100.46031,-59.13589]]}},{"type":"Feature","id":"+00930712:south:0","properties":{"id":"+00930712","year":93,"month":7,"day":12,"time_tdt":"09:56:16","type":"금환일식","type_code":"A","saros":86,"gamma":-0.81747,"magnitude":0.94372,"greatest":{"lat":-31.19927,"lng":58.80084},"path_width_km":357.5,"duration":"06m41s","delta_t_seconds":9614.6,"catalog_number":5004,"source":"NASA Five Millennium Canon of Solar Eclipses","source_url":"https://eclipse.gsfc.nasa.gov/SEsearch/SEsearchmap.php?Ecl=%2B00930712","boundary":"south","name":"93-07-12 금환일식"},"geometry":{"type":"LineString","coordinates":[[18,-39.72505],[18.5,-39.50026],[19,-39.2766],[19.5,-39.05412],[20,-38.83287],[20.5,-38.61291],[21,-38.39427],[21.5,-38.17701],[22,-37.96119],[22.5,-37.74685],[23,-37.53406],[23.5,-37.32286],[24,-37.11334],[24.5,-36.90553],[25,-36.69951],[25.5,-36.49535],[26,-36.29312],[26.5,-36.09287],[27,-35.89469],[27.5,-35.69866],[28,-35.50484],[28.5,-35.31333],[29,-35.1242],[29.5,-34.93754],[30,-34.75343],[30.5,-34.57198],[31,-34.39327],[31.5,-34.2174],[32,-34.04447],[32.5,-33.87459],[33,-33.70786],[33.5,-33.5444],[34,-33.38431],[34.5,-33.22772],[35,-33.07475],[35.5,-32.92553],[36,-32.78017],[36.5,-32.63882],[37,-32.50161],[37.5,-32.36868],[38,-32.24018],[38.5,-32.11626],[39,-31.99706],[39.5,-31.88275],[40,-31.77349],[40.5,-31.66944],[41,-31.57076],[41.5,-31.47764],[42,-31.39025],[42.5,-31.30876],[43,-31.23337],[43.5,-31.16425],[44,-31.1016],[44.5,-31.0456],[45,-30.99646],[45.5,-30.95436],[46,-30.9195],[46.5,-30.89209],[47,-30.87231],[47.5,-30.86037],[48,-30.85647],[48.5,-30.86079],[49,-30.87353],[49.5,-30.89489],[50,-30.92503],[50.5,-30.96414],[51,-31.0124],[51.5,-31.06996],[52,-31.13699],[52.5,-31.21362],[53,-31.29998],[53.5,-31.3962],[54,-31.50239],[54.5,-31.61863],[55,-31.745],[55.5,-31.88154],[56,-32.02831],[56.5,-32.18531],[57,-32.35254],[57.5,-32.52997],[58,-32.71756],[58.5,-32.91523],[59,-33.12289],[59.5,-33.34041],[60,-33.56767],[60.5,-33.80448],[61,-34.05068],[61.5,-34.30604],[62,-34.57034],[62.5,-34.84334],[63,-35.12476],[63.5,-35.41433],[64,-35.71175],[64.5,-36.01671],[65,-36.32888],[65.5,-36.64795],[66,-36.97357],[66.5,-37.3054],[67,-37.64309],[67.5,-37.98629],[68,-38.33466],[68.5,-38.68785],[69,-39.04551],[69.5,-39.4073],[70,-39.77289],[70.5,-40.14196],[71,-40.51418],[71.5,-40.88924],[72,-41.26684],[72.5,-41.64669],[73,-42.02851],[73.5,-42.41203],[74,-42.79698],[74.5,-43.18311],[75,-43.5702],[75.5,-43.95802],[76,-44.34634],[76.5,-44.73497],[77,-45.12371],[77.5,-45.51237],[78,-45.90079],[78.5,-46.28881],[79,-46.67626],[79.5,-47.063],[80,-47.4489],[80.5,-47.83383],[81,-48.21767],[81.5,-48.60031],[82,-48.98164],[82.5,-49.36156],[83,-49.73999],[83.5,-50.11683],[84,-50.49201],[84.5,-50.86546],[85,-51.2371],[85.5,-51.60688],[86,-51.97472],[86.5,-52.34058],[87,-52.7044],[87.5,-53.06614],[88,-53.42575],[88.5,-53.7832],[89,-54.13843],[89.5,-54.49142],[90,-54.84214],[90.5,-55.19055],[91,-55.53663],[91.5,-55.88035],[92,-56.22169],[92.5,-56.56063],[93,-56.89714],[93.5,-57.2312],[94,-57.56281],[94.5,-57.89194],[95,-58.21858],[95.5,-58.54271],[96,-58.86433],[96.5,-59.18343],[97,-59.49998],[97.5,-59.81399],[98,-60.12544]]}}],"attribution":"Eclipse Predictions by Fred Espenak and Jean Meeus (NASA's GSFC)","generated_at":"2026-09-23T01:44:44.604Z"}
