{"type":"FeatureCollection","year":943,"events":[{"id":"+09430507","year":943,"month":5,"day":7,"time_tdt":"02:02:38","type":"금환일식","type_code":"A","saros":111,"gamma":0.80586,"magnitude":0.96933,"greatest":{"lat":64.03288,"lng":114.22528},"path_width_km":185.2,"duration":"02m17s","delta_t_seconds":1898.7,"catalog_number":6994,"source":"NASA Five Millennium Canon of Solar Eclipses","source_url":"https://eclipse.gsfc.nasa.gov/SEsearch/SEsearchmap.php?Ecl=%2B09430507"},{"id":"+09431031","year":943,"month":10,"day":31,"time_tdt":"19:32:08","type":"금환일식","type_code":"A","saros":116,"gamma":-0.95476,"magnitude":0.97829,"greatest":{"lat":-67.82043,"lng":166.70935},"path_width_km":264.9,"duration":"01m19s","delta_t_seconds":1895.6,"catalog_number":6995,"source":"NASA Five Millennium Canon of Solar Eclipses","source_url":"https://eclipse.gsfc.nasa.gov/SEsearch/SEsearchmap.php?Ecl=%2B09431031"}],"features":[{"type":"Feature","id":"+09430507:north:0","properties":{"id":"+09430507","year":943,"month":5,"day":7,"time_tdt":"02:02:38","type":"금환일식","type_code":"A","saros":111,"gamma":0.80586,"magnitude":0.96933,"greatest":{"lat":64.03288,"lng":114.22528},"path_width_km":185.2,"duration":"02m17s","delta_t_seconds":1898.7,"catalog_number":6994,"source":"NASA Five Millennium Canon of Solar Eclipses","source_url":"https://eclipse.gsfc.nasa.gov/SEsearch/SEsearchmap.php?Ecl=%2B09430507","boundary":"north","name":"943-05-07 금환일식"},"geometry":{"type":"LineString","coordinates":[[71,31.99859],[71.5,32.164],[71.5,32.16399],[72,32.3335],[72.5,32.50718],[73,32.6851],[73.5,32.86735],[74,33.05401],[74.5,33.24515],[75,33.44087],[75.5,33.64125],[76,33.84638],[76.5,34.05636],[77,34.27127],[77.5,34.49121],[78,34.71629],[78.5,34.94661],[79,35.18226],[79.5,35.42336],[80,35.67001],[80.5,35.92233],[81,36.18042],[81.5,36.44441],[82,36.71441],[82.5,36.99055],[83,37.27293],[83.5,37.56169],[84,37.85694],[84.5,38.15882],[85,38.46745],[85.5,38.78296],[86,39.10546],[86.5,39.4351],[87,39.77198],[87.5,40.11623],[88,40.46798],[88.5,40.82732],[89,41.19439],[89.5,41.56927],[90,41.95208],[90.5,42.34289],[91,42.74178],[91.5,43.14883],[92,43.56409],[92.5,43.98758],[92.5,43.98759],[93,44.41935],[93.5,44.85937],[94,45.30764],[94.5,45.7641],[95,46.22868],[95.5,46.70126],[95.5,46.70127],[96,47.18172],[96.5,47.66988],[97,48.16551],[97,48.16552],[97.5,48.66838],[98,49.17817],[98.5,49.69456],[99,50.21714],[99.5,50.74549],[100,51.27912],[100.5,51.81751],[101,52.3601],[101.5,52.90626],[102,53.45535],[102.5,54.00668],[103,54.55954],[103.5,55.1132],[104,55.66691],[104.5,56.21989],[105,56.7714],[105.5,57.32067],[106,57.86695],[106.5,58.40952],[107,58.94769],[107.5,59.48078],[108,60.00818],[108.5,60.52929],[109,61.04358],[109.5,61.55056],[110,62.04979],[110.5,62.54088],[111,63.0235],[111.5,63.49735],[112,63.96221],[112.5,64.41787],[113,64.86421],[113.5,65.3011],[114,65.72849],[114.5,66.14634],[115,66.55466],[115.5,66.95348],[116,67.34286],[116.5,67.72288],[117,68.09364],[117.5,68.45526],[118,68.80787],[118.5,69.15163],[119,69.48669],[119.5,69.81322],[120,70.13139],[120,70.1314],[120.5,70.44139],[121,70.7434],[121.5,71.0376],[122,71.32418],[122.5,71.60334],[123,71.87525],[123.5,72.14012],[124,72.39813],[124,72.39812],[124.5,72.64945],[125,72.89428],[125.5,73.13279],[126,73.36516],[126.5,73.59156],[127,73.81217],[127.5,74.02713],[127.5,74.02714],[128,74.23663],[128.5,74.44081],[129,74.63983],[129.5,74.83384],[130,75.02298],[130.5,75.20739],[131,75.38721],[131.5,75.56257],[132,75.73361],[132.5,75.90044],[133,76.06319],[133.5,76.22197],[134,76.3769],[134.5,76.52809],[135,76.67564],[135.5,76.81966],[136,76.96025],[136.5,77.0975],[137,77.23151],[137.5,77.36237],[138,77.49016],[138.5,77.61497],[139,77.73688],[139.5,77.85597],[140,77.97231],[140.5,78.08599],[141,78.19707],[141.5,78.30562],[142,78.4117],[142.5,78.51539],[143,78.61674],[143.5,78.71582],[144,78.81268],[144.5,78.90738],[145,78.99998],[145.5,79.09053],[146,79.17907],[146.5,79.26566],[147,79.35036],[147.5,79.43319],[148,79.51421],[148.5,79.59347],[149,79.671],[149.5,79.74684],[150,79.82104],[150.5,79.89363],[151,79.96465],[151.5,80.03414],[152,80.10212],[152.5,80.16865],[153,80.23374],[153.5,80.29742],[154,80.35974],[154.5,80.42071],[155,80.48038],[155.5,80.53876],[156,80.59588],[156.5,80.65177],[157,80.70645],[157.5,80.75995],[158,80.8123],[158.5,80.86351],[159,80.91361],[159.5,80.96262],[160,81.01056],[160.5,81.05746],[161,81.10332],[161.5,81.14818],[162,81.19204],[162.5,81.23494],[163,81.27687],[163.5,81.31787],[164,81.35795],[164.5,81.39713],[165,81.43541],[165.5,81.47282],[166,81.50937],[166.5,81.54508],[167,81.57995],[167.5,81.61401],[168,81.64726],[168.5,81.67972],[169,81.71139],[169.5,81.7423],[170,81.77245],[170.5,81.80185],[171,81.83052],[171.5,81.85846],[172,81.88569],[172.5,81.91221],[173,81.93804],[173.5,81.96318],[174,81.98764],[174.5,82.01144],[175,82.03457],[175.5,82.05705],[176,82.07889],[176.5,82.10009],[177,82.12065],[177.5,82.1406],[178,82.15993],[178.5,82.17865],[179,82.19676],[179.5,82.21428],[180,82.23121]]}},{"type":"Feature","id":"+09430507:north:1","properties":{"id":"+09430507","year":943,"month":5,"day":7,"time_tdt":"02:02:38","type":"금환일식","type_code":"A","saros":111,"gamma":0.80586,"magnitude":0.96933,"greatest":{"lat":64.03288,"lng":114.22528},"path_width_km":185.2,"duration":"02m17s","delta_t_seconds":1898.7,"catalog_number":6994,"source":"NASA Five Millennium Canon of Solar Eclipses","source_url":"https://eclipse.gsfc.nasa.gov/SEsearch/SEsearchmap.php?Ecl=%2B09430507","boundary":"north","name":"943-05-07 금환일식"},"geometry":{"type":"LineString","coordinates":[[-179.5,82.24755],[-179,82.26331],[-178.5,82.27849],[-178,82.29311],[-177.5,82.30716],[-177,82.32065],[-176.5,82.33358],[-176,82.34597],[-175.5,82.3578],[-175,82.36909],[-174.5,82.37984],[-174,82.39005],[-173.5,82.39973],[-173,82.40888],[-172.5,82.4175],[-172,82.4256],[-171.5,82.43317],[-171,82.44023],[-170.5,82.44677],[-170.5,82.44676],[-170,82.45279],[-169.5,82.4583],[-169,82.4633],[-168.5,82.46779],[-168,82.47177],[-167.5,82.47524],[-167,82.47821],[-166.5,82.48068],[-166,82.48264],[-165.5,82.4841],[-165,82.48506],[-164.5,82.48551],[-164,82.48547],[-163.5,82.48492],[-163,82.48387],[-162.5,82.48232],[-162,82.48027],[-161.5,82.47772],[-161,82.47466],[-160.5,82.4711],[-160,82.46704],[-159.5,82.46247],[-159,82.45739],[-158.5,82.45181],[-158,82.44571],[-157.5,82.43911],[-157,82.43199],[-156.5,82.42436],[-156,82.41621],[-155.5,82.40754],[-155,82.39835],[-154.5,82.38864],[-154,82.3784],[-153.5,82.36762],[-153.5,82.36763],[-153,82.35632],[-152.5,82.34448],[-152,82.3321],[-151.5,82.31918],[-151,82.30571],[-150.5,82.29169],[-150,82.27711],[-149.5,82.26197],[-149,82.24628],[-148.5,82.23001],[-148,82.21317],[-147.5,82.19575],[-147,82.17775],[-146.5,82.15916],[-146,82.13997],[-145.5,82.12019],[-145,82.0998],[-144.5,82.0788],[-144,82.05718],[-144,82.05717],[-143.5,82.03493],[-143,82.01205],[-142.5,81.98853],[-142,81.96437],[-141.5,81.93955],[-141,81.91407],[-140.5,81.88792],[-140,81.8611],[-139.5,81.83358],[-139,81.80538],[-139,81.80537],[-138.5,81.77646],[-138,81.74684],[-137.5,81.71649],[-137,81.68541],[-136.5,81.65359],[-136,81.62101],[-135.5,81.58768],[-135,81.55356],[-134.5,81.51867],[-134,81.48297],[-133.5,81.44647],[-133,81.40914],[-132.5,81.37098],[-132,81.33198],[-131.5,81.29211],[-131,81.25137],[-131,81.25138],[-130.5,81.20975],[-130,81.16723],[-129.5,81.12379],[-129,81.07941],[-128.5,81.0341],[-128,80.98782],[-127.5,80.94056],[-127,80.89231],[-126.5,80.84305],[-126,80.79276],[-125.5,80.74142],[-125,80.68902],[-124.5,80.63554],[-124,80.58095],[-123.5,80.52525],[-123.5,80.52524],[-123,80.4684],[-122.5,80.41038],[-122,80.35119],[-121.5,80.29079],[-121,80.22916],[-120.5,80.16629],[-120,80.10214],[-119.5,80.0367],[-119,79.96993],[-118.5,79.90183],[-118,79.83235],[-117.5,79.76148],[-117,79.68919],[-116.5,79.61545],[-116,79.54024],[-115.5,79.46353],[-115,79.38528],[-114.5,79.30548],[-114,79.22409],[-113.5,79.14108],[-113,79.05643],[-112.5,78.97009],[-112,78.88205],[-111.5,78.79226],[-111,78.7007],[-110.5,78.60733],[-110,78.51212],[-109.5,78.41504],[-109,78.31605],[-108.5,78.21511],[-108,78.1122],[-107.5,78.00728],[-107,77.90031],[-106.5,77.79125],[-106,77.68008],[-105.5,77.56675],[-105,77.45123],[-104.5,77.33348],[-104,77.21346],[-103.5,77.09114],[-103,76.96649],[-102.5,76.83946],[-102,76.71002],[-101.5,76.57813],[-101,76.44377],[-100.5,76.30688],[-100.5,76.30689],[-100,76.16745],[-99.5,76.02543],[-99,75.8808],[-98.5,75.73351],[-98,75.58355],[-97.5,75.43087],[-97,75.27545],[-96.5,75.11727],[-96,74.95628],[-95.5,74.79248],[-95,74.62584],[-94.5,74.45633],[-94,74.28394],[-93.5,74.10864],[-93,73.93043],[-92.5,73.74928],[-92,73.5652],[-91.5,73.37816],[-91,73.18817],[-90.5,72.99522],[-90,72.79932],[-89.5,72.60045],[-89,72.39864],[-88.5,72.19389],[-88,71.9862],[-87.5,71.77561],[-87,71.56212],[-86.5,71.34577],[-86,71.12656],[-85.5,70.90454],[-85,70.67974],[-84.5,70.4522],[-84.5,70.45219],[-84,70.22194],[-83.5,69.98902],[-83,69.75349],[-83,69.75348],[-82.5,69.51538],[-82,69.27476],[-81.5,69.03168],[-81,68.7862],[-80.5,68.53839],[-80,68.2883],[-79.5,68.036],[-79,67.78156]]}},{"type":"Feature","id":"+09430507:center:0","properties":{"id":"+09430507","year":943,"month":5,"day":7,"time_tdt":"02:02:38","type":"금환일식","type_code":"A","saros":111,"gamma":0.80586,"magnitude":0.96933,"greatest":{"lat":64.03288,"lng":114.22528},"path_width_km":185.2,"duration":"02m17s","delta_t_seconds":1898.7,"catalog_number":6994,"source":"NASA Five Millennium Canon of Solar Eclipses","source_url":"https://eclipse.gsfc.nasa.gov/SEsearch/SEsearchmap.php?Ecl=%2B09430507","boundary":"center","name":"943-05-07 금환일식"},"geometry":{"type":"LineString","coordinates":[[71.72455,30.87168],[72,30.98759],[72.5,31.15763],[73,31.33177],[73.5,31.51009],[74,31.69266],[74.5,31.87956],[75,32.07087],[75.5,32.26667],[76,32.46705],[76.5,32.67209],[77,32.88188],[77.5,33.09651],[77.5,33.09652],[78,33.31608],[78.5,33.54068],[79,33.77041],[79.5,34.00537],[80,34.24565],[80.5,34.49137],[81,34.74264],[81.5,34.99955],[82,35.26222],[82.5,35.53076],[83,35.8053],[83.5,36.08593],[84,36.37278],[84,36.37279],[84.5,36.66598],[85,36.96563],[85.5,37.27185],[85.5,37.27186],[86,37.58478],[86.5,37.90452],[87,38.2312],[87.5,38.56493],[88,38.90583],[88.5,39.25401],[89,39.60958],[89.5,39.97264],[90,40.34331],[90.5,40.72166],[91,41.10778],[91.5,41.50175],[92,41.90363],[92.5,42.31348],[93,42.73132],[93.5,43.15718],[94,43.59107],[94.5,44.03295],[95,44.48279],[95.5,44.94053],[96,45.40605],[96.5,45.87924],[97,46.35994],[97.5,46.84794],[98,47.34301],[98.5,47.84488],[99,48.35324],[99.5,48.86771],[99.5,48.86772],[100,49.38792],[100.5,49.91339],[100.5,49.9134],[101,50.44366],[101.5,50.97819],[102,51.5164],[102.5,52.0577],[103,52.60144],[103.5,53.14695],[104,53.69354],[104.5,54.2405],[105,54.7871],[105.5,55.33263],[106,55.87636],[106.5,56.41756],[107,56.95555],[107.5,57.48963],[107.5,57.48964],[108,58.01918],[108.5,58.54356],[109,59.0622],[109.5,59.57457],[110,60.08016],[110.5,60.57855],[111,61.06932],[111.5,61.55213],[112,62.02668],[112.5,62.49271],[113,62.95001],[113.5,63.39842],[114,63.83781],[114.5,64.26808],[115,64.68919],[115.5,65.10112],[116,65.50387],[116.5,65.89748],[117,66.28201],[117.5,66.65754],[118,67.02417],[118.5,67.38202],[119,67.7312],[119.5,68.07187],[120,68.40417],[120.5,68.72827],[121,69.04431],[121.5,69.35248],[122,69.65295],[122.5,69.94589],[123,70.23148],[123.5,70.5099],[124,70.78133],[124.5,71.04593],[125,71.30389],[125.5,71.55539],[126,71.80058],[126.5,72.03965],[127,72.27275],[127.5,72.50004],[128,72.7217],[128.5,72.93787],[129,73.1487],[129.5,73.35435],[130,73.55496],[130.5,73.75066],[131,73.9416],[131.5,74.12791],[132,74.30972],[132.5,74.48715],[133,74.66033],[133.5,74.82938],[134,74.9944],[134.5,75.15551],[135,75.31283],[135.5,75.46645],[136,75.61647],[136.5,75.763],[137,75.90613],[137.5,76.04594],[138,76.18254],[138.5,76.31601],[139,76.44642],[139.5,76.57387],[140,76.69842],[140.5,76.82017],[141,76.93917],[141.5,77.0555],[142,77.16923],[142.5,77.28043],[143,77.38915],[143.5,77.49547],[144,77.59944],[144.5,77.70112],[145,77.80057],[145.5,77.89785],[146,77.99299],[146.5,78.08607],[147,78.17713],[147,78.17712],[147.5,78.2662],[148,78.35336],[148.5,78.43862],[149,78.52205],[149.5,78.60369],[149.5,78.60368],[150,78.68356],[150.5,78.76173],[151,78.83821],[151.5,78.91306],[152,78.9863],[152.5,79.05797],[153,79.12811],[153.5,79.19675],[154,79.26392],[154.5,79.32966],[155,79.39398],[155.5,79.45693],[156,79.51852],[156.5,79.5788],[157,79.63777],[157.5,79.69548],[158,79.75194],[158.5,79.80718],[159,79.86122],[159.5,79.91409],[160,79.9658],[160.5,80.01639],[161,80.06586],[161.5,80.11424],[162,80.16155],[162.5,80.20781],[162.5,80.20782],[163,80.25304],[163.5,80.29726],[164,80.34047],[164.5,80.38271],[165,80.42398],[165.5,80.4643],[166,80.50369],[166.5,80.54217],[167,80.57974],[167.5,80.61642],[168,80.65222],[168.5,80.68716],[169,80.72125],[169.5,80.75451],[170,80.78694],[170.5,80.81855],[171,80.84937],[171.5,80.87939],[172,80.90863],[172.5,80.93711],[173,80.96482],[173.5,80.99178],[174,81.018],[174.5,81.04349],[175,81.06825],[175,81.06826],[175.5,81.09231],[176,81.11565],[176.5,81.13829],[176.5,81.1383],[177,81.16025],[177.5,81.18152],[178,81.20211],[178.5,81.22204],[179,81.2413],[179.5,81.2599],[180,81.27786]]}},{"type":"Feature","id":"+09430507:center:1","properties":{"id":"+09430507","year":943,"month":5,"day":7,"time_tdt":"02:02:38","type":"금환일식","type_code":"A","saros":111,"gamma":0.80586,"magnitude":0.96933,"greatest":{"lat":64.03288,"lng":114.22528},"path_width_km":185.2,"duration":"02m17s","delta_t_seconds":1898.7,"catalog_number":6994,"source":"NASA Five Millennium Canon of Solar Eclipses","source_url":"https://eclipse.gsfc.nasa.gov/SEsearch/SEsearchmap.php?Ecl=%2B09430507","boundary":"center","name":"943-05-07 금환일식"},"geometry":{"type":"LineString","coordinates":[[-179.5,81.29517],[-179,81.31184],[-178.5,81.32788],[-178,81.34329],[-177.5,81.35807],[-177,81.37224],[-176.5,81.38579],[-176,81.39874],[-175.5,81.41108],[-175,81.42282],[-174.5,81.43396],[-174,81.44451],[-173.5,81.45446],[-173,81.46383],[-172.5,81.47262],[-172,81.48082],[-172,81.48083],[-171.5,81.48845],[-171,81.4955],[-170.5,81.50198],[-170,81.50789],[-169.5,81.51322],[-169,81.51799],[-168.5,81.5222],[-168,81.52583],[-167.5,81.52891],[-167,81.53142],[-166.5,81.53338],[-166,81.53477],[-165.5,81.5356],[-165,81.53587],[-164.5,81.53559],[-164,81.53474],[-163.5,81.53334],[-163,81.53137],[-162.5,81.52885],[-162,81.52577],[-161.5,81.52213],[-161,81.51792],[-160.5,81.51316],[-160,81.50783],[-159.5,81.50193],[-159,81.49547],[-158.5,81.48845],[-158,81.48085],[-157.5,81.47268],[-157,81.46393],[-156.5,81.45461],[-156,81.44471],[-155.5,81.43423],[-155,81.42316],[-154.5,81.41151],[-154,81.39927],[-153.5,81.38643],[-153,81.373],[-152.5,81.35896],[-152,81.34432],[-151.5,81.32907],[-151,81.31321],[-150.5,81.29673],[-150,81.27963],[-149.5,81.2619],[-149,81.24353],[-148.5,81.22453],[-148,81.20489],[-147.5,81.1846],[-147,81.16365],[-146.5,81.14204],[-146,81.11977],[-145.5,81.09682],[-145,81.0732],[-144.5,81.04888],[-144,81.02388],[-143.5,80.99817],[-143,80.97175],[-142.5,80.94461],[-142,80.91675],[-142,80.91676],[-141.5,80.88816],[-141,80.85883],[-140.5,80.82874],[-140,80.7979],[-139.5,80.76628],[-139,80.73389],[-138.5,80.70071],[-138,80.66673],[-137.5,80.63194],[-137,80.59633],[-136.5,80.55989],[-136,80.5226],[-136,80.52261],[-135.5,80.48447],[-135,80.44547],[-134.5,80.40559],[-134,80.36482],[-133.5,80.32314],[-133,80.28055],[-132.5,80.23703],[-132,80.19256],[-131.5,80.14714],[-131,80.10074],[-130.5,80.05336],[-130,80.00497],[-129.5,79.95556],[-129,79.90512],[-128.5,79.85363],[-128,79.80107],[-127.5,79.74742],[-127,79.69267],[-126.5,79.6368],[-126,79.57979],[-125.5,79.52162],[-125,79.46227],[-124.5,79.40173],[-124,79.33997],[-123.5,79.27697],[-123,79.21271],[-122.5,79.14717],[-122,79.08033],[-121.5,79.01217],[-121,78.94266],[-120.5,78.87177],[-120,78.79949],[-120,78.7995],[-119.5,78.7258],[-119,78.65066],[-118.5,78.57405],[-118,78.49595],[-117.5,78.41633],[-117,78.33517],[-116.5,78.25243],[-116,78.16809],[-115.5,78.08212],[-115,77.9945],[-114.5,77.90519],[-114,77.81417],[-113.5,77.72141],[-113,77.62687],[-112.5,77.53053],[-112,77.43236],[-111.5,77.33233],[-111,77.2304],[-110.5,77.12654],[-110.5,77.12655],[-110,77.02073],[-109.5,76.91293],[-109,76.80311],[-108.5,76.69123],[-108.5,76.69124],[-108,76.57727],[-107.5,76.4612],[-107,76.34297],[-106.5,76.22256],[-106,76.09993],[-106,76.09994],[-105.5,75.97506],[-105,75.84792],[-104.5,75.71846],[-104,75.58666],[-103.5,75.45249],[-103,75.31591],[-102.5,75.1769],[-102,75.03543],[-101.5,74.89147],[-101,74.74499],[-100.5,74.59597],[-100,74.44437],[-99.5,74.29018],[-99,74.13336],[-98.5,73.9739],[-98,73.81177],[-97.5,73.64696],[-97,73.47944],[-96.5,73.30921],[-96,73.13623],[-95.5,72.96051],[-95,72.78202],[-94.5,72.60077],[-94,72.41674],[-93.5,72.22992],[-93,72.04033],[-92.5,71.84794],[-92,71.65278],[-91.5,71.45484],[-91,71.25412],[-90.5,71.05065],[-90,70.84444],[-89.5,70.63549],[-89,70.42384],[-89,70.42383],[-88.5,70.20949],[-88,69.99248],[-87.5,69.77284],[-87,69.55059],[-86.5,69.32577],[-86,69.09842],[-85.5,68.86857],[-85,68.63627],[-84.5,68.40156],[-84,68.16449],[-83.5,67.92512],[-83,67.68349],[-82.5,67.43966],[-82,67.19369],[-81.5,66.94564],[-81.09914,67.04914]]}},{"type":"Feature","id":"+09430507:south:0","properties":{"id":"+09430507","year":943,"month":5,"day":7,"time_tdt":"02:02:38","type":"금환일식","type_code":"A","saros":111,"gamma":0.80586,"magnitude":0.96933,"greatest":{"lat":64.03288,"lng":114.22528},"path_width_km":185.2,"duration":"02m17s","delta_t_seconds":1898.7,"catalog_number":6994,"source":"NASA Five Millennium Canon of Solar Eclipses","source_url":"https://eclipse.gsfc.nasa.gov/SEsearch/SEsearchmap.php?Ecl=%2B09430507","boundary":"south","name":"943-05-07 금환일식"},"geometry":{"type":"LineString","coordinates":[[72.60352,29.88112],[73,30.01692],[73.5,30.1918],[74,30.3708],[74.5,30.55399],[75,30.74145],[75.5,30.93324],[76,31.12946],[76.5,31.33019],[77,31.5355],[77.5,31.74548],[78,31.96023],[78.5,32.17983],[79,32.40437],[79.5,32.63395],[80,32.86866],[80.5,33.10861],[81,33.3539],[81.5,33.60462],[82,33.86089],[82.5,34.1228],[83,34.39047],[83.5,34.66401],[84,34.94352],[84.5,35.22913],[85,35.52094],[85.5,35.81907],[86,36.12364],[86.5,36.43475],[87,36.75253],[87.5,37.07709],[88,37.40854],[88.5,37.74699],[89,38.09256],[89.5,38.44533],[90,38.80543],[90.5,39.17294],[91,39.54794],[91.5,39.93053],[92,40.32078],[92.5,40.71874],[93,41.12446],[93.5,41.53799],[94,41.95935],[94.5,42.38852],[94.5,42.38853],[95,42.82552],[95.5,43.27028],[96,43.72275],[96.5,44.18284],[97,44.65044],[97.5,45.12539],[98,45.60751],[98.5,46.09659],[99,46.59237],[99.5,47.09455],[100,47.6028],[100.5,48.11675],[101,48.63598],[101.5,49.16002],[102,49.68839],[102.5,50.22055],[103,50.75593],[103.5,51.29391],[104,51.83387],[104.5,52.37514],[105,52.91706],[105.5,53.45892],[106,54.00004],[106.5,54.53972],[106.5,54.53971],[107,55.07725],[107.5,55.61197],[108,56.14321],[108.5,56.67034],[109,57.19274],[109.5,57.70985],[110,58.22113],[110.5,58.72608],[111,59.22426],[111.5,59.71526],[112,60.19871],[112.5,60.6743],[113,61.14177],[113.5,61.60088],[114,62.05145],[114.5,62.49333],[115,62.92641],[115.5,63.35063],[116,63.76595],[116.5,64.17235],[117,64.56985],[117.5,64.95848],[118,65.33833],[118.5,65.70945],[119,66.07196],[119.5,66.42597],[120,66.7716],[120.5,67.10898],[121,67.43827],[121.5,67.75961],[122,68.07316],[122.5,68.37908],[123,68.67754],[123.5,68.96871],[124,69.25275],[124.5,69.52983],[125,69.80012],[125.5,70.06379],[126,70.321],[126.5,70.57193],[127,70.81673],[127.5,71.05555],[128,71.28857],[128.5,71.51594],[129,71.7378],[129.5,71.9543],[130,72.16559],[130.5,72.37181],[131,72.57309],[131.5,72.76958],[132,72.96139],[132.5,73.14867],[133,73.33152],[133.5,73.51008],[134,73.68445],[134.5,73.85476],[135,74.02111],[135.5,74.1836],[136,74.34234],[136.5,74.49744],[137,74.64898],[137.5,74.79707],[138,74.94179],[138.5,75.08323],[139,75.22148],[139.5,75.35662],[140,75.48873],[140.5,75.61789],[141,75.74417],[141.5,75.86765],[142,75.9884],[142.5,76.10649],[143,76.22197],[143.5,76.33493],[144,76.44542],[144.5,76.5535],[145,76.65922],[145.5,76.76265],[146,76.86384],[146.5,76.96285],[147,77.05972],[147.5,77.1545],[148,77.24725],[148.5,77.33801],[149,77.42682],[149.5,77.51374],[150,77.59879],[150.5,77.68203],[151,77.76349],[151.5,77.84321],[152,77.92124],[152.5,77.9976],[153,78.07233],[153.5,78.14547],[154,78.21705],[154.5,78.2871],[155,78.35565],[155.5,78.42274],[156,78.48839],[156.5,78.55263],[157,78.61549],[157.5,78.67699],[158,78.73717],[158.5,78.79605],[159,78.85365],[159.5,78.90999],[160,78.96511],[160.5,79.01901],[161,79.07173],[161.5,79.12328],[162,79.17369],[162.5,79.22298],[163,79.27115],[163.5,79.31824],[164,79.36426],[164.5,79.40923],[164.5,79.40924],[165,79.45317],[165.5,79.49609],[166,79.53801],[166.5,79.57894],[167,79.6189],[167.5,79.65791],[168,79.69597],[168.5,79.73311],[169,79.76933],[169.5,79.80465],[170,79.83908],[170.5,79.87264],[171,79.90533],[171.5,79.93716],[172,79.96816],[172.5,79.99832],[173,80.02767],[173.5,80.0562],[174,80.08393],[174.5,80.11087],[175,80.13703],[175.5,80.16241],[176,80.18703],[176.5,80.2109],[177,80.23401],[177.5,80.25638],[178,80.27802],[178.5,80.29894],[179,80.31913],[179.5,80.33861],[180,80.35739]]}},{"type":"Feature","id":"+09430507:south:1","properties":{"id":"+09430507","year":943,"month":5,"day":7,"time_tdt":"02:02:38","type":"금환일식","type_code":"A","saros":111,"gamma":0.80586,"magnitude":0.96933,"greatest":{"lat":64.03288,"lng":114.22528},"path_width_km":185.2,"duration":"02m17s","delta_t_seconds":1898.7,"catalog_number":6994,"source":"NASA Five Millennium Canon of Solar Eclipses","source_url":"https://eclipse.gsfc.nasa.gov/SEsearch/SEsearchmap.php?Ecl=%2B09430507","boundary":"south","name":"943-05-07 금환일식"},"geometry":{"type":"LineString","coordinates":[[-179.5,80.37546],[-179,80.39284],[-178.5,80.40953],[-178,80.42554],[-177.5,80.44086],[-177,80.45552],[-176.5,80.46951],[-176,80.48283],[-175.5,80.49549],[-175,80.5075],[-174.5,80.51886],[-174,80.52956],[-173.5,80.53963],[-173,80.54905],[-172.5,80.55783],[-172,80.56598],[-171.5,80.5735],[-171,80.58039],[-170.5,80.58665],[-170,80.59228],[-169.5,80.59729],[-169,80.60168],[-168.5,80.60544],[-168,80.60859],[-167.5,80.61112],[-167,80.61304],[-166.5,80.61434],[-166,80.61502],[-165.5,80.61509],[-165,80.61454],[-164.5,80.61338],[-164,80.61161],[-163.5,80.60922],[-163,80.60622],[-162.5,80.6026],[-162,80.59836],[-161.5,80.59351],[-161,80.58804],[-160.5,80.58195],[-160,80.57524],[-159.5,80.56791],[-159,80.55995],[-158.5,80.55137],[-158,80.54215],[-157.5,80.53231],[-157,80.52183],[-156.5,80.51072],[-156,80.49897],[-155.5,80.48658],[-155,80.47354],[-154.5,80.45986],[-154,80.44552],[-153.5,80.43052],[-153,80.41487],[-152.5,80.39855],[-152,80.38156],[-151.5,80.3639],[-151,80.34557],[-150.5,80.32654],[-150.5,80.32655],[-150,80.30684],[-149.5,80.28643],[-149,80.26533],[-148.5,80.24352],[-148.5,80.24353],[-148,80.22101],[-147.5,80.19777],[-147,80.17381],[-146.5,80.14912],[-146.5,80.14913],[-146,80.1237],[-145.5,80.09753],[-145,80.07061],[-144.5,80.04292],[-144,80.01447],[-144,80.01448],[-143.5,79.98525],[-143,79.95524],[-142.5,79.92444],[-142,79.89284],[-141.5,79.86043],[-141,79.8272],[-140.5,79.79314],[-140,79.75824],[-139.5,79.72249],[-139,79.68588],[-138.5,79.6484],[-138,79.61004],[-137.5,79.57078],[-137,79.53063],[-136.5,79.48955],[-136,79.44755],[-135.5,79.4046],[-135,79.36071],[-134.5,79.31584],[-134,79.27],[-133.5,79.22316],[-133,79.17531],[-132.5,79.12644],[-132,79.07653],[-131.5,79.02557],[-131,78.97354],[-130.5,78.92042],[-130,78.86621],[-129.5,78.81088],[-129,78.75441],[-128.5,78.69679],[-128,78.63801],[-127.5,78.57803],[-127,78.51685],[-126.5,78.45445],[-126,78.3908],[-125.5,78.32589],[-125,78.25969],[-125,78.2597],[-124.5,78.1922],[-124,78.12337],[-123.5,78.0532],[-123,77.98167],[-122.5,77.90874],[-122,77.8344],[-121.5,77.75863],[-121,77.68139],[-120.5,77.60268],[-120,77.52246],[-119.5,77.44071],[-119,77.35741],[-118.5,77.27252],[-118,77.18603],[-117.5,77.09791],[-117,77.00813],[-116.5,76.91667],[-116,76.82349],[-115.5,76.72858],[-115,76.6319],[-114.5,76.53343],[-114,76.43314],[-113.5,76.331],[-113,76.22698],[-112.5,76.12105],[-112,76.01319],[-111.5,75.90336],[-111,75.79154],[-110.5,75.6777],[-110,75.5618],[-109.5,75.44383],[-109,75.32374],[-108.5,75.20152],[-108,75.07713],[-107.5,74.95054],[-107,74.82173],[-106.5,74.69066],[-106,74.55732],[-105.5,74.42167],[-105,74.28368],[-104.5,74.14333],[-104,74.0006],[-103.5,73.85545],[-103,73.70787],[-102.5,73.55783],[-102,73.40531],[-101.5,73.25029],[-101,73.09274],[-100.5,72.93265],[-100,72.77],[-99.5,72.60478],[-99,72.43696],[-98.5,72.26654],[-98,72.0935],[-97.5,71.91783],[-97,71.73952],[-96.5,71.55857],[-96,71.37498],[-95.5,71.18873],[-95,70.99983],[-94.5,70.80828],[-94,70.61409],[-93.5,70.41726],[-93,70.2178],[-92.5,70.01571],[-92,69.81103],[-91.5,69.60375],[-91,69.3939],[-90.5,69.1815],[-90.5,69.18149],[-90,68.96657],[-89.5,68.74914],[-89,68.52924],[-88.5,68.3069],[-88,68.08215],[-87.5,67.85504],[-87,67.6256],[-86.5,67.39387],[-86,67.15989],[-85.5,66.92372],[-85,66.6854],[-84.5,66.44498],[-84.05273,66.22818]]}},{"type":"Feature","id":"+09431031:north:0","properties":{"id":"+09431031","year":943,"month":10,"day":31,"time_tdt":"19:32:08","type":"금환일식","type_code":"A","saros":116,"gamma":-0.95476,"magnitude":0.97829,"greatest":{"lat":-67.82043,"lng":166.70935},"path_width_km":264.9,"duration":"01m19s","delta_t_seconds":1895.6,"catalog_number":6995,"source":"NASA Five Millennium Canon of Solar Eclipses","source_url":"https://eclipse.gsfc.nasa.gov/SEsearch/SEsearchmap.php?Ecl=%2B09431031","boundary":"north","name":"943-10-31 금환일식"},"geometry":{"type":"LineString","coordinates":[[152.625,-46.13788],[153,-46.25721],[153.5,-46.42227],[154,-46.59438],[154.5,-46.77377],[155,-46.96071],[155.5,-47.15549],[156,-47.35843],[156.5,-47.56985],[157,-47.79011],[157.5,-48.01961],[158,-48.25878],[158.5,-48.50809],[159,-48.76804],[159.5,-49.0392],[160,-49.3222],[160.5,-49.61773],[161,-49.92656],[161.5,-50.24956],[162,-50.58772],[162.5,-50.94216],[163,-51.31416],[163.5,-51.70521],[164,-52.11706],[164.5,-52.55177],[165,-53.01183],[165.5,-53.50027],[166,-54.02087],[166.5,-54.57845],[167,-55.17935],[167.5,-55.83216],[168,-56.54921],[168.5,-57.34924],[169,-58.26364],[169.5,-59.35341],[170,-60.77655],[170,-67.13442],[169.5,-68.35248],[169,-69.24389],[168.5,-69.96643],[168,-70.58089],[167.5,-71.11846],[167,-71.59771],[166.5,-72.03075],[166,-72.42605],[165.5,-72.78976],[165,-73.12656],[164.5,-73.44009],[164,-73.73323],[163.5,-74.00835],[163,-74.26738],[162.5,-74.51195],[162,-74.74345],[161.5,-74.96304],[161,-75.17175],[160.5,-75.37045],[160,-75.55993],[159.5,-75.74087],[159,-75.91388],[158.5,-76.07949],[158,-76.2382],[157.5,-76.39044],[157,-76.5366],[156.5,-76.67704],[156,-76.81209],[155.5,-76.94204],[155,-77.06717],[154.5,-77.18773],[154,-77.30394],[153.5,-77.41602],[153,-77.52416],[152.5,-77.62855],[152,-77.72935],[151.5,-77.82671],[151,-77.9208],[150.5,-78.01173],[150,-78.09964],[149.5,-78.18465],[149,-78.26686],[148.5,-78.34638],[148,-78.42332],[147.5,-78.49775],[147,-78.56978],[146.5,-78.63947],[146,-78.70691],[145.5,-78.77216],[145,-78.83531],[144.5,-78.8964],[144,-78.95551],[143.5,-79.01269],[143,-79.06799],[142.5,-79.12147],[142,-79.17317],[141.5,-79.22315],[141,-79.27145],[140.5,-79.3181],[140,-79.36315],[139.5,-79.40664],[139,-79.4486],[138.5,-79.48906],[138,-79.52806],[137.5,-79.56563],[137,-79.6018],[136.5,-79.63659],[136,-79.67003],[135.5,-79.70215],[135,-79.73296],[134.5,-79.7625],[134,-79.79078],[133.5,-79.81782],[133,-79.84364],[132.5,-79.86826],[132,-79.8917],[131.5,-79.91397],[131,-79.93508],[130.5,-79.95506],[130,-79.9739],[129.5,-79.99163],[129,-80.00826],[128.5,-80.02379],[128,-80.03824],[127.5,-80.05162],[127,-80.06392],[126.5,-80.07517],[126,-80.08537],[125.5,-80.09452],[125,-80.10263],[124.5,-80.1097],[124,-80.11573],[123.5,-80.12074],[123,-80.12472],[122.5,-80.12767],[122,-80.1296],[121.5,-80.13051],[121,-80.13039],[120.5,-80.12924],[120,-80.12707],[119.5,-80.12386],[119,-80.11963],[118.5,-80.11436],[118,-80.10804],[117.5,-80.10068],[117,-80.09227],[116.5,-80.0828],[116,-80.07226],[115.5,-80.06065],[115,-80.04796],[114.5,-80.03417],[114,-80.01927],[113.5,-80.00326],[113,-79.98613],[112.5,-79.96785],[112,-79.94841],[111.5,-79.9278],[111,-79.90601],[110.5,-79.88301],[110,-79.85878],[109.5,-79.83331],[109,-79.80657],[108.5,-79.77855],[108,-79.74921],[107.5,-79.71854],[107,-79.6865],[106.5,-79.65307],[106,-79.61822],[105.5,-79.58192],[105,-79.54412],[104.5,-79.5048],[104,-79.46393],[103.5,-79.42145],[103,-79.37732],[102.5,-79.33151],[102,-79.28396],[101.5,-79.23462],[101,-79.18344],[100.5,-79.13036],[100,-79.07533],[99.5,-79.01826],[99,-78.95911],[98.5,-78.89778],[98,-78.83421],[97.5,-78.76831],[97,-78.69999],[96.5,-78.62915],[96,-78.55569],[95.5,-78.47949],[95,-78.40044],[94.5,-78.31841],[94,-78.23325],[93.5,-78.14482],[93,-78.05294],[92.5,-77.95745],[92,-77.85813],[91.5,-77.75478],[91,-77.64717],[90.5,-77.53502],[90,-77.41805],[89.5,-77.29595],[89,-77.16836],[88.5,-77.03487],[88,-76.89504],[87.5,-76.74836],[87,-76.59425],[86.5,-76.43205],[86,-76.26098],[85.5,-76.08015],[85,-75.8885],[84.5,-75.68477],[84,-75.46743],[83.5,-75.23462],[83,-74.984],[82.5,-74.71259],[82,-74.41646],[81.5,-74.09032],[81,-73.72661],[80.56445,-73.37051]]}},{"type":"Feature","id":"+09431031:center:0","properties":{"id":"+09431031","year":943,"month":10,"day":31,"time_tdt":"19:32:08","type":"금환일식","type_code":"A","saros":116,"gamma":-0.95476,"magnitude":0.97829,"greatest":{"lat":-67.82043,"lng":166.70935},"path_width_km":264.9,"duration":"01m19s","delta_t_seconds":1895.6,"catalog_number":6995,"source":"NASA Five Millennium Canon of Solar Eclipses","source_url":"https://eclipse.gsfc.nasa.gov/SEsearch/SEsearchmap.php?Ecl=%2B09431031","boundary":"center","name":"943-10-31 금환일식"},"geometry":{"type":"LineString","coordinates":[[151.05362,-47.46326],[151.5,-47.55817],[152,-47.71701],[152.5,-47.88313],[153,-48.05679],[153.5,-48.23831],[154,-48.428],[154.5,-48.6262],[155,-48.83329],[155.5,-49.04968],[156,-49.27583],[156.5,-49.51222],[157,-49.7594],[157.5,-50.01797],[158,-50.28862],[158.5,-50.57208],[159,-50.86921],[159.5,-51.18098],[160,-51.50848],[160.5,-51.85298],[161,-52.21595],[161.5,-52.59914],[162,-53.00462],[162.5,-53.43488],[163,-53.893],[163.5,-54.38287],[164,-54.90945],[164.5,-55.4794],[165,-56.10189],[165.5,-56.79034],[166,-57.56581],[166.5,-58.46523],[167,-59.56644],[167.5,-61.1148],[167.5,-65.86065],[167,-67.24259],[166.5,-68.18299],[166,-68.92704],[165.5,-69.55241],[165,-70.09589],[164.5,-70.57842],[164,-71.01326],[163.5,-71.40946],[163,-71.77356],[162.5,-72.11041],[162,-72.42378],[161.5,-72.71664],[161,-72.9914],[160.5,-73.25003],[160,-73.49417],[159.5,-73.72521],[159,-73.94434],[158.5,-74.15257],[158,-74.3508],[157.5,-74.53979],[157,-74.72023],[156.5,-74.89272],[156,-75.05781],[155.5,-75.21597],[155,-75.36763],[154.5,-75.51319],[154,-75.65301],[153.5,-75.7874],[153,-75.91665],[152.5,-76.04105],[152,-76.16083],[151.5,-76.27622],[151,-76.38744],[150.5,-76.49466],[150,-76.59808],[149.5,-76.69786],[149,-76.79416],[148.5,-76.88711],[148,-76.97685],[147.5,-77.0635],[147,-77.14719],[146.5,-77.22802],[146,-77.3061],[145.5,-77.38151],[145,-77.45436],[144.5,-77.52472],[144,-77.59268],[143.5,-77.6583],[143,-77.72167],[142.5,-77.78285],[142,-77.8419],[141.5,-77.89887],[141,-77.95384],[140.5,-78.00684],[140,-78.05794],[139.5,-78.10717],[139,-78.15458],[138.5,-78.20022],[138,-78.24412],[137.5,-78.28632],[137,-78.32687],[136.5,-78.36578],[136,-78.4031],[135.5,-78.43885],[135,-78.47307],[134.5,-78.50577],[134,-78.537],[133.5,-78.56676],[133,-78.59508],[132.5,-78.62198],[132,-78.64749],[131.5,-78.67162],[131,-78.69439],[130.5,-78.71581],[130,-78.7359],[129.5,-78.75468],[129,-78.77215],[128.5,-78.78833],[128,-78.80323],[127.5,-78.81685],[127,-78.82922],[126.5,-78.84033],[126,-78.85019],[125.5,-78.85881],[125,-78.8662],[124.5,-78.87235],[124,-78.87727],[123.5,-78.88096],[123,-78.88342],[122.5,-78.88466],[122,-78.88468],[121.5,-78.88346],[121,-78.88102],[120.5,-78.87734],[120,-78.87242],[119.5,-78.86626],[119,-78.85885],[118.5,-78.85018],[118,-78.84025],[117.5,-78.82904],[117,-78.81656],[116.5,-78.80277],[116,-78.78768],[115.5,-78.77126],[115,-78.75351],[114.5,-78.73441],[114,-78.71394],[113.5,-78.69208],[113,-78.66881],[112.5,-78.64411],[112,-78.61796],[111.5,-78.59033],[111,-78.5612],[110.5,-78.53054],[110,-78.49831],[109.5,-78.46449],[109,-78.42905],[108.5,-78.39194],[108,-78.35313],[107.5,-78.31258],[107,-78.27024],[106.5,-78.22607],[106,-78.18001],[105.5,-78.13203],[105,-78.08205],[104.5,-78.03002],[104,-77.97588],[103.5,-77.91956],[103,-77.86099],[102.5,-77.80008],[102,-77.73675],[101.5,-77.67092],[101,-77.60249],[100.5,-77.53136],[100,-77.4574],[99.5,-77.38052],[99,-77.30056],[98.5,-77.2174],[98,-77.13088],[97.5,-77.04084],[97,-76.94709],[96.5,-76.84944],[96,-76.74766],[95.5,-76.64153],[95,-76.53078],[94.5,-76.41511],[94,-76.29421],[93.5,-76.16771],[93,-76.0352],[92.5,-75.89623],[92,-75.75028],[91.5,-75.59675],[91,-75.43496],[90.5,-75.26412],[90,-75.08329],[89.5,-74.89138],[89,-74.68707],[88.5,-74.46876],[88,-74.23447],[87.5,-73.98173],[87,-73.7073],[86.5,-73.40695],[86,-73.07479],[86.1553,-72.85901]]}},{"type":"Feature","id":"+09431031:south:0","properties":{"id":"+09431031","year":943,"month":10,"day":31,"time_tdt":"19:32:08","type":"금환일식","type_code":"A","saros":116,"gamma":-0.95476,"magnitude":0.97829,"greatest":{"lat":-67.82043,"lng":166.70935},"path_width_km":264.9,"duration":"01m19s","delta_t_seconds":1895.6,"catalog_number":6995,"source":"NASA Five Millennium Canon of Solar Eclipses","source_url":"https://eclipse.gsfc.nasa.gov/SEsearch/SEsearchmap.php?Ecl=%2B09431031","boundary":"south","name":"943-10-31 금환일식"},"geometry":{"type":"LineString","coordinates":[[149.53125,-48.88489],[150,-49.0232],[149.5,-48.87589],[150.5,-49.17794],[151,-49.34039],[151.5,-49.51088],[152,-49.68974],[152.5,-49.87736],[153,-50.07415],[153.5,-50.28055],[154,-50.49707],[154.5,-50.72427],[155,-50.96276],[155.5,-51.21324],[156,-51.47647],[156.5,-51.75335],[157,-52.04488],[157.5,-52.35224],[158,-52.67676],[158.5,-53.02006],[159,-53.38401],[159.5,-53.77092],[160,-54.1836],[160.5,-54.62559],[161,-55.10144],[161.5,-55.61718],[162,-56.18114],[162.5,-56.80541],[163,-57.50888],[163.5,-58.32426],[164,-59.31911],[164.5,-60.69518],[164.5,-65.43171],[164,-66.67907],[163.5,-67.54983],[163,-68.24562],[162.5,-68.8339],[162,-69.34728],[161.5,-69.80452],[161,-70.21763],[160.5,-70.59484],[160,-70.9421],[159.5,-71.26387],[159,-71.56361],[158.5,-71.84404],[158,-72.1074],[157.5,-72.35551],[157,-72.58988],[156.5,-72.81181],[156,-73.0224],[155.5,-73.22259],[155,-73.41321],[154.5,-73.59498],[154,-73.76854],[153.5,-73.93445],[153,-74.09321],[152.5,-74.24528],[152,-74.39107],[151.5,-74.53093],[151,-74.66521],[150.5,-74.7942],[150,-74.91818],[149.5,-75.03741],[149,-75.15211],[148.5,-75.2625],[148,-75.36877],[147.5,-75.47111],[147,-75.56969],[146.5,-75.66466],[146,-75.75616],[145.5,-75.84434],[145,-75.92931],[144.5,-76.0112],[144,-76.09011],[143.5,-76.16615],[143,-76.23941],[142.5,-76.30998],[142,-76.37795],[141.5,-76.4434],[141,-76.5064],[140.5,-76.56701],[140,-76.62532],[139.5,-76.68137],[139,-76.73523],[138.5,-76.78694],[138,-76.83657],[137.5,-76.88416],[137,-76.92976],[136.5,-76.97341],[136,-77.01514],[135.5,-77.05501],[135,-77.09303],[134.5,-77.12925],[134,-77.1637],[133.5,-77.19641],[133,-77.2274],[132.5,-77.25671],[132,-77.28434],[131.5,-77.31034],[131,-77.33471],[130.5,-77.35748],[130,-77.37866],[129.5,-77.39826],[129,-77.41632],[128.5,-77.43283],[128,-77.44781],[127.5,-77.46127],[127,-77.47321],[126.5,-77.48366],[126,-77.4926],[125.5,-77.50005],[125,-77.50602],[124.5,-77.5105],[124,-77.51349],[123.5,-77.515],[123,-77.51503],[122.5,-77.51357],[122,-77.51061],[121.5,-77.50616],[121,-77.50021],[120.5,-77.49274],[120,-77.48376],[119.5,-77.47325],[119,-77.46119],[118.5,-77.44759],[118,-77.43241],[117.5,-77.41564],[117,-77.39727],[116.5,-77.37728],[116,-77.35564],[115.5,-77.33233],[115,-77.30732],[114.5,-77.2806],[114,-77.25212],[113.5,-77.22186],[113,-77.18978],[112.5,-77.15585],[112,-77.12003],[111.5,-77.08227],[111,-77.04253],[110.5,-77.00076],[110,-76.95691],[109.5,-76.91093],[109,-76.86275],[108.5,-76.81231],[108,-76.75954],[107.5,-76.70438],[107,-76.64673],[106.5,-76.58652],[106,-76.52366],[105.5,-76.45804],[105,-76.38957],[104.5,-76.31812],[104,-76.24357],[103.5,-76.16579],[103,-76.08464],[102.5,-75.99994],[102,-75.91154],[101.5,-75.81924],[101,-75.72284],[100.5,-75.62209],[100,-75.51676],[99.5,-75.40656],[99,-75.29119],[98.5,-75.17028],[98,-75.04347],[97.5,-74.91029],[97,-74.77026],[96.5,-74.6228],[96,-74.46726],[95.5,-74.30287],[95,-74.12875],[94.5,-73.94385],[94,-73.74689],[93.5,-73.53635],[93,-73.31033],[92.5,-73.06647],[92,-72.80169],[91.5,-72.51195]]}}],"attribution":"Eclipse Predictions by Fred Espenak and Jean Meeus (NASA's GSFC)","generated_at":"2026-09-23T03:35:38.927Z"}
