{"type":"FeatureCollection","year":967,"events":[{"id":"+09670113","year":967,"month":1,"day":13,"time_tdt":"13:37:19","type":"금환일식","type_code":"A","saros":95,"gamma":-0.46866,"magnitude":0.94299,"greatest":{"lat":-47.02419,"lng":-1.8905},"path_width_km":237.9,"duration":"05m28s","delta_t_seconds":1752.6,"catalog_number":7048,"source":"NASA Five Millennium Canon of Solar Eclipses","source_url":"https://eclipse.gsfc.nasa.gov/SEsearch/SEsearchmap.php?Ecl=%2B09670113"},{"id":"+09670710","year":967,"month":7,"day":10,"time_tdt":"07:36:08","type":"개기일식","type_code":"T","saros":100,"gamma":0.21734,"magnitude":1.02254,"greatest":{"lat":34.07013,"lng":78.02661},"path_width_km":78.7,"duration":"02m04s","delta_t_seconds":1749.7,"catalog_number":7049,"source":"NASA Five Millennium Canon of Solar Eclipses","source_url":"https://eclipse.gsfc.nasa.gov/SEsearch/SEsearchmap.php?Ecl=%2B09670710"}],"features":[{"type":"Feature","id":"+09670113:north:0","properties":{"id":"+09670113","year":967,"month":1,"day":13,"time_tdt":"13:37:19","type":"금환일식","type_code":"A","saros":95,"gamma":-0.46866,"magnitude":0.94299,"greatest":{"lat":-47.02419,"lng":-1.8905},"path_width_km":237.9,"duration":"05m28s","delta_t_seconds":1752.6,"catalog_number":7048,"source":"NASA Five Millennium Canon of Solar Eclipses","source_url":"https://eclipse.gsfc.nasa.gov/SEsearch/SEsearchmap.php?Ecl=%2B09670113","boundary":"north","name":"967-01-13 금환일식"},"geometry":{"type":"LineString","coordinates":[[-96.88281,-40.85407],[-96.5,-41.00851],[-96,-41.20948],[-95.5,-41.40958],[-95,-41.60878],[-94.5,-41.80705],[-94,-42.00437],[-93.5,-42.20071],[-93,-42.39605],[-92.5,-42.59035],[-92,-42.7836],[-91.5,-42.97577],[-91,-43.16683],[-90.5,-43.35675],[-90,-43.54552],[-89.5,-43.7331],[-89,-43.91947],[-88.5,-44.10461],[-88,-44.28849],[-87.5,-44.47109],[-87,-44.65238],[-86.5,-44.83235],[-86,-45.01096],[-85.5,-45.18821],[-85,-45.36405],[-84.5,-45.53848],[-84,-45.71148],[-83.5,-45.88301],[-83,-46.05306],[-82.5,-46.22162],[-82,-46.38865],[-81.5,-46.55415],[-81,-46.71808],[-80.5,-46.88045],[-80,-47.04121],[-79.5,-47.20037],[-79,-47.3579],[-78.5,-47.51379],[-78,-47.66801],[-77.5,-47.82056],[-77,-47.97142],[-76.5,-48.12057],[-76,-48.268],[-75.5,-48.41369],[-75,-48.55764],[-74.5,-48.69983],[-74,-48.84024],[-73.5,-48.97887],[-73,-49.1157],[-72.5,-49.25073],[-72,-49.38393],[-71.5,-49.51531],[-71,-49.64485],[-70.5,-49.77254],[-70,-49.89837],[-69.5,-50.02233],[-69,-50.14442],[-68.5,-50.26462],[-68,-50.38294],[-67.5,-50.49935],[-67,-50.61386],[-66.5,-50.72646],[-66,-50.83713],[-65.5,-50.94588],[-65,-51.0527],[-64.5,-51.15758],[-64,-51.26051],[-63.5,-51.3615],[-63,-51.46053],[-62.5,-51.55761],[-62,-51.65272],[-61.5,-51.74586],[-61,-51.83703],[-60.5,-51.92622],[-60,-52.01343],[-59.5,-52.09865],[-59,-52.18188],[-58.5,-52.26312],[-58,-52.34236],[-57.5,-52.4196],[-57,-52.49484],[-56.5,-52.56806],[-56,-52.63928],[-55.5,-52.70847],[-55,-52.77565],[-54.5,-52.8408],[-54,-52.90392],[-53.5,-52.96501],[-53,-53.02407],[-52.5,-53.08108],[-52,-53.13605],[-51.5,-53.18897],[-51,-53.23983],[-50.5,-53.28864],[-50,-53.33539],[-49.5,-53.38006],[-49,-53.42267],[-48.5,-53.46319],[-48,-53.50163],[-47.5,-53.53798],[-47,-53.57224],[-46.5,-53.60439],[-46,-53.63443],[-45.5,-53.66236],[-45,-53.68816],[-44.5,-53.71184],[-44,-53.73337],[-43.5,-53.75276],[-43,-53.76999],[-42.5,-53.78506],[-42,-53.79796],[-41.5,-53.80867],[-41,-53.81719],[-40.5,-53.8235],[-40,-53.8276],[-39.5,-53.82948],[-39,-53.82911],[-38.5,-53.8265],[-38,-53.82162],[-37.5,-53.81447],[-37,-53.80502],[-36.5,-53.79327],[-36,-53.7792],[-35.5,-53.76279],[-35,-53.74403],[-34.5,-53.72291],[-34,-53.69939],[-33.5,-53.67348],[-33,-53.64513],[-32.5,-53.61435],[-32,-53.5811],[-31.5,-53.54537],[-31,-53.50713],[-30.5,-53.46637],[-30,-53.42305],[-29.5,-53.37716],[-29,-53.32868],[-28.5,-53.27756],[-28,-53.2238],[-27.5,-53.16735],[-27,-53.1082],[-26.5,-53.04631],[-26,-52.98166],[-25.5,-52.91421],[-25,-52.84393],[-24.5,-52.77078],[-24,-52.69475],[-23.5,-52.61578],[-23,-52.53384],[-22.5,-52.4489],[-22,-52.36092],[-21.5,-52.26986],[-21,-52.17567],[-20.5,-52.07832],[-20,-51.97776],[-19.5,-51.87396],[-19,-51.76685],[-18.5,-51.65641],[-18,-51.54257],[-17.5,-51.4253],[-17,-51.30454],[-16.5,-51.18024],[-16,-51.05234],[-15.5,-50.9208],[-15,-50.78556],[-14.5,-50.64655],[-14,-50.50373],[-13.5,-50.35704],[-13,-50.20641],[-12.5,-50.05178],[-12,-49.8931],[-11.5,-49.73029],[-11,-49.56329],[-10.5,-49.39204],[-10,-49.21647],[-9.5,-49.03652],[-9,-48.8521],[-8.5,-48.66316],[-8,-48.46963],[-7.5,-48.27142],[-7,-48.06849],[-6.5,-47.86074],[-6,-47.64812],[-5.5,-47.43055],[-5,-47.20795],[-4.5,-46.98028],[-4,-46.74744],[-3.5,-46.50938],[-3,-46.26603],[-2.5,-46.01732],[-2,-45.7632],[-1.5,-45.5036],[-1,-45.23848],[-0.5,-44.96777],[0,-44.69142],[0.5,-44.4094],[1,-44.12167],[1.5,-43.82819],[2,-43.52893],[2.5,-43.22389],[3,-42.91303],[3.5,-42.59637],[4,-42.27391],[4.5,-41.94566],[5,-41.61166],[5.5,-41.27193],[6,-40.92653],[6.5,-40.57551],[7,-40.21896],[7.5,-39.85697],[8,-39.48963],[8.5,-39.11707],[9,-38.73941],[9.5,-38.35681],[10,-37.96943],[10.5,-37.57745],[11,-37.18106],[11.5,-36.78047],[12,-36.3759],[12.5,-35.9676],[13,-35.55581],[13.5,-35.14079],[14,-34.72282],[14.5,-34.30217],[15,-33.87915],[15.5,-33.45405],[16,-33.02717],[16.5,-32.59883],[17,-32.16932],[17.5,-31.73898],[18,-31.3081],[18.5,-30.877],[19,-30.44597],[19.5,-30.01533],[20,-29.58536],[20.5,-29.15635],[21,-28.72858],[21.5,-28.3023],[22,-27.87778],[22.5,-27.45527],[23,-27.03498],[23.5,-26.61714],[24,-26.20196],[24.5,-25.78963],[25,-25.38032],[25.5,-24.97421],[26,-24.57144],[26.5,-24.17216],[27,-23.7765],[27.5,-23.38456],[28,-22.99645],[28.5,-22.61226],[29,-22.23207],[29.5,-21.85596],[30,-21.48399],[30.5,-21.11619],[31,-20.75263],[31.5,-20.39333],[32,-20.03831],[32.5,-19.6876],[33,-19.34122],[33.5,-18.99915],[34,-18.66142],[34.5,-18.32801],[35,-17.99891],[35.5,-17.67412],[36,-17.35361],[36.5,-17.03736],[37,-16.72535],[37.5,-16.41755],[38,-16.11394],[38.5,-15.81447],[39,-15.51913],[39.5,-15.22786],[40,-14.94064],[40.5,-14.65742],[41,-14.37818],[41.5,-14.10285],[42,-13.83142],[42.5,-13.56382],[43,-13.30002],[43.5,-13.03999],[44,-12.78366],[44.5,-12.53101],[45,-12.28198],[45.5,-12.03654],[46,-11.79463],[46.5,-11.55623],[47,-11.32128],[47.5,-11.08973],[48,-10.86156],[48.5,-10.63672],[49,-10.41516],[49.5,-10.19684],[50,-9.98172],[50.5,-9.76977],[51,-9.56094],[51.5,-9.35519],[52,-9.15249],[52.5,-8.95279],[53,-8.75605],[53.5,-8.56225]]}},{"type":"Feature","id":"+09670113:center:0","properties":{"id":"+09670113","year":967,"month":1,"day":13,"time_tdt":"13:37:19","type":"금환일식","type_code":"A","saros":95,"gamma":-0.46866,"magnitude":0.94299,"greatest":{"lat":-47.02419,"lng":-1.8905},"path_width_km":237.9,"duration":"05m28s","delta_t_seconds":1752.6,"catalog_number":7048,"source":"NASA Five Millennium Canon of Solar Eclipses","source_url":"https://eclipse.gsfc.nasa.gov/SEsearch/SEsearchmap.php?Ecl=%2B09670113","boundary":"center","name":"967-01-13 금환일식"},"geometry":{"type":"LineString","coordinates":[[-98.07794,-42.04089],[-98,-42.05027],[-97.5,-42.24989],[-97,-42.44864],[-96.5,-42.64651],[-96,-42.84346],[-95.5,-43.03947],[-95,-43.23451],[-94.5,-43.42856],[-94,-43.62159],[-93.5,-43.81357],[-93,-44.00449],[-92.5,-44.1943],[-92,-44.383],[-91.5,-44.57055],[-91,-44.75694],[-90.5,-44.94213],[-90,-45.1261],[-89.5,-45.30883],[-89,-45.4903],[-88.5,-45.67048],[-88,-45.84935],[-87.5,-46.02689],[-87,-46.20308],[-86.5,-46.37789],[-86,-46.55131],[-85.5,-46.72331],[-85,-46.89388],[-84.5,-47.06299],[-84,-47.23062],[-83.5,-47.39676],[-83,-47.56138],[-82.5,-47.72448],[-82,-47.88603],[-81.5,-48.04601],[-81,-48.2044],[-80.5,-48.3612],[-80,-48.51639],[-79.5,-48.66994],[-79,-48.82186],[-78.5,-48.97211],[-78,-49.12069],[-77.5,-49.26758],[-77,-49.41277],[-76.5,-49.55625],[-76,-49.69801],[-75.5,-49.83803],[-75,-49.97631],[-74.5,-50.11282],[-74,-50.24757],[-73.5,-50.38054],[-73,-50.51172],[-72.5,-50.64111],[-72,-50.76868],[-71.5,-50.89445],[-71,-51.01839],[-70.5,-51.1405],[-70,-51.26078],[-69.5,-51.37921],[-69,-51.49578],[-68.5,-51.6105],[-68,-51.72336],[-67.5,-51.83435],[-67,-51.94346],[-66.5,-52.05069],[-66,-52.15604],[-65.5,-52.2595],[-65,-52.36106],[-64.5,-52.46072],[-64,-52.55848],[-63.5,-52.65434],[-63,-52.74828],[-62.5,-52.84031],[-62,-52.93042],[-61.5,-53.01861],[-61,-53.10488],[-60.5,-53.18922],[-60,-53.27162],[-59.5,-53.3521],[-59,-53.43064],[-58.5,-53.50724],[-58,-53.58189],[-57.5,-53.65461],[-57,-53.72537],[-56.5,-53.79419],[-56,-53.86105],[-55.5,-53.92595],[-55,-53.9889],[-54.5,-54.04989],[-54,-54.10891],[-53.5,-54.16596],[-53,-54.22104],[-52.5,-54.27415],[-52,-54.32528],[-51.5,-54.37443],[-51,-54.42159],[-50.5,-54.46677],[-50,-54.50995],[-49.5,-54.55114],[-49,-54.59032],[-48.5,-54.6275],[-48,-54.66266],[-47.5,-54.69581],[-47,-54.72694],[-46.5,-54.75604],[-46,-54.7831],[-45.5,-54.80813],[-45,-54.83111],[-44.5,-54.85204],[-44,-54.87091],[-43.5,-54.88771],[-43,-54.90243],[-42.5,-54.91507],[-42,-54.92562],[-41.5,-54.93407],[-41,-54.9404],[-40.5,-54.94462],[-40,-54.94671],[-39.5,-54.94665],[-39,-54.94444],[-38.5,-54.94007],[-38,-54.93352],[-37.5,-54.92479],[-37,-54.91385],[-36.5,-54.90069],[-36,-54.88531],[-35.5,-54.86768],[-35,-54.84779],[-34.5,-54.82563],[-34,-54.80117],[-33.5,-54.77441],[-33,-54.74532],[-32.5,-54.71388],[-32,-54.68008],[-31.5,-54.64389],[-31,-54.6053],[-30.5,-54.56429],[-30,-54.52083],[-29.5,-54.47489],[-29,-54.42647],[-28.5,-54.37552],[-28,-54.32204],[-27.5,-54.26598],[-27,-54.20733],[-26.5,-54.14606],[-26,-54.08213],[-25.5,-54.01553],[-25,-53.94621],[-24.5,-53.87415],[-24,-53.79932],[-23.5,-53.72168],[-23,-53.64121],[-22.5,-53.55785],[-22,-53.47158],[-21.5,-53.38236],[-21,-53.29016],[-20.5,-53.19493],[-20,-53.09662],[-19.5,-52.99522],[-19,-52.89065],[-18.5,-52.7829],[-18,-52.6719],[-17.5,-52.55761],[-17,-52.43999],[-16.5,-52.31898],[-16,-52.19455],[-15.5,-52.06662],[-15,-51.93517],[-14.5,-51.80012],[-14,-51.66142],[-13.5,-51.51903],[-13,-51.37287],[-12.5,-51.2229],[-12,-51.06906],[-11.5,-50.91128],[-11,-50.74949],[-10.5,-50.58365],[-10,-50.41369],[-9.5,-50.23953],[-9,-50.06112],[-8.5,-49.87839],[-8,-49.69126],[-7.5,-49.49969],[-7,-49.30358],[-6.5,-49.10289],[-6,-48.89753],[-5.5,-48.68744],[-5,-48.47255],[-4.5,-48.25279],[-4,-48.0281],[-3.5,-47.7984],[-3,-47.56363],[-2.5,-47.32373],[-2,-47.07864],[-1.5,-46.82828],[-1,-46.5726],[-0.5,-46.31156],[0,-46.04508],[0.5,-45.77314],[1,-45.49567],[1.5,-45.21264],[2,-44.92402],[2.5,-44.62978],[3,-44.32989],[3.5,-44.02434],[4,-43.71312],[4.5,-43.39623],[5,-43.07369],[5.5,-42.74551],[6,-42.41172],[6.5,-42.07236],[7,-41.7275],[7.5,-41.37718],[8,-41.0215],[8.5,-40.66054],[9,-40.29441],[9.5,-39.92323],[10,-39.54714],[10.5,-39.16628],[11,-38.78082],[11.5,-38.39094],[12,-37.99684],[12.5,-37.59871],[13,-37.19679],[13.5,-36.7913],[14,-36.38251],[14.5,-35.97065],[15,-35.55602],[15.5,-35.13887],[16,-34.71951],[16.5,-34.29822],[17,-33.8753],[17.5,-33.45105],[18,-33.02578],[18.5,-32.5998],[19,-32.1734],[19.5,-31.74688],[20,-31.32055],[20.5,-30.8947],[21,-30.46961],[21.5,-30.04555],[22,-29.6228],[22.5,-29.20162],[23,-28.78225],[23.5,-28.36492],[24,-27.94987],[24.5,-27.5373],[25,-27.12741],[25.5,-26.7204],[26,-26.31642],[26.5,-25.91565],[27,-25.51823],[27.5,-25.1243],[28,-24.73397],[28.5,-24.34737],[29,-23.96458],[29.5,-23.5857],[30,-23.21081],[30.5,-22.83997],[31,-22.47324],[31.5,-22.11067],[32,-21.7523],[32.5,-21.39816],[33,-21.04829],[33.5,-20.70269],[34,-20.36138],[34.5,-20.02436],[35,-19.69164],[35.5,-19.36321],[36,-19.03906],[36.5,-18.71917],[37,-18.40354],[37.5,-18.09213],[38,-17.78493],[38.5,-17.48191],[39,-17.18304],[39.5,-16.88828],[40,-16.59761],[40.5,-16.31099],[41,-16.02838],[41.5,-15.74975],[42,-15.47504],[42.5,-15.20424],[43,-14.93729],[43.5,-14.67415],[44,-14.41478],[44.5,-14.15914],[45,-13.90719],[45.5,-13.65887],[46,-13.41416],[46.5,-13.17301],[47,-12.93536],[47.5,-12.70119],[48,-12.47045],[48.5,-12.2431],[49,-12.01908],[49.5,-11.79837],[50,-11.58093],[50.5,-11.3667],[51,-11.15565],[51.5,-10.94774],[52,-10.74294],[52.5,-10.54119],[53,-10.34247],[53.5,-10.14673],[54,-9.95394],[54.39607,-9.80603]]}},{"type":"Feature","id":"+09670113:south:0","properties":{"id":"+09670113","year":967,"month":1,"day":13,"time_tdt":"13:37:19","type":"금환일식","type_code":"A","saros":95,"gamma":-0.46866,"magnitude":0.94299,"greatest":{"lat":-47.02419,"lng":-1.8905},"path_width_km":237.9,"duration":"05m28s","delta_t_seconds":1752.6,"catalog_number":7048,"source":"NASA Five Millennium Canon of Solar Eclipses","source_url":"https://eclipse.gsfc.nasa.gov/SEsearch/SEsearchmap.php?Ecl=%2B09670113","boundary":"south","name":"967-01-13 금환일식"},"geometry":{"type":"LineString","coordinates":[[-99,-43.32387],[-98.5,-43.52127],[-98,-43.71779],[-97.5,-43.91341],[-97,-44.10808],[-96.5,-44.3018],[-96,-44.49453],[-95.5,-44.68625],[-95,-44.87693],[-94.5,-45.06655],[-94,-45.25509],[-93.5,-45.44251],[-93,-45.6288],[-92.5,-45.81394],[-92,-45.99789],[-91.5,-46.18064],[-91,-46.36216],[-90.5,-46.54243],[-90,-46.72143],[-89.5,-46.89913],[-89,-47.07552],[-88.5,-47.25057],[-88,-47.42426],[-87.5,-47.59658],[-87,-47.76749],[-86.5,-47.93699],[-86,-48.10506],[-85.5,-48.27167],[-85,-48.4368],[-84.5,-48.60045],[-84,-48.76258],[-83.5,-48.92319],[-83,-49.08226],[-82.5,-49.23978],[-82,-49.39572],[-81.5,-49.55007],[-81,-49.70282],[-80.5,-49.85395],[-80,-50.00346],[-79.5,-50.15132],[-79,-50.29752],[-78.5,-50.44206],[-78,-50.58491],[-77.5,-50.72608],[-77,-50.86554],[-76.5,-51.00329],[-76,-51.13932],[-75.5,-51.27361],[-75,-51.40617],[-74.5,-51.53697],[-74,-51.66602],[-73.5,-51.79329],[-73,-51.9188],[-72.5,-52.04252],[-72,-52.16445],[-71.5,-52.28459],[-71,-52.40293],[-70.5,-52.51946],[-70,-52.63418],[-69.5,-52.74708],[-69,-52.85816],[-68.5,-52.96741],[-68,-53.07482],[-67.5,-53.18041],[-67,-53.28415],[-66.5,-53.38605],[-66,-53.4861],[-65.5,-53.5843],[-65,-53.68065],[-64.5,-53.77514],[-64,-53.86777],[-63.5,-53.95854],[-63,-54.04744],[-62.5,-54.13448],[-62,-54.21965],[-61.5,-54.30295],[-61,-54.38438],[-60.5,-54.46393],[-60,-54.5416],[-59.5,-54.6174],[-59,-54.69131],[-58.5,-54.76334],[-58,-54.83349],[-57.5,-54.90175],[-57,-54.96813],[-56.5,-55.03261],[-56,-55.09521],[-55.5,-55.15591],[-55,-55.21471],[-54.5,-55.27161],[-54,-55.32662],[-53.5,-55.37972],[-53,-55.43092],[-52.5,-55.48021],[-52,-55.52759],[-51.5,-55.57306],[-51,-55.61661],[-50.5,-55.65825],[-50,-55.69796],[-49.5,-55.73574],[-49,-55.77159],[-48.5,-55.80551],[-48,-55.8375],[-47.5,-55.86753],[-47,-55.89563],[-46.5,-55.92176],[-46,-55.94594],[-45.5,-55.96816],[-45,-55.98841],[-44.5,-56.00668],[-44,-56.02297],[-43.5,-56.03727],[-43,-56.04957],[-42.5,-56.05987],[-42,-56.06816],[-41.5,-56.07443],[-41,-56.07867],[-40.5,-56.08087],[-40,-56.08102],[-39.5,-56.07912],[-39,-56.07515],[-38.5,-56.06909],[-38,-56.06095],[-37.5,-56.05071],[-37,-56.03835],[-36.5,-56.02386],[-36,-56.00724],[-35.5,-55.98846],[-35,-55.96751],[-34.5,-55.94437],[-34,-55.91904],[-33.5,-55.89149],[-33,-55.86171],[-32.5,-55.82968],[-32,-55.79538],[-31.5,-55.75879],[-31,-55.7199],[-30.5,-55.67868],[-30,-55.63511],[-29.5,-55.58918],[-29,-55.54086],[-28.5,-55.49012],[-28,-55.43695],[-27.5,-55.38131],[-27,-55.32319],[-26.5,-55.26256],[-26,-55.19939],[-25.5,-55.13365],[-25,-55.06531],[-24.5,-54.99435],[-24,-54.92073],[-23.5,-54.84443],[-23,-54.76541],[-22.5,-54.68363],[-22,-54.59907],[-21.5,-54.51169],[-21,-54.42145],[-20.5,-54.32831],[-20,-54.23224],[-19.5,-54.1332],[-19,-54.03114],[-18.5,-53.92603],[-18,-53.81782],[-17.5,-53.70647],[-17,-53.59194],[-16.5,-53.47417],[-16,-53.35312],[-15.5,-53.22874],[-15,-53.10099],[-14.5,-52.96981],[-14,-52.83514],[-13.5,-52.69695],[-13,-52.55516],[-12.5,-52.40974],[-12,-52.26061],[-11.5,-52.10773],[-11,-51.95103],[-10.5,-51.79046],[-10,-51.62595],[-9.5,-51.45744],[-9,-51.28487],[-8.5,-51.10817],[-8,-50.92729],[-7.5,-50.74215],[-7,-50.55269],[-6.5,-50.35884],[-6,-50.16054],[-5.5,-49.95772],[-5,-49.75032],[-4.5,-49.53826],[-4,-49.32147],[-3.5,-49.09991],[-3,-48.87348],[-2.5,-48.64214],[-2,-48.40582],[-1.5,-48.16445],[-1,-47.91798],[-0.5,-47.66635],[0,-47.4095],[0.5,-47.14737],[1,-46.87993],[1.5,-46.60712],[2,-46.3289],[2.5,-46.04524],[3,-45.7561],[3.5,-45.46145],[4,-45.16129],[4.5,-44.8556],[5,-44.54437],[5.5,-44.22761],[6,-43.90533],[6.5,-43.57756],[7,-43.24432],[7.5,-42.90567],[8,-42.56166],[8.5,-42.21236],[9,-41.85785],[9.5,-41.49822],[10,-41.13359],[10.5,-40.76407],[11,-40.38981],[11.5,-40.01094],[12,-39.62765],[12.5,-39.2401],[13,-38.84849],[13.5,-38.45302],[14,-38.05393],[14.5,-37.65143],[15,-37.24578],[15.5,-36.83723],[16,-36.42605],[16.5,-36.0125],[17,-35.59688],[17.5,-35.17947],[18,-34.76056],[18.5,-34.34045],[19,-33.91943],[19.5,-33.49781],[20,-33.07587],[20.5,-32.65392],[21,-32.23224],[21.5,-31.81111],[22,-31.39083],[22.5,-30.97164],[23,-30.55382],[23.5,-30.13761],[24,-29.72326],[24.5,-29.311],[25,-28.90104],[25.5,-28.49359],[26,-28.08885],[26.5,-27.68698],[27,-27.28817],[27.5,-26.89257],[28,-26.50032],[28.5,-26.11155],[29,-25.72638],[29.5,-25.34492],[30,-24.96726],[30.5,-24.5935],[31,-24.2237],[31.5,-23.85793],[32,-23.49625],[32.5,-23.13871],[33,-22.78534],[33.5,-22.43617],[34,-22.09124],[34.5,-21.75056],[35,-21.41413],[35.5,-21.08196],[36,-20.75406],[36.5,-20.43042],[37,-20.11103],[37.5,-19.79587],[38,-19.48493],[38.5,-19.17819],[39,-18.87563],[39.5,-18.57721],[40,-18.2829],[40.5,-17.99269],[41,-17.70653],[41.5,-17.42438],[42,-17.14622],[42.5,-16.87201],[43,-16.6017],[43.5,-16.33526],[44,-16.07264],[44.5,-15.81381],[45,-15.55873],[45.5,-15.30734],[46,-15.05962],[46.5,-14.81551],[47,-14.57498],[47.5,-14.33798],[48,-14.10447],[48.5,-13.87441],[49,-13.64775],[49.5,-13.42446],[50,-13.20449],[50.5,-12.9878],[51,-12.77435],[51.5,-12.5641],[52,-12.35701],[52.5,-12.15303],[53,-11.95215],[53.5,-11.7543],[54,-11.55946],[54.5,-11.36758],[55,-11.17863],[55.29297,-11.06927]]}},{"type":"Feature","id":"+09670710:north:0","properties":{"id":"+09670710","year":967,"month":7,"day":10,"time_tdt":"07:36:08","type":"개기일식","type_code":"T","saros":100,"gamma":0.21734,"magnitude":1.02254,"greatest":{"lat":34.07013,"lng":78.02661},"path_width_km":78.7,"duration":"02m04s","delta_t_seconds":1749.7,"catalog_number":7049,"source":"NASA Five Millennium Canon of Solar Eclipses","source_url":"https://eclipse.gsfc.nasa.gov/SEsearch/SEsearchmap.php?Ecl=%2B09670710","boundary":"north","name":"967-07-10 개기일식"},"geometry":{"type":"LineString","coordinates":[[-0.31055,25.51058],[0,25.63943],[0.5,25.84651],[1,26.05306],[1.5,26.25907],[2,26.46451],[2.5,26.66935],[3,26.87357],[3.5,27.07713],[4,27.28001],[4.5,27.48218],[5,27.68361],[5.5,27.88427],[6,28.08413],[6.5,28.28317],[7,28.48135],[7.5,28.67865],[8,28.87503],[8.5,29.07046],[9,29.26492],[9.5,29.45838],[10,29.6508],[10.5,29.84215],[11,30.03241],[11.5,30.22154],[12,30.40952],[12.5,30.59631],[13,30.78188],[13.5,30.9662],[14,31.14924],[14.5,31.33098],[15,31.51138],[15.5,31.6904],[16,31.86803],[16.5,32.04423],[17,32.21897],[17.5,32.39222],[18,32.56395],[18.5,32.73413],[19,32.90273],[19.5,33.06972],[20,33.23508],[20.5,33.39877],[21,33.56077],[21.5,33.72104],[22,33.87956],[22.5,34.0363],[23,34.19124],[23.5,34.34434],[24,34.49557],[24.5,34.64492],[25,34.79234],[25.5,34.93783],[26,35.08134],[26.5,35.22286],[27,35.36235],[27.5,35.4998],[28,35.63517],[28.5,35.76844],[29,35.89959],[29.5,36.02859],[30,36.15541],[30.5,36.28004],[31,36.40244],[31.5,36.5226],[32,36.6405],[32.5,36.75609],[33,36.86938],[33.5,36.98032],[34,37.08891],[34.5,37.19511],[35,37.2989],[35.5,37.40027],[36,37.49918],[36.5,37.59563],[37,37.68958],[37.5,37.78102],[38,37.86991],[38.5,37.95625],[39,38.04002],[39.5,38.12117],[40,38.19971],[40.5,38.27561],[41,38.34883],[41.5,38.41938],[42,38.48721],[42.5,38.55232],[43,38.61467],[43.5,38.67426],[44,38.73105],[44.5,38.78503],[45,38.83616],[45.5,38.88444],[46,38.92984],[46.5,38.97234],[47,39.01191],[47.5,39.04852],[48,39.08217],[48.5,39.11282],[49,39.14045],[49.5,39.16503],[50,39.18655],[50.5,39.20497],[51,39.22027],[51.5,39.23243],[52,39.24142],[52.5,39.24721],[53,39.24977],[53.5,39.24908],[54,39.24511],[54.5,39.23784],[55,39.22722],[55.5,39.21323],[56,39.19584],[56.5,39.17502],[57,39.15074],[57.5,39.12297],[58,39.09166],[58.5,39.0568],[59,39.01833],[59.5,38.97624],[60,38.93047],[60.5,38.881],[61,38.82779],[61.5,38.7708],[62,38.70999],[62.5,38.64532],[63,38.57674],[63.5,38.50423],[64,38.42773],[64.5,38.3472],[65,38.2626],[65.5,38.17389],[66,38.08101],[66.5,37.98394],[67,37.8826],[67.5,37.77697],[68,37.66699],[68.5,37.55262],[69,37.4338],[69.5,37.31049],[70,37.18263],[70.5,37.05018],[71,36.91309],[71.5,36.77131],[72,36.62479],[72.5,36.47347],[73,36.31731],[73.5,36.15626],[74,35.99028],[74.5,35.8193],[75,35.64329],[75.5,35.4622],[76,35.27598],[76.5,35.0846],[77,34.888],[77.5,34.68616],[78,34.47903],[78.5,34.26657],[79,34.04877],[79.5,33.82558],[80,33.59699],[80.5,33.36296],[81,33.12349],[81.5,32.87857],[82,32.62818],[82.5,32.37232],[83,32.111],[83.5,31.84422],[84,31.57201],[84.5,31.29438],[85,31.01137],[85.5,30.72301],[86,30.42936],[86.5,30.13046],[87,29.82638],[87.5,29.51719],[88,29.20297],[88.5,28.88382],[89,28.55983],[89.5,28.23113],[90,27.89781],[90.5,27.56002],[91,27.2179],[91.5,26.87159],[92,26.52125],[92.5,26.16705],[93,25.80917],[93.5,25.44778],[94,25.08308],[94.5,24.71526],[95,24.34454],[95.5,23.97111],[96,23.5952],[96.5,23.21702],[97,22.83679],[97.5,22.45474],[98,22.07109],[98.5,21.68608],[99,21.29991],[99.5,20.91283],[100,20.52506],[100.5,20.1368],[101,19.74829],[101.5,19.35973],[102,18.97134],[102.5,18.58331],[103,18.19584],[103.5,17.80912],[104,17.42334],[104.5,17.03868],[105,16.65529],[105.5,16.27335],[106,15.89301],[106.5,15.51441],[107,15.1377],[107.5,14.763],[108,14.39043],[108.5,14.02011],[109,13.65214],[109.5,13.28663],[110,12.92367],[110.5,12.56333],[111,12.20571],[111.5,11.85086],[112,11.49885],[112.5,11.14974],[113,10.80359],[113.5,10.46043],[114,10.12031],[114.5,9.78327],[115,9.44933],[115.5,9.11852],[116,8.79087],[116.5,8.46639],[117,8.1451],[117.5,7.827],[118,7.5121],[118.5,7.20041],[119,6.89193],[119.5,6.58666],[120,6.2846],[120.5,5.98572],[121,5.69004],[121.5,5.39754],[122,5.1082],[122.5,4.82202],[123,4.53897],[123.5,4.25905],[124,3.98223],[124.5,3.70849],[125,3.43782],[125.5,3.1702],[126,2.9056],[126.5,2.644],[127,2.38537],[127.5,2.12971],[128,1.87697],[128.5,1.62714],[129,1.3802],[129.5,1.13611],[130,0.89485],[130.5,0.65641],[131,0.42074],[131.5,0.18784],[132,-0.04234],[132.5,-0.26981],[133,-0.49459],[133.5,-0.71673],[134,-0.93623],[134.5,-1.15312],[135,-1.36744],[135.5,-1.5792],[136,-1.78843],[136.5,-1.99515],[136.78125,-2.11034]]}},{"type":"Feature","id":"+09670710:center:0","properties":{"id":"+09670710","year":967,"month":7,"day":10,"time_tdt":"07:36:08","type":"개기일식","type_code":"T","saros":100,"gamma":0.21734,"magnitude":1.02254,"greatest":{"lat":34.07013,"lng":78.02661},"path_width_km":78.7,"duration":"02m04s","delta_t_seconds":1749.7,"catalog_number":7049,"source":"NASA Five Millennium Canon of Solar Eclipses","source_url":"https://eclipse.gsfc.nasa.gov/SEsearch/SEsearchmap.php?Ecl=%2B09670710","boundary":"center","name":"967-07-10 개기일식"},"geometry":{"type":"LineString","coordinates":[[-0.26713,25.43185],[0,25.54374],[0.5,25.74813],[1,25.95199],[1.5,26.15532],[2,26.35807],[2.5,26.56023],[3,26.76176],[3.5,26.96265],[4,27.16285],[4.5,27.36235],[5,27.56112],[5.5,27.75912],[6,27.95633],[6.5,28.15272],[7,28.34826],[7.5,28.54293],[8,28.73668],[8.5,28.92951],[9,29.12136],[9.5,29.31222],[10,29.50206],[10.5,29.69085],[11,29.87855],[11.5,30.06513],[12,30.25057],[12.5,30.43484],[13,30.61791],[13.5,30.79974],[14,30.98031],[14.5,31.15959],[15,31.33754],[15.5,31.51414],[16,31.68936],[16.5,31.86317],[17,32.03553],[17.5,32.20643],[18,32.37582],[18.5,32.54368],[19,32.70999],[19.5,32.8747],[20,33.0378],[20.5,33.19925],[21,33.35903],[21.5,33.51711],[22,33.67346],[22.5,33.82804],[23,33.98084],[23.5,34.13183],[24,34.28098],[24.5,34.42825],[25,34.57363],[25.5,34.71709],[26,34.8586],[26.5,34.99813],[27,35.13567],[27.5,35.27117],[28,35.40463],[28.5,35.536],[29,35.66527],[29.5,35.79242],[30,35.91741],[30.5,36.04023],[31,36.16084],[31.5,36.27923],[32,36.39537],[32.5,36.50923],[33,36.6208],[33.5,36.73005],[34,36.83696],[34.5,36.9415],[35,37.04366],[35.5,37.1434],[36,37.24071],[36.5,37.33557],[37,37.42794],[37.5,37.51782],[38,37.60518],[38.5,37.68999],[39,37.77223],[39.5,37.85189],[40,37.92894],[40.5,38.00336],[41,38.07512],[41.5,38.14421],[42,38.2106],[42.5,38.27427],[43,38.3352],[43.5,38.39337],[44,38.44875],[44.5,38.50133],[45,38.55107],[45.5,38.59796],[46,38.64197],[46.5,38.68309],[47,38.72128],[47.5,38.75652],[48,38.78879],[48.5,38.81807],[49,38.84433],[49.5,38.86754],[50,38.88768],[50.5,38.90473],[51,38.91866],[51.5,38.92944],[52,38.93704],[52.5,38.94144],[53,38.94261],[53.5,38.94052],[54,38.93514],[54.5,38.92644],[55,38.9144],[55.5,38.89898],[56,38.88015],[56.5,38.85787],[57,38.83212],[57.5,38.80287],[58,38.77007],[58.5,38.7337],[59,38.69371],[59.5,38.65008],[60,38.60276],[60.5,38.55172],[61,38.49692],[61.5,38.43832],[62,38.37588],[62.5,38.30956],[63,38.23932],[63.5,38.16512],[64,38.08692],[64.5,38.00466],[65,37.91831],[65.5,37.82783],[66,37.73316],[66.5,37.63426],[67,37.53108],[67.5,37.42358],[68,37.31171],[68.5,37.19542],[69,37.07467],[69.5,36.94939],[70,36.81955],[70.5,36.68509],[71,36.54597],[71.5,36.40213],[72,36.25353],[72.5,36.10011],[73,35.94183],[73.5,35.77865],[74,35.6105],[74.5,35.43735],[75,35.25915],[75.5,35.07585],[76,34.88742],[76.5,34.69381],[77,34.49498],[77.5,34.29089],[78,34.08152],[78.5,33.86683],[79,33.64678],[79.5,33.42137],[80,33.19055],[80.5,32.95433],[81,32.71268],[81.5,32.46559],[82,32.21307],[82.5,31.95512],[83,31.69175],[83.5,31.42296],[84,31.1488],[84.5,30.86927],[85,30.58443],[85.5,30.29431],[86,29.99898],[86.5,29.69848],[87,29.3929],[87.5,29.08231],[88,28.7668],[88.5,28.44647],[89,28.12142],[89.5,27.79179],[90,27.45768],[90.5,27.11924],[91,26.77662],[91.5,26.42996],[92,26.07944],[92.5,25.72523],[93,25.3675],[93.5,25.00644],[94,24.64224],[94.5,24.27512],[95,23.90527],[95.5,23.5329],[96,23.15824],[96.5,22.78149],[97,22.40288],[97.5,22.02264],[98,21.64098],[98.5,21.25814],[99,20.87433],[99.5,20.48977],[100,20.10468],[100.5,19.71928],[101,19.33378],[101.5,18.94839],[102,18.56331],[102.5,18.17873],[103,17.79484],[103.5,17.41183],[104,17.02988],[104.5,16.64915],[105,16.2698],[105.5,15.892],[106,15.51588],[106.5,15.14158],[107,14.76924],[107.5,14.39898],[108,14.03091],[108.5,13.66514],[109,13.30177],[109.5,12.94089],[110,12.5826],[110.5,12.22696],[111,11.87405],[111.5,11.52393],[112,11.17667],[112.5,10.83231],[113,10.49091],[113.5,10.15251],[114,9.81713],[114.5,9.48483],[115,9.15561],[115.5,8.82952],[116,8.50656],[116.5,8.18675],[117,7.8701],[117.5,7.55662],[118,7.24632],[118.5,6.9392],[119,6.63525],[119.5,6.33448],[120,6.03688],[120.5,5.74244],[121,5.45116],[121.5,5.16301],[122,4.878],[122.5,4.5961],[123,4.3173],[123.5,4.04158],[124,3.76893],[124.5,3.49932],[125,3.23274],[125.5,2.96916],[126,2.70856],[126.5,2.45093],[127,2.19623],[127.5,1.94445],[128,1.69556],[128.5,1.44953],[129,1.20635],[129.5,0.96599],[130,0.72842],[130.5,0.49362],[131,0.26156],[131.5,0.03223],[132,-0.19441],[132.5,-0.41839],[133,-0.63972],[133.5,-0.85843],[134,-1.07455],[134.5,-1.2881],[135,-1.4991],[135.5,-1.70758],[136,-1.91357],[136.5,-2.11709],[136.72668,-2.2066]]}},{"type":"Feature","id":"+09670710:south:0","properties":{"id":"+09670710","year":967,"month":7,"day":10,"time_tdt":"07:36:08","type":"개기일식","type_code":"T","saros":100,"gamma":0.21734,"magnitude":1.02254,"greatest":{"lat":34.07013,"lng":78.02661},"path_width_km":78.7,"duration":"02m04s","delta_t_seconds":1749.7,"catalog_number":7049,"source":"NASA Five Millennium Canon of Solar Eclipses","source_url":"https://eclipse.gsfc.nasa.gov/SEsearch/SEsearchmap.php?Ecl=%2B09670710","boundary":"south","name":"967-07-10 개기일식"},"geometry":{"type":"LineString","coordinates":[[-0.20898,25.36423],[0,25.44868],[0.5,25.65039],[1,25.85159],[1.5,26.05224],[2,26.25233],[2.5,26.45182],[3,26.65069],[3.5,26.84891],[4,27.04646],[4.5,27.2433],[5,27.43942],[5.5,27.63477],[6,27.82935],[6.5,28.0231],[7,28.21602],[7.5,28.40807],[8,28.59922],[8.5,28.78944],[9,28.9787],[9.5,29.16698],[10,29.35425],[10.5,29.54047],[11,29.72562],[11.5,29.90967],[12,30.09259],[12.5,30.27434],[13,30.45491],[13.5,30.63426],[14,30.81236],[14.5,30.98919],[15,31.1647],[15.5,31.33888],[16,31.5117],[16.5,31.68311],[17,31.85311],[17.5,32.02165],[18,32.18871],[18.5,32.35425],[19,32.51826],[19.5,32.6807],[20,32.84154],[20.5,33.00075],[21,33.15831],[21.5,33.31419],[22,33.46835],[22.5,33.62078],[23,33.77144],[23.5,33.92031],[24,34.06736],[24.5,34.21256],[25,34.35589],[25.5,34.49731],[26,34.63681],[26.5,34.77435],[27,34.90991],[27.5,35.04347],[28,35.17499],[28.5,35.30446],[29,35.43184],[29.5,35.55712],[30,35.68027],[30.5,35.80126],[31,35.92006],[31.5,36.03666],[32,36.15103],[32.5,36.26315],[33,36.37299],[33.5,36.48053],[34,36.58575],[34.5,36.68862],[35,36.78911],[35.5,36.88721],[36,36.9829],[36.5,37.07615],[37,37.16693],[37.5,37.25523],[38,37.34103],[38.5,37.42429],[39,37.505],[39.5,37.58314],[40,37.65867],[40.5,37.73159],[41,37.80187],[41.5,37.86948],[42,37.93441],[42.5,37.99663],[43,38.05611],[43.5,38.11284],[44,38.16679],[44.5,38.21794],[45,38.26627],[45.5,38.31174],[46,38.35435],[46.5,38.39406],[47,38.43085],[47.5,38.46469],[48,38.49557],[48.5,38.52345],[49,38.54832],[49.5,38.57014],[50,38.58888],[50.5,38.60454],[51,38.61706],[51.5,38.62644],[52,38.63263],[52.5,38.63562],[53,38.63537],[53.5,38.63186],[54,38.62505],[54.5,38.61492],[55,38.60142],[55.5,38.58454],[56,38.56425],[56.5,38.54049],[57,38.51325],[57.5,38.4825],[58,38.44818],[58.5,38.41028],[59,38.36875],[59.5,38.32355],[60,38.27466],[60.5,38.22203],[61,38.16562],[61.5,38.10539],[62,38.0413],[62.5,37.97332],[63,37.90139],[63.5,37.82548],[64,37.74555],[64.5,37.66154],[65,37.57342],[65.5,37.48114],[66,37.38466],[66.5,37.28392],[67,37.17888],[67.5,37.06949],[68,36.95571],[68.5,36.83749],[69,36.71477],[69.5,36.58752],[70,36.45567],[70.5,36.31919],[71,36.17802],[71.5,36.03211],[72,35.88142],[72.5,35.72589],[73,35.56548],[73.5,35.40014],[74,35.22983],[74.5,35.05449],[75,34.87409],[75.5,34.68859],[76,34.49794],[76.5,34.3021],[77,34.10104],[77.5,33.89472],[78,33.68311],[78.5,33.46618],[79,33.24391],[79.5,33.01628],[80,32.78327],[80.5,32.54486],[81,32.30106],[81.5,32.05184],[82,31.79723],[82.5,31.53722],[83,31.27183],[83.5,31.00108],[84,30.72501],[84.5,30.44364],[85,30.15703],[85.5,29.86521],[86,29.56826],[86.5,29.26625],[87,28.95924],[87.5,28.64733],[88,28.33061],[88.5,28.00919],[89,27.68318],[89.5,27.35272],[90,27.01792],[90.5,26.67894],[91,26.33593],[91.5,25.98904],[92,25.63845],[92.5,25.28433],[93,24.92687],[93.5,24.56626],[94,24.20269],[94.5,23.83638],[95,23.46752],[95.5,23.09633],[96,22.72303],[96.5,22.34783],[97,21.97095],[97.5,21.59262],[98,21.21306],[98.5,20.83248],[99,20.45111],[99.5,20.06916],[100,19.68685],[100.5,19.30438],[101,18.92197],[101.5,18.53981],[102,18.1581],[102.5,17.77702],[103,17.39676],[103.5,17.01751],[104,16.63941],[104.5,16.26265],[105,15.88736],[105.5,15.51371],[106,15.14182],[106.5,14.77183],[107,14.40387],[107.5,14.03804],[108,13.67446],[108.5,13.31323],[109,12.95444],[109.5,12.59818],[110,12.24453],[110.5,11.89355],[111,11.54533],[111.5,11.19991],[112,10.85736],[112.5,10.51771],[113,10.18102],[113.5,9.84733],[114,9.51666],[114.5,9.18905],[115,8.86451],[115.5,8.54308],[116,8.22476],[116.5,7.90957],[117,7.59752],[117.5,7.28861],[118,6.98285],[118.5,6.68024],[119,6.38078],[119.5,6.08446],[120,5.79127],[120.5,5.50121],[121,5.21427],[121.5,4.93044],[122,4.6497],[122.5,4.37203],[123,4.09743],[123.5,3.82587],[124,3.55733],[124.5,3.29181],[125,3.02926],[125.5,2.76968],[126,2.51305],[126.5,2.25933],[127,2.00852],[127.5,1.76058],[128,1.51549],[128.5,1.27323],[129,1.03377],[129.5,0.7971],[130,0.56318],[130.5,0.33199],[131,0.1035],[131.5,-0.1223],[132,-0.34545],[132.5,-0.56596],[133,-0.78387],[133.5,-0.99919],[134,-1.21196],[134.5,-1.42219],[135,-1.62991],[135.5,-1.83515],[136,-2.03792],[136.5,-2.23826]]}}],"attribution":"Eclipse Predictions by Fred Espenak and Jean Meeus (NASA's GSFC)","generated_at":"2026-09-23T03:35:39.035Z"}
