{"type":"FeatureCollection","year":972,"events":[{"id":"+09720416","year":972,"month":4,"day":16,"time_tdt":"09:46:46","type":"개기일식","type_code":"T","saros":112,"gamma":-0.82129,"magnitude":1.06596,"greatest":{"lat":-41.42659,"lng":56.1955},"path_width_km":376.1,"duration":"05m04s","delta_t_seconds":1721.2,"catalog_number":7060,"source":"NASA Five Millennium Canon of Solar Eclipses","source_url":"https://eclipse.gsfc.nasa.gov/SEsearch/SEsearchmap.php?Ecl=%2B09720416"},{"id":"+09721010","year":972,"month":10,"day":10,"time_tdt":"03:36:50","type":"금환일식","type_code":"A","saros":117,"gamma":0.91265,"magnitude":0.92156,"greatest":{"lat":53.95587,"lng":155.22461},"path_width_km":723.8,"duration":"07m31s","delta_t_seconds":1718.4,"catalog_number":7061,"source":"NASA Five Millennium Canon of Solar Eclipses","source_url":"https://eclipse.gsfc.nasa.gov/SEsearch/SEsearchmap.php?Ecl=%2B09721010"}],"features":[{"type":"Feature","id":"+09720416:north:0","properties":{"id":"+09720416","year":972,"month":4,"day":16,"time_tdt":"09:46:46","type":"개기일식","type_code":"T","saros":112,"gamma":-0.82129,"magnitude":1.06596,"greatest":{"lat":-41.42659,"lng":56.1955},"path_width_km":376.1,"duration":"05m04s","delta_t_seconds":1721.2,"catalog_number":7060,"source":"NASA Five Millennium Canon of Solar Eclipses","source_url":"https://eclipse.gsfc.nasa.gov/SEsearch/SEsearchmap.php?Ecl=%2B09720416","boundary":"north","name":"972-04-16 개기일식"},"geometry":{"type":"LineString","coordinates":[[-6.5,-65.91907],[-6,-65.795],[-5.5,-65.66953],[-5,-65.54263],[-4.5,-65.41431],[-4,-65.28454],[-3.5,-65.15333],[-3,-65.02065],[-2.5,-64.8865],[-2,-64.75086],[-1.5,-64.61374],[-1,-64.4751],[-0.5,-64.33495],[0,-64.19328],[0.5,-64.05006],[1,-63.9053],[1.5,-63.75898],[2,-63.61109],[2.5,-63.46163],[3,-63.31057],[3.5,-63.15791],[4,-63.00364],[4.5,-62.84776],[5,-62.69024],[5.5,-62.53108],[6,-62.37027],[6.5,-62.2078],[7,-62.04366],[7.5,-61.87785],[8,-61.71034],[8.5,-61.54114],[9,-61.37024],[9.5,-61.19762],[10,-61.02328],[10.5,-60.8472],[11,-60.6694],[11.5,-60.48984],[12,-60.30853],[12.5,-60.12547],[13,-59.94064],[13.5,-59.75403],[14,-59.56565],[14.5,-59.37549],[15,-59.18354],[15.5,-58.9898],[16,-58.79426],[16.5,-58.59692],[17,-58.39779],[17.5,-58.19685],[18,-57.9941],[18.5,-57.78955],[19,-57.58319],[19.5,-57.37503],[20,-57.16507],[20.5,-56.95331],[21,-56.73975],[21.5,-56.5244],[22,-56.30726],[22.5,-56.08834],[23,-55.86764],[23.5,-55.64519],[24,-55.42097],[24.5,-55.19502],[25,-54.96733],[25.5,-54.73793],[26,-54.50683],[26.5,-54.27405],[27,-54.0396],[27.5,-53.8035],[28,-53.56579],[28.5,-53.32648],[29,-53.0856],[29.5,-52.84318],[30,-52.59924],[30.5,-52.35383],[31,-52.10698],[31.5,-51.85872],[32,-51.6091],[32.5,-51.35816],[33,-51.10594],[33.5,-50.8525],[34,-50.59788],[34.5,-50.34214],[35,-50.08534],[35.5,-49.82754],[36,-49.5688],[36.5,-49.30919],[37,-49.04878],[37.5,-48.78765],[38,-48.52587],[38.5,-48.26353],[39,-48.00072],[39.5,-47.73751],[40,-47.47401],[40.5,-47.2103],[41,-46.9465],[41.5,-46.68271],[42,-46.41902],[42.5,-46.15556],[43,-45.89244],[43.5,-45.62978],[44,-45.36769],[44.5,-45.1063],[45,-44.84575],[45.5,-44.58615],[46,-44.32764],[46.5,-44.07036],[47,-43.81445],[47.5,-43.56003],[48,-43.30726],[48.5,-43.05627],[49,-42.8072],[49.5,-42.5602],[50,-42.31541],[50.5,-42.07297],[51,-41.83303],[51.5,-41.59571],[52,-41.36117],[52.5,-41.12954],[53,-40.90094],[53.5,-40.67552],[54,-40.4534],[54.5,-40.23471],[55,-40.01956],[55.5,-39.80807],[56,-39.60036],[56.5,-39.39652],[57,-39.19668],[57.5,-39.0009],[58,-38.8093],[58.5,-38.62196],[59,-38.43894],[59.5,-38.26033],[60,-38.0862],[60.5,-37.91659],[61,-37.75157],[61.5,-37.59118],[62,-37.43547],[62.5,-37.28447],[63,-37.1382],[63.5,-36.9967],[64,-36.85998],[64.5,-36.72804],[65,-36.6009],[65.5,-36.47856],[66,-36.361],[66.5,-36.24823],[67,-36.14023],[67.5,-36.03697],[68,-35.93844],[68.5,-35.84461],[69,-35.75545],[69.5,-35.67092],[70,-35.59099],[70.5,-35.51562],[71,-35.44475],[71.5,-35.37836],[72,-35.31638],[72.5,-35.25878],[73,-35.20549],[73.5,-35.15646],[74,-35.11164],[74.5,-35.07097],[75,-35.03439],[75.5,-35.00185],[76,-34.97329],[76.5,-34.94864],[77,-34.92784],[77.5,-34.91083],[78,-34.89756],[78.5,-34.88796],[79,-34.88196],[79.5,-34.87951],[80,-34.88055],[80.5,-34.885],[81,-34.89283],[81.5,-34.90395],[82,-34.91831],[82.5,-34.93586],[83,-34.95653],[83.5,-34.98026],[84,-35.007],[84.5,-35.03668],[85,-35.06926],[85.5,-35.10467],[86,-35.14286],[86.5,-35.18378],[87,-35.22737],[87.5,-35.27358],[88,-35.32235],[88.5,-35.37364],[89,-35.4274],[89.5,-35.48356],[90,-35.5421],[90.5,-35.60295],[91,-35.66607],[91.5,-35.73142],[92,-35.79895],[92.5,-35.8686],[93,-35.94035],[93.5,-36.01415],[94,-36.08995],[94.5,-36.16771],[95,-36.24739],[95.5,-36.32896],[96,-36.41236],[96.5,-36.49758],[97,-36.58455],[97.5,-36.67326],[98,-36.76366],[98.5,-36.85571],[99,-36.94939],[99.5,-37.04466],[100,-37.14148],[100.5,-37.23982],[101,-37.33965],[101.5,-37.44094],[102,-37.54365],[102.5,-37.64776],[103,-37.75323],[103.5,-37.86004],[104,-37.96816],[104.5,-38.07756],[105,-38.18821]]}},{"type":"Feature","id":"+09720416:center:0","properties":{"id":"+09720416","year":972,"month":4,"day":16,"time_tdt":"09:46:46","type":"개기일식","type_code":"T","saros":112,"gamma":-0.82129,"magnitude":1.06596,"greatest":{"lat":-41.42659,"lng":56.1955},"path_width_km":376.1,"duration":"05m04s","delta_t_seconds":1721.2,"catalog_number":7060,"source":"NASA Five Millennium Canon of Solar Eclipses","source_url":"https://eclipse.gsfc.nasa.gov/SEsearch/SEsearchmap.php?Ecl=%2B09720416","boundary":"center","name":"972-04-16 개기일식"},"geometry":{"type":"LineString","coordinates":[[-5.12487,-67.19763],[-5,-67.09466],[-4.5,-66.96999],[-4,-66.84389],[-3.5,-66.71636],[-3,-66.58738],[-2.5,-66.45695],[-2,-66.32504],[-1.5,-66.19166],[-1,-66.05679],[-0.5,-65.92041],[0,-65.78253],[0.5,-65.64312],[1,-65.50219],[1.5,-65.3597],[2,-65.21567],[2.5,-65.07007],[3,-64.92289],[3.5,-64.77413],[4,-64.62378],[4.5,-64.47181],[5,-64.31824],[5.5,-64.16303],[6,-64.00619],[6.5,-63.84771],[7,-63.68757],[7.5,-63.52576],[8,-63.36229],[8.5,-63.19713],[9,-63.03027],[9.5,-62.86172],[10,-62.69146],[10.5,-62.51949],[11,-62.34579],[11.5,-62.17035],[12,-61.99318],[12.5,-61.81427],[13,-61.6336],[13.5,-61.45117],[14,-61.26698],[14.5,-61.08101],[15,-60.89328],[15.5,-60.70376],[16,-60.51246],[16.5,-60.31937],[17,-60.12449],[17.5,-59.92782],[18,-59.72936],[18.5,-59.5291],[19,-59.32704],[19.5,-59.12319],[20,-58.91755],[20.5,-58.71011],[21,-58.50089],[21.5,-58.28988],[22,-58.07708],[22.5,-57.86251],[23,-57.64617],[23.5,-57.42807],[24,-57.20822],[24.5,-56.98663],[25,-56.7633],[25.5,-56.53826],[26,-56.31151],[26.5,-56.08307],[27,-55.85297],[27.5,-55.6212],[28,-55.38781],[28.5,-55.15281],[29,-54.91622],[29.5,-54.67807],[30,-54.43839],[30.5,-54.19721],[31,-53.95456],[31.5,-53.71047],[32,-53.46499],[32.5,-53.21815],[33,-52.96999],[33.5,-52.72056],[34,-52.46991],[34.5,-52.21809],[35,-51.96514],[35.5,-51.71113],[36,-51.45611],[36.5,-51.20015],[37,-50.94331],[37.5,-50.68566],[38,-50.42728],[38.5,-50.16823],[39,-49.90861],[39.5,-49.64848],[40,-49.38794],[40.5,-49.12708],[41,-48.86599],[41.5,-48.60476],[42,-48.3435],[42.5,-48.08231],[43,-47.8213],[43.5,-47.56058],[44,-47.30026],[44.5,-47.04046],[45,-46.7813],[45.5,-46.5229],[46,-46.26539],[46.5,-46.0089],[47,-45.75355],[47.5,-45.49949],[48,-45.24683],[48.5,-44.99573],[49,-44.74631],[49.5,-44.49872],[50,-44.25309],[50.5,-44.00957],[51,-43.76828],[51.5,-43.52937],[52,-43.29298],[52.5,-43.05924],[53,-42.82829],[53.5,-42.60026],[54,-42.37527],[54.5,-42.15346],[55,-41.93494],[55.5,-41.71985],[56,-41.50829],[56.5,-41.30037],[57,-41.09621],[57.5,-40.8959],[58,-40.69955],[58.5,-40.50724],[59,-40.31907],[59.5,-40.13511],[60,-39.95543],[60.5,-39.78012],[61,-39.60922],[61.5,-39.4428],[62,-39.28091],[62.5,-39.12359],[63,-38.97088],[63.5,-38.82281],[64,-38.67942],[64.5,-38.54072],[65,-38.40672],[65.5,-38.27745],[66,-38.15289],[66.5,-38.03306],[67,-37.91794],[67.5,-37.80753],[68,-37.70181],[68.5,-37.60076],[69,-37.50436],[69.5,-37.41259],[70,-37.3254],[70.5,-37.24278],[71,-37.16467],[71.5,-37.09105],[72,-37.02187],[72.5,-36.95708],[73,-36.89663],[73.5,-36.84049],[74,-36.78859],[74.5,-36.74089],[75,-36.69732],[75.5,-36.65785],[76,-36.6224],[76.5,-36.59092],[77,-36.56335],[77.5,-36.53964],[78,-36.51972],[78.5,-36.50354],[79,-36.49103],[79.5,-36.48214],[80,-36.4768],[80.5,-36.47495],[81,-36.47655],[81.5,-36.48151],[82,-36.48979],[82.5,-36.50133],[83,-36.51606],[83.5,-36.53393],[84,-36.55489],[84.5,-36.57886],[85,-36.60581],[85.5,-36.63566],[86,-36.66837],[86.5,-36.70388],[87,-36.74213],[87.5,-36.78308],[88,-36.82667],[88.5,-36.87285],[89,-36.92157],[89.5,-36.97278],[90,-37.02642],[90.5,-37.08245],[91,-37.14083],[91.5,-37.2015],[92,-37.26441],[92.5,-37.32954],[93,-37.39682],[93.5,-37.46621],[94,-37.53768],[94.5,-37.61118],[95,-37.68666],[95.5,-37.76409],[96,-37.84343],[96.5,-37.92464],[97,-38.00768],[97.5,-38.09251],[98,-38.17909],[98.5,-38.2674],[99,-38.35738],[99.5,-38.44902],[100,-38.54227],[100.5,-38.6371],[101,-38.73347],[101.5,-38.83136],[102,-38.93074],[102.5,-39.03156],[103,-39.13381],[103.5,-39.23745],[104,-39.34245],[104.5,-39.44879],[105,-39.55643],[105.15706,-39.5821]]}},{"type":"Feature","id":"+09720416:south:0","properties":{"id":"+09720416","year":972,"month":4,"day":16,"time_tdt":"09:46:46","type":"개기일식","type_code":"T","saros":112,"gamma":-0.82129,"magnitude":1.06596,"greatest":{"lat":-41.42659,"lng":56.1955},"path_width_km":376.1,"duration":"05m04s","delta_t_seconds":1721.2,"catalog_number":7060,"source":"NASA Five Millennium Canon of Solar Eclipses","source_url":"https://eclipse.gsfc.nasa.gov/SEsearch/SEsearchmap.php?Ecl=%2B09720416","boundary":"south","name":"972-04-16 개기일식"},"geometry":{"type":"LineString","coordinates":[[-3.61914,-68.38028],[-3.5,-68.35068],[-3,-68.22558],[-2.5,-68.09903],[-2,-67.97102],[-1.5,-67.84155],[-1,-67.7106],[-0.5,-67.57816],[0,-67.44422],[0.5,-67.30878],[1,-67.17181],[1.5,-67.03331],[2,-66.89326],[2.5,-66.75167],[3,-66.6085],[3.5,-66.46377],[4,-66.31745],[4.5,-66.16953],[5,-66.02001],[5.5,-65.86887],[6,-65.7161],[6.5,-65.5617],[7,-65.40566],[7.5,-65.24795],[8,-65.08859],[8.5,-64.92755],[9,-64.76483],[9.5,-64.60041],[10,-64.4343],[10.5,-64.26648],[11,-64.09694],[11.5,-63.92568],[12,-63.75269],[12.5,-63.57796],[13,-63.40149],[13.5,-63.22326],[14,-63.04328],[14.5,-62.86153],[15,-62.67801],[15.5,-62.49273],[16,-62.30566],[16.5,-62.11681],[17,-61.92618],[17.5,-61.73376],[18,-61.53956],[18.5,-61.34356],[19,-61.14577],[19.5,-60.94619],[20,-60.74482],[20.5,-60.54165],[21,-60.3367],[21.5,-60.12997],[22,-59.92145],[22.5,-59.71116],[23,-59.4991],[23.5,-59.28528],[24,-59.06969],[24.5,-58.85237],[25,-58.6333],[25.5,-58.41251],[26,-58.19001],[26.5,-57.96582],[27,-57.73993],[27.5,-57.51239],[28,-57.2832],[28.5,-57.05238],[29,-56.81995],[29.5,-56.58595],[30,-56.35039],[30.5,-56.11331],[31,-55.87472],[31.5,-55.63467],[32,-55.39319],[32.5,-55.15032],[33,-54.90608],[33.5,-54.66053],[34,-54.41371],[34.5,-54.16566],[35,-53.91643],[35.5,-53.66608],[36,-53.41466],[36.5,-53.16222],[37,-52.90883],[37.5,-52.65455],[38,-52.39944],[38.5,-52.14358],[39,-51.88704],[39.5,-51.6299],[40,-51.37223],[40.5,-51.11412],[41,-50.85566],[41.5,-50.59693],[42,-50.33804],[42.5,-50.07906],[43,-49.82012],[43.5,-49.5613],[44,-49.30272],[44.5,-49.04448],[45,-48.78671],[45.5,-48.52951],[46,-48.273],[46.5,-48.01731],[47,-47.76256],[47.5,-47.50887],[48,-47.25638],[48.5,-47.00522],[49,-46.7555],[49.5,-46.50738],[50,-46.26098],[50.5,-46.01644],[51,-45.7739],[51.5,-45.53348],[52,-45.29532],[52.5,-45.05957],[53,-44.82634],[53.5,-44.59578],[54,-44.36801],[54.5,-44.14317],[55,-43.92137],[55.5,-43.70273],[56,-43.48739],[56.5,-43.27546],[57,-43.06704],[57.5,-42.86224],[58,-42.66117],[58.5,-42.46393],[59,-42.27061],[59.5,-42.08129],[60,-41.89607],[60.5,-41.71501],[61,-41.5382],[61.5,-41.36569],[62,-41.19755],[62.5,-41.03383],[63,-40.87458],[63.5,-40.71984],[64,-40.56964],[64.5,-40.42403],[65,-40.28302],[65.5,-40.14664],[66,-40.0149],[66.5,-39.8878],[67,-39.76535],[67.5,-39.64756],[68,-39.53441],[68.5,-39.42589],[69,-39.322],[69.5,-39.2227],[70,-39.12798],[70.5,-39.03781],[71,-38.95217],[71.5,-38.87101],[72,-38.79431],[72.5,-38.72202],[73,-38.6541],[73.5,-38.5905],[74,-38.5312],[74.5,-38.47612],[75,-38.42523],[75.5,-38.37847],[76,-38.33579],[76.5,-38.29714],[77,-38.26246],[77.5,-38.2317],[78,-38.20479],[78.5,-38.18168],[79,-38.16232],[79.5,-38.14665],[80,-38.1346],[80.5,-38.12611],[81,-38.12114],[81.5,-38.11962],[82,-38.12149],[82.5,-38.1267],[83,-38.13518],[83.5,-38.14687],[84,-38.16173],[84.5,-38.1797],[85,-38.2007],[85.5,-38.2247],[86,-38.25164],[86.5,-38.28146],[87,-38.3141],[87.5,-38.34952],[88,-38.38766],[88.5,-38.42846],[89,-38.47189],[89.5,-38.51787],[90,-38.56638],[90.5,-38.61735],[91,-38.67075],[91.5,-38.72651],[92,-38.7846],[92.5,-38.84497],[93,-38.90757],[93.5,-38.97236],[94,-39.0393],[94.5,-39.10834],[95,-39.17944],[95.5,-39.25255],[96,-39.32765],[96.5,-39.40468],[97,-39.48362],[97.5,-39.56441],[98,-39.64703],[98.5,-39.73143],[99,-39.81759],[99.5,-39.90545],[100,-39.995],[100.5,-40.08619],[101,-40.17899],[101.5,-40.27337],[102,-40.3693],[102.5,-40.46674],[103,-40.56566],[103.5,-40.66604],[104,-40.76784],[104.5,-40.87103],[105,-40.97558],[105.16797,-41.01101]]}},{"type":"Feature","id":"+09721010:north:0","properties":{"id":"+09721010","year":972,"month":10,"day":10,"time_tdt":"03:36:50","type":"금환일식","type_code":"A","saros":117,"gamma":0.91265,"magnitude":0.92156,"greatest":{"lat":53.95587,"lng":155.22461},"path_width_km":723.8,"duration":"07m31s","delta_t_seconds":1718.4,"catalog_number":7061,"source":"NASA Five Millennium Canon of Solar Eclipses","source_url":"https://eclipse.gsfc.nasa.gov/SEsearch/SEsearchmap.php?Ecl=%2B09721010","boundary":"north","name":"972-10-10 금환일식"},"geometry":{"type":"LineString","coordinates":[[118,80.37969],[118.5,80.16258],[117.5,80.59308],[119,79.94178],[119.5,79.71735],[120,79.48932],[120.5,79.25774],[121,79.02266],[121.5,78.78413],[122,78.54221],[122.5,78.29695],[123,78.0484],[123.5,77.79661],[124,77.54166],[124.5,77.28359],[125,77.02247],[125.5,76.75835],[126,76.49129],[126.5,76.22136],[127,75.94861],[127.5,75.67311],[128,75.39493],[128.5,75.11412],[129,74.83075],[129.5,74.54489],[130,74.2566],[130.5,73.96595],[131,73.673],[131.5,73.37784],[132,73.08052],[132.5,72.78112],[133,72.47972],[133.5,72.17639],[134,71.8712],[134.5,71.56424],[135,71.25559],[135.5,70.94533],[136,70.63354],[136.5,70.32033],[137,70.00577],[137.5,69.68996],[138,69.373],[138.5,69.055],[139,68.73604],[139.5,68.41625],[140,68.09573],[140.5,67.7746],[141,67.45297],[141.5,67.13097],[142,66.80873],[142.5,66.48636],[143,66.16402],[143.5,65.84183],[144,65.51994],[144.5,65.1985],[145,64.87765],[145.5,64.55754],[146,64.23834],[146.5,63.92021],[147,63.60331],[147.5,63.2878],[148,62.97385],[148.5,62.66165],[149,62.35135],[149.5,62.04313],[150,61.73718],[150,61.7372],[150.5,61.43367],[151,61.13277],[151.5,60.83466],[152,60.53951],[152.5,60.24751],[153,59.95882],[153.5,59.67362],[154,59.39206],[154.5,59.11432],[155,58.84054],[155.5,58.57089],[156,58.30552],[156.5,58.04456],[157,57.78815],[157.5,57.53642],[158,57.28949],[158.5,57.04749],[159,56.81051],[159.5,56.57866],[160,56.35202],[160.5,56.13068],[161,55.91471],[161.5,55.70419],[162,55.49916],[162.5,55.29968],[163,55.10578],[163.5,54.9175],[164,54.73487],[164.5,54.55789],[165,54.38658],[165.5,54.22095],[166,54.06098],[166.5,53.90666],[167,53.75798],[167.5,53.61491],[167.5,53.6149],[168,53.47742],[168.5,53.34547],[169,53.21904],[169.5,53.09807],[170,52.98251],[170.5,52.87231],[171,52.76742],[171.5,52.66778],[172,52.57332],[172.5,52.48399],[173,52.3997],[173.5,52.32041],[174,52.24603],[174.5,52.1765],[175,52.11174],[175.5,52.05168],[176,51.99624],[176.5,51.94536],[177,51.89895],[177.5,51.85695],[178,51.81927],[178.5,51.78584],[179,51.75659],[179.5,51.73144],[180,51.71032]]}},{"type":"Feature","id":"+09721010:north:1","properties":{"id":"+09721010","year":972,"month":10,"day":10,"time_tdt":"03:36:50","type":"금환일식","type_code":"A","saros":117,"gamma":0.91265,"magnitude":0.92156,"greatest":{"lat":53.95587,"lng":155.22461},"path_width_km":723.8,"duration":"07m31s","delta_t_seconds":1718.4,"catalog_number":7061,"source":"NASA Five Millennium Canon of Solar Eclipses","source_url":"https://eclipse.gsfc.nasa.gov/SEsearch/SEsearchmap.php?Ecl=%2B09721010","boundary":"north","name":"972-10-10 금환일식"},"geometry":{"type":"LineString","coordinates":[[-179.5,51.69315],[-179,51.67987],[-178.5,51.6704],[-178,51.66468],[-178,51.66467],[-177.5,51.66262],[-177,51.66416],[-176.5,51.66925],[-176,51.67779],[-175.5,51.68975],[-175,51.70503],[-174.5,51.7236],[-174,51.74537],[-173.5,51.77029],[-173,51.7983],[-172.5,51.82935],[-172,51.86336],[-171.5,51.9003],[-171,51.94009],[-170.5,51.98269],[-170,52.02804],[-169.5,52.0761],[-169,52.1268],[-168.5,52.18011],[-168,52.23596],[-167.5,52.29433],[-167,52.35514],[-166.5,52.41837],[-166,52.48397],[-165.5,52.5519],[-165,52.6221],[-164.5,52.69454],[-164,52.76919],[-163.5,52.84599],[-163,52.92492],[-162.5,53.00593]]}},{"type":"Feature","id":"+09721010:center:0","properties":{"id":"+09721010","year":972,"month":10,"day":10,"time_tdt":"03:36:50","type":"금환일식","type_code":"A","saros":117,"gamma":0.91265,"magnitude":0.92156,"greatest":{"lat":53.95587,"lng":155.22461},"path_width_km":723.8,"duration":"07m31s","delta_t_seconds":1718.4,"catalog_number":7061,"source":"NASA Five Millennium Canon of Solar Eclipses","source_url":"https://eclipse.gsfc.nasa.gov/SEsearch/SEsearchmap.php?Ecl=%2B09721010","boundary":"center","name":"972-10-10 금환일식"},"geometry":{"type":"LineString","coordinates":[[102.57918,78.87584],[101,78.55386],[101.5,78.43453],[102,78.31326],[102.5,78.19004],[103,78.06482],[103.5,77.9376],[104,77.80835],[104.5,77.67704],[105,77.54365],[105.5,77.40816],[106,77.27055],[106.5,77.13079],[107,76.98887],[107.5,76.84475],[108,76.69843],[108.5,76.54988],[108.5,76.54987],[109,76.39907],[109.5,76.246],[109.5,76.24599],[110,76.09063],[110.5,75.93296],[111,75.77295],[111.5,75.61061],[112,75.4459],[112.5,75.27881],[113,75.10933],[113.5,74.93744],[114,74.76312],[114.5,74.58636],[114.5,74.58637],[115,74.40716],[115.5,74.22549],[116,74.04134],[116.5,73.85471],[117,73.66558],[117.5,73.47395],[118,73.27981],[118.5,73.08315],[119,72.88396],[119.5,72.68224],[119.5,72.68225],[120,72.478],[120.5,72.27121],[121,72.0619],[121.5,71.85004],[122,71.63565],[122.5,71.41873],[123,71.19929],[123.5,70.97732],[124,70.75284],[124.5,70.52586],[125,70.29638],[125.5,70.06442],[126,69.82999],[126.5,69.59311],[126.5,69.59312],[127,69.3538],[127,69.35381],[127.5,69.11208],[128,68.86797],[128.5,68.62149],[129,68.37268],[129.5,68.12155],[130,67.86815],[130.5,67.61251],[131,67.35466],[131.5,67.09465],[132,66.83251],[132.5,66.5683],[133,66.30207],[133.5,66.03387],[134,65.76375],[134,65.76374],[134.5,65.49177],[135,65.218],[135.5,64.94251],[136,64.66537],[136.5,64.38665],[137,64.10644],[137.5,63.82481],[138,63.54187],[138.5,63.25769],[139,62.97239],[139.5,62.68606],[140,62.39881],[140.5,62.11075],[141,61.82201],[141.5,61.5327],[142,61.24295],[142.5,60.9529],[143,60.66267],[143.5,60.37242],[144,60.08229],[144.5,59.79242],[145,59.50298],[145.5,59.21413],[146,58.92601],[146.5,58.63881],[147,58.3527],[147.5,58.06783],[148,57.78439],[148.5,57.50255],[149,57.2225],[149.5,56.9444],[150,56.66844],[150.5,56.3948],[151,56.12365],[151,56.12364],[151.5,55.85516],[152,55.58953],[152.5,55.3269],[153,55.06747],[153.5,54.81138],[154,54.5588],[154.5,54.30989],[155,54.0648],[155.5,53.82366],[156,53.58662],[156.5,53.35381],[157,53.12536],[157.5,52.90137],[158,52.68196],[158.5,52.46723],[159,52.25727],[159.5,52.05217],[160,51.85199],[160.5,51.65681],[161,51.46669],[161.5,51.28168],[162,51.10182],[162.5,50.92713],[163,50.75766],[163.5,50.59342],[164,50.43441],[164.5,50.28065],[165,50.13213],[165.5,49.98884],[166,49.85077],[166.5,49.71789],[167,49.59018],[167.5,49.46762],[168,49.35015],[168.5,49.23774],[169,49.13036],[169.5,49.02794],[170,48.93044],[170.5,48.8378],[171,48.74997],[171.5,48.66689],[172,48.58849],[172.5,48.51471],[173,48.4455],[173.5,48.38077],[174,48.32047],[174.5,48.26453],[175,48.21287],[175.5,48.16543],[176,48.12214],[176.5,48.08293],[177,48.04772],[177.5,48.01646],[178,47.98906],[178.5,47.96547],[179,47.94561],[179.5,47.92941],[180,47.91681]]}},{"type":"Feature","id":"+09721010:center:1","properties":{"id":"+09721010","year":972,"month":10,"day":10,"time_tdt":"03:36:50","type":"금환일식","type_code":"A","saros":117,"gamma":0.91265,"magnitude":0.92156,"greatest":{"lat":53.95587,"lng":155.22461},"path_width_km":723.8,"duration":"07m31s","delta_t_seconds":1718.4,"catalog_number":7061,"source":"NASA Five Millennium Canon of Solar Eclipses","source_url":"https://eclipse.gsfc.nasa.gov/SEsearch/SEsearchmap.php?Ecl=%2B09721010","boundary":"center","name":"972-10-10 금환일식"},"geometry":{"type":"LineString","coordinates":[[-179.5,47.90774],[-179,47.90213],[-178.5,47.89992],[-178,47.90104],[-177.5,47.90544],[-177,47.91304],[-176.5,47.92379],[-176,47.93763],[-175.5,47.95449],[-175,47.97431],[-174.5,47.99705],[-174,48.02264],[-173.5,48.05103],[-173,48.08217],[-172.5,48.11599],[-172,48.15245],[-171.5,48.1915],[-171,48.23308],[-170.5,48.27715],[-170,48.32366],[-169.5,48.37257],[-169,48.42382],[-168.5,48.47737],[-168,48.53317],[-167.5,48.59119],[-167,48.65139],[-166.5,48.71371],[-166,48.77812],[-165.5,48.84458],[-165,48.91305],[-164.5,48.9835],[-164,49.05588],[-163.5,49.13016],[-163,49.20631],[-162.73464,49.20629]]}},{"type":"Feature","id":"+09721010:south:0","properties":{"id":"+09721010","year":972,"month":10,"day":10,"time_tdt":"03:36:50","type":"금환일식","type_code":"A","saros":117,"gamma":0.91265,"magnitude":0.92156,"greatest":{"lat":53.95587,"lng":155.22461},"path_width_km":723.8,"duration":"07m31s","delta_t_seconds":1718.4,"catalog_number":7061,"source":"NASA Five Millennium Canon of Solar Eclipses","source_url":"https://eclipse.gsfc.nasa.gov/SEsearch/SEsearchmap.php?Ecl=%2B09721010","boundary":"south","name":"972-10-10 금환일식"},"geometry":{"type":"LineString","coordinates":[[91.51172,76.21572],[92,76.12135],[92.5,76.02332],[93,75.92388],[93.5,75.823],[94,75.72067],[94.5,75.61687],[95,75.51158],[95.5,75.40478],[96,75.29646],[96.5,75.18661],[97,75.07519],[97.5,74.9622],[98,74.84761],[98.5,74.73141],[99,74.61358],[99.5,74.4941],[100,74.37295],[100.5,74.25012],[101,74.12559],[101.5,73.99933],[102,73.87134],[102.5,73.74158],[103,73.61005],[103.5,73.47673],[104,73.34159],[104.5,73.20462],[105,73.0658],[105.5,72.92511],[106,72.78253],[106.5,72.63806],[107,72.49166],[107.5,72.34332],[108,72.19303],[108.5,72.04076],[109,71.8865],[109.5,71.73023],[110,71.57194],[110.5,71.4116],[111,71.24921],[111.5,71.08474],[112,70.91819],[112.5,70.74953],[113,70.57875],[113.5,70.40583],[114,70.23077],[114.5,70.05354],[115,69.87414],[115.5,69.69255],[116,69.50876],[116.5,69.32276],[117,69.13453],[117.5,68.94407],[118,68.75137],[118.5,68.55641],[119,68.35919],[119.5,68.15971],[120,67.95795],[120.5,67.75391],[121,67.54759],[121.5,67.33898],[122,67.12808],[122.5,66.91489],[123,66.69941],[123.5,66.48164],[124,66.26159],[124.5,66.03925],[125,65.81465],[125,65.81464],[125.5,65.58777],[126,65.35864],[126.5,65.12726],[127,64.89365],[127.5,64.65782],[128,64.4198],[128.5,64.1796],[129,63.93724],[129.5,63.69275],[130,63.44616],[130.5,63.1975],[131,62.9468],[131.5,62.69411],[132,62.43945],[132.5,62.18287],[133,61.92443],[133.5,61.66417],[134,61.40214],[134.5,61.13841],[135,60.87304],[135.5,60.6061],[136,60.33765],[136.5,60.06777],[137,59.79655],[137.5,59.52407],[138,59.25041],[138.5,58.97569],[139,58.69999],[139.5,58.42342],[140,58.1461],[140.5,57.86814],[141,57.58966],[141.5,57.31078],[142,57.03165],[142.5,56.75239],[143,56.47315],[143.5,56.19408],[144,55.91532],[144.5,55.63703],[145,55.35936],[145.5,55.0825],[146,54.80659],[146.5,54.5318],[147,54.25832],[147.5,53.98631],[148,53.71594],[148.5,53.4474],[149,53.18086],[149.5,52.9165],[150,52.6545],[150.5,52.39502],[151,52.13824],[151.5,51.88433],[152,51.63346],[152.5,51.38578],[153,51.14147],[153.5,50.90067],[154,50.66353],[154.5,50.4302],[155,50.2008],[155.5,49.97547],[156,49.75433],[156.5,49.53749],[157,49.32507],[157.5,49.11714],[158,48.91382],[158.5,48.71518],[158.5,48.71517],[159,48.52128],[159.5,48.3322],[160,48.148],[160.5,47.96871],[161,47.79439],[161.5,47.62506],[162,47.46074],[162.5,47.30146],[163,47.14722],[163.5,46.99803],[164,46.85388],[164.5,46.71477],[165,46.58067],[165.5,46.45156],[166,46.32742],[166.5,46.20822],[167,46.09392],[167.5,45.98448],[168,45.87986],[168.5,45.78],[169,45.68487],[169.5,45.59439],[170,45.50853],[170.5,45.42722],[171,45.35039],[171.5,45.278],[172,45.20997],[172.5,45.14624],[173,45.08675],[173.5,45.03143],[174,44.98021],[174.5,44.93302],[175,44.88981],[175.5,44.85049],[176,44.81501],[176.5,44.78329],[177,44.75527],[177.5,44.73088],[178,44.71006],[178.5,44.69274],[179,44.67885],[179.5,44.66833],[180,44.66112]]}},{"type":"Feature","id":"+09721010:south:1","properties":{"id":"+09721010","year":972,"month":10,"day":10,"time_tdt":"03:36:50","type":"금환일식","type_code":"A","saros":117,"gamma":0.91265,"magnitude":0.92156,"greatest":{"lat":53.95587,"lng":155.22461},"path_width_km":723.8,"duration":"07m31s","delta_t_seconds":1718.4,"catalog_number":7061,"source":"NASA Five Millennium Canon of Solar Eclipses","source_url":"https://eclipse.gsfc.nasa.gov/SEsearch/SEsearchmap.php?Ecl=%2B09721010","boundary":"south","name":"972-10-10 금환일식"},"geometry":{"type":"LineString","coordinates":[[-179.5,44.65715],[-179,44.65637],[-178.5,44.6587],[-178,44.66409],[-177.5,44.67249],[-177,44.68383],[-176.5,44.69805],[-176,44.7151],[-175.5,44.73492],[-175,44.75746],[-174.5,44.78266],[-174,44.81048],[-173.5,44.84086],[-173,44.87375],[-172.5,44.90911],[-172,44.94687],[-171.5,44.987],[-171,45.02945],[-170.5,45.07418],[-170,45.12113],[-169.5,45.17027],[-169,45.22155],[-168.5,45.27493],[-168,45.33038],[-167.5,45.38784],[-167,45.44729],[-166.5,45.50868],[-166,45.57197],[-165.5,45.63714],[-165,45.70413],[-164.5,45.77293],[-164,45.84349],[-163.5,45.91578],[-163.11328,45.97286]]}}],"attribution":"Eclipse Predictions by Fred Espenak and Jean Meeus (NASA's GSFC)","generated_at":"2026-09-23T03:35:39.265Z"}
