{"type":"FeatureCollection","year":980,"events":[{"id":"+09800417","year":980,"month":4,"day":17,"time_tdt":"17:15:17","type":"부분일식","type_code":"P","saros":83,"gamma":-1.21621,"magnitude":0.60325,"greatest":{"lat":-61.69943,"lng":-6.82458},"path_width_km":0,"duration":"00m00s","delta_t_seconds":1674.2,"catalog_number":7077,"source":"NASA Five Millennium Canon of Solar Eclipses","source_url":"https://eclipse.gsfc.nasa.gov/SEsearch/SEsearchmap.php?Ecl=%2B09800417"},{"id":"+09800517","year":980,"month":5,"day":17,"time_tdt":"01:32:03","type":"부분일식","type_code":"P","saros":121,"gamma":1.3592,"magnitude":0.33383,"greatest":{"lat":63.33128,"lng":24.7561},"path_width_km":0,"duration":"00m00s","delta_t_seconds":1673.8,"catalog_number":7078,"source":"NASA Five Millennium Canon of Solar Eclipses","source_url":"https://eclipse.gsfc.nasa.gov/SEsearch/SEsearchmap.php?Ecl=%2B09800517"},{"id":"+09801011","year":980,"month":10,"day":11,"time_tdt":"23:03:22","type":"부분일식","type_code":"P","saros":88,"gamma":1.31146,"magnitude":0.4317,"greatest":{"lat":61.19764,"lng":-90.00391},"path_width_km":0,"duration":"00m00s","delta_t_seconds":1671.4,"catalog_number":7079,"source":"NASA Five Millennium Canon of Solar Eclipses","source_url":"https://eclipse.gsfc.nasa.gov/SEsearch/SEsearchmap.php?Ecl=%2B09801011"}],"features":[],"attribution":"Eclipse Predictions by Fred Espenak and Jean Meeus (NASA's GSFC)","generated_at":"2026-09-23T03:35:39.281Z"}
