{"type":"FeatureCollection","year":986,"events":[{"id":"+09860113","year":986,"month":1,"day":13,"time_tdt":"05:08:47","type":"혼성일식","type_code":"H","saros":105,"gamma":0.24216,"magnitude":1.00108,"greatest":{"lat":-7.19279,"lng":108.65308},"path_width_km":3.9,"duration":"00m07s","delta_t_seconds":1641.1,"catalog_number":7091,"source":"NASA Five Millennium Canon of Solar Eclipses","source_url":"https://eclipse.gsfc.nasa.gov/SEsearch/SEsearchmap.php?Ecl=%2B09860113"},{"id":"+09860709","year":986,"month":7,"day":9,"time_tdt":"22:00:35","type":"금환일식","type_code":"A","saros":110,"gamma":-0.49523,"magnitude":0.96513,"greatest":{"lat":-7.04602,"lng":-149.77863},"path_width_km":144,"duration":"04m22s","delta_t_seconds":1638.3,"catalog_number":7092,"source":"NASA Five Millennium Canon of Solar Eclipses","source_url":"https://eclipse.gsfc.nasa.gov/SEsearch/SEsearchmap.php?Ecl=%2B09860709"}],"features":[{"type":"Feature","id":"+09860113:north:0","properties":{"id":"+09860113","year":986,"month":1,"day":13,"time_tdt":"05:08:47","type":"혼성일식","type_code":"H","saros":105,"gamma":0.24216,"magnitude":1.00108,"greatest":{"lat":-7.19279,"lng":108.65308},"path_width_km":3.9,"duration":"00m07s","delta_t_seconds":1641.1,"catalog_number":7091,"source":"NASA Five Millennium Canon of Solar Eclipses","source_url":"https://eclipse.gsfc.nasa.gov/SEsearch/SEsearchmap.php?Ecl=%2B09860113","boundary":"north","name":"986-01-13 혼성일식"},"geometry":{"type":"LineString","coordinates":[[47.9668,-3.0381],[48,-3.05082],[48.5,-3.24205],[49,-3.43252],[49.5,-3.62219],[50,-3.81106],[50.5,-3.99907],[51,-4.18622],[51.5,-4.37246],[52,-4.55777],[52.5,-4.74211],[53,-4.92546],[53.5,-5.10778],[54,-5.28905],[54.5,-5.46922],[55,-5.64826],[55.5,-5.82615],[56,-6.00285],[56.5,-6.17832],[57,-6.35253],[57.5,-6.52543],[58,-6.69701],[58.5,-6.86721],[59,-7.036],[59.5,-7.20334],[60,-7.3692],[60.5,-7.53353],[61,-7.69629],[61.5,-7.85745],[62,-8.01695],[62.5,-8.17477],[63,-8.33086],[63.5,-8.48517],[64,-8.63766],[64.5,-8.78829],[65,-8.93701],[65.5,-9.08378],[66,-9.22855],[66.5,-9.37126],[67,-9.51189],[67.5,-9.65037],[68,-9.78665],[68.5,-9.9207],[69,-10.05245],[69.5,-10.18186],[70,-10.30887],[70.5,-10.43343],[71,-10.55549],[71.5,-10.675],[72,-10.79189],[72.5,-10.90611],[73,-11.01761],[73.5,-11.12633],[74,-11.2322],[74.5,-11.33518],[75,-11.4352],[75.5,-11.53219],[76,-11.6261],[76.5,-11.71687],[77,-11.80443],[77.5,-11.88871],[78,-11.96965],[78.5,-12.04719],[79,-12.12125],[79.5,-12.19176],[80,-12.25866],[80.5,-12.32188],[81,-12.38134],[81.5,-12.43697],[82,-12.48869],[82.5,-12.53644],[83,-12.58012],[83.5,-12.61967],[84,-12.65501],[84.5,-12.68605],[85,-12.71271],[85.5,-12.73491],[86,-12.75257],[86.5,-12.7656],[87,-12.7739],[87.5,-12.7774],[88,-12.77601],[88.5,-12.76963],[89,-12.75817],[89.5,-12.74153],[90,-12.71963],[90.5,-12.69236],[91,-12.65962],[91.5,-12.62133],[92,-12.57738],[92.5,-12.52766],[93,-12.47208],[93.5,-12.41053],[94,-12.34291],[94.5,-12.26911],[95,-12.18903],[95.5,-12.10257],[96,-12.00961],[96.5,-11.91006],[97,-11.80078],[97.5,-11.68477],[98,-11.56195],[98.5,-11.4322],[99,-11.29543],[99.5,-11.15154],[100,-11.00044],[100.5,-10.84203],[101,-10.67624],[101.5,-10.50297],[102,-10.32215],[102.5,-10.1337],[103,-9.93756],[103.5,-9.73365],[104,-9.52194],[104.5,-9.30237],[105,-9.07491],[105.5,-8.83953],[106,-8.59621],[106.5,-8.34494],[107,-8.08574],[107.5,-7.81862],[108,-7.54361],[108.5,-7.26077],[109,-6.97016],[109.5,-6.67186],[110,-6.36595],[110.5,-6.05257],[111,-5.73183],[111.5,-5.40389],[112,-5.06891],[112.5,-4.72708],[113,-4.37859],[113.5,-4.02366],[114,-3.66254],[114.5,-3.29547],[115,-2.92272],[115.5,-2.54457],[116,-2.16131],[116.5,-1.77324],[117,-1.38069],[117.5,-0.98182],[118,-0.57651],[118.5,-0.16748],[119,0.24493],[119.5,0.66038],[120,1.0785],[120.5,1.49895],[121,1.92137],[121.5,2.34544],[122,2.77079],[122.5,3.19712],[123,3.62408],[123.5,4.05137],[124,4.47869],[124.5,4.90575],[125,5.33226],[125.5,5.75796],[126,6.1826],[126.5,6.60594],[127,7.02774],[127.5,7.44781],[128,7.86594],[128.5,8.28195],[129,8.69565],[129.5,9.10691],[130,9.51557],[130.5,9.92149],[131,10.32455],[131.5,10.72465],[132,11.12168],[132.5,11.51556],[133,11.9062],[133.5,12.29353],[134,12.67749],[134.5,13.05803],[135,13.4351],[135.5,13.80866],[136,14.17867],[136.5,14.54512],[137,14.90798],[137.5,15.26724],[138,15.62288],[138.5,15.97489],[139,16.32329],[139.5,16.66806],[140,17.00922],[140.5,17.34677],[141,17.68072],[141.5,18.01109],[142,18.33789],[142.5,18.66115],[143,18.98088],[143.5,19.2971],[144,19.60984],[144.5,19.91912],[145,20.22497],[145.5,20.52742],[146,20.82649],[146.5,21.12221],[147,21.41462],[147.5,21.70373],[148,21.98959],[148.5,22.27223],[149,22.55166],[149.5,22.82793],[150,23.10107],[150.5,23.37111],[151,23.63808],[151.5,23.90201],[152,24.16294],[152.5,24.42089],[153,24.6759],[153.5,24.928],[154,25.17721],[154.5,25.42358],[155,25.66713],[155.5,25.90789],[156,26.14589],[156.5,26.38117],[157,26.61374],[157.5,26.84365],[158,27.07091],[158.5,27.29556],[159,27.51763],[159.5,27.73714],[160,27.95413],[160.5,28.16861],[161,28.38062],[161.5,28.59018],[162,28.79732],[162.5,29.00206],[163,29.20443],[163.5,29.40446],[164,29.60216],[164.28906,29.71541]]}},{"type":"Feature","id":"+09860113:center:0","properties":{"id":"+09860113","year":986,"month":1,"day":13,"time_tdt":"05:08:47","type":"혼성일식","type_code":"H","saros":105,"gamma":0.24216,"magnitude":1.00108,"greatest":{"lat":-7.19279,"lng":108.65308},"path_width_km":3.9,"duration":"00m07s","delta_t_seconds":1641.1,"catalog_number":7091,"source":"NASA Five Millennium Canon of Solar Eclipses","source_url":"https://eclipse.gsfc.nasa.gov/SEsearch/SEsearchmap.php?Ecl=%2B09860113","boundary":"center","name":"986-01-13 혼성일식"},"geometry":{"type":"LineString","coordinates":[[47.89398,-3.26175],[48,-3.30098],[48.5,-3.48937],[49,-3.677],[49.5,-3.86383],[50,-4.04983],[50.5,-4.23498],[51,-4.41926],[51.5,-4.60262],[52,-4.78504],[52.5,-4.96649],[53,-5.14694],[53.5,-5.32636],[54,-5.50472],[54.5,-5.68197],[55,-5.8581],[55.5,-6.03307],[56,-6.20684],[56.5,-6.37938],[57,-6.55065],[57.5,-6.72063],[58,-6.88926],[58.5,-7.05652],[59,-7.22238],[59.5,-7.38678],[60,-7.54969],[60.5,-7.71108],[61,-7.87091],[61.5,-8.02913],[62,-8.1857],[62.5,-8.34058],[63,-8.49374],[63.5,-8.64512],[64,-8.79469],[64.5,-8.9424],[65,-9.0882],[65.5,-9.23206],[66,-9.37392],[66.5,-9.51374],[67,-9.65147],[67.5,-9.78707],[68,-9.92048],[68.5,-10.05166],[69,-10.18055],[69.5,-10.30711],[70,-10.43128],[70.5,-10.55302],[71,-10.67226],[71.5,-10.78896],[72,-10.90306],[72.5,-11.0145],[73,-11.12323],[73.5,-11.2292],[74,-11.33233],[74.5,-11.43259],[75,-11.5299],[75.5,-11.6242],[76,-11.71544],[76.5,-11.80355],[77,-11.88846],[77.5,-11.97012],[78,-12.04846],[78.5,-12.12341],[79,-12.1949],[79.5,-12.26287],[80,-12.32725],[80.5,-12.38796],[81,-12.44494],[81.5,-12.49811],[82,-12.54739],[82.5,-12.59272],[83,-12.63402],[83.5,-12.6712],[84,-12.70419],[84.5,-12.73291],[85,-12.75728],[85.5,-12.77722],[86,-12.79263],[86.5,-12.80344],[87,-12.80956],[87.5,-12.8109],[88,-12.80738],[88.5,-12.79889],[89,-12.78535],[89.5,-12.76667],[90,-12.74275],[90.5,-12.7135],[91,-12.67882],[91.5,-12.6386],[92,-12.59276],[92.5,-12.54119],[93,-12.48379],[93.5,-12.42045],[94,-12.35108],[94.5,-12.27557],[95,-12.19382],[95.5,-12.10572],[96,-12.01117],[96.5,-11.91006],[97,-11.80229],[97.5,-11.68776],[98,-11.56635],[98.5,-11.43798],[99,-11.30254],[99.5,-11.15993],[100,-11.01006],[100.5,-10.85283],[101,-10.68816],[101.5,-10.51595],[102,-10.33613],[102.5,-10.14862],[103,-9.95335],[103.5,-9.75026],[104,-9.53928],[104.5,-9.32037],[105,-9.09349],[105.5,-8.85861],[106,-8.61571],[106.5,-8.36478],[107,-8.10582],[107.5,-7.83884],[108,-7.56389],[108.5,-7.281],[109,-6.99023],[109.5,-6.69166],[110,-6.38538],[110.5,-6.07151],[111,-5.75016],[111.5,-5.42149],[112,-5.08566],[112.5,-4.74284],[113,-4.39325],[113.5,-4.03709],[114,-3.67461],[114.5,-3.30604],[115,-2.93167],[115.5,-2.55176],[116,-2.16662],[116.5,-1.77655],[117,-1.38187],[117.5,-0.9829],[118,-0.57999],[118.5,-0.17346],[119,0.23634],[119.5,0.64905],[120,1.06435],[120.5,1.48186],[121,1.90127],[121.5,2.32222],[122,2.74438],[122.5,3.16744],[123,3.59106],[123.5,4.01496],[124,4.43882],[124.5,4.86236],[125,5.28532],[125.5,5.70742],[126,6.12843],[126.5,6.54811],[127,6.96623],[127.5,7.3826],[128,7.79701],[128.5,8.20929],[129,8.61927],[129.5,9.02679],[130,9.43171],[130.5,9.83391],[131,10.23326],[131.5,10.62965],[132,11.02299],[132.5,11.41319],[133,11.80018],[133.5,12.18387],[134,12.56422],[134.5,12.94117],[135,13.31467],[135.5,13.68469],[136,14.0512],[136.5,14.41416],[137,14.77357],[137.5,15.1294],[138,15.48164],[138.5,15.8303],[139,16.17536],[139.5,16.51683],[140,16.85471],[140.5,17.18902],[141,17.51977],[141.5,17.84696],[142,18.17062],[142.5,18.49076],[143,18.8074],[143.5,19.12057],[144,19.43029],[144.5,19.73658],[145,20.03947],[145.5,20.33899],[146,20.63515],[146.5,20.928],[147,21.21756],[147.5,21.50387],[148,21.78694],[148.5,22.06681],[149,22.34351],[149.5,22.61708],[150,22.88754],[150.5,23.15492],[151,23.41927],[151.5,23.6806],[152,23.93895],[152.5,24.19435],[153,24.44683],[153.5,24.69642],[154,24.94316],[154.5,25.18707],[155,25.42818],[155.5,25.66653],[156,25.90215],[156.5,26.13505],[157,26.36528],[157.5,26.59286],[158,26.81783],[158.5,27.04019],[159,27.26],[159.5,27.47727],[160,27.69203],[160.5,27.90431],[161,28.11413],[161.5,28.32153],[162,28.52652],[162.5,28.72913],[163,28.92939],[163.5,29.12732],[164,29.32294],[164.36938,29.49322]]}},{"type":"Feature","id":"+09860113:south:0","properties":{"id":"+09860113","year":986,"month":1,"day":13,"time_tdt":"05:08:47","type":"혼성일식","type_code":"H","saros":105,"gamma":0.24216,"magnitude":1.00108,"greatest":{"lat":-7.19279,"lng":108.65308},"path_width_km":3.9,"duration":"00m07s","delta_t_seconds":1641.1,"catalog_number":7091,"source":"NASA Five Millennium Canon of Solar Eclipses","source_url":"https://eclipse.gsfc.nasa.gov/SEsearch/SEsearchmap.php?Ecl=%2B09860113","boundary":"south","name":"986-01-13 혼성일식"},"geometry":{"type":"LineString","coordinates":[[47.81836,-3.48262],[48,-3.55022],[48.5,-3.73579],[49,-3.92059],[49.5,-4.10458],[50,-4.28774],[50.5,-4.47004],[51,-4.65145],[51.5,-4.83194],[52,-5.01149],[52.5,-5.19006],[53,-5.36763],[53.5,-5.54415],[54,-5.71961],[54.5,-5.89396],[55,-6.06719],[55.5,-6.23924],[56,-6.4101],[56.5,-6.57972],[57,-6.74808],[57.5,-6.91513],[58,-7.08084],[58.5,-7.24517],[59,-7.4081],[59.5,-7.56957],[60,-7.72956],[60.5,-7.88802],[61,-8.04492],[61.5,-8.20022],[62,-8.35386],[62.5,-8.50583],[63,-8.65606],[63.5,-8.80453],[64,-8.95119],[64.5,-9.09599],[65,-9.23889],[65.5,-9.37985],[66,-9.51882],[66.5,-9.65576],[67,-9.79061],[67.5,-9.92334],[68,-10.05389],[68.5,-10.18221],[69,-10.30826],[69.5,-10.43198],[70,-10.55333],[70.5,-10.67225],[71,-10.78869],[71.5,-10.90259],[72,-11.01391],[72.5,-11.12259],[73,-11.22856],[73.5,-11.33179],[74,-11.4322],[74.5,-11.52974],[75,-11.62435],[75.5,-11.71597],[76,-11.80455],[76.5,-11.89001],[77,-11.97229],[77.5,-12.05134],[78,-12.12708],[78.5,-12.19946],[79,-12.2684],[79.5,-12.33383],[80,-12.39569],[80.5,-12.45391],[81,-12.50841],[81.5,-12.55913],[82,-12.60598],[82.5,-12.6489],[83,-12.68781],[83.5,-12.72263],[84,-12.75329],[84.5,-12.7797],[85,-12.80178],[85.5,-12.81945],[86,-12.83263],[86.5,-12.84123],[87,-12.84517],[87.5,-12.84435],[88,-12.8387],[88.5,-12.82811],[89,-12.81251],[89.5,-12.79178],[90,-12.76585],[90.5,-12.73462],[91,-12.69799],[91.5,-12.65586],[92,-12.60813],[92.5,-12.55471],[93,-12.49549],[93.5,-12.43037],[94,-12.35925],[94.5,-12.28203],[95,-12.19861],[95.5,-12.10887],[96,-12.01272],[96.5,-11.91006],[97,-11.8038],[97.5,-11.69074],[98,-11.57076],[98.5,-11.44377],[99,-11.30966],[99.5,-11.16834],[100,-11.01969],[100.5,-10.86364],[101,-10.70009],[101.5,-10.52895],[102,-10.35013],[102.5,-10.16356],[103,-9.96917],[103.5,-9.76688],[104,-9.55664],[104.5,-9.3384],[105,-9.11211],[105.5,-8.87773],[106,-8.63525],[106.5,-8.38465],[107,-8.12594],[107.5,-7.85911],[108,-7.58421],[108.5,-7.30127],[109,-7.01035],[109.5,-6.71152],[110,-6.40487],[110.5,-6.0905],[111,-5.76855],[111.5,-5.43915],[112,-5.10246],[112.5,-4.75867],[113,-4.40797],[113.5,-4.05058],[114,-3.68673],[114.5,-3.31666],[115,-2.94066],[115.5,-2.559],[116,-2.17197],[116.5,-1.77988],[117,-1.38305],[117.5,-0.98398],[118,-0.58344],[118.5,-0.1794],[119,0.2278],[119.5,0.6378],[120,1.05028],[120.5,1.46489],[121,1.8813],[121.5,2.29916],[122,2.71816],[122.5,3.13797],[123,3.55828],[123.5,3.9788],[124,4.39923],[124.5,4.81929],[125,5.23872],[125.5,5.65726],[126,6.07467],[126.5,6.49071],[127,6.90519],[127.5,7.31788],[128,7.72861],[128.5,8.13719],[129,8.54347],[129.5,8.94729],[130,9.34851],[130.5,9.74701],[131,10.14267],[131.5,10.53539],[132,10.92506],[132.5,11.31161],[133,11.69497],[133.5,12.07505],[134,12.45181],[134.5,12.82519],[135,13.19515],[135.5,13.56165],[136,13.92467],[136.5,14.28417],[137,14.64014],[137.5,14.99257],[138,15.34143],[138.5,15.68674],[139,16.02848],[139.5,16.36667],[140,16.7013],[140.5,17.03238],[141,17.35993],[141.5,17.68396],[142,18.00449],[142.5,18.32152],[143,18.63509],[143.5,18.94522],[144,19.25193],[144.5,19.55524],[145,19.85517],[145.5,20.15176],[146,20.44504],[146.5,20.73502],[147,21.02174],[147.5,21.30523],[148,21.58552],[148.5,21.86264],[149,22.13661],[149.5,22.40748],[150,22.67526],[150.5,22.94],[151,23.20172],[151.5,23.46045],[152,23.71622],[152.5,23.96907],[153,24.21903],[153.5,24.46612],[154,24.71038],[154.5,24.95183],[155,25.19051],[155.5,25.42645],[156,25.65967],[156.5,25.89021],[157,26.11809],[157.5,26.34335],[158,26.566],[158.5,26.78609],[159,27.00363],[159.5,27.21865],[160,27.43118],[160.5,27.64125],[161,27.84889],[161.5,28.05411],[162,28.25695],[162.5,28.45742],[163,28.65557],[163.5,28.8514],[164,29.04494],[164.5,29.23622],[164.50977,29.23993]]}},{"type":"Feature","id":"+09860709:north:0","properties":{"id":"+09860709","year":986,"month":7,"day":9,"time_tdt":"22:00:35","type":"금환일식","type_code":"A","saros":110,"gamma":-0.49523,"magnitude":0.96513,"greatest":{"lat":-7.04602,"lng":-149.77863},"path_width_km":144,"duration":"04m22s","delta_t_seconds":1638.3,"catalog_number":7092,"source":"NASA Five Millennium Canon of Solar Eclipses","source_url":"https://eclipse.gsfc.nasa.gov/SEsearch/SEsearchmap.php?Ecl=%2B09860709","boundary":"north","name":"986-07-09 금환일식"},"geometry":{"type":"LineString","coordinates":[[158.19727,-12.96608],[158.5,-12.84544],[159,-12.64662],[159.5,-12.44835],[160,-12.25065],[160.5,-12.05355],[161,-11.85709],[161.5,-11.66129],[162,-11.46618],[162.5,-11.27181],[163,-11.07821],[163.5,-10.8854],[164,-10.69343],[164.5,-10.50233],[165,-10.31214],[165.5,-10.1229],[166,-9.93465],[166.5,-9.74742],[167,-9.56127],[167.5,-9.37623],[168,-9.19235],[168.5,-9.00968],[169,-8.82825],[169.5,-8.64812],[170,-8.46933],[170.5,-8.29195],[171,-8.11601],[171.5,-7.94157],[172,-7.76868],[172.5,-7.59741],[173,-7.42781],[173.5,-7.25993],[174,-7.09384],[174.5,-6.9296],[175,-6.76728],[175.5,-6.60693],[176,-6.44863],[176.5,-6.29243],[177,-6.13843],[177.5,-5.98668],[178,-5.83726],[178.5,-5.69025],[179,-5.54572],[179.5,-5.40376],[180,-5.26444]]}},{"type":"Feature","id":"+09860709:north:1","properties":{"id":"+09860709","year":986,"month":7,"day":9,"time_tdt":"22:00:35","type":"금환일식","type_code":"A","saros":110,"gamma":-0.49523,"magnitude":0.96513,"greatest":{"lat":-7.04602,"lng":-149.77863},"path_width_km":144,"duration":"04m22s","delta_t_seconds":1638.3,"catalog_number":7092,"source":"NASA Five Millennium Canon of Solar Eclipses","source_url":"https://eclipse.gsfc.nasa.gov/SEsearch/SEsearchmap.php?Ecl=%2B09860709","boundary":"north","name":"986-07-09 금환일식"},"geometry":{"type":"LineString","coordinates":[[-179.5,-5.12786],[-179,-4.99409],[-178.5,-4.86323],[-178,-4.73537],[-177.5,-4.6106],[-177,-4.48901],[-176.5,-4.37071],[-176,-4.25579],[-175.5,-4.14437],[-175,-4.03653],[-174.5,-3.9324],[-174,-3.83208],[-173.5,-3.73568],[-173,-3.64333],[-172.5,-3.55513],[-172,-3.47122],[-171.5,-3.39171],[-171,-3.31674],[-170.5,-3.24643],[-170,-3.18092],[-169.5,-3.12033],[-169,-3.06482],[-168.5,-3.01451],[-168,-2.96956],[-167.5,-2.93011],[-167,-2.89631],[-166.5,-2.86831],[-166,-2.84626],[-165.5,-2.83032],[-165,-2.82065],[-164.5,-2.81741],[-164,-2.82075],[-163.5,-2.83085],[-163,-2.84786],[-162.5,-2.87196],[-162,-2.9033],[-161.5,-2.94206],[-161,-2.98839],[-160.5,-3.04247],[-160,-3.10445],[-159.5,-3.1745],[-159,-3.25277],[-158.5,-3.33942],[-158,-3.43459],[-157.5,-3.53845],[-157,-3.65111],[-156.5,-3.77272],[-156,-3.9034],[-155.5,-4.04326],[-155,-4.19241],[-154.5,-4.35093],[-154,-4.51891],[-153.5,-4.69642],[-153,-4.8835],[-152.5,-5.08018],[-152,-5.28648],[-151.5,-5.50239],[-151,-5.72789],[-150.5,-5.96293],[-150,-6.20745],[-149.5,-6.46135],[-149,-6.72451],[-148.5,-6.99679],[-148,-7.27803],[-147.5,-7.56805],[-147,-7.86662],[-146.5,-8.17351],[-146,-8.48846],[-145.5,-8.81119],[-145,-9.1414],[-144.5,-9.47876],[-144,-9.82295],[-143.5,-10.17359],[-143,-10.53034],[-142.5,-10.8928],[-142,-11.2606],[-141.5,-11.63334],[-141,-12.01062],[-140.5,-12.39204],[-140,-12.77721],[-139.5,-13.16573],[-139,-13.5572],[-138.5,-13.95125],[-138,-14.3475],[-137.5,-14.74557],[-137,-15.14512],[-136.5,-15.54581],[-136,-15.9473],[-135.5,-16.34927],[-135,-16.75143],[-134.5,-17.1535],[-134,-17.55519],[-133.5,-17.95627],[-133,-18.35647],[-132.5,-18.75559],[-132,-19.15342],[-131.5,-19.54975],[-131,-19.94442],[-130.5,-20.33724],[-130,-20.72808],[-129.5,-21.11678],[-129,-21.50323],[-128.5,-21.8873],[-128,-22.26889],[-127.5,-22.64791],[-127,-23.02426],[-126.5,-23.39788],[-126,-23.76868],[-125.5,-24.13663],[-125,-24.50165],[-124.5,-24.86372],[-124,-25.22278],[-123.5,-25.5788],[-123,-25.93177],[-122.5,-26.28165],[-122,-26.62843],[-121.5,-26.97209],[-121,-27.31263],[-120.5,-27.65004],[-120,-27.98433],[-119.5,-28.31548],[-119,-28.6435],[-118.5,-28.9684],[-118,-29.2902],[-117.5,-29.60889],[-117,-29.92449],[-116.5,-30.23702],[-116,-30.54649],[-115.5,-30.85292],[-115,-31.15633],[-114.5,-31.45673],[-114,-31.75415],[-113.5,-32.0486],[-113,-32.34012],[-112.5,-32.62871],[-112,-32.91442],[-111.5,-33.19725],[-111,-33.47723],[-110.5,-33.75439],[-110,-34.02875],[-109.5,-34.30034],[-109,-34.56917],[-108.5,-34.83528],[-108,-35.0987],[-107.5,-35.35944],[-107,-35.61753],[-106.5,-35.87299],[-106,-36.12586],[-105.5,-36.37615],[-105,-36.6239],[-104.5,-36.86911],[-104,-37.11183],[-103.5,-37.35207],[-103,-37.58986],[-102.5,-37.82522],[-102,-38.05818],[-101.5,-38.28876],[-101,-38.51698],[-100.5,-38.74286],[-100,-38.96644],[-99.5,-39.18772],[-99,-39.40674],[-98.5,-39.62351],[-98,-39.83806],[-97.5,-40.05041],[-97.35352,-40.1122]]}},{"type":"Feature","id":"+09860709:center:0","properties":{"id":"+09860709","year":986,"month":7,"day":9,"time_tdt":"22:00:35","type":"금환일식","type_code":"A","saros":110,"gamma":-0.49523,"magnitude":0.96513,"greatest":{"lat":-7.04602,"lng":-149.77863},"path_width_km":144,"duration":"04m22s","delta_t_seconds":1638.3,"catalog_number":7092,"source":"NASA Five Millennium Canon of Solar Eclipses","source_url":"https://eclipse.gsfc.nasa.gov/SEsearch/SEsearchmap.php?Ecl=%2B09860709","boundary":"center","name":"986-07-09 금환일식"},"geometry":{"type":"LineString","coordinates":[[158.40307,-13.80372],[158.5,-13.76498],[159,-13.56306],[159.5,-13.36168],[160,-13.16085],[160.5,-12.96062],[161,-12.761],[161.5,-12.56204],[162,-12.36376],[162.5,-12.1662],[163,-11.9694],[163.5,-11.77338],[164,-11.57818],[164.5,-11.38385],[165,-11.19041],[165.5,-10.99791],[166,-10.80639],[166.5,-10.61589],[167,-10.42645],[167.5,-10.23811],[168,-10.05093],[168.5,-9.86494],[169,-9.68019],[169.5,-9.49673],[170,-9.31461],[170.5,-9.13388],[171,-8.9546],[171.5,-8.77681],[172,-8.60057],[172.5,-8.42595],[173,-8.25298],[173.5,-8.08175],[174,-7.9123],[174.5,-7.7447],[175,-7.57902],[175.5,-7.41532],[176,-7.25366],[176.5,-7.09413],[177,-6.93678],[177.5,-6.7817],[178,-6.62896],[178.5,-6.47864],[179,-6.33082],[179.5,-6.18557],[180,-6.04298]]}},{"type":"Feature","id":"+09860709:center:1","properties":{"id":"+09860709","year":986,"month":7,"day":9,"time_tdt":"22:00:35","type":"금환일식","type_code":"A","saros":110,"gamma":-0.49523,"magnitude":0.96513,"greatest":{"lat":-7.04602,"lng":-149.77863},"path_width_km":144,"duration":"04m22s","delta_t_seconds":1638.3,"catalog_number":7092,"source":"NASA Five Millennium Canon of Solar Eclipses","source_url":"https://eclipse.gsfc.nasa.gov/SEsearch/SEsearchmap.php?Ecl=%2B09860709","boundary":"center","name":"986-07-09 금환일식"},"geometry":{"type":"LineString","coordinates":[[-179.5,-5.90315],[-179,-5.76615],[-178.5,-5.63208],[-178,-5.50103],[-177.5,-5.37309],[-177,-5.24837],[-176.5,-5.12697],[-176,-5.00898],[-175.5,-4.89451],[-175,-4.78367],[-174.5,-4.67658],[-174,-4.57334],[-173.5,-4.47407],[-173,-4.37889],[-172.5,-4.28792],[-172,-4.20129],[-171.5,-4.11912],[-171,-4.04155],[-170.5,-3.96871],[-170,-3.90073],[-169.5,-3.83776],[-169,-3.77993],[-168.5,-3.72739],[-168,-3.68029],[-167.5,-3.63879],[-167,-3.60302],[-166.5,-3.57316],[-166,-3.54935],[-165.5,-3.53176],[-165,-3.52055],[-164.5,-3.51588],[-164,-3.51793],[-163.5,-3.52686],[-163,-3.54283],[-162.5,-3.56603],[-162,-3.59661],[-161.5,-3.63475],[-161,-3.68062],[-160.5,-3.7344],[-160,-3.79623],[-159.5,-3.8663],[-159,-3.94476],[-158.5,-4.03177],[-158,-4.12749],[-157.5,-4.23206],[-157,-4.34562],[-156.5,-4.46831],[-156,-4.60025],[-155.5,-4.74156],[-155,-4.89234],[-154.5,-5.05269],[-154,-5.22267],[-153.5,-5.40235],[-153,-5.59179],[-152.5,-5.791],[-152,-5.99999],[-151.5,-6.21876],[-151,-6.44727],[-150.5,-6.68547],[-150,-6.93328],[-149.5,-7.19059],[-149,-7.45729],[-148.5,-7.73321],[-148,-8.01819],[-147.5,-8.31201],[-147,-8.61446],[-146.5,-8.92529],[-146,-9.24421],[-145.5,-9.57095],[-145,-9.90517],[-144.5,-10.24655],[-144,-10.59474],[-143.5,-10.94937],[-143,-11.31007],[-142.5,-11.67644],[-142,-12.04808],[-141.5,-12.42461],[-141,-12.80561],[-140.5,-13.19067],[-140,-13.5794],[-139.5,-13.97139],[-139,-14.36625],[-138.5,-14.7636],[-138,-15.16304],[-137.5,-15.56422],[-137,-15.96678],[-136.5,-16.37039],[-136,-16.7747],[-135.5,-17.17941],[-135,-17.58422],[-134.5,-17.98885],[-134,-18.39303],[-133.5,-18.7965],[-133,-19.19904],[-132.5,-19.60042],[-132,-20.00044],[-131.5,-20.3989],[-131,-20.79563],[-130.5,-21.19047],[-130,-21.58327],[-129.5,-21.97389],[-129,-22.36221],[-128.5,-22.74811],[-128,-23.13149],[-127.5,-23.51226],[-127,-23.89033],[-126.5,-24.26564],[-126,-24.63812],[-125.5,-25.0077],[-125,-25.37435],[-124.5,-25.73801],[-124,-26.09865],[-123.5,-26.45624],[-123,-26.81075],[-122.5,-27.16217],[-122,-27.51047],[-121.5,-27.85565],[-121,-28.19769],[-120.5,-28.5366],[-120,-28.87237],[-119.5,-29.205],[-119,-29.5345],[-118.5,-29.86087],[-118,-30.18412],[-117.5,-30.50428],[-117,-30.82133],[-116.5,-31.13531],[-116,-31.44623],[-115.5,-31.75411],[-115,-32.05896],[-114.5,-32.3608],[-114,-32.65966],[-113.5,-32.95555],[-113,-33.2485],[-112.5,-33.53853],[-112,-33.82566],[-111.5,-34.10992],[-111,-34.39134],[-110.5,-34.66992],[-110,-34.94571],[-109.5,-35.21871],[-109,-35.48897],[-108.5,-35.7565],[-108,-36.02133],[-107.5,-36.28349],[-107,-36.54299],[-106.5,-36.79986],[-106,-37.05414],[-105.5,-37.30583],[-105,-37.55498],[-104.5,-37.8016],[-104,-38.04571],[-103.5,-38.28734],[-103,-38.52652],[-102.5,-38.76327],[-102,-38.99761],[-101.5,-39.22957],[-101,-39.45916],[-100.5,-39.68642],[-100,-39.91136],[-99.5,-40.13401],[-99,-40.35438],[-98.5,-40.57251],[-98,-40.78841],[-97.77188,-40.88635]]}},{"type":"Feature","id":"+09860709:south:0","properties":{"id":"+09860709","year":986,"month":7,"day":9,"time_tdt":"22:00:35","type":"금환일식","type_code":"A","saros":110,"gamma":-0.49523,"magnitude":0.96513,"greatest":{"lat":-7.04602,"lng":-149.77863},"path_width_km":144,"duration":"04m22s","delta_t_seconds":1638.3,"catalog_number":7092,"source":"NASA Five Millennium Canon of Solar Eclipses","source_url":"https://eclipse.gsfc.nasa.gov/SEsearch/SEsearchmap.php?Ecl=%2B09860709","boundary":"south","name":"986-07-09 금환일식"},"geometry":{"type":"LineString","coordinates":[[158.60352,-14.6504],[159,-14.48785],[159.5,-14.28333],[160,-14.07935],[160.5,-13.87595],[161,-13.67316],[161.5,-13.47101],[162,-13.26953],[162.5,-13.06875],[163,-12.86872],[163.5,-12.66946],[164,-12.47102],[164.5,-12.27342],[165,-12.07671],[165.5,-11.88093],[166,-11.68612],[166.5,-11.49231],[167,-11.29956],[167.5,-11.1079],[168,-10.91739],[168.5,-10.72806],[169,-10.53996],[169.5,-10.35315],[170,-10.16768],[170.5,-9.98358],[171,-9.80093],[171.5,-9.61977],[172,-9.44016],[172.5,-9.26215],[173,-9.08581],[173.5,-8.91119],[174,-8.73836],[174.5,-8.56738],[175,-8.39831],[175.5,-8.23124],[176,-8.06621],[176.5,-7.90331],[177,-7.74261],[177.5,-7.58417],[178,-7.42809],[178.5,-7.27444],[179,-7.12329],[179.5,-6.97474],[180,-6.82887]]}},{"type":"Feature","id":"+09860709:south:1","properties":{"id":"+09860709","year":986,"month":7,"day":9,"time_tdt":"22:00:35","type":"금환일식","type_code":"A","saros":110,"gamma":-0.49523,"magnitude":0.96513,"greatest":{"lat":-7.04602,"lng":-149.77863},"path_width_km":144,"duration":"04m22s","delta_t_seconds":1638.3,"catalog_number":7092,"source":"NASA Five Millennium Canon of Solar Eclipses","source_url":"https://eclipse.gsfc.nasa.gov/SEsearch/SEsearchmap.php?Ecl=%2B09860709","boundary":"south","name":"986-07-09 금환일식"},"geometry":{"type":"LineString","coordinates":[[-179.5,-6.68576],[-179,-6.54551],[-178.5,-6.40821],[-178,-6.27395],[-177.5,-6.14284],[-177,-6.01497],[-176.5,-5.89044],[-176,-5.76936],[-175.5,-5.65183],[-175,-5.53798],[-174.5,-5.42791],[-174,-5.32173],[-173.5,-5.21958],[-173,-5.12156],[-172.5,-5.02781],[-172,-4.93845],[-171.5,-4.85362],[-171,-4.77344],[-170.5,-4.69806],[-170,-4.62761],[-169.5,-4.56225],[-169,-4.50211],[-168.5,-4.44734],[-168,-4.3981],[-167.5,-4.35455],[-167,-4.31683],[-166.5,-4.28511],[-166,-4.25956],[-165.5,-4.24033],[-165,-4.2276],[-164.5,-4.22154],[-164,-4.22231],[-163.5,-4.2301],[-163,-4.24507],[-162.5,-4.2674],[-162,-4.29727],[-161.5,-4.33484],[-161,-4.3803],[-160.5,-4.43383],[-160,-4.49558],[-159.5,-4.56573],[-159,-4.64445],[-158.5,-4.7319],[-158,-4.82823],[-157.5,-4.93359],[-157,-5.04814],[-156.5,-5.172],[-156,-5.3053],[-155.5,-5.44816],[-155,-5.60068],[-154.5,-5.76294],[-154,-5.93503],[-153.5,-6.11701],[-153,-6.30891],[-152.5,-6.51076],[-152,-6.72257],[-151.5,-6.94432],[-151,-7.17595],[-150.5,-7.41743],[-150,-7.66864],[-149.5,-7.92949],[-149,-8.19984],[-148.5,-8.47951],[-148,-8.76833],[-147.5,-9.06607],[-147,-9.3725],[-146.5,-9.68735],[-146,-10.01034],[-145.5,-10.34116],[-145,-10.67948],[-144.5,-11.02495],[-144,-11.37721],[-143.5,-11.73589],[-143,-12.10059],[-142.5,-12.47091],[-142,-12.84646],[-141.5,-13.22681],[-141,-13.61157],[-140.5,-14.00031],[-140,-14.39262],[-139.5,-14.78811],[-139,-15.18638],[-138.5,-15.58703],[-138,-15.9897],[-137.5,-16.394],[-137,-16.79958],[-136.5,-17.20612],[-136,-17.61327],[-135.5,-18.02072],[-135,-18.42819],[-134.5,-18.8354],[-134,-19.24207],[-133.5,-19.64796],[-133,-20.05284],[-132.5,-20.45649],[-132,-20.85871],[-131.5,-21.25932],[-131,-21.65814],[-130.5,-22.05501],[-130,-22.44978],[-129.5,-22.84234],[-129,-23.23254],[-128.5,-23.62029],[-128,-24.00548],[-127.5,-24.38802],[-127,-24.76784],[-126.5,-25.14486],[-126,-25.51903],[-125.5,-25.89028],[-125,-26.25857],[-124.5,-26.62385],[-124,-26.9861],[-123.5,-27.34528],[-123,-27.70136],[-122.5,-28.05434],[-122,-28.40419],[-121.5,-28.75091],[-121,-29.09448],[-120.5,-29.43491],[-120,-29.77219],[-119.5,-30.10633],[-119,-30.43733],[-118.5,-30.76519],[-118,-31.08994],[-117.5,-31.41157],[-117,-31.73011],[-116.5,-32.04557],[-116,-32.35796],[-115.5,-32.66731],[-115,-32.97363],[-114.5,-33.27693],[-114,-33.57725],[-113.5,-33.87461],[-113,-34.16901],[-112.5,-34.4605],[-112,-34.74908],[-111.5,-35.03479],[-111,-35.31765],[-110.5,-35.59768],[-110,-35.87491],[-109.5,-36.14936],[-109,-36.42106],[-108.5,-36.69002],[-108,-36.95628],[-107.5,-37.21987],[-107,-37.4808],[-106.5,-37.73909],[-106,-37.99479],[-105.5,-38.2479],[-105,-38.49846],[-104.5,-38.74649],[-104,-38.99201],[-103.5,-39.23504],[-103,-39.47562],[-102.5,-39.71376],[-102,-39.94949],[-101.5,-40.18284],[-101,-40.41381],[-100.5,-40.64244],[-100,-40.86876],[-99.5,-41.09277],[-99,-41.31451],[-98.5,-41.534]]}}],"attribution":"Eclipse Predictions by Fred Espenak and Jean Meeus (NASA's GSFC)","generated_at":"2026-09-23T03:35:39.755Z"}
