{"type":"FeatureCollection","year":989,"events":[{"id":"+09890508","year":989,"month":5,"day":8,"time_tdt":"01:01:52","type":"개기일식","type_code":"T","saros":102,"gamma":-0.03044,"magnitude":1.05227,"greatest":{"lat":16.7728,"lng":170.25336},"path_width_km":173.1,"duration":"05m01s","delta_t_seconds":1622.2,"catalog_number":7098,"source":"NASA Five Millennium Canon of Solar Eclipses","source_url":"https://eclipse.gsfc.nasa.gov/SEsearch/SEsearchmap.php?Ecl=%2B09890508"},{"id":"+09891101","year":989,"month":11,"day":1,"time_tdt":"12:05:28","type":"금환일식","type_code":"A","saros":107,"gamma":0.19886,"magnitude":0.92614,"greatest":{"lat":-5.09726,"lng":3.90417},"path_width_km":283.3,"duration":"10m14s","delta_t_seconds":1619.4,"catalog_number":7099,"source":"NASA Five Millennium Canon of Solar Eclipses","source_url":"https://eclipse.gsfc.nasa.gov/SEsearch/SEsearchmap.php?Ecl=%2B09891101"}],"features":[{"type":"Feature","id":"+09890508:north:0","properties":{"id":"+09890508","year":989,"month":5,"day":8,"time_tdt":"01:01:52","type":"개기일식","type_code":"T","saros":102,"gamma":-0.03044,"magnitude":1.05227,"greatest":{"lat":16.7728,"lng":170.25336},"path_width_km":173.1,"duration":"05m01s","delta_t_seconds":1622.2,"catalog_number":7098,"source":"NASA Five Millennium Canon of Solar Eclipses","source_url":"https://eclipse.gsfc.nasa.gov/SEsearch/SEsearchmap.php?Ecl=%2B09890508","boundary":"north","name":"989-05-08 개기일식"},"geometry":{"type":"LineString","coordinates":[[109.67188,-10.10298],[110,-9.99109],[110.5,-9.81929],[111,-9.6459],[111.5,-9.47092],[112,-9.29434],[112.5,-9.11615],[113,-8.93634],[113.5,-8.7549],[114,-8.57183],[114.5,-8.38712],[115,-8.20076],[115.5,-8.01273],[116,-7.82304],[116.5,-7.63168],[117,-7.43863],[117.5,-7.2439],[118,-7.04747],[118.5,-6.84934],[119,-6.6495],[119.5,-6.44795],[120,-6.24467],[120.5,-6.03968],[121,-5.83295],[121.5,-5.6245],[122,-5.4143],[122.5,-5.20237],[123,-4.98869],[123.5,-4.77327],[124,-4.55611],[124.5,-4.3372],[125,-4.11654],[125.5,-3.89414],[126,-3.67],[126.5,-3.44411],[127,-3.21649],[127.5,-2.98714],[128,-2.75607],[128.5,-2.52327],[129,-2.28877],[129.5,-2.05256],[130,-1.81467],[130.5,-1.57509],[131,-1.33385],[131.5,-1.09096],[132,-0.84644],[132.5,-0.60031],[133,-0.35258],[133.5,-0.10328],[134,0.14757],[134.5,0.39993],[135,0.65379],[135.5,0.90911],[136,1.16586],[136.5,1.424],[137,1.68349],[137.5,1.9443],[138,2.20638],[138.5,2.46968],[139,2.73415],[139.5,2.99975],[140,3.26641],[140.5,3.53409],[141,3.8027],[141.5,4.0722],[142,4.34252],[142.5,4.61357],[143,4.88529],[143.5,5.1576],[144,5.43041],[144.5,5.70364],[145,5.9772],[145.5,6.251],[146,6.52494],[146.5,6.79892],[147,7.07284],[147.5,7.34659],[148,7.62007],[148.5,7.89315],[149,8.16573],[149.5,8.43768],[150,8.70889],[150.5,8.97923],[151,9.24857],[151.5,9.5168],[152,9.78377],[152.5,10.04935],[153,10.31342],[153.5,10.57585],[154,10.83649],[154.5,11.09521],[155,11.35188],[155.5,11.60637],[156,11.85854],[156.5,12.10826],[157,12.3554],[157.5,12.59982],[158,12.84141],[158.5,13.08003],[159,13.31556],[159.5,13.54789],[160,13.7769],[160.5,14.00247],[161,14.22449],[161.5,14.44287],[162,14.65749],[162.5,14.86826],[163,15.07508],[163.5,15.27788],[164,15.47656],[164.5,15.67105],[165,15.86127],[165.5,16.04716],[166,16.22864],[166.5,16.40567],[167,16.57819],[167.5,16.74615],[168,16.9095],[168.5,17.06821],[169,17.22224],[169.5,17.37156],[170,17.51615],[170.5,17.65599],[171,17.79106],[171.5,17.92134],[172,18.04684],[172.5,18.16754],[173,18.28345],[173.5,18.39456],[174,18.50089],[174.5,18.60244],[175,18.69923],[175.5,18.79128],[176,18.87859],[176.5,18.9612],[177,19.03912],[177.5,19.11239],[178,19.18103],[178.5,19.24507],[179,19.30455],[179.5,19.35949],[180,19.40993]]}},{"type":"Feature","id":"+09890508:north:1","properties":{"id":"+09890508","year":989,"month":5,"day":8,"time_tdt":"01:01:52","type":"개기일식","type_code":"T","saros":102,"gamma":-0.03044,"magnitude":1.05227,"greatest":{"lat":16.7728,"lng":170.25336},"path_width_km":173.1,"duration":"05m01s","delta_t_seconds":1622.2,"catalog_number":7098,"source":"NASA Five Millennium Canon of Solar Eclipses","source_url":"https://eclipse.gsfc.nasa.gov/SEsearch/SEsearchmap.php?Ecl=%2B09890508","boundary":"north","name":"989-05-08 개기일식"},"geometry":{"type":"LineString","coordinates":[[-179.5,19.45592],[-179,19.49749],[-178.5,19.53468],[-178,19.56753],[-177.5,19.59608],[-177,19.62039],[-176.5,19.64049],[-176,19.65642],[-175.5,19.66825],[-175,19.676],[-174.5,19.67974],[-174,19.6795],[-173.5,19.67535],[-173,19.66732],[-172.5,19.65546],[-172,19.63984],[-171.5,19.62049],[-171,19.59747],[-170.5,19.57083],[-170,19.54063],[-169.5,19.50691],[-169,19.46972],[-168.5,19.42912],[-168,19.38515],[-167.5,19.33788],[-167,19.28735],[-166.5,19.23361],[-166,19.17671],[-165.5,19.11672],[-165,19.05367],[-164.5,18.98762],[-164,18.91863],[-163.5,18.84673],[-163,18.77199],[-162.5,18.69445],[-162,18.61417],[-161.5,18.5312],[-161,18.44558],[-160.5,18.35736],[-160,18.2666],[-159.5,18.17334],[-159,18.07764],[-158.5,17.97954],[-158,17.87909],[-157.5,17.77634],[-157,17.67134],[-156.5,17.56413],[-156,17.45476],[-155.5,17.34328],[-155,17.22974],[-154.5,17.11417],[-154,16.99663],[-153.5,16.87717],[-153,16.75581],[-152.5,16.63262],[-152,16.50764],[-151.5,16.3809],[-151,16.25245],[-150.5,16.12234],[-150,15.9906],[-149.5,15.85728],[-149,15.72242],[-148.5,15.58606],[-148,15.44824],[-147.5,15.309],[-147,15.16838],[-146.5,15.02642],[-146,14.88315],[-145.5,14.73862],[-145,14.59286],[-144.5,14.4459],[-144,14.2978],[-143.5,14.14857],[-143,13.99826],[-142.5,13.8469],[-142,13.69453],[-141.5,13.54118],[-141,13.38688],[-140.5,13.23167],[-140,13.07557],[-139.5,12.91862],[-139,12.76086],[-138.5,12.60231],[-138,12.443],[-137.5,12.28296],[-137,12.12222],[-136.5,11.96081],[-136,11.79877],[-135.5,11.63611],[-135,11.47286],[-134.5,11.30905],[-134,11.14472],[-133.5,10.97987],[-133,10.81454],[-132.5,10.64876],[-132,10.48255],[-131.5,10.31592],[-131,10.14892],[-130.5,9.98155],[-130,9.81384],[-129.5,9.64582],[-129,9.4775],[-128.5,9.30891],[-128,9.14007],[-127.5,8.97099],[-127,8.80171],[-126.5,8.63223],[-126,8.46258],[-125.5,8.29277],[-125,8.12283],[-124.5,7.95278],[-124,7.78262],[-123.78516,7.70948]]}},{"type":"Feature","id":"+09890508:center:0","properties":{"id":"+09890508","year":989,"month":5,"day":8,"time_tdt":"01:01:52","type":"개기일식","type_code":"T","saros":102,"gamma":-0.03044,"magnitude":1.05227,"greatest":{"lat":16.7728,"lng":170.25336},"path_width_km":173.1,"duration":"05m01s","delta_t_seconds":1622.2,"catalog_number":7098,"source":"NASA Five Millennium Canon of Solar Eclipses","source_url":"https://eclipse.gsfc.nasa.gov/SEsearch/SEsearchmap.php?Ecl=%2B09890508","boundary":"center","name":"989-05-08 개기일식"},"geometry":{"type":"LineString","coordinates":[[109.87038,-10.59953],[110,-10.55578],[110.5,-10.38715],[111,-10.21696],[111.5,-10.0452],[112,-9.87187],[112.5,-9.69695],[113,-9.52045],[113.5,-9.34234],[114,-9.16262],[114.5,-8.98128],[115,-8.79832],[115.5,-8.61372],[116,-8.42748],[116.5,-8.23959],[117,-8.05005],[117.5,-7.85884],[118,-7.66596],[118.5,-7.47141],[119,-7.27517],[119.5,-7.07724],[120,-6.87761],[120.5,-6.67629],[121,-6.47325],[121.5,-6.26851],[122,-6.06205],[122.5,-5.85388],[123,-5.64398],[123.5,-5.43236],[124,-5.21902],[124.5,-5.00395],[125,-4.78715],[125.5,-4.56862],[126,-4.34837],[126.5,-4.1264],[127,-3.9027],[127.5,-3.67729],[128,-3.45016],[128.5,-3.22132],[129,-2.99079],[129.5,-2.75856],[130,-2.52465],[130.5,-2.28906],[131,-2.05182],[131.5,-1.81293],[132,-1.5724],[132.5,-1.33026],[133,-1.08652],[133.5,-0.84121],[134,-0.59433],[134.5,-0.34593],[135,-0.09602],[135.5,0.15537],[136,0.4082],[136.5,0.66245],[137,0.91808],[137.5,1.17505],[138,1.43332],[138.5,1.69285],[139,1.95359],[139.5,2.2155],[140,2.47852],[140.5,2.7426],[141,3.00768],[141.5,3.2737],[142,3.54059],[142.5,3.8083],[143,4.07674],[143.5,4.34584],[144,4.61553],[144.5,4.88572],[145,5.15633],[145.5,5.42727],[146,5.69845],[146.5,5.96977],[147,6.24114],[147.5,6.51245],[148,6.78359],[148.5,7.05447],[149,7.32496],[149.5,7.59494],[150,7.86432],[150.5,8.13295],[151,8.40073],[151.5,8.66752],[152,8.93319],[152.5,9.19763],[153,9.46069],[153.5,9.72225],[154,9.98216],[154.5,10.24031],[155,10.49655],[155.5,10.75075],[156,11.00277],[156.5,11.25249],[157,11.49976],[157.5,11.74446],[158,11.98646],[158.5,12.22562],[159,12.46183],[159.5,12.69496],[160,12.92488],[160.5,13.15149],[161,13.37466],[161.5,13.59429],[162,13.81027],[162.5,14.0225],[163,14.23088],[163.5,14.43531],[164,14.63571],[164.5,14.83199],[165,15.02408],[165.5,15.21189],[166,15.39536],[166.5,15.57442],[167,15.74902],[167.5,15.9191],[168,16.08461],[168.5,16.24551],[169,16.40176],[169.5,16.55331],[170,16.70016],[170.5,16.84225],[171,16.97959],[171.5,17.11215],[172,17.23992],[172.5,17.36289],[173,17.48105],[173.5,17.59442],[174,17.70299],[174.5,17.80676],[175,17.90576],[175.5,17.99999],[176,18.08947],[176.5,18.17422],[177,18.25427],[177.5,18.32963],[178,18.40033],[178.5,18.46642],[179,18.52791],[179.5,18.58484],[180,18.63725]]}},{"type":"Feature","id":"+09890508:center:1","properties":{"id":"+09890508","year":989,"month":5,"day":8,"time_tdt":"01:01:52","type":"개기일식","type_code":"T","saros":102,"gamma":-0.03044,"magnitude":1.05227,"greatest":{"lat":16.7728,"lng":170.25336},"path_width_km":173.1,"duration":"05m01s","delta_t_seconds":1622.2,"catalog_number":7098,"source":"NASA Five Millennium Canon of Solar Eclipses","source_url":"https://eclipse.gsfc.nasa.gov/SEsearch/SEsearchmap.php?Ecl=%2B09890508","boundary":"center","name":"989-05-08 개기일식"},"geometry":{"type":"LineString","coordinates":[[-179.5,18.68517],[-179,18.72865],[-178.5,18.76772],[-178,18.80242],[-177.5,18.83281],[-177,18.85892],[-176.5,18.8808],[-176,18.8985],[-175.5,18.91206],[-175,18.92153],[-174.5,18.92696],[-174,18.92841],[-173.5,18.92591],[-173,18.91953],[-172.5,18.9093],[-172,18.8953],[-171.5,18.87755],[-171,18.85613],[-170.5,18.83108],[-170,18.80245],[-169.5,18.77029],[-169,18.73467],[-168.5,18.69563],[-168,18.65322],[-167.5,18.6075],[-167,18.55853],[-166.5,18.50635],[-166,18.45101],[-165.5,18.39258],[-165,18.3311],[-164.5,18.26663],[-164,18.19921],[-163.5,18.1289],[-163,18.05576],[-162.5,17.97983],[-162,17.90117],[-161.5,17.81982],[-161,17.73585],[-160.5,17.64929],[-160,17.5602],[-159.5,17.46863],[-159,17.37463],[-158.5,17.27825],[-158,17.17953],[-157.5,17.07853],[-157,16.9753],[-156.5,16.86988],[-156,16.76232],[-155.5,16.65266],[-155,16.54096],[-154.5,16.42726],[-154,16.31161],[-153.5,16.19405],[-153,16.07462],[-152.5,15.95338],[-152,15.83035],[-151.5,15.7056],[-151,15.57916],[-150.5,15.45107],[-150,15.32138],[-149.5,15.19013],[-149,15.05735],[-148.5,14.9231],[-148,14.7874],[-147.5,14.65031],[-147,14.51185],[-146.5,14.37207],[-146,14.231],[-145.5,14.08869],[-145,13.94517],[-144.5,13.80047],[-144,13.65463],[-143.5,13.50769],[-143,13.35969],[-142.5,13.21065],[-142,13.06062],[-141.5,12.90961],[-141,12.75768],[-140.5,12.60484],[-140,12.45114],[-139.5,12.2966],[-139,12.14126],[-138.5,11.98513],[-138,11.82827],[-137.5,11.67068],[-137,11.51241],[-136.5,11.35348],[-136,11.19391],[-135.5,11.03374],[-135,10.873],[-134.5,10.7117],[-134,10.54988],[-133.5,10.38756],[-133,10.22476],[-132.5,10.06151],[-132,9.89784],[-131.5,9.73376],[-131,9.5693],[-130.5,9.40449],[-130,9.23934],[-129.5,9.07387],[-129,8.90812],[-128.5,8.74209],[-128,8.57581],[-127.5,8.40931],[-127,8.24259],[-126.5,8.07568],[-126,7.90859],[-125.5,7.74135],[-125,7.57398],[-124.5,7.40648],[-124,7.23889],[-123.97348,7.22992]]}},{"type":"Feature","id":"+09890508:south:0","properties":{"id":"+09890508","year":989,"month":5,"day":8,"time_tdt":"01:01:52","type":"개기일식","type_code":"T","saros":102,"gamma":-0.03044,"magnitude":1.05227,"greatest":{"lat":16.7728,"lng":170.25336},"path_width_km":173.1,"duration":"05m01s","delta_t_seconds":1622.2,"catalog_number":7098,"source":"NASA Five Millennium Canon of Solar Eclipses","source_url":"https://eclipse.gsfc.nasa.gov/SEsearch/SEsearchmap.php?Ecl=%2B09890508","boundary":"south","name":"989-05-08 개기일식"},"geometry":{"type":"LineString","coordinates":[[110.06836,-11.09521],[110.5,-10.95224],[111,-10.7852],[111.5,-10.61662],[112,-10.44649],[112.5,-10.2748],[113,-10.10154],[113.5,-9.92671],[114,-9.75029],[114.5,-9.57228],[115,-9.39266],[115.5,-9.21144],[116,-9.0286],[116.5,-8.84414],[117,-8.65804],[117.5,-8.4703],[118,-8.28092],[118.5,-8.08988],[119,-7.89719],[119.5,-7.70283],[120,-7.50679],[120.5,-7.30908],[121,-7.10969],[121.5,-6.9086],[122,-6.70583],[122.5,-6.50136],[123,-6.29519],[123.5,-6.08731],[124,-5.87773],[124.5,-5.66645],[125,-5.45345],[125.5,-5.23875],[126,-5.02233],[126.5,-4.80421],[127,-4.58439],[127.5,-4.36286],[128,-4.13963],[128.5,-3.9147],[129,-3.68809],[129.5,-3.45979],[130,-3.22982],[130.5,-2.99818],[131,-2.76488],[131.5,-2.52995],[132,-2.29338],[132.5,-2.05519],[133,-1.81541],[133.5,-1.57404],[134,-1.33112],[134.5,-1.08665],[135,-0.84066],[135.5,-0.59319],[136,-0.34425],[136.5,-0.09388],[137,0.1579],[137.5,0.41104],[138,0.66551],[138.5,0.92127],[139,1.17827],[139.5,1.43648],[140,1.69585],[140.5,1.95632],[141,2.21783],[141.5,2.48035],[142,2.74379],[142.5,3.0081],[143,3.27322],[143.5,3.53907],[144,3.80558],[144.5,4.07266],[145,4.34026],[145.5,4.60826],[146,4.8766],[146.5,5.14518],[147,5.4139],[147.5,5.68267],[148,5.95138],[148.5,6.21993],[149,6.48821],[149.5,6.75612],[150,7.02353],[150.5,7.29033],[151,7.5564],[151.5,7.82161],[152,8.08586],[152.5,8.34899],[153,8.61089],[153.5,8.87143],[154,9.13047],[154.5,9.38788],[155,9.64353],[155.5,9.89728],[156,10.149],[156.5,10.39855],[157,10.64581],[157.5,10.89062],[158,11.13288],[158.5,11.37243],[159,11.60916],[159.5,11.84294],[160,12.07364],[160.5,12.30115],[161,12.52534],[161.5,12.74609],[162,12.96331],[162.5,13.17688],[163,13.38669],[163.5,13.59265],[164,13.79466],[164.5,13.99264],[165,14.1865],[165.5,14.37615],[166,14.56153],[166.5,14.74255],[167,14.91917],[167.5,15.09131],[168,15.25893],[168.5,15.42197],[169,15.58039],[169.5,15.73415],[170,15.88321],[170.5,16.02754],[171,16.16713],[171.5,16.30194],[172,16.43197],[172.5,16.5572],[173,16.67763],[173.5,16.79325],[174,16.90406],[174.5,17.01007],[175,17.11128],[175.5,17.20772],[176,17.29938],[176.5,17.3863],[177,17.46848],[177.5,17.54597],[178,17.61877],[178.5,17.68693],[179,17.75047],[179.5,17.80942],[180,17.86383]]}},{"type":"Feature","id":"+09890508:south:1","properties":{"id":"+09890508","year":989,"month":5,"day":8,"time_tdt":"01:01:52","type":"개기일식","type_code":"T","saros":102,"gamma":-0.03044,"magnitude":1.05227,"greatest":{"lat":16.7728,"lng":170.25336},"path_width_km":173.1,"duration":"05m01s","delta_t_seconds":1622.2,"catalog_number":7098,"source":"NASA Five Millennium Canon of Solar Eclipses","source_url":"https://eclipse.gsfc.nasa.gov/SEsearch/SEsearchmap.php?Ecl=%2B09890508","boundary":"south","name":"989-05-08 개기일식"},"geometry":{"type":"LineString","coordinates":[[-179.5,17.91373],[-179,17.95915],[-178.5,18.00014],[-178,18.03675],[-177.5,18.06901],[-177,18.09697],[-176.5,18.12068],[-176,18.14019],[-175.5,18.15553],[-175,18.16677],[-174.5,18.17395],[-174,18.17712],[-173.5,18.17634],[-173,18.17165],[-172.5,18.16311],[-172,18.15077],[-171.5,18.13469],[-171,18.11491],[-170.5,18.09149],[-170,18.0645],[-169.5,18.03397],[-169,17.99996],[-168.5,17.96254],[-168,17.92174],[-167.5,17.87764],[-167,17.83027],[-166.5,17.7797],[-166,17.72599],[-165.5,17.66917],[-165,17.60931],[-164.5,17.54647],[-164,17.48069],[-163.5,17.41203],[-163,17.34054],[-162.5,17.26627],[-162,17.18928],[-161.5,17.10962],[-161,17.02734],[-160.5,16.94249],[-160,16.85512],[-159.5,16.76529],[-159,16.67304],[-158.5,16.57843],[-158,16.4815],[-157.5,16.3823],[-157,16.28089],[-156.5,16.1773],[-156,16.0716],[-155.5,15.96382],[-155,15.85401],[-154.5,15.74221],[-154,15.62849],[-153.5,15.51287],[-153,15.39541],[-152.5,15.27615],[-152,15.15513],[-151.5,15.03241],[-151,14.90801],[-150.5,14.78198],[-150,14.65437],[-149.5,14.52522],[-149,14.39456],[-148.5,14.26244],[-148,14.1289],[-147.5,13.99398],[-147,13.85772],[-146.5,13.72014],[-146,13.5813],[-145.5,13.44123],[-145,13.29997],[-144.5,13.15755],[-144,13.01401],[-143.5,12.86938],[-143,12.72369],[-142.5,12.57699],[-142,12.42931],[-141.5,12.28067],[-141,12.13112],[-140.5,11.98068],[-140,11.82938],[-139.5,11.67725],[-139,11.52433],[-138.5,11.37065],[-138,11.21623],[-137.5,11.06111],[-137,10.9053],[-136.5,10.74885],[-136,10.59177],[-135.5,10.4341],[-135,10.27585],[-134.5,10.11707],[-134,9.95776],[-133.5,9.79796],[-133,9.63768],[-132.5,9.47697],[-132,9.31583],[-131.5,9.1543],[-131,8.99238],[-130.5,8.83011],[-130,8.66751],[-129.5,8.5046],[-129,8.3414],[-128.5,8.17793],[-128,8.0142],[-127.5,7.85025],[-127,7.68609],[-126.5,7.52173],[-126,7.3572],[-125.5,7.19251],[-125,7.02769],[-124.5,6.86274],[-124.16406,6.75186]]}},{"type":"Feature","id":"+09891101:north:0","properties":{"id":"+09891101","year":989,"month":11,"day":1,"time_tdt":"12:05:28","type":"금환일식","type_code":"A","saros":107,"gamma":0.19886,"magnitude":0.92614,"greatest":{"lat":-5.09726,"lng":3.90417},"path_width_km":283.3,"duration":"10m14s","delta_t_seconds":1619.4,"catalog_number":7099,"source":"NASA Five Millennium Canon of Solar Eclipses","source_url":"https://eclipse.gsfc.nasa.gov/SEsearch/SEsearchmap.php?Ecl=%2B09891101","boundary":"north","name":"989-11-01 금환일식"},"geometry":{"type":"LineString","coordinates":[[-52,23.55074],[-51.5,23.39903],[-51,23.24571],[-50.5,23.09076],[-50,22.93415],[-49.5,22.77589],[-49,22.61596],[-48.5,22.45433],[-48,22.291],[-47.5,22.12594],[-47,21.95915],[-46.5,21.7906],[-46,21.62029],[-45.5,21.44818],[-45,21.27428],[-44.5,21.09856],[-44,20.921],[-43.5,20.74158],[-43,20.5603],[-42.5,20.37713],[-42,20.19206],[-41.5,20.00507],[-41,19.81613],[-40.5,19.62524],[-40,19.43238],[-39.5,19.23753],[-39,19.04066],[-38.5,18.84177],[-38,18.64084],[-37.5,18.43784],[-37,18.23276],[-36.5,18.02559],[-36,17.8163],[-35.5,17.60489],[-35,17.39132],[-34.5,17.17559],[-34,16.95768],[-33.5,16.73757],[-33,16.51525],[-32.5,16.29071],[-32,16.06392],[-31.5,15.83487],[-31,15.60355],[-30.5,15.36996],[-30,15.13407],[-29.5,14.89587],[-29,14.65536],[-28.5,14.41252],[-28,14.16736],[-27.5,13.91985],[-27,13.67001],[-26.5,13.41781],[-26,13.16327],[-25.5,12.90639],[-25,12.64716],[-24.5,12.38559],[-24,12.12169],[-23.5,11.85546],[-23,11.58693],[-22.5,11.3161],[-22,11.043],[-21.5,10.76765],[-21,10.49008],[-20.5,10.21031],[-20,9.92838],[-19.5,9.64433],[-19,9.35821],[-18.5,9.07007],[-18,8.77995],[-17.5,8.48794],[-17,8.19408],[-16.5,7.89847],[-16,7.60117],[-15.5,7.30228],[-15,7.0019],[-14.5,6.70013],[-14,6.39709],[-13.5,6.09289],[-13,5.78768],[-12.5,5.48158],[-12,5.17474],[-11.5,4.86734],[-11,4.55953],[-10.5,4.25149],[-10,3.9434],[-9.5,3.63548],[-9,3.32791],[-8.5,3.02092],[-8,2.71473],[-7.5,2.40956],[-7,2.10567],[-6.5,1.80328],[-6,1.50266],[-5.5,1.20406],[-5,0.90773],[-4.5,0.61395],[-4,0.32297],[-3.5,0.03507],[-3,-0.2495],[-2.5,-0.53046],[-2,-0.80756],[-1.5,-1.08054],[-1,-1.34915],[-0.5,-1.61315],[0,-1.8723],[0.5,-2.12638],[1,-2.37517],[1.5,-2.61847],[2,-2.85609],[2.5,-3.08784],[3,-3.31357],[3.5,-3.53312],[4,-3.74636],[4.5,-3.95317],[5,-4.15343],[5.5,-4.34707],[6,-4.534],[6.5,-4.71417],[7,-4.88752],[7.5,-5.05402],[8,-5.21366],[8.5,-5.36642],[9,-5.51231],[9.5,-5.65135],[10,-5.78356],[10.5,-5.90898],[11,-6.02766],[11.5,-6.13966],[12,-6.24503],[12.5,-6.34384],[13,-6.43618],[13.5,-6.52213],[14,-6.60177],[14.5,-6.6752],[15,-6.74251],[15.5,-6.80381],[16,-6.85919],[16.5,-6.90877],[17,-6.95264],[17.5,-6.99092],[18,-7.02373],[18.5,-7.05115],[19,-7.07333],[19.5,-7.09035],[20,-7.10233],[20.5,-7.1094],[21,-7.11164],[21.5,-7.10919],[22,-7.10214],[22.5,-7.0906],[23,-7.07469],[23.5,-7.0545],[24,-7.03015],[24.5,-7.00172],[25,-6.96934],[25.5,-6.93309],[26,-6.89307],[26.5,-6.84939],[27,-6.80213],[27.5,-6.75139],[28,-6.69726],[28.5,-6.63983],[29,-6.57919],[29.5,-6.51543],[30,-6.44862],[30.5,-6.37885],[31,-6.30621],[31.5,-6.23077],[32,-6.15261],[32.5,-6.0718],[33,-5.98842],[33.5,-5.90254],[34,-5.81423],[34.5,-5.72356],[35,-5.6306],[35.5,-5.53542],[36,-5.43807],[36.5,-5.33863],[37,-5.23715],[37.5,-5.13369],[38,-5.02832],[38.5,-4.92108],[39,-4.81204],[39.5,-4.70124],[40,-4.58875],[40.5,-4.47462],[41,-4.35889],[41.5,-4.24161],[42,-4.12284],[42.5,-4.00262],[43,-3.88099],[43.5,-3.75801],[44,-3.63371],[44.5,-3.50813],[45,-3.38133],[45.5,-3.25333],[46,-3.12419],[46.5,-2.99393],[47,-2.86259],[47.5,-2.73022],[48,-2.59685],[48.5,-2.46251],[49,-2.32724],[49.5,-2.19107],[50,-2.05404],[50.5,-1.91616],[51,-1.77749],[51.5,-1.63804],[52,-1.49784],[52.5,-1.35693],[53,-1.21533],[53.5,-1.07308],[54,-0.93018],[54.5,-0.78668],[55,-0.6426],[55.5,-0.49796],[56,-0.35279],[56.5,-0.20711],[57,-0.06094],[57.5,0.0857],[58,0.23277],[58.5,0.38027],[59,0.52817],[59.5,0.67645],[60,0.82509],[60.5,0.97407],[61,1.12337],[61.5,1.27298],[62,1.42287],[62.23828,1.4944]]}},{"type":"Feature","id":"+09891101:center:0","properties":{"id":"+09891101","year":989,"month":11,"day":1,"time_tdt":"12:05:28","type":"금환일식","type_code":"A","saros":107,"gamma":0.19886,"magnitude":0.92614,"greatest":{"lat":-5.09726,"lng":3.90417},"path_width_km":283.3,"duration":"10m14s","delta_t_seconds":1619.4,"catalog_number":7099,"source":"NASA Five Millennium Canon of Solar Eclipses","source_url":"https://eclipse.gsfc.nasa.gov/SEsearch/SEsearchmap.php?Ecl=%2B09891101","boundary":"center","name":"989-11-01 금환일식"},"geometry":{"type":"LineString","coordinates":[[-52.55332,22.11434],[-52.5,22.09575],[-52,21.94675],[-51.5,21.79614],[-51,21.6439],[-50.5,21.49002],[-50,21.33448],[-49.5,21.17728],[-49,21.01839],[-48.5,20.8578],[-48,20.6955],[-47.5,20.53146],[-47,20.36568],[-46.5,20.19813],[-46,20.0288],[-45.5,19.85767],[-45,19.68473],[-44.5,19.50996],[-44,19.33334],[-43.5,19.15485],[-43,18.97449],[-42.5,18.79222],[-42,18.60804],[-41.5,18.42193],[-41,18.23386],[-40.5,18.04382],[-40,17.8518],[-39.5,17.65777],[-39,17.46172],[-38.5,17.26363],[-38,17.06348],[-37.5,16.86126],[-37,16.65694],[-36.5,16.45052],[-36,16.24196],[-35.5,16.03126],[-35,15.81841],[-34.5,15.60337],[-34,15.38614],[-33.5,15.1667],[-33,14.94504],[-32.5,14.72114],[-32,14.49498],[-31.5,14.26656],[-31,14.03586],[-30.5,13.80286],[-30,13.56757],[-29.5,13.32996],[-29,13.09003],[-28.5,12.84777],[-28,12.60317],[-27.5,12.35624],[-27,12.10696],[-26.5,11.85533],[-26,11.60136],[-25.5,11.34504],[-25,11.08639],[-24.5,10.82541],[-24,10.5621],[-23.5,10.29648],[-23,10.02857],[-22.5,9.75839],[-22,9.48596],[-21.5,9.21129],[-21,8.93444],[-20.5,8.65542],[-20,8.37428],[-19.5,8.09107],[-19,7.80582],[-18.5,7.51861],[-18,7.22949],[-17.5,6.93852],[-17,6.64579],[-16.5,6.35136],[-16,6.05534],[-15.5,5.75781],[-15,5.45889],[-14.5,5.15867],[-14,4.85729],[-13.5,4.55487],[-13,4.25155],[-12.5,3.94747],[-12,3.64279],[-11.5,3.33768],[-11,3.03231],[-10.5,2.72686],[-10,2.42153],[-9.5,2.11652],[-9,1.81203],[-8.5,1.50828],[-8,1.20551],[-7.5,0.90394],[-7,0.6038],[-6.5,0.30535],[-6,0.00883],[-5.5,-0.2855],[-5,-0.57739],[-4.5,-0.86658],[-4,-1.15281],[-3.5,-1.43583],[-3,-1.71539],[-2.5,-1.99122],[-2,-2.26308],[-1.5,-2.53074],[-1,-2.79394],[-0.5,-3.05247],[0,-3.30612],[0.5,-3.55466],[1,-3.7979],[1.5,-4.03566],[2,-4.26776],[2.5,-4.49405],[3,-4.71438],[3.5,-4.92861],[4,-5.13663],[4.5,-5.33833],[5,-5.53362],[5.5,-5.72242],[6,-5.90468],[6.5,-6.08035],[7,-6.24938],[7.5,-6.41176],[8,-6.56747],[8.5,-6.71652],[9,-6.85892],[9.5,-6.99469],[10,-7.12385],[10.5,-7.24646],[11,-7.36256],[11.5,-7.4722],[12,-7.57545],[12.5,-7.67238],[13,-7.76307],[13.5,-7.84759],[14,-7.92603],[14.5,-7.99848],[15,-8.06502],[15.5,-8.12577],[16,-8.18081],[16.5,-8.23024],[17,-8.27417],[17.5,-8.3127],[18,-8.34593],[18.5,-8.37397],[19,-8.39692],[19.5,-8.41489],[20,-8.42798],[20.5,-8.43631],[21,-8.43996],[21.5,-8.43905],[22,-8.43368],[22.5,-8.42396],[23,-8.40997],[23.5,-8.39183],[24,-8.36963],[24.5,-8.34347],[25,-8.31345],[25.5,-8.27965],[26,-8.24218],[26.5,-8.20112],[27,-8.15657],[27.5,-8.1086],[28,-8.05732],[28.5,-8.00281],[29,-7.94514],[29.5,-7.8844],[30,-7.82067],[30.5,-7.75403],[31,-7.68456],[31.5,-7.61234],[32,-7.53742],[32.5,-7.4599],[33,-7.37984],[33.5,-7.29731],[34,-7.21237],[34.5,-7.1251],[35,-7.03556],[35.5,-6.94381],[36,-6.84991],[36.5,-6.75393],[37,-6.65593],[37.5,-6.55595],[38,-6.45407],[38.5,-6.35033],[39,-6.24479],[39.5,-6.1375],[40,-6.02852],[40.5,-5.91788],[41,-5.80565],[41.5,-5.69188],[42,-5.5766],[42.5,-5.45986],[43,-5.34172],[43.5,-5.2222],[44,-5.10136],[44.5,-4.97924],[45,-4.85588],[45.5,-4.73131],[46,-4.60558],[46.5,-4.47873],[47,-4.35079],[47.5,-4.22179],[48,-4.09178],[48.5,-3.96079],[49,-3.82885],[49.5,-3.69599],[50,-3.56225],[50.5,-3.42765],[51,-3.29223],[51.5,-3.15603],[52,-3.01905],[52.5,-2.88135],[53,-2.74293],[53.5,-2.60384],[54,-2.4641],[54.5,-2.32372],[55,-2.18275],[55.5,-2.04119],[56,-1.89909],[56.5,-1.75645],[57,-1.61331],[57.5,-1.46968],[58,-1.32558],[58.5,-1.18105],[59,-1.03609],[59.5,-0.89074],[60,-0.745],[60.5,-0.5989],[61,-0.45246],[61.5,-0.30569],[62,-0.15862],[62.5,-0.01126],[62.61554,0.02263]]}},{"type":"Feature","id":"+09891101:south:0","properties":{"id":"+09891101","year":989,"month":11,"day":1,"time_tdt":"12:05:28","type":"금환일식","type_code":"A","saros":107,"gamma":0.19886,"magnitude":0.92614,"greatest":{"lat":-5.09726,"lng":3.90417},"path_width_km":283.3,"duration":"10m14s","delta_t_seconds":1619.4,"catalog_number":7099,"source":"NASA Five Millennium Canon of Solar Eclipses","source_url":"https://eclipse.gsfc.nasa.gov/SEsearch/SEsearchmap.php?Ecl=%2B09891101","boundary":"south","name":"989-11-01 금환일식"},"geometry":{"type":"LineString","coordinates":[[-53.01953,20.64971],[-53,20.64403],[-52.5,20.49772],[-52,20.34981],[-51.5,20.20028],[-51,20.04912],[-50.5,19.8963],[-50,19.74183],[-49.5,19.58567],[-49,19.42782],[-48.5,19.26826],[-48,19.10697],[-47.5,18.94394],[-47,18.77915],[-46.5,18.61259],[-46,18.44423],[-45.5,18.27407],[-45,18.10208],[-44.5,17.92825],[-44,17.75256],[-43.5,17.57499],[-43,17.39553],[-42.5,17.21416],[-42,17.03086],[-41.5,16.84561],[-41,16.65839],[-40.5,16.4692],[-40,16.278],[-39.5,16.08479],[-39,15.88954],[-38.5,15.69224],[-38,15.49287],[-37.5,15.29141],[-37,15.08784],[-36.5,14.88216],[-36,14.67433],[-35.5,14.46434],[-35,14.25218],[-34.5,14.03783],[-34,13.82128],[-33.5,13.6025],[-33,13.38149],[-32.5,13.15823],[-32,12.93271],[-31.5,12.70491],[-31,12.47482],[-30.5,12.24244],[-30,12.00774],[-29.5,11.77073],[-29,11.53138],[-28.5,11.28971],[-28,11.0457],[-27.5,10.79934],[-27,10.55064],[-26.5,10.2996],[-26,10.04622],[-25.5,9.7905],[-25,9.53246],[-24.5,9.27209],[-24,9.00942],[-23.5,8.74445],[-23,8.47721],[-22.5,8.20772],[-22,7.936],[-21.5,7.66209],[-21,7.38602],[-20.5,7.10782],[-20,6.82755],[-19.5,6.54525],[-19,6.26098],[-18.5,5.97479],[-18,5.68676],[-17.5,5.39695],[-17,5.10545],[-16.5,4.81234],[-16,4.51773],[-15.5,4.2217],[-15,3.92437],[-14.5,3.62587],[-14,3.32631],[-13.5,3.02583],[-13,2.72457],[-12.5,2.4227],[-12,2.12036],[-11.5,1.81774],[-11,1.515],[-10.5,1.21235],[-10,0.90997],[-9.5,0.60807],[-9,0.30687],[-8.5,0.00657],[-8,-0.29258],[-7.5,-0.59036],[-7,-0.88654],[-6.5,-1.18086],[-6,-1.47309],[-5.5,-1.76297],[-5,-2.05026],[-4.5,-2.33471],[-4,-2.61606],[-3.5,-2.89408],[-3,-3.16851],[-2.5,-3.43912],[-2,-3.70567],[-1.5,-3.96793],[-1,-4.2257],[-0.5,-4.47874],[0,-4.72687],[0.5,-4.96989],[1,-5.20763],[1.5,-5.4399],[2,-5.66657],[2.5,-5.88748],[3,-6.10251],[3.5,-6.31154],[4,-6.51447],[4.5,-6.7112],[5,-6.90167],[5.5,-7.08581],[6,-7.26357],[6.5,-7.43491],[7,-7.59981],[7.5,-7.75825],[8,-7.91023],[8.5,-8.05576],[9,-8.19485],[9.5,-8.32753],[10,-8.45383],[10.5,-8.5738],[11,-8.68749],[11.5,-8.79495],[12,-8.89624],[12.5,-8.99144],[13,-9.08062],[13.5,-9.16386],[14,-9.24123],[14.5,-9.31282],[15,-9.37873],[15.5,-9.43904],[16,-9.49384],[16.5,-9.54323],[17,-9.58731],[17.5,-9.62617],[18,-9.65991],[18.5,-9.68864],[19,-9.71244],[19.5,-9.73142],[20,-9.74568],[20.5,-9.75531],[21,-9.76042],[21.5,-9.76111],[22,-9.75746],[22.5,-9.74958],[23,-9.73756],[23.5,-9.7215],[24,-9.70149],[24.5,-9.67761],[25,-9.64997],[25.5,-9.61865],[26,-9.58374],[26.5,-9.54533],[27,-9.50349],[27.5,-9.45833],[28,-9.40991],[28.5,-9.35831],[29,-9.30363],[29.5,-9.24593],[30,-9.1853],[30.5,-9.1218],[31,-9.05551],[31.5,-8.98651],[32,-8.91486],[32.5,-8.84064],[33,-8.7639],[33.5,-8.68473],[34,-8.60318],[34.5,-8.51931],[35,-8.4332],[35.5,-8.3449],[36,-8.25446],[36.5,-8.16196],[37,-8.06744],[37.5,-7.97097],[38,-7.87259],[38.5,-7.77236],[39,-7.67034],[39.5,-7.56656],[40,-7.4611],[40.5,-7.35398],[41,-7.24527],[41.5,-7.13501],[42,-7.02324],[42.5,-6.91001],[43,-6.79536],[43.5,-6.67933],[44,-6.56197],[44.5,-6.44332],[45,-6.32342],[45.5,-6.2023],[46,-6.08],[46.5,-5.95657],[47,-5.83204],[47.5,-5.70644],[48,-5.5798],[48.5,-5.45217],[49,-5.32358],[49.5,-5.19405],[50,-5.06362],[50.5,-4.93232],[51,-4.80018],[51.5,-4.66723],[52,-4.5335],[52.5,-4.39901],[53,-4.2638],[53.5,-4.12789],[54,-3.99131],[54.5,-3.85407],[55,-3.71622],[55.5,-3.57777],[56,-3.43874],[56.5,-3.29917],[57,-3.15906],[57.5,-3.01845],[58,-2.87736],[58.5,-2.7358],[59,-2.5938],[59.5,-2.45138],[60,-2.30856],[60.5,-2.16535],[61,-2.02178],[61.5,-1.87787],[62,-1.73362],[62.5,-1.58907],[63,-1.44422]]}}],"attribution":"Eclipse Predictions by Fred Espenak and Jean Meeus (NASA's GSFC)","generated_at":"2026-09-23T03:35:39.814Z"}
